{"type":"FeatureCollection","features":[{"type":"Feature","geometry":{"type":"Polygon","coordinates":[[[97.3575,3.6221],[97.2951,3.5952],[97.2836,3.6434],[97.267,3.6488],[97.2109,3.6865],[97.1545,3.7415],[97.1311,3.6843],[97.0356,3.6008],[96.9695,3.6183],[96.9425,3.5739],[97.0023,3.5474],[97.0851,3.3946],[97.1244,3.3508],[97.1694,3.2576],[97.243,3.2354],[97.2775,3.1813],[97.316,3.0551],[97.3962,2.9606],[97.4477,2.9237],[97.5405,2.8842],[97.5784,2.8915],[97.6146,2.8334],[97.65,2.6761],[97.665,2.3949],[97.71,2.4091],[97.733,2.4236],[97.791,2.4984],[97.7955,2.5484],[97.8252,2.6369],[97.7665,2.7881],[97.7846,2.8049],[97.8577,2.843],[97.8586,2.8819],[97.9057,2.9118],[97.9004,2.9663],[97.8148,2.983],[97.8073,2.9607],[97.7982,2.975],[97.7722,2.9609],[97.7536,2.9271],[97.6406,2.9535],[97.6429,3.0299],[97.6155,3.0921],[97.6038,3.1086],[97.5169,3.1705],[97.4774,3.217],[97.4747,3.3232],[97.4403,3.3961],[97.3983,3.4504],[97.4509,3.5359],[97.4841,3.5432],[97.4631,3.6187],[97.3575,3.6221]]]},"properties":{"code":"11.01","name":"Kabupaten Aceh Selatan"}},{"type":"Feature","geometry":{"type":"Polygon","coordinates":[[[97.8005,3.7226],[97.8248,3.7495],[97.636,3.7337],[97.3514,3.6759],[97.2065,3.6913],[97.2818,3.6462],[97.295,3.5952],[97.3575,3.6221],[97.4631,3.6187],[97.4841,3.5432],[97.4509,3.5359],[97.3982,3.4508],[97.4403,3.3961],[97.4747,3.3232],[97.4774,3.217],[97.5169,3.1705],[97.6117,3.0988],[97.6429,3.0299],[97.6406,2.9535],[97.7472,2.9276],[97.7625,2.9343],[97.7704,2.9588],[97.7885,2.972],[97.8148,2.983],[97.8372,3.0033],[97.9376,3.0292],[97.9301,3.0547],[97.9499,3.0748],[97.9528,3.065],[97.9752,3.073],[97.9838,3.0856],[97.9822,3.1161],[97.9706,3.1384],[97.9424,3.1641],[97.9477,3.2008],[97.9322,3.2104],[97.9046,3.2581],[97.969,3.2737],[98.0293,3.3308],[98.0034,3.3689],[97.9778,3.3718],[97.9507,3.413],[97.9066,3.5552],[97.8681,3.5711],[97.8447,3.6606],[97.8005,3.7226]]]},"properties":{"code":"11.02","name":"Kabupaten Aceh Tenggara"}},{"type":"Feature","geometry":{"type":"Polygon","coordinates":[[[97.9542,4.5369],[97.9982,4.5882],[97.9958,4.6393],[97.963,4.6654],[97.9623,4.7156],[97.9072,4.8914],[97.8403,4.9072],[97.7823,4.9651],[97.6752,5.0479],[97.652,5.1232],[97.591,5.1437],[97.5534,5.2123],[97.4996,5.2131],[97.488,5.2092],[97.4962,5.203],[97.4983,5.1585],[97.4658,5.1535],[97.4596,5.112],[97.4917,5.0719],[97.5135,5.0509],[97.4736,4.9241],[97.4785,4.921],[97.49,4.9072],[97.5062,4.8913],[97.4968,4.8753],[97.4881,4.8668],[97.4114,4.7807],[97.3621,4.7678],[97.3549,4.7719],[97.3501,4.7794],[97.3282,4.706],[97.2757,4.6285],[97.3057,4.6202],[97.3143,4.5976],[97.3171,4.5486],[97.297,4.5269],[97.29,4.5006],[97.3429,4.4999],[97.3682,4.3822],[97.3494,4.25],[97.3589,4.2143],[97.4246,4.1743],[97.498,4.1557],[97.5625,4.1981],[97.6025,4.2506],[97.6463,4.2199],[97.7329,4.2492],[97.7497,4.2949],[97.7849,4.3565],[97.8384,4.3698],[97.8565,4.3868],[97.9074,4.3903],[97.9335,4.3601],[97.9639,4.3698],[97.9825,4.4193],[97.9659,4.4434],[97.8678,4.4548],[97.9168,4.5314],[97.9542,4.5369]]]},"properties":{"code":"11.03","name":"Kabupaten Aceh Timur"}},{"type":"Feature","geometry":{"type":"Polygon","coordinates":[[[96.6716,4.9382],[96.6165,4.9556],[96.5984,4.9385],[96.5731,4.9477],[96.5408,4.9369],[96.466,4.8686],[96.4773,4.8447],[96.4704,4.762],[96.3988,4.76],[96.2821,4.7798],[96.2575,4.7067],[96.3612,4.67],[96.381,4.6759],[96.4475,4.6231],[96.4844,4.6309],[96.4921,4.6246],[96.5031,4.6322],[96.576,4.5756],[96.6462,4.5569],[96.6557,4.5297],[96.6887,4.4698],[96.6278,4.4063],[96.6839,4.3942],[96.7189,4.354],[96.7585,4.2953],[96.8366,4.2816],[96.8875,4.2211],[96.9281,4.2002],[96.973,4.2002],[97.0151,4.2045],[97.1095,4.2365],[97.162,4.2791],[97.2159,4.2357],[97.2407,4.1745],[97.3589,4.2143],[97.3494,4.25],[97.3682,4.3822],[97.3429,4.4999],[97.29,4.5006],[97.297,4.5269],[97.3171,4.5486],[97.3125,4.6046],[97.2322,4.6042],[97.1696,4.5781],[97.0508,4.6032],[97.0207,4.6439],[96.8091,4.6728],[96.7874,4.7132],[96.7468,4.7126],[96.7106,4.7526],[96.6858,4.7676],[96.7084,4.8183],[96.6716,4.9382]]]},"properties":{"code":"11.04","name":"Kabupaten Aceh Tengah"}},{"type":"Feature","geometry":{"type":"Polygon","coordinates":[[[96.2603,4.7124],[96.2433,4.7123],[96.1676,4.7501],[96.1586,4.7107],[96.1113,4.6896],[96.1068,4.7497],[96.0002,4.7495],[96.0428,4.6599],[96.0419,4.5855],[95.9575,4.5101],[95.8763,4.3698],[96.0193,4.2124],[96.0545,4.2068],[96.1228,4.1398],[96.1897,4.1069],[96.2679,4.1439],[96.2713,4.1689],[96.252,4.2443],[96.2787,4.3077],[96.3411,4.377],[96.364,4.3927],[96.4822,4.4611],[96.4728,4.5453],[96.4909,4.5461],[96.4963,4.5596],[96.4944,4.6152],[96.4851,4.6306],[96.4475,4.6231],[96.381,4.6759],[96.3612,4.67],[96.2575,4.7067],[96.2603,4.7124]]]},"properties":{"code":"11.05","name":"Kabupaten Aceh Barat"}},{"type":"Feature","geometry":{"type":"MultiPolygon","coordinates":[[[[95.7447,5.5694],[95.6858,5.5848],[95.6107,5.6278],[95.4914,5.609],[95.4336,5.6566],[95.3503,5.5947],[95.3529,5.5609],[95.3596,5.5412],[95.3436,5.5278],[95.3092,5.5171],[95.2801,5.536],[95.1935,5.5275],[95.2439,5.4576],[95.2528,5.3764],[95.2387,5.3246],[95.2543,5.2208],[95.3083,5.1676],[95.3321,5.179],[95.3488,5.2336],[95.3664,5.2542],[95.4015,5.2125],[95.4987,5.2202],[95.5971,5.1922],[95.6222,5.1648],[95.6318,5.1268],[95.6301,5.0917],[95.7055,5.052],[95.7336,5.053],[95.8207,5.0855],[95.8399,5.1415],[95.8283,5.1715],[95.7892,5.2171],[95.7748,5.2534],[95.7485,5.3189],[95.7588,5.4312],[95.7749,5.4563],[95.726,5.5005],[95.7447,5.5694]]],[[[95.0589,5.7503],[95.0388,5.7071],[95.084,5.6633],[95.1325,5.6862],[95.0589,5.7503]]]]},"properties":{"code":"11.06","name":"Kabupaten Aceh Besar"}},{"type":"Feature","geometry":{"type":"Polygon","coordinates":[[[96.0641,5.2971],[96.0496,5.3275],[95.9387,5.4104],[95.8913,5.4613],[95.8856,5.5061],[95.7447,5.5694],[95.726,5.5005],[95.7749,5.4563],[95.7588,5.4312],[95.7485,5.3189],[95.7748,5.2534],[95.7915,5.2134],[95.8326,5.1647],[95.8407,5.1361],[95.8207,5.0855],[95.7621,5.0555],[95.7835,5.0088],[95.8814,4.9159],[95.9013,4.8681],[95.9921,4.786],[95.9955,4.7543],[96.1068,4.7497],[96.1113,4.6896],[96.1586,4.7107],[96.1676,4.7501],[96.2433,4.7123],[96.2603,4.7124],[96.2821,4.7798],[96.3988,4.76],[96.4709,4.7623],[96.4773,4.8447],[96.466,4.8686],[96.4638,4.9142],[96.4025,4.9411],[96.3766,4.9304],[96.3541,4.9444],[96.3445,4.9426],[96.3221,4.9156],[96.2767,4.9097],[96.26,4.9159],[96.248,4.9367],[96.19,4.9974],[96.193,5.0769],[96.1264,5.0779],[96.0576,5.1085],[96.0203,5.1459],[96.0565,5.2022],[96.0367,5.237],[96.0641,5.2971]]]},"properties":{"code":"11.07","name":"Kabupaten Pidie"}},{"type":"Feature","geometry":{"type":"Polygon","coordinates":[[[97.0486,5.199],[97.033,5.2505],[96.9771,5.2627],[96.9075,5.2511],[96.9082,5.2215],[96.9169,5.2226],[96.9163,5.2065],[96.8757,5.1172],[96.8336,5.0888],[96.821,4.9954],[96.7883,4.9378],[96.8444,4.8981],[96.9554,4.8588],[97.0014,4.865],[97.0105,4.9037],[97.0465,4.9054],[97.1013,4.8985],[97.121,4.9096],[97.1456,4.9103],[97.2427,4.8735],[97.2802,4.8264],[97.28,4.8076],[97.2522,4.758],[97.2954,4.7416],[97.3501,4.7794],[97.3549,4.7719],[97.3621,4.7678],[97.4114,4.7807],[97.4881,4.8668],[97.4968,4.8753],[97.5062,4.8913],[97.49,4.9072],[97.4785,4.921],[97.4736,4.9241],[97.5135,5.0509],[97.4917,5.0719],[97.4596,5.112],[97.4658,5.1535],[97.4983,5.1585],[97.4962,5.203],[97.488,5.2092],[97.4996,5.2131],[97.4836,5.2431],[97.1763,5.1421],[97.1777,5.0837],[97.1525,5.0803],[97.1465,5.092],[97.0655,5.1621],[97.0486,5.199]]]},"properties":{"code":"11.08","name":"Kabupaten Aceh Utara"}},{"type":"Feature","geometry":{"type":"MultiPolygon","coordinates":[[[[96.6502,2.1248],[96.6113,2.1049],[96.6457,2.0578],[96.6886,2.0889],[96.6502,2.1248]]],[[[95.8021,2.9301],[95.6921,2.7737],[95.7856,2.6815],[95.7973,2.6302],[95.8631,2.638],[95.8855,2.6035],[95.9494,2.5699],[96.0109,2.5905],[96.0802,2.5667],[96.1607,2.5121],[96.2283,2.4419],[96.3163,2.4178],[96.3145,2.3596],[96.4434,2.3283],[96.4987,2.3635],[96.4537,2.4759],[96.3496,2.5465],[96.2532,2.5853],[96.239,2.6193],[96.1829,2.6539],[96.1056,2.6365],[96.1288,2.7005],[96.0847,2.7534],[96.0262,2.7566],[95.9756,2.8115],[95.9039,2.8238],[95.8651,2.8584],[95.9047,2.8948],[95.8021,2.9301]]]]},"properties":{"code":"11.09","name":"Kabupaten Simeulue"}},{"type":"Feature","geometry":{"type":"MultiPolygon","coordinates":[[[[97.1132,2.1145],[97.0764,2.0766],[97.1206,2.0409],[97.1625,2.0715],[97.1132,2.1145]]],[[[97.1688,2.2364],[97.1738,2.1787],[97.2614,2.1353],[97.3069,2.0633],[97.3582,2.0978],[97.3388,2.1626],[97.27,2.2325],[97.1949,2.2021],[97.1688,2.2364]]],[[[98.1785,2.2391],[98.1865,2.2942],[98.197,2.3119],[98.1474,2.4237],[98.0861,2.5007],[98.0767,2.5747],[98.0159,2.5819],[97.9127,2.5706],[97.855,2.5646],[97.865,2.4988],[97.7912,2.5002],[97.7311,2.4218],[97.665,2.3949],[97.7345,2.3147],[97.8003,2.2708],[97.8814,2.2432],[97.9497,2.2704],[98.0829,2.2035],[98.1273,2.1695],[98.1785,2.2391]]]]},"properties":{"code":"11.10","name":"Kabupaten Aceh Singkil"}},{"type":"Feature","geometry":{"type":"Polygon","coordinates":[[[96.9082,5.2215],[96.8489,5.2764],[96.7324,5.2513],[96.6407,5.2141],[96.5332,5.1985],[96.4661,5.2369],[96.3977,5.2096],[96.3433,5.2265],[96.335,5.1505],[96.3552,5.0921],[96.3648,5.0464],[96.3636,5.034],[96.3462,5.0154],[96.3447,4.9899],[96.3271,4.9679],[96.3766,4.9304],[96.4025,4.9411],[96.4638,4.9142],[96.6277,4.9685],[96.682,4.972],[96.746,4.966],[96.7787,4.9515],[96.821,4.9954],[96.8336,5.0888],[96.8757,5.1172],[96.9163,5.2065],[96.9169,5.2226],[96.9082,5.2215]]]},"properties":{"code":"11.11","name":"Kabupaten Bireuen"}},{"type":"Feature","geometry":{"type":"Polygon","coordinates":[[[96.7518,4.0861],[96.7189,4.0788],[96.7129,4.0217],[96.6319,3.9634],[96.6213,3.9127],[96.601,3.8798],[96.5847,3.8338],[96.6118,3.7982],[96.62,3.737],[96.6707,3.7464],[96.7731,3.7391],[96.882,3.673],[96.9032,3.6022],[96.9399,3.5747],[96.9695,3.6183],[97.0356,3.6008],[97.1311,3.6843],[97.1545,3.7415],[97.1116,3.8329],[97.1087,3.8875],[97.1195,3.9141],[97.1116,3.9371],[97.0461,3.9584],[96.9839,3.9372],[96.8383,3.9544],[96.8038,4.0068],[96.7518,4.0861]]]},"properties":{"code":"11.12","name":"Kabupaten Aceh Barat Daya"}},{"type":"Feature","geometry":{"type":"Polygon","coordinates":[[[96.973,4.2002],[96.93,4.1996],[96.8885,4.2206],[96.8377,4.2808],[96.8067,4.2826],[96.7937,4.2804],[96.7898,4.2444],[96.7936,4.2031],[96.749,4.1604],[96.7165,4.0965],[96.7445,4.0927],[96.7518,4.0861],[96.8038,4.0068],[96.8383,3.9544],[96.9839,3.9372],[97.0461,3.9584],[97.109,3.9404],[97.1195,3.916],[97.1087,3.8875],[97.1116,3.8329],[97.1489,3.7494],[97.2065,3.6913],[97.3514,3.6759],[97.636,3.7337],[97.8258,3.7507],[97.9087,3.8184],[97.9024,3.8855],[97.8956,3.924],[97.8688,3.9382],[97.8702,3.9497],[97.8411,4.0008],[97.8134,4.0399],[97.7998,4.0933],[97.7555,4.1182],[97.7283,4.1994],[97.741,4.218],[97.7329,4.2492],[97.6463,4.2199],[97.6025,4.2506],[97.5625,4.1981],[97.498,4.1557],[97.4246,4.1743],[97.3589,4.2143],[97.2407,4.1745],[97.2159,4.2357],[97.1621,4.2791],[97.1095,4.2365],[97.0151,4.2045],[96.973,4.2002]]]},"properties":{"code":"11.13","name":"Kabupaten Gayo Lues"}},{"type":"Feature","geometry":{"type":"Polygon","coordinates":[[[95.4015,5.2125],[95.3664,5.2542],[95.3488,5.2336],[95.3321,5.179],[95.3016,5.1389],[95.3332,5.0503],[95.3673,5.0325],[95.4007,4.895],[95.4534,4.7822],[95.4946,4.7486],[95.5328,4.6846],[95.7382,4.5087],[95.8763,4.3698],[95.9575,4.5101],[96.0419,4.5855],[96.0428,4.6599],[95.9945,4.7556],[95.9921,4.786],[95.9013,4.8681],[95.8814,4.9159],[95.7835,5.0088],[95.7621,5.0555],[95.7336,5.053],[95.7055,5.052],[95.6301,5.0917],[95.6318,5.1268],[95.6222,5.1648],[95.5971,5.1922],[95.4987,5.2202],[95.4015,5.2125]]]},"properties":{"code":"11.14","name":"Kabupaten Aceh Jaya"}},{"type":"Feature","geometry":{"type":"Polygon","coordinates":[[[96.576,4.5756],[96.5137,4.6246],[96.5028,4.6322],[96.4901,4.6248],[96.4922,4.5477],[96.4728,4.5453],[96.4822,4.4611],[96.364,4.3927],[96.3411,4.377],[96.2787,4.3077],[96.252,4.2443],[96.2713,4.1689],[96.2679,4.1439],[96.1897,4.1069],[96.2869,3.9952],[96.3831,3.8497],[96.529,3.7326],[96.613,3.7354],[96.6118,3.7982],[96.6107,3.8178],[96.5844,3.8379],[96.601,3.8798],[96.6213,3.9127],[96.6319,3.9634],[96.7129,4.0217],[96.7189,4.0788],[96.7239,4.0941],[96.7165,4.1007],[96.749,4.1604],[96.7936,4.2031],[96.7898,4.2444],[96.7585,4.2953],[96.7189,4.354],[96.6839,4.3942],[96.6278,4.4063],[96.6887,4.4698],[96.6557,4.5297],[96.6528,4.55],[96.6393,4.5612],[96.576,4.5756]]]},"properties":{"code":"11.15","name":"Kabupaten Nagan Raya"}},{"type":"Feature","geometry":{"type":"Polygon","coordinates":[[[98.2439,4.294],[98.2799,4.3307],[98.2799,4.3876],[98.2342,4.4636],[98.1188,4.5232],[98.062,4.5109],[98.0459,4.4637],[98.0258,4.4083],[98.0206,4.4166],[97.9639,4.3698],[97.9075,4.3903],[97.858,4.387],[97.8384,4.3698],[97.7849,4.3565],[97.7497,4.2949],[97.741,4.218],[97.7283,4.1994],[97.7555,4.1182],[97.7998,4.0933],[97.8134,4.0399],[97.8411,4.0008],[97.8755,3.9294],[97.8898,3.9293],[97.9133,3.9141],[97.9501,3.8888],[98.0078,3.9018],[98.0412,3.9534],[98.0743,3.9574],[98.0776,3.9494],[98.0957,3.9841],[98.0402,4.0412],[98.057,4.1339],[98.0918,4.2285],[98.1438,4.2598],[98.1988,4.3025],[98.2114,4.2987],[98.2146,4.2873],[98.2439,4.294]]]},"properties":{"code":"11.16","name":"Kabupaten Aceh Tamiang"}},{"type":"Feature","geometry":{"type":"Polygon","coordinates":[[[96.746,4.966],[96.682,4.972],[96.6277,4.9685],[96.5731,4.9477],[96.5984,4.9385],[96.6165,4.9556],[96.6716,4.9382],[96.7084,4.8183],[96.6858,4.7676],[96.7106,4.7526],[96.7468,4.7126],[96.7874,4.7132],[96.8091,4.6728],[97.0207,4.6439],[97.0508,4.6032],[97.1696,4.5781],[97.2322,4.6042],[97.2757,4.6285],[97.3287,4.7117],[97.2954,4.7416],[97.2522,4.758],[97.2821,4.8163],[97.2427,4.8735],[97.1387,4.9119],[97.1013,4.8985],[97.0465,4.9054],[97.0105,4.9037],[97.0014,4.865],[96.9554,4.8588],[96.8444,4.8981],[96.7787,4.9515],[96.746,4.966]]]},"properties":{"code":"11.17","name":"Kabupaten Bener Meriah"}},{"type":"Feature","geometry":{"type":"Polygon","coordinates":[[[96.3433,5.2265],[96.2618,5.2655],[96.1873,5.2593],[96.0641,5.2971],[96.0367,5.237],[96.0565,5.2022],[96.0203,5.1459],[96.0576,5.1085],[96.1264,5.0779],[96.193,5.0769],[96.19,4.9974],[96.248,4.9367],[96.2635,4.9138],[96.2888,4.9096],[96.3254,4.9172],[96.3465,4.9439],[96.3271,4.9679],[96.3466,4.9939],[96.347,5.0169],[96.3643,5.0372],[96.3479,5.0798],[96.3552,5.0921],[96.335,5.1505],[96.3433,5.2265]]]},"properties":{"code":"11.18","name":"Kabupaten Pidie Jaya"}},{"type":"Feature","geometry":{"type":"Polygon","coordinates":[[[95.3503,5.5947],[95.3128,5.585],[95.2801,5.536],[95.313,5.5164],[95.3527,5.5334],[95.3606,5.5447],[95.3529,5.5609],[95.3503,5.5947]]]},"properties":{"code":"11.71","name":"Kota Banda Aceh"}},{"type":"Feature","geometry":{"type":"Polygon","coordinates":[[[95.2178,5.907],[95.2201,5.8752],[95.285,5.7805],[95.3331,5.7748],[95.375,5.8052],[95.3742,5.8471],[95.3367,5.8981],[95.2926,5.8385],[95.2178,5.907]]]},"properties":{"code":"11.72","name":"Kota Sabang"}},{"type":"Feature","geometry":{"type":"Polygon","coordinates":[[[97.1465,5.092],[97.1564,5.0858],[97.1763,5.0821],[97.1788,5.1396],[97.143,5.1559],[97.1454,5.1967],[97.0459,5.2418],[97.0486,5.199],[97.0655,5.1621],[97.1465,5.092]]]},"properties":{"code":"11.73","name":"Kota Lhokseumawe"}},{"type":"Feature","geometry":{"type":"Polygon","coordinates":[[[98.062,4.5109],[98.0372,4.5461],[97.9542,4.5369],[97.9168,4.5314],[97.8678,4.4548],[97.9659,4.4434],[97.9825,4.4193],[98.0206,4.4166],[98.0258,4.4083],[98.0459,4.4637],[98.062,4.5109]]]},"properties":{"code":"11.74","name":"Kota Langsa"}},{"type":"Feature","geometry":{"type":"Polygon","coordinates":[[[97.9567,2.9604],[97.9004,3.0074],[97.8148,2.983],[97.9004,2.9663],[97.9057,2.9118],[97.8586,2.8819],[97.8602,2.846],[97.8516,2.8361],[97.7846,2.8049],[97.7665,2.7881],[97.8252,2.6369],[97.7955,2.5484],[97.7912,2.5002],[97.865,2.4988],[97.855,2.5646],[97.9127,2.5706],[98.0066,2.5828],[98.0766,2.5748],[98.0848,2.6034],[98.1071,2.6042],[98.104,2.6819],[98.0694,2.7642],[98.0994,2.8227],[98.0553,2.8188],[97.993,2.8818],[97.9466,2.8969],[97.942,2.9046],[97.9567,2.9604]]]},"properties":{"code":"11.75","name":"Kota Subulussalam"}}]}