{"type":"FeatureCollection","features":[{"type":"Feature","geometry":{"type":"Polygon","coordinates":[[[100.5945,-1.0684],[100.5826,-1.0711],[100.5581,-1.0411],[100.5511,-0.9815],[100.5354,-0.9589],[100.5255,-0.9705],[100.5247,-1.0008],[100.4774,-1.0045],[100.3968,-1.1338],[100.3801,-1.1782],[100.4901,-1.2988],[100.5442,-1.3109],[100.5799,-1.3822],[100.561,-1.4414],[100.6358,-1.5583],[100.6436,-1.6213],[100.688,-1.6635],[100.7852,-1.818],[100.8654,-1.9316],[100.8798,-2.0505],[100.8231,-2.1738],[100.875,-2.2452],[100.8902,-2.3258],[100.9933,-2.4314],[101.0224,-2.4784],[101.1468,-2.3888],[101.2013,-2.3671],[101.2607,-2.3197],[101.2696,-2.2965],[101.2929,-2.2887],[101.281,-2.2627],[101.2611,-2.1019],[101.2411,-2.0976],[101.2437,-2.0728],[101.1383,-1.8989],[101.1317,-1.6847],[101.0654,-1.6579],[101.0181,-1.6073],[101.0203,-1.5654],[100.9415,-1.4711],[100.9168,-1.4014],[100.9065,-1.3706],[100.8881,-1.3378],[100.8372,-1.305],[100.7961,-1.2215],[100.753,-1.1611],[100.7521,-1.1252],[100.7371,-1.1042],[100.7204,-1.0913],[100.7083,-1.0926],[100.644,-1.1209],[100.6222,-1.097],[100.5945,-1.0746],[100.5945,-1.0684]]]},"properties":{"code":"13.01","name":"Kabupaten Pesisir Selatan"}},{"type":"Feature","geometry":{"type":"Polygon","coordinates":[[[100.6991,-0.5505],[100.6646,-0.532],[100.6501,-0.5432],[100.597,-0.5576],[100.5917,-0.5987],[100.4844,-0.6591],[100.4297,-0.6774],[100.4422,-0.7125],[100.4766,-0.7334],[100.5094,-0.7547],[100.5246,-0.7899],[100.5415,-0.809],[100.629,-0.7719],[100.6437,-0.7448],[100.6416,-0.805],[100.6361,-0.7952],[100.5977,-0.7972],[100.5613,-0.819],[100.5497,-0.8274],[100.5656,-0.9027],[100.5385,-0.9606],[100.5525,-0.9877],[100.5532,-1.0323],[100.5764,-1.0566],[100.5945,-1.0684],[100.5945,-1.0746],[100.6222,-1.097],[100.644,-1.1209],[100.704,-1.0937],[100.726,-1.0945],[100.7521,-1.1252],[100.753,-1.1611],[100.7961,-1.2215],[100.8372,-1.305],[100.9339,-1.2845],[100.973,-1.2986],[101.0046,-1.2588],[101.0273,-1.2754],[101.1715,-1.3038],[101.2154,-1.2817],[101.2451,-1.2134],[101.1769,-1.1352],[101.1671,-1.1095],[101.1717,-1.087],[101.1656,-1.0555],[101.1839,-1.0299],[101.1825,-1.0061],[101.1585,-0.9558],[101.1266,-0.9781],[101.0497,-0.9684],[101.0459,-0.8859],[100.9321,-0.8143],[100.8506,-0.7841],[100.7797,-0.7648],[100.7142,-0.7358],[100.7066,-0.6712],[100.7017,-0.6567],[100.7019,-0.6111],[100.6991,-0.5505]]]},"properties":{"code":"13.02","name":"Kabupaten Solok"}},{"type":"Feature","geometry":{"type":"Polygon","coordinates":[[[101.0374,-0.3507],[100.9941,-0.3162],[100.9498,-0.3131],[100.9013,-0.3252],[100.8608,-0.3322],[100.837,-0.3918],[100.8493,-0.4269],[100.8164,-0.4872],[100.8324,-0.4967],[100.8216,-0.5157],[100.8035,-0.5657],[100.8132,-0.5834],[100.7988,-0.5987],[100.8095,-0.6231],[100.7891,-0.6707],[100.8096,-0.7728],[100.8506,-0.7841],[100.9321,-0.8143],[101.0459,-0.8859],[101.0497,-0.9684],[101.1266,-0.9781],[101.1585,-0.9558],[101.2326,-0.9325],[101.2874,-0.962],[101.376,-0.9732],[101.4032,-0.9694],[101.3962,-0.9404],[101.4769,-0.8342],[101.5206,-0.848],[101.5478,-0.8211],[101.5301,-0.8098],[101.4544,-0.7692],[101.3948,-0.7436],[101.3054,-0.6278],[101.2549,-0.6252],[101.1986,-0.5814],[101.1813,-0.5426],[101.1117,-0.5017],[101.0886,-0.5092],[101.0662,-0.4886],[101.0415,-0.4242],[101.0285,-0.3987],[101.0414,-0.3853],[101.0374,-0.3507]]]},"properties":{"code":"13.03","name":"Kabupaten Sijunjung"}},{"type":"Feature","geometry":{"type":"Polygon","coordinates":[[[100.5842,-0.3393],[100.5672,-0.3231],[100.5813,-0.2921],[100.5747,-0.2834],[100.534,-0.2787],[100.5122,-0.2958],[100.4706,-0.391],[100.3988,-0.3844],[100.3341,-0.3946],[100.3169,-0.4241],[100.3204,-0.4795],[100.3322,-0.4895],[100.3543,-0.4804],[100.3843,-0.5],[100.4158,-0.6231],[100.4092,-0.6572],[100.4844,-0.6591],[100.5917,-0.5987],[100.597,-0.5576],[100.6501,-0.5432],[100.6646,-0.532],[100.6991,-0.5505],[100.7314,-0.5567],[100.7827,-0.5477],[100.8216,-0.5157],[100.8324,-0.4967],[100.8164,-0.4872],[100.8493,-0.4269],[100.837,-0.3918],[100.825,-0.3526],[100.7784,-0.3467],[100.7804,-0.3666],[100.7514,-0.3698],[100.6777,-0.3242],[100.6642,-0.3513],[100.5842,-0.3393]],[[100.3961,-0.4601],[100.4102,-0.4598],[100.4063,-0.4907],[100.3742,-0.4885],[100.3961,-0.4601]]]},"properties":{"code":"13.04","name":"Kabupaten Tanah Datar"}},{"type":"Feature","geometry":{"type":"Polygon","coordinates":[[[100.1013,-0.3353],[100.0671,-0.3254],[100.0462,-0.3639],[99.9903,-0.3619],[99.9621,-0.434],[100.0455,-0.5104],[100.0923,-0.5722],[100.0934,-0.5655],[100.1312,-0.5692],[100.1805,-0.6091],[100.1644,-0.6501],[100.1544,-0.669],[100.2594,-0.7719],[100.2911,-0.8166],[100.3674,-0.8004],[100.3854,-0.7556],[100.4579,-0.7261],[100.4422,-0.7125],[100.4297,-0.6774],[100.4021,-0.6531],[100.4158,-0.6231],[100.3843,-0.5],[100.3543,-0.4804],[100.3319,-0.4894],[100.3179,-0.4734],[100.2902,-0.4549],[100.2636,-0.479],[100.215,-0.416],[100.1581,-0.3944],[100.1511,-0.3481],[100.1271,-0.3361],[100.1013,-0.3353]]]},"properties":{"code":"13.05","name":"Kabupaten Padang Pariaman"}},{"type":"Feature","geometry":{"type":"Polygon","coordinates":[[[100.3009,-0.0375],[100.2653,-0.0323],[100.245,-0.0742],[100.2131,-0.07],[100.1407,-0.1028],[100.1179,-0.0978],[100.0322,-0.0928],[99.9873,-0.1589],[99.8055,-0.1819],[99.7878,-0.1732],[99.7706,-0.1758],[99.8168,-0.2964],[99.8829,-0.3435],[99.9138,-0.4032],[99.9621,-0.434],[99.9903,-0.3619],[100.0462,-0.3639],[100.0671,-0.3254],[100.1013,-0.3353],[100.1271,-0.3361],[100.1511,-0.3481],[100.1581,-0.3944],[100.215,-0.416],[100.2636,-0.479],[100.2902,-0.4549],[100.3341,-0.3946],[100.3988,-0.3844],[100.4706,-0.391],[100.5122,-0.2958],[100.5372,-0.2793],[100.5428,-0.261],[100.5281,-0.2452],[100.5187,-0.2497],[100.4451,-0.2044],[100.3786,-0.1481],[100.338,-0.0877],[100.3009,-0.0375]],[[100.3326,-0.2796],[100.3379,-0.2756],[100.3949,-0.2853],[100.4079,-0.3221],[100.3705,-0.322],[100.343,-0.2971],[100.3326,-0.2796]]]},"properties":{"code":"13.06","name":"Kabupaten Agam"}},{"type":"Feature","geometry":{"type":"Polygon","coordinates":[[[100.4611,0.4116],[100.4202,0.4242],[100.3459,0.3806],[100.3233,0.4004],[100.3333,0.3522],[100.3084,0.302],[100.3527,0.1708],[100.3244,0.0973],[100.3301,0.0504],[100.3488,0.0341],[100.2665,-0.02],[100.3009,-0.0375],[100.338,-0.0877],[100.3786,-0.1481],[100.4451,-0.2044],[100.5187,-0.2497],[100.5281,-0.2452],[100.5435,-0.2625],[100.5372,-0.2793],[100.5446,-0.2844],[100.5618,-0.2802],[100.5796,-0.288],[100.5659,-0.3187],[100.5842,-0.3393],[100.6642,-0.3513],[100.6777,-0.3242],[100.7567,-0.3708],[100.7804,-0.3666],[100.7784,-0.3467],[100.8442,-0.3303],[100.8429,-0.29],[100.8019,-0.2426],[100.7747,-0.2144],[100.753,-0.1318],[100.748,-0.0535],[100.7584,-0.0436],[100.8059,-0.0197],[100.8165,-0.0488],[100.8446,0.0339],[100.8331,0.0685],[100.7863,0.1067],[100.8135,0.1339],[100.8202,0.1452],[100.8337,0.1401],[100.8418,0.1462],[100.8502,0.1683],[100.8469,0.2062],[100.8387,0.2152],[100.8111,0.2516],[100.7735,0.2513],[100.7393,0.243],[100.7133,0.2403],[100.6727,0.1853],[100.5878,0.2515],[100.559,0.3047],[100.496,0.305],[100.453,0.3429],[100.437,0.3843],[100.4611,0.4116]],[[100.6209,-0.2019],[100.6753,-0.2206],[100.6476,-0.2484],[100.6209,-0.2019]]]},"properties":{"code":"13.07","name":"Kabupaten Lima Puluh Kota"}},{"type":"Feature","geometry":{"type":"Polygon","coordinates":[[[99.913,0.885],[99.8726,0.9066],[99.8386,0.892],[99.8309,0.8805],[99.8411,0.8525],[99.8385,0.8212],[99.8501,0.7911],[99.825,0.736],[99.8506,0.6836],[99.9113,0.6798],[99.9204,0.6051],[99.9645,0.5459],[99.9073,0.4715],[99.8493,0.47],[99.8269,0.4594],[99.7947,0.4123],[99.7493,0.4014],[99.7768,0.3586],[99.7639,0.3119],[99.7953,0.2995],[99.8579,0.3198],[99.9804,0.2874],[100.0225,0.2489],[100.0516,0.2366],[100.0636,0.1497],[99.9806,0.0708],[100.0365,0.0095],[100.0281,0.0054],[100.0298,-0.0608],[100.0322,-0.0928],[100.1179,-0.0978],[100.1407,-0.1028],[100.2131,-0.07],[100.2463,-0.0735],[100.2665,-0.02],[100.3488,0.0341],[100.3301,0.0504],[100.3244,0.0973],[100.3527,0.1708],[100.3084,0.302],[100.3333,0.3522],[100.2748,0.4136],[100.2357,0.4747],[100.24,0.5357],[100.1978,0.6281],[100.2286,0.6619],[100.2687,0.708],[100.2117,0.7361],[100.1213,0.7813],[100.0912,0.7884],[100.0103,0.8397],[99.913,0.885]]]},"properties":{"code":"13.08","name":"Kabupaten Pasaman"}},{"type":"Feature","geometry":{"type":"MultiPolygon","coordinates":[[[[100.2286,-2.7851],[100.1762,-2.8033],[100.196,-2.8704],[100.1885,-2.9904],[100.3245,-3.1203],[100.3255,-3.1729],[100.3803,-3.2878],[100.4398,-3.3453],[100.4726,-3.336],[100.3973,-3.2268],[100.3933,-3.1516],[100.4602,-3.1237],[100.4691,-3.0445],[100.3547,-2.9011],[100.285,-2.8544],[100.2286,-2.7851]]],[[[99.993,-2.5029],[99.9726,-2.5119],[100.0003,-2.6971],[100.014,-2.7414],[99.9924,-2.7911],[100.0757,-2.8422],[100.2177,-2.776],[100.2201,-2.7392],[100.1726,-2.6479],[100.0714,-2.5799],[99.993,-2.5029]]],[[[99.5924,-2.0308],[99.5466,-2.0718],[99.5717,-2.1517],[99.551,-2.2078],[99.6147,-2.293],[99.6454,-2.2813],[99.7375,-2.3453],[99.8376,-2.3639],[99.8217,-2.3061],[99.7816,-2.2918],[99.7117,-2.1537],[99.7016,-2.0849],[99.6395,-2.0369],[99.5924,-2.0308]]],[[[98.9111,-0.9263],[98.7969,-0.9569],[98.7113,-0.9451],[98.6634,-0.98],[98.6571,-1.0887],[98.6027,-1.2255],[98.7461,-1.4456],[98.8037,-1.5184],[98.8372,-1.5869],[98.8252,-1.6157],[98.8779,-1.6791],[99.0117,-1.7624],[99.1074,-1.812],[99.1673,-1.7793],[99.2262,-1.7849],[99.2346,-1.6973],[99.2842,-1.7005],[99.2925,-1.653],[99.2668,-1.6021],[99.1982,-1.5795],[99.1968,-1.5097],[99.1481,-1.485],[99.1686,-1.4413],[99.1088,-1.3793],[99.0681,-1.2526],[99.0078,-1.1634],[99.0016,-1.1164],[98.949,-1.0836],[98.9428,-0.9837],[98.9111,-0.9263]]]]},"properties":{"code":"13.09","name":"Kabupaten Kepulauan Mentawai"}},{"type":"Feature","geometry":{"type":"Polygon","coordinates":[[[101.5876,-0.8473],[101.5478,-0.8211],[101.5206,-0.848],[101.4769,-0.8342],[101.3962,-0.9404],[101.4032,-0.9694],[101.376,-0.9732],[101.2874,-0.962],[101.2326,-0.9325],[101.1825,-1.0061],[101.1839,-1.0299],[101.1656,-1.0555],[101.1666,-1.1028],[101.198,-1.107],[101.2633,-1.1667],[101.2995,-1.1436],[101.3507,-1.1315],[101.3443,-1.0436],[101.3763,-1.0476],[101.4038,-1.038],[101.4536,-1.011],[101.4601,-1.0306],[101.4412,-1.0865],[101.4029,-1.1505],[101.4108,-1.1841],[101.4331,-1.2064],[101.4501,-1.211],[101.4678,-1.2589],[101.5257,-1.3042],[101.6465,-1.3674],[101.6264,-1.4128],[101.5574,-1.4624],[101.5409,-1.5142],[101.5097,-1.573],[101.4314,-1.6416],[101.4266,-1.6775],[101.4765,-1.6767],[101.6228,-1.527],[101.6911,-1.4899],[101.7218,-1.4311],[101.6949,-1.3941],[101.7118,-1.3363],[101.7038,-1.3468],[101.6964,-1.2918],[101.7176,-1.26],[101.7267,-1.2348],[101.8172,-1.2172],[101.8842,-1.1347],[101.8664,-1.112],[101.8455,-1.1119],[101.8283,-1.0677],[101.8152,-1.0016],[101.8034,-0.9641],[101.7254,-0.9514],[101.7151,-0.9086],[101.7317,-0.8706],[101.6477,-0.8237],[101.5876,-0.8473]]]},"properties":{"code":"13.10","name":"Kabupaten Dharmasraya"}},{"type":"Feature","geometry":{"type":"Polygon","coordinates":[[[101.4536,-1.011],[101.424,-1.0066],[101.4168,-1.0277],[101.3928,-1.0423],[101.3443,-1.0436],[101.3507,-1.1315],[101.2995,-1.1436],[101.2633,-1.1667],[101.198,-1.107],[101.1666,-1.1028],[101.1769,-1.1352],[101.2451,-1.2134],[101.2154,-1.2817],[101.1715,-1.3038],[101.0273,-1.2754],[101.0046,-1.2588],[100.973,-1.2986],[100.9388,-1.2836],[100.9103,-1.2904],[100.8946,-1.304],[100.8881,-1.3378],[100.9065,-1.3706],[100.9168,-1.4014],[100.9415,-1.4711],[101.0203,-1.5654],[101.0181,-1.6073],[101.0654,-1.6579],[101.1223,-1.6754],[101.1626,-1.709],[101.1742,-1.7061],[101.191,-1.676],[101.2423,-1.7211],[101.2667,-1.6958],[101.4111,-1.6727],[101.4266,-1.6775],[101.4314,-1.6416],[101.5097,-1.573],[101.5409,-1.5142],[101.5574,-1.4624],[101.6264,-1.4128],[101.6465,-1.3674],[101.5257,-1.3042],[101.4678,-1.2589],[101.4501,-1.211],[101.4205,-1.1948],[101.403,-1.1599],[101.4135,-1.1237],[101.4412,-1.0865],[101.4601,-1.0306],[101.4536,-1.011]]]},"properties":{"code":"13.11","name":"Kabupaten Solok Selatan"}},{"type":"Feature","geometry":{"type":"Polygon","coordinates":[[[99.6654,0.5162],[99.6406,0.5459],[99.5745,0.509],[99.5397,0.5184],[99.5125,0.5379],[99.4385,0.4776],[99.412,0.4863],[99.366,0.4315],[99.3167,0.3339],[99.2628,0.3446],[99.1937,0.3116],[99.1961,0.272],[99.221,0.2102],[99.327,0.2383],[99.353,0.2323],[99.3983,0.1511],[99.4713,0.1345],[99.618,0.0658],[99.7347,-0.0244],[99.7625,-0.0785],[99.7475,-0.1396],[99.7706,-0.1758],[99.7878,-0.1732],[99.8055,-0.1819],[99.9873,-0.1589],[100.0298,-0.0608],[100.0281,0.0054],[100.0365,0.0095],[99.9806,0.0708],[100.0636,0.1497],[100.0516,0.2366],[100.0225,0.2489],[99.9804,0.2874],[99.8579,0.3198],[99.7953,0.2995],[99.7639,0.3119],[99.7768,0.3586],[99.7493,0.4014],[99.7947,0.4123],[99.8269,0.4594],[99.7787,0.4819],[99.7419,0.4783],[99.7178,0.4514],[99.6768,0.4727],[99.6654,0.5162]]]},"properties":{"code":"13.12","name":"Kabupaten Pasaman Barat"}},{"type":"Feature","geometry":{"type":"Polygon","coordinates":[[[100.5094,-0.7547],[100.4766,-0.7334],[100.4579,-0.7261],[100.3854,-0.7556],[100.3674,-0.8004],[100.2911,-0.8166],[100.3415,-0.8826],[100.3647,-1.0057],[100.4126,-1.0432],[100.3644,-1.0757],[100.3968,-1.1338],[100.4774,-1.0045],[100.5252,-1.0002],[100.5271,-0.9648],[100.5394,-0.9578],[100.5656,-0.9027],[100.5497,-0.8274],[100.5246,-0.7899],[100.5094,-0.7547]]]},"properties":{"code":"13.71","name":"Kota Padang"}},{"type":"Feature","geometry":{"type":"Polygon","coordinates":[[[100.6416,-0.805],[100.6437,-0.7448],[100.629,-0.7719],[100.5415,-0.809],[100.5613,-0.819],[100.5977,-0.7972],[100.6361,-0.7952],[100.6416,-0.805]]]},"properties":{"code":"13.72","name":"Kota Solok"}},{"type":"Feature","geometry":{"type":"Polygon","coordinates":[[[100.8095,-0.6231],[100.799,-0.5972],[100.8133,-0.5822],[100.7918,-0.5596],[100.7827,-0.5477],[100.7314,-0.5567],[100.7019,-0.6111],[100.7017,-0.6567],[100.7066,-0.6712],[100.7142,-0.7358],[100.7797,-0.7648],[100.8096,-0.7728],[100.7891,-0.6707],[100.8095,-0.6231]]]},"properties":{"code":"13.73","name":"Kota Sawahlunto"}},{"type":"Feature","geometry":{"type":"Polygon","coordinates":[[[100.4102,-0.4598],[100.3961,-0.4601],[100.3742,-0.4885],[100.4063,-0.4907],[100.4102,-0.4598]]]},"properties":{"code":"13.74","name":"Kota Padang Panjang"}},{"type":"Feature","geometry":{"type":"Polygon","coordinates":[[[100.4079,-0.3221],[100.395,-0.2853],[100.3478,-0.2758],[100.3365,-0.2711],[100.3326,-0.2796],[100.3705,-0.3219],[100.4079,-0.3221]]]},"properties":{"code":"13.75","name":"Kota Bukittinggi"}},{"type":"Feature","geometry":{"type":"Polygon","coordinates":[[[100.6753,-0.2206],[100.6209,-0.2019],[100.6476,-0.2484],[100.6753,-0.2206]]]},"properties":{"code":"13.76","name":"Kota Payakumbuh"}},{"type":"Feature","geometry":{"type":"Polygon","coordinates":[[[100.1312,-0.5692],[100.0934,-0.5655],[100.0923,-0.5722],[100.1251,-0.6436],[100.1644,-0.6501],[100.1805,-0.6091],[100.1312,-0.5692]]]},"properties":{"code":"13.77","name":"Kota Pariaman"}}]}