{"type":"FeatureCollection","features":[{"type":"Feature","geometry":{"type":"Polygon","coordinates":[[[103.0347,-4.1725],[102.9873,-4.1682],[102.9004,-4.1785],[102.908,-4.2416],[102.8856,-4.263],[102.843,-4.3446],[102.8126,-4.3236],[102.7962,-4.3545],[102.8836,-4.4406],[102.8995,-4.4879],[103.0068,-4.5207],[103.0802,-4.5592],[103.0803,-4.5086],[103.1211,-4.4822],[103.1676,-4.3993],[103.2013,-4.3933],[103.201,-4.3077],[103.2796,-4.2905],[103.2241,-4.2407],[103.1907,-4.2361],[103.1378,-4.2576],[103.0848,-4.2679],[103.0347,-4.1725]]]},"properties":{"code":"17.01","name":"Kabupaten Bengkulu Selatan"}},{"type":"Feature","geometry":{"type":"Polygon","coordinates":[[[102.5677,-3.2766],[102.4982,-3.2688],[102.5005,-3.3087],[102.4498,-3.3207],[102.4229,-3.3585],[102.3876,-3.3693],[102.4034,-3.4342],[102.4271,-3.5],[102.4245,-3.5241],[102.4969,-3.5136],[102.5007,-3.4972],[102.5944,-3.5257],[102.7222,-3.5526],[102.7745,-3.5471],[102.8187,-3.5276],[102.8476,-3.5369],[102.8859,-3.5788],[102.9071,-3.6165],[102.9947,-3.5248],[103.0056,-3.4673],[102.9969,-3.4453],[103.0044,-3.4354],[102.995,-3.3871],[102.9816,-3.3631],[102.9566,-3.3607],[102.8963,-3.3762],[102.8896,-3.352],[102.798,-3.3317],[102.7761,-3.2818],[102.7396,-3.3051],[102.6381,-3.3378],[102.5677,-3.2766]]]},"properties":{"code":"17.02","name":"Kabupaten Rejang Lebong"}},{"type":"Feature","geometry":{"type":"MultiPolygon","coordinates":[[[[102.1671,-5.2914],[102.0961,-5.3227],[102.0884,-5.3574],[102.203,-5.4166],[102.2479,-5.4964],[102.2808,-5.4768],[102.3602,-5.5052],[102.3873,-5.4154],[102.3813,-5.3859],[102.2839,-5.3564],[102.25,-5.3254],[102.1671,-5.2914]]],[[[101.9064,-2.7403],[101.8677,-2.7288],[101.8602,-2.7306],[101.8579,-2.7449],[101.8661,-2.7867],[101.8616,-2.8009],[101.8067,-2.8842],[101.7845,-2.9376],[101.7614,-2.982],[101.7003,-3.0451],[101.5319,-3.1286],[101.6223,-3.2448],[101.7922,-3.3689],[101.907,-3.4345],[101.9275,-3.4791],[102.0882,-3.5585],[102.1997,-3.6474],[102.2156,-3.6331],[102.2585,-3.6049],[102.2604,-3.5515],[102.3309,-3.53],[102.3693,-3.4947],[102.4168,-3.4762],[102.4034,-3.4342],[102.3692,-3.404],[102.3741,-3.3813],[102.2702,-3.3649],[102.291,-3.2838],[102.2363,-3.2411],[102.1664,-3.2239],[102.1271,-3.1704],[102.133,-3.128],[102.1428,-3.1185],[102.1419,-3.0774],[102.1066,-3.0419],[102.0422,-2.9841],[102.0193,-2.8559],[101.9668,-2.8245],[101.9413,-2.7817],[101.9263,-2.7703],[101.9191,-2.7356],[101.9064,-2.7403]]]]},"properties":{"code":"17.03","name":"Kabupaten Bengkulu Utara"}},{"type":"Feature","geometry":{"type":"Polygon","coordinates":[[[103.3227,-4.2836],[103.2796,-4.2905],[103.201,-4.3077],[103.2013,-4.3933],[103.1676,-4.3993],[103.1211,-4.4822],[103.0803,-4.5086],[103.0864,-4.5521],[103.2836,-4.7094],[103.3279,-4.8082],[103.4038,-4.8184],[103.4236,-4.8707],[103.4698,-4.8653],[103.5326,-4.9167],[103.596,-4.9224],[103.7311,-4.7993],[103.7905,-4.779],[103.7633,-4.7423],[103.7013,-4.723],[103.7047,-4.7041],[103.7024,-4.6644],[103.6301,-4.5575],[103.5931,-4.5229],[103.5275,-4.5722],[103.4874,-4.5779],[103.4209,-4.506],[103.413,-4.4665],[103.4359,-4.3865],[103.4422,-4.3301],[103.3711,-4.3157],[103.3227,-4.2836]]]},"properties":{"code":"17.04","name":"Kabupaten Kaur"}},{"type":"Feature","geometry":{"type":"Polygon","coordinates":[[[102.6697,-3.826],[102.6203,-3.8022],[102.5741,-3.8037],[102.5098,-3.8371],[102.4629,-3.8437],[102.4071,-3.8714],[102.3702,-3.8736],[102.3597,-3.8768],[102.342,-3.9007],[102.3171,-3.9114],[102.3006,-3.9821],[102.6963,-4.275],[102.7965,-4.3539],[102.8126,-4.3236],[102.843,-4.3446],[102.8856,-4.263],[102.908,-4.2416],[102.9004,-4.1785],[102.9873,-4.1682],[103.0027,-4.1605],[102.9196,-4.0966],[102.922,-4.0763],[102.9308,-4.0482],[102.9584,-4.0547],[102.9119,-3.9696],[102.8872,-3.9886],[102.7929,-3.9601],[102.7701,-3.9102],[102.6697,-3.826]]]},"properties":{"code":"17.05","name":"Kabupaten Seluma"}},{"type":"Feature","geometry":{"type":"Polygon","coordinates":[[[101.37,-2.3473],[101.3617,-2.3289],[101.3014,-2.2899],[101.2776,-2.2914],[101.2662,-2.2999],[101.2607,-2.3197],[101.2013,-2.3671],[101.1468,-2.3888],[101.0224,-2.4784],[101.1423,-2.6285],[101.2598,-2.6905],[101.3219,-2.7374],[101.3998,-2.9222],[101.4805,-3.0121],[101.5319,-3.1286],[101.7003,-3.0451],[101.7614,-2.982],[101.7845,-2.9376],[101.8067,-2.8842],[101.8365,-2.8473],[101.8658,-2.7895],[101.8604,-2.731],[101.8458,-2.7034],[101.8121,-2.692],[101.67,-2.5283],[101.6097,-2.5499],[101.5401,-2.5499],[101.5607,-2.4589],[101.4056,-2.3567],[101.37,-2.3473]]]},"properties":{"code":"17.06","name":"Kabupaten Mukomuko"}},{"type":"Feature","geometry":{"type":"Polygon","coordinates":[[[102.0327,-2.758],[101.9969,-2.7241],[101.9654,-2.7218],[101.9538,-2.7307],[101.9191,-2.7356],[101.9263,-2.7703],[101.9413,-2.7817],[101.968,-2.8259],[102.0193,-2.8559],[102.0422,-2.9841],[102.1066,-3.0419],[102.1374,-3.066],[102.1436,-3.1129],[102.133,-3.128],[102.1271,-3.1704],[102.1664,-3.2239],[102.2363,-3.2411],[102.291,-3.2838],[102.2702,-3.3649],[102.3752,-3.3835],[102.3876,-3.3693],[102.4229,-3.3585],[102.4498,-3.3207],[102.5005,-3.3087],[102.4842,-3.2545],[102.4843,-3.2282],[102.4939,-3.1691],[102.4867,-3.157],[102.4865,-3.1099],[102.4423,-3.0586],[102.4083,-3.0547],[102.3176,-3.0699],[102.2429,-3.0195],[102.222,-2.9277],[102.1313,-2.8748],[102.1294,-2.8348],[102.0734,-2.7949],[102.0327,-2.758]]]},"properties":{"code":"17.07","name":"Kabupaten Lebong"}},{"type":"Feature","geometry":{"type":"Polygon","coordinates":[[[102.5944,-3.5257],[102.5007,-3.4972],[102.4969,-3.5136],[102.4337,-3.5491],[102.4912,-3.5754],[102.597,-3.748],[102.6412,-3.7936],[102.6927,-3.7584],[102.7028,-3.7569],[102.7344,-3.7463],[102.7706,-3.7082],[102.8078,-3.6128],[102.7946,-3.5829],[102.8108,-3.5539],[102.8102,-3.5299],[102.7745,-3.5471],[102.7222,-3.5526],[102.5944,-3.5257]]]},"properties":{"code":"17.08","name":"Kabupaten Kepahiang"}},{"type":"Feature","geometry":{"type":"Polygon","coordinates":[[[102.4245,-3.5241],[102.4168,-3.4762],[102.3693,-3.4947],[102.3309,-3.53],[102.2639,-3.5491],[102.2585,-3.6049],[102.2156,-3.6331],[102.2576,-3.7557],[102.2986,-3.7411],[102.3542,-3.8127],[102.3617,-3.8551],[102.3915,-3.8542],[102.3937,-3.8709],[102.4148,-3.8692],[102.5098,-3.8371],[102.5741,-3.8037],[102.6203,-3.8022],[102.597,-3.748],[102.4912,-3.5754],[102.4337,-3.5491],[102.4245,-3.5241]]]},"properties":{"code":"17.09","name":"Kabupaten Bengkulu Tengah"}},{"type":"Feature","geometry":{"type":"Polygon","coordinates":[[[102.2986,-3.7411],[102.247,-3.7884],[102.2909,-3.8388],[102.3072,-3.8908],[102.2794,-3.9615],[102.3006,-3.9821],[102.3171,-3.9114],[102.342,-3.9007],[102.3597,-3.8768],[102.3702,-3.8736],[102.3617,-3.8551],[102.3542,-3.8127],[102.2986,-3.7411]]]},"properties":{"code":"17.71","name":"Kota Bengkulu"}}]}