{"type":"FeatureCollection","features":[{"type":"Feature","geometry":{"type":"Polygon","coordinates":[[[111.1931,-7.9232],[111.1544,-7.922],[111.1448,-7.9523],[111.1295,-7.9628],[111.1233,-7.98],[111.135,-8.0212],[111.091,-8.0634],[111.066,-8.0613],[111.0047,-8.0729],[110.9829,-8.0789],[110.9518,-8.063],[110.9079,-8.1165],[110.8953,-8.1667],[110.9003,-8.2116],[110.9988,-8.2547],[111.0766,-8.2456],[111.1436,-8.281],[111.2613,-8.2475],[111.3986,-8.2775],[111.3922,-8.2332],[111.4243,-8.1914],[111.3932,-8.1595],[111.3685,-8.1215],[111.3625,-8.0996],[111.3438,-8.0064],[111.327,-7.9674],[111.2867,-7.9391],[111.2506,-7.9458],[111.2222,-7.9304],[111.1931,-7.9232]]]},"properties":{"code":"35.01","name":"Kabupaten Pacitan","latitude":-8.124952119730581,"longitude":111.1780856391636}},{"type":"Feature","geometry":{"type":"Polygon","coordinates":[[[111.6777,-7.7741],[111.5989,-7.777],[111.5087,-7.7995],[111.4132,-7.7759],[111.3147,-7.7922],[111.3145,-7.8516],[111.2972,-7.8769],[111.2867,-7.9391],[111.327,-7.9674],[111.3438,-8.0064],[111.3625,-8.0996],[111.3685,-8.1215],[111.3932,-8.1595],[111.4378,-8.1632],[111.4833,-8.1085],[111.5279,-8.1074],[111.5353,-8.0597],[111.6063,-8.0193],[111.6477,-8.0038],[111.6537,-7.9816],[111.6678,-7.9446],[111.7067,-7.9065],[111.7559,-7.8939],[111.7786,-7.8651],[111.7767,-7.8202],[111.7671,-7.8232],[111.7505,-7.7991],[111.7194,-7.8111],[111.6938,-7.8053],[111.6777,-7.7741]]]},"properties":{"code":"35.02","name":"Kabupaten Ponorogo","latitude":-7.931327949447231,"longitude":111.4995304316846}},{"type":"Feature","geometry":{"type":"Polygon","coordinates":[[[111.7612,-7.9229],[111.7067,-7.9065],[111.6678,-7.9446],[111.6537,-7.9816],[111.6477,-8.0038],[111.6063,-8.0193],[111.5353,-8.0597],[111.5279,-8.1074],[111.4833,-8.1085],[111.4378,-8.1632],[111.4243,-8.1914],[111.3922,-8.2332],[111.4551,-8.274],[111.5119,-8.3328],[111.5543,-8.3062],[111.5876,-8.3343],[111.6885,-8.3663],[111.6884,-8.3353],[111.75,-8.2898],[111.7169,-8.1911],[111.7185,-8.1686],[111.7336,-8.1422],[111.8223,-8.1347],[111.8132,-8.0876],[111.7605,-7.9879],[111.7442,-7.9321],[111.7612,-7.9229]]]},"properties":{"code":"35.03","name":"Kabupaten Trenggalek","latitude":-8.160655712373636,"longitude":111.62732146474757}},{"type":"Feature","geometry":{"type":"Polygon","coordinates":[[[111.8027,-7.8657],[111.7786,-7.8651],[111.7559,-7.8939],[111.7612,-7.9229],[111.7442,-7.9321],[111.7605,-7.9879],[111.8132,-8.0876],[111.8223,-8.1347],[111.7424,-8.1387],[111.7216,-8.1617],[111.7169,-8.1911],[111.75,-8.2898],[111.7912,-8.2552],[111.8992,-8.3042],[111.9499,-8.2772],[111.9745,-8.2808],[111.9935,-8.297],[112.0317,-8.3109],[112.0219,-8.2267],[112.0288,-8.1682],[112.0786,-8.1875],[112.122,-8.1253],[111.9969,-8.0921],[111.9882,-8.0764],[111.9725,-8.0436],[111.9277,-7.9629],[111.8836,-7.9479],[111.863,-7.9077],[111.8027,-7.8657]]]},"properties":{"code":"35.04","name":"Kabupaten Tulungagung","latitude":-8.113471029366075,"longitude":111.88772275127678}},{"type":"Feature","geometry":{"type":"Polygon","coordinates":[[[112.4684,-7.9994],[112.478,-7.9706],[112.4565,-7.9321],[112.4521,-7.9265],[112.4322,-7.9303],[112.3705,-7.9572],[112.3112,-7.9283],[112.3028,-7.9377],[112.2514,-7.9448],[112.1784,-7.9741],[112.0963,-7.97],[112.0368,-7.9933],[111.9812,-7.9969],[111.9725,-8.0436],[111.9882,-8.0764],[111.9969,-8.0921],[112.122,-8.1253],[112.0786,-8.1875],[112.0288,-8.1682],[112.0219,-8.2267],[112.0306,-8.2627],[112.0245,-8.2878],[112.0344,-8.3008],[112.0291,-8.3172],[112.286,-8.3319],[112.3599,-8.3484],[112.3884,-8.2853],[112.3781,-8.2401],[112.3827,-8.1912],[112.4155,-8.1663],[112.4546,-8.1417],[112.4534,-8.0569],[112.4684,-7.9994]],[[112.1721,-8.0582],[112.1873,-8.0655],[112.2005,-8.0928],[112.149,-8.1276],[112.1721,-8.0582]]]},"properties":{"code":"35.05","name":"Kabupaten Blitar","latitude":-8.131008442675247,"longitude":112.23722109650977}},{"type":"Feature","geometry":{"type":"Polygon","coordinates":[[[112.1654,-7.613],[112.1105,-7.5931],[112.0984,-7.6441],[112.0759,-7.6788],[112.0591,-7.7235],[112.0272,-7.7257],[111.9976,-7.7293],[111.9541,-7.6796],[111.928,-7.7226],[111.814,-7.813],[111.8027,-7.8657],[111.863,-7.9077],[111.8836,-7.9479],[111.9277,-7.9629],[111.9812,-7.9969],[112.0368,-7.9933],[112.0963,-7.97],[112.1784,-7.9741],[112.2514,-7.9448],[112.3061,-7.9361],[112.326,-7.8729],[112.3069,-7.7993],[112.2878,-7.7707],[112.3287,-7.7773],[112.3491,-7.7615],[112.3819,-7.7849],[112.3962,-7.7854],[112.3973,-7.7761],[112.3018,-7.7268],[112.2519,-7.7258],[112.1654,-7.613]],[[111.9986,-7.7714],[112.0313,-7.8003],[112.0658,-7.8546],[111.9982,-7.8516],[111.9986,-7.7714]]]},"properties":{"code":"35.06","name":"Kabupaten Kediri","latitude":-7.828693403789815,"longitude":112.08922074799715}},{"type":"Feature","geometry":{"type":"Polygon","coordinates":[[[112.3819,-7.7849],[112.3526,-7.7639],[112.3286,-7.7773],[112.2874,-7.7717],[112.3069,-7.7993],[112.326,-7.8729],[112.3066,-7.9293],[112.3705,-7.9572],[112.4322,-7.9303],[112.4521,-7.9265],[112.4679,-7.9471],[112.4653,-7.9559],[112.478,-7.9661],[112.4684,-7.9994],[112.4534,-8.0569],[112.4592,-8.1149],[112.4535,-8.1441],[112.4155,-8.1663],[112.3827,-8.1912],[112.3781,-8.2401],[112.3884,-8.2853],[112.36,-8.3471],[112.3719,-8.3746],[112.4433,-8.3982],[112.5575,-8.4024],[112.6716,-8.4451],[112.7087,-8.4175],[112.8126,-8.4014],[112.8717,-8.4085],[112.948,-8.3636],[112.9375,-8.3349],[112.9138,-8.2816],[112.9042,-8.1922],[112.9266,-8.1142],[112.9001,-8.0619],[112.9386,-7.9991],[112.9261,-7.9665],[112.9154,-7.9513],[112.9039,-7.947],[112.8532,-7.9337],[112.8055,-7.9255],[112.7794,-7.8724],[112.7111,-7.8239],[112.6324,-7.7976],[112.5928,-7.7648],[112.5643,-7.8795],[112.5833,-7.8885],[112.5825,-7.9093],[112.4844,-7.9312],[112.4996,-7.8157],[112.463,-7.769],[112.4556,-7.7792],[112.418,-7.7642],[112.3962,-7.7854],[112.3819,-7.7849]],[[112.6033,-7.9705],[112.64,-7.9216],[112.6721,-8.009],[112.6458,-8.0516],[112.6309,-8.035],[112.6187,-8.011],[112.5969,-7.9838],[112.5911,-7.9741],[112.6033,-7.9705]]]},"properties":{"code":"35.07","name":"Kabupaten Malang","latitude":-8.125916993732273,"longitude":112.64091218224341}},{"type":"Feature","geometry":{"type":"Polygon","coordinates":[[[113.2747,-7.9253],[113.2074,-7.8999],[113.1495,-7.9798],[113.0788,-7.9842],[113.0591,-8.0104],[113.0227,-7.9695],[112.9935,-7.96],[112.9725,-7.981],[112.9501,-7.987],[112.9386,-7.9991],[112.9001,-8.0619],[112.9266,-8.1142],[112.9042,-8.1922],[112.9138,-8.2816],[112.9375,-8.3349],[113.0799,-8.2871],[113.2174,-8.2831],[113.3035,-8.3072],[113.3131,-8.2288],[113.368,-8.1851],[113.3724,-8.1464],[113.3667,-8.0859],[113.35,-8.0632],[113.3614,-8.0278],[113.3417,-7.943],[113.3037,-7.9249],[113.2747,-7.9253]]]},"properties":{"code":"35.08","name":"Kabupaten Lumajang","latitude":-8.125443593037627,"longitude":113.1384962451385}},{"type":"Feature","geometry":{"type":"MultiPolygon","coordinates":[[[[113.2963,-8.4444],[113.269,-8.4969],[113.3102,-8.5093],[113.3993,-8.4963],[113.3973,-8.455],[113.2963,-8.4444]]],[[[113.6872,-8.0115],[113.6652,-7.9685],[113.614,-7.9921],[113.5903,-7.9834],[113.4759,-8.0255],[113.391,-7.9972],[113.3789,-8.0205],[113.3667,-8.0859],[113.3724,-8.1464],[113.368,-8.1851],[113.3131,-8.2288],[113.3035,-8.3072],[113.3598,-8.3512],[113.3886,-8.4003],[113.4724,-8.3834],[113.4858,-8.4156],[113.5694,-8.4252],[113.639,-8.4546],[113.6466,-8.4944],[113.7031,-8.4825],[113.7561,-8.5186],[113.8045,-8.5204],[113.8376,-8.5537],[113.8547,-8.43],[113.9237,-8.3843],[113.9212,-8.3084],[113.9681,-8.2206],[113.9707,-8.1896],[114.0411,-8.1372],[114.0276,-8.1127],[114.0028,-8.0743],[113.8932,-8.0155],[113.857,-8.0417],[113.7492,-8.0494],[113.6872,-8.0115]]]]},"properties":{"code":"35.09","name":"Kabupaten Jember","latitude":-8.23513638687671,"longitude":113.6559519968585}},{"type":"Feature","geometry":{"type":"Polygon","coordinates":[[[114.424,-7.9355],[114.4129,-7.9401],[114.3965,-7.9268],[114.3328,-7.9069],[114.305,-7.8853],[114.2831,-7.8972],[114.2251,-7.983],[114.2407,-8.0134],[114.2358,-8.0312],[114.2488,-8.0456],[114.2311,-8.0704],[114.2197,-8.0737],[114.1952,-8.1036],[114.1465,-8.101],[114.0786,-8.1268],[114.0411,-8.1372],[113.9707,-8.1896],[113.9681,-8.2206],[113.9212,-8.3084],[113.9237,-8.3843],[113.8547,-8.43],[113.8376,-8.5537],[113.9093,-8.5791],[113.9463,-8.5587],[114.0327,-8.6331],[114.0955,-8.6147],[114.2206,-8.6449],[114.259,-8.6018],[114.3285,-8.6294],[114.3698,-8.6706],[114.3695,-8.7504],[114.4461,-8.7526],[114.5324,-8.7802],[114.587,-8.7638],[114.6053,-8.7175],[114.5684,-8.6593],[114.5144,-8.6501],[114.481,-8.6179],[114.4421,-8.6344],[114.3764,-8.532],[114.3407,-8.4171],[114.3658,-8.2792],[114.3902,-8.2344],[114.3985,-8.1211],[114.4298,-8.0658],[114.424,-7.9355]]]},"properties":{"code":"35.10","name":"Kabupaten Banyuwangi","latitude":-8.364660048320326,"longitude":114.20589727388659}},{"type":"Feature","geometry":{"type":"Polygon","coordinates":[[[114.1276,-7.993],[114.0925,-7.8754],[114.0884,-7.8027],[114.0663,-7.7594],[113.9924,-7.7778],[113.9508,-7.7652],[113.904,-7.8036],[113.8343,-7.8131],[113.7397,-7.7889],[113.7225,-7.879],[113.6604,-7.9385],[113.6233,-7.9622],[113.6295,-7.9725],[113.6357,-7.9656],[113.6701,-7.968],[113.6872,-8.0115],[113.7492,-8.0494],[113.857,-8.0417],[113.8932,-8.0155],[114.0028,-8.0743],[114.0276,-8.1127],[114.0786,-8.1268],[114.1465,-8.101],[114.1952,-8.1036],[114.2197,-8.0737],[114.2467,-8.0547],[114.2485,-8.0441],[114.2358,-8.0311],[114.2383,-8.0061],[114.2167,-7.9805],[114.1767,-7.9695],[114.1276,-7.993]]]},"properties":{"code":"35.11","name":"Kabupaten Bondowoso","latitude":-7.943685821878538,"longitude":113.9476982116547}},{"type":"Feature","geometry":{"type":"Polygon","coordinates":[[[114.424,-7.9355],[114.4635,-7.8899],[114.467,-7.8346],[114.4389,-7.7896],[114.3712,-7.7577],[114.2926,-7.7472],[114.24,-7.698],[114.2081,-7.7178],[114.1075,-7.7069],[114.0391,-7.6048],[113.9722,-7.6516],[113.9309,-7.7008],[113.8309,-7.6885],[113.7636,-7.738],[113.7134,-7.7083],[113.5793,-7.7259],[113.5764,-7.7562],[113.6007,-7.7753],[113.6029,-7.8431],[113.6235,-7.8955],[113.6255,-7.9237],[113.6157,-7.9581],[113.6604,-7.9385],[113.7225,-7.879],[113.7397,-7.7889],[113.8343,-7.8131],[113.904,-7.8036],[113.9508,-7.7652],[113.9924,-7.7778],[114.0663,-7.7594],[114.0884,-7.8027],[114.0925,-7.8754],[114.1276,-7.993],[114.1745,-7.9694],[114.2243,-7.9867],[114.2497,-7.9394],[114.2991,-7.8857],[114.4132,-7.9402],[114.424,-7.9355]]]},"properties":{"code":"35.12","name":"Kabupaten Situbondo","latitude":-7.801438530042718,"longitude":114.05136405329577}},{"type":"Feature","geometry":{"type":"Polygon","coordinates":[[[113.5764,-7.7562],[113.5454,-7.7135],[113.4911,-7.6982],[113.4389,-7.7346],[113.382,-7.7364],[113.3452,-7.7712],[113.234,-7.7805],[113.2358,-7.7976],[113.2259,-7.8016],[113.2041,-7.8127],[113.1831,-7.7907],[113.1401,-7.7256],[113.0881,-7.7074],[113.0547,-7.7482],[113.0472,-7.82],[112.9682,-7.9005],[112.9474,-7.9088],[112.9567,-7.9172],[112.9261,-7.9665],[112.9501,-7.987],[112.9931,-7.96],[113.009,-7.9634],[113.0361,-7.9805],[113.0788,-7.9842],[113.1495,-7.9798],[113.2074,-7.8999],[113.2747,-7.9253],[113.3037,-7.9249],[113.3413,-7.9425],[113.3617,-8.0279],[113.3789,-8.0205],[113.391,-7.9972],[113.4759,-8.0255],[113.5903,-7.9834],[113.614,-7.9921],[113.6357,-7.9656],[113.6295,-7.9725],[113.6157,-7.9581],[113.6111,-7.9501],[113.6263,-7.917],[113.6029,-7.8431],[113.6007,-7.7753],[113.5764,-7.7562]]]},"properties":{"code":"35.13","name":"Kabupaten Probolinggo","latitude":-7.866411109808781,"longitude":113.32023406480856}},{"type":"Feature","geometry":{"type":"Polygon","coordinates":[[[112.739,-7.5732],[112.6741,-7.5504],[112.6741,-7.5586],[112.6571,-7.5681],[112.6521,-7.5978],[112.6236,-7.6668],[112.5748,-7.7325],[112.6324,-7.7976],[112.7111,-7.8239],[112.7794,-7.8724],[112.8055,-7.9255],[112.8532,-7.9337],[112.9039,-7.947],[112.9154,-7.9513],[112.9567,-7.9172],[112.9474,-7.9088],[112.9682,-7.9005],[113.0472,-7.82],[113.0547,-7.7482],[113.0877,-7.7033],[113.0287,-7.6487],[112.8937,-7.6755],[112.8722,-7.6626],[112.8747,-7.6268],[112.8451,-7.5774],[112.832,-7.5524],[112.739,-7.5732]]]},"properties":{"code":"35.14","name":"Kabupaten Pasuruan","latitude":-7.742430912511771,"longitude":112.8318441016922}},{"type":"Feature","geometry":{"type":"Polygon","coordinates":[[[112.8451,-7.5774],[112.8661,-7.5405],[112.8411,-7.4811],[112.8125,-7.3464],[112.7554,-7.3367],[112.7043,-7.3365],[112.6534,-7.3622],[112.5836,-7.3834],[112.5251,-7.3972],[112.4567,-7.447],[112.5689,-7.4787],[112.6696,-7.5624],[112.739,-7.5732],[112.832,-7.5524],[112.8451,-7.5774]]]},"properties":{"code":"35.15","name":"Kabupaten Sidoarjo","latitude":-7.451472833864771,"longitude":112.70030279079559}},{"type":"Feature","geometry":{"type":"Polygon","coordinates":[[[112.4588,-7.3121],[112.4109,-7.3119],[112.3912,-7.3335],[112.3586,-7.3265],[112.3489,-7.3374],[112.3319,-7.3797],[112.3413,-7.4323],[112.3743,-7.4872],[112.3637,-7.5528],[112.41,-7.645],[112.4556,-7.7792],[112.463,-7.769],[112.4895,-7.7655],[112.5279,-7.7351],[112.5622,-7.7378],[112.5837,-7.7232],[112.6236,-7.6668],[112.6521,-7.5978],[112.6638,-7.5573],[112.5689,-7.4787],[112.4567,-7.447],[112.4946,-7.4085],[112.473,-7.3532],[112.4763,-7.3296],[112.4588,-7.3121]],[[112.4551,-7.4474],[112.4671,-7.4532],[112.4221,-7.4941],[112.4158,-7.4573],[112.4551,-7.4474]]]},"properties":{"code":"35.16","name":"Kabupaten Mojokerto","latitude":-7.5506917534365625,"longitude":112.48443825629958}},{"type":"Feature","geometry":{"type":"Polygon","coordinates":[[[112.3458,-7.3451],[112.3078,-7.3518],[112.314,-7.365],[112.3023,-7.3571],[112.2114,-7.3486],[112.1066,-7.3838],[112.0626,-7.4173],[112.0809,-7.4522],[112.1549,-7.4633],[112.1521,-7.5061],[112.1341,-7.5353],[112.1105,-7.5931],[112.1654,-7.613],[112.2519,-7.7258],[112.3018,-7.7268],[112.3973,-7.7761],[112.418,-7.7642],[112.4556,-7.7792],[112.41,-7.645],[112.3637,-7.5528],[112.3743,-7.4872],[112.3413,-7.4323],[112.3439,-7.3919],[112.3339,-7.3885],[112.3322,-7.3708],[112.3458,-7.3451]]]},"properties":{"code":"35.17","name":"Kabupaten Jombang","latitude":-7.544634889859412,"longitude":112.26408497780137}},{"type":"Feature","geometry":{"type":"Polygon","coordinates":[[[112.0809,-7.4522],[112.0242,-7.3956],[111.958,-7.4133],[111.9598,-7.4269],[111.9054,-7.4333],[111.821,-7.4396],[111.8012,-7.459],[111.8213,-7.4723],[111.8256,-7.4953],[111.8497,-7.5082],[111.8331,-7.5488],[111.8021,-7.5488],[111.7829,-7.6504],[111.7542,-7.7028],[111.7253,-7.7766],[111.7671,-7.8232],[111.7767,-7.8202],[111.814,-7.813],[111.928,-7.7226],[111.9541,-7.6796],[111.9976,-7.7293],[112.0272,-7.7257],[112.0591,-7.7235],[112.0759,-7.6788],[112.0984,-7.6441],[112.1116,-7.5659],[112.1341,-7.5353],[112.1521,-7.5061],[112.1549,-7.4633],[112.0809,-7.4522]]]},"properties":{"code":"35.18","name":"Kabupaten Nganjuk","latitude":-7.597495579235766,"longitude":111.9385462072378}},{"type":"Feature","geometry":{"type":"Polygon","coordinates":[[[111.8331,-7.5488],[111.8496,-7.5072],[111.8251,-7.4947],[111.8131,-7.4631],[111.7673,-7.4688],[111.6915,-7.4226],[111.6736,-7.4107],[111.6506,-7.4387],[111.6227,-7.4688],[111.5908,-7.5069],[111.5411,-7.5359],[111.5038,-7.5529],[111.4745,-7.6086],[111.4841,-7.6628],[111.5106,-7.6341],[111.4969,-7.6451],[111.512,-7.6082],[111.5332,-7.6027],[111.559,-7.6051],[111.5442,-7.6591],[111.5107,-7.6592],[111.4987,-7.6741],[111.4587,-7.725],[111.469,-7.7771],[111.5087,-7.7995],[111.5989,-7.777],[111.6777,-7.7741],[111.6938,-7.8053],[111.7194,-7.8111],[111.7505,-7.7991],[111.7253,-7.7766],[111.7542,-7.7028],[111.7829,-7.6504],[111.8021,-7.5488],[111.8331,-7.5488]]]},"properties":{"code":"35.19","name":"Kabupaten Madiun","latitude":-7.623615892933428,"longitude":111.64585875830551}},{"type":"Feature","geometry":{"type":"Polygon","coordinates":[[[111.4792,-7.5171],[111.4602,-7.5176],[111.3836,-7.5371],[111.2911,-7.6037],[111.2592,-7.5984],[111.194,-7.6184],[111.1858,-7.6577],[111.1956,-7.6732],[111.1825,-7.6893],[111.212,-7.7222],[111.2819,-7.7846],[111.3147,-7.7922],[111.4132,-7.7759],[111.4587,-7.725],[111.4987,-7.6741],[111.4841,-7.6628],[111.4745,-7.6086],[111.5038,-7.5529],[111.5118,-7.5236],[111.4792,-7.5171]]]},"properties":{"code":"35.20","name":"Kabupaten Magetan","latitude":-7.663380036623219,"longitude":111.35743424446322}},{"type":"Feature","geometry":{"type":"Polygon","coordinates":[[[111.2439,-7.2853],[111.1999,-7.2559],[111.1778,-7.2646],[111.1344,-7.2977],[111.1453,-7.3685],[111.1184,-7.4149],[111.1527,-7.4995],[111.1523,-7.5614],[111.1683,-7.5902],[111.193,-7.604],[111.1951,-7.6201],[111.2585,-7.5985],[111.2911,-7.6037],[111.3836,-7.5371],[111.4602,-7.5176],[111.4792,-7.5171],[111.5118,-7.5236],[111.5411,-7.5359],[111.5908,-7.5069],[111.6227,-7.4688],[111.6506,-7.4387],[111.6735,-7.4118],[111.5749,-7.3486],[111.5279,-7.3722],[111.4625,-7.3781],[111.3607,-7.3301],[111.3445,-7.319],[111.2439,-7.2853]]]},"properties":{"code":"35.21","name":"Kabupaten Ngawi","latitude":-7.438824403789792,"longitude":111.34341383304817}},{"type":"Feature","geometry":{"type":"Polygon","coordinates":[[[111.6514,-6.9998],[111.6132,-7.0067],[111.6299,-7.0595],[111.606,-7.1279],[111.5987,-7.1453],[111.5872,-7.1856],[111.5367,-7.2159],[111.4878,-7.2429],[111.4773,-7.2519],[111.4616,-7.2624],[111.4514,-7.2741],[111.4419,-7.2896],[111.4576,-7.3216],[111.4627,-7.3455],[111.5279,-7.3722],[111.5749,-7.3486],[111.7167,-7.4432],[111.7705,-7.4696],[111.8004,-7.4611],[111.821,-7.4396],[111.9054,-7.4333],[111.9598,-7.4269],[111.958,-7.4133],[112.0242,-7.3956],[112.0893,-7.3685],[112.0771,-7.3133],[112.0871,-7.2297],[112.1396,-7.158],[112.1513,-7.1582],[112.1541,-7.1198],[112.1462,-7.1067],[112.1443,-7.1063],[112.0413,-7.0817],[112.0443,-7.0712],[112.0313,-7.0791],[112.0204,-7.0874],[111.9951,-7.1145],[111.9304,-7.1328],[111.8779,-7.1333],[111.8242,-7.1004],[111.7119,-7.081],[111.6941,-7.0686],[111.6938,-7.0541],[111.6514,-6.9998]]]},"properties":{"code":"35.22","name":"Kabupaten Bojonegoro","latitude":-7.255575904171538,"longitude":111.80986997600675}},{"type":"Feature","geometry":{"type":"Polygon","coordinates":[[[112.1804,-6.9131],[112.0532,-6.8871],[111.9606,-6.7623],[111.8375,-6.801],[111.7661,-6.7718],[111.6695,-6.7634],[111.6564,-6.8263],[111.6192,-6.8217],[111.6023,-6.9117],[111.5672,-6.9516],[111.6147,-6.9711],[111.6514,-6.9998],[111.6938,-7.0541],[111.6913,-7.0634],[111.7022,-7.0752],[111.7625,-7.0879],[111.814,-7.0863],[111.8242,-7.1004],[111.8779,-7.1333],[111.9304,-7.1328],[111.9951,-7.1145],[112.0204,-7.0874],[112.0313,-7.0791],[112.0443,-7.0712],[112.0413,-7.0817],[112.1443,-7.1063],[112.1462,-7.1067],[112.1898,-7.0844],[112.2158,-7.0429],[112.2146,-7.0094],[112.1804,-6.9131]]]},"properties":{"code":"35.23","name":"Kabupaten Tuban","latitude":-6.9534129686812065,"longitude":111.89224221212113}},{"type":"Feature","geometry":{"type":"Polygon","coordinates":[[[112.4241,-6.9109],[112.3881,-6.8761],[112.3337,-6.8612],[112.2239,-6.8724],[112.1804,-6.9131],[112.203,-6.9183],[112.2146,-7.0094],[112.2158,-7.0429],[112.1898,-7.0844],[112.1541,-7.1198],[112.1513,-7.1582],[112.1396,-7.158],[112.0871,-7.2297],[112.0771,-7.3133],[112.1066,-7.3838],[112.2114,-7.3486],[112.3023,-7.3571],[112.314,-7.365],[112.3078,-7.3518],[112.3458,-7.3451],[112.3586,-7.3265],[112.3888,-7.3215],[112.4124,-7.2729],[112.4557,-7.2072],[112.5059,-7.1636],[112.476,-7.1257],[112.5356,-7.0961],[112.5192,-7.0471],[112.4975,-7.0172],[112.4811,-7.0029],[112.4522,-7.0011],[112.3673,-6.9877],[112.4052,-6.9605],[112.4241,-6.9109]]]},"properties":{"code":"35.24","name":"Kabupaten Lamongan","latitude":-7.131410514989188,"longitude":112.30074592146252}},{"type":"Feature","geometry":{"type":"MultiPolygon","coordinates":[[[[112.6632,-7.1932],[112.6302,-7.1363],[112.6504,-7.0187],[112.6153,-6.9932],[112.5835,-6.8899],[112.5563,-6.847],[112.5197,-6.9059],[112.4484,-6.8848],[112.4241,-6.9109],[112.4052,-6.9605],[112.3673,-6.9877],[112.4522,-7.0011],[112.4811,-7.0029],[112.4975,-7.0172],[112.5192,-7.0471],[112.5356,-7.0961],[112.476,-7.1257],[112.5059,-7.1636],[112.4557,-7.2072],[112.4124,-7.2729],[112.3888,-7.3215],[112.3912,-7.3335],[112.4109,-7.3119],[112.4588,-7.3121],[112.4763,-7.3296],[112.473,-7.3532],[112.4946,-7.4085],[112.5251,-7.3972],[112.5836,-7.3834],[112.6534,-7.3622],[112.6646,-7.3514],[112.5901,-7.2152],[112.5992,-7.2233],[112.6103,-7.208],[112.621,-7.2087],[112.6632,-7.1932]]],[[[112.6863,-5.7158],[112.5978,-5.7689],[112.5745,-5.8271],[112.5917,-5.8556],[112.6851,-5.8559],[112.733,-5.8323],[112.7415,-5.7885],[112.6863,-5.7158]]]]},"properties":{"code":"35.25","name":"Kabupaten Gresik","latitude":-6.926256532331929,"longitude":112.55864603414607}},{"type":"Feature","geometry":{"type":"Polygon","coordinates":[[[113.1247,-6.893],[113.0343,-6.8796],[112.8636,-6.892],[112.7821,-6.9919],[112.6738,-7.0735],[112.7064,-7.0981],[112.6918,-7.1552],[112.7229,-7.1761],[112.7769,-7.1593],[112.865,-7.1621],[113.0013,-7.2095],[113.0602,-7.1893],[113.0484,-7.1844],[113.0675,-7.1638],[113.0729,-7.1492],[113.0931,-7.1327],[113.1078,-7.1076],[113.1078,-7.081],[113.1123,-7.058],[113.1475,-6.99],[113.1104,-6.9871],[113.0994,-6.9573],[113.096,-6.9378],[113.1179,-6.933],[113.1247,-6.893]]]},"properties":{"code":"35.26","name":"Kabupaten Bangkalan","latitude":-7.044336159120006,"longitude":112.92953638360994}},{"type":"Feature","geometry":{"type":"Polygon","coordinates":[[[113.4778,-6.9243],[113.4168,-6.8868],[113.1247,-6.893],[113.1184,-6.9323],[113.097,-6.9357],[113.0961,-6.9426],[113.1093,-6.9859],[113.1346,-6.9787],[113.1475,-6.99],[113.1123,-7.058],[113.1078,-7.081],[113.1078,-7.1076],[113.0931,-7.1327],[113.0729,-7.1492],[113.0675,-7.1638],[113.0484,-7.1844],[113.0602,-7.1893],[113.1003,-7.229],[113.379,-7.2109],[113.37,-7.1123],[113.3846,-7.0889],[113.3953,-7.0707],[113.4215,-7.0114],[113.4344,-6.9614],[113.4778,-6.9243]]]},"properties":{"code":"35.27","name":"Kabupaten Sampang","latitude":-7.052024464132133,"longitude":113.25634302531333}},{"type":"Feature","geometry":{"type":"Polygon","coordinates":[[[113.6356,-6.9172],[113.6425,-6.8877],[113.4834,-6.8967],[113.4778,-6.9243],[113.4344,-6.9614],[113.4215,-7.0114],[113.3953,-7.0707],[113.3846,-7.0889],[113.37,-7.1123],[113.379,-7.2109],[113.552,-7.2338],[113.5737,-7.1614],[113.6115,-7.1056],[113.5762,-7.0314],[113.5923,-7.0094],[113.6356,-6.9172]]]},"properties":{"code":"35.28","name":"Kabupaten Pamekasan","latitude":-7.065223893199625,"longitude":113.5040466553042}},{"type":"Feature","geometry":{"type":"MultiPolygon","coordinates":[[[[115.9058,-7.1054],[115.8089,-7.1539],[115.7828,-7.1095],[115.7416,-7.1546],[115.828,-7.206],[115.8978,-7.1805],[115.9058,-7.1054]]],[[[114.3314,-7.0554],[114.2756,-7.0827],[114.3125,-7.1594],[114.3903,-7.1803],[114.3729,-7.0918],[114.3314,-7.0554]]],[[[113.6115,-7.1056],[113.6834,-7.1086],[113.816,-7.1331],[113.8919,-7.1328],[113.8783,-7.0768],[113.9411,-7.0573],[113.989,-7.0083],[114.0431,-7.0078],[114.093,-6.98],[114.0916,-6.9293],[113.9673,-6.8731],[113.9095,-6.8637],[113.7957,-6.8859],[113.6425,-6.8876],[113.6356,-6.9172],[113.5923,-7.0094],[113.5762,-7.0314],[113.5821,-7.0435],[113.6049,-7.0425],[113.5912,-7.0612],[113.6213,-7.0852],[113.6115,-7.1056]]],[[[115.2667,-6.8273],[115.2395,-6.886],[115.1975,-6.9219],[115.2627,-6.9636],[115.2927,-7.0127],[115.4035,-6.9888],[115.3386,-6.9321],[115.3722,-6.8994],[115.4491,-6.911],[115.5482,-6.9661],[115.5569,-6.9042],[115.393,-6.8345],[115.2667,-6.8273]]]]},"properties":{"code":"35.29","name":"Kabupaten Sumenep","latitude":-6.966307060923299,"longitude":114.40313360696307}},{"type":"Feature","geometry":{"type":"Polygon","coordinates":[[[112.0313,-7.8003],[111.9986,-7.7714],[111.9982,-7.8516],[112.0658,-7.8546],[112.0313,-7.8003]]]},"properties":{"code":"35.71","name":"Kota Kediri","latitude":-7.826370090103971,"longitude":112.01612339924802}},{"type":"Feature","geometry":{"type":"Polygon","coordinates":[[[112.1873,-8.0655],[112.1721,-8.0582],[112.149,-8.1276],[112.2005,-8.0928],[112.1873,-8.0655]]]},"properties":{"code":"35.72","name":"Kota Blitar","latitude":-8.094766713715375,"longitude":112.16697121377153}},{"type":"Feature","geometry":{"type":"Polygon","coordinates":[[[112.64,-7.9216],[112.6033,-7.9705],[112.5911,-7.9741],[112.5969,-7.9838],[112.6187,-8.011],[112.6309,-8.035],[112.6458,-8.0516],[112.6721,-8.009],[112.64,-7.9216]]]},"properties":{"code":"35.73","name":"Kota Malang","latitude":-7.978300291719902,"longitude":112.63590685472691}},{"type":"Feature","geometry":{"type":"Polygon","coordinates":[[[113.234,-7.7805],[113.1831,-7.7907],[113.2041,-7.8127],[113.2259,-7.8016],[113.2358,-7.7976],[113.234,-7.7805]]]},"properties":{"code":"35.74","name":"Kota Probolinggo","latitude":-7.773810528662421,"longitude":113.20546894160377}},{"type":"Feature","geometry":{"type":"Polygon","coordinates":[[[112.8937,-7.6755],[112.8747,-7.6268],[112.8722,-7.6626],[112.8937,-7.6755]]]},"properties":{"code":"35.75","name":"Kota Pasuruan","latitude":-7.649572436747946,"longitude":112.91000464212}},{"type":"Feature","geometry":{"type":"Polygon","coordinates":[[[112.4671,-7.4532],[112.4551,-7.4474],[112.4158,-7.4573],[112.4221,-7.4941],[112.4671,-7.4532]]]},"properties":{"code":"35.76","name":"Kota Mojokerto","latitude":-7.471389237257247,"longitude":112.43750790606278}},{"type":"Feature","geometry":{"type":"Polygon","coordinates":[[[111.559,-7.6051],[111.5332,-7.6027],[111.512,-7.6082],[111.4969,-7.6451],[111.5106,-7.6341],[111.5442,-7.6591],[111.559,-7.6051]]]},"properties":{"code":"35.77","name":"Kota Madiun","latitude":-7.629454061309314,"longitude":111.52726721367931}},{"type":"Feature","geometry":{"type":"Polygon","coordinates":[[[112.7554,-7.3367],[112.8279,-7.3428],[112.8463,-7.3004],[112.7634,-7.1958],[112.67,-7.2214],[112.6632,-7.1932],[112.621,-7.2087],[112.6103,-7.208],[112.5992,-7.2233],[112.5901,-7.2152],[112.6646,-7.3514],[112.7043,-7.3365],[112.7554,-7.3367]]]},"properties":{"code":"35.78","name":"Kota Surabaya","latitude":-7.274322819003532,"longitude":112.72358412445607}},{"type":"Feature","geometry":{"type":"Polygon","coordinates":[[[112.5643,-7.8795],[112.5898,-7.765],[112.5279,-7.7351],[112.4895,-7.7655],[112.4996,-7.8157],[112.4844,-7.9312],[112.5825,-7.9093],[112.5833,-7.8885],[112.5643,-7.8795]]]},"properties":{"code":"35.79","name":"Kota Batu","latitude":-7.8346737976087795,"longitude":112.53375557411108}}]}