{"type":"FeatureCollection","features":[{"type":"Feature","geometry":{"type":"MultiPolygon","coordinates":[[[[105.2615,-6.5213],[105.1602,-6.5754],[105.2162,-6.6382],[105.2591,-6.6046],[105.2615,-6.5213]]],[[[105.9164,-6.25],[105.8777,-6.2396],[105.8269,-6.2478],[105.8229,-6.4373],[105.7721,-6.5165],[105.7147,-6.5327],[105.6501,-6.4812],[105.6163,-6.559],[105.6113,-6.6329],[105.5067,-6.7304],[105.5001,-6.7923],[105.4429,-6.8222],[105.4303,-6.7674],[105.3696,-6.6464],[105.3303,-6.696],[105.2349,-6.7581],[105.2377,-6.836],[105.3271,-6.8026],[105.439,-6.8361],[105.4793,-6.8651],[105.6705,-6.836],[105.7742,-6.8503],[105.8884,-6.8208],[105.8781,-6.8223],[105.8792,-6.8137],[105.8778,-6.7948],[105.884,-6.7645],[105.9195,-6.7176],[105.9287,-6.6166],[105.9828,-6.5421],[105.9851,-6.515],[106.0428,-6.4113],[106.0557,-6.4144],[106.1181,-6.4205],[106.1315,-6.3775],[106.1321,-6.3463],[106.1515,-6.325],[106.1564,-6.2981],[106.135,-6.2577],[106.1226,-6.2489],[106.1048,-6.2391],[106.085,-6.2276],[106.0775,-6.2516],[106.0605,-6.2668],[106.0013,-6.2754],[105.9814,-6.2652],[105.9496,-6.2483],[105.9345,-6.2403],[105.9164,-6.25]]]]},"properties":{"code":"36.01","name":"Kabupaten Pandeglang","latitude":-6.590233346882594,"longitude":105.74297025290407}},{"type":"Feature","geometry":{"type":"Polygon","coordinates":[[[106.2344,-6.3021],[106.1564,-6.2981],[106.1515,-6.325],[106.1321,-6.3463],[106.1315,-6.3775],[106.1181,-6.4205],[106.0557,-6.4144],[106.0428,-6.4113],[105.9851,-6.515],[105.9828,-6.5421],[105.9287,-6.6166],[105.9195,-6.7176],[105.884,-6.7645],[105.8778,-6.7948],[105.8792,-6.8137],[105.8781,-6.8223],[105.8884,-6.8208],[105.9693,-6.8116],[106.0641,-6.8363],[106.1061,-6.8829],[106.2377,-6.9309],[106.31,-6.9957],[106.3971,-6.9785],[106.3897,-6.9422],[106.3929,-6.9006],[106.4311,-6.8621],[106.4361,-6.8198],[106.4976,-6.7912],[106.5262,-6.7678],[106.4668,-6.751],[106.4507,-6.7267],[106.4493,-6.7072],[106.4293,-6.6811],[106.43,-6.58],[106.422,-6.5499],[106.4119,-6.468],[106.4013,-6.4529],[106.4547,-6.4269],[106.4539,-6.414],[106.434,-6.3938],[106.4292,-6.3503],[106.4103,-6.3451],[106.4009,-6.3303],[106.3195,-6.3351],[106.2597,-6.3108],[106.2438,-6.3046],[106.2344,-6.3021]]]},"properties":{"code":"36.02","name":"Kabupaten Lebak","latitude":-6.64202012285075,"longitude":106.2124224818975}},{"type":"Feature","geometry":{"type":"Polygon","coordinates":[[[106.6758,-6.0986],[106.725,-6.0897],[106.7097,-6.0366],[106.6476,-6.0058],[106.5867,-6.0325],[106.4851,-6.0487],[106.4413,-6.028],[106.3804,-6.0391],[106.3665,-6.0385],[106.3507,-6.1099],[106.3926,-6.1518],[106.3664,-6.2148],[106.3828,-6.2619],[106.3919,-6.3139],[106.3993,-6.316],[106.4103,-6.3451],[106.4425,-6.3241],[106.4763,-6.3507],[106.5773,-6.3386],[106.5939,-6.3627],[106.647,-6.3404],[106.6575,-6.2898],[106.6519,-6.2692],[106.6125,-6.2159],[106.6011,-6.2055],[106.5526,-6.1995],[106.592,-6.1585],[106.6428,-6.1086],[106.6726,-6.1195],[106.6758,-6.0986]]]},"properties":{"code":"36.03","name":"Kabupaten Tangerang","latitude":-6.174464598725415,"longitude":106.51892886777627}},{"type":"Feature","geometry":{"type":"Polygon","coordinates":[[[106.1483,-6.0203],[106.1044,-5.9784],[106.1143,-5.931],[106.0722,-5.8823],[106.0314,-5.9338],[106.0579,-5.9587],[106.0851,-6.0356],[106.0203,-6.0781],[106.0296,-6.04],[105.9443,-6.0459],[105.8849,-6.0696],[105.8269,-6.2478],[105.8777,-6.2396],[105.9164,-6.25],[105.9345,-6.2403],[105.9496,-6.2483],[105.9814,-6.2652],[105.9949,-6.2739],[106.027,-6.2752],[106.0659,-6.2635],[106.0855,-6.2276],[106.1048,-6.2391],[106.1226,-6.2489],[106.135,-6.2577],[106.1718,-6.2913],[106.2344,-6.3021],[106.2438,-6.3046],[106.2597,-6.3108],[106.3195,-6.3351],[106.4009,-6.3303],[106.3993,-6.316],[106.3919,-6.3139],[106.3828,-6.2619],[106.3664,-6.2148],[106.3926,-6.1518],[106.3507,-6.1099],[106.3665,-6.0385],[106.3804,-6.0391],[106.3891,-5.9782],[106.3329,-5.9865],[106.265,-5.9589],[106.2164,-6.0162],[106.2192,-6.0834],[106.2557,-6.1462],[106.2419,-6.174],[106.2195,-6.1869],[106.1999,-6.1984],[106.1923,-6.218],[106.138,-6.2093],[106.1349,-6.1924],[106.0757,-6.183],[106.0762,-6.1501],[106.0692,-6.1334],[106.1101,-6.0858],[106.1489,-6.0676],[106.1483,-6.0203]]]},"properties":{"code":"36.04","name":"Kabupaten Serang","latitude":-6.141738117820271,"longitude":106.1460756084399}},{"type":"Feature","geometry":{"type":"Polygon","coordinates":[[[106.6969,-6.1106],[106.688,-6.0971],[106.6758,-6.0986],[106.6726,-6.1195],[106.6428,-6.1086],[106.592,-6.1585],[106.5526,-6.1995],[106.6011,-6.2055],[106.6125,-6.2159],[106.6871,-6.2386],[106.704,-6.2561],[106.7181,-6.223],[106.6868,-6.1724],[106.6969,-6.1106]]]},"properties":{"code":"36.71","name":"Kota Tangerang","latitude":-6.1843711090906055,"longitude":106.65199394470586}},{"type":"Feature","geometry":{"type":"Polygon","coordinates":[[[106.0314,-5.9338],[105.9443,-6.0459],[106.0296,-6.04],[106.0203,-6.0781],[106.0851,-6.0356],[106.0579,-5.9587],[106.0314,-5.9338]]]},"properties":{"code":"36.72","name":"Kota Cilegon","latitude":-5.998895625700708,"longitude":106.01849218045317}},{"type":"Feature","geometry":{"type":"Polygon","coordinates":[[[106.2164,-6.0162],[106.1483,-6.0203],[106.1489,-6.0676],[106.1101,-6.0858],[106.0692,-6.1334],[106.0762,-6.1501],[106.0757,-6.183],[106.1349,-6.1924],[106.1377,-6.2089],[106.1573,-6.2074],[106.1582,-6.2148],[106.1754,-6.2189],[106.1923,-6.2179],[106.2195,-6.1869],[106.2419,-6.174],[106.2557,-6.1462],[106.2192,-6.0834],[106.2164,-6.0162]]]},"properties":{"code":"36.73","name":"Kota Serang","latitude":-6.12332358762211,"longitude":106.1667505708747}},{"type":"Feature","geometry":{"type":"Polygon","coordinates":[[[106.6871,-6.2386],[106.6519,-6.2692],[106.6575,-6.2898],[106.647,-6.3404],[106.657,-6.3584],[106.651,-6.3622],[106.7699,-6.3612],[106.7601,-6.2864],[106.7515,-6.2745],[106.704,-6.2561],[106.6871,-6.2386]]]},"properties":{"code":"36.74","name":"Kota Tangerang Selatan","latitude":-6.3021200760979115,"longitude":106.70738498604467}}]}