{"type":"FeatureCollection","features":[{"type":"Feature","geometry":{"type":"Polygon","coordinates":[[[116.3059,-8.4571],[116.3355,-8.4192],[116.3373,-8.4105],[116.2671,-8.4506],[116.2139,-8.4804],[116.0366,-8.4702],[116.0694,-8.552],[116.1394,-8.5652],[116.131,-8.6192],[116.0746,-8.6228],[116.072,-8.6699],[116.0591,-8.7269],[115.9901,-8.7307],[115.9148,-8.7755],[115.8649,-8.7427],[115.821,-8.7522],[115.8312,-8.8151],[115.9334,-8.8334],[116.0081,-8.9043],[116.1141,-8.8623],[116.0926,-8.8518],[116.0924,-8.8386],[116.1335,-8.7683],[116.1416,-8.7662],[116.1398,-8.729],[116.1744,-8.7267],[116.1961,-8.6735],[116.1748,-8.6222],[116.2495,-8.5927],[116.3207,-8.5046],[116.3059,-8.4571]]]},"properties":{"code":"52.01","name":"Kabupaten Lombok Barat","latitude":-8.665468042936132,"longitude":116.0934574456719}},{"type":"Feature","geometry":{"type":"Polygon","coordinates":[[[116.3851,-8.4214],[116.3824,-8.4101],[116.3523,-8.4104],[116.3373,-8.4105],[116.3059,-8.4571],[116.3207,-8.5046],[116.2495,-8.5927],[116.1748,-8.6222],[116.1961,-8.6735],[116.1744,-8.7267],[116.1398,-8.729],[116.1416,-8.7662],[116.1335,-8.7683],[116.1207,-8.8068],[116.1067,-8.8165],[116.0919,-8.846],[116.1141,-8.8623],[116.1567,-8.8653],[116.173,-8.9137],[116.3581,-8.9115],[116.4027,-8.8646],[116.396,-8.8178],[116.4458,-8.7459],[116.4287,-8.6911],[116.395,-8.6842],[116.3761,-8.6357],[116.384,-8.4927],[116.4053,-8.4645],[116.4063,-8.4345],[116.3851,-8.4214]]]},"properties":{"code":"52.02","name":"Kabupaten Lombok Tengah","latitude":-8.72214701149353,"longitude":116.28983887403636}},{"type":"Feature","geometry":{"type":"Polygon","coordinates":[[[116.4027,-8.8646],[116.4406,-8.8421],[116.449,-8.9215],[116.5708,-8.8918],[116.5113,-8.7786],[116.546,-8.7527],[116.6232,-8.6049],[116.665,-8.5625],[116.6616,-8.4873],[116.711,-8.4432],[116.7183,-8.3474],[116.6516,-8.2888],[116.4945,-8.2467],[116.4699,-8.2736],[116.4674,-8.3306],[116.4236,-8.4111],[116.4033,-8.4404],[116.4034,-8.4686],[116.3843,-8.4905],[116.3795,-8.5311],[116.3761,-8.6357],[116.395,-8.6842],[116.4287,-8.6911],[116.4458,-8.7459],[116.396,-8.8178],[116.4027,-8.8646]]]},"properties":{"code":"52.03","name":"Kabupaten Lombok Timur","latitude":-8.532324119332554,"longitude":116.53081208389017}},{"type":"Feature","geometry":{"type":"MultiPolygon","coordinates":[[[[118.1758,-8.6548],[118.088,-8.6523],[118.0364,-8.6712],[117.9653,-8.7423],[117.871,-8.6964],[117.8047,-8.7273],[117.7728,-8.7117],[117.7491,-8.6446],[117.7614,-8.5988],[117.644,-8.556],[117.6246,-8.4432],[117.5744,-8.4418],[117.5637,-8.4058],[117.4352,-8.412],[117.4035,-8.4664],[117.2019,-8.4063],[117.1551,-8.3643],[117.1232,-8.369],[117.0667,-8.4352],[117.0351,-8.444],[116.9982,-8.507],[116.8726,-8.5288],[116.9354,-8.6062],[116.9953,-8.6155],[117.0397,-8.6715],[117.0901,-8.7029],[117.0902,-8.7607],[117.0527,-8.7953],[117.0819,-8.8357],[117.0648,-8.8761],[117.0881,-8.9307],[117.0593,-9.0562],[117.0575,-9.1042],[117.1351,-9.084],[117.1858,-9.0208],[117.271,-9.0413],[117.4104,-9.0494],[117.5473,-9.0031],[117.6905,-8.9188],[117.7655,-8.9342],[117.8171,-8.899],[117.8378,-8.9316],[117.9808,-8.8948],[118.0127,-8.8528],[118.0795,-8.8402],[118.127,-8.8779],[118.1852,-8.8539],[118.2215,-8.8068],[118.3236,-8.7316],[118.3122,-8.6934],[118.1884,-8.7057],[118.1758,-8.6548]]],[[[117.56,-8.1442],[117.4801,-8.1923],[117.4789,-8.2574],[117.5082,-8.2731],[117.4702,-8.356],[117.5281,-8.3896],[117.5703,-8.3353],[117.6103,-8.2381],[117.69,-8.1807],[117.6628,-8.1501],[117.56,-8.1442]]]]},"properties":{"code":"52.04","name":"Kabupaten Sumbawa","latitude":-8.703298122597804,"longitude":117.48426111079142}},{"type":"Feature","geometry":{"type":"Polygon","coordinates":[[[117.7655,-8.1435],[117.719,-8.164],[117.6909,-8.2348],[117.817,-8.3514],[117.9804,-8.4648],[118.0821,-8.4507],[118.1054,-8.4952],[118.2091,-8.5522],[118.2879,-8.6257],[118.2038,-8.6728],[118.1758,-8.6548],[118.1884,-8.7057],[118.3122,-8.6934],[118.3771,-8.6947],[118.4288,-8.7203],[118.3863,-8.7639],[118.3796,-8.8284],[118.418,-8.8717],[118.4738,-8.8669],[118.5,-8.7965],[118.5131,-8.7482],[118.5364,-8.6814],[118.5066,-8.5953],[118.5139,-8.5062],[118.4822,-8.4604],[118.5426,-8.3949],[118.5,-8.3488],[118.4517,-8.2754],[118.4435,-8.2689],[118.4395,-8.2783],[118.3892,-8.3036],[118.3412,-8.3444],[118.3082,-8.4116],[118.2984,-8.4287],[118.2721,-8.4393],[118.2074,-8.4373],[118.1838,-8.4175],[118.1456,-8.4058],[118.0494,-8.3395],[118.0245,-8.2992],[117.9733,-8.273],[117.9288,-8.22],[117.8512,-8.2134],[117.7655,-8.1435]]]},"properties":{"code":"52.05","name":"Kabupaten Dompu","latitude":-8.472224492886417,"longitude":118.21686473283386}},{"type":"Feature","geometry":{"type":"MultiPolygon","coordinates":[[[[118.7901,-8.5138],[118.7406,-8.5172],[118.7134,-8.4954],[118.6618,-8.5105],[118.6865,-8.4598],[118.6956,-8.3781],[118.6458,-8.2895],[118.5844,-8.2664],[118.4636,-8.2459],[118.4447,-8.2684],[118.4797,-8.3105],[118.5,-8.3488],[118.5426,-8.3949],[118.4822,-8.4604],[118.5139,-8.5062],[118.5066,-8.5953],[118.5364,-8.6814],[118.5131,-8.7482],[118.5,-8.7965],[118.4773,-8.8833],[118.6377,-8.8139],[118.7581,-8.797],[118.8364,-8.8458],[118.9036,-8.8436],[118.9598,-8.8176],[118.8991,-8.7627],[118.7465,-8.764],[118.72,-8.739],[118.7606,-8.6928],[118.8462,-8.7301],[118.9079,-8.6801],[118.9717,-8.7489],[119.036,-8.733],[119.0833,-8.7425],[119.1724,-8.7238],[119.1297,-8.63],[119.0554,-8.6526],[119.0134,-8.5381],[119.052,-8.5139],[119.0469,-8.4382],[118.9915,-8.375],[119.001,-8.3104],[118.8896,-8.2845],[118.8211,-8.2807],[118.7369,-8.3388],[118.7469,-8.3775],[118.8023,-8.4277],[118.8749,-8.4358],[118.8749,-8.4832],[118.7901,-8.5138]]],[[[119.068,-8.131],[119.0125,-8.1539],[119.0011,-8.2313],[119.0429,-8.2611],[119.0886,-8.2508],[119.1233,-8.1992],[119.1128,-8.1565],[119.068,-8.131]]],[[[118.3082,-8.4116],[118.3174,-8.3703],[118.2335,-8.3323],[118.1469,-8.1998],[118.1431,-8.1348],[118.0807,-8.1003],[117.9606,-8.1072],[117.9238,-8.0801],[117.8285,-8.1295],[117.7655,-8.1435],[117.8512,-8.2134],[117.9288,-8.22],[117.9733,-8.273],[118.0245,-8.2992],[118.0494,-8.3395],[118.1456,-8.4058],[118.2052,-8.4367],[118.2733,-8.439],[118.2984,-8.4287],[118.3082,-8.4116]]]]},"properties":{"code":"52.06","name":"Kabupaten Bima","latitude":-8.474806634490488,"longitude":118.61901683987931}},{"type":"Feature","geometry":{"type":"Polygon","coordinates":[[[116.8726,-8.5288],[116.7885,-8.5896],[116.7641,-8.6536],[116.783,-8.751],[116.8147,-8.813],[116.7329,-8.8693],[116.7395,-8.997],[116.7881,-9.0357],[116.8973,-9.0649],[116.9417,-9.0528],[117.0389,-9.1046],[117.0593,-9.0562],[117.0881,-8.9307],[117.0648,-8.8761],[117.0819,-8.8357],[117.0527,-8.7953],[117.0902,-8.7607],[117.0901,-8.7029],[117.0397,-8.6715],[116.9953,-8.6155],[116.9354,-8.6062],[116.8726,-8.5288]]]},"properties":{"code":"52.07","name":"Kabupaten Sumbawa Barat","latitude":-8.830288146953638,"longitude":116.91442832769782}},{"type":"Feature","geometry":{"type":"Polygon","coordinates":[[[116.4699,-8.2736],[116.4602,-8.2271],[116.3377,-8.2147],[116.2537,-8.2544],[116.1036,-8.3907],[116.0568,-8.4038],[116.0366,-8.4702],[116.2139,-8.4804],[116.2671,-8.4506],[116.3449,-8.4088],[116.3824,-8.4101],[116.3851,-8.4214],[116.4063,-8.4345],[116.4236,-8.4111],[116.4674,-8.3306],[116.4699,-8.2736]]]},"properties":{"code":"52.08","name":"Kabupaten Lombok Utara","latitude":-8.348893738948336,"longitude":116.28292084053918}},{"type":"Feature","geometry":{"type":"Polygon","coordinates":[[[116.1394,-8.5652],[116.073,-8.5528],[116.0742,-8.6239],[116.131,-8.6192],[116.1394,-8.5652]]]},"properties":{"code":"52.71","name":"Kota Mataram","latitude":-8.590154382224897,"longitude":116.11095859047046}},{"type":"Feature","geometry":{"type":"Polygon","coordinates":[[[118.7469,-8.3775],[118.7095,-8.4809],[118.7314,-8.5136],[118.758,-8.5205],[118.7901,-8.5138],[118.8749,-8.4832],[118.8749,-8.4358],[118.8023,-8.4277],[118.7469,-8.3775]]]},"properties":{"code":"52.72","name":"Kota Bima","latitude":-8.454868239344206,"longitude":118.78210646272291}}]}