{"type":"FeatureCollection","features":[{"type":"Feature","geometry":{"type":"MultiPolygon","coordinates":[[[[123.4525,-10.1147],[123.3963,-10.1342],[123.3679,-10.2037],[123.3009,-10.2712],[123.3054,-10.3118],[123.4199,-10.2961],[123.412,-10.241],[123.4525,-10.2176],[123.4689,-10.1618],[123.4525,-10.1147]]],[[[123.6397,-10.222],[123.6348,-10.2841],[123.5848,-10.2885],[123.5742,-10.217],[123.531,-10.2228],[123.528,-10.2117],[123.4632,-10.326],[123.486,-10.3558],[123.543,-10.3277],[123.6115,-10.3701],[123.6554,-10.3496],[123.7036,-10.3663],[123.7983,-10.3553],[123.8645,-10.3327],[123.9623,-10.2768],[124.0186,-10.2733],[124.0829,-10.2178],[124.1012,-10.1795],[124.1707,-10.1555],[124.2235,-10.163],[124.2066,-10.0873],[124.1518,-10.0409],[124.1247,-9.9757],[124.0857,-9.964],[124.094,-9.8094],[124.0673,-9.7586],[124.1106,-9.6845],[124.083,-9.6736],[124.0602,-9.6438],[124.078,-9.5866],[124.1196,-9.553],[124.1173,-9.4848],[124.1449,-9.4762],[124.1953,-9.5045],[124.1623,-9.4521],[124.0932,-9.4147],[124.0702,-9.3697],[123.9939,-9.3425],[123.9342,-9.4218],[123.8275,-9.496],[123.7876,-9.5419],[123.7341,-9.567],[123.673,-9.6307],[123.6843,-9.7015],[123.6681,-9.8537],[123.6417,-9.8946],[123.5946,-9.9025],[123.5809,-10.018],[123.6954,-10.0102],[123.7711,-10.0434],[123.7416,-10.0984],[123.6815,-10.1499],[123.6495,-10.1896],[123.6503,-10.2001],[123.6397,-10.222]]]]},"properties":{"code":"53.01","name":"Kabupaten Kupang","latitude":-9.91608621677014,"longitude":123.86145044415542}},{"type":"Feature","geometry":{"type":"Polygon","coordinates":[[[124.1449,-9.4762],[124.1173,-9.4848],[124.1196,-9.553],[124.078,-9.5866],[124.0602,-9.6438],[124.083,-9.6736],[124.1106,-9.6845],[124.0673,-9.7586],[124.094,-9.8094],[124.0857,-9.964],[124.1247,-9.9757],[124.1518,-10.0409],[124.2066,-10.0873],[124.2235,-10.163],[124.3957,-10.1697],[124.5087,-10.0916],[124.5484,-10.0106],[124.7507,-9.8816],[124.8097,-9.7916],[124.7977,-9.7709],[124.821,-9.6606],[124.7952,-9.6418],[124.8003,-9.6179],[124.7852,-9.615],[124.7859,-9.5982],[124.7598,-9.6],[124.765,-9.604],[124.7576,-9.6115],[124.7734,-9.6123],[124.7923,-9.6375],[124.7389,-9.6515],[124.6634,-9.627],[124.6453,-9.5849],[124.6334,-9.5864],[124.6158,-9.613],[124.5172,-9.663],[124.5014,-9.6477],[124.461,-9.6135],[124.449,-9.6187],[124.4302,-9.594],[124.3617,-9.5971],[124.3207,-9.597],[124.2802,-9.5699],[124.2364,-9.5432],[124.2149,-9.538],[124.1953,-9.5045],[124.1449,-9.4762]]]},"properties":{"code":"53.02","name":"Kabupaten Timor Tengah Selatan","latitude":-9.829235491223097,"longitude":124.39709152941671}},{"type":"Feature","geometry":{"type":"Polygon","coordinates":[[[124.8202,-9.0763],[124.7928,-9.0187],[124.7298,-9.0588],[124.6974,-9.0536],[124.6702,-9.1181],[124.5306,-9.1863],[124.476,-9.1743],[124.4626,-9.2995],[124.3741,-9.3763],[124.3548,-9.4852],[124.2796,-9.4892],[124.287,-9.4512],[124.261,-9.3957],[124.2173,-9.3656],[124.1341,-9.4265],[124.0932,-9.4147],[124.1623,-9.4521],[124.224,-9.5062],[124.2149,-9.538],[124.2364,-9.5432],[124.2802,-9.5699],[124.3207,-9.597],[124.3617,-9.5971],[124.4302,-9.594],[124.449,-9.6187],[124.461,-9.6135],[124.5014,-9.6477],[124.5172,-9.663],[124.6158,-9.613],[124.6334,-9.5864],[124.7042,-9.5614],[124.7292,-9.5134],[124.7369,-9.4997],[124.7687,-9.4677],[124.78,-9.453],[124.8036,-9.3856],[124.8402,-9.3318],[124.8466,-9.2877],[124.8526,-9.2791],[124.8416,-9.2437],[124.8096,-9.1682],[124.821,-9.1441],[124.8202,-9.0763]]]},"properties":{"code":"53.03","name":"Kabupaten Timor Tengah Utara","latitude":-9.377866610519083,"longitude":124.56921631425968}},{"type":"Feature","geometry":{"type":"Polygon","coordinates":[[[124.9883,-9.3301],[125.0108,-9.3005],[124.9816,-9.2418],[124.9827,-9.1914],[125.0139,-9.1695],[125.0745,-9.1753],[125.097,-9.2018],[125.1931,-9.1582],[125.1706,-9.1229],[125.1809,-9.0213],[125.112,-8.9675],[125.0766,-9.0219],[125.0031,-9.0636],[124.9403,-9.0472],[124.934,-8.9954],[124.8783,-8.9801],[124.7924,-9.0182],[124.8202,-9.0763],[124.821,-9.1441],[124.8096,-9.1682],[124.8416,-9.2437],[124.8526,-9.2791],[124.8466,-9.2877],[124.8402,-9.3318],[124.8288,-9.3624],[124.8451,-9.3876],[124.9164,-9.3817],[124.9866,-9.3743],[124.9883,-9.3301]]]},"properties":{"code":"53.04","name":"Kabupaten Belu","latitude":-9.155098413389897,"longitude":124.96742242230712}},{"type":"Feature","geometry":{"type":"MultiPolygon","coordinates":[[[[124.2916,-8.1774],[124.2298,-8.2149],[124.2026,-8.2737],[124.1326,-8.3446],[124.0585,-8.293],[123.9648,-8.3479],[123.9361,-8.4225],[124.0331,-8.4202],[124.0656,-8.4914],[124.071,-8.5505],[124.1415,-8.5383],[124.2117,-8.461],[124.2091,-8.4163],[124.2471,-8.3616],[124.3094,-8.3116],[124.2987,-8.268],[124.326,-8.2283],[124.2916,-8.1774]]],[[[124.5297,-8.1227],[124.4517,-8.1488],[124.3998,-8.22],[124.4001,-8.3265],[124.3418,-8.3917],[124.3554,-8.4388],[124.5054,-8.4177],[124.5474,-8.442],[124.6578,-8.3906],[124.7872,-8.4015],[124.8902,-8.3637],[125.0629,-8.3564],[125.1212,-8.3396],[125.1414,-8.2378],[125.0949,-8.1475],[124.9978,-8.1574],[124.9585,-8.1408],[124.9191,-8.1645],[124.8137,-8.1643],[124.7829,-8.1477],[124.6668,-8.1615],[124.6086,-8.1974],[124.604,-8.1264],[124.5297,-8.1227]]]]},"properties":{"code":"53.05","name":"Kabupaten Alor","latitude":-8.303915014674587,"longitude":124.56844814765837}},{"type":"Feature","geometry":{"type":"MultiPolygon","coordinates":[[[[123.1462,-8.4241],[123.1163,-8.4359],[122.9762,-8.436],[122.9452,-8.493],[122.8847,-8.5245],[122.871,-8.5862],[122.942,-8.5889],[122.9835,-8.5066],[123.0223,-8.4764],[123.0652,-8.4915],[123.1484,-8.4616],[123.1462,-8.4241]]],[[[123.2114,-8.2254],[123.142,-8.2338],[123.0329,-8.3076],[122.999,-8.3681],[123.0007,-8.4101],[123.1092,-8.4028],[123.179,-8.3852],[123.2946,-8.3882],[123.305,-8.2966],[123.3338,-8.2643],[123.2114,-8.2254]]],[[[122.6542,-8.6371],[122.7256,-8.6334],[122.8311,-8.5897],[122.8321,-8.5178],[122.7903,-8.4844],[122.7831,-8.4229],[122.8602,-8.4527],[122.8784,-8.3844],[122.9138,-8.3285],[122.9644,-8.3518],[123.0206,-8.3154],[122.983,-8.2511],[122.9722,-8.1329],[122.8666,-8.0634],[122.7827,-8.1079],[122.7849,-8.1503],[122.7322,-8.2156],[122.7878,-8.2355],[122.8091,-8.1983],[122.8661,-8.1762],[122.9184,-8.1939],[122.8821,-8.2888],[122.8111,-8.2979],[122.7659,-8.3632],[122.6828,-8.3843],[122.6847,-8.4387],[122.6648,-8.5196],[122.6542,-8.6371]]]]},"properties":{"code":"53.06","name":"Kabupaten Flores Timur","latitude":-8.365129999424317,"longitude":122.94448301607842}},{"type":"Feature","geometry":{"type":"Polygon","coordinates":[[[122.6847,-8.4387],[122.6563,-8.3907],[122.5968,-8.3932],[122.5494,-8.465],[122.4787,-8.4903],[122.5177,-8.5462],[122.4718,-8.6095],[122.3298,-8.6189],[122.2895,-8.642],[122.2212,-8.6203],[122.1599,-8.5544],[122.0713,-8.5228],[121.9857,-8.5435],[121.9906,-8.6057],[121.9762,-8.6257],[121.9531,-8.676],[121.9582,-8.6853],[121.9454,-8.6876],[121.9285,-8.7171],[121.9582,-8.7571],[121.9933,-8.7536],[121.9898,-8.7958],[122,-8.8074],[122.0314,-8.7941],[122.0836,-8.7416],[122.1774,-8.7304],[122.2833,-8.7545],[122.3344,-8.7389],[122.4212,-8.7445],[122.5397,-8.7013],[122.5572,-8.6663],[122.6542,-8.6371],[122.6648,-8.5196],[122.6847,-8.4387]]]},"properties":{"code":"53.07","name":"Kabupaten Sikka","latitude":-8.609344971709035,"longitude":122.306654974676}},{"type":"Feature","geometry":{"type":"Polygon","coordinates":[[[121.9857,-8.5435],[122.025,-8.4428],[121.9833,-8.4467],[121.9134,-8.4956],[121.7269,-8.4951],[121.6805,-8.5124],[121.6074,-8.4785],[121.5808,-8.5715],[121.526,-8.5958],[121.5209,-8.635],[121.4589,-8.655],[121.4323,-8.6706],[121.3948,-8.7203],[121.4166,-8.7443],[121.4138,-8.7925],[121.542,-8.8092],[121.5679,-8.7974],[121.6612,-8.8557],[121.7341,-8.8769],[121.8139,-8.8707],[121.8871,-8.8278],[121.9946,-8.8062],[121.9933,-8.7536],[121.9641,-8.7585],[121.9521,-8.7534],[121.9271,-8.7117],[121.9531,-8.676],[121.9762,-8.6257],[121.9906,-8.6057],[121.9857,-8.5435]]]},"properties":{"code":"53.08","name":"Kabupaten Ende","latitude":-8.676355693519394,"longitude":121.73544304526368}},{"type":"Feature","geometry":{"type":"Polygon","coordinates":[[[121.18,-8.4597],[121.1428,-8.4248],[121.0222,-8.4151],[120.9473,-8.3438],[120.9183,-8.38],[120.9127,-8.4098],[120.9219,-8.476],[120.8522,-8.5043],[120.8571,-8.5694],[120.8843,-8.6437],[120.8453,-8.7069],[120.8563,-8.7478],[120.8435,-8.7629],[120.824,-8.8214],[120.8727,-8.886],[120.931,-8.9328],[121.0302,-8.9564],[121.1385,-8.9013],[121.1204,-8.8015],[121.0964,-8.7567],[121.1128,-8.7655],[121.1279,-8.7024],[121.109,-8.6818],[121.1357,-8.6433],[121.1422,-8.5513],[121.1861,-8.5355],[121.18,-8.4597]]]},"properties":{"code":"53.09","name":"Kabupaten Ngada","latitude":-8.664544007349,"longitude":121.00156828857828}},{"type":"Feature","geometry":{"type":"Polygon","coordinates":[[[120.4938,-8.2932],[120.4078,-8.2809],[120.3665,-8.2945],[120.2871,-8.2822],[120.2911,-8.3206],[120.2819,-8.3254],[120.2822,-8.4171],[120.3336,-8.4404],[120.3693,-8.4311],[120.3893,-8.4252],[120.3928,-8.4542],[120.3806,-8.4881],[120.3725,-8.5147],[120.3436,-8.5714],[120.3184,-8.5828],[120.2805,-8.6252],[120.2902,-8.6373],[120.3064,-8.6807],[120.3245,-8.6881],[120.2936,-8.7563],[120.273,-8.76],[120.24,-8.83],[120.3133,-8.8556],[120.3674,-8.8157],[120.5183,-8.8184],[120.5038,-8.7817],[120.4982,-8.7146],[120.4684,-8.6868],[120.4687,-8.6749],[120.4915,-8.6456],[120.5238,-8.6381],[120.5104,-8.5652],[120.5431,-8.5152],[120.5135,-8.4088],[120.4781,-8.382],[120.4938,-8.2932]]]},"properties":{"code":"53.10","name":"Kabupaten Manggarai","latitude":-8.568809462339917,"longitude":120.40106921539837}},{"type":"Feature","geometry":{"type":"Polygon","coordinates":[[[119.7254,-9.7537],[119.6879,-9.8244],[119.7078,-9.863],[119.7837,-9.9223],[119.8629,-9.9223],[119.9946,-10.037],[120.0457,-10.1255],[120.1648,-10.2401],[120.3485,-10.2486],[120.4535,-10.3172],[120.4869,-10.262],[120.5519,-10.2378],[120.6139,-10.2528],[120.7392,-10.1902],[120.7709,-10.1429],[120.8416,-10.089],[120.8471,-10.0367],[120.8161,-9.9774],[120.747,-9.9241],[120.6766,-9.8975],[120.6056,-9.769],[120.5966,-9.731],[120.5449,-9.6887],[120.5041,-9.6857],[120.4646,-9.6148],[120.3659,-9.6436],[120.3225,-9.6704],[120.2578,-9.6376],[120.2295,-9.5925],[120.2263,-9.5309],[120.1849,-9.4682],[120.1283,-9.4854],[120.0845,-9.4697],[119.9273,-9.2793],[119.8914,-9.3263],[119.8645,-9.3443],[119.8764,-9.3713],[119.9091,-9.3832],[119.8979,-9.4311],[119.9208,-9.4959],[119.8865,-9.5131],[119.8412,-9.5778],[119.8529,-9.6146],[119.823,-9.6636],[119.7555,-9.7047],[119.7254,-9.7537]]]},"properties":{"code":"53.11","name":"Kabupaten Sumba Timur","latitude":-9.877804207779791,"longitude":120.2547683848084}},{"type":"Feature","geometry":{"type":"Polygon","coordinates":[[[119.4068,-9.3979],[119.4033,-9.376],[119.3668,-9.3789],[119.3671,-9.4667],[119.393,-9.5387],[119.3665,-9.6156],[119.3089,-9.6343],[119.2778,-9.6845],[119.2342,-9.6899],[119.2157,-9.6833],[119.1663,-9.6581],[119.1522,-9.6856],[119.1486,-9.7186],[119.1425,-9.7291],[119.3013,-9.7444],[119.3935,-9.7972],[119.4173,-9.7611],[119.476,-9.7423],[119.5357,-9.7496],[119.5428,-9.6965],[119.4887,-9.6651],[119.4984,-9.5852],[119.4506,-9.4773],[119.4434,-9.4654],[119.4068,-9.3979]]]},"properties":{"code":"53.12","name":"Kabupaten Sumba Barat","latitude":-9.641422259331291,"longitude":119.3833826777653}},{"type":"Feature","geometry":{"type":"Polygon","coordinates":[[[123.7827,-8.1709],[123.6867,-8.2588],[123.6351,-8.2919],[123.559,-8.3678],[123.4983,-8.3382],[123.5576,-8.2406],[123.4968,-8.2409],[123.4579,-8.2713],[123.471,-8.3384],[123.43,-8.3689],[123.3352,-8.4006],[123.29,-8.4639],[123.2075,-8.535],[123.2913,-8.5492],[123.3173,-8.5271],[123.3932,-8.5859],[123.4909,-8.5153],[123.5172,-8.5631],[123.5837,-8.5425],[123.5532,-8.47],[123.6499,-8.4043],[123.6759,-8.4275],[123.7664,-8.2883],[123.8378,-8.2849],[123.9241,-8.2498],[123.9027,-8.2153],[123.7827,-8.1709]]]},"properties":{"code":"53.13","name":"Kabupaten Lembata","latitude":-8.381171613765762,"longitude":123.54081786348164}},{"type":"Feature","geometry":{"type":"Polygon","coordinates":[[[123.3787,-10.431],[123.3696,-10.478],[123.2645,-10.5205],[123.1949,-10.5938],[123.1778,-10.6371],[123.1292,-10.6435],[123.0427,-10.7294],[122.8583,-10.7588],[122.81,-10.782],[122.8311,-10.8709],[122.8221,-10.9194],[122.9493,-10.904],[122.9687,-10.8702],[123.0706,-10.8477],[123.1326,-10.8155],[123.189,-10.8369],[123.2449,-10.7769],[123.2529,-10.7342],[123.4267,-10.6565],[123.3657,-10.5331],[123.4048,-10.455],[123.3787,-10.431]]]},"properties":{"code":"53.14","name":"Kabupaten Rote Ndao","latitude":-10.725959995065217,"longitude":123.12444836806907}},{"type":"Feature","geometry":{"type":"MultiPolygon","coordinates":[[[[119.6348,-8.6053],[119.6612,-8.7013],[119.6175,-8.7077],[119.617,-8.7639],[119.6937,-8.8105],[119.7575,-8.6654],[119.6585,-8.6569],[119.6348,-8.6053]]],[[[119.4571,-8.4286],[119.4115,-8.5502],[119.3734,-8.5871],[119.4332,-8.6758],[119.4748,-8.6392],[119.5053,-8.5685],[119.5596,-8.5867],[119.5522,-8.479],[119.4709,-8.4803],[119.4571,-8.4286]]],[[[120.2911,-8.3206],[120.2845,-8.2823],[120.2005,-8.3056],[120.1098,-8.4413],[120.0192,-8.384],[119.9444,-8.4589],[119.881,-8.4776],[119.8681,-8.5234],[119.8041,-8.5734],[119.8114,-8.6683],[119.8032,-8.7702],[119.8902,-8.8127],[120.0164,-8.8193],[120.1018,-8.7924],[120.1677,-8.7892],[120.24,-8.83],[120.273,-8.76],[120.2936,-8.7563],[120.3245,-8.6881],[120.3064,-8.6807],[120.2902,-8.6373],[120.2805,-8.6252],[120.3184,-8.5828],[120.3436,-8.5714],[120.3725,-8.5147],[120.3806,-8.4881],[120.3928,-8.4542],[120.3893,-8.4252],[120.3693,-8.4311],[120.3336,-8.4404],[120.2822,-8.4171],[120.2819,-8.3254],[120.2911,-8.3206]]]]},"properties":{"code":"53.15","name":"Kabupaten Manggarai Barat","latitude":-8.60271673193086,"longitude":119.98854525873647}},{"type":"Feature","geometry":{"type":"Polygon","coordinates":[[[121.4589,-8.655],[121.5206,-8.6352],[121.5253,-8.6242],[121.5195,-8.6151],[121.5046,-8.6126],[121.5134,-8.6084],[121.4999,-8.5992],[121.4764,-8.5643],[121.4183,-8.5919],[121.3435,-8.548],[121.3076,-8.4799],[121.18,-8.4597],[121.1861,-8.5355],[121.1422,-8.5513],[121.1357,-8.6433],[121.109,-8.6818],[121.1279,-8.7024],[121.1128,-8.7655],[121.0964,-8.7567],[121.1204,-8.8015],[121.139,-8.898],[121.269,-8.8864],[121.3403,-8.906],[121.3688,-8.8785],[121.377,-8.7969],[121.4166,-8.7443],[121.3948,-8.7203],[121.4323,-8.6706],[121.4589,-8.655]]]},"properties":{"code":"53.16","name":"Kabupaten Nagekeo","latitude":-8.68973640750257,"longitude":121.27320368591111}},{"type":"Feature","geometry":{"type":"Polygon","coordinates":[[[119.9091,-9.3832],[119.8782,-9.372],[119.8648,-9.3435],[119.807,-9.3939],[119.6864,-9.3824],[119.623,-9.3452],[119.5386,-9.3776],[119.4724,-9.358],[119.4033,-9.376],[119.4068,-9.3979],[119.4434,-9.4654],[119.4506,-9.4773],[119.4984,-9.5852],[119.4887,-9.6651],[119.5428,-9.6965],[119.5357,-9.7496],[119.6711,-9.7809],[119.7254,-9.7537],[119.7555,-9.7047],[119.823,-9.6636],[119.8529,-9.6146],[119.8412,-9.5778],[119.8865,-9.5131],[119.9208,-9.4959],[119.8979,-9.4311],[119.9091,-9.3832]]]},"properties":{"code":"53.17","name":"Kabupaten Sumba Tengah","latitude":-9.543165016266101,"longitude":119.66865013952577}},{"type":"Feature","geometry":{"type":"Polygon","coordinates":[[[119.3668,-9.3789],[119.2925,-9.3578],[119.219,-9.391],[119.1781,-9.3748],[119.1013,-9.4215],[119.0309,-9.432],[118.9408,-9.5158],[118.9279,-9.5576],[118.9861,-9.6077],[119.0262,-9.6751],[119.1425,-9.7291],[119.1486,-9.7186],[119.1522,-9.6856],[119.1663,-9.6581],[119.1872,-9.6489],[119.2029,-9.6697],[119.2275,-9.6882],[119.2647,-9.6786],[119.2778,-9.6845],[119.3089,-9.6343],[119.3665,-9.6156],[119.393,-9.5387],[119.3671,-9.4667],[119.3668,-9.3789]]]},"properties":{"code":"53.18","name":"Kabupaten Sumba Barat Daya","latitude":-9.534148748186425,"longitude":119.17734222577997}},{"type":"Feature","geometry":{"type":"Polygon","coordinates":[[[120.9183,-8.38],[120.8077,-8.3385],[120.7334,-8.3489],[120.6888,-8.3307],[120.6401,-8.2768],[120.558,-8.3001],[120.4938,-8.2932],[120.4781,-8.382],[120.5135,-8.4088],[120.5431,-8.5152],[120.5104,-8.5652],[120.5238,-8.6381],[120.4914,-8.6457],[120.471,-8.6673],[120.4682,-8.6865],[120.4982,-8.7146],[120.5038,-8.7817],[120.5167,-8.8177],[120.5377,-8.8114],[120.5958,-8.815],[120.6468,-8.8674],[120.7453,-8.8935],[120.824,-8.8214],[120.8435,-8.7629],[120.8445,-8.709],[120.875,-8.697],[120.8843,-8.6437],[120.8571,-8.5694],[120.8522,-8.5043],[120.9219,-8.476],[120.9127,-8.4098],[120.9183,-8.38]]]},"properties":{"code":"53.19","name":"Kabupaten Manggarai Timur","latitude":-8.572788876505832,"longitude":120.68930688807022}},{"type":"Feature","geometry":{"type":"MultiPolygon","coordinates":[[[[121.6345,-10.6024],[121.5571,-10.6005],[121.5741,-10.6424],[121.6345,-10.6024]]],[[[121.9529,-10.4338],[121.9075,-10.4186],[121.8444,-10.4504],[121.8338,-10.4985],[121.6842,-10.5779],[121.7493,-10.6151],[121.8752,-10.6182],[121.994,-10.5348],[121.9966,-10.4417],[121.9529,-10.4338]]]]},"properties":{"code":"53.20","name":"Kabupaten Sabu Raijua","latitude":-10.535687374038487,"longitude":121.84446825694981}},{"type":"Feature","geometry":{"type":"Polygon","coordinates":[[[124.7977,-9.7709],[124.89,-9.6993],[124.9483,-9.6804],[124.9838,-9.6331],[124.9954,-9.5553],[125.0878,-9.462],[125.08,-9.3921],[125.0522,-9.3308],[124.9883,-9.3301],[124.9866,-9.3743],[124.9164,-9.3817],[124.8451,-9.3876],[124.8288,-9.3624],[124.8036,-9.3856],[124.78,-9.453],[124.7687,-9.4677],[124.7369,-9.4997],[124.7292,-9.5134],[124.7042,-9.5614],[124.6453,-9.5849],[124.6634,-9.627],[124.7389,-9.6515],[124.7923,-9.6375],[124.7734,-9.6123],[124.7576,-9.6115],[124.7647,-9.6056],[124.7608,-9.5995],[124.7883,-9.6002],[124.7851,-9.6149],[124.7944,-9.6121],[124.8005,-9.6195],[124.793,-9.6379],[124.821,-9.6606],[124.7977,-9.7709]]]},"properties":{"code":"53.21","name":"Kabupaten Malaka","latitude":-9.524259235578747,"longitude":124.88844674206781}},{"type":"Feature","geometry":{"type":"Polygon","coordinates":[[[123.6397,-10.222],[123.6503,-10.2001],[123.6495,-10.1896],[123.6815,-10.1499],[123.6233,-10.1406],[123.528,-10.2117],[123.531,-10.2228],[123.5742,-10.217],[123.5848,-10.2885],[123.6348,-10.2841],[123.6397,-10.222]]]},"properties":{"code":"53.71","name":"Kota Kupang","latitude":-10.204506383995435,"longitude":123.60454402769143}}]}