{"type":"FeatureCollection","features":[{"type":"Feature","geometry":{"type":"Polygon","coordinates":[[[109.6396,1.4423],[109.6532,1.4346],[109.6783,1.4475],[109.7039,1.4749],[109.719,1.4758],[109.7535,1.527],[109.7467,1.5437],[109.7218,1.5628],[109.6885,1.6098],[109.662,1.6174],[109.6609,1.6932],[109.6855,1.7821],[109.6354,1.8054],[109.5863,1.7919],[109.5388,1.9118],[109.5849,1.9901],[109.4765,1.9824],[109.4289,1.9505],[109.3373,1.9432],[109.3373,1.8332],[109.2877,1.7769],[109.255,1.6641],[109.2202,1.6325],[109.1199,1.5803],[109.0547,1.5184],[109.0372,1.4624],[109.0426,1.3559],[108.9638,1.2177],[108.971,1.1762],[108.9034,1.168],[108.9668,1.0445],[108.9785,0.9974],[109.0833,1.001],[109.1292,1.018],[109.1467,1.0089],[109.1627,0.9714],[109.2176,0.9763],[109.2417,1.0185],[109.3134,1.0269],[109.378,0.9981],[109.4247,1.0449],[109.4786,1.0143],[109.5232,1.0672],[109.5615,1.1887],[109.6206,1.2414],[109.608,1.3888],[109.6396,1.4423]]]},"properties":{"code":"61.01","name":"Kabupaten Sambas","latitude":1.4230857823487124,"longitude":109.34956822007936}},{"type":"Feature","geometry":{"type":"Polygon","coordinates":[[[109.174,0.6641],[109.1435,0.6463],[109.0831,0.5909],[108.9905,0.5548],[108.9703,0.5326],[108.9315,0.5471],[108.9085,0.4842],[108.939,0.4492],[108.9281,0.3216],[109.0346,0.2873],[109.1006,0.2368],[109.139,0.1253],[109.1944,0.061],[109.1781,0.034],[109.2872,0.0059],[109.3087,0.0381],[109.3805,0.0484],[109.3701,0.0989],[109.3678,0.1967],[109.3203,0.2464],[109.2623,0.2392],[109.2455,0.2303],[109.2437,0.2459],[109.1794,0.2464],[109.1725,0.2642],[109.1763,0.2824],[109.2041,0.3069],[109.271,0.3332],[109.3222,0.3762],[109.3011,0.4156],[109.2083,0.4654],[109.2599,0.6107],[109.2505,0.6677],[109.174,0.6641]]]},"properties":{"code":"61.02","name":"Kabupaten Mempawah","latitude":0.35177711745461443,"longitude":109.15419102762336}},{"type":"Feature","geometry":{"type":"Polygon","coordinates":[[[110.7587,0.8422],[110.7657,0.8604],[110.8032,0.9006],[110.7163,0.9061],[110.6976,0.8842],[110.5754,0.8538],[110.4905,0.8767],[110.4383,0.9174],[110.3964,0.9977],[110.3588,0.9835],[110.2826,1.0113],[110.193,1.1829],[110.1421,1.1993],[110.1041,1.1406],[110.1129,1.0625],[110.1845,1.0025],[110.2165,0.9727],[110.2171,0.9182],[110.2424,0.8487],[110.205,0.8479],[110.1843,0.8361],[110.1787,0.8069],[110.2016,0.7516],[110.2396,0.7267],[110.2451,0.6744],[110.2183,0.6248],[110.2438,0.5649],[110.2308,0.5324],[110.1639,0.4576],[110.1891,0.3804],[110.1333,0.3025],[110.1171,0.2072],[110.0493,0.2111],[110.0249,0.1404],[109.9582,0.1075],[109.9365,0.1142],[109.9096,0.0841],[109.8764,0.077],[109.886,0.0413],[109.8689,0.0328],[109.8422,0.0014],[109.8513,-0.0491],[109.9039,-0.1077],[109.921,-0.1473],[109.9707,-0.2817],[109.9361,-0.3189],[109.9314,-0.415],[109.9681,-0.4455],[109.946,-0.4445],[109.9958,-0.4864],[110.0145,-0.4487],[110.0404,-0.399],[110.0987,-0.3975],[110.1542,-0.4389],[110.1971,-0.4166],[110.3026,-0.4524],[110.3206,-0.4105],[110.4074,-0.3902],[110.4226,-0.3647],[110.4702,-0.3242],[110.5097,-0.3244],[110.538,-0.3509],[110.5704,-0.3465],[110.5531,-0.3261],[110.6299,-0.203],[110.6383,-0.1422],[110.6908,-0.168],[110.7465,-0.1454],[110.7144,-0.0829],[110.7248,-0.0038],[110.7664,0.0885],[110.7973,0.0995],[110.8708,0.1194],[110.9014,0.1678],[110.8945,0.224],[110.9086,0.2511],[110.9232,0.3397],[110.959,0.3726],[110.9404,0.4255],[110.9622,0.5174],[110.9999,0.558],[110.9888,0.5984],[111.0131,0.6594],[111.0082,0.6785],[110.9894,0.6902],[111.0009,0.724],[110.9972,0.7354],[110.997,0.7461],[110.9036,0.7128],[110.8577,0.7277],[110.8137,0.7897],[110.7728,0.8332],[110.7587,0.8422]]]},"properties":{"code":"61.03","name":"Kabupaten Sanggau","latitude":0.26868109656721084,"longitude":110.43072660296725}},{"type":"Feature","geometry":{"type":"MultiPolygon","coordinates":[[[[110.1131,-2.675],[110.0757,-2.7012],[110.0825,-2.7613],[110.1283,-2.7424],[110.1131,-2.675]]],[[[110.5097,-0.3244],[110.4702,-0.3242],[110.4226,-0.3647],[110.4074,-0.3902],[110.3206,-0.4105],[110.3026,-0.4524],[110.1971,-0.4166],[110.1542,-0.4389],[110.0987,-0.3975],[110.0404,-0.399],[110.0145,-0.4487],[109.9958,-0.4864],[109.9191,-0.5323],[109.8805,-0.5876],[109.8183,-0.6377],[109.818,-0.6843],[109.8599,-0.6589],[109.8835,-0.6914],[109.8796,-0.7167],[109.8995,-0.7327],[109.9327,-0.7195],[109.9399,-0.7405],[109.9776,-0.7255],[110.0107,-0.7245],[110.0718,-0.7733],[110.0771,-0.7958],[110.1696,-0.8836],[110.165,-0.9347],[110.2415,-0.9333],[110.2692,-1.0005],[110.3428,-1.0535],[110.3583,-1.0744],[110.3252,-1.1317],[110.3856,-1.1917],[110.3935,-1.2331],[110.2841,-1.2835],[110.2176,-1.2853],[110.2235,-1.335],[110.0944,-1.3528],[110.0682,-1.3633],[110.0641,-1.4601],[110.0354,-1.5253],[110.042,-1.5828],[110.0266,-1.6827],[109.9012,-1.8284],[109.9244,-1.8576],[110.0674,-1.9315],[110.1,-1.9802],[110.1196,-2.0778],[110.0948,-2.2447],[110.1457,-2.3315],[110.1533,-2.4121],[110.1971,-2.5209],[110.1592,-2.635],[110.2141,-2.6481],[110.2335,-2.6974],[110.2181,-2.7398],[110.2608,-2.767],[110.2585,-2.8307],[110.2241,-2.8872],[110.2594,-2.9603],[110.3067,-2.9909],[110.4189,-2.8968],[110.4963,-2.8576],[110.569,-2.8399],[110.6235,-2.8895],[110.6571,-3.0399],[110.7332,-2.9964],[110.7532,-2.945],[110.7934,-2.9124],[110.8945,-2.8696],[110.9696,-2.856],[111.0118,-2.7952],[111.1472,-2.7418],[111.1759,-2.6884],[111.1316,-2.5988],[111.0991,-2.4657],[111.1156,-2.3275],[111.0565,-2.2528],[111.0401,-2.2058],[111.0695,-2.1145],[111.0584,-2.0593],[111.0789,-2.0094],[111.0935,-1.9739],[111.055,-1.9572],[111,-1.9474],[110.9877,-1.9404],[110.9641,-1.8948],[110.9778,-1.8285],[110.992,-1.7985],[111.0258,-1.7199],[110.9944,-1.7069],[110.9943,-1.6501],[110.94,-1.6573],[110.917,-1.693],[110.8733,-1.6655],[110.887,-1.5986],[111.0063,-1.5036],[111.0349,-1.5288],[111.0838,-1.5019],[111.156,-1.4318],[111.2542,-1.4381],[111.3267,-1.3671],[111.3159,-1.3012],[111.316,-1.2574],[111.2554,-1.2497],[111.2466,-1.1935],[111.2622,-1.0986],[111.1983,-1.0197],[111.1447,-1.0072],[111.1219,-0.931],[111.1668,-0.8873],[111.1613,-0.8459],[111.1721,-0.8483],[111.2149,-0.8564],[111.2073,-0.7823],[111.2414,-0.6927],[111.2145,-0.6473],[111.2397,-0.5916],[111.1977,-0.5225],[111.1712,-0.5182],[111.113,-0.5009],[111.0584,-0.5124],[111.0077,-0.506],[110.9277,-0.5576],[110.97,-0.626],[110.8954,-0.6807],[110.8239,-0.5999],[110.7638,-0.6213],[110.6747,-0.6168],[110.6348,-0.5873],[110.6149,-0.5099],[110.618,-0.4435],[110.5704,-0.3465],[110.538,-0.3509],[110.5097,-0.3244]]]]},"properties":{"code":"61.04","name":"Kabupaten Ketapang","latitude":-1.632936277348147,"longitude":110.60543693031319}},{"type":"Feature","geometry":{"type":"Polygon","coordinates":[[[111.5368,0.9369],[111.4887,1.0353],[111.4443,1.0135],[111.3851,1.015],[111.3523,1.0395],[111.2521,1.063],[111.2333,1.0852],[111.1536,1.0529],[111.0798,1.0511],[110.995,1.0287],[110.905,1.0285],[110.8612,0.9513],[110.8093,0.95],[110.8163,0.9054],[110.7952,0.897],[110.7587,0.8422],[110.7728,0.8332],[110.8137,0.7897],[110.8577,0.7277],[110.9036,0.7128],[110.997,0.7461],[111.0507,0.7199],[111.1193,0.7201],[111.2021,0.6786],[111.2122,0.5983],[111.2715,0.5776],[111.2944,0.5],[111.2355,0.4393],[111.208,0.3684],[111.2314,0.3067],[111.2595,0.2948],[111.267,0.1675],[111.2228,0.0691],[111.1323,0.0705],[111.1442,0.0098],[111.1354,-0.1055],[111.0885,-0.1439],[111.0873,-0.2508],[111.0509,-0.3182],[110.9983,-0.3728],[111.0723,-0.4537],[111.113,-0.5009],[111.1712,-0.5182],[111.2022,-0.4959],[111.2607,-0.4354],[111.3125,-0.4141],[111.3916,-0.3497],[111.4363,-0.3575],[111.476,-0.3292],[111.4805,-0.2569],[111.5415,-0.2348],[111.5657,-0.2089],[111.6619,-0.1646],[111.6852,-0.1314],[111.7151,-0.1532],[111.7316,-0.1497],[111.7686,-0.1861],[111.7651,-0.1769],[111.8008,-0.1993],[111.8925,-0.2134],[111.8927,-0.2066],[111.9317,-0.1864],[111.9769,-0.2179],[112.0278,-0.2129],[112.1072,-0.2623],[112.1324,-0.3039],[112.2281,-0.2435],[112.3541,-0.1913],[112.4106,-0.1823],[112.3726,-0.2558],[112.3635,-0.3467],[112.4374,-0.4307],[112.4354,-0.5057],[112.44,-0.5476],[112.4142,-0.6109],[112.4702,-0.685],[112.5029,-0.7002],[112.5613,-0.6962],[112.6382,-0.6573],[112.7024,-0.6386],[112.7295,-0.5881],[112.8324,-0.5776],[112.923,-0.522],[112.9981,-0.5034],[113.0546,-0.5138],[113.1308,-0.4522],[113.167,-0.4782],[113.1922,-0.5035],[113.2182,-0.5062],[113.2465,-0.4502],[113.2609,-0.4493],[113.266,-0.4363],[113.2642,-0.4234],[113.2573,-0.4055],[113.2391,-0.3778],[113.2205,-0.3335],[113.2599,-0.2934],[113.3054,-0.2542],[113.2875,-0.2234],[113.3302,-0.1516],[113.3853,-0.1319],[113.4199,-0.0917],[113.4157,-0.0478],[113.4328,0.0092],[113.3958,0.0343],[113.404,0.0897],[113.4144,0.1141],[113.3998,0.1349],[113.3135,0.171],[113.2943,0.2071],[113.2618,0.23],[113.1792,0.2431],[113.1489,0.2343],[113.1356,0.221],[113.1363,0.212],[113.1227,0.2119],[113.1005,0.2307],[113.0465,0.2715],[112.9655,0.2144],[112.9482,0.1466],[112.8241,0.162],[112.753,0.2335],[112.6717,0.2417],[112.6004,0.181],[112.5694,0.2044],[112.5049,0.1642],[112.5056,0.1048],[112.3957,0.147],[112.3934,0.0948],[112.2175,0.1148],[112.1484,0.0768],[112.1291,0.0876],[112.0487,0.1344],[112.0587,0.1798],[112.006,0.1951],[111.9688,0.1628],[111.9266,0.1831],[111.8964,0.1756],[111.867,0.1831],[111.8409,0.2281],[111.7713,0.2324],[111.6797,0.27],[111.6665,0.3013],[111.6856,0.3001],[111.6448,0.3593],[111.686,0.3775],[111.7245,0.4593],[111.7206,0.5706],[111.6874,0.6276],[111.7475,0.7472],[111.6765,0.8154],[111.6647,0.846],[111.6259,0.9232],[111.561,0.9212],[111.5368,0.9369]]]},"properties":{"code":"61.05","name":"Kabupaten Sintang","latitude":0.09259557504131383,"longitude":112.05439324661614}},{"type":"Feature","geometry":{"type":"Polygon","coordinates":[[[114.1489,1.2919],[114.155,1.3744],[114.1781,1.3947],[114.1972,1.3972],[114.2055,1.4102],[114.2021,1.4211],[114.1408,1.4665],[113.955,1.4428],[113.9362,1.4173],[113.8216,1.3736],[113.8037,1.3004],[113.7035,1.2664],[113.6321,1.2191],[113.5832,1.3081],[113.4998,1.3181],[113.4213,1.2854],[113.3569,1.3578],[113.2678,1.3877],[113.1888,1.3767],[113.1441,1.3876],[113.1237,1.4287],[112.9751,1.4105],[112.9828,1.4504],[113.0707,1.5295],[113.0639,1.5526],[112.9896,1.579],[112.9322,1.5677],[112.881,1.5853],[112.8408,1.5382],[112.7746,1.5638],[112.6769,1.5546],[112.6577,1.5714],[112.5153,1.576],[112.4463,1.5532],[112.434,1.5272],[112.352,1.5037],[112.2051,1.4377],[112.2323,1.3792],[112.1787,1.3044],[112.1429,1.135],[112.0558,1.1372],[111.9353,1.1221],[111.871,1.0451],[111.813,0.9989],[111.7174,1.0068],[111.6676,1.0432],[111.5488,0.9884],[111.5368,0.9369],[111.561,0.9212],[111.6259,0.9232],[111.6647,0.846],[111.6765,0.8154],[111.7475,0.7472],[111.6874,0.6276],[111.7206,0.5706],[111.7245,0.4593],[111.686,0.3775],[111.6448,0.3593],[111.6856,0.3001],[111.6665,0.3013],[111.6789,0.2707],[111.7713,0.2324],[111.8409,0.2281],[111.8594,0.1889],[111.8801,0.1793],[111.8982,0.1757],[111.9266,0.1831],[111.9688,0.1628],[112.006,0.1951],[112.0587,0.1798],[112.0487,0.1344],[112.1291,0.0876],[112.1484,0.0768],[112.2175,0.1148],[112.3934,0.0948],[112.3957,0.147],[112.5056,0.1048],[112.5049,0.1642],[112.5694,0.2044],[112.6004,0.181],[112.6717,0.2417],[112.753,0.2335],[112.8241,0.162],[112.9482,0.1466],[112.9655,0.2144],[113.0465,0.2715],[113.1005,0.2307],[113.1313,0.209],[113.1512,0.2352],[113.1948,0.2425],[113.257,0.229],[113.3176,0.2679],[113.4073,0.259],[113.4504,0.2635],[113.4927,0.3024],[113.5135,0.3045],[113.5863,0.3612],[113.6288,0.4131],[113.6472,0.4566],[113.6557,0.4613],[113.6853,0.4995],[113.7148,0.5263],[113.7378,0.5389],[113.7975,0.5949],[113.8511,0.6083],[113.8214,0.6427],[113.8418,0.6577],[113.8343,0.6726],[113.8393,0.6954],[113.8772,0.7174],[113.8997,0.7549],[113.8795,0.782],[113.9265,0.8414],[113.8709,0.8887],[113.9135,0.9725],[113.8929,1.0201],[113.9014,1.0598],[113.9475,1.0603],[113.964,1.1131],[114.0085,1.1434],[114.0831,1.1479],[114.1339,1.1831],[114.1711,1.2654],[114.1489,1.2919]]]},"properties":{"code":"61.06","name":"Kabupaten Kapuas Hulu","latitude":0.8256013629435552,"longitude":112.80355038457326}},{"type":"Feature","geometry":{"type":"Polygon","coordinates":[[[110.1041,1.1406],[110.1277,1.1948],[110.0701,1.2284],[110.0656,1.2643],[109.9794,1.2985],[109.9633,1.4041],[109.9291,1.4255],[109.8467,1.4259],[109.8034,1.4651],[109.7986,1.5047],[109.757,1.5368],[109.7189,1.4757],[109.7041,1.475],[109.6582,1.4366],[109.6396,1.4423],[109.608,1.3888],[109.6206,1.2414],[109.5615,1.1887],[109.5232,1.0672],[109.4786,1.0143],[109.4247,1.0449],[109.378,0.9981],[109.3134,1.0269],[109.2417,1.0185],[109.2176,0.9763],[109.1713,0.9612],[109.1746,0.9076],[109.1623,0.8943],[109.1127,0.871],[109.0507,0.8365],[109.0765,0.7829],[109.048,0.7584],[108.9837,0.7621],[108.9546,0.7582],[108.9181,0.7954],[108.8781,0.8402],[108.8415,0.8166],[108.8801,0.7714],[108.8728,0.708],[108.9285,0.6259],[108.9259,0.5586],[108.9703,0.5326],[108.9905,0.5548],[109.0831,0.5909],[109.1435,0.6463],[109.1516,0.6818],[109.2198,0.7024],[109.2546,0.7284],[109.278,0.7413],[109.3635,0.7732],[109.412,0.7359],[109.4592,0.7565],[109.4889,0.7334],[109.5485,0.7155],[109.5987,0.735],[109.6606,0.7531],[109.6841,0.841],[109.8551,0.8574],[109.8711,0.8942],[109.9318,0.9491],[109.9422,1.0314],[109.9953,1.0254],[110.0707,1.0398],[110.0888,1.0184],[110.1127,1.0076],[110.1129,1.0625],[110.1041,1.1406]]]},"properties":{"code":"61.07","name":"Kabupaten Bengkayang","latitude":1.0119529327335561,"longitude":109.57839986717872}},{"type":"Feature","geometry":{"type":"Polygon","coordinates":[[[110.0888,1.0184],[109.9953,1.0254],[109.9422,1.0314],[109.9318,0.9491],[109.8711,0.8942],[109.8551,0.8574],[109.6841,0.841],[109.6606,0.7531],[109.5987,0.735],[109.5485,0.7155],[109.4889,0.7334],[109.4592,0.7565],[109.412,0.7359],[109.3635,0.7732],[109.278,0.7413],[109.2546,0.7284],[109.2198,0.7024],[109.1516,0.6818],[109.174,0.6641],[109.2505,0.6677],[109.2599,0.6107],[109.2083,0.4654],[109.3011,0.4156],[109.3222,0.3762],[109.271,0.3332],[109.2041,0.3069],[109.1719,0.2731],[109.1793,0.2465],[109.2437,0.2459],[109.2455,0.2303],[109.2623,0.2392],[109.3203,0.2464],[109.3678,0.1967],[109.3791,0.2115],[109.459,0.2289],[109.4879,0.1661],[109.5014,0.138],[109.5034,0.0923],[109.5083,0.0096],[109.5128,-0.0095],[109.5503,-0.0113],[109.6044,0.0351],[109.7019,0.0886],[109.7482,0.0845],[109.7726,0.0769],[109.8764,0.077],[109.9096,0.0841],[109.9365,0.1142],[109.9582,0.1075],[110.0249,0.1404],[110.0493,0.2111],[110.1171,0.2072],[110.1333,0.3025],[110.1891,0.3804],[110.1639,0.4576],[110.2308,0.5324],[110.2438,0.5649],[110.2183,0.6248],[110.2451,0.6744],[110.2396,0.7267],[110.2067,0.7468],[110.1936,0.7646],[110.179,0.8053],[110.181,0.8282],[110.205,0.8479],[110.2424,0.8487],[110.2171,0.9182],[110.2165,0.9727],[110.1845,1.0025],[110.1127,1.0076],[110.0888,1.0184]]]},"properties":{"code":"61.08","name":"Kabupaten Landak","latitude":0.5076819153096951,"longitude":109.76407733028154}},{"type":"Feature","geometry":{"type":"Polygon","coordinates":[[[111.0507,0.7199],[110.9972,0.7354],[111.0009,0.724],[110.9894,0.6902],[111.0124,0.6687],[110.9888,0.5984],[110.9999,0.558],[110.9622,0.5174],[110.9404,0.4255],[110.959,0.3726],[110.9232,0.3397],[110.9086,0.2511],[110.8945,0.224],[110.9014,0.1678],[110.8708,0.1194],[110.7973,0.0995],[110.7673,0.0792],[110.7248,-0.0038],[110.7144,-0.0829],[110.7465,-0.1454],[110.6908,-0.168],[110.6383,-0.1422],[110.6299,-0.203],[110.5531,-0.3261],[110.5704,-0.3465],[110.618,-0.4435],[110.6149,-0.5099],[110.6348,-0.5873],[110.6747,-0.6168],[110.7638,-0.6213],[110.8239,-0.5999],[110.8954,-0.6807],[110.97,-0.626],[110.9277,-0.5576],[111.0077,-0.506],[111.0951,-0.504],[111.0723,-0.4537],[110.9983,-0.3728],[111.0509,-0.3182],[111.0873,-0.2508],[111.0885,-0.1439],[111.1354,-0.1055],[111.1442,0.0098],[111.1323,0.0705],[111.2228,0.0691],[111.267,0.1675],[111.2595,0.2948],[111.2314,0.3067],[111.208,0.3684],[111.2355,0.4393],[111.2944,0.5],[111.2715,0.5776],[111.2122,0.5983],[111.2021,0.6786],[111.1193,0.7201],[111.0507,0.7199]]]},"properties":{"code":"61.09","name":"Kabupaten Sekadau","latitude":-0.01713673939063842,"longitude":110.9489264982842}},{"type":"Feature","geometry":{"type":"Polygon","coordinates":[[[111.7151,-0.1532],[111.6852,-0.1314],[111.6619,-0.1646],[111.5657,-0.2089],[111.5415,-0.2348],[111.4805,-0.2569],[111.476,-0.3292],[111.4363,-0.3575],[111.3916,-0.3497],[111.3125,-0.4141],[111.2607,-0.4354],[111.2022,-0.4959],[111.1977,-0.5225],[111.2397,-0.5916],[111.2145,-0.6473],[111.2414,-0.6927],[111.2073,-0.7823],[111.2149,-0.8564],[111.1721,-0.8483],[111.1613,-0.8459],[111.1668,-0.8873],[111.1219,-0.931],[111.1447,-1.0072],[111.1983,-1.0197],[111.2622,-1.0986],[111.2466,-1.1935],[111.2554,-1.2497],[111.316,-1.2574],[111.3159,-1.3012],[111.3648,-1.3096],[111.3908,-1.2529],[111.4282,-1.2526],[111.4866,-1.2312],[111.5257,-1.2028],[111.5547,-1.2024],[111.5776,-1.1692],[111.5571,-1.1527],[111.5713,-1.0581],[111.6161,-1.0563],[111.6251,-0.9911],[111.7239,-0.9426],[111.7481,-0.9116],[111.8382,-0.9064],[111.9173,-0.8411],[111.9517,-0.7926],[111.9844,-0.7994],[112.0549,-0.7706],[112.0743,-0.734],[112.1023,-0.7098],[112.1468,-0.7306],[112.1744,-0.6842],[112.2053,-0.6318],[112.2328,-0.6129],[112.26,-0.6318],[112.3151,-0.7233],[112.3857,-0.7136],[112.4343,-0.6736],[112.4142,-0.6109],[112.44,-0.5476],[112.4354,-0.5057],[112.4374,-0.4307],[112.3635,-0.3467],[112.3726,-0.2558],[112.4106,-0.1823],[112.3541,-0.1913],[112.2281,-0.2435],[112.1324,-0.3039],[112.1072,-0.2623],[112.0278,-0.2129],[111.9769,-0.2179],[111.9317,-0.1864],[111.8927,-0.2066],[111.8925,-0.2134],[111.8008,-0.1993],[111.7651,-0.1769],[111.7686,-0.1861],[111.7316,-0.1497],[111.7151,-0.1532]]]},"properties":{"code":"61.10","name":"Kabupaten Melawi","latitude":-0.6304366772343024,"longitude":111.7245970579792}},{"type":"Feature","geometry":{"type":"MultiPolygon","coordinates":[[[[108.8976,-1.5348],[108.8275,-1.5898],[108.8577,-1.6771],[108.9371,-1.6538],[108.9828,-1.6017],[108.9396,-1.5518],[108.8976,-1.5348]]],[[[109.4981,-0.979],[109.4579,-1.0039],[109.4487,-1.1071],[109.4057,-1.2454],[109.427,-1.2922],[109.4965,-1.3095],[109.5422,-1.2727],[109.6644,-1.2168],[109.7801,-1.1441],[109.7557,-1.0223],[109.7148,-0.9895],[109.6875,-1.018],[109.5963,-0.9812],[109.5518,-1.0033],[109.4981,-0.979]]],[[[110.0718,-0.7733],[110.0409,-0.7608],[110.0133,-0.7293],[110.0071,-0.7232],[109.9812,-0.7246],[109.968,-0.7396],[109.9399,-0.7405],[109.9316,-0.751],[109.9401,-0.7602],[109.9311,-0.7692],[109.9311,-0.7834],[109.8948,-0.8029],[109.8648,-0.8321],[109.7927,-0.8566],[109.728,-0.9205],[109.7322,-0.9876],[109.8191,-1.0918],[109.9397,-1.1237],[109.9078,-1.2096],[109.9618,-1.2772],[110.0222,-1.2916],[110.0677,-1.363],[110.0944,-1.3528],[110.2235,-1.335],[110.2176,-1.2853],[110.2841,-1.2835],[110.3935,-1.2331],[110.3856,-1.1917],[110.3252,-1.1317],[110.3583,-1.0744],[110.3428,-1.0535],[110.2692,-1.0005],[110.2415,-0.9333],[110.165,-0.9347],[110.1696,-0.8836],[110.0771,-0.7958],[110.0718,-0.7733]]]]},"properties":{"code":"61.11","name":"Kabupaten Kayong Utara","latitude":-1.1044317344796102,"longitude":109.875360189189}},{"type":"Feature","geometry":{"type":"MultiPolygon","coordinates":[[[[109.2523,-0.6618],[109.2391,-0.8121],[109.3017,-0.9015],[109.3445,-0.874],[109.4555,-0.8655],[109.5838,-0.8984],[109.6126,-0.9724],[109.6817,-1.0141],[109.7211,-0.9741],[109.7207,-0.9141],[109.7456,-0.8999],[109.6761,-0.8321],[109.5528,-0.7435],[109.4666,-0.755],[109.3936,-0.7072],[109.3064,-0.7024],[109.2523,-0.6618]]],[[[109.4831,-0.6285],[109.4988,-0.6939],[109.5461,-0.7032],[109.5832,-0.686],[109.5476,-0.656],[109.4831,-0.6285]]],[[[109.1272,-0.2022],[109.0587,-0.2135],[109.058,-0.2733],[109.1169,-0.2575],[109.1324,-0.2364],[109.1272,-0.2022]]],[[[109.4879,0.1661],[109.459,0.2289],[109.3791,0.2115],[109.3678,0.1967],[109.3701,0.0989],[109.3805,0.0484],[109.3761,-0.0231],[109.3219,-0.0942],[109.2857,-0.0184],[109.2872,0.0059],[109.1697,0.0321],[109.1591,-0.0409],[109.1881,-0.0912],[109.1814,-0.1944],[109.1972,-0.2173],[109.1328,-0.2384],[109.1208,-0.2586],[109.0872,-0.2785],[109.1147,-0.3364],[109.0975,-0.361],[109.1166,-0.4368],[109.1164,-0.5136],[109.1477,-0.5678],[109.2018,-0.5514],[109.25,-0.6047],[109.3742,-0.5846],[109.4147,-0.6311],[109.495,-0.6244],[109.5573,-0.6541],[109.5834,-0.6778],[109.6893,-0.7059],[109.6354,-0.7969],[109.7452,-0.8617],[109.7927,-0.8566],[109.8648,-0.8321],[109.9295,-0.7853],[109.94,-0.7607],[109.9316,-0.752],[109.9416,-0.7342],[109.9331,-0.7197],[109.9024,-0.7329],[109.8842,-0.7231],[109.8786,-0.7137],[109.8833,-0.6911],[109.8599,-0.6589],[109.818,-0.6843],[109.8183,-0.6377],[109.8805,-0.5876],[109.9191,-0.5323],[109.9725,-0.4767],[109.946,-0.4445],[109.9681,-0.4455],[109.9314,-0.415],[109.9361,-0.3189],[109.9707,-0.2817],[109.921,-0.1473],[109.9039,-0.1077],[109.8512,-0.0489],[109.8428,0.004],[109.886,0.0413],[109.8764,0.077],[109.7726,0.0769],[109.7482,0.0845],[109.7019,0.0886],[109.6044,0.0351],[109.5503,-0.0113],[109.5128,-0.0095],[109.5083,0.0096],[109.5034,0.0923],[109.5014,0.138],[109.4879,0.1661]]]]},"properties":{"code":"61.12","name":"Kabupaten Kubu Raya","latitude":-0.39182681946736114,"longitude":109.540374395073}},{"type":"Feature","geometry":{"type":"Polygon","coordinates":[[[109.3761,-0.0231],[109.371,0.021],[109.3087,0.0381],[109.2857,-0.0184],[109.3219,-0.0942],[109.3761,-0.0231]]]},"properties":{"code":"61.71","name":"Kota Pontianak","latitude":-0.025780638413533955,"longitude":109.3316974690969}},{"type":"Feature","geometry":{"type":"Polygon","coordinates":[[[109.1467,1.0089],[109.1292,1.018],[109.0833,1.001],[108.9785,0.9974],[108.9536,0.9064],[108.8738,0.8402],[108.9181,0.7954],[108.9546,0.7582],[108.9837,0.7621],[109.048,0.7584],[109.0765,0.7829],[109.0507,0.8365],[109.1127,0.871],[109.1453,0.8815],[109.1746,0.9074],[109.1568,0.9382],[109.164,0.9398],[109.1627,0.9714],[109.1467,1.0089]]]},"properties":{"code":"61.72","name":"Kota Singkawang","latitude":0.8866504290802595,"longitude":109.03227743444673}}]}