{"type":"FeatureCollection","features":[{"type":"Feature","geometry":{"type":"Polygon","coordinates":[[[111.9527,-1.7945],[111.956,-1.7619],[111.9326,-1.6663],[111.917,-1.618],[111.872,-1.5444],[111.75,-1.4832],[111.8177,-1.6014],[111.7924,-1.6257],[111.8053,-1.6836],[111.8388,-1.6967],[111.8437,-1.7526],[111.8114,-1.813],[111.8354,-1.8442],[111.8224,-1.9994],[111.7765,-2.0332],[111.7704,-2.0722],[111.7231,-2.1136],[111.6494,-2.1503],[111.6603,-2.1806],[111.5943,-2.2237],[111.5973,-2.2954],[111.4604,-2.3144],[111.4189,-2.2899],[111.3738,-2.2841],[111.3688,-2.2753],[111.3484,-2.2859],[111.3164,-2.3325],[111.2748,-2.336],[111.2872,-2.518],[111.2176,-2.5051],[111.2255,-2.562],[111.3083,-2.5842],[111.3437,-2.6257],[111.3998,-2.6534],[111.3623,-2.7598],[111.3824,-2.76],[111.3799,-2.8768],[111.3615,-2.9086],[111.457,-2.9249],[111.5597,-3.0067],[111.6363,-2.9573],[111.6903,-2.942],[111.6692,-2.8945],[111.7123,-2.8493],[111.7519,-2.8898],[111.814,-3.0012],[111.8254,-3.0527],[111.7978,-3.1972],[111.8188,-3.3219],[111.8166,-3.405],[111.775,-3.5069],[111.7947,-3.5257],[112.1185,-3.1816],[112.132,-3.1398],[112.0969,-3.0538],[112.0989,-2.988],[112.1398,-2.8034],[112.1295,-2.7657],[112.042,-2.6883],[112.0618,-2.6492],[112.0368,-2.5918],[112.0341,-2.5203],[112.011,-2.462],[112.05,-2.4517],[112.0622,-2.3935],[112.04,-2.3455],[112.0639,-2.314],[112.0248,-2.232],[112.018,-2.1254],[112.0564,-2.0674],[112.0744,-1.972],[111.9685,-1.9041],[111.9371,-1.8689],[111.9527,-1.7945]]]},"properties":{"code":"62.01","name":"Kabupaten Kotawaringin Barat"}},{"type":"Feature","geometry":{"type":"Polygon","coordinates":[[[112.632,-1.2077],[112.5154,-1.1991],[112.4268,-1.2063],[112.3922,-1.2396],[112.3503,-1.2315],[112.3286,-1.2906],[112.2791,-1.3037],[112.2579,-1.3207],[112.202,-1.3027],[112.174,-1.3129],[112.1515,-1.3021],[112.127,-1.3128],[112.1328,-1.4122],[112.1267,-1.4479],[112.1078,-1.5003],[112.0691,-1.5676],[112.0912,-1.6443],[112.1921,-1.758],[112.2516,-1.8601],[112.3446,-1.927],[112.3121,-1.9959],[112.314,-2.1564],[112.3737,-2.1967],[112.3735,-2.2671],[112.4082,-2.267],[112.4308,-2.3313],[112.4362,-2.362],[112.4348,-2.435],[112.4447,-2.4349],[112.4424,-2.4292],[112.448,-2.4269],[112.4437,-2.4325],[112.4521,-2.4329],[112.4505,-2.491],[112.5249,-2.5454],[112.4954,-2.5453],[112.5118,-2.629],[112.6042,-2.6668],[112.6363,-2.7287],[112.7448,-2.7548],[112.822,-2.8057],[112.8438,-2.8458],[112.845,-2.998],[112.8141,-3.0502],[112.8126,-3.2996],[112.919,-3.2411],[112.967,-3.2014],[112.9454,-3.1023],[113.014,-3.0294],[113.0329,-2.9749],[113.0876,-3.0337],[113.1743,-3.0736],[113.2345,-3.1521],[113.2222,-3.0842],[113.0979,-2.8],[113.0947,-2.6753],[113.1357,-2.6083],[113.2131,-2.4505],[113.1722,-2.323],[113.2298,-2.1646],[113.2697,-2.0244],[113.2034,-1.9757],[113.1423,-1.8994],[113.1342,-1.8152],[113.0618,-1.8133],[113.0001,-1.7164],[112.9287,-1.7048],[112.9299,-1.641],[112.8989,-1.5942],[112.8638,-1.5917],[112.8623,-1.5247],[112.8383,-1.5049],[112.8393,-1.4239],[112.746,-1.3781],[112.7495,-1.3335],[112.6912,-1.3065],[112.6749,-1.2558],[112.632,-1.2077]]]},"properties":{"code":"62.02","name":"Kabupaten Kotawaringin Timur"}},{"type":"Feature","geometry":{"type":"Polygon","coordinates":[[[114.0095,-0.4223],[113.9891,-0.384],[113.9603,-0.3982],[113.9379,-0.3946],[113.9,-0.4676],[113.8523,-0.4447],[113.7878,-0.461],[113.7604,-0.4787],[113.7356,-0.5501],[113.7271,-0.5675],[113.6964,-0.6342],[113.6871,-0.7711],[113.7039,-0.8174],[113.748,-0.8421],[113.809,-0.9587],[113.928,-0.9997],[113.9854,-1.0665],[113.97,-1.1117],[114.0048,-1.2903],[114.008,-1.4735],[113.9831,-1.5321],[113.9984,-1.5631],[114.0309,-1.5872],[113.9815,-1.6671],[113.9859,-1.8026],[114.032,-1.9067],[114.1711,-2.0905],[114.1844,-2.1887],[114.2619,-2.2316],[114.2624,-2.3779],[114.3253,-2.3733],[114.3381,-2.7174],[114.3487,-2.7442],[114.2847,-2.8037],[114.2837,-2.8653],[114.2123,-2.9374],[114.2811,-3.0443],[114.2259,-3.1919],[114.1467,-3.1875],[114.1414,-3.2669],[114.172,-3.334],[114.1832,-3.3934],[114.2455,-3.3632],[114.2546,-3.4034],[114.3117,-3.4492],[114.3471,-3.4201],[114.3496,-3.3488],[114.3748,-3.287],[114.4359,-3.2426],[114.4237,-3.1799],[114.5458,-3.0678],[114.5052,-2.9997],[114.5442,-2.949],[114.5538,-2.8919],[114.6153,-2.8845],[114.5977,-2.8156],[114.6794,-2.7788],[114.718,-2.7408],[114.7618,-2.7206],[114.7919,-2.6643],[114.7973,-2.5915],[114.7173,-2.5675],[114.7698,-2.4932],[114.7369,-2.4394],[114.6443,-2.4048],[114.6805,-2.3245],[114.6941,-2.1551],[114.6168,-2.0167],[114.6205,-1.9076],[114.5968,-1.6699],[114.6242,-1.6041],[114.6138,-1.5515],[114.6619,-1.4082],[114.6681,-1.3193],[114.6974,-1.1643],[114.5808,-1.159],[114.4889,-1.0817],[114.4832,-1.0433],[114.483,-0.9786],[114.5216,-0.9034],[114.5697,-0.8753],[114.5281,-0.8497],[114.3932,-0.8359],[114.3637,-0.8557],[114.2342,-0.86],[114.219,-0.8087],[114.153,-0.7957],[114.121,-0.7295],[114.0783,-0.5521],[114.0149,-0.4792],[114.0095,-0.4223]]]},"properties":{"code":"62.03","name":"Kabupaten Kapuas"}},{"type":"Feature","geometry":{"type":"Polygon","coordinates":[[[115.401,-1.3553],[115.4132,-1.2767],[115.4023,-1.2523],[115.365,-1.2559],[115.3523,-1.2711],[115.3078,-1.2968],[115.2443,-1.3204],[115.0843,-1.3057],[115.0538,-1.3274],[114.991,-1.3186],[114.8946,-1.3536],[114.7908,-1.3471],[114.6681,-1.3193],[114.6619,-1.4082],[114.6138,-1.5515],[114.6242,-1.6041],[114.5968,-1.6699],[114.6205,-1.9076],[114.6168,-2.0167],[114.6941,-2.1551],[114.6805,-2.3245],[114.6443,-2.4048],[114.7369,-2.4394],[114.7698,-2.4932],[114.7173,-2.5675],[114.7973,-2.5915],[114.8332,-2.5625],[114.8826,-2.4886],[115.0014,-2.3957],[114.9797,-2.3688],[114.9259,-2.2513],[114.9134,-2.1684],[114.9413,-1.9836],[114.9367,-1.8425],[115.0586,-1.6515],[115.0686,-1.6495],[115.0824,-1.6791],[115.1571,-1.6403],[115.3145,-1.6447],[115.3621,-1.6204],[115.3594,-1.5879],[115.391,-1.5205],[115.4354,-1.4964],[115.4336,-1.4522],[115.4377,-1.4448],[115.4476,-1.4043],[115.401,-1.3553]]]},"properties":{"code":"62.04","name":"Kabupaten Barito Selatan"}},{"type":"Feature","geometry":{"type":"Polygon","coordinates":[[[115.2913,-0.0781],[115.2402,-0.0571],[115.1646,-0.0878],[115.1504,-0.139],[115.0502,-0.1617],[115.0281,-0.2024],[115.0392,-0.24],[115.013,-0.2662],[115.0387,-0.3381],[115.0081,-0.3641],[115.0111,-0.4632],[115.0002,-0.5169],[114.9997,-0.5568],[114.9777,-0.5888],[114.923,-0.6172],[114.8729,-0.7126],[114.8302,-0.7433],[114.7365,-0.7683],[114.6534,-0.8599],[114.5697,-0.8753],[114.5216,-0.9034],[114.483,-0.9786],[114.4832,-1.0433],[114.4889,-1.0817],[114.5808,-1.159],[114.6974,-1.1643],[114.6681,-1.3193],[114.7908,-1.3471],[114.8946,-1.3536],[114.991,-1.3186],[115.0538,-1.3274],[115.0843,-1.3057],[115.2443,-1.3204],[115.3078,-1.2968],[115.3523,-1.2711],[115.365,-1.2559],[115.3979,-1.2509],[115.4131,-1.2706],[115.401,-1.3553],[115.4476,-1.4043],[115.4377,-1.4448],[115.4554,-1.4616],[115.5125,-1.452],[115.576,-1.3809],[115.6676,-1.3348],[115.7093,-1.3389],[115.7668,-1.2943],[115.7772,-1.2312],[115.8494,-1.1718],[115.842,-1.0963],[115.7664,-1.1377],[115.7109,-1.075],[115.6792,-1.0089],[115.5914,-0.935],[115.5473,-0.8544],[115.4929,-0.875],[115.3603,-0.8766],[115.2895,-0.7994],[115.3008,-0.745],[115.3466,-0.7204],[115.3362,-0.6785],[115.3727,-0.6537],[115.3567,-0.5492],[115.2904,-0.5554],[115.2936,-0.5165],[115.2975,-0.4788],[115.2673,-0.432],[115.2626,-0.4009],[115.2327,-0.3618],[115.2532,-0.3026],[115.2732,-0.2433],[115.256,-0.1823],[115.2709,-0.1427],[115.2871,-0.1281],[115.3165,-0.0971],[115.2913,-0.0781]]]},"properties":{"code":"62.05","name":"Kabupaten Barito Utara"}},{"type":"Feature","geometry":{"type":"Polygon","coordinates":[[[113.167,-0.4782],[113.1308,-0.4522],[113.0546,-0.5138],[112.9981,-0.5034],[112.923,-0.522],[112.8324,-0.5776],[112.7295,-0.5881],[112.7024,-0.6386],[112.6382,-0.6573],[112.5613,-0.6962],[112.5029,-0.7002],[112.4343,-0.6736],[112.3857,-0.7136],[112.3151,-0.7233],[112.26,-0.6318],[112.2328,-0.6129],[112.2053,-0.6318],[112.1744,-0.6842],[112.1942,-0.7654],[112.1465,-0.8302],[112.1723,-0.8663],[112.1132,-0.9298],[112.1169,-1.0452],[112.1622,-1.0871],[112.1187,-1.1398],[112.1085,-1.2007],[112.1261,-1.2331],[112.127,-1.3128],[112.1515,-1.3021],[112.174,-1.3129],[112.202,-1.3027],[112.2579,-1.3207],[112.2791,-1.3037],[112.3286,-1.2906],[112.3503,-1.2315],[112.3922,-1.2396],[112.4268,-1.2063],[112.5154,-1.1991],[112.632,-1.2077],[112.6749,-1.2558],[112.6912,-1.3065],[112.7495,-1.3335],[112.746,-1.3781],[112.8393,-1.4239],[112.8383,-1.5049],[112.8623,-1.5247],[112.8638,-1.5917],[112.8989,-1.5942],[112.9299,-1.641],[112.9287,-1.7048],[113.0001,-1.7164],[113.0618,-1.8133],[113.1342,-1.8152],[113.1423,-1.8994],[113.2034,-1.9757],[113.2697,-2.0244],[113.2298,-2.1646],[113.1722,-2.323],[113.2131,-2.4505],[113.1357,-2.6083],[113.0947,-2.6753],[113.0973,-2.7975],[113.2222,-3.0842],[113.2345,-3.1521],[113.3445,-3.2806],[113.4279,-3.2363],[113.4495,-3.1911],[113.5437,-3.1619],[113.6011,-3.1672],[113.6315,-3.1413],[113.6639,-3.0542],[113.7136,-3.0216],[113.7084,-2.9633],[113.6603,-2.9139],[113.6278,-2.8108],[113.5841,-2.7378],[113.665,-2.6183],[113.751,-2.5217],[113.762,-2.4019],[113.6899,-2.2432],[113.6947,-2.0865],[113.5634,-1.9165],[113.4894,-1.7865],[113.4757,-1.6806],[113.502,-1.6445],[113.4337,-1.5774],[113.3613,-1.5255],[113.339,-1.4799],[113.1992,-1.2835],[113.1837,-1.2165],[113.2037,-1.1677],[113.2863,-1.0644],[113.2299,-0.9424],[113.2342,-0.8626],[113.2006,-0.8354],[113.1847,-0.7442],[113.2238,-0.7044],[113.2204,-0.6598],[113.1576,-0.5592],[113.1941,-0.5081],[113.1922,-0.5035],[113.167,-0.4782]]]},"properties":{"code":"62.06","name":"Kabupaten Katingan"}},{"type":"Feature","geometry":{"type":"Polygon","coordinates":[[[112.1023,-0.7098],[112.0743,-0.734],[112.0549,-0.7706],[111.9844,-0.7994],[111.9517,-0.7926],[111.9173,-0.8411],[111.8382,-0.9064],[111.7481,-0.9116],[111.7239,-0.9426],[111.6251,-0.9911],[111.6161,-1.0563],[111.5713,-1.0581],[111.5571,-1.1527],[111.5774,-1.1676],[111.5687,-1.1847],[111.5494,-1.2073],[111.4866,-1.2312],[111.4525,-1.2597],[111.504,-1.2535],[111.5442,-1.2857],[111.6103,-1.3922],[111.6779,-1.421],[111.7034,-1.4542],[111.872,-1.5444],[111.917,-1.618],[111.9554,-1.7505],[111.9527,-1.7945],[111.9371,-1.8689],[111.9685,-1.9041],[112.0744,-1.972],[112.0564,-2.0674],[112.018,-2.1254],[112.0248,-2.232],[112.0639,-2.314],[112.04,-2.3455],[112.0622,-2.3935],[112.05,-2.4517],[112.011,-2.462],[112.0341,-2.5203],[112.0368,-2.5918],[112.0618,-2.6492],[112.042,-2.6883],[112.1295,-2.7657],[112.1398,-2.8034],[112.0989,-2.988],[112.0969,-3.0538],[112.132,-3.1398],[112.1185,-3.1816],[111.7947,-3.5257],[111.9067,-3.538],[111.992,-3.4658],[112.1952,-3.3354],[112.309,-3.3107],[112.3809,-3.332],[112.4799,-3.411],[112.5393,-3.443],[112.6369,-3.4064],[112.6846,-3.3622],[112.8097,-3.2998],[112.8141,-3.0502],[112.845,-2.998],[112.8438,-2.8458],[112.822,-2.8057],[112.7448,-2.7548],[112.6363,-2.7287],[112.6042,-2.6668],[112.5118,-2.629],[112.4954,-2.5453],[112.5249,-2.5454],[112.4505,-2.491],[112.4521,-2.4329],[112.4437,-2.4325],[112.448,-2.4269],[112.4424,-2.4292],[112.4447,-2.4349],[112.4348,-2.435],[112.4362,-2.362],[112.4308,-2.3313],[112.4082,-2.267],[112.3735,-2.2671],[112.3737,-2.1967],[112.314,-2.1564],[112.3121,-1.9959],[112.3446,-1.927],[112.2516,-1.8601],[112.1921,-1.758],[112.0912,-1.6443],[112.0691,-1.5676],[112.1147,-1.4857],[112.1328,-1.4122],[112.1261,-1.2331],[112.1085,-1.2007],[112.1187,-1.1398],[112.1622,-1.0871],[112.1169,-1.0452],[112.1132,-0.9298],[112.1723,-0.8663],[112.1465,-0.8302],[112.1942,-0.7654],[112.1468,-0.7306],[112.1023,-0.7098]]]},"properties":{"code":"62.07","name":"Kabupaten Seruyan"}},{"type":"Feature","geometry":{"type":"Polygon","coordinates":[[[111.1561,-2.0284],[111.1103,-2.0249],[111.0584,-2.0593],[111.0695,-2.1145],[111.0401,-2.2058],[111.0565,-2.2528],[111.1156,-2.3275],[111.0991,-2.4657],[111.1316,-2.5988],[111.1759,-2.6884],[111.1472,-2.7418],[111.0118,-2.7952],[110.9696,-2.856],[110.8945,-2.8696],[110.7934,-2.9124],[110.7532,-2.945],[110.7332,-2.9964],[110.7709,-2.9781],[110.8497,-2.9964],[110.9512,-3.0628],[111.0478,-3.0515],[111.1337,-3.0182],[111.3001,-2.9269],[111.3615,-2.9086],[111.3799,-2.8768],[111.3824,-2.76],[111.3623,-2.7598],[111.3977,-2.6481],[111.3437,-2.6257],[111.3083,-2.5842],[111.2255,-2.562],[111.2176,-2.5051],[111.2872,-2.518],[111.2748,-2.336],[111.3164,-2.3325],[111.3484,-2.2859],[111.3688,-2.2753],[111.3738,-2.2841],[111.382,-2.2821],[111.3578,-2.2147],[111.3669,-2.1922],[111.3552,-2.1523],[111.294,-2.1494],[111.2699,-2.0838],[111.2052,-2.0376],[111.1561,-2.0284]]]},"properties":{"code":"62.08","name":"Kabupaten Sukamara"}},{"type":"Feature","geometry":{"type":"Polygon","coordinates":[[[111.4525,-1.2597],[111.4282,-1.2526],[111.3908,-1.2529],[111.3648,-1.3096],[111.3267,-1.3671],[111.2542,-1.4381],[111.156,-1.4318],[111.0838,-1.5019],[111.0349,-1.5288],[111.0063,-1.5036],[110.887,-1.5986],[110.8733,-1.6655],[110.917,-1.693],[110.94,-1.6573],[110.9943,-1.6501],[110.9944,-1.7069],[111.0258,-1.7199],[110.992,-1.7985],[110.9778,-1.8285],[110.9641,-1.8948],[110.9877,-1.9404],[111,-1.9474],[111.055,-1.9572],[111.0935,-1.9739],[111.0789,-2.0094],[111.1103,-2.0249],[111.1561,-2.0284],[111.2052,-2.0376],[111.2699,-2.0838],[111.294,-2.1494],[111.3555,-2.1525],[111.367,-2.1924],[111.3578,-2.2147],[111.382,-2.2821],[111.4189,-2.2899],[111.4604,-2.3144],[111.5973,-2.2954],[111.5943,-2.2237],[111.6603,-2.1806],[111.6494,-2.1503],[111.7231,-2.1136],[111.7704,-2.0722],[111.7765,-2.0332],[111.8224,-1.9994],[111.8354,-1.8442],[111.8114,-1.813],[111.8437,-1.7526],[111.8388,-1.6967],[111.8053,-1.6836],[111.7924,-1.6257],[111.8177,-1.6014],[111.75,-1.4832],[111.7329,-1.4654],[111.6923,-1.4456],[111.6779,-1.421],[111.6103,-1.3922],[111.5442,-1.2857],[111.504,-1.2535],[111.4525,-1.2597]]]},"properties":{"code":"62.09","name":"Kabupaten Lamandau"}},{"type":"Feature","geometry":{"type":"Polygon","coordinates":[[[113.4549,-0.3089],[113.4438,-0.2908],[113.4294,-0.3034],[113.3739,-0.3781],[113.333,-0.3959],[113.2573,-0.4055],[113.2642,-0.4234],[113.266,-0.4363],[113.2609,-0.4493],[113.2465,-0.4502],[113.2182,-0.5062],[113.1941,-0.5081],[113.1576,-0.5592],[113.2204,-0.6598],[113.2238,-0.7044],[113.1847,-0.7442],[113.2006,-0.8354],[113.2342,-0.8626],[113.2299,-0.9424],[113.2863,-1.0644],[113.2037,-1.1677],[113.1837,-1.2165],[113.1992,-1.2835],[113.339,-1.4799],[113.3613,-1.5255],[113.4337,-1.5774],[113.502,-1.6445],[113.5638,-1.6534],[113.6161,-1.6264],[113.6482,-1.5847],[113.7495,-1.6057],[113.8443,-1.583],[113.8917,-1.5381],[113.9736,-1.5206],[113.9831,-1.5321],[114.008,-1.4735],[114.0048,-1.2903],[113.97,-1.1117],[113.9854,-1.0665],[113.928,-0.9997],[113.809,-0.9587],[113.748,-0.8421],[113.7039,-0.8174],[113.6871,-0.7711],[113.6964,-0.6342],[113.7271,-0.5675],[113.7356,-0.5501],[113.7558,-0.4654],[113.7176,-0.4186],[113.7326,-0.4025],[113.7087,-0.3765],[113.6322,-0.3452],[113.5829,-0.372],[113.4682,-0.3806],[113.4915,-0.3129],[113.4549,-0.3089]]]},"properties":{"code":"62.10","name":"Kabupaten Gunung Mas"}},{"type":"Feature","geometry":{"type":"Polygon","coordinates":[[[113.9736,-1.5206],[113.8917,-1.5381],[113.8443,-1.583],[113.798,-1.6041],[113.8324,-1.8065],[113.8261,-2.0114],[113.9357,-2.1634],[114.0092,-2.1621],[114.1083,-2.1879],[114.085,-2.2688],[114.0418,-2.3106],[114.0249,-2.4036],[113.762,-2.4019],[113.751,-2.5217],[113.665,-2.6183],[113.5841,-2.7378],[113.6278,-2.8108],[113.6603,-2.9139],[113.7084,-2.9633],[113.7136,-3.0216],[113.6639,-3.0542],[113.6315,-3.1413],[113.6011,-3.1672],[113.6275,-3.2494],[113.6323,-3.321],[113.6117,-3.3962],[113.5813,-3.4419],[113.6297,-3.4654],[113.7392,-3.4666],[113.8206,-3.4498],[113.9497,-3.3704],[114.0774,-3.3512],[114.1518,-3.3844],[114.172,-3.334],[114.1414,-3.2669],[114.1467,-3.1875],[114.2259,-3.1919],[114.2811,-3.0443],[114.2123,-2.9374],[114.2837,-2.8653],[114.2847,-2.8037],[114.3487,-2.7442],[114.3381,-2.7174],[114.3253,-2.3733],[114.2624,-2.3779],[114.2619,-2.2316],[114.1844,-2.1887],[114.1711,-2.0905],[114.032,-1.9067],[113.9859,-1.8026],[113.9815,-1.6671],[114.0309,-1.5872],[113.9984,-1.5631],[113.9736,-1.5206]]]},"properties":{"code":"62.11","name":"Kabupaten Pulang Pisau"}},{"type":"Feature","geometry":{"type":"Polygon","coordinates":[[[114.9856,0.7317],[114.9085,0.7906],[114.8722,0.7411],[114.8299,0.7552],[114.7161,0.7012],[114.6624,0.7027],[114.5979,0.6318],[114.5406,0.6204],[114.5245,0.5628],[114.489,0.57],[114.3641,0.5302],[114.2919,0.5366],[114.2438,0.5226],[114.2031,0.5401],[114.158,0.6777],[114.0909,0.6983],[114.0039,0.6411],[113.975,0.6607],[113.9213,0.644],[113.8461,0.6605],[113.8369,0.6484],[113.8261,0.6486],[113.8216,0.6417],[113.8511,0.6083],[113.7975,0.5949],[113.7378,0.5389],[113.7148,0.5263],[113.6853,0.4995],[113.6557,0.4613],[113.6472,0.4566],[113.6288,0.4131],[113.5815,0.3984],[113.5135,0.3045],[113.4927,0.3024],[113.4423,0.2598],[113.4073,0.259],[113.3176,0.2679],[113.2618,0.23],[113.2943,0.2071],[113.3094,0.1738],[113.3917,0.1406],[113.4142,0.1157],[113.404,0.0897],[113.3958,0.0343],[113.4328,0.0092],[113.4157,-0.0478],[113.4199,-0.0917],[113.3853,-0.1319],[113.3302,-0.1516],[113.2875,-0.2234],[113.3054,-0.2542],[113.2599,-0.2934],[113.2203,-0.3343],[113.2391,-0.3778],[113.333,-0.3959],[113.3739,-0.3781],[113.4294,-0.3034],[113.4438,-0.2908],[113.4549,-0.3089],[113.4915,-0.3129],[113.4682,-0.3806],[113.5829,-0.372],[113.6322,-0.3452],[113.65,-0.3633],[113.7219,-0.3858],[113.7333,-0.4052],[113.7176,-0.4186],[113.7878,-0.461],[113.8523,-0.4447],[113.9,-0.4676],[113.9379,-0.3946],[113.9869,-0.3826],[114.0095,-0.4223],[114.0149,-0.4792],[114.0783,-0.5521],[114.121,-0.7295],[114.153,-0.7957],[114.219,-0.8087],[114.2342,-0.86],[114.3637,-0.8557],[114.3932,-0.8359],[114.5281,-0.8497],[114.6534,-0.8599],[114.7365,-0.7683],[114.8302,-0.7433],[114.8729,-0.7126],[114.923,-0.6172],[114.9777,-0.5888],[114.9997,-0.5568],[115.0002,-0.5169],[115.0111,-0.4632],[115.0081,-0.3641],[115.0387,-0.3381],[115.013,-0.2662],[114.9711,-0.2726],[114.9204,-0.2334],[114.929,-0.1654],[114.8977,-0.0317],[114.8374,-0.0465],[114.7953,0.0114],[114.7183,0.0535],[114.7711,0.1198],[114.7625,0.1464],[114.8298,0.1916],[114.8629,0.2751],[114.9416,0.3333],[115.0649,0.325],[115.1293,0.3744],[115.1374,0.4255],[115.0135,0.5993],[114.9856,0.7317]]]},"properties":{"code":"62.12","name":"Kabupaten Murung Raya"}},{"type":"Feature","geometry":{"type":"Polygon","coordinates":[[[115.3741,-1.6527],[115.3621,-1.6204],[115.3145,-1.6447],[115.1571,-1.6403],[115.0824,-1.6791],[115.0686,-1.6495],[115.0586,-1.6515],[114.9367,-1.8425],[114.9413,-1.9836],[114.9134,-2.1684],[114.9259,-2.2513],[114.9797,-2.3688],[115.0014,-2.3957],[115.0736,-2.3507],[115.1073,-2.3049],[115.2542,-2.2094],[115.2903,-2.2239],[115.2973,-2.1437],[115.3358,-2.0958],[115.355,-2.0945],[115.3962,-2.0467],[115.4339,-1.9699],[115.3995,-1.8864],[115.3195,-1.8921],[115.3135,-1.8254],[115.3344,-1.748],[115.3469,-1.6746],[115.3741,-1.6527]]]},"properties":{"code":"62.13","name":"Kabupaten Barito Timur"}},{"type":"Feature","geometry":{"type":"Polygon","coordinates":[[[113.7495,-1.6057],[113.6482,-1.5847],[113.6161,-1.6264],[113.5638,-1.6534],[113.502,-1.6445],[113.4757,-1.6806],[113.4894,-1.7865],[113.5634,-1.9165],[113.6947,-2.0865],[113.6899,-2.2432],[113.762,-2.4019],[114.0249,-2.4036],[114.0418,-2.3106],[114.085,-2.2688],[114.1083,-2.1879],[114.0092,-2.1621],[113.9357,-2.1634],[113.8261,-2.0114],[113.8324,-1.8065],[113.798,-1.6041],[113.7495,-1.6057]]]},"properties":{"code":"62.71","name":"Kota Palangkaraya"}}]}