{"type":"FeatureCollection","features":[{"type":"Feature","geometry":{"type":"Polygon","coordinates":[[[124.3174,1.0084],[124.2978,1.0108],[124.2033,0.99],[124.1379,0.9288],[124.0727,0.9212],[123.911,0.8453],[123.7526,0.8309],[123.727,0.8641],[123.6889,0.7941],[123.7414,0.6853],[123.6988,0.613],[123.6655,0.6176],[123.6429,0.5735],[123.6818,0.563],[123.7202,0.5264],[123.6902,0.4863],[123.7122,0.467],[123.7916,0.4407],[123.8589,0.4593],[123.9298,0.4313],[123.9683,0.4654],[124.0254,0.4779],[124.0482,0.511],[124.1133,0.5273],[124.1397,0.5591],[124.1811,0.5393],[124.2538,0.5436],[124.2938,0.532],[124.3101,0.5679],[124.2967,0.5612],[124.3159,0.574],[124.3375,0.6151],[124.3185,0.6668],[124.288,0.6991],[124.3041,0.7621],[124.3458,0.7685],[124.3571,0.7553],[124.4182,0.7689],[124.4189,0.8073],[124.4366,0.8282],[124.4064,0.858],[124.3796,0.8699],[124.3606,0.9628],[124.3335,0.988],[124.3174,1.0084]]]},"properties":{"code":"71.01","name":"Kabupaten Bolaang Mongondow","latitude":0.7075405205273179,"longitude":124.03855699610745}},{"type":"Feature","geometry":{"type":"Polygon","coordinates":[[[124.9044,1.4517],[124.8719,1.4646],[124.8235,1.428],[124.7524,1.4546],[124.6756,1.3941],[124.618,1.4188],[124.5879,1.3698],[124.6211,1.3365],[124.7227,1.3157],[124.7596,1.2519],[124.7521,1.2113],[124.7271,1.1837],[124.7367,1.1151],[124.7699,1.0965],[124.8374,1.121],[124.8739,1.0575],[124.9096,1.0184],[124.972,1.0747],[125.0233,1.1423],[125.0635,1.2861],[125.0268,1.2914],[124.9801,1.3223],[124.926,1.3782],[124.9077,1.3977],[124.901,1.4267],[124.9044,1.4517]],[[124.8357,1.4051],[124.8377,1.3861],[124.8763,1.3262],[124.8501,1.2667],[124.7515,1.293],[124.7693,1.3593],[124.779,1.3879],[124.7923,1.3984],[124.8357,1.4051]]]},"properties":{"code":"71.02","name":"Kabupaten Minahasa","latitude":1.25003051413795,"longitude":124.85811263763235}},{"type":"Feature","geometry":{"type":"Polygon","coordinates":[[[125.4488,3.7367],[125.4041,3.7194],[125.3976,3.6732],[125.4893,3.5731],[125.4813,3.4818],[125.5029,3.4352],[125.6207,3.3888],[125.6764,3.4294],[125.671,3.4941],[125.5898,3.553],[125.5727,3.6462],[125.5078,3.7231],[125.4488,3.7367]]]},"properties":{"code":"71.03","name":"Kabupaten Kepulauan Sangihe","latitude":3.5526798785622797,"longitude":125.54098144610924}},{"type":"Feature","geometry":{"type":"MultiPolygon","coordinates":[[[[126.7614,3.8548],[126.7532,3.7848],[126.8227,3.728],[126.8511,3.7536],[126.8027,3.8342],[126.7614,3.8548]]],[[[126.7477,4.5456],[126.7199,4.513],[126.7338,4.4625],[126.6868,4.3751],[126.7086,4.2732],[126.7925,4.236],[126.7334,4.1095],[126.6865,4.0748],[126.6708,4.0034],[126.7626,3.9949],[126.8076,4.0318],[126.7964,4.1488],[126.9111,4.27],[126.8509,4.3731],[126.8691,4.4288],[126.8551,4.4896],[126.8076,4.534],[126.7477,4.5456]]]]},"properties":{"code":"71.04","name":"Kabupaten Kepulauan Talaud","latitude":4.225723242057231,"longitude":126.78107586639568}},{"type":"Feature","geometry":{"type":"Polygon","coordinates":[[[124.5879,1.3698],[124.5512,1.3764],[124.5123,1.3175],[124.5501,1.2715],[124.6097,1.2559],[124.5708,1.1853],[124.4158,1.1956],[124.3484,1.1613],[124.3568,1.1336],[124.2978,1.0108],[124.3174,1.0084],[124.3335,0.988],[124.3606,0.9628],[124.3796,0.8699],[124.4064,0.858],[124.4352,0.8314],[124.4329,0.8167],[124.4198,0.8043],[124.4339,0.7964],[124.4905,0.7756],[124.488,0.8024],[124.4973,0.8203],[124.5167,0.8249],[124.5599,0.8668],[124.5589,0.8875],[124.5786,0.9342],[124.5795,1.005],[124.554,1.0398],[124.5665,1.0446],[124.5503,1.0878],[124.6489,1.1163],[124.7367,1.1151],[124.7271,1.1837],[124.7521,1.2113],[124.7596,1.2519],[124.7227,1.3157],[124.6211,1.3365],[124.5879,1.3698]]]},"properties":{"code":"71.05","name":"Kabupaten Minahasa Selatan","latitude":1.0849712837908632,"longitude":124.51890029185276}},{"type":"Feature","geometry":{"type":"MultiPolygon","coordinates":[[[[125.1248,1.5659],[125.1616,1.6389],[125.1345,1.6673],[125.0395,1.6772],[125.0258,1.7304],[124.9921,1.7508],[124.9454,1.687],[124.8818,1.6315],[124.8424,1.5653],[124.9273,1.5603],[124.9027,1.4965],[124.9044,1.4517],[124.901,1.4267],[124.9077,1.3977],[124.926,1.3782],[124.9801,1.3223],[125.0268,1.2914],[125.0611,1.2857],[125.0681,1.299],[125.0617,1.319],[125.0762,1.338],[125.0701,1.3526],[125.1085,1.3944],[125.0884,1.4287],[125.0325,1.4551],[125.0786,1.4993],[125.0853,1.5762],[125.1248,1.5659]]],[[[125.1426,1.835],[125.1133,1.8158],[125.1322,1.7532],[125.1853,1.7752],[125.1426,1.835]]]]},"properties":{"code":"71.06","name":"Kabupaten Minahasa Utara","latitude":1.5480922268033896,"longitude":125.005294661342}},{"type":"Feature","geometry":{"type":"Polygon","coordinates":[[[124.7367,1.1151],[124.6489,1.1163],[124.5503,1.0878],[124.5665,1.0446],[124.554,1.0398],[124.5795,1.005],[124.5786,0.9342],[124.6509,0.9563],[124.6487,0.9299],[124.6347,0.8908],[124.6836,0.8693],[124.7164,0.8964],[124.7678,0.8917],[124.7895,0.945],[124.8861,0.9719],[124.9089,1.0184],[124.8739,1.0575],[124.8374,1.121],[124.7699,1.0965],[124.7367,1.1151]]]},"properties":{"code":"71.07","name":"Kabupaten Minahasa Tenggara","latitude":1.0121994191861103,"longitude":124.71665253724602}},{"type":"Feature","geometry":{"type":"Polygon","coordinates":[[[123.6889,0.7941],[123.7286,0.8577],[123.7263,0.8664],[123.7104,0.8735],[123.6995,0.8583],[123.6814,0.8758],[123.5924,0.9044],[123.5546,0.887],[123.417,0.8911],[123.3731,0.9132],[123.281,0.9127],[123.2149,0.9467],[123.1787,0.9017],[123.1191,0.9263],[123.1217,0.8887],[123.2063,0.8571],[123.2711,0.8026],[123.2686,0.7681],[123.2471,0.717],[123.2736,0.6982],[123.3221,0.6987],[123.3594,0.6514],[123.429,0.6414],[123.4922,0.6191],[123.5091,0.5844],[123.587,0.5869],[123.6429,0.5735],[123.6655,0.6176],[123.6988,0.613],[123.7414,0.6853],[123.6889,0.7941]]]},"properties":{"code":"71.08","name":"Kabupaten Bolaang Mongondow Utara","latitude":0.7676395914471168,"longitude":123.47646833626419}},{"type":"Feature","geometry":{"type":"MultiPolygon","coordinates":[[[[125.3973,2.3791],[125.3749,2.3481],[125.4429,2.317],[125.4665,2.3495],[125.3973,2.3791]]],[[[125.4059,2.8117],[125.3739,2.795],[125.3589,2.7235],[125.4514,2.7533],[125.4059,2.8117]]]]},"properties":{"code":"71.09","name":"Kabupaten Kep. Siau Tagulandang Biaro","latitude":2.5391175631809526,"longitude":125.3969356819243}},{"type":"Feature","geometry":{"type":"Polygon","coordinates":[[[124.6487,0.9299],[124.6501,0.9567],[124.5999,0.943],[124.5794,0.9219],[124.5585,0.8865],[124.5601,0.8671],[124.5508,0.8545],[124.5255,0.8403],[124.5163,0.8245],[124.4973,0.8203],[124.488,0.8024],[124.4905,0.7756],[124.4182,0.7689],[124.3571,0.7553],[124.3795,0.6579],[124.3438,0.6509],[124.3376,0.6146],[124.3746,0.5986],[124.3816,0.5813],[124.4398,0.5667],[124.4759,0.4665],[124.4979,0.5407],[124.5656,0.666],[124.6294,0.7129],[124.6268,0.7707],[124.6836,0.8693],[124.6347,0.8908],[124.6487,0.9299]]]},"properties":{"code":"71.10","name":"Kabupaten Bolaang Mongondow Timur","latitude":0.7160219173933094,"longitude":124.50988671379818}},{"type":"Feature","geometry":{"type":"Polygon","coordinates":[[[124.3816,0.5813],[124.3746,0.5986],[124.3441,0.6089],[124.3375,0.6151],[124.3159,0.574],[124.2967,0.5612],[124.3101,0.5679],[124.2938,0.532],[124.2538,0.5436],[124.1811,0.5393],[124.1397,0.5591],[124.1133,0.5273],[124.0482,0.511],[124.0254,0.4779],[123.9683,0.4654],[123.9298,0.4313],[123.8589,0.4593],[123.7916,0.4407],[123.7122,0.467],[123.6902,0.4863],[123.7202,0.5264],[123.6818,0.563],[123.6429,0.5735],[123.587,0.5869],[123.5368,0.579],[123.5261,0.5418],[123.5228,0.4901],[123.5502,0.4338],[123.4979,0.3821],[123.4941,0.3071],[123.574,0.3218],[123.677,0.2957],[123.7075,0.3194],[123.7788,0.3121],[123.8202,0.337],[123.977,0.3594],[124.0528,0.361],[124.0802,0.3878],[124.2884,0.4071],[124.3233,0.4459],[124.4531,0.4441],[124.4759,0.4665],[124.4398,0.5667],[124.3816,0.5813]]]},"properties":{"code":"71.11","name":"Kabupaten Bolaang Mongondow Selatan","latitude":0.4431072320051208,"longitude":123.92826282447413}},{"type":"Feature","geometry":{"type":"Polygon","coordinates":[[[124.8424,1.5653],[124.8235,1.428],[124.8719,1.4646],[124.9027,1.4965],[124.9273,1.5603],[124.8424,1.5653]]]},"properties":{"code":"71.71","name":"Kota Manado","latitude":1.5249208884876757,"longitude":124.84790009537748}},{"type":"Feature","geometry":{"type":"MultiPolygon","coordinates":[[[[125.2925,1.5493],[125.2374,1.462],[125.2402,1.4428],[125.186,1.4319],[125.2264,1.3974],[125.2599,1.4127],[125.2925,1.5493]]],[[[125.0884,1.4287],[125.2017,1.4398],[125.2338,1.4664],[125.2479,1.5084],[125.2077,1.5505],[125.1248,1.5659],[125.0853,1.5762],[125.0786,1.4993],[125.0325,1.4551],[125.0884,1.4287]]]]},"properties":{"code":"71.72","name":"Kota Bitung","latitude":1.4898111811434278,"longitude":125.15797427808614}},{"type":"Feature","geometry":{"type":"Polygon","coordinates":[[[124.8377,1.3861],[124.8357,1.4051],[124.791,1.3979],[124.7782,1.3871],[124.7693,1.3593],[124.7515,1.293],[124.8501,1.2667],[124.8763,1.3262],[124.8377,1.3861]]]},"properties":{"code":"71.73","name":"Kota Tomohon","latitude":1.330532103129189,"longitude":124.81504660778879}},{"type":"Feature","geometry":{"type":"Polygon","coordinates":[[[124.3458,0.7685],[124.3041,0.7621],[124.288,0.6991],[124.3185,0.6668],[124.3795,0.6579],[124.3571,0.7553],[124.3458,0.7685]]]},"properties":{"code":"71.74","name":"Kota Kotamobagu","latitude":0.7110773575760976,"longitude":124.31830775993886}}]}