{"type":"FeatureCollection","features":[{"type":"Feature","geometry":{"type":"MultiPolygon","coordinates":[[[[121.8164,-7.3303],[121.7553,-7.3498],[121.7443,-7.4043],[121.7808,-7.4238],[121.8244,-7.3957],[121.8164,-7.3303]]],[[[121.0862,-7.3041],[121.0993,-7.3977],[121.163,-7.3469],[121.0862,-7.3041]]],[[[120.8191,-7.2586],[120.8304,-7.299],[120.9322,-7.3079],[121.004,-7.3329],[121.0033,-7.2818],[120.9191,-7.2845],[120.8191,-7.2586]]],[[[120.6318,-7.0005],[120.6231,-7.1133],[120.6675,-7.1474],[120.7453,-7.1283],[120.783,-7.0975],[120.6727,-7.0429],[120.6318,-7.0005]]],[[[120.4947,-5.7679],[120.4609,-5.796],[120.4451,-5.9603],[120.451,-6.0643],[120.4659,-6.0933],[120.4424,-6.2563],[120.4805,-6.2821],[120.4601,-6.4084],[120.4834,-6.4984],[120.5218,-6.3361],[120.5385,-6.3277],[120.5288,-6.1881],[120.5683,-6.0558],[120.533,-5.9116],[120.5303,-5.8445],[120.4947,-5.7679]]]]},"properties":{"code":"73.01","name":"Kabupaten Kepulauan Selayar"}},{"type":"Feature","geometry":{"type":"Polygon","coordinates":[[[120.2989,-5.2879],[120.2443,-5.2996],[120.1698,-5.314],[120.1406,-5.2884],[120.0623,-5.3339],[120.0396,-5.3469],[119.9985,-5.3197],[119.957,-5.3445],[119.9576,-5.381],[120.0035,-5.3869],[120.0912,-5.4907],[120.1058,-5.589],[120.2212,-5.5401],[120.2772,-5.5374],[120.3182,-5.5067],[120.3571,-5.5241],[120.3945,-5.5866],[120.4622,-5.6034],[120.4512,-5.4768],[120.4029,-5.3784],[120.4051,-5.3416],[120.3069,-5.294],[120.2989,-5.2879]]]},"properties":{"code":"73.02","name":"Kabupaten Bulukumba"}},{"type":"Feature","geometry":{"type":"Polygon","coordinates":[[[119.9556,-5.3544],[119.8947,-5.4798],[119.8759,-5.5295],[119.902,-5.5591],[119.9377,-5.5444],[120.0634,-5.5875],[120.1012,-5.5858],[120.0912,-5.4907],[120.0035,-5.3869],[119.9576,-5.381],[119.9556,-5.3544]]]},"properties":{"code":"73.03","name":"Kabupaten Bantaeng"}},{"type":"Feature","geometry":{"type":"Polygon","coordinates":[[[119.8947,-5.4798],[119.8731,-5.4313],[119.7945,-5.5564],[119.7777,-5.5613],[119.7725,-5.5697],[119.7316,-5.5633],[119.7064,-5.5449],[119.6994,-5.531],[119.6906,-5.4946],[119.6643,-5.4775],[119.6341,-5.4738],[119.6266,-5.4603],[119.6361,-5.4585],[119.6394,-5.4305],[119.5735,-5.4466],[119.5297,-5.4319],[119.5283,-5.4812],[119.5117,-5.4921],[119.4875,-5.5108],[119.5055,-5.5224],[119.5183,-5.5485],[119.5123,-5.5693],[119.5692,-5.6048],[119.6506,-5.6287],[119.6474,-5.682],[119.7045,-5.7028],[119.7898,-5.7011],[119.8543,-5.6575],[119.9059,-5.5822],[119.902,-5.5591],[119.8759,-5.5295],[119.8947,-5.4798]]]},"properties":{"code":"73.04","name":"Kabupaten Jeneponto"}},{"type":"Feature","geometry":{"type":"MultiPolygon","coordinates":[[[[119.5867,-5.3275],[119.5481,-5.2958],[119.4814,-5.311],[119.4754,-5.3298],[119.4568,-5.3756],[119.3729,-5.4255],[119.4305,-5.5085],[119.4184,-5.5603],[119.4402,-5.5963],[119.4809,-5.5595],[119.5025,-5.5588],[119.5053,-5.5527],[119.508,-5.5264],[119.4875,-5.5108],[119.5117,-5.4921],[119.5283,-5.4812],[119.5734,-5.4465],[119.6083,-5.442],[119.6363,-5.4316],[119.6272,-5.4192],[119.6454,-5.4073],[119.6408,-5.3854],[119.6151,-5.3479],[119.6003,-5.3292],[119.5867,-5.3275]]],[[[119.4044,-5.2486],[119.354,-5.3262],[119.369,-5.3967],[119.4006,-5.3822],[119.3945,-5.3106],[119.4044,-5.2486]]]]},"properties":{"code":"73.05","name":"Kabupaten Takalar"}},{"type":"Feature","geometry":{"type":"Polygon","coordinates":[[[119.8929,-5.0954],[119.8642,-5.0918],[119.8711,-5.1206],[119.8642,-5.1615],[119.7992,-5.212],[119.6856,-5.1664],[119.5667,-5.1731],[119.5304,-5.1673],[119.512,-5.1771],[119.4146,-5.1956],[119.4044,-5.2486],[119.3945,-5.3106],[119.4006,-5.3822],[119.369,-5.3967],[119.3729,-5.4255],[119.4568,-5.3756],[119.4754,-5.3298],[119.4814,-5.311],[119.5481,-5.2958],[119.5867,-5.3275],[119.6003,-5.3293],[119.6182,-5.3546],[119.6175,-5.368],[119.635,-5.3782],[119.646,-5.3966],[119.6409,-5.4141],[119.6526,-5.4655],[119.6361,-5.4585],[119.6266,-5.4603],[119.6341,-5.4738],[119.6643,-5.4775],[119.6906,-5.4946],[119.6994,-5.5311],[119.731,-5.563],[119.7725,-5.5697],[119.7777,-5.5613],[119.7945,-5.5564],[119.8731,-5.4313],[119.9371,-5.3878],[119.9376,-5.3559],[119.9566,-5.29],[120.0248,-5.1999],[119.9731,-5.1586],[119.9391,-5.1291],[119.8929,-5.0954]]]},"properties":{"code":"73.06","name":"Kabupaten Gowa"}},{"type":"Feature","geometry":{"type":"Polygon","coordinates":[[[120.1379,-5.0574],[120.1063,-5.071],[120.0639,-5.0998],[120.0232,-5.1331],[119.9832,-5.1229],[119.9731,-5.1586],[120.0248,-5.1999],[119.9566,-5.29],[119.9376,-5.3559],[119.9556,-5.3544],[119.9585,-5.3429],[119.9986,-5.3197],[120.0396,-5.3469],[120.0623,-5.3339],[120.1406,-5.2884],[120.1698,-5.314],[120.2443,-5.2996],[120.2989,-5.2879],[120.3069,-5.294],[120.3116,-5.2172],[120.2608,-5.1162],[120.229,-5.0958],[120.1953,-5.0798],[120.1379,-5.0574]]]},"properties":{"code":"73.07","name":"Kabupaten Sinjai"}},{"type":"Feature","geometry":{"type":"Polygon","coordinates":[[[120.2608,-5.1162],[120.2893,-5.1135],[120.2877,-5.0386],[120.312,-4.9109],[120.3058,-4.8679],[120.3794,-4.8081],[120.3996,-4.7107],[120.4444,-4.6622],[120.3995,-4.6064],[120.3766,-4.5143],[120.3969,-4.4691],[120.3468,-4.4262],[120.3933,-4.3337],[120.3376,-4.2404],[120.2638,-4.2727],[120.1934,-4.2369],[120.1126,-4.2443],[120.0701,-4.2703],[120.0615,-4.3206],[120.0944,-4.3351],[120.0967,-4.3914],[120.0888,-4.4071],[120.049,-4.3991],[120.0605,-4.4092],[120.0655,-4.4352],[120.058,-4.4981],[120.0468,-4.505],[120.0433,-4.5214],[120.0137,-4.5272],[119.9946,-4.5211],[119.9723,-4.5306],[119.9391,-4.5334],[119.9034,-4.5263],[119.8597,-4.5274],[119.8175,-4.5321],[119.8026,-4.5916],[119.7594,-4.6257],[119.7603,-4.6853],[119.8257,-4.7177],[119.7593,-4.7881],[119.7234,-4.7876],[119.7664,-4.8245],[119.807,-4.8082],[119.8087,-4.761],[119.867,-4.7441],[119.8847,-4.7183],[119.9718,-4.7776],[119.9718,-4.7864],[119.9475,-4.8002],[119.9487,-4.8449],[119.9334,-4.8736],[119.8975,-4.9166],[119.8903,-4.9732],[119.885,-5.0003],[119.8462,-5.0488],[119.8615,-5.0901],[119.8929,-5.0954],[119.9391,-5.1291],[119.9832,-5.1229],[120.0232,-5.1331],[120.0639,-5.0998],[120.1063,-5.071],[120.1379,-5.0574],[120.1953,-5.0798],[120.229,-5.0958],[120.2608,-5.1162]]]},"properties":{"code":"73.08","name":"Kabupaten Bone"}},{"type":"Feature","geometry":{"type":"Polygon","coordinates":[[[119.9475,-4.8002],[119.9728,-4.7848],[119.9609,-4.7672],[119.9313,-4.755],[119.9106,-4.7306],[119.8908,-4.725],[119.8846,-4.7183],[119.867,-4.7441],[119.8087,-4.761],[119.8108,-4.8213],[119.7963,-4.8648],[119.8045,-4.9257],[119.667,-4.9505],[119.6325,-4.8903],[119.5877,-4.8957],[119.563,-4.8923],[119.4791,-4.9892],[119.4779,-5.0587],[119.5433,-5.077],[119.5394,-5.1223],[119.5012,-5.1613],[119.5304,-5.1673],[119.5667,-5.1731],[119.6856,-5.1664],[119.7992,-5.212],[119.8642,-5.1615],[119.8711,-5.1206],[119.8642,-5.0918],[119.8467,-5.0466],[119.8903,-4.9732],[119.8975,-4.9166],[119.9334,-4.8736],[119.9487,-4.8449],[119.9475,-4.8002]]]},"properties":{"code":"73.09","name":"Kabupaten Maros"}},{"type":"Feature","geometry":{"type":"Polygon","coordinates":[[[119.6252,-4.5741],[119.5876,-4.5863],[119.4819,-4.7514],[119.5049,-4.8653],[119.563,-4.8923],[119.5877,-4.8957],[119.6325,-4.8903],[119.667,-4.9505],[119.8045,-4.9257],[119.7963,-4.8648],[119.807,-4.8082],[119.7664,-4.8245],[119.7003,-4.8022],[119.696,-4.7566],[119.6611,-4.7262],[119.661,-4.696],[119.6667,-4.6539],[119.6252,-4.5741]]]},"properties":{"code":"73.10","name":"Kabupaten Pangkajene dan Kepulauan"}},{"type":"Feature","geometry":{"type":"Polygon","coordinates":[[[119.6672,-4.0694],[119.6057,-4.0832],[119.6362,-4.1616],[119.6106,-4.2585],[119.6372,-4.3193],[119.5963,-4.4166],[119.581,-4.5304],[119.6252,-4.5741],[119.6667,-4.6539],[119.661,-4.696],[119.6611,-4.7262],[119.696,-4.7566],[119.7234,-4.7876],[119.7593,-4.7881],[119.8257,-4.7177],[119.7869,-4.6884],[119.7601,-4.684],[119.7594,-4.6257],[119.8026,-4.5916],[119.79,-4.5132],[119.7585,-4.4803],[119.7561,-4.2888],[119.7445,-4.266],[119.7576,-4.2065],[119.7355,-4.1643],[119.7396,-4.1387],[119.748,-4.1396],[119.7197,-4.0774],[119.6672,-4.0694]]]},"properties":{"code":"73.11","name":"Kabupaten Barru"}},{"type":"Feature","geometry":{"type":"Polygon","coordinates":[[[119.9504,-4.1233],[119.8632,-4.1048],[119.8487,-4.0986],[119.8241,-4.1053],[119.8094,-4.1122],[119.8021,-4.1297],[119.7506,-4.1267],[119.748,-4.1396],[119.7396,-4.1387],[119.7355,-4.1643],[119.7576,-4.2065],[119.7445,-4.266],[119.7561,-4.2888],[119.7585,-4.4803],[119.79,-4.5132],[119.8597,-4.5274],[119.9034,-4.5263],[119.9391,-4.5334],[119.9723,-4.5306],[119.9946,-4.5211],[120.0338,-4.5257],[120.0436,-4.5209],[120.0604,-4.4863],[120.0641,-4.4192],[120.049,-4.3991],[120.0928,-4.4058],[120.0944,-4.3351],[120.0615,-4.3206],[120.0416,-4.2872],[120.0077,-4.2686],[119.988,-4.2639],[119.9596,-4.2565],[119.936,-4.2394],[119.9504,-4.1233]]]},"properties":{"code":"73.12","name":"Kabupaten Soppeng"}},{"type":"Feature","geometry":{"type":"Polygon","coordinates":[[[120.2401,-3.6736],[120.1566,-3.6422],[120.1433,-3.683],[120.2105,-3.7234],[120.1918,-3.7728],[120.1534,-3.7652],[120.1255,-3.8128],[120.0459,-3.8702],[120.0162,-3.9386],[119.956,-3.9391],[119.8988,-3.9739],[119.8812,-4.0251],[119.8965,-4.0786],[119.9504,-4.1233],[119.936,-4.2394],[119.9596,-4.2565],[119.988,-4.2639],[120.0077,-4.2686],[120.0416,-4.2872],[120.1126,-4.2443],[120.1934,-4.2369],[120.2638,-4.2727],[120.3376,-4.2404],[120.3811,-4.1752],[120.3304,-4.0959],[120.361,-4.0223],[120.3366,-3.9372],[120.3591,-3.8564],[120.4402,-3.7441],[120.4381,-3.6893],[120.356,-3.6516],[120.3243,-3.6444],[120.3085,-3.6913],[120.2994,-3.7365],[120.2993,-3.7052],[120.2401,-3.6736]]]},"properties":{"code":"73.13","name":"Kabupaten Wajo"}},{"type":"Feature","geometry":{"type":"Polygon","coordinates":[[[120.1121,-3.5087],[120.0615,-3.5371],[120.0272,-3.5957],[119.9229,-3.6854],[119.9405,-3.7618],[119.9606,-3.804],[119.9067,-3.8227],[119.873,-3.8187],[119.8605,-3.8116],[119.8232,-3.7673],[119.8027,-3.7333],[119.778,-3.7378],[119.7487,-3.7783],[119.7272,-3.8632],[119.7038,-3.9063],[119.6594,-3.966],[119.6864,-3.9902],[119.6987,-4.0138],[119.7022,-4.0342],[119.7506,-4.1267],[119.8021,-4.1297],[119.8095,-4.1122],[119.8483,-4.0986],[119.8968,-4.1081],[119.8965,-4.0786],[119.8812,-4.0251],[119.8988,-3.9739],[119.956,-3.9391],[120.0162,-3.9386],[120.0459,-3.8702],[120.1255,-3.8128],[120.1534,-3.7652],[120.1918,-3.7728],[120.2105,-3.7234],[120.1433,-3.683],[120.1566,-3.6422],[120.2401,-3.6736],[120.2993,-3.7052],[120.2994,-3.7365],[120.3085,-3.6913],[120.322,-3.647],[120.2744,-3.6137],[120.234,-3.5845],[120.1798,-3.5431],[120.1554,-3.5238],[120.1121,-3.5087]]]},"properties":{"code":"73.14","name":"Kabupaten Sidenreng Rappang"}},{"type":"Feature","geometry":{"type":"Polygon","coordinates":[[[119.5797,-3.2883],[119.5207,-3.3096],[119.4761,-3.2883],[119.4366,-3.3134],[119.4386,-3.3201],[119.4595,-3.3843],[119.4753,-3.4577],[119.4742,-3.5023],[119.5032,-3.5343],[119.5105,-3.5963],[119.4594,-3.6419],[119.4526,-3.7134],[119.4848,-3.7583],[119.5383,-3.902],[119.5864,-3.9738],[119.6401,-3.9805],[119.7038,-3.9063],[119.7272,-3.8632],[119.7487,-3.7783],[119.778,-3.7378],[119.8027,-3.7333],[119.7589,-3.7128],[119.7221,-3.5643],[119.6923,-3.5016],[119.7062,-3.4728],[119.6927,-3.4262],[119.702,-3.4248],[119.6842,-3.3896],[119.6205,-3.3021],[119.6026,-3.2822],[119.5797,-3.2883]]]},"properties":{"code":"73.15","name":"Kabupaten Pinrang"}},{"type":"Feature","geometry":{"type":"Polygon","coordinates":[[[119.8151,-3.2455],[119.7739,-3.2454],[119.7305,-3.294],[119.7254,-3.3828],[119.702,-3.4248],[119.6927,-3.4262],[119.7062,-3.4728],[119.6923,-3.5016],[119.7221,-3.5643],[119.7589,-3.7128],[119.7982,-3.7288],[119.8161,-3.7447],[119.8232,-3.7673],[119.855,-3.7913],[119.8606,-3.8117],[119.9067,-3.8227],[119.9606,-3.804],[119.9405,-3.7618],[119.9229,-3.6854],[120.0272,-3.5957],[120.0615,-3.5371],[120.1003,-3.4773],[120.0746,-3.4462],[120.0255,-3.3883],[120.0414,-3.3683],[120.0017,-3.3343],[120.006,-3.3189],[119.9882,-3.3079],[119.9662,-3.2913],[119.8819,-3.2568],[119.8151,-3.2455]]]},"properties":{"code":"73.16","name":"Kabupaten Enrekang"}},{"type":"Feature","geometry":{"type":"MultiPolygon","coordinates":[[[[120.1138,-3.038],[120.0345,-3.0439],[120.0213,-3.0722],[120.028,-3.0707],[120.01,-3.1672],[119.9937,-3.2119],[119.9811,-3.2493],[120.0253,-3.2825],[120.0441,-3.3511],[120.0387,-3.3779],[120.0255,-3.3883],[120.0746,-3.4462],[120.1003,-3.4771],[120.1121,-3.5087],[120.1554,-3.5238],[120.1798,-3.5431],[120.234,-3.5845],[120.2744,-3.6137],[120.3243,-3.6444],[120.356,-3.6516],[120.4083,-3.6673],[120.4175,-3.5734],[120.3915,-3.4885],[120.4045,-3.3397],[120.3817,-3.2019],[120.2566,-3.1616],[120.2624,-3.0821],[120.2095,-3.0675],[120.1135,-3.0606],[120.1069,-3.0447],[120.1138,-3.038]]],[[[120.1305,-2.7038],[120.0747,-2.6973],[120.0613,-2.6895],[119.9663,-2.6965],[119.9435,-2.7043],[119.9274,-2.7281],[119.9128,-2.7803],[119.944,-2.7813],[119.9908,-2.844],[120.006,-2.9036],[120.0526,-2.9311],[120.0495,-2.9525],[120.0867,-2.9304],[120.0943,-2.9178],[120.123,-2.9121],[120.1431,-2.8961],[120.1829,-2.8873],[120.22,-2.8985],[120.2135,-2.9573],[120.2879,-2.9148],[120.277,-2.8675],[120.1908,-2.7645],[120.171,-2.736],[120.1305,-2.7038]]]]},"properties":{"code":"73.17","name":"Kabupaten Luwu"}},{"type":"Feature","geometry":{"type":"Polygon","coordinates":[[[119.6141,-2.7504],[119.5856,-2.7637],[119.5789,-2.837],[119.55,-2.8976],[119.5766,-2.9502],[119.5646,-2.9943],[119.6059,-3.1181],[119.5359,-3.1394],[119.5157,-3.171],[119.4703,-3.1909],[119.432,-3.1674],[119.3938,-3.1989],[119.4037,-3.2468],[119.4321,-3.2617],[119.4761,-3.2883],[119.5207,-3.3096],[119.5797,-3.2883],[119.6026,-3.2822],[119.6205,-3.3021],[119.6842,-3.3896],[119.7254,-3.3828],[119.7305,-3.294],[119.7739,-3.2454],[119.8151,-3.2455],[119.8819,-3.2568],[119.9662,-3.2913],[119.9882,-3.3079],[120.006,-3.3189],[120.0017,-3.3343],[120.0414,-3.3683],[120.0441,-3.3511],[120.0253,-3.2825],[119.9811,-3.2493],[119.9937,-3.2119],[119.9871,-3.1827],[119.9782,-3.1524],[119.9794,-3.1091],[119.9689,-3.0691],[119.8589,-3.0423],[119.813,-3.0095],[119.808,-2.9598],[119.7502,-2.9541],[119.6998,-2.9241],[119.6906,-2.8704],[119.6965,-2.845],[119.6751,-2.7688],[119.6307,-2.7546],[119.6141,-2.7504]]]},"properties":{"code":"73.18","name":"Kabupaten Tana Toraja"}},{"type":"Feature","geometry":{"type":"Polygon","coordinates":[[[120.1092,-1.9778],[120.0446,-1.9721],[119.9952,-1.9579],[119.9208,-2.0331],[119.8514,-2.042],[119.8177,-2.0593],[119.8047,-2.112],[119.711,-2.1425],[119.7382,-2.1884],[119.7472,-2.2214],[119.7122,-2.2562],[119.6878,-2.3712],[119.7245,-2.467],[119.7101,-2.489],[119.7453,-2.5352],[119.7622,-2.5719],[119.7844,-2.5975],[119.8386,-2.6474],[119.8556,-2.6881],[119.8822,-2.7617],[119.8917,-2.7594],[119.8932,-2.7369],[119.9032,-2.7249],[119.9274,-2.7281],[119.9406,-2.7057],[119.958,-2.6987],[120.0467,-2.7006],[120.0613,-2.6895],[120.0747,-2.6973],[120.1305,-2.7038],[120.171,-2.736],[120.1908,-2.7645],[120.277,-2.8675],[120.2881,-2.911],[120.3503,-2.8668],[120.4505,-2.8261],[120.5277,-2.7671],[120.5732,-2.7055],[120.6559,-2.6672],[120.6315,-2.6201],[120.5748,-2.4631],[120.5406,-2.4282],[120.5316,-2.36],[120.4998,-2.2876],[120.4866,-2.2318],[120.5082,-2.1628],[120.5081,-2.1129],[120.4287,-1.9861],[120.4066,-1.9717],[120.3868,-1.9592],[120.3547,-1.9796],[120.329,-1.9971],[120.2878,-2.0274],[120.232,-1.9826],[120.1978,-1.9946],[120.1661,-1.9622],[120.1298,-1.9969],[120.1092,-1.9778]]]},"properties":{"code":"73.22","name":"Kabupaten Luwu Utara"}},{"type":"Feature","geometry":{"type":"Polygon","coordinates":[[[121.0102,-2.8664],[120.9924,-2.8478],[120.9949,-2.8287],[121.0186,-2.8199],[121.032,-2.7919],[121.0683,-2.787],[121.0825,-2.7733],[121.1532,-2.8127],[121.319,-2.964],[121.4175,-3.0159],[121.4437,-3.0116],[121.4838,-2.9489],[121.5478,-2.9178],[121.6343,-2.8936],[121.6702,-2.9004],[121.6708,-2.8708],[121.7068,-2.8073],[121.7153,-2.7533],[121.7735,-2.6829],[121.7841,-2.6417],[121.7201,-2.6038],[121.6299,-2.5056],[121.5703,-2.4912],[121.4511,-2.4178],[121.4059,-2.4036],[121.2279,-2.3684],[121.1693,-2.3813],[121.1225,-2.3935],[121.1055,-2.4003],[121.0852,-2.3733],[121.1094,-2.3155],[121.1076,-2.2808],[121.0488,-2.2653],[120.9944,-2.2751],[120.9578,-2.2519],[120.8574,-2.2562],[120.8552,-2.2223],[120.8235,-2.2179],[120.8057,-2.2237],[120.7829,-2.2131],[120.7799,-2.2281],[120.7431,-2.2418],[120.7376,-2.2287],[120.6866,-2.2038],[120.6362,-2.1135],[120.5995,-2.096],[120.5724,-2.049],[120.5446,-2.0186],[120.5406,-2.0383],[120.5236,-2.032],[120.5179,-2.0443],[120.5297,-2.083],[120.5244,-2.0904],[120.5082,-2.1628],[120.4866,-2.2318],[120.4998,-2.2876],[120.5316,-2.36],[120.5406,-2.4282],[120.5748,-2.4631],[120.6315,-2.6201],[120.6559,-2.6672],[120.6741,-2.6449],[120.8172,-2.6195],[120.8398,-2.6495],[120.8902,-2.6398],[121.0875,-2.7156],[121.0622,-2.7644],[120.9944,-2.8188],[120.9754,-2.8083],[120.9968,-2.8698],[121.0102,-2.8664]]]},"properties":{"code":"73.24","name":"Kabupaten Luwu Timur"}},{"type":"Feature","geometry":{"type":"Polygon","coordinates":[[[119.7844,-2.5975],[119.744,-2.6106],[119.7478,-2.7144],[119.6751,-2.7688],[119.6965,-2.845],[119.6906,-2.8704],[119.6998,-2.9241],[119.7502,-2.9541],[119.808,-2.9598],[119.813,-3.0095],[119.8589,-3.0423],[119.9689,-3.0691],[119.9794,-3.1091],[119.9782,-3.1524],[119.9871,-3.1827],[120.01,-3.1672],[120.028,-3.0707],[120.0213,-3.0722],[120.0345,-3.0439],[120.051,-2.9835],[120.0609,-2.9653],[120.0495,-2.9523],[120.0526,-2.9311],[120.006,-2.9036],[119.9908,-2.844],[119.952,-2.7999],[119.9415,-2.7788],[119.9128,-2.7803],[119.8909,-2.7695],[119.8778,-2.756],[119.8556,-2.6881],[119.8386,-2.6474],[119.7844,-2.5975]]]},"properties":{"code":"73.26","name":"Kabupaten Toraja Utara"}},{"type":"Feature","geometry":{"type":"Polygon","coordinates":[[[119.5433,-5.077],[119.4722,-5.0647],[119.4096,-5.1128],[119.3789,-5.195],[119.4146,-5.1956],[119.512,-5.1771],[119.5012,-5.1613],[119.5394,-5.1223],[119.5433,-5.077]]]},"properties":{"code":"73.71","name":"Kota Makassar"}},{"type":"Feature","geometry":{"type":"Polygon","coordinates":[[[119.6594,-3.966],[119.6209,-4.002],[119.6201,-4.067],[119.6672,-4.0694],[119.7022,-4.0342],[119.6987,-4.0138],[119.6864,-3.9902],[119.6594,-3.966]]]},"properties":{"code":"73.72","name":"Kota Parepare"}},{"type":"Feature","geometry":{"type":"Polygon","coordinates":[[[120.1829,-2.8873],[120.1431,-2.8961],[120.123,-2.9121],[120.0943,-2.9178],[120.0867,-2.9304],[120.0495,-2.9525],[120.0609,-2.9653],[120.051,-2.9835],[120.1138,-3.038],[120.1069,-3.0447],[120.1135,-3.0606],[120.2095,-3.0675],[120.2295,-3.0431],[120.2126,-2.9564],[120.2214,-2.903],[120.1829,-2.8873]]]},"properties":{"code":"73.73","name":"Kota Palopo"}}]}