{"type":"FeatureCollection","features":[{"type":"Feature","geometry":{"type":"Polygon","coordinates":[[[140.3842,-3.7365],[140.3851,-3.7196],[140.3489,-3.6935],[140.3518,-3.6841],[140.3751,-3.6497],[140.3807,-3.6055],[140.3859,-3.5542],[140.3371,-3.486],[140.3689,-3.4691],[140.3626,-3.3844],[140.3624,-3.3694],[140.3136,-3.2921],[140.3371,-3.2089],[140.3242,-3.1796],[140.4073,-3.1336],[140.4083,-3.0825],[140.3591,-3.0308],[140.4042,-2.9234],[140.3749,-2.8172],[140.4066,-2.783],[140.4914,-2.7547],[140.5316,-2.7793],[140.6217,-2.7495],[140.6334,-2.7225],[140.6255,-2.5668],[140.6033,-2.5158],[140.6527,-2.4763],[140.6131,-2.4397],[140.4975,-2.4442],[140.4333,-2.412],[140.3684,-2.4042],[140.3552,-2.4459],[140.3002,-2.4439],[140.2533,-2.401],[140.2082,-2.4075],[140.1152,-2.336],[140.0013,-2.3762],[139.9954,-2.3802],[139.9865,-2.4386],[139.7831,-2.4029],[139.7646,-2.4622],[139.7797,-2.4893],[139.7763,-2.5016],[139.7156,-2.5346],[139.6606,-2.5553],[139.5828,-2.54],[139.5769,-2.5681],[139.4857,-2.6234],[139.4329,-2.5897],[139.396,-2.6429],[139.3665,-2.6581],[139.423,-2.7131],[139.4328,-2.7831],[139.4456,-2.8072],[139.5191,-2.8188],[139.5896,-2.88],[139.5351,-2.9249],[139.5227,-2.9813],[139.5306,-3.0805],[139.4971,-3.1632],[139.4863,-3.2345],[139.5091,-3.2915],[139.5041,-3.3013],[139.4959,-3.3689],[139.4494,-3.4215],[139.4533,-3.4433],[139.4636,-3.4602],[139.4664,-3.4933],[139.5176,-3.5555],[139.515,-3.6494],[139.5926,-3.7051],[139.5951,-3.7272],[139.6219,-3.7097],[139.626,-3.6642],[139.7036,-3.6373],[139.7025,-3.5428],[139.7371,-3.5484],[139.7827,-3.5216],[139.8065,-3.567],[139.8212,-3.5774],[139.8388,-3.5881],[139.8758,-3.6012],[139.8817,-3.6082],[139.904,-3.6167],[139.9675,-3.6127],[139.9894,-3.6575],[140.0197,-3.7015],[140.0502,-3.6734],[140.11,-3.692],[140.1981,-3.6972],[140.273,-3.6702],[140.3212,-3.7436],[140.3735,-3.7447],[140.3842,-3.7365]]]},"properties":{"code":"91.03","name":"Kabupaten Jayapura","latitude":-3.010016138055507,"longitude":139.9887188705249}},{"type":"Feature","geometry":{"type":"MultiPolygon","coordinates":[[[[135.4734,-1.5986],[135.474,-1.6804],[135.5548,-1.6625],[135.6729,-1.7066],[135.7095,-1.6892],[135.7844,-1.7158],[135.8578,-1.7674],[135.8923,-1.7624],[135.978,-1.8168],[136.0264,-1.8194],[136.071,-1.8496],[136.1471,-1.8533],[136.1717,-1.8744],[136.2645,-1.8924],[136.3124,-1.8623],[136.4293,-1.8868],[136.6179,-1.8622],[136.7187,-1.816],[136.7959,-1.8122],[136.8487,-1.8274],[136.9034,-1.7927],[136.789,-1.7397],[136.6689,-1.7261],[136.5854,-1.7292],[136.4457,-1.6978],[136.4101,-1.7195],[136.3246,-1.7036],[136.28,-1.6782],[136.1822,-1.6555],[136.0141,-1.6471],[135.9659,-1.6539],[135.8987,-1.635],[135.8697,-1.6613],[135.7851,-1.6262],[135.6239,-1.6258],[135.4734,-1.5986]]],[[[135.1204,-1.4659],[135.1756,-1.524],[135.2472,-1.5297],[135.2965,-1.4869],[135.1204,-1.4659]]]]},"properties":{"code":"91.05","name":"Kabupaten Kepulauan Yapen","latitude":-1.7454798571025159,"longitude":136.17414376824914}},{"type":"Feature","geometry":{"type":"MultiPolygon","coordinates":[[[[134.856,-0.931],[134.7924,-0.9806],[134.7946,-1.0327],[134.8352,-1.1047],[134.8901,-1.1405],[134.9511,-1.1277],[134.982,-1.0719],[134.9303,-1.0265],[134.9434,-0.9698],[134.856,-0.931]]],[[[135.7639,-0.7698],[135.7361,-0.8072],[135.7742,-0.876],[135.7938,-0.9839],[135.8158,-1.0041],[135.8197,-1.0873],[135.8578,-1.1666],[136.0009,-1.1424],[136.074,-1.1855],[136.145,-1.1997],[136.3147,-1.1404],[136.3238,-1.0742],[136.2568,-1.0173],[136.1905,-1.0446],[136.098,-0.9585],[136.0502,-0.8557],[135.9777,-0.8148],[135.8662,-0.7073],[135.8114,-0.6853],[135.7708,-0.7425],[135.7639,-0.7698]]]]},"properties":{"code":"91.06","name":"Kabupaten Biak Numfor","latitude":-1.002845377296286,"longitude":135.84436896649183}},{"type":"Feature","geometry":{"type":"Polygon","coordinates":[[[140.0013,-2.3762],[139.9955,-2.359],[139.8106,-2.3785],[139.6146,-2.29],[139.365,-2.148],[139.2506,-2.1096],[139.1248,-2.0306],[138.9927,-1.9731],[138.9049,-1.9553],[138.8627,-1.9658],[138.7888,-1.9199],[138.7358,-1.8523],[138.6652,-1.7926],[138.4527,-1.743],[138.3023,-1.6935],[138.1733,-1.63],[138.1472,-1.6276],[138.1633,-1.6832],[138.1649,-1.7214],[138.1546,-1.7717],[138.1408,-1.8078],[138.1464,-1.8273],[138.1532,-1.8203],[138.1557,-1.8485],[138.1478,-1.8583],[138.162,-1.8889],[138.1629,-1.8994],[138.155,-1.9083],[138.1574,-1.9102],[138.1637,-1.9355],[138.2194,-1.9378],[138.2253,-1.9476],[138.2485,-2.0352],[138.3105,-2.0698],[138.2992,-2.1681],[138.3712,-2.215],[138.4087,-2.2149],[138.4381,-2.2433],[138.4657,-2.3213],[138.4465,-2.331],[138.437,-2.3381],[138.4218,-2.3564],[138.3826,-2.3902],[138.4207,-2.4302],[138.4365,-2.5228],[138.5389,-2.5432],[138.5952,-2.4875],[138.7175,-2.5319],[138.7879,-2.5205],[138.8723,-2.5465],[138.9065,-2.5764],[139.051,-2.5955],[139.1168,-2.624],[139.1293,-2.6527],[139.1957,-2.6294],[139.2311,-2.6273],[139.2331,-2.6913],[139.211,-2.7538],[139.1708,-2.7712],[139.1719,-2.814],[139.1797,-2.8179],[139.1508,-2.8228],[139.1065,-2.8822],[139.1446,-2.9559],[139.1263,-3.0085],[139.1204,-3.1173],[139.0393,-3.1299],[139.0299,-3.1241],[139.0335,-3.1412],[139.0231,-3.1527],[139.0214,-3.1861],[139.0035,-3.2313],[139.0358,-3.2517],[139.0655,-3.2764],[139.0837,-3.3352],[139.1031,-3.3644],[139.1246,-3.3771],[139.138,-3.4187],[139.2067,-3.449],[139.2522,-3.4188],[139.2757,-3.4636],[139.3566,-3.4829],[139.3735,-3.4359],[139.4636,-3.4602],[139.4533,-3.4433],[139.4494,-3.4215],[139.4959,-3.3689],[139.5041,-3.3013],[139.5091,-3.2915],[139.4863,-3.2345],[139.4971,-3.1632],[139.5306,-3.0805],[139.5227,-2.9813],[139.5351,-2.9249],[139.5896,-2.88],[139.5191,-2.8188],[139.4456,-2.8072],[139.4328,-2.7831],[139.423,-2.7131],[139.3665,-2.6581],[139.396,-2.6429],[139.4329,-2.5897],[139.4857,-2.6234],[139.5769,-2.5681],[139.5828,-2.54],[139.6606,-2.5553],[139.7156,-2.5346],[139.7763,-2.5016],[139.7797,-2.4893],[139.7646,-2.4622],[139.7831,-2.4029],[139.9865,-2.4386],[139.9954,-2.3802],[140.0013,-2.3762]]]},"properties":{"code":"91.10","name":"Kabupaten Sarmi","latitude":-2.4518394621297976,"longitude":139.01295139208892}},{"type":"Feature","geometry":{"type":"Polygon","coordinates":[[[140.8506,-2.7485],[140.7993,-2.7259],[140.7583,-2.7542],[140.7281,-2.7633],[140.7004,-2.7557],[140.6642,-2.7513],[140.6217,-2.7495],[140.5316,-2.7793],[140.4914,-2.7547],[140.4066,-2.783],[140.3749,-2.8172],[140.4042,-2.9234],[140.3591,-3.0308],[140.4083,-3.0825],[140.4073,-3.1336],[140.3242,-3.1796],[140.3371,-3.2089],[140.3136,-3.2921],[140.3624,-3.3694],[140.3626,-3.3844],[140.3689,-3.4691],[140.3371,-3.486],[140.3859,-3.5542],[140.3807,-3.6055],[140.3751,-3.6497],[140.3518,-3.6841],[140.3489,-3.6935],[140.3851,-3.7196],[140.4241,-3.7463],[140.4586,-3.7665],[140.5291,-3.7799],[140.5385,-3.7563],[140.557,-3.75],[140.6251,-3.7701],[140.6261,-3.7838],[140.667,-3.7903],[140.7011,-3.8387],[140.7022,-3.8862],[140.767,-3.8737],[140.8239,-3.8944],[140.8436,-3.9249],[140.7703,-3.9587],[140.7302,-3.9124],[140.6444,-3.9587],[140.618,-3.9541],[140.5847,-3.9307],[140.5962,-3.9288],[140.5851,-3.9211],[140.5669,-3.9447],[140.5047,-3.9508],[140.5346,-3.8153],[140.4051,-3.7848],[140.432,-3.8552],[140.4273,-3.9312],[140.4707,-3.9652],[140.5189,-4.0637],[140.5689,-4.0973],[140.5886,-4.116],[140.6103,-4.0619],[140.7787,-4.0001],[140.8123,-4.013],[140.8101,-3.9953],[140.8898,-3.9611],[140.9147,-3.9697],[140.9736,-3.9824],[140.9835,-4.0081],[141.0012,-4.0196],[141.0027,-2.8393],[140.9041,-2.7646],[140.8506,-2.7485]]]},"properties":{"code":"91.11","name":"Kabupaten Keerom","latitude":-3.353179530121135,"longitude":140.69238314512145}},{"type":"Feature","geometry":{"type":"Polygon","coordinates":[[[136.8168,-2.2025],[136.7495,-2.2524],[136.7059,-2.2279],[136.6737,-2.2617],[136.6003,-2.2529],[136.5178,-2.1917],[136.4236,-2.2032],[136.3395,-2.2632],[136.3419,-2.3742],[136.2958,-2.4108],[136.2715,-2.5356],[136.2243,-2.6143],[136.1081,-2.6688],[136.0562,-2.6684],[136.048,-2.7205],[136.0889,-2.7794],[136.1432,-2.7729],[136.1437,-2.7973],[136.2174,-2.8068],[136.2655,-2.8871],[136.28,-2.8711],[136.297,-2.9042],[136.2998,-2.9119],[136.3042,-2.9363],[136.2976,-2.9871],[136.3384,-3.0286],[136.3606,-3.0264],[136.4055,-3.0147],[136.4373,-3.0548],[136.5333,-3.0567],[136.5568,-3.0428],[136.579,-3.0638],[136.5426,-3.1533],[136.5173,-3.1844],[136.5673,-3.254],[136.6656,-3.2251],[136.7106,-3.2259],[136.7275,-3.2384],[136.7149,-3.2245],[136.654,-3.1954],[136.6679,-3.1373],[136.7318,-3.1832],[136.7374,-3.2382],[136.8088,-3.2542],[136.8698,-3.2397],[136.8779,-3.2452],[136.8609,-3.2722],[136.8961,-3.3676],[136.9443,-3.388],[136.9624,-3.3442],[136.9183,-3.3298],[136.8955,-3.2371],[136.9077,-3.1958],[136.9032,-3.1581],[137.0068,-3.1758],[137.0407,-3.2042],[136.9507,-3.2836],[137.0034,-3.3176],[137.0228,-3.3075],[137.0445,-3.2513],[137.0516,-3.2166],[137.107,-3.1379],[137.1808,-3.1226],[137.1968,-3.1213],[137.251,-3.1231],[137.3302,-3.0904],[137.4265,-3.105],[137.4877,-3.0968],[137.5313,-3.0682],[137.5108,-3.0517],[137.4935,-3.0552],[137.4492,-3.0403],[137.42,-3.0142],[137.4173,-2.9983],[137.402,-2.986],[137.3752,-2.9595],[137.3447,-2.8572],[137.2792,-2.8054],[137.2871,-2.7191],[137.2604,-2.6857],[137.2677,-2.6315],[137.2229,-2.5784],[137.158,-2.5866],[137.135,-2.572],[137.1122,-2.5011],[137.0604,-2.4782],[137.0206,-2.4243],[136.9666,-2.4151],[136.9096,-2.3621],[136.9266,-2.3516],[136.9377,-2.3499],[136.9156,-2.3339],[136.9154,-2.3215],[136.8997,-2.3012],[136.8601,-2.2836],[136.8538,-2.2375],[136.8168,-2.2025]]]},"properties":{"code":"91.15","name":"Kabupaten Waropen","latitude":-2.7539459904801205,"longitude":136.75471104290878}},{"type":"Feature","geometry":{"type":"Polygon","coordinates":[[[135.3927,-0.6212],[135.3606,-0.6356],[135.4114,-0.7463],[135.4699,-0.7962],[135.5307,-0.7828],[135.6425,-0.8869],[135.7475,-0.7396],[135.645,-0.6633],[135.5506,-0.6579],[135.5343,-0.6742],[135.3927,-0.6212]]]},"properties":{"code":"91.19","name":"Kabupaten Supiori","latitude":-0.7365836880830829,"longitude":135.56426869365518}},{"type":"Feature","geometry":{"type":"Polygon","coordinates":[[[138.1472,-1.6276],[138.0529,-1.5925],[137.9682,-1.5314],[137.934,-1.4585],[137.7468,-1.4789],[137.591,-1.5584],[137.4811,-1.5969],[137.4016,-1.658],[137.2473,-1.736],[137.0975,-1.7989],[137.0885,-1.8514],[137.1563,-1.9319],[137.2284,-2.0566],[137.1236,-2.1111],[137.0578,-2.0993],[137.0051,-2.1312],[136.9429,-2.1231],[136.9084,-2.1799],[136.8168,-2.2025],[136.8538,-2.2375],[136.8601,-2.2836],[136.8997,-2.3012],[136.9154,-2.3215],[136.9156,-2.3339],[136.9377,-2.3499],[136.9266,-2.3516],[136.9096,-2.3621],[136.9666,-2.4151],[137.0206,-2.4243],[137.0604,-2.4782],[137.1122,-2.5011],[137.135,-2.572],[137.158,-2.5866],[137.2229,-2.5784],[137.2677,-2.6315],[137.2604,-2.6857],[137.2871,-2.7191],[137.2792,-2.8054],[137.3447,-2.8572],[137.3752,-2.9595],[137.402,-2.986],[137.4173,-2.9983],[137.42,-3.0142],[137.4492,-3.0403],[137.4935,-3.0552],[137.5108,-3.0517],[137.5588,-3.0509],[137.5772,-3.0677],[137.6204,-3.0404],[137.6308,-3.0456],[137.6254,-3.0605],[137.6311,-3.0648],[137.7059,-3.0384],[137.7129,-3.0578],[137.7707,-3.0642],[137.8066,-3.0657],[137.9079,-3.0511],[137.9303,-3.0256],[138.0099,-3.022],[138.0258,-3.0156],[138.0637,-2.9966],[138.0871,-3.0297],[138.1498,-3.0027],[138.11,-3.0072],[138.1509,-2.984],[138.1611,-2.971],[138.1761,-2.9967],[138.1768,-3.1101],[138.2357,-3.1524],[138.2318,-3.1683],[138.216,-3.1733],[138.1593,-3.1985],[138.2126,-3.2213],[138.2614,-3.1894],[138.2954,-3.1697],[138.3153,-3.1714],[138.328,-3.1559],[138.3325,-3.1269],[138.4005,-3.0929],[138.4412,-3.0418],[138.5085,-3.0154],[138.5167,-2.936],[138.5692,-2.9602],[138.6114,-3.0122],[138.6143,-3.0556],[138.5832,-3.0955],[138.5955,-3.1501],[138.5863,-3.2585],[138.5684,-3.3168],[138.6268,-3.3088],[138.7031,-3.2008],[138.7494,-3.1752],[138.8016,-3.1898],[138.8062,-3.2238],[138.8776,-3.2255],[138.913,-3.2526],[138.9106,-3.2731],[138.8776,-3.3294],[138.8931,-3.4029],[139.0301,-3.2853],[139.0527,-3.2802],[139.0655,-3.2764],[139.0358,-3.2517],[139.0035,-3.2313],[139.0214,-3.1861],[139.0231,-3.1527],[139.0335,-3.1412],[139.0299,-3.1241],[139.0393,-3.1299],[139.1204,-3.1173],[139.1263,-3.0085],[139.1446,-2.9559],[139.1065,-2.8822],[139.1508,-2.8228],[139.1797,-2.8179],[139.1719,-2.814],[139.1708,-2.7712],[139.211,-2.7538],[139.2331,-2.6913],[139.2333,-2.6301],[139.1957,-2.6294],[139.1293,-2.6527],[139.1168,-2.624],[139.051,-2.5955],[138.9065,-2.5764],[138.8723,-2.5465],[138.7879,-2.5205],[138.7175,-2.5319],[138.5952,-2.4875],[138.5389,-2.5432],[138.4365,-2.5228],[138.4207,-2.4302],[138.3826,-2.3902],[138.4218,-2.3564],[138.437,-2.3381],[138.4465,-2.331],[138.4657,-2.3213],[138.4381,-2.2433],[138.4087,-2.2149],[138.3712,-2.215],[138.2992,-2.1681],[138.3105,-2.0698],[138.2485,-2.0352],[138.2253,-1.9476],[138.2194,-1.9378],[138.1637,-1.9355],[138.1574,-1.9102],[138.155,-1.9083],[138.1629,-1.8994],[138.162,-1.8889],[138.1478,-1.8583],[138.1557,-1.8485],[138.1532,-1.8203],[138.1464,-1.8273],[138.1408,-1.8078],[138.1546,-1.7717],[138.1649,-1.7214],[138.1633,-1.6832],[138.1472,-1.6276]]]},"properties":{"code":"91.20","name":"Kabupaten Mamberamo Raya","latitude":-2.4442941655249477,"longitude":137.96808599941696}},{"type":"Feature","geometry":{"type":"Polygon","coordinates":[[[141.0027,-2.8393],[141.0013,-2.6044],[140.911,-2.6241],[140.809,-2.606],[140.7269,-2.6339],[140.686,-2.6138],[140.7251,-2.5353],[140.7204,-2.491],[140.6527,-2.4763],[140.6033,-2.5158],[140.6255,-2.5668],[140.6334,-2.7225],[140.6642,-2.7513],[140.7004,-2.7557],[140.7281,-2.7633],[140.7583,-2.7542],[140.7993,-2.7259],[140.8506,-2.7485],[140.9041,-2.7646],[141.0027,-2.8393]]]},"properties":{"code":"91.71","name":"Kota Jayapura","latitude":-2.6645260079687545,"longitude":140.80013636538115}}]}