{"type":"FeatureCollection","features":[{"type":"Feature","geometry":{"type":"Polygon","coordinates":[[[134.1852,-1.1977],[134.1042,-1.1314],[134.0691,-1.0284],[134.009,-0.9557],[134.0449,-0.928],[134.0508,-0.8691],[134.1262,-0.8627],[134.0826,-0.8142],[134.0314,-0.7969],[133.9754,-0.7215],[133.9335,-0.7331],[133.8715,-0.7149],[133.8173,-0.7485],[133.7543,-0.7191],[133.7185,-0.7523],[133.6551,-0.736],[133.4858,-0.7406],[133.4371,-0.8058],[133.4469,-0.8766],[133.4572,-0.8764],[133.4809,-1.0099],[133.498,-1.0433],[133.5335,-1.0366],[133.5769,-1.0652],[133.5993,-1.0595],[133.6704,-1.0458],[133.7111,-1.1226],[133.7678,-1.1153],[133.7803,-1.1282],[133.7893,-1.0737],[133.8915,-1.0237],[133.9183,-1.1637],[133.9616,-1.1839],[134.0174,-1.2386],[134.0764,-1.229],[134.1283,-1.2291],[134.1852,-1.1977]]]},"properties":{"code":"92.02","name":"Kabupaten Manokwari"}},{"type":"Feature","geometry":{"type":"Polygon","coordinates":[[[133.0168,-2.5946],[132.9854,-2.5789],[132.8845,-2.6925],[132.8111,-2.7561],[132.733,-2.8032],[132.6676,-2.7693],[132.5868,-2.6923],[132.3936,-2.6866],[132.3223,-2.6596],[132.1911,-2.6538],[132.1703,-2.7058],[132.0361,-2.7689],[132.0418,-2.81],[131.9993,-2.8269],[132.0641,-2.9075],[132.087,-2.9597],[132.1606,-2.9237],[132.2366,-2.9188],[132.3387,-2.9375],[132.3498,-2.9648],[132.4803,-3.035],[132.5622,-3.1098],[132.5821,-3.1637],[132.6334,-3.1769],[132.6399,-3.2666],[132.6623,-3.3156],[132.7118,-3.3387],[132.7278,-3.2793],[132.8083,-3.2606],[132.8261,-3.3336],[132.7996,-3.3598],[132.816,-3.4435],[132.8853,-3.4715],[132.9027,-3.5738],[132.8913,-3.6447],[132.7256,-3.6362],[132.7832,-3.8209],[132.8738,-3.9643],[132.8689,-3.9541],[133.4971,-3.1106],[133.4871,-3.06],[133.3988,-2.9913],[133.3444,-2.9933],[133.2989,-2.9843],[133.2467,-2.9623],[133.2092,-2.9389],[133.1816,-2.913],[133.2237,-2.8495],[133.2132,-2.8019],[133.1366,-2.747],[133.0835,-2.7344],[133.0839,-2.6779],[133.0575,-2.6262],[133.0168,-2.5946]]]},"properties":{"code":"92.03","name":"Kabupaten Fak Fak"}},{"type":"Feature","geometry":{"type":"MultiPolygon","coordinates":[[[[133.7197,-2.5564],[133.6933,-2.6104],[133.7525,-2.6201],[133.7774,-2.587],[133.7197,-2.5564]]],[[[133.4791,-2.5087],[133.4634,-2.6186],[133.5147,-2.5885],[133.4791,-2.5087]]],[[[133.4998,-2.417],[133.5193,-2.4823],[133.5828,-2.5217],[133.5948,-2.4615],[133.4998,-2.417]]],[[[133.8284,-2.4088],[133.7372,-2.4246],[133.7677,-2.4812],[133.809,-2.466],[133.8187,-2.4442],[133.8377,-2.4493],[133.8542,-2.4673],[133.8694,-2.4544],[133.8284,-2.4088]]],[[[133.8631,-2.3851],[133.8386,-2.3954],[133.8991,-2.4764],[133.9554,-2.4648],[133.9412,-2.396],[133.8631,-2.3851]]],[[[133.9342,-2.3274],[133.8706,-2.3716],[133.9486,-2.3946],[133.9655,-2.3863],[133.9881,-2.3889],[133.989,-2.3865],[133.9867,-2.3842],[133.9859,-2.3795],[133.9861,-2.366],[133.9557,-2.3503],[133.9342,-2.3274]]],[[[133.844,-2.2019],[133.7989,-2.2825],[133.8435,-2.2853],[133.844,-2.2019]]],[[[133.8949,-2.1863],[133.8472,-2.2425],[133.8893,-2.265],[133.8949,-2.1863]]],[[[133.2246,-1.2545],[133.1991,-1.2433],[133.15,-1.253],[133.1174,-1.2904],[133.0892,-1.2894],[133.0569,-1.3119],[133.0375,-1.3175],[132.9742,-1.3355],[132.915,-1.2865],[132.9087,-1.3038],[132.8969,-1.3873],[132.8239,-1.5638],[132.7871,-1.573],[132.7643,-1.7326],[132.7382,-1.8581],[132.7332,-1.8771],[132.7243,-1.8774],[132.6891,-1.883],[132.6448,-1.8799],[132.6372,-1.9041],[132.6561,-1.962],[132.6539,-2.0361],[132.6816,-2.0809],[132.6857,-2.0963],[132.6505,-2.0897],[132.6372,-2.1482],[132.6208,-2.1761],[132.6056,-2.1796],[132.5986,-2.1944],[132.6258,-2.2674],[132.6439,-2.2881],[132.7122,-2.2984],[132.7623,-2.2579],[132.8388,-2.2426],[132.9009,-2.2811],[132.9597,-2.2917],[133.0299,-2.2389],[133.1174,-2.2275],[133.1778,-2.1942],[133.2727,-2.1946],[133.325,-2.2191],[133.4037,-2.2076],[133.4249,-2.2297],[133.52,-2.2352],[133.5656,-2.2117],[133.6215,-2.2317],[133.7194,-2.1623],[133.7528,-2.1689],[133.9475,-2.0818],[133.9419,-2.2322],[134.0004,-2.2486],[133.9915,-2.2999],[133.949,-2.3249],[133.9596,-2.3506],[133.972,-2.3506],[133.9897,-2.3648],[133.9864,-2.3664],[133.9864,-2.3817],[133.9891,-2.3862],[133.9886,-2.3893],[133.9839,-2.3914],[133.9489,-2.3956],[133.9561,-2.467],[133.9055,-2.4826],[133.8716,-2.4558],[133.8534,-2.4731],[133.8391,-2.4521],[133.7836,-2.49],[133.8085,-2.5439],[133.8049,-2.6466],[133.69,-2.616],[133.6381,-2.5318],[133.5607,-2.5779],[133.5286,-2.6421],[133.4628,-2.632],[133.3972,-2.6905],[133.3728,-2.6201],[133.3766,-2.5099],[133.2749,-2.4277],[133.2167,-2.4115],[133.127,-2.4368],[133.0423,-2.4961],[132.9845,-2.5781],[133.0168,-2.5946],[133.0575,-2.6262],[133.0839,-2.6779],[133.0835,-2.7344],[133.1366,-2.747],[133.2132,-2.8019],[133.2237,-2.8495],[133.1816,-2.913],[133.2092,-2.9389],[133.2467,-2.9623],[133.2989,-2.9843],[133.3444,-2.9933],[133.3988,-2.9913],[133.4871,-3.06],[133.5709,-3.0405],[133.6046,-2.9729],[133.7152,-2.9111],[133.731,-2.8844],[133.7227,-2.8225],[133.7337,-2.822],[133.7353,-2.8117],[133.7498,-2.8129],[133.7594,-2.8048],[133.7782,-2.8086],[133.8095,-2.8069],[133.868,-2.8099],[133.897,-2.8019],[133.9613,-2.8655],[133.9897,-2.8517],[134.0215,-2.8137],[134.023,-2.8287],[134.0635,-2.9277],[134.121,-2.9567],[134.1684,-3.0194],[134.1919,-3.0128],[134.2038,-3.0777],[134.2561,-3.1184],[134.2731,-3.1147],[134.2833,-3.0654],[134.3349,-3.0113],[134.3598,-2.9529],[134.3081,-2.7977],[134.2742,-2.7451],[134.2459,-2.6079],[134.19,-2.57],[134.1656,-2.5078],[134.1237,-2.484],[134.1007,-2.3924],[134.1047,-2.3092],[134.077,-2.1959],[134.0543,-1.889],[134.0326,-1.854],[134.0084,-1.8384],[133.9952,-1.8416],[133.9393,-1.8491],[133.9175,-1.8527],[133.8767,-1.8389],[133.9078,-1.7968],[133.8852,-1.7523],[133.889,-1.713],[133.8632,-1.6955],[133.7555,-1.6222],[133.732,-1.6329],[133.7088,-1.6212],[133.6625,-1.6135],[133.6971,-1.6185],[133.7126,-1.6113],[133.7225,-1.5887],[133.6969,-1.5516],[133.7002,-1.5342],[133.6814,-1.5317],[133.6928,-1.4835],[133.6976,-1.409],[133.6724,-1.4587],[133.655,-1.4939],[133.5755,-1.513],[133.4872,-1.4989],[133.4631,-1.4702],[133.4624,-1.4258],[133.4686,-1.4143],[133.4749,-1.3783],[133.4738,-1.3349],[133.3767,-1.3094],[133.3601,-1.3095],[133.3236,-1.2883],[133.3237,-1.2791],[133.2246,-1.2545]]]]},"properties":{"code":"92.06","name":"Kabupaten Teluk Bintuni"}},{"type":"Feature","geometry":{"type":"MultiPolygon","coordinates":[[[[134.565,-2.2829],[134.5631,-2.3677],[134.5029,-2.3602],[134.5315,-2.4281],[134.5906,-2.3958],[134.565,-2.2829]]],[[[134.3899,-1.9946],[134.3627,-2.0022],[134.3157,-2.0785],[134.368,-2.141],[134.4125,-2.0421],[134.3899,-1.9946]]],[[[134.6614,-2.7563],[134.6613,-2.6123],[134.6507,-2.5319],[134.6186,-2.4885],[134.533,-2.4492],[134.4608,-2.5494],[134.4747,-2.6413],[134.4974,-2.6601],[134.5143,-2.8334],[134.4591,-2.8631],[134.4467,-2.8102],[134.3491,-2.6239],[134.3392,-2.5512],[134.2135,-2.4189],[134.1355,-2.2371],[134.1019,-2.0519],[134.1428,-1.9933],[134.1214,-1.8627],[134.0992,-1.8332],[134.1019,-1.766],[134.0783,-1.8023],[134.0403,-1.8316],[134.0084,-1.8384],[134.0326,-1.854],[134.0543,-1.889],[134.077,-2.1959],[134.1047,-2.3092],[134.1007,-2.3924],[134.1237,-2.484],[134.1656,-2.5078],[134.19,-2.57],[134.2459,-2.6079],[134.2742,-2.7451],[134.3081,-2.7977],[134.3598,-2.9529],[134.3349,-3.0113],[134.2833,-3.0654],[134.2731,-3.1147],[134.2561,-3.1184],[134.2038,-3.0777],[134.1973,-3.1086],[134.1969,-3.1455],[134.2231,-3.242],[134.2898,-3.3874],[134.3449,-3.4701],[134.3931,-3.4616],[134.502,-3.4991],[134.5511,-3.4792],[134.5979,-3.4322],[134.6146,-3.3896],[134.6025,-3.3216],[134.6548,-3.3144],[134.6939,-3.3082],[134.6937,-3.2912],[134.6822,-3.203],[134.643,-3.1434],[134.6146,-3.1375],[134.6314,-3.0514],[134.6206,-2.9634],[134.5853,-2.8027],[134.6614,-2.7563]]],[[[134.2231,-1.7348],[134.1481,-1.8273],[134.1486,-1.8868],[134.1912,-1.9042],[134.2396,-1.7469],[134.2231,-1.7348]]]]},"properties":{"code":"92.07","name":"Kabupaten Teluk Wondama"}},{"type":"Feature","geometry":{"type":"MultiPolygon","coordinates":[[[[133.3343,-4.0957],[133.3485,-4.169],[133.42,-4.2061],[133.4596,-4.2513],[133.5022,-4.2506],[133.5542,-4.2179],[133.4533,-4.1847],[133.371,-4.1362],[133.3343,-4.0957]]],[[[134.0956,-3.9143],[134.0832,-3.9839],[134.162,-3.9827],[134.0956,-3.9143]]],[[[134.0215,-2.8137],[133.9897,-2.8517],[133.9613,-2.8655],[133.897,-2.8019],[133.868,-2.8099],[133.8095,-2.8069],[133.7782,-2.8086],[133.7592,-2.8048],[133.723,-2.8217],[133.731,-2.8844],[133.7152,-2.9111],[133.6046,-2.9729],[133.5709,-3.0405],[133.5001,-3.0731],[133.4971,-3.1106],[132.8689,-3.9541],[132.8738,-3.9643],[132.8684,-4.0029],[132.9159,-4.0455],[132.9129,-4.0846],[133.0152,-4.1177],[133.0268,-4.0772],[133.07,-4.0547],[133.1513,-4.071],[133.2489,-4.0732],[133.3155,-4.0132],[133.4035,-3.9024],[133.4581,-3.8579],[133.4149,-3.8012],[133.3934,-3.7348],[133.4019,-3.6981],[133.4544,-3.6686],[133.5134,-3.6062],[133.581,-3.5724],[133.5975,-3.5292],[133.5372,-3.4265],[133.5824,-3.4263],[133.6496,-3.3951],[133.6645,-3.3396],[133.6529,-3.3256],[133.6652,-3.3021],[133.6479,-3.2346],[133.6632,-3.2049],[133.6476,-3.1226],[133.7299,-3.0285],[133.7926,-3.0292],[133.8071,-2.9605],[133.8342,-2.9327],[133.8653,-3.014],[133.8347,-3.0193],[133.8271,-3.089],[133.7773,-3.1356],[133.7726,-3.1748],[133.7124,-3.1777],[133.6682,-3.2276],[133.6663,-3.2645],[133.6765,-3.3167],[133.6644,-3.3194],[133.7004,-3.4122],[133.6211,-3.4765],[133.7075,-3.6037],[133.6901,-3.6705],[133.7862,-3.6412],[133.7839,-3.6006],[133.8328,-3.5554],[133.8389,-3.6303],[133.9069,-3.6993],[133.9136,-3.7846],[133.9607,-3.8564],[134.0411,-3.7824],[134.0596,-3.8222],[134.1548,-3.7637],[134.1748,-3.8233],[134.1275,-3.875],[134.1918,-3.957],[134.25,-3.9771],[134.3175,-4.0452],[134.3173,-3.9623],[134.4382,-3.9182],[134.5062,-4.0437],[134.6259,-3.9526],[134.7069,-3.9184],[134.7713,-3.9162],[134.8089,-3.936],[134.9101,-3.941],[134.8462,-3.9856],[134.8338,-3.9507],[134.7685,-3.9341],[134.6623,-3.9817],[134.6679,-4.0308],[134.6292,-4.1179],[134.7136,-4.1524],[134.7333,-4.2066],[134.8147,-4.252],[134.8855,-4.2525],[134.9359,-4.2266],[134.9748,-4.1361],[135.0542,-4.0269],[135.0305,-4.0102],[135.036,-3.99],[135.0455,-3.99],[135.041,-3.9837],[135.0589,-3.9767],[135.058,-3.9692],[135.0911,-3.9684],[135.0872,-3.9406],[135.0271,-3.832],[135.0454,-3.8067],[135.0435,-3.7831],[135.0336,-3.7774],[135.0403,-3.7609],[135.0161,-3.7215],[135.1013,-3.6831],[135.1391,-3.6125],[135.0721,-3.5842],[135.0102,-3.5825],[134.992,-3.5633],[134.9765,-3.5139],[134.9269,-3.4599],[134.8687,-3.4242],[134.8329,-3.3862],[134.7519,-3.3704],[134.7276,-3.3183],[134.6939,-3.3082],[134.6548,-3.3144],[134.6025,-3.3216],[134.6146,-3.3896],[134.5979,-3.4322],[134.5511,-3.4792],[134.502,-3.4991],[134.3931,-3.4616],[134.3449,-3.4701],[134.2898,-3.3874],[134.2231,-3.242],[134.1969,-3.1455],[134.1973,-3.1086],[134.2029,-3.054],[134.1925,-3.0141],[134.1684,-3.0194],[134.121,-2.9567],[134.0635,-2.9277],[134.023,-2.8287],[134.0215,-2.8137]]]]},"properties":{"code":"92.08","name":"Kabupaten Kaimana"}},{"type":"Feature","geometry":{"type":"Polygon","coordinates":[[[134.1019,-1.766],[134.0767,-1.6889],[134.0945,-1.6406],[134.2016,-1.5498],[134.1981,-1.4555],[134.239,-1.3621],[134.2455,-1.3128],[134.1852,-1.1977],[134.1283,-1.2291],[134.0764,-1.229],[134.0365,-1.2565],[134.0494,-1.2573],[134.083,-1.2963],[134.0477,-1.3805],[134.0796,-1.4164],[134.0521,-1.4416],[133.9779,-1.4689],[133.9372,-1.5085],[133.9168,-1.5353],[133.8534,-1.5274],[133.8149,-1.5434],[133.7887,-1.5141],[133.732,-1.5098],[133.7002,-1.5342],[133.7224,-1.5884],[133.7156,-1.592],[133.7164,-1.6083],[133.6971,-1.6185],[133.6625,-1.6135],[133.7318,-1.6329],[133.7555,-1.6222],[133.8632,-1.6955],[133.889,-1.713],[133.8852,-1.7523],[133.9078,-1.7968],[133.8767,-1.8389],[133.9175,-1.8527],[133.9393,-1.8491],[133.9952,-1.8416],[134.0403,-1.8316],[134.0783,-1.8023],[134.1019,-1.766]]]},"properties":{"code":"92.11","name":"Kabupaten Manokwari Selatan"}},{"type":"Feature","geometry":{"type":"Polygon","coordinates":[[[133.4809,-1.0099],[133.4458,-1.0252],[133.4325,-1.0619],[133.4317,-1.1793],[133.3677,-1.2251],[133.2424,-1.1846],[133.23,-1.2382],[133.3237,-1.2791],[133.3236,-1.2883],[133.3601,-1.3095],[133.3767,-1.3094],[133.4738,-1.3349],[133.4749,-1.3783],[133.4686,-1.4143],[133.4606,-1.455],[133.4636,-1.4711],[133.4872,-1.4989],[133.5755,-1.513],[133.655,-1.4939],[133.6724,-1.4587],[133.6976,-1.409],[133.6928,-1.4835],[133.6814,-1.5317],[133.732,-1.5098],[133.7887,-1.5141],[133.8149,-1.5434],[133.8534,-1.5274],[133.9168,-1.5353],[133.9372,-1.5085],[133.9779,-1.4689],[134.0521,-1.4416],[134.0796,-1.4164],[134.0477,-1.3805],[134.083,-1.2963],[134.0494,-1.2573],[134.0365,-1.2565],[134.0174,-1.2386],[133.9616,-1.1839],[133.9183,-1.1637],[133.8915,-1.0237],[133.7893,-1.0737],[133.7803,-1.1282],[133.7678,-1.1153],[133.7111,-1.1226],[133.6704,-1.0458],[133.5993,-1.0595],[133.5769,-1.0652],[133.5335,-1.0366],[133.498,-1.0433],[133.4809,-1.0099]]]},"properties":{"code":"92.12","name":"Kabupaten Pegunungan Arfak"}}]}