{"type":"FeatureCollection","features":[{"type":"Feature","geometry":{"type":"Polygon","coordinates":[[[97.4865,2.9385],[97.48,2.9345],[97.4775,2.928],[97.4775,2.925],[97.4805,2.9255],[97.481,2.925],[97.4875,2.9235],[97.4885,2.9265],[97.4875,2.928],[97.489,2.929],[97.4915,2.9325],[97.494,2.9345],[97.493,2.9355],[97.4915,2.935],[97.4865,2.9385]]]},"properties":{"code":"11.01.01.2001","name":"Keude Bakongan"}},{"type":"Feature","geometry":{"type":"Polygon","coordinates":[[[97.4655,2.9495],[97.4655,2.96],[97.429,2.9855],[97.4255,2.9825],[97.3995,2.9575],[97.3975,2.959],[97.4255,2.9345],[97.446,2.9245],[97.463,2.9235],[97.4665,2.9335],[97.4655,2.9495]]]},"properties":{"code":"11.01.01.2002","name":"Ujong Mangki"}},{"type":"Feature","geometry":{"type":"Polygon","coordinates":[[[97.5085,2.953],[97.504,2.952],[97.5015,2.9535],[97.489,2.9615],[97.4425,2.9985],[97.4415,2.9985],[97.429,2.9855],[97.4655,2.96],[97.472,2.95],[97.4915,2.935],[97.493,2.9355],[97.4945,2.9355],[97.4965,2.9325],[97.51,2.9225],[97.5105,2.933],[97.5025,2.94],[97.5085,2.953]]]},"properties":{"code":"11.01.01.2003","name":"Ujong Padang"}},{"type":"Feature","geometry":{"type":"Polygon","coordinates":[[[97.4565,3.0205],[97.455,3.0205],[97.4445,2.9995],[97.4425,2.9985],[97.489,2.9615],[97.5015,2.9535],[97.504,2.952],[97.5085,2.953],[97.51,2.958],[97.5105,2.961],[97.502,2.9655],[97.5005,2.9705],[97.485,2.9765],[97.487,2.989],[97.4785,2.9935],[97.4735,3.012],[97.4665,3.0175],[97.4585,3.019],[97.457,3.0195],[97.4565,3.0205]]]},"properties":{"code":"11.01.01.2004","name":"Gampong Drien"}},{"type":"Feature","geometry":{"type":"Polygon","coordinates":[[[97.4875,2.9235],[97.481,2.925],[97.4805,2.9255],[97.4775,2.925],[97.476,2.923],[97.476,2.9225],[97.487,2.9205],[97.4885,2.9225],[97.4875,2.9235]]]},"properties":{"code":"11.01.01.2015","name":"Darul Ikhsan"}},{"type":"Feature","geometry":{"type":"Polygon","coordinates":[[[97.4865,2.9385],[97.472,2.95],[97.4655,2.96],[97.4655,2.9495],[97.4665,2.9335],[97.463,2.9235],[97.476,2.9225],[97.476,2.923],[97.4775,2.928],[97.48,2.9345],[97.4865,2.9385]]]},"properties":{"code":"11.01.01.2016","name":"Padang Beurahan"}},{"type":"Feature","geometry":{"type":"Polygon","coordinates":[[[97.51,2.9225],[97.4965,2.9325],[97.494,2.9345],[97.4915,2.9325],[97.489,2.929],[97.4875,2.928],[97.4885,2.9265],[97.4885,2.9225],[97.487,2.9205],[97.5025,2.91],[97.51,2.9225]]]},"properties":{"code":"11.01.01.2017","name":"Gampong Baro"}},{"type":"Feature","geometry":{"type":"Polygon","coordinates":[[[97.328,3.1385],[97.3215,3.139],[97.32,3.1365],[97.318,3.1365],[97.3085,3.131],[97.305,3.1295],[97.3125,3.1175],[97.3225,3.1195],[97.328,3.1385]]]},"properties":{"code":"11.01.02.2001","name":"Fajar Harapan"}},{"type":"Feature","geometry":{"type":"Polygon","coordinates":[[[97.325,3.112],[97.323,3.116],[97.3225,3.1195],[97.3125,3.1175],[97.315,3.1105],[97.3145,3.1095],[97.3145,3.109],[97.3125,3.1065],[97.312,3.1],[97.314,3.0975],[97.315,3.0975],[97.3155,3.098],[97.316,3.0995],[97.316,3.1],[97.315,3.102],[97.315,3.103],[97.316,3.104],[97.3175,3.1035],[97.3185,3.104],[97.319,3.1055],[97.3225,3.1075],[97.3235,3.108],[97.325,3.1115],[97.325,3.112]]]},"properties":{"code":"11.01.02.2002","name":"Krueng Batee"}},{"type":"Feature","geometry":{"type":"Polygon","coordinates":[[[97.305,3.1295],[97.2995,3.1375],[97.2975,3.142],[97.289,3.14],[97.303,3.1],[97.312,3.1],[97.3125,3.1065],[97.3145,3.109],[97.3145,3.1095],[97.315,3.1105],[97.3125,3.1175],[97.305,3.1295]]]},"properties":{"code":"11.01.02.2003","name":"Pasi Kuala Asahan"}},{"type":"Feature","geometry":{"type":"Polygon","coordinates":[[[97.363,3.141],[97.359,3.151],[97.3505,3.1525],[97.346,3.1645],[97.336,3.1585],[97.338,3.144],[97.328,3.1385],[97.3225,3.1195],[97.323,3.116],[97.325,3.112],[97.325,3.1125],[97.3345,3.113],[97.336,3.113],[97.3365,3.1135],[97.3435,3.116],[97.3455,3.1305],[97.3545,3.1315],[97.3565,3.135],[97.3585,3.1395],[97.359,3.14],[97.362,3.141],[97.363,3.141]]]},"properties":{"code":"11.01.02.2004","name":"Gunong Pulo"}},{"type":"Feature","geometry":{"type":"Polygon","coordinates":[[[97.341,3.096],[97.3435,3.102],[97.338,3.113],[97.3355,3.113],[97.3345,3.113],[97.325,3.1125],[97.325,3.1115],[97.3235,3.108],[97.3225,3.1075],[97.319,3.1055],[97.3185,3.104],[97.3175,3.1035],[97.316,3.104],[97.315,3.103],[97.315,3.102],[97.316,3.1025],[97.341,3.096]]]},"properties":{"code":"11.01.02.2005","name":"Pulo Ie I"}},{"type":"Feature","geometry":{"type":"Polygon","coordinates":[[[97.341,3.096],[97.316,3.1025],[97.316,3.1],[97.316,3.0995],[97.3155,3.0975],[97.3145,3.0965],[97.315,3.093],[97.3165,3.0915],[97.317,3.0895],[97.3205,3.0895],[97.321,3.0895],[97.3285,3.09],[97.339,3.0925],[97.3405,3.095],[97.341,3.096]]]},"properties":{"code":"11.01.02.2006","name":"Jambo Manyang"}},{"type":"Feature","geometry":{"type":"Polygon","coordinates":[[[97.337,3.086],[97.335,3.0915],[97.3285,3.09],[97.3245,3.0895],[97.325,3.0885],[97.3255,3.087],[97.3255,3.083],[97.327,3.0845],[97.3335,3.0815],[97.3335,3.079],[97.336,3.0795],[97.338,3.0825],[97.337,3.086]]]},"properties":{"code":"11.01.02.2007","name":"Simpang Empat"}},{"type":"Feature","geometry":{"type":"Polygon","coordinates":[[[97.357,3.093],[97.353,3.0975],[97.3515,3.0965],[97.35,3.095],[97.344,3.0915],[97.345,3.09],[97.337,3.086],[97.338,3.0825],[97.338,3.081],[97.343,3.078],[97.347,3.0845],[97.3505,3.086],[97.3555,3.088],[97.356,3.092],[97.357,3.093]]]},"properties":{"code":"11.01.02.2008","name":"Limau Purut"}},{"type":"Feature","geometry":{"type":"Polygon","coordinates":[[[97.368,3.099],[97.3585,3.11],[97.3505,3.1005],[97.354,3.0965],[97.357,3.093],[97.3575,3.095],[97.3615,3.095],[97.367,3.0965],[97.368,3.099]]]},"properties":{"code":"11.01.02.2009","name":"Pulo Kambing"}},{"type":"Feature","geometry":{"type":"Polygon","coordinates":[[[97.38,3.11],[97.3695,3.1125],[97.358,3.1255],[97.357,3.1265],[97.356,3.125],[97.356,3.1245],[97.3555,3.1205],[97.3585,3.11],[97.368,3.099],[97.3685,3.1],[97.37,3.1045],[97.3795,3.1095],[97.38,3.11]]]},"properties":{"code":"11.01.02.2010","name":"Kampung Paya"}},{"type":"Feature","geometry":{"type":"Polygon","coordinates":[[[97.3545,3.1315],[97.3455,3.1305],[97.3435,3.116],[97.3365,3.1135],[97.336,3.113],[97.338,3.113],[97.3435,3.102],[97.3405,3.095],[97.3415,3.0945],[97.3505,3.1005],[97.3585,3.11],[97.3555,3.1205],[97.356,3.1245],[97.356,3.125],[97.357,3.1265],[97.355,3.1275],[97.3545,3.1315]]]},"properties":{"code":"11.01.02.2011","name":"Krueng Batu"}},{"type":"Feature","geometry":{"type":"Polygon","coordinates":[[[97.388,3.1165],[97.368,3.1275],[97.361,3.135],[97.3585,3.1395],[97.3565,3.135],[97.3545,3.1315],[97.355,3.1275],[97.357,3.1265],[97.3575,3.126],[97.358,3.1255],[97.3695,3.1125],[97.38,3.11],[97.386,3.114],[97.387,3.1145],[97.388,3.1165]]]},"properties":{"code":"11.01.02.2012","name":"Krueng Kluet"}},{"type":"Feature","geometry":{"type":"Polygon","coordinates":[[[97.3875,3.165],[97.366,3.1725],[97.36,3.1655],[97.346,3.1645],[97.3505,3.1525],[97.359,3.151],[97.363,3.141],[97.365,3.1415],[97.3685,3.1395],[97.375,3.1385],[97.376,3.142],[97.378,3.157],[97.3795,3.1605],[97.386,3.1645],[97.3875,3.165]]]},"properties":{"code":"11.01.02.2013","name":"Alur Mas"}},{"type":"Feature","geometry":{"type":"Polygon","coordinates":[[[97.3685,3.1395],[97.365,3.1415],[97.362,3.141],[97.359,3.14],[97.3585,3.1395],[97.361,3.135],[97.368,3.1275],[97.388,3.1165],[97.392,3.1195],[97.393,3.121],[97.3945,3.1265],[97.3785,3.1265],[97.3685,3.1395]]]},"properties":{"code":"11.01.02.2014","name":"Kampung Tinggi"}},{"type":"Feature","geometry":{"type":"Polygon","coordinates":[[[97.398,3.137],[97.376,3.142],[97.375,3.1385],[97.3685,3.1395],[97.3785,3.1265],[97.3945,3.1265],[97.398,3.137]]]},"properties":{"code":"11.01.02.2015","name":"Ruak"}},{"type":"Feature","geometry":{"type":"Polygon","coordinates":[[[97.3255,3.083],[97.3255,3.087],[97.325,3.0885],[97.3245,3.0895],[97.3205,3.0895],[97.3205,3.0855],[97.3205,3.0835],[97.3175,3.082],[97.3165,3.0785],[97.325,3.0795],[97.325,3.082],[97.3255,3.083]]]},"properties":{"code":"11.01.02.2016","name":"Simpang Lhee"}},{"type":"Feature","geometry":{"type":"Polygon","coordinates":[[[97.3165,3.0795],[97.3175,3.082],[97.3205,3.0835],[97.3205,3.0855],[97.3205,3.0895],[97.3165,3.0895],[97.3145,3.089],[97.3165,3.0795]]]},"properties":{"code":"11.01.02.2017","name":"Suaq Geuringgeng"}},{"type":"Feature","geometry":{"type":"Polygon","coordinates":[[[97.3155,3.098],[97.315,3.0975],[97.314,3.0975],[97.312,3.1],[97.303,3.1],[97.3085,3.081],[97.3165,3.0795],[97.3145,3.089],[97.317,3.0895],[97.3165,3.0915],[97.315,3.093],[97.3145,3.0965],[97.3155,3.0975],[97.3155,3.098]]]},"properties":{"code":"11.01.02.2018","name":"Pasi Kuala Ba'U"}},{"type":"Feature","geometry":{"type":"Polygon","coordinates":[[[97.3165,3.0795],[97.3085,3.081],[97.3115,3.07],[97.319,3.0705],[97.319,3.0715],[97.3225,3.0735],[97.325,3.074],[97.3255,3.079],[97.325,3.0795],[97.3165,3.0785],[97.3165,3.0795]]]},"properties":{"code":"11.01.02.2019","name":"Kedai Padang"}},{"type":"Feature","geometry":{"type":"Polygon","coordinates":[[[97.353,3.0975],[97.3505,3.1005],[97.3415,3.0945],[97.3405,3.095],[97.339,3.0925],[97.335,3.0915],[97.337,3.086],[97.345,3.09],[97.344,3.0915],[97.35,3.095],[97.3515,3.0965],[97.353,3.0975]]]},"properties":{"code":"11.01.02.2020","name":"Kotafajar"}},{"type":"Feature","geometry":{"type":"Polygon","coordinates":[[[97.3865,3.1645],[97.386,3.1645],[97.3795,3.1605],[97.378,3.157],[97.376,3.142],[97.398,3.137],[97.398,3.1375],[97.3955,3.144],[97.387,3.161],[97.3865,3.1645]]]},"properties":{"code":"11.01.02.2021","name":"Gunung Pudung"}},{"type":"Feature","geometry":{"type":"Polygon","coordinates":[[[97.326,3.0565],[97.325,3.0585],[97.3235,3.0605],[97.3165,3.054],[97.325,3.0445],[97.333,3.0495],[97.326,3.0565]]]},"properties":{"code":"11.01.03.2001","name":"Suaq Bakung"}},{"type":"Feature","geometry":{"type":"MultiPolygon","coordinates":[[[[97.364,3.0595],[97.364,3.06],[97.363,3.0615],[97.361,3.063],[97.358,3.0595],[97.3585,3.058],[97.359,3.0585],[97.3595,3.058],[97.3605,3.0585],[97.3625,3.0595],[97.364,3.0595]]],[[[97.319,3.0705],[97.3115,3.07],[97.3165,3.054],[97.3235,3.0605],[97.3235,3.062],[97.321,3.066],[97.3195,3.069],[97.319,3.0705]]]]},"properties":{"code":"11.01.03.2002","name":"Rantau Binuang"}},{"type":"Feature","geometry":{"type":"Polygon","coordinates":[[[97.333,3.059],[97.328,3.0565],[97.326,3.0565],[97.333,3.0495],[97.339,3.0535],[97.339,3.0545],[97.333,3.059]]]},"properties":{"code":"11.01.03.2003","name":"Barat Daya"}},{"type":"Feature","geometry":{"type":"Polygon","coordinates":[[[97.334,3.06],[97.332,3.064],[97.3305,3.0625],[97.328,3.0615],[97.3245,3.062],[97.3235,3.062],[97.3235,3.0605],[97.325,3.0585],[97.328,3.0565],[97.333,3.059],[97.334,3.06]]]},"properties":{"code":"11.01.03.2004","name":"Sialang"}},{"type":"Feature","geometry":{"type":"Polygon","coordinates":[[[97.339,3.064],[97.3325,3.0665],[97.332,3.064],[97.334,3.06],[97.34,3.0635],[97.339,3.064]]]},"properties":{"code":"11.01.03.2005","name":"Kapeh"}},{"type":"Feature","geometry":{"type":"Polygon","coordinates":[[[97.3315,3.0725],[97.3305,3.0725],[97.3305,3.0715],[97.3315,3.0705],[97.3325,3.0665],[97.339,3.064],[97.3385,3.066],[97.3395,3.067],[97.3425,3.071],[97.3415,3.07],[97.34,3.0695],[97.3375,3.0695],[97.3315,3.0725]]]},"properties":{"code":"11.01.03.2006","name":"Pulo Ie"}},{"type":"Feature","geometry":{"type":"Polygon","coordinates":[[[97.3505,3.086],[97.347,3.0845],[97.343,3.0735],[97.3425,3.071],[97.3395,3.067],[97.3385,3.066],[97.34,3.0635],[97.334,3.06],[97.333,3.059],[97.339,3.0545],[97.341,3.054],[97.341,3.055],[97.3435,3.055],[97.3495,3.056],[97.3535,3.055],[97.3585,3.058],[97.358,3.0595],[97.361,3.063],[97.363,3.0615],[97.364,3.06],[97.364,3.0595],[97.3645,3.0595],[97.3665,3.0595],[97.3655,3.061],[97.3655,3.062],[97.365,3.0625],[97.3625,3.0655],[97.357,3.07],[97.3505,3.086]]]},"properties":{"code":"11.01.03.2007","name":"Kedai Runding"}},{"type":"Feature","geometry":{"type":"Polygon","coordinates":[[[97.324,3.068],[97.3205,3.0675],[97.321,3.066],[97.3235,3.062],[97.3245,3.062],[97.3265,3.062],[97.326,3.065],[97.3245,3.0655],[97.324,3.067],[97.324,3.068]]]},"properties":{"code":"11.01.03.2008","name":"Kedai Kandang"}},{"type":"Feature","geometry":{"type":"Polygon","coordinates":[[[97.3275,3.0655],[97.3275,3.068],[97.324,3.068],[97.324,3.067],[97.3245,3.0655],[97.326,3.065],[97.3265,3.062],[97.3305,3.0625],[97.3275,3.0655]]]},"properties":{"code":"11.01.03.2009","name":"Gampong Luar"}},{"type":"Feature","geometry":{"type":"Polygon","coordinates":[[[97.3325,3.0665],[97.3315,3.0705],[97.3275,3.0655],[97.3305,3.0625],[97.332,3.064],[97.3325,3.0665]]]},"properties":{"code":"11.01.03.2010","name":"Ujung"}},{"type":"Feature","geometry":{"type":"Polygon","coordinates":[[[97.3305,3.0725],[97.3275,3.0725],[97.3275,3.071],[97.3275,3.0685],[97.3275,3.068],[97.3275,3.0655],[97.3315,3.0705],[97.3305,3.0715],[97.3305,3.0725]]]},"properties":{"code":"11.01.03.2011","name":"Jua"}},{"type":"Feature","geometry":{"type":"Polygon","coordinates":[[[97.3235,3.0735],[97.3225,3.0735],[97.319,3.0715],[97.3195,3.069],[97.3205,3.0675],[97.3275,3.068],[97.3275,3.0685],[97.3275,3.071],[97.3275,3.0725],[97.3285,3.0725],[97.3235,3.0735]]]},"properties":{"code":"11.01.03.2012","name":"Pasi Meurapat"}},{"type":"Feature","geometry":{"type":"Polygon","coordinates":[[[97.3335,3.08],[97.3335,3.0815],[97.327,3.0845],[97.3255,3.083],[97.325,3.082],[97.3255,3.079],[97.325,3.074],[97.3235,3.0735],[97.3285,3.0725],[97.3305,3.0725],[97.3315,3.0725],[97.3315,3.08],[97.3335,3.08]]]},"properties":{"code":"11.01.03.2013","name":"Ujung Pasir"}},{"type":"Feature","geometry":{"type":"Polygon","coordinates":[[[97.343,3.078],[97.338,3.081],[97.336,3.0795],[97.3335,3.079],[97.3335,3.08],[97.3315,3.08],[97.3315,3.0725],[97.3375,3.0695],[97.34,3.0695],[97.3415,3.07],[97.343,3.0735],[97.343,3.078]]]},"properties":{"code":"11.01.03.2014","name":"Geulumbuk"}},{"type":"Feature","geometry":{"type":"Polygon","coordinates":[[[97.5555,3.096],[97.555,3.095],[97.5545,3.093],[97.55,3.09],[97.532,3.0845],[97.529,3.085],[97.5255,3.086],[97.523,3.088],[97.5215,3.088],[97.519,3.0895],[97.5175,3.0915],[97.506,3.098],[97.499,3.0925],[97.495,3.0935],[97.479,3.094],[97.4775,3.0935],[97.474,3.0975],[97.4715,3.098],[97.47,3.0995],[97.466,3.1005],[97.4645,3.1015],[97.4645,3.101],[97.461,3.1015],[97.4595,3.1015],[97.458,3.1],[97.457,3.101],[97.456,3.101],[97.456,3.1],[97.455,3.1],[97.454,3.101],[97.454,3.099],[97.4485,3.0885],[97.446,3.0865],[97.4385,3.0845],[97.436,3.083],[97.43,3.0765],[97.416,3.077],[97.413,3.077],[97.391,3.074],[97.3875,3.0635],[97.3835,3.061],[97.362,3.042],[97.358,3.042],[97.3545,3.041],[97.3535,3.0365],[97.3505,3.0295],[97.345,3.026],[97.343,3.024],[97.3645,2.996],[97.3975,2.959],[97.3995,2.9575],[97.4255,2.9825],[97.4415,2.9985],[97.4425,2.9985],[97.4445,2.9995],[97.455,3.0205],[97.4585,3.02],[97.465,3.0225],[97.4675,3.0225],[97.4795,3.0235],[97.48,3.0295],[97.484,3.03],[97.4885,3.032],[97.492,3.034],[97.515,3.0365],[97.518,3.0525],[97.518,3.053],[97.519,3.0575],[97.525,3.061],[97.5285,3.062],[97.538,3.068],[97.5445,3.072],[97.5475,3.071],[97.55,3.07],[97.555,3.07],[97.5565,3.0705],[97.56,3.074],[97.565,3.0755],[97.576,3.082],[97.57,3.0915],[97.5645,3.091],[97.557,3.094],[97.556,3.095],[97.5555,3.096]]]},"properties":{"code":"11.01.03.2015","name":"Pasie Lembang"}},{"type":"Feature","geometry":{"type":"Polygon","coordinates":[[[97.354,3.039],[97.3325,3.039],[97.343,3.024],[97.345,3.026],[97.3505,3.0295],[97.3535,3.0365],[97.354,3.039]]]},"properties":{"code":"11.01.03.2016","name":"Ujung Padang"}},{"type":"Feature","geometry":{"type":"Polygon","coordinates":[[[97.3835,3.061],[97.3855,3.0645],[97.3725,3.066],[97.3675,3.0605],[97.367,3.0595],[97.3665,3.059],[97.3655,3.059],[97.3645,3.059],[97.3645,3.0595],[97.3635,3.0595],[97.3625,3.0595],[97.3605,3.0585],[97.3595,3.058],[97.359,3.0585],[97.3585,3.058],[97.3535,3.055],[97.3495,3.056],[97.3435,3.055],[97.341,3.055],[97.341,3.054],[97.339,3.0535],[97.333,3.0495],[97.325,3.0445],[97.3325,3.039],[97.354,3.039],[97.3545,3.041],[97.358,3.042],[97.362,3.042],[97.3835,3.061]]]},"properties":{"code":"11.01.03.2017","name":"Indra Damai"}},{"type":"Feature","geometry":{"type":"Polygon","coordinates":[[[97.0215,3.56],[97.0195,3.5615],[97.006,3.5455],[97.0085,3.544],[97.0155,3.5385],[97.017,3.5425],[97.0215,3.56]]]},"properties":{"code":"11.01.04.2001","name":"Bakau Hulu"}},{"type":"Feature","geometry":{"type":"Polygon","coordinates":[[[97.0065,3.5455],[97.006,3.545],[97.0045,3.545],[97.004,3.5455],[97.002,3.548],[97.001,3.5495],[97,3.5485],[97.005,3.5335],[97.008,3.5315],[97.0095,3.531],[97.0115,3.5335],[97.0155,3.535],[97.0155,3.5375],[97.0155,3.5385],[97.0085,3.544],[97.0065,3.5455]]]},"properties":{"code":"11.01.04.2002","name":"Padang Bakau"}},{"type":"Feature","geometry":{"type":"Polygon","coordinates":[[[97.0195,3.5615],[97.016,3.564],[97.014,3.565],[97.0115,3.5655],[97.011,3.564],[97.008,3.5585],[97,3.5505],[97.001,3.5495],[97.002,3.548],[97.004,3.5455],[97.0045,3.545],[97.006,3.545],[97.0065,3.5455],[97.006,3.5455],[97.0195,3.5615]]]},"properties":{"code":"11.01.04.2003","name":"Manggis Harapan"}},{"type":"Feature","geometry":{"type":"Polygon","coordinates":[[[97,3.5505],[96.9985,3.5525],[96.998,3.5515],[96.997,3.551],[96.9965,3.55],[96.995,3.55],[97,3.5485],[97.001,3.5495],[97,3.5505]]]},"properties":{"code":"11.01.04.2004","name":"Pasar Lama"}},{"type":"Feature","geometry":{"type":"Polygon","coordinates":[[[96.9985,3.5525],[96.996,3.5555],[96.9945,3.556],[96.993,3.552],[96.995,3.55],[96.9965,3.55],[96.997,3.551],[96.998,3.5515],[96.9985,3.5525]]]},"properties":{"code":"11.01.04.2005","name":"Apha"}},{"type":"Feature","geometry":{"type":"Polygon","coordinates":[[[97.0115,3.5655],[97.0105,3.5655],[96.999,3.566],[96.998,3.566],[96.9975,3.5635],[96.9975,3.5605],[96.9955,3.559],[96.9945,3.556],[96.996,3.5555],[97,3.5505],[97.008,3.5585],[97.011,3.564],[97.0115,3.5655]]]},"properties":{"code":"11.01.04.2006","name":"Ujung Batu"}},{"type":"Feature","geometry":{"type":"Polygon","coordinates":[[[96.99,3.5605],[96.9895,3.561],[96.9875,3.5575],[96.9855,3.5565],[96.993,3.552],[96.9945,3.556],[96.99,3.5605]]]},"properties":{"code":"11.01.04.2007","name":"Pawoh"}},{"type":"Feature","geometry":{"type":"Polygon","coordinates":[[[96.995,3.558],[96.993,3.559],[96.991,3.5615],[96.99,3.5605],[96.9945,3.556],[96.995,3.558]]]},"properties":{"code":"11.01.04.2008","name":"Dalam"}},{"type":"Feature","geometry":{"type":"Polygon","coordinates":[[[96.9955,3.5595],[96.9915,3.562],[96.991,3.5615],[96.993,3.559],[96.995,3.558],[96.9955,3.559],[96.9955,3.5595]]]},"properties":{"code":"11.01.04.2009","name":"Kota Palak"}},{"type":"Feature","geometry":{"type":"Polygon","coordinates":[[[96.9975,3.5635],[96.9925,3.5635],[96.9915,3.562],[96.9955,3.5595],[96.9975,3.5605],[96.9975,3.5635]]]},"properties":{"code":"11.01.04.2010","name":"Cacang"}},{"type":"Feature","geometry":{"type":"Polygon","coordinates":[[[96.995,3.565],[96.994,3.565],[96.9925,3.5635],[96.9975,3.5635],[96.995,3.565]]]},"properties":{"code":"11.01.04.2011","name":"Tengah Pisang"}},{"type":"Feature","geometry":{"type":"Polygon","coordinates":[[[97.165,3.7335],[97.157,3.74],[97.1545,3.7415],[97.145,3.731],[97.1435,3.729],[97.1415,3.7255],[97.141,3.721],[97.1385,3.6885],[97.133,3.68],[97.133,3.6645],[97.124,3.655],[97.107,3.6465],[97.099,3.629],[97.075,3.6205],[97.067,3.604],[97.0415,3.5825],[97.035,3.591],[97.0245,3.59],[97.001,3.573],[96.995,3.565],[96.9975,3.5635],[96.998,3.566],[96.999,3.566],[97.0105,3.5655],[97.014,3.565],[97.016,3.564],[97.0215,3.56],[97.0315,3.559],[97.046,3.57],[97.083,3.584],[97.102,3.6025],[97.105,3.612],[97.1195,3.6135],[97.116,3.6275],[97.1245,3.641],[97.1375,3.6555],[97.1405,3.656],[97.1415,3.659],[97.1375,3.664],[97.1445,3.676],[97.142,3.686],[97.1425,3.689],[97.1505,3.7135],[97.1525,3.7235],[97.155,3.726],[97.1565,3.727],[97.157,3.7275],[97.157,3.7295],[97.157,3.73],[97.165,3.7335]]]},"properties":{"code":"11.01.04.2012","name":"Pisang"}},{"type":"Feature","geometry":{"type":"Polygon","coordinates":[[[97.0245,3.59],[97.0155,3.5915],[97.0105,3.5905],[97.008,3.5875],[96.9945,3.5745],[96.989,3.5685],[96.9875,3.5635],[96.99,3.5605],[96.994,3.565],[96.995,3.565],[97.001,3.573],[97.0245,3.59]]]},"properties":{"code":"11.01.04.2013","name":"Hulu Pisang"}},{"type":"Feature","geometry":{"type":"Polygon","coordinates":[[[96.9895,3.561],[96.9875,3.5635],[96.989,3.5685],[96.9945,3.5745],[97.008,3.5875],[97.0105,3.5905],[97.005,3.59],[97.003,3.5895],[97.002,3.588],[96.991,3.579],[96.9825,3.565],[96.9815,3.563],[96.984,3.5615],[96.9875,3.5575],[96.9895,3.561]]]},"properties":{"code":"11.01.04.2014","name":"Tengah Baru"}},{"type":"Feature","geometry":{"type":"Polygon","coordinates":[[[96.9875,3.5575],[96.984,3.5615],[96.98,3.561],[96.9785,3.561],[96.9775,3.56],[96.9855,3.5565],[96.9875,3.5575]]]},"properties":{"code":"11.01.04.2015","name":"Lembah Baru"}},{"type":"Feature","geometry":{"type":"Polygon","coordinates":[[[96.984,3.5615],[96.9815,3.563],[96.9815,3.5625],[96.9805,3.562],[96.98,3.561],[96.984,3.5615]]]},"properties":{"code":"11.01.04.2016","name":"Padang Baru"}},{"type":"Feature","geometry":{"type":"Polygon","coordinates":[[[97.059,3.47],[97.056,3.4765],[97.0545,3.474],[97.053,3.4735],[97.051,3.4715],[97.057,3.469],[97.059,3.47]]]},"properties":{"code":"11.01.05.2001","name":"Kuta Buloh Ii"}},{"type":"Feature","geometry":{"type":"Polygon","coordinates":[[[97.066,3.474],[97.0655,3.4745],[97.064,3.475],[97.061,3.4775],[97.061,3.4785],[97.0595,3.4795],[97.058,3.4795],[97.056,3.4765],[97.059,3.47],[97.0615,3.471],[97.066,3.474]]]},"properties":{"code":"11.01.05.2002","name":"Kuta Buloh I"}},{"type":"Feature","geometry":{"type":"Polygon","coordinates":[[[97.071,3.4885],[97.069,3.4885],[97.0645,3.4825],[97.061,3.4785],[97.061,3.4775],[97.064,3.475],[97.0655,3.4745],[97.0675,3.473],[97.0685,3.472],[97.069,3.47],[97.07,3.4695],[97.072,3.471],[97.0795,3.472],[97.085,3.477],[97.083,3.4815],[97.08,3.4835],[97.071,3.4885]]]},"properties":{"code":"11.01.05.2003","name":"Ie Dingen"}},{"type":"Feature","geometry":{"type":"Polygon","coordinates":[[[97.078,3.4955],[97.076,3.4975],[97.0725,3.496],[97.071,3.4885],[97.08,3.4835],[97.083,3.4815],[97.085,3.477],[97.09,3.474],[97.0935,3.4815],[97.078,3.4955]]]},"properties":{"code":"11.01.05.2004","name":"Drien Jalo"}},{"type":"Feature","geometry":{"type":"Polygon","coordinates":[[[97.2065,3.6915],[97.1915,3.709],[97.165,3.7335],[97.157,3.73],[97.157,3.729],[97.157,3.727],[97.156,3.724],[97.156,3.722],[97.1535,3.717],[97.152,3.702],[97.1565,3.691],[97.15,3.6835],[97.153,3.6645],[97.15,3.6485],[97.1595,3.643],[97.1565,3.616],[97.1605,3.5975],[97.1075,3.5845],[97.104,3.5765],[97.1035,3.5635],[97.109,3.537],[97.0955,3.5315],[97.0915,3.511],[97.084,3.4995],[97.081,3.497],[97.0785,3.496],[97.078,3.4955],[97.0935,3.4815],[97.09,3.474],[97.0915,3.473],[97.093,3.472],[97.0945,3.4695],[97.095,3.457],[97.0925,3.4535],[97.093,3.446],[97.105,3.449],[97.107,3.4495],[97.1095,3.4555],[97.1125,3.4565],[97.1135,3.4555],[97.128,3.449],[97.131,3.457],[97.149,3.463],[97.1545,3.474],[97.1665,3.477],[97.174,3.4725],[97.1735,3.474],[97.1735,3.4745],[97.1745,3.474],[97.1785,3.4725],[97.1935,3.476],[97.204,3.488],[97.228,3.4945],[97.227,3.5045],[97.241,3.5145],[97.2505,3.5205],[97.2635,3.5185],[97.2805,3.5335],[97.28,3.5545],[97.2845,3.5585],[97.283,3.5685],[97.2815,3.577],[97.2945,3.5845],[97.295,3.592],[97.2955,3.603],[97.294,3.6135],[97.2865,3.633],[97.2845,3.6415],[97.284,3.6425],[97.281,3.647],[97.275,3.649],[97.2635,3.651],[97.2255,3.675],[97.2065,3.6915]]]},"properties":{"code":"11.01.05.2005","name":"Jambo Papeun"}},{"type":"Feature","geometry":{"type":"Polygon","coordinates":[[[97.1035,3.5635],[97.0875,3.569],[97.0815,3.565],[97.074,3.565],[97.07,3.554],[97.0715,3.5325],[97.0625,3.5245],[97.0735,3.4965],[97.076,3.4975],[97.078,3.4955],[97.0785,3.496],[97.081,3.497],[97.084,3.4995],[97.0915,3.511],[97.0955,3.5315],[97.109,3.537],[97.1035,3.5635]]]},"properties":{"code":"11.01.05.2006","name":"Buket Meuh"}},{"type":"Feature","geometry":{"type":"Polygon","coordinates":[[[97.058,3.4795],[97.057,3.482],[97.0535,3.4865],[97.048,3.491],[97.0465,3.491],[97.045,3.491],[97.0375,3.4865],[97.0485,3.4695],[97.0505,3.471],[97.053,3.4735],[97.0545,3.474],[97.058,3.4795]]]},"properties":{"code":"11.01.05.2007","name":"Blang Kuala"}},{"type":"Feature","geometry":{"type":"Polygon","coordinates":[[[97.069,3.4885],[97.063,3.494],[97.0625,3.495],[97.054,3.4925],[97.0515,3.4935],[97.0495,3.4925],[97.048,3.492],[97.047,3.491],[97.048,3.491],[97.0535,3.4865],[97.057,3.482],[97.058,3.4795],[97.0595,3.4795],[97.0645,3.4825],[97.069,3.4885]]]},"properties":{"code":"11.01.05.2008","name":"Rot Teungoh"}},{"type":"Feature","geometry":{"type":"Polygon","coordinates":[[[97.0735,3.4965],[97.0625,3.5245],[97.0595,3.512],[97.0565,3.5065],[97.0565,3.506],[97.057,3.505],[97.0595,3.5],[97.061,3.497],[97.062,3.4965],[97.063,3.494],[97.069,3.4885],[97.071,3.4885],[97.0725,3.496],[97.0735,3.4965]]]},"properties":{"code":"11.01.05.2009","name":"Alue Baro"}},{"type":"Feature","geometry":{"type":"Polygon","coordinates":[[[97.0625,3.495],[97.062,3.4965],[97.061,3.497],[97.0595,3.5],[97.057,3.505],[97.0565,3.506],[97.0565,3.5065],[97.0555,3.505],[97.054,3.5015],[97.0405,3.498],[97.036,3.487],[97.0375,3.4865],[97.045,3.491],[97.047,3.491],[97.048,3.492],[97.0495,3.4925],[97.0515,3.4935],[97.054,3.4925],[97.0625,3.495]]]},"properties":{"code":"11.01.05.2010","name":"Ladang Tuha"}},{"type":"Feature","geometry":{"type":"Polygon","coordinates":[[[97.054,3.5015],[97.043,3.506],[97.039,3.504],[97.039,3.5],[97.0355,3.502],[97.032,3.495],[97.0325,3.4925],[97.036,3.487],[97.0405,3.498],[97.054,3.5015]]]},"properties":{"code":"11.01.05.2011","name":"Lhok Mamplam"}},{"type":"Feature","geometry":{"type":"Polygon","coordinates":[[[97.056,3.469],[97.051,3.4715],[97.0505,3.471],[97.0485,3.4695],[97.0525,3.462],[97.056,3.4625],[97.0565,3.4625],[97.0565,3.4635],[97.056,3.469]]]},"properties":{"code":"11.01.05.2012","name":"Arun Tunggai"}},{"type":"Feature","geometry":{"type":"Polygon","coordinates":[[[97.09,3.474],[97.085,3.477],[97.0795,3.472],[97.072,3.471],[97.07,3.4695],[97.0685,3.472],[97.0665,3.4695],[97.0645,3.467],[97.0635,3.4645],[97.066,3.4645],[97.085,3.467],[97.0885,3.4705],[97.0905,3.471],[97.092,3.473],[97.09,3.474]]]},"properties":{"code":"11.01.05.2013","name":"Blang Teungoh"}},{"type":"Feature","geometry":{"type":"Polygon","coordinates":[[[97.0685,3.472],[97.0675,3.473],[97.066,3.474],[97.0615,3.471],[97.057,3.469],[97.056,3.469],[97.0565,3.4635],[97.0565,3.4615],[97.057,3.4615],[97.057,3.462],[97.0635,3.4645],[97.0645,3.467],[97.0665,3.4695],[97.0685,3.472]]]},"properties":{"code":"11.01.05.2014","name":"Blang Bladeh"}},{"type":"Feature","geometry":{"type":"Polygon","coordinates":[[[97.0935,3.456],[97.095,3.457],[97.0945,3.4695],[97.093,3.472],[97.092,3.473],[97.0905,3.471],[97.0885,3.4705],[97.085,3.467],[97.066,3.4645],[97.065,3.4645],[97.068,3.458],[97.069,3.458],[97.0805,3.456],[97.0935,3.456]]]},"properties":{"code":"11.01.05.2015","name":"Ie Buboh"}},{"type":"Feature","geometry":{"type":"Polygon","coordinates":[[[97.057,3.4615],[97.0565,3.4615],[97.0565,3.4625],[97.056,3.4625],[97.0525,3.462],[97.0565,3.4575],[97.057,3.4605],[97.057,3.4615]]]},"properties":{"code":"11.01.05.2016","name":"Keude Meukek"}},{"type":"Feature","geometry":{"type":"Polygon","coordinates":[[[97.065,3.4645],[97.0635,3.4645],[97.057,3.462],[97.057,3.4605],[97.0565,3.4575],[97.0585,3.456],[97.068,3.458],[97.065,3.4645]]]},"properties":{"code":"11.01.05.2017","name":"Kuta Baro"}},{"type":"Feature","geometry":{"type":"Polygon","coordinates":[[[97.0805,3.456],[97.069,3.458],[97.0585,3.456],[97.0635,3.4435],[97.0675,3.446],[97.0805,3.456]]]},"properties":{"code":"11.01.05.2018","name":"Tanjung Harapan"}},{"type":"Feature","geometry":{"type":"Polygon","coordinates":[[[97.0935,3.456],[97.0805,3.456],[97.0675,3.446],[97.076,3.4395],[97.086,3.4475],[97.093,3.446],[97.0925,3.4535],[97.0935,3.456]]]},"properties":{"code":"11.01.05.2019","name":"Labuhan Tarok"}},{"type":"Feature","geometry":{"type":"Polygon","coordinates":[[[97.0935,3.437],[97.093,3.438],[97.093,3.4385],[97.092,3.4385],[97.083,3.44],[97.081,3.438],[97.08,3.436],[97.0765,3.4325],[97.0765,3.432],[97.0725,3.429],[97.073,3.416],[97.0745,3.416],[97.0765,3.4155],[97.0765,3.42],[97.0755,3.4245],[97.078,3.4265],[97.0915,3.436],[97.0935,3.437]]]},"properties":{"code":"11.01.05.2020","name":"Lhok Aman"}},{"type":"Feature","geometry":{"type":"Polygon","coordinates":[[[97.0885,3.414],[97.091,3.424],[97.1115,3.441],[97.107,3.4495],[97.105,3.449],[97.0945,3.437],[97.0915,3.436],[97.078,3.4265],[97.0755,3.4245],[97.0765,3.42],[97.0765,3.4155],[97.0785,3.4155],[97.0865,3.414],[97.0885,3.414]]]},"properties":{"code":"11.01.05.2021","name":"Alue Meutuah"}},{"type":"Feature","geometry":{"type":"Polygon","coordinates":[[[97.105,3.449],[97.093,3.446],[97.086,3.4475],[97.076,3.4395],[97.076,3.4335],[97.0765,3.4325],[97.08,3.436],[97.081,3.438],[97.083,3.44],[97.092,3.4385],[97.093,3.4385],[97.0935,3.437],[97.0945,3.437],[97.105,3.449]]]},"properties":{"code":"11.01.05.2022","name":"Ladang Baro"}},{"type":"Feature","geometry":{"type":"Polygon","coordinates":[[[97.0675,3.446],[97.0635,3.4435],[97.063,3.43],[97.0725,3.429],[97.0765,3.432],[97.076,3.4335],[97.076,3.4395],[97.0675,3.446]]]},"properties":{"code":"11.01.05.2023","name":"Labuhan Tarok Ii"}},{"type":"Feature","geometry":{"type":"Polygon","coordinates":[[[97.1575,3.328],[97.1575,3.3285],[97.158,3.3295],[97.1765,3.3555],[97.158,3.3515],[97.156,3.352],[97.152,3.352],[97.149,3.351],[97.1475,3.3505],[97.1525,3.346],[97.156,3.342],[97.1565,3.3415],[97.155,3.3395],[97.1535,3.338],[97.152,3.335],[97.1525,3.333],[97.155,3.332],[97.1565,3.3295],[97.1575,3.328]]]},"properties":{"code":"11.01.06.2001","name":"Dalam"}},{"type":"Feature","geometry":{"type":"Polygon","coordinates":[[[97.2635,3.341],[97.263,3.3465],[97.2565,3.363],[97.246,3.3685],[97.241,3.3625],[97.2145,3.355],[97.2035,3.3565],[97.199,3.344],[97.1785,3.34],[97.176,3.339],[97.175,3.337],[97.1725,3.334],[97.1665,3.333],[97.165,3.332],[97.164,3.3295],[97.1565,3.323],[97.1555,3.321],[97.1535,3.3185],[97.1525,3.3185],[97.1505,3.317],[97.153,3.317],[97.154,3.317],[97.1585,3.3175],[97.161,3.319],[97.179,3.323],[97.191,3.3215],[97.204,3.3325],[97.2175,3.3345],[97.2235,3.3465],[97.233,3.345],[97.246,3.35],[97.2465,3.35],[97.251,3.3485],[97.2525,3.3475],[97.2565,3.3425],[97.261,3.34],[97.2635,3.341]]]},"properties":{"code":"11.01.06.2002","name":"Subarang"}},{"type":"Feature","geometry":{"type":"Polygon","coordinates":[[[97.1565,3.323],[97.164,3.3295],[97.163,3.3295],[97.1595,3.326],[97.1585,3.327],[97.1565,3.3275],[97.156,3.3275],[97.1535,3.3245],[97.1555,3.3245],[97.1565,3.323]]]},"properties":{"code":"11.01.06.2003","name":"Kuta Baru"}},{"type":"Feature","geometry":{"type":"Polygon","coordinates":[[[97.2055,3.389],[97.2,3.3795],[97.198,3.359],[97.1915,3.3535],[97.1765,3.3555],[97.158,3.3295],[97.1575,3.3285],[97.1575,3.328],[97.1595,3.326],[97.163,3.3295],[97.165,3.332],[97.1665,3.333],[97.1725,3.334],[97.175,3.337],[97.176,3.339],[97.1785,3.34],[97.199,3.344],[97.2035,3.3565],[97.2145,3.355],[97.241,3.3625],[97.246,3.3685],[97.2425,3.3705],[97.2325,3.378],[97.2055,3.389]]]},"properties":{"code":"11.01.06.2004","name":"Gunung Ketek"}},{"type":"Feature","geometry":{"type":"Polygon","coordinates":[[[97.1535,3.3245],[97.1505,3.33],[97.147,3.331],[97.146,3.3265],[97.1465,3.3245],[97.1465,3.3235],[97.148,3.323],[97.1515,3.323],[97.1515,3.321],[97.152,3.3195],[97.1535,3.3205],[97.154,3.321],[97.155,3.323],[97.1555,3.324],[97.1555,3.3245],[97.1535,3.3245]]]},"properties":{"code":"11.01.06.2005","name":"Ladang Panton Luas"}},{"type":"Feature","geometry":{"type":"Polygon","coordinates":[[[97.1565,3.323],[97.1555,3.3245],[97.1555,3.324],[97.155,3.323],[97.154,3.321],[97.1535,3.3205],[97.1525,3.3195],[97.1535,3.3185],[97.1555,3.321],[97.1565,3.323]]]},"properties":{"code":"11.01.06.2006","name":"Madat"}},{"type":"Feature","geometry":{"type":"Polygon","coordinates":[[[97.156,3.33],[97.155,3.332],[97.1525,3.333],[97.152,3.335],[97.1535,3.338],[97.155,3.3395],[97.1565,3.3415],[97.156,3.342],[97.153,3.3445],[97.147,3.3385],[97.144,3.338],[97.146,3.3315],[97.147,3.331],[97.1505,3.33],[97.1535,3.3245],[97.156,3.3275],[97.1545,3.3275],[97.156,3.33]]]},"properties":{"code":"11.01.06.2007","name":"Alur Seumerah"}},{"type":"Feature","geometry":{"type":"Polygon","coordinates":[[[97.1575,3.328],[97.1565,3.3295],[97.156,3.33],[97.1545,3.3275],[97.1565,3.3275],[97.1585,3.327],[97.1575,3.328]]]},"properties":{"code":"11.01.06.2008","name":"Tengah"}},{"type":"Feature","geometry":{"type":"Polygon","coordinates":[[[97.1345,3.3255],[97.1335,3.3255],[97.129,3.3245],[97.1345,3.318],[97.1345,3.3255]]]},"properties":{"code":"11.01.06.2009","name":"Gunung Cut"}},{"type":"Feature","geometry":{"type":"Polygon","coordinates":[[[97.146,3.3315],[97.144,3.338],[97.1395,3.3345],[97.14,3.333],[97.1405,3.3305],[97.1405,3.33],[97.1405,3.3285],[97.135,3.3265],[97.1345,3.3255],[97.1345,3.318],[97.1375,3.316],[97.1405,3.326],[97.141,3.327],[97.1405,3.3275],[97.142,3.3285],[97.142,3.329],[97.1445,3.3305],[97.146,3.3315]]]},"properties":{"code":"11.01.06.2010","name":"Alur Pinang"}},{"type":"Feature","geometry":{"type":"Polygon","coordinates":[[[97.1475,3.3505],[97.142,3.343],[97.123,3.339],[97.129,3.3245],[97.1335,3.3255],[97.135,3.3265],[97.1405,3.3285],[97.1405,3.33],[97.1405,3.3305],[97.14,3.333],[97.1395,3.3345],[97.144,3.338],[97.147,3.3385],[97.153,3.3445],[97.1525,3.346],[97.1475,3.3505]]]},"properties":{"code":"11.01.06.2011","name":"Kuta Blang"}},{"type":"Feature","geometry":{"type":"Polygon","coordinates":[[[97.157,3.3515],[97.156,3.362],[97.1535,3.364],[97.1485,3.362],[97.1375,3.3585],[97.1295,3.353],[97.1255,3.3465],[97.123,3.339],[97.142,3.343],[97.1475,3.3505],[97.149,3.351],[97.152,3.352],[97.156,3.352],[97.157,3.3515]]]},"properties":{"code":"11.01.06.2012","name":"Batee Tunggai"}},{"type":"Feature","geometry":{"type":"Polygon","coordinates":[[[97.149,3.305],[97.1475,3.305],[97.147,3.3055],[97.152,3.292],[97.1615,3.295],[97.162,3.2955],[97.1515,3.303],[97.149,3.303],[97.149,3.305]]]},"properties":{"code":"11.01.06.2013","name":"Ujung Tanah"}},{"type":"Feature","geometry":{"type":"Polygon","coordinates":[[[97.1505,3.3075],[97.1505,3.3095],[97.148,3.3085],[97.149,3.307],[97.1505,3.3075]]]},"properties":{"code":"11.01.06.2014","name":"Ujung Kampung"}},{"type":"Feature","geometry":{"type":"Polygon","coordinates":[[[97.148,3.313],[97.1465,3.3125],[97.1435,3.31],[97.1445,3.3085],[97.148,3.3085],[97.1505,3.3095],[97.1525,3.3095],[97.1545,3.311],[97.151,3.312],[97.148,3.313]]]},"properties":{"code":"11.01.06.2015","name":"Jilatang"}},{"type":"Feature","geometry":{"type":"Polygon","coordinates":[[[97.151,3.307],[97.1505,3.3075],[97.149,3.307],[97.146,3.3065],[97.147,3.3055],[97.1475,3.305],[97.149,3.305],[97.1495,3.305],[97.15,3.305],[97.151,3.306],[97.151,3.307]]]},"properties":{"code":"11.01.06.2016","name":"Luar"}},{"type":"Feature","geometry":{"type":"Polygon","coordinates":[[[97.2255,3.323],[97.205,3.3155],[97.204,3.3145],[97.1865,3.3105],[97.1765,3.315],[97.163,3.311],[97.1605,3.3095],[97.1535,3.3055],[97.1525,3.3055],[97.1545,3.3045],[97.1615,3.3035],[97.163,3.301],[97.166,3.299],[97.1665,3.2975],[97.1665,3.298],[97.1675,3.2955],[97.168,3.2955],[97.1675,3.293],[97.167,3.2885],[97.1725,3.2965],[97.174,3.2975],[97.201,3.3015],[97.2215,3.301],[97.2255,3.323]]]},"properties":{"code":"11.01.06.2017","name":"Lubuk Layu"}},{"type":"Feature","geometry":{"type":"Polygon","coordinates":[[[97.1605,3.3095],[97.1555,3.311],[97.1545,3.311],[97.1525,3.3095],[97.151,3.3075],[97.1525,3.3055],[97.1535,3.3055],[97.1605,3.3095]]]},"properties":{"code":"11.01.06.2018","name":"Suaq Hulu"}},{"type":"Feature","geometry":{"type":"Polygon","coordinates":[[[97.148,3.3085],[97.1445,3.3085],[97.146,3.3065],[97.149,3.307],[97.148,3.3085]]]},"properties":{"code":"11.01.06.2019","name":"Tampang"}},{"type":"Feature","geometry":{"type":"Polygon","coordinates":[[[97.1525,3.3055],[97.151,3.3075],[97.151,3.307],[97.151,3.306],[97.15,3.305],[97.1505,3.3045],[97.1515,3.304],[97.1515,3.303],[97.162,3.2955],[97.163,3.296],[97.166,3.297],[97.166,3.299],[97.163,3.301],[97.1615,3.3035],[97.1545,3.3045],[97.1525,3.3055]]]},"properties":{"code":"11.01.06.2020","name":"Payonan Gadang"}},{"type":"Feature","geometry":{"type":"Polygon","coordinates":[[[97.1475,3.318],[97.145,3.3175],[97.1395,3.3145],[97.143,3.311],[97.1475,3.318]]]},"properties":{"code":"11.01.06.2021","name":"Gadang"}},{"type":"Feature","geometry":{"type":"Polygon","coordinates":[[[97.1505,3.317],[97.148,3.3185],[97.1475,3.318],[97.143,3.311],[97.1435,3.31],[97.1465,3.3125],[97.148,3.313],[97.148,3.3145],[97.1505,3.317]]]},"properties":{"code":"11.01.06.2022","name":"Baru"}},{"type":"Feature","geometry":{"type":"Polygon","coordinates":[[[97.147,3.331],[97.146,3.3315],[97.1445,3.3305],[97.142,3.329],[97.142,3.3285],[97.1405,3.3275],[97.141,3.327],[97.1405,3.326],[97.1375,3.316],[97.1395,3.3145],[97.145,3.3175],[97.145,3.321],[97.146,3.3235],[97.1465,3.3245],[97.146,3.3265],[97.147,3.331]]]},"properties":{"code":"11.01.06.2023","name":"Ladang Kasik Putih"}},{"type":"Feature","geometry":{"type":"Polygon","coordinates":[[[97.152,3.316],[97.1505,3.317],[97.148,3.3145],[97.148,3.313],[97.151,3.312],[97.152,3.316]]]},"properties":{"code":"11.01.06.2024","name":"Air Sialang Hilir"}},{"type":"Feature","geometry":{"type":"Polygon","coordinates":[[[97.154,3.317],[97.153,3.317],[97.152,3.316],[97.151,3.312],[97.1545,3.311],[97.1555,3.311],[97.1605,3.3095],[97.163,3.311],[97.16,3.3125],[97.158,3.3135],[97.154,3.317]]]},"properties":{"code":"11.01.06.2025","name":"Air Sialang Hulu"}},{"type":"Feature","geometry":{"type":"Polygon","coordinates":[[[97.2255,3.323],[97.2375,3.327],[97.2465,3.3475],[97.246,3.35],[97.233,3.345],[97.2235,3.3465],[97.2175,3.3345],[97.204,3.3325],[97.191,3.3215],[97.179,3.323],[97.161,3.319],[97.1585,3.3175],[97.154,3.317],[97.158,3.3135],[97.16,3.3125],[97.163,3.311],[97.1765,3.315],[97.1865,3.3105],[97.204,3.3145],[97.205,3.3155],[97.2255,3.323]]]},"properties":{"code":"11.01.06.2026","name":"Air Sialang Tengah"}},{"type":"Feature","geometry":{"type":"Polygon","coordinates":[[[97.1525,3.3195],[97.152,3.3195],[97.1515,3.321],[97.1515,3.323],[97.148,3.323],[97.1465,3.3235],[97.146,3.3235],[97.145,3.321],[97.148,3.3185],[97.1505,3.317],[97.1525,3.3185],[97.1525,3.3195]]]},"properties":{"code":"11.01.06.2027","name":"Balai"}},{"type":"Feature","geometry":{"type":"Polygon","coordinates":[[[97.1505,3.3045],[97.15,3.305],[97.1495,3.305],[97.149,3.305],[97.149,3.303],[97.1515,3.304],[97.1505,3.3045]]]},"properties":{"code":"11.01.06.2028","name":"Arafah"}},{"type":"Feature","geometry":{"type":"Polygon","coordinates":[[[97.099,3.393],[97.1005,3.3935],[97.1075,3.403],[97.1065,3.403],[97.1015,3.3975],[97.097,3.397],[97.0965,3.3955],[97.099,3.393]]]},"properties":{"code":"11.01.07.2001","name":"Sikulat"}},{"type":"Feature","geometry":{"type":"Polygon","coordinates":[[[97.0975,3.392],[97.095,3.391],[97.092,3.3895],[97.098,3.3805],[97.1045,3.384],[97.107,3.387],[97.0975,3.392]]]},"properties":{"code":"11.01.07.2002","name":"Sawang I"}},{"type":"Feature","geometry":{"type":"Polygon","coordinates":[[[97.1065,3.403],[97.105,3.4045],[97.1025,3.4055],[97.098,3.401],[97.0885,3.3995],[97.0875,3.402],[97.086,3.4005],[97.092,3.3895],[97.095,3.391],[97.0975,3.392],[97.099,3.393],[97.0965,3.3955],[97.097,3.397],[97.1015,3.3975],[97.1065,3.403]]]},"properties":{"code":"11.01.07.2003","name":"Meuligo"}},{"type":"Feature","geometry":{"type":"Polygon","coordinates":[[[97.1485,3.362],[97.137,3.374],[97.136,3.375],[97.1355,3.3745],[97.1345,3.3735],[97.133,3.372],[97.1265,3.3725],[97.1235,3.3665],[97.109,3.362],[97.1195,3.3565],[97.1255,3.3465],[97.1295,3.353],[97.1375,3.3585],[97.1485,3.362]]]},"properties":{"code":"11.01.07.2004","name":"Lhok Pawoh"}},{"type":"Feature","geometry":{"type":"Polygon","coordinates":[[[97.1045,3.384],[97.098,3.3805],[97.1035,3.3715],[97.106,3.38],[97.105,3.381],[97.1045,3.384]]]},"properties":{"code":"11.01.07.2005","name":"Sawang Ii"}},{"type":"Feature","geometry":{"type":"Polygon","coordinates":[[[97.126,3.385],[97.1175,3.3875],[97.1165,3.387],[97.106,3.38],[97.1035,3.3715],[97.109,3.362],[97.1235,3.3665],[97.1265,3.3725],[97.133,3.372],[97.1345,3.3735],[97.1355,3.3745],[97.136,3.375],[97.1345,3.3755],[97.126,3.385]]]},"properties":{"code":"11.01.07.2006","name":"Ujung Karang"}},{"type":"Feature","geometry":{"type":"Polygon","coordinates":[[[97.107,3.387],[97.1145,3.4045],[97.113,3.4045],[97.1115,3.404],[97.11,3.4045],[97.108,3.404],[97.1075,3.403],[97.1005,3.3935],[97.0975,3.392],[97.107,3.387]]]},"properties":{"code":"11.01.07.2007","name":"Trieng Meuduro Baroh"}},{"type":"Feature","geometry":{"type":"Polygon","coordinates":[[[97.118,3.4165],[97.111,3.417],[97.1105,3.409],[97.11,3.4065],[97.1095,3.406],[97.108,3.404],[97.11,3.4045],[97.1115,3.404],[97.113,3.4045],[97.1145,3.4045],[97.107,3.387],[97.1045,3.384],[97.105,3.381],[97.106,3.38],[97.1165,3.387],[97.1175,3.3875],[97.126,3.385],[97.1245,3.3875],[97.1225,3.3915],[97.1215,3.393],[97.119,3.3955],[97.1215,3.408],[97.125,3.4085],[97.118,3.4165]]]},"properties":{"code":"11.01.07.2008","name":"Trieng Meuduro Tunong"}},{"type":"Feature","geometry":{"type":"Polygon","coordinates":[[[97.198,3.4155],[97.1725,3.42],[97.1615,3.4275],[97.1345,3.4275],[97.129,3.4265],[97.118,3.4165],[97.125,3.4085],[97.1215,3.408],[97.119,3.3955],[97.1215,3.393],[97.1225,3.3915],[97.1245,3.3875],[97.126,3.385],[97.1345,3.3755],[97.137,3.374],[97.1485,3.362],[97.1535,3.364],[97.156,3.362],[97.157,3.3515],[97.158,3.3515],[97.1765,3.3555],[97.1915,3.3535],[97.198,3.359],[97.2,3.3795],[97.2055,3.389],[97.198,3.4155]]]},"properties":{"code":"11.01.07.2009","name":"Panton Luas"}},{"type":"Feature","geometry":{"type":"Polygon","coordinates":[[[97.111,3.417],[97.0945,3.4115],[97.0905,3.413],[97.0935,3.404],[97.0975,3.4105],[97.1025,3.4055],[97.105,3.4045],[97.1065,3.403],[97.1075,3.403],[97.1095,3.406],[97.11,3.4065],[97.1105,3.409],[97.111,3.417]]]},"properties":{"code":"11.01.07.2010","name":"Simpang Tiga"}},{"type":"Feature","geometry":{"type":"Polygon","coordinates":[[[97.0885,3.414],[97.0865,3.414],[97.086,3.4115],[97.086,3.409],[97.0865,3.407],[97.089,3.402],[97.0905,3.4005],[97.091,3.4015],[97.0935,3.404],[97.0905,3.413],[97.09,3.4135],[97.0885,3.414]]]},"properties":{"code":"11.01.07.2011","name":"Kuta Baro"}},{"type":"Feature","geometry":{"type":"Polygon","coordinates":[[[97.1025,3.4055],[97.0975,3.4105],[97.0935,3.404],[97.091,3.4015],[97.0905,3.4005],[97.089,3.402],[97.0875,3.402],[97.0885,3.3995],[97.098,3.401],[97.1025,3.4055]]]},"properties":{"code":"11.01.07.2012","name":"Blang Geulinggang"}},{"type":"Feature","geometry":{"type":"Polygon","coordinates":[[[97.177,3.471],[97.174,3.4725],[97.1665,3.477],[97.1545,3.474],[97.149,3.463],[97.131,3.457],[97.128,3.449],[97.1135,3.4555],[97.1125,3.4565],[97.1095,3.4555],[97.107,3.4495],[97.1115,3.441],[97.091,3.424],[97.0885,3.414],[97.09,3.4135],[97.0945,3.4115],[97.111,3.417],[97.118,3.4165],[97.129,3.4265],[97.1345,3.4275],[97.1615,3.4275],[97.1725,3.42],[97.198,3.4155],[97.204,3.437],[97.203,3.4465],[97.1865,3.455],[97.177,3.471]]]},"properties":{"code":"11.01.07.2013","name":"Mutiara"}},{"type":"Feature","geometry":{"type":"Polygon","coordinates":[[[97.089,3.402],[97.0865,3.407],[97.085,3.4075],[97.082,3.405],[97.086,3.4005],[97.0875,3.402],[97.089,3.402]]]},"properties":{"code":"11.01.07.2014","name":"Ujung Padang"}},{"type":"Feature","geometry":{"type":"Polygon","coordinates":[[[97.0865,3.414],[97.0785,3.4155],[97.077,3.4155],[97.0745,3.416],[97.073,3.416],[97.082,3.405],[97.085,3.4075],[97.086,3.409],[97.086,3.4115],[97.0865,3.414]]]},"properties":{"code":"11.01.07.2015","name":"Sawang Ba'U"}},{"type":"Feature","geometry":{"type":"Polygon","coordinates":[[[97.1725,3.2555],[97.173,3.256],[97.1745,3.257],[97.172,3.2595],[97.175,3.2615],[97.171,3.2745],[97.1705,3.2745],[97.168,3.271],[97.1665,3.269],[97.1725,3.2555]]]},"properties":{"code":"11.01.08.2001","name":"Lhok Keutapang"}},{"type":"Feature","geometry":{"type":"Polygon","coordinates":[[[97.178,3.2615],[97.1775,3.263],[97.177,3.27],[97.1775,3.2775],[97.171,3.2745],[97.175,3.2615],[97.172,3.2595],[97.1745,3.257],[97.173,3.256],[97.1725,3.2555],[97.179,3.251],[97.18,3.2545],[97.1795,3.2545],[97.1785,3.2585],[97.178,3.2615]]]},"properties":{"code":"11.01.08.2002","name":"Hilir"}},{"type":"Feature","geometry":{"type":"Polygon","coordinates":[[[97.1815,3.2595],[97.181,3.259],[97.1805,3.2595],[97.1785,3.2595],[97.1785,3.2585],[97.1795,3.2545],[97.1815,3.258],[97.182,3.259],[97.1815,3.2595]]]},"properties":{"code":"11.01.08.2003","name":"Padang"}},{"type":"Feature","geometry":{"type":"Polygon","coordinates":[[[97.187,3.26],[97.1855,3.264],[97.1845,3.2655],[97.178,3.2615],[97.1785,3.2595],[97.1805,3.2595],[97.181,3.259],[97.1815,3.2595],[97.1845,3.2595],[97.185,3.2595],[97.186,3.2595],[97.187,3.26]]]},"properties":{"code":"11.01.08.2004","name":"Hulu"}},{"type":"Feature","geometry":{"type":"Polygon","coordinates":[[[97.185,3.2815],[97.179,3.2815],[97.178,3.282],[97.178,3.2805],[97.1775,3.2775],[97.177,3.27],[97.1775,3.263],[97.178,3.2615],[97.1845,3.2655],[97.1835,3.2665],[97.185,3.2815]]]},"properties":{"code":"11.01.08.2005","name":"Jambo Apha"}},{"type":"Feature","geometry":{"type":"Polygon","coordinates":[[[97.1845,3.2595],[97.1815,3.2595],[97.182,3.259],[97.1815,3.2585],[97.1845,3.2595]]]},"properties":{"code":"11.01.08.2006","name":"Tepi Air"}},{"type":"Feature","geometry":{"type":"Polygon","coordinates":[[[97.188,3.258],[97.187,3.2595],[97.187,3.26],[97.186,3.2595],[97.185,3.2595],[97.1845,3.2595],[97.1815,3.2585],[97.1815,3.258],[97.1795,3.2545],[97.18,3.2545],[97.179,3.251],[97.188,3.258]]]},"properties":{"code":"11.01.08.2007","name":"Pasar"}},{"type":"Feature","geometry":{"type":"Polygon","coordinates":[[[97.2055,3.288],[97.1885,3.2825],[97.185,3.2815],[97.1835,3.2665],[97.1855,3.264],[97.187,3.2595],[97.188,3.258],[97.1935,3.261],[97.1965,3.2645],[97.196,3.2675],[97.1945,3.277],[97.2055,3.288]]]},"properties":{"code":"11.01.08.2008","name":"Lhok Bengkuang"}},{"type":"Feature","geometry":{"type":"Polygon","coordinates":[[[97.2635,3.341],[97.261,3.34],[97.2565,3.3425],[97.2525,3.3475],[97.251,3.3485],[97.2465,3.35],[97.2465,3.3475],[97.2375,3.327],[97.2255,3.323],[97.2215,3.301],[97.201,3.3015],[97.174,3.2975],[97.1725,3.2965],[97.167,3.2885],[97.166,3.284],[97.176,3.2855],[97.178,3.2825],[97.179,3.2815],[97.185,3.2815],[97.1885,3.2825],[97.2055,3.288],[97.2145,3.289],[97.238,3.298],[97.2425,3.298],[97.2435,3.304],[97.2475,3.307],[97.249,3.306],[97.2525,3.305],[97.2575,3.3075],[97.268,3.311],[97.2725,3.3115],[97.272,3.316],[97.273,3.321],[97.2635,3.338],[97.2635,3.341]]]},"properties":{"code":"11.01.08.2009","name":"Panton Luas"}},{"type":"Feature","geometry":{"type":"Polygon","coordinates":[[[97.167,3.2885],[97.1675,3.293],[97.168,3.2955],[97.1675,3.2955],[97.1665,3.298],[97.1665,3.2975],[97.166,3.297],[97.163,3.296],[97.1615,3.295],[97.152,3.292],[97.1595,3.2825],[97.1645,3.2835],[97.166,3.284],[97.167,3.2885]]]},"properties":{"code":"11.01.08.2010","name":"Gunung Kerambil"}},{"type":"Feature","geometry":{"type":"Polygon","coordinates":[[[97.178,3.282],[97.178,3.2825],[97.176,3.2855],[97.166,3.284],[97.1645,3.2835],[97.1595,3.2825],[97.1665,3.269],[97.168,3.271],[97.1705,3.2745],[97.178,3.2805],[97.178,3.282]]]},"properties":{"code":"11.01.08.2011","name":"Air Berudang"}},{"type":"Feature","geometry":{"type":"Polygon","coordinates":[[[97.2525,3.305],[97.249,3.306],[97.2475,3.307],[97.2435,3.304],[97.2425,3.298],[97.238,3.298],[97.2145,3.289],[97.1965,3.253],[97.209,3.252],[97.2175,3.244],[97.2245,3.2615],[97.2435,3.2885],[97.2525,3.305]]]},"properties":{"code":"11.01.08.2012","name":"Batu Itam"}},{"type":"Feature","geometry":{"type":"Polygon","coordinates":[[[97.222,3.241],[97.2245,3.2385],[97.234,3.243],[97.2585,3.3075],[97.2525,3.305],[97.2435,3.2885],[97.2245,3.2615],[97.2175,3.244],[97.222,3.241]]]},"properties":{"code":"11.01.08.2013","name":"Panjupian"}},{"type":"Feature","geometry":{"type":"Polygon","coordinates":[[[97.2405,3.235],[97.2415,3.2455],[97.2495,3.2645],[97.268,3.311],[97.2585,3.3075],[97.234,3.243],[97.2245,3.2385],[97.222,3.241],[97.2235,3.2325],[97.2405,3.235]]]},"properties":{"code":"11.01.08.2014","name":"Lhok Rukam"}},{"type":"Feature","geometry":{"type":"Polygon","coordinates":[[[97.274,3.301],[97.273,3.31],[97.2725,3.3115],[97.268,3.311],[97.2495,3.2645],[97.2415,3.2455],[97.2405,3.235],[97.253,3.2265],[97.254,3.234],[97.2555,3.2415],[97.255,3.2545],[97.263,3.259],[97.2675,3.271],[97.274,3.301]]]},"properties":{"code":"11.01.08.2015","name":"Air Pinang"}},{"type":"Feature","geometry":{"type":"Polygon","coordinates":[[[97.2145,3.289],[97.2055,3.288],[97.1945,3.277],[97.196,3.2675],[97.1965,3.2645],[97.1935,3.261],[97.1965,3.253],[97.2145,3.289]]]},"properties":{"code":"11.01.08.2016","name":"Lhok Bengkuang Timur"}},{"type":"Feature","geometry":{"type":"Polygon","coordinates":[[[97.6265,2.8305],[97.6245,2.8315],[97.6225,2.8355],[97.62,2.8375],[97.62,2.8395],[97.6185,2.839],[97.618,2.8285],[97.6175,2.8255],[97.6165,2.8225],[97.63,2.7695],[97.668,2.769],[97.7445,2.783],[97.7455,2.785],[97.7315,2.785],[97.732,2.8145],[97.7175,2.815],[97.716,2.816],[97.682,2.813],[97.664,2.8105],[97.652,2.805],[97.6265,2.8305]]]},"properties":{"code":"11.01.09.2001","name":"Keude Trumon"}},{"type":"Feature","geometry":{"type":"Polygon","coordinates":[[[97.716,2.816],[97.7,2.821],[97.6955,2.8245],[97.68,2.8275],[97.6755,2.8335],[97.648,2.833],[97.6365,2.8495],[97.6365,2.8575],[97.636,2.859],[97.627,2.8555],[97.629,2.8505],[97.6265,2.8465],[97.622,2.8395],[97.62,2.8395],[97.62,2.8375],[97.6225,2.8355],[97.6245,2.8315],[97.6265,2.8305],[97.652,2.805],[97.664,2.8105],[97.682,2.813],[97.716,2.816]]]},"properties":{"code":"11.01.09.2002","name":"Ujong Tanoh"}},{"type":"Feature","geometry":{"type":"Polygon","coordinates":[[[97.6375,2.8825],[97.639,2.8865],[97.639,2.889],[97.63,2.8865],[97.629,2.886],[97.621,2.8835],[97.622,2.8565],[97.627,2.8555],[97.636,2.859],[97.6375,2.8655],[97.638,2.869],[97.639,2.8695],[97.638,2.876],[97.6365,2.877],[97.6375,2.8825]]]},"properties":{"code":"11.01.09.2003","name":"Sigleng"}},{"type":"Feature","geometry":{"type":"Polygon","coordinates":[[[97.767,2.787],[97.755,2.787],[97.755,2.785],[97.7455,2.785],[97.7445,2.783],[97.668,2.769],[97.63,2.7695],[97.642,2.7215],[97.6545,2.72],[97.664,2.72],[97.664,2.7535],[97.72,2.7585],[97.775,2.769],[97.771,2.777],[97.768,2.783],[97.767,2.787]]]},"properties":{"code":"11.01.09.2004","name":"Ie Meudama"}},{"type":"Feature","geometry":{"type":"Polygon","coordinates":[[[97.7935,2.724],[97.782,2.753],[97.7225,2.738],[97.6925,2.727],[97.6675,2.72],[97.6545,2.72],[97.642,2.7215],[97.649,2.683],[97.6525,2.641],[97.67,2.6425],[97.7285,2.6715],[97.8055,2.695],[97.797,2.716],[97.7935,2.724]]]},"properties":{"code":"11.01.09.2005","name":"Teupin Tinggi"}},{"type":"Feature","geometry":{"type":"Polygon","coordinates":[[[97.627,2.8555],[97.622,2.8565],[97.6065,2.8535],[97.6165,2.8225],[97.6175,2.8255],[97.618,2.8285],[97.6185,2.839],[97.622,2.8395],[97.6265,2.8465],[97.629,2.8505],[97.627,2.8555]]]},"properties":{"code":"11.01.09.2006","name":"Kuta Baro"}},{"type":"Feature","geometry":{"type":"Polygon","coordinates":[[[97.6145,2.884],[97.599,2.886],[97.597,2.887],[97.5955,2.8935],[97.592,2.8965],[97.5895,2.895],[97.5865,2.893],[97.587,2.8915],[97.586,2.8915],[97.583,2.888],[97.597,2.8735],[97.6065,2.8535],[97.622,2.8565],[97.621,2.8835],[97.6155,2.8835],[97.6145,2.884]]]},"properties":{"code":"11.01.09.2007","name":"Panton Bilie"}},{"type":"Feature","geometry":{"type":"Polygon","coordinates":[[[97.807,2.692],[97.8055,2.695],[97.7285,2.6715],[97.67,2.6425],[97.6525,2.641],[97.6565,2.5935],[97.6585,2.5355],[97.6595,2.5585],[97.6645,2.5605],[97.681,2.5535],[97.683,2.554],[97.688,2.562],[97.689,2.563],[97.69,2.563],[97.69,2.5645],[97.6915,2.565],[97.6915,2.5655],[97.692,2.576],[97.7005,2.583],[97.701,2.5845],[97.7015,2.583],[97.703,2.583],[97.7045,2.584],[97.7065,2.5825],[97.708,2.5815],[97.7285,2.597],[97.726,2.597],[97.7255,2.5995],[97.7285,2.6],[97.7395,2.598],[97.762,2.6185],[97.781,2.6175],[97.787,2.649],[97.797,2.6475],[97.8005,2.661],[97.8135,2.6755],[97.807,2.692]]]},"properties":{"code":"11.01.09.2012","name":"Kuta Padang"}},{"type":"Feature","geometry":{"type":"Polygon","coordinates":[[[97.69,2.563],[97.689,2.563],[97.688,2.562],[97.683,2.554],[97.681,2.5535],[97.6645,2.5605],[97.6595,2.5585],[97.6585,2.5355],[97.6575,2.4655],[97.6605,2.417],[97.665,2.395],[97.71,2.409],[97.733,2.4235],[97.75,2.4425],[97.763,2.4605],[97.7545,2.4655],[97.719,2.4715],[97.7095,2.4755],[97.7,2.4875],[97.692,2.508],[97.69,2.563]]]},"properties":{"code":"11.01.09.2013","name":"Raket"}},{"type":"Feature","geometry":{"type":"Polygon","coordinates":[[[97.8135,2.6755],[97.8005,2.661],[97.797,2.6475],[97.787,2.649],[97.781,2.6175],[97.762,2.6185],[97.7395,2.598],[97.7285,2.6],[97.7255,2.5995],[97.726,2.597],[97.7285,2.597],[97.708,2.5815],[97.7065,2.5825],[97.7045,2.584],[97.703,2.583],[97.7015,2.583],[97.701,2.5845],[97.7005,2.583],[97.692,2.576],[97.6915,2.5655],[97.6915,2.565],[97.69,2.5645],[97.69,2.5635],[97.692,2.508],[97.7,2.4875],[97.7095,2.4755],[97.719,2.4715],[97.7545,2.4655],[97.763,2.4605],[97.771,2.472],[97.7885,2.4955],[97.791,2.4985],[97.7955,2.5445],[97.797,2.554],[97.8175,2.6145],[97.825,2.637],[97.8135,2.653],[97.817,2.6675],[97.8135,2.6755]]]},"properties":{"code":"11.01.09.2014","name":"Gampong Teungoh"}},{"type":"Feature","geometry":{"type":"Polygon","coordinates":[[[97.7765,2.7655],[97.775,2.769],[97.72,2.7585],[97.664,2.7535],[97.664,2.72],[97.6675,2.72],[97.6925,2.727],[97.7225,2.738],[97.782,2.753],[97.778,2.7625],[97.7765,2.7655]]]},"properties":{"code":"11.01.09.2015","name":"Seuneubok Jaya"}},{"type":"Feature","geometry":{"type":"Polygon","coordinates":[[[97.654,2.879],[97.6375,2.8825],[97.6365,2.877],[97.638,2.876],[97.639,2.8695],[97.638,2.869],[97.6375,2.8655],[97.6365,2.8575],[97.6365,2.8495],[97.648,2.833],[97.6755,2.8335],[97.68,2.8275],[97.6955,2.8245],[97.7,2.821],[97.716,2.816],[97.7015,2.8325],[97.681,2.8425],[97.67,2.857],[97.6705,2.8575],[97.666,2.859],[97.6575,2.878],[97.654,2.879]]]},"properties":{"code":"11.01.09.2016","name":"Padang Harapan"}},{"type":"Feature","geometry":{"type":"Polygon","coordinates":[[[97.2965,3.232],[97.2895,3.2325],[97.2805,3.2065],[97.28,3.205],[97.2795,3.2035],[97.2845,3.201],[97.2905,3.2185],[97.2965,3.232]]]},"properties":{"code":"11.01.10.2001","name":"Ladang Teungoh"}},{"type":"Feature","geometry":{"type":"Polygon","coordinates":[[[97.2895,3.2325],[97.2875,3.249],[97.269,3.216],[97.2765,3.2085],[97.278,3.2085],[97.2785,3.2045],[97.28,3.205],[97.2805,3.2065],[97.2895,3.2325]]]},"properties":{"code":"11.01.10.2002","name":"Pucok Krueng"}},{"type":"Feature","geometry":{"type":"Polygon","coordinates":[[[97.3145,3.2155],[97.305,3.2255],[97.3045,3.226],[97.293,3.2015],[97.289,3.1975],[97.284,3.194],[97.2855,3.191],[97.29,3.1905],[97.2985,3.1885],[97.299,3.1885],[97.3105,3.1955],[97.3145,3.2155]]]},"properties":{"code":"11.01.10.2003","name":"Silolo"}},{"type":"Feature","geometry":{"type":"Polygon","coordinates":[[[97.303,3.168],[97.3,3.176],[97.2855,3.169],[97.2885,3.1605],[97.2945,3.159],[97.295,3.1585],[97.305,3.163],[97.303,3.168]]]},"properties":{"code":"11.01.10.2004","name":"Kampung Baru"}},{"type":"Feature","geometry":{"type":"Polygon","coordinates":[[[97.3045,3.226],[97.3015,3.2295],[97.2985,3.2315],[97.2965,3.232],[97.2905,3.2185],[97.2845,3.201],[97.2825,3.199],[97.2875,3.196],[97.289,3.1975],[97.293,3.2015],[97.3045,3.226]]]},"properties":{"code":"11.01.10.2005","name":"Panton Bili"}},{"type":"Feature","geometry":{"type":"Polygon","coordinates":[[[97.3105,3.1955],[97.299,3.1885],[97.293,3.185],[97.2955,3.179],[97.301,3.18],[97.3015,3.1805],[97.3035,3.1815],[97.307,3.181],[97.3105,3.182],[97.3195,3.1855],[97.3105,3.1955]]]},"properties":{"code":"11.01.10.2006","name":"Paya Ateuk"}},{"type":"Feature","geometry":{"type":"Polygon","coordinates":[[[97.28,3.205],[97.2785,3.2045],[97.278,3.2085],[97.2765,3.2085],[97.266,3.2065],[97.271,3.1965],[97.272,3.198],[97.274,3.1985],[97.2825,3.199],[97.2845,3.201],[97.2795,3.2035],[97.28,3.205]]]},"properties":{"code":"11.01.10.2007","name":"Ladang Tuha"}},{"type":"Feature","geometry":{"type":"Polygon","coordinates":[[[97.2765,3.2085],[97.269,3.216],[97.2665,3.2115],[97.265,3.2095],[97.266,3.2065],[97.2765,3.2085]]]},"properties":{"code":"11.01.10.2008","name":"Mata Ie"}},{"type":"Feature","geometry":{"type":"Polygon","coordinates":[[[97.2965,3.267],[97.2935,3.2685],[97.274,3.301],[97.2675,3.271],[97.263,3.259],[97.255,3.2545],[97.2555,3.2415],[97.254,3.234],[97.253,3.2265],[97.265,3.2095],[97.2665,3.2115],[97.2875,3.2495],[97.2965,3.267]]]},"properties":{"code":"11.01.10.2009","name":"Ujong Batee"}},{"type":"Feature","geometry":{"type":"Polygon","coordinates":[[[97.3195,3.1855],[97.3105,3.182],[97.307,3.181],[97.303,3.168],[97.306,3.161],[97.308,3.1635],[97.3105,3.1655],[97.3265,3.1765],[97.3195,3.1855]]]},"properties":{"code":"11.01.10.2010","name":"Lhok Sialang Cut"}},{"type":"Feature","geometry":{"type":"Polygon","coordinates":[[[97.29,3.1905],[97.2855,3.191],[97.275,3.187],[97.2795,3.1745],[97.2915,3.179],[97.293,3.1785],[97.295,3.1795],[97.2915,3.188],[97.29,3.1905]]]},"properties":{"code":"11.01.10.2011","name":"Seuneubok"}},{"type":"Feature","geometry":{"type":"Polygon","coordinates":[[[97.336,3.1585],[97.3305,3.1685],[97.32,3.16],[97.3185,3.1585],[97.308,3.149],[97.315,3.146],[97.3335,3.1505],[97.336,3.1585]]]},"properties":{"code":"11.01.10.2012","name":"Ie Mirah"}},{"type":"Feature","geometry":{"type":"Polygon","coordinates":[[[97.2885,3.1605],[97.284,3.16],[97.289,3.14],[97.2975,3.142],[97.2975,3.1435],[97.3,3.1465],[97.296,3.158],[97.2945,3.159],[97.2885,3.1605]]]},"properties":{"code":"11.01.10.2013","name":"Pasie Rasian"}},{"type":"Feature","geometry":{"type":"Polygon","coordinates":[[[97.319,3.159],[97.3145,3.1625],[97.3145,3.1635],[97.309,3.1645],[97.308,3.1635],[97.306,3.161],[97.305,3.163],[97.295,3.1585],[97.296,3.158],[97.3,3.1465],[97.308,3.149],[97.3185,3.1585],[97.319,3.159]]]},"properties":{"code":"11.01.10.2014","name":"Ujung Padang Rasian"}},{"type":"Feature","geometry":{"type":"Polygon","coordinates":[[[97.307,3.181],[97.3035,3.1815],[97.3015,3.1805],[97.301,3.18],[97.301,3.1765],[97.3,3.176],[97.303,3.168],[97.307,3.181]]]},"properties":{"code":"11.01.10.2015","name":"Krueng Kalee"}},{"type":"Feature","geometry":{"type":"Polygon","coordinates":[[[97.3265,3.1765],[97.3105,3.1655],[97.309,3.1645],[97.3145,3.1635],[97.3145,3.1625],[97.319,3.159],[97.32,3.16],[97.3305,3.1685],[97.3265,3.1765]]]},"properties":{"code":"11.01.10.2016","name":"Lhok Sialang Rayeuk"}},{"type":"Feature","geometry":{"type":"Polygon","coordinates":[[[97.2985,3.1885],[97.29,3.1905],[97.2915,3.188],[97.293,3.185],[97.2985,3.1885]]]},"properties":{"code":"11.01.10.2017","name":"Gampong Baro"}},{"type":"Feature","geometry":{"type":"Polygon","coordinates":[[[97.301,3.18],[97.2955,3.179],[97.295,3.1795],[97.293,3.1785],[97.2915,3.179],[97.2795,3.1745],[97.284,3.16],[97.2885,3.1605],[97.2855,3.169],[97.301,3.1765],[97.301,3.18]]]},"properties":{"code":"11.01.10.2018","name":"Teupin Gajah"}},{"type":"Feature","geometry":{"type":"Polygon","coordinates":[[[97.315,3.146],[97.308,3.149],[97.3,3.1465],[97.2975,3.1435],[97.2995,3.1375],[97.305,3.1295],[97.3085,3.131],[97.318,3.1365],[97.319,3.1365],[97.315,3.146]]]},"properties":{"code":"11.01.10.2019","name":"Ujung Padang Asahan"}},{"type":"Feature","geometry":{"type":"Polygon","coordinates":[[[97.328,3.1385],[97.338,3.144],[97.336,3.1585],[97.3335,3.1505],[97.315,3.146],[97.319,3.1365],[97.32,3.1365],[97.3215,3.139],[97.328,3.1385]]]},"properties":{"code":"11.01.10.2020","name":"Pulo Ie Ii"}},{"type":"Feature","geometry":{"type":"Polygon","coordinates":[[[97.2825,3.199],[97.274,3.1985],[97.272,3.198],[97.271,3.1965],[97.275,3.187],[97.2855,3.191],[97.284,3.194],[97.2875,3.196],[97.2825,3.199]]]},"properties":{"code":"11.01.10.2021","name":"Pante Raja"}},{"type":"Feature","geometry":{"type":"Polygon","coordinates":[[[97.028,3.516],[97.0265,3.5165],[97.022,3.5135],[97.0225,3.5115],[97.024,3.509],[97.0265,3.5075],[97.0315,3.505],[97.039,3.5],[97.039,3.504],[97.0345,3.509],[97.034,3.5105],[97.028,3.516]]]},"properties":{"code":"11.01.11.2001","name":"Tengah Peulumat"}},{"type":"Feature","geometry":{"type":"Polygon","coordinates":[[[97.0355,3.502],[97.0315,3.505],[97.0265,3.5075],[97.024,3.509],[97.0225,3.5115],[97.022,3.5135],[97.02,3.5125],[97.0195,3.5065],[97.0325,3.4925],[97.032,3.495],[97.0355,3.502]]]},"properties":{"code":"11.01.11.2002","name":"Paya Peulumat"}},{"type":"Feature","geometry":{"type":"Polygon","coordinates":[[[97.034,3.5105],[97.0345,3.509],[97.039,3.504],[97.043,3.506],[97.0395,3.5095],[97.038,3.51],[97.036,3.509],[97.036,3.5095],[97.034,3.5105]]]},"properties":{"code":"11.01.11.2003","name":"Padang Peulumat"}},{"type":"Feature","geometry":{"type":"Polygon","coordinates":[[[97.037,3.5125],[97.027,3.521],[97.0275,3.519],[97.028,3.5165],[97.028,3.516],[97.034,3.5105],[97.037,3.511],[97.036,3.5115],[97.038,3.512],[97.0375,3.512],[97.037,3.5125]]]},"properties":{"code":"11.01.11.2004","name":"Aur Peulumat"}},{"type":"Feature","geometry":{"type":"Polygon","coordinates":[[[97.0405,3.512],[97.0405,3.5115],[97.038,3.513],[97.037,3.5125],[97.0375,3.512],[97.038,3.512],[97.036,3.5115],[97.037,3.511],[97.036,3.5095],[97.036,3.509],[97.038,3.51],[97.0395,3.5095],[97.043,3.506],[97.054,3.5015],[97.0555,3.505],[97.05,3.506],[97.042,3.5105],[97.0425,3.511],[97.042,3.512],[97.0415,3.5115],[97.0405,3.512]]]},"properties":{"code":"11.01.11.2005","name":"Limau Saring"}},{"type":"Feature","geometry":{"type":"Polygon","coordinates":[[[97.043,3.5145],[97.0335,3.5245],[97.027,3.521],[97.037,3.5125],[97.038,3.513],[97.0405,3.5115],[97.0405,3.512],[97.0425,3.5135],[97.043,3.5145]]]},"properties":{"code":"11.01.11.2006","name":"Beutong"}},{"type":"Feature","geometry":{"type":"Polygon","coordinates":[[[97.057,3.508],[97.055,3.509],[97.051,3.5125],[97.043,3.5145],[97.0425,3.5135],[97.0405,3.512],[97.0415,3.5115],[97.042,3.512],[97.0425,3.511],[97.042,3.5105],[97.05,3.506],[97.0555,3.505],[97.057,3.508]]]},"properties":{"code":"11.01.11.2007","name":"Peuneulop"}},{"type":"Feature","geometry":{"type":"Polygon","coordinates":[[[97.1035,3.5635],[97.104,3.5765],[97.1075,3.5845],[97.1605,3.5975],[97.1565,3.616],[97.1595,3.643],[97.15,3.6485],[97.153,3.6645],[97.15,3.6835],[97.1565,3.691],[97.152,3.702],[97.1535,3.717],[97.156,3.722],[97.156,3.724],[97.157,3.7275],[97.1565,3.727],[97.155,3.726],[97.1525,3.7235],[97.1505,3.7135],[97.1425,3.689],[97.142,3.686],[97.1445,3.676],[97.1375,3.664],[97.1415,3.659],[97.1405,3.656],[97.1375,3.6555],[97.1245,3.641],[97.116,3.6275],[97.1195,3.6135],[97.105,3.612],[97.102,3.6025],[97.083,3.584],[97.046,3.57],[97.0315,3.559],[97.034,3.5455],[97.0345,3.545],[97.035,3.5445],[97.0405,3.536],[97.04,3.533],[97.0335,3.5245],[97.043,3.5145],[97.051,3.5125],[97.055,3.509],[97.057,3.508],[97.0595,3.512],[97.0625,3.5245],[97.0715,3.5325],[97.07,3.554],[97.074,3.565],[97.0815,3.565],[97.0875,3.569],[97.1035,3.5635]]]},"properties":{"code":"11.01.11.2008","name":"Gunung Rotan"}},{"type":"Feature","geometry":{"type":"Polygon","coordinates":[[[97.0225,3.5305],[97.022,3.531],[97.021,3.532],[97.0205,3.532],[97.02,3.5315],[97.0165,3.532],[97.0105,3.528],[97.0095,3.528],[97.009,3.5275],[97.02,3.5125],[97.0265,3.5165],[97.028,3.516],[97.028,3.5165],[97.0275,3.519],[97.027,3.521],[97.026,3.522],[97.025,3.5245],[97.0235,3.5245],[97.023,3.5255],[97.022,3.528],[97.0215,3.5275],[97.0225,3.5305]]]},"properties":{"code":"11.01.11.2009","name":"Keumumu Hilir"}},{"type":"Feature","geometry":{"type":"Polygon","coordinates":[[[97.0335,3.5245],[97.04,3.533],[97.0405,3.536],[97.035,3.5445],[97.034,3.545],[97.033,3.545],[97.0315,3.5445],[97.025,3.539],[97.023,3.534],[97.022,3.5325],[97.023,3.5325],[97.023,3.532],[97.0225,3.5315],[97.0225,3.53],[97.0215,3.5275],[97.022,3.528],[97.023,3.5255],[97.0235,3.5245],[97.025,3.5245],[97.026,3.522],[97.027,3.521],[97.0335,3.5245]]]},"properties":{"code":"11.01.11.2010","name":"Keumumu Hulu"}},{"type":"Feature","geometry":{"type":"Polygon","coordinates":[[[97.0315,3.559],[97.0215,3.56],[97.017,3.5425],[97.0155,3.5375],[97.0155,3.535],[97.0165,3.532],[97.02,3.5315],[97.0205,3.532],[97.021,3.532],[97.022,3.531],[97.0225,3.5305],[97.023,3.5325],[97.022,3.5325],[97.023,3.534],[97.025,3.539],[97.0315,3.5445],[97.033,3.545],[97.034,3.545],[97.034,3.5455],[97.0315,3.559]]]},"properties":{"code":"11.01.11.2011","name":"Keumumu Seberang"}},{"type":"Feature","geometry":{"type":"Polygon","coordinates":[[[97.0095,3.531],[97.008,3.5315],[97.005,3.5335],[97.009,3.5275],[97.0095,3.528],[97.0105,3.528],[97.0165,3.532],[97.0115,3.5335],[97.0095,3.531]]]},"properties":{"code":"11.01.11.2012","name":"Sawang Indah"}},{"type":"Feature","geometry":{"type":"Polygon","coordinates":[[[96.991,3.579],[96.985,3.5785],[96.977,3.575],[96.9735,3.5775],[96.973,3.576],[96.9695,3.5765],[96.9695,3.575],[96.973,3.5735],[96.975,3.572],[96.9825,3.567],[96.9825,3.565],[96.991,3.579]]]},"properties":{"code":"11.01.12.2001","name":"Tutong"}},{"type":"Feature","geometry":{"type":"Polygon","coordinates":[[[96.985,3.5785],[96.9875,3.582],[96.983,3.58],[96.977,3.575],[96.985,3.5785]]]},"properties":{"code":"11.01.12.2002","name":"Teungoh Iboh"}},{"type":"Feature","geometry":{"type":"Polygon","coordinates":[[[96.986,3.581],[96.9855,3.5815],[96.985,3.5815],[96.984,3.581],[96.983,3.581],[96.9805,3.58],[96.9765,3.5885],[96.9745,3.58],[96.9735,3.5775],[96.977,3.575],[96.983,3.58],[96.986,3.581]]]},"properties":{"code":"11.01.12.2003","name":"Peulokan"}},{"type":"Feature","geometry":{"type":"Polygon","coordinates":[[[96.975,3.572],[96.973,3.5735],[96.9695,3.575],[96.9695,3.5735],[96.9665,3.5645],[96.971,3.5625],[96.975,3.572]]]},"properties":{"code":"11.01.12.2004","name":"Kuta Iboh"}},{"type":"Feature","geometry":{"type":"Polygon","coordinates":[[[96.9825,3.565],[96.9825,3.567],[96.975,3.572],[96.971,3.5625],[96.9775,3.56],[96.9785,3.561],[96.9805,3.562],[96.9815,3.5625],[96.9825,3.565]]]},"properties":{"code":"11.01.12.2005","name":"Ujung Padang"}},{"type":"Feature","geometry":{"type":"Polygon","coordinates":[[[96.9665,3.584],[96.9645,3.5875],[96.962,3.583],[96.9605,3.582],[96.956,3.585],[96.9535,3.5775],[96.9535,3.577],[96.953,3.5755],[96.9495,3.571],[96.96,3.567],[96.9645,3.579],[96.9665,3.584]]]},"properties":{"code":"11.01.12.2006","name":"Blang Baru"}},{"type":"Feature","geometry":{"type":"Polygon","coordinates":[[[96.9765,3.5885],[96.9665,3.584],[96.9645,3.579],[96.96,3.567],[96.9665,3.5645],[96.9695,3.5735],[96.9695,3.5765],[96.973,3.576],[96.9745,3.58],[96.9765,3.5885]]]},"properties":{"code":"11.01.12.2007","name":"Blang Poroh"}},{"type":"Feature","geometry":{"type":"Polygon","coordinates":[[[96.9535,3.5775],[96.9525,3.578],[96.9485,3.578],[96.9455,3.5785],[96.9435,3.5785],[96.943,3.575],[96.9425,3.574],[96.9495,3.571],[96.953,3.5755],[96.9535,3.577],[96.9535,3.5775]]]},"properties":{"code":"11.01.12.2008","name":"Pulo Ie"}},{"type":"Feature","geometry":{"type":"Polygon","coordinates":[[[96.956,3.585],[96.9475,3.587],[96.946,3.584],[96.9445,3.5815],[96.9435,3.5785],[96.9455,3.5785],[96.9485,3.578],[96.9525,3.578],[96.9535,3.5775],[96.956,3.585]]]},"properties":{"code":"11.01.12.2009","name":"Suak Lokan"}},{"type":"Feature","geometry":{"type":"Polygon","coordinates":[[[96.9615,3.5825],[96.9605,3.5835],[96.96,3.584],[96.958,3.5855],[96.9555,3.588],[96.951,3.593],[96.9485,3.59],[96.9475,3.587],[96.956,3.585],[96.9605,3.582],[96.9615,3.5825]]]},"properties":{"code":"11.01.12.2010","name":"Iku Lhueng"}},{"type":"Feature","geometry":{"type":"Polygon","coordinates":[[[96.9855,3.6025],[96.9795,3.6045],[96.977,3.603],[96.9585,3.6035],[96.9535,3.598],[96.9615,3.591],[96.9665,3.584],[96.9765,3.5885],[96.984,3.5995],[96.9855,3.6025]]]},"properties":{"code":"11.01.12.2011","name":"Kuta Trieng"}},{"type":"Feature","geometry":{"type":"Polygon","coordinates":[[[96.9645,3.5875],[96.9615,3.591],[96.9535,3.598],[96.9525,3.5955],[96.951,3.593],[96.9555,3.588],[96.958,3.5855],[96.96,3.584],[96.9605,3.5835],[96.9615,3.5825],[96.9625,3.5845],[96.9645,3.5875]]]},"properties":{"code":"11.01.12.2012","name":"Pante Geulima"}},{"type":"Feature","geometry":{"type":"Polygon","coordinates":[[[97.0145,3.607],[97.0135,3.6075],[96.99,3.6185],[96.9825,3.6175],[96.9805,3.618],[96.9685,3.618],[96.968,3.617],[96.977,3.603],[96.9795,3.6045],[96.9855,3.6025],[96.99,3.6045],[96.9925,3.6045],[96.9965,3.6035],[96.998,3.6045],[97.008,3.6035],[97.014,3.6005],[97.014,3.6035],[97.0145,3.6055],[97.0145,3.607]]]},"properties":{"code":"11.01.12.2013","name":"Panton Pawoh"}},{"type":"Feature","geometry":{"type":"Polygon","coordinates":[[[97.0245,3.59],[97.035,3.591],[97.0415,3.5825],[97.067,3.604],[97.075,3.6205],[97.099,3.629],[97.107,3.6465],[97.124,3.655],[97.133,3.6645],[97.133,3.68],[97.1385,3.6885],[97.141,3.721],[97.1395,3.7135],[97.138,3.7015],[97.136,3.6955],[97.1335,3.688],[97.131,3.6845],[97.1285,3.6825],[97.125,3.6815],[97.1215,3.681],[97.116,3.6765],[97.1065,3.669],[97.067,3.626],[97.0575,3.62],[97.056,3.619],[97.049,3.619],[97.034,3.6005],[97.021,3.6055],[97.02,3.6065],[97.0155,3.6065],[97.0145,3.607],[97.0145,3.6055],[97.014,3.6035],[97.014,3.6005],[97.008,3.6035],[96.998,3.6045],[96.9965,3.6035],[96.9925,3.6045],[96.99,3.6045],[96.984,3.5995],[96.9765,3.5885],[96.9805,3.58],[96.983,3.581],[96.984,3.581],[96.985,3.5815],[96.9855,3.5815],[96.986,3.581],[96.9875,3.582],[96.985,3.5785],[96.991,3.579],[97.002,3.588],[97.003,3.5895],[97.005,3.59],[97.0155,3.5915],[97.0245,3.59]]]},"properties":{"code":"11.01.12.2014","name":"Batee Meucanang"}},{"type":"Feature","geometry":{"type":"Polygon","coordinates":[[[96.977,3.603],[96.968,3.617],[96.967,3.616],[96.9585,3.6035],[96.977,3.603]]]},"properties":{"code":"11.01.12.2015","name":"Panton Rubek"}},{"type":"Feature","geometry":{"type":"Polygon","coordinates":[[[97.412,3.434],[97.407,3.4405],[97.397,3.401],[97.3985,3.3705],[97.3935,3.348],[97.387,3.3415],[97.3895,3.3185],[97.3785,3.293],[97.3775,3.254],[97.3725,3.248],[97.371,3.2155],[97.3695,3.212],[97.3705,3.2105],[97.3725,3.2255],[97.381,3.2335],[97.3865,3.249],[97.3845,3.262],[97.3895,3.274],[97.4005,3.28],[97.4045,3.2885],[97.416,3.298],[97.415,3.2995],[97.422,3.313],[97.423,3.3155],[97.422,3.318],[97.4245,3.329],[97.417,3.333],[97.435,3.356],[97.4355,3.3605],[97.434,3.363],[97.4335,3.364],[97.4325,3.3745],[97.4245,3.38],[97.4155,3.3965],[97.4135,3.4035],[97.4145,3.423],[97.422,3.4215],[97.412,3.434]]]},"properties":{"code":"11.01.13.2001","name":"Koto"}},{"type":"Feature","geometry":{"type":"Polygon","coordinates":[[[97.3625,3.262],[97.361,3.2765],[97.361,3.28],[97.361,3.2825],[97.3685,3.301],[97.365,3.33],[97.3735,3.3535],[97.3755,3.3725],[97.3705,3.406],[97.345,3.475],[97.3415,3.4935],[97.33,3.519],[97.317,3.604],[97.3135,3.6025],[97.295,3.595],[97.295,3.592],[97.2945,3.5845],[97.2815,3.577],[97.283,3.5685],[97.2845,3.5585],[97.28,3.5545],[97.2805,3.5335],[97.2635,3.5185],[97.2505,3.5205],[97.241,3.5145],[97.227,3.5045],[97.228,3.4945],[97.204,3.488],[97.1935,3.476],[97.1785,3.4725],[97.1745,3.474],[97.1735,3.4745],[97.1735,3.474],[97.177,3.471],[97.1865,3.455],[97.203,3.4465],[97.204,3.437],[97.198,3.4155],[97.2055,3.389],[97.2325,3.378],[97.2425,3.3705],[97.2565,3.363],[97.263,3.3465],[97.2635,3.338],[97.273,3.321],[97.272,3.316],[97.273,3.31],[97.274,3.301],[97.2935,3.2685],[97.297,3.2665],[97.309,3.2555],[97.322,3.2575],[97.325,3.257],[97.326,3.257],[97.3365,3.258],[97.35,3.2605],[97.354,3.26],[97.356,3.2715],[97.3625,3.262]]]},"properties":{"code":"11.01.13.2002","name":"Alur Keujrun"}},{"type":"Feature","geometry":{"type":"Polygon","coordinates":[[[97.389,3.1935],[97.3855,3.193],[97.3815,3.1955],[97.3785,3.1975],[97.3745,3.194],[97.364,3.1845],[97.366,3.1725],[97.3875,3.165],[97.391,3.179],[97.3875,3.193],[97.389,3.1935]]]},"properties":{"code":"11.01.13.2003","name":"Jambo Papan"}},{"type":"Feature","geometry":{"type":"Polygon","coordinates":[[[97.384,3.206],[97.3745,3.208],[97.362,3.203],[97.363,3.1895],[97.3635,3.188],[97.3655,3.186],[97.3745,3.194],[97.3785,3.1975],[97.3815,3.1955],[97.3855,3.193],[97.389,3.1935],[97.389,3.199],[97.384,3.206]]]},"properties":{"code":"11.01.13.2004","name":"Malaka"}},{"type":"Feature","geometry":{"type":"Polygon","coordinates":[[[97.391,3.179],[97.404,3.1885],[97.405,3.188],[97.4055,3.1885],[97.4035,3.1995],[97.3935,3.1935],[97.3875,3.193],[97.391,3.179]]]},"properties":{"code":"11.01.13.2005","name":"Koto Indarung"}},{"type":"Feature","geometry":{"type":"Polygon","coordinates":[[[97.423,3.2275],[97.415,3.2305],[97.398,3.2105],[97.384,3.206],[97.389,3.199],[97.389,3.1935],[97.3935,3.1935],[97.4035,3.1995],[97.42,3.216],[97.423,3.2275]]]},"properties":{"code":"11.01.13.2006","name":"Siurai-Urai"}},{"type":"Feature","geometry":{"type":"Polygon","coordinates":[[[97.456,3.624],[97.436,3.636],[97.433,3.6355],[97.422,3.633],[97.419,3.6305],[97.4165,3.619],[97.3985,3.618],[97.3935,3.6325],[97.3755,3.639],[97.3615,3.6255],[97.343,3.618],[97.3415,3.6165],[97.329,3.61],[97.319,3.605],[97.317,3.604],[97.33,3.519],[97.3415,3.4935],[97.345,3.475],[97.3705,3.406],[97.3755,3.3725],[97.3735,3.3535],[97.365,3.33],[97.3685,3.301],[97.361,3.2825],[97.361,3.28],[97.361,3.2765],[97.3625,3.262],[97.367,3.219],[97.3665,3.2165],[97.367,3.2125],[97.365,3.209],[97.3685,3.2115],[97.371,3.2155],[97.3725,3.248],[97.3775,3.254],[97.3785,3.293],[97.3895,3.3185],[97.387,3.3415],[97.3935,3.348],[97.3985,3.3705],[97.397,3.401],[97.407,3.4405],[97.401,3.447],[97.398,3.451],[97.413,3.476],[97.427,3.5],[97.4315,3.506],[97.439,3.5155],[97.4405,3.5175],[97.451,3.536],[97.452,3.537],[97.454,3.538],[97.4565,3.5395],[97.458,3.5395],[97.478,3.541],[97.48,3.541],[97.484,3.5425],[97.4845,3.5475],[97.485,3.557],[97.483,3.5605],[97.4695,3.574],[97.469,3.577],[97.469,3.5785],[97.4695,3.584],[97.465,3.597],[97.4625,3.6045],[97.4635,3.616],[97.463,3.6185],[97.456,3.624]]]},"properties":{"code":"11.01.13.2007","name":"Kampung Sawah"}},{"type":"Feature","geometry":{"type":"Polygon","coordinates":[[[97.3625,3.262],[97.356,3.2715],[97.36,3.239],[97.359,3.229],[97.359,3.227],[97.3635,3.212],[97.362,3.205],[97.367,3.2125],[97.3665,3.2165],[97.367,3.219],[97.3625,3.262]]]},"properties":{"code":"11.01.13.2008","name":"Kampung Padang"}},{"type":"Feature","geometry":{"type":"Polygon","coordinates":[[[97.3635,3.212],[97.359,3.227],[97.359,3.229],[97.36,3.239],[97.356,3.2715],[97.354,3.26],[97.3515,3.2605],[97.351,3.2595],[97.349,3.257],[97.345,3.2545],[97.3435,3.2425],[97.3595,3.212],[97.36,3.2125],[97.3605,3.212],[97.3605,3.211],[97.362,3.2115],[97.3635,3.212]]]},"properties":{"code":"11.01.13.2009","name":"Pulo Air"}},{"type":"Feature","geometry":{"type":"Polygon","coordinates":[[[97.423,3.2275],[97.42,3.242],[97.428,3.2535],[97.427,3.266],[97.415,3.28],[97.4175,3.2975],[97.416,3.298],[97.4045,3.2885],[97.4005,3.28],[97.3895,3.274],[97.3845,3.262],[97.3865,3.249],[97.381,3.2335],[97.3725,3.2255],[97.3705,3.2105],[97.3695,3.212],[97.3685,3.2115],[97.365,3.209],[97.362,3.205],[97.362,3.203],[97.3745,3.208],[97.384,3.206],[97.398,3.2105],[97.415,3.2305],[97.423,3.2275]]]},"properties":{"code":"11.01.13.2010","name":"Lawe Melang"}},{"type":"Feature","geometry":{"type":"Polygon","coordinates":[[[97.3515,3.2605],[97.35,3.2605],[97.3365,3.258],[97.3275,3.257],[97.3275,3.256],[97.326,3.255],[97.326,3.253],[97.3285,3.25],[97.33,3.2485],[97.3335,3.2435],[97.3345,3.239],[97.356,3.2105],[97.3575,3.211],[97.3595,3.212],[97.3435,3.2425],[97.345,3.2545],[97.349,3.257],[97.351,3.2595],[97.3515,3.2605]]]},"properties":{"code":"11.01.13.2011","name":"Mersak"}},{"type":"Feature","geometry":{"type":"Polygon","coordinates":[[[97.3275,3.257],[97.326,3.257],[97.325,3.257],[97.322,3.2575],[97.309,3.2555],[97.297,3.2665],[97.2965,3.267],[97.2875,3.249],[97.2895,3.2325],[97.2985,3.2315],[97.3015,3.2295],[97.305,3.2255],[97.3145,3.2155],[97.315,3.215],[97.32,3.2125],[97.334,3.215],[97.3635,3.1885],[97.363,3.1895],[97.362,3.203],[97.362,3.205],[97.3635,3.212],[97.362,3.2115],[97.3605,3.211],[97.3605,3.212],[97.36,3.2125],[97.3595,3.212],[97.3575,3.211],[97.356,3.2105],[97.3345,3.239],[97.3335,3.2435],[97.33,3.2485],[97.3285,3.25],[97.326,3.253],[97.326,3.255],[97.3275,3.256],[97.3275,3.257]]]},"properties":{"code":"11.01.13.2012","name":"Simpang Dua"}},{"type":"Feature","geometry":{"type":"Polygon","coordinates":[[[97.3635,3.1885],[97.334,3.215],[97.32,3.2125],[97.315,3.215],[97.3145,3.2155],[97.3105,3.1955],[97.3195,3.1855],[97.3265,3.1765],[97.3305,3.1685],[97.336,3.1585],[97.346,3.1645],[97.36,3.1655],[97.366,3.1725],[97.364,3.1845],[97.3655,3.186],[97.3635,3.188],[97.3635,3.1885]]]},"properties":{"code":"11.01.13.2013","name":"Simpang Tiga"}},{"type":"Feature","geometry":{"type":"Polygon","coordinates":[[[97.448,3.131],[97.4295,3.132],[97.418,3.126],[97.3945,3.1265],[97.393,3.121],[97.392,3.1195],[97.387,3.1145],[97.386,3.114],[97.3795,3.1095],[97.37,3.1045],[97.3705,3.0995],[97.3715,3.098],[97.398,3.0895],[97.399,3.086],[97.4155,3.091],[97.43,3.0935],[97.438,3.0975],[97.4405,3.0955],[97.4425,3.0965],[97.444,3.0965],[97.4445,3.097],[97.4435,3.098],[97.4435,3.0995],[97.4365,3.1105],[97.448,3.131]]]},"properties":{"code":"11.01.14.2001","name":"Paya Dapur"}},{"type":"Feature","geometry":{"type":"Polygon","coordinates":[[[97.3875,3.0755],[97.371,3.084],[97.361,3.0915],[97.359,3.091],[97.3565,3.0925],[97.356,3.09],[97.357,3.09],[97.3575,3.089],[97.3595,3.0885],[97.359,3.0875],[97.3655,3.0815],[97.3815,3.0705],[97.3875,3.0755]]]},"properties":{"code":"11.01.14.2002","name":"Sapik"}},{"type":"Feature","geometry":{"type":"Polygon","coordinates":[[[97.399,3.0865],[97.398,3.0895],[97.3715,3.098],[97.3705,3.0995],[97.37,3.1045],[97.3685,3.1],[97.367,3.0965],[97.369,3.095],[97.369,3.093],[97.3725,3.09],[97.3925,3.0805],[97.3945,3.083],[97.3985,3.0865],[97.399,3.0865]]]},"properties":{"code":"11.01.14.2003","name":"Alai"}},{"type":"Feature","geometry":{"type":"Polygon","coordinates":[[[97.4445,3.097],[97.444,3.0965],[97.4425,3.0965],[97.4405,3.0955],[97.438,3.0975],[97.43,3.0935],[97.4155,3.091],[97.399,3.086],[97.399,3.0865],[97.3985,3.0865],[97.3945,3.083],[97.3925,3.0805],[97.3725,3.09],[97.369,3.093],[97.369,3.095],[97.367,3.0965],[97.3615,3.095],[97.3575,3.095],[97.3565,3.0925],[97.359,3.091],[97.361,3.0915],[97.371,3.084],[97.3875,3.0755],[97.391,3.074],[97.413,3.077],[97.416,3.077],[97.43,3.0765],[97.436,3.083],[97.4385,3.0845],[97.446,3.0865],[97.4475,3.088],[97.4445,3.0965],[97.4445,3.097]]]},"properties":{"code":"11.01.14.2004","name":"Durian Kawan"}},{"type":"Feature","geometry":{"type":"Polygon","coordinates":[[[97.457,3.1605],[97.441,3.1595],[97.421,3.146],[97.417,3.148],[97.409,3.1485],[97.406,3.147],[97.402,3.1415],[97.4025,3.14],[97.4035,3.1415],[97.406,3.141],[97.4465,3.137],[97.448,3.1445],[97.452,3.152],[97.457,3.1605]]]},"properties":{"code":"11.01.14.2005","name":"Lawe Sawah"}},{"type":"Feature","geometry":{"type":"Polygon","coordinates":[[[97.4465,3.137],[97.406,3.141],[97.4035,3.1415],[97.4025,3.14],[97.402,3.1415],[97.3975,3.1405],[97.398,3.1375],[97.398,3.137],[97.3945,3.1265],[97.418,3.126],[97.4295,3.132],[97.448,3.131],[97.4465,3.137]]]},"properties":{"code":"11.01.14.2006","name":"Lawe Buluh Didi"}},{"type":"Feature","geometry":{"type":"Polygon","coordinates":[[[97.4695,3.301],[97.475,3.3155],[97.468,3.314],[97.46,3.2995],[97.457,3.277],[97.4355,3.2635],[97.4355,3.229],[97.4295,3.216],[97.431,3.1885],[97.4365,3.176],[97.4485,3.1725],[97.457,3.1605],[97.452,3.152],[97.448,3.1445],[97.4465,3.137],[97.448,3.131],[97.4365,3.1105],[97.4435,3.0995],[97.4435,3.098],[97.4445,3.097],[97.4445,3.0965],[97.4475,3.088],[97.4485,3.0885],[97.454,3.099],[97.454,3.101],[97.455,3.1],[97.456,3.1],[97.456,3.101],[97.457,3.101],[97.458,3.1],[97.4595,3.1015],[97.461,3.1015],[97.4645,3.101],[97.4645,3.1015],[97.466,3.1005],[97.47,3.0995],[97.4715,3.098],[97.474,3.0975],[97.4775,3.0935],[97.479,3.094],[97.495,3.0935],[97.499,3.0925],[97.506,3.098],[97.5175,3.0915],[97.519,3.0895],[97.5215,3.088],[97.523,3.088],[97.5255,3.086],[97.529,3.085],[97.532,3.0845],[97.55,3.09],[97.5545,3.093],[97.5555,3.0955],[97.556,3.096],[97.557,3.0955],[97.5725,3.107],[97.5805,3.1245],[97.552,3.149],[97.524,3.165],[97.517,3.1705],[97.5025,3.1885],[97.4955,3.196],[97.4905,3.2015],[97.4885,3.2035],[97.483,3.2095],[97.479,3.215],[97.476,3.2215],[97.475,3.223],[97.4735,3.2275],[97.4705,3.2425],[97.4675,3.25],[97.464,3.268],[97.4645,3.2775],[97.466,3.288],[97.468,3.296],[97.4695,3.301]]]},"properties":{"code":"11.01.14.2007","name":"Pucuk Lembang"}},{"type":"Feature","geometry":{"type":"Polygon","coordinates":[[[97.3875,3.0755],[97.3815,3.0705],[97.3655,3.0815],[97.359,3.0875],[97.3595,3.0885],[97.3575,3.089],[97.357,3.09],[97.356,3.09],[97.3555,3.088],[97.3505,3.086],[97.357,3.07],[97.3625,3.0655],[97.365,3.0625],[97.3655,3.062],[97.3655,3.061],[97.3665,3.0595],[97.3675,3.0605],[97.3725,3.066],[97.3855,3.0645],[97.3875,3.0635],[97.391,3.074],[97.3875,3.0755]]]},"properties":{"code":"11.01.14.2008","name":"Paya Laba"}},{"type":"Feature","geometry":{"type":"Polygon","coordinates":[[[97.422,3.4215],[97.4145,3.423],[97.4135,3.4035],[97.4155,3.3965],[97.4245,3.38],[97.4325,3.3745],[97.4335,3.364],[97.434,3.363],[97.4355,3.3605],[97.435,3.356],[97.417,3.333],[97.4245,3.329],[97.422,3.318],[97.423,3.3155],[97.422,3.313],[97.415,3.2995],[97.4175,3.2975],[97.415,3.28],[97.427,3.266],[97.428,3.2535],[97.42,3.242],[97.423,3.2275],[97.42,3.216],[97.4035,3.1995],[97.4055,3.1885],[97.405,3.188],[97.404,3.1885],[97.391,3.179],[97.3875,3.165],[97.3865,3.1645],[97.387,3.161],[97.3955,3.144],[97.3975,3.1405],[97.402,3.1415],[97.406,3.147],[97.409,3.1485],[97.417,3.148],[97.421,3.146],[97.441,3.1595],[97.457,3.1605],[97.4485,3.1725],[97.4365,3.176],[97.431,3.1885],[97.4295,3.216],[97.4355,3.229],[97.4355,3.2635],[97.457,3.277],[97.46,3.2995],[97.468,3.314],[97.475,3.3155],[97.4725,3.328],[97.4685,3.335],[97.4675,3.338],[97.462,3.3495],[97.454,3.3665],[97.45,3.375],[97.441,3.3935],[97.4405,3.396],[97.436,3.4025],[97.43,3.4115],[97.422,3.4215]]]},"properties":{"code":"11.01.14.2009","name":"Lawe Cimanok"}},{"type":"Feature","geometry":{"type":"Polygon","coordinates":[[[97.5535,2.901],[97.5515,2.901],[97.5455,2.896],[97.545,2.895],[97.533,2.889],[97.554,2.893],[97.555,2.8945],[97.5535,2.901]]]},"properties":{"code":"11.01.15.2001","name":"Pasie Seubadeh"}},{"type":"Feature","geometry":{"type":"Polygon","coordinates":[[[97.5515,2.901],[97.552,2.9225],[97.5475,2.929],[97.532,2.921],[97.523,2.916],[97.525,2.9095],[97.5325,2.909],[97.546,2.901],[97.5455,2.896],[97.5515,2.901]]]},"properties":{"code":"11.01.15.2002","name":"Ladang Rimba"}},{"type":"Feature","geometry":{"type":"Polygon","coordinates":[[[97.5325,2.909],[97.525,2.9095],[97.517,2.9015],[97.5205,2.893],[97.533,2.889],[97.545,2.895],[97.546,2.901],[97.5325,2.909]]]},"properties":{"code":"11.01.15.2003","name":"Ujong Pulo Rayeuk"}},{"type":"Feature","geometry":{"type":"Polygon","coordinates":[[[97.5905,2.926],[97.5895,2.926],[97.5885,2.9255],[97.5815,2.9235],[97.5785,2.9235],[97.576,2.92],[97.575,2.914],[97.557,2.9075],[97.5535,2.901],[97.555,2.8945],[97.554,2.893],[97.564,2.888],[97.578,2.8915],[97.579,2.895],[97.576,2.895],[97.5755,2.8955],[97.575,2.8995],[97.576,2.9075],[97.588,2.911],[97.588,2.9175],[97.589,2.9225],[97.5905,2.925],[97.5905,2.926]]]},"properties":{"code":"11.01.15.2004","name":"Sawah Tingkeum"}},{"type":"Feature","geometry":{"type":"Polygon","coordinates":[[[97.6,2.936],[97.5965,2.935],[97.595,2.9325],[97.5835,2.931],[97.579,2.9375],[97.5555,2.9365],[97.553,2.9375],[97.5475,2.929],[97.552,2.9225],[97.5515,2.901],[97.5535,2.901],[97.557,2.9075],[97.575,2.914],[97.576,2.92],[97.5785,2.9235],[97.5815,2.9235],[97.5885,2.9255],[97.59,2.926],[97.5935,2.9255],[97.595,2.926],[97.602,2.93],[97.6005,2.9325],[97.6,2.9335],[97.6,2.936]]]},"properties":{"code":"11.01.15.2005","name":"Simpang"}},{"type":"Feature","geometry":{"type":"Polygon","coordinates":[[[97.524,2.9165],[97.51,2.9225],[97.5025,2.91],[97.517,2.9015],[97.525,2.9095],[97.523,2.916],[97.524,2.9165]]]},"properties":{"code":"11.01.15.2006","name":"Ujong Pulo Cut"}},{"type":"Feature","geometry":{"type":"Polygon","coordinates":[[[97.611,2.922],[97.611,2.926],[97.6025,2.9295],[97.602,2.93],[97.595,2.926],[97.5905,2.926],[97.5905,2.925],[97.589,2.9225],[97.588,2.9175],[97.588,2.911],[97.576,2.9075],[97.575,2.8995],[97.5755,2.8955],[97.576,2.895],[97.579,2.895],[97.578,2.8915],[97.583,2.888],[97.586,2.8915],[97.587,2.8915],[97.5865,2.893],[97.5895,2.895],[97.5935,2.8975],[97.6055,2.9195],[97.611,2.922]]]},"properties":{"code":"11.01.15.2008","name":"Seuleukat"}},{"type":"Feature","geometry":{"type":"Polygon","coordinates":[[[97.759,2.9315],[97.7555,2.9275],[97.7325,2.932],[97.716,2.9355],[97.7105,2.9225],[97.7115,2.9],[97.7165,2.8945],[97.7125,2.875],[97.711,2.866],[97.712,2.863],[97.712,2.848],[97.7285,2.849],[97.7315,2.8495],[97.7445,2.882],[97.753,2.8965],[97.7525,2.903],[97.759,2.9315]]]},"properties":{"code":"11.01.16.2005","name":"Pinto Rimba"}},{"type":"Feature","geometry":{"type":"Polygon","coordinates":[[[97.7885,2.8635],[97.778,2.86],[97.7625,2.8705],[97.749,2.8745],[97.745,2.883],[97.7445,2.882],[97.7315,2.8495],[97.732,2.8495],[97.7555,2.849],[97.758,2.8455],[97.7715,2.847],[97.7845,2.8505],[97.793,2.8425],[97.794,2.849],[97.7885,2.8635]]]},"properties":{"code":"11.01.16.2006","name":"Krueng Luas"}},{"type":"Feature","geometry":{"type":"Polygon","coordinates":[[[97.8205,2.88],[97.8135,2.9665],[97.8045,2.9615],[97.797,2.975],[97.7925,2.9735],[97.779,2.9665],[97.77,2.958],[97.769,2.9535],[97.766,2.941],[97.763,2.9355],[97.7625,2.9345],[97.759,2.9315],[97.7525,2.903],[97.753,2.8965],[97.745,2.883],[97.749,2.8745],[97.7625,2.8705],[97.778,2.86],[97.7885,2.8635],[97.7885,2.864],[97.809,2.8665],[97.8205,2.88]]]},"properties":{"code":"11.01.16.2007","name":"Jambo Dalem"}},{"type":"Feature","geometry":{"type":"Polygon","coordinates":[[[97.86,2.8565],[97.858,2.865],[97.857,2.8765],[97.8595,2.883],[97.889,2.896],[97.9055,2.912],[97.9085,2.922],[97.909,2.9335],[97.907,2.955],[97.9005,2.9665],[97.8735,2.9675],[97.815,2.983],[97.8155,2.9705],[97.8145,2.968],[97.8205,2.88],[97.809,2.8665],[97.7885,2.864],[97.794,2.849],[97.81,2.826],[97.8145,2.8185],[97.847,2.8325],[97.86,2.846],[97.86,2.8565]]]},"properties":{"code":"11.01.16.2008","name":"Kapa Sesak"}},{"type":"Feature","geometry":{"type":"Polygon","coordinates":[[[97.793,2.8425],[97.7845,2.8505],[97.7715,2.847],[97.757,2.8455],[97.7595,2.8325],[97.776,2.837],[97.793,2.8425]]]},"properties":{"code":"11.01.16.2009","name":"Seuneubok Punto"}},{"type":"Feature","geometry":{"type":"Polygon","coordinates":[[[97.758,2.8455],[97.7555,2.849],[97.732,2.8495],[97.7285,2.849],[97.712,2.848],[97.712,2.8445],[97.7095,2.8235],[97.7175,2.815],[97.732,2.8145],[97.7315,2.785],[97.755,2.785],[97.755,2.787],[97.765,2.787],[97.7595,2.799],[97.76,2.8145],[97.767,2.819],[97.7705,2.821],[97.7625,2.8335],[97.7595,2.8325],[97.757,2.8455],[97.758,2.8455]]]},"properties":{"code":"11.01.16.2010","name":"Seuneubok Pusaka"}},{"type":"Feature","geometry":{"type":"Polygon","coordinates":[[[97.811,2.824],[97.81,2.826],[97.794,2.849],[97.793,2.8425],[97.776,2.837],[97.7625,2.8335],[97.7705,2.821],[97.772,2.821],[97.811,2.824]]]},"properties":{"code":"11.01.16.2011","name":"Alur Bujok"}},{"type":"Feature","geometry":{"type":"Polygon","coordinates":[[[97.811,2.824],[97.772,2.821],[97.767,2.819],[97.76,2.8145],[97.7595,2.799],[97.765,2.787],[97.767,2.787],[97.7665,2.788],[97.7875,2.7995],[97.7845,2.805],[97.8145,2.8185],[97.811,2.824]]]},"properties":{"code":"11.01.16.2012","name":"Titi Poben"}},{"type":"Feature","geometry":{"type":"Polygon","coordinates":[[[97.512,2.981],[97.5045,2.986],[97.488,3.0075],[97.4795,3.0235],[97.4675,3.0225],[97.465,3.0225],[97.4585,3.02],[97.4565,3.0205],[97.457,3.0195],[97.4585,3.019],[97.4665,3.0175],[97.4735,3.012],[97.4785,2.9935],[97.487,2.989],[97.485,2.9765],[97.5005,2.9705],[97.502,2.9655],[97.5105,2.961],[97.51,2.962],[97.519,2.9595],[97.519,2.96],[97.512,2.981]]]},"properties":{"code":"11.01.17.2001","name":"Buket Gadeng"}},{"type":"Feature","geometry":{"type":"Polygon","coordinates":[[[97.526,2.988],[97.5245,2.9865],[97.512,2.982],[97.512,2.981],[97.519,2.96],[97.52,2.9605],[97.52,2.961],[97.52,2.9665],[97.526,2.9695],[97.526,2.971],[97.5265,2.971],[97.528,2.9755],[97.526,2.988]]]},"properties":{"code":"11.01.17.2002","name":"Rambong"}},{"type":"Feature","geometry":{"type":"Polygon","coordinates":[[[97.5345,3.0055],[97.5385,3.0285],[97.5235,3.04],[97.518,3.0525],[97.515,3.0365],[97.492,3.034],[97.4885,3.032],[97.484,3.03],[97.48,3.0295],[97.4795,3.0235],[97.488,3.0075],[97.5045,2.986],[97.512,2.981],[97.512,2.982],[97.5245,2.9865],[97.526,2.989],[97.527,2.9945],[97.527,2.9955],[97.5345,3.0055]]]},"properties":{"code":"11.01.17.2003","name":"Seuneubok Keuranji"}},{"type":"Feature","geometry":{"type":"Polygon","coordinates":[[[97.6335,2.9895],[97.631,2.9905],[97.6295,2.9915],[97.622,2.986],[97.6065,2.983],[97.6035,2.98],[97.5835,2.9785],[97.572,2.973],[97.5615,2.9755],[97.5565,2.9755],[97.5395,2.9725],[97.5475,2.929],[97.553,2.9375],[97.5555,2.9365],[97.579,2.9375],[97.5835,2.931],[97.595,2.9325],[97.5965,2.935],[97.6,2.936],[97.6,2.9385],[97.6015,2.9455],[97.6025,2.948],[97.611,2.955],[97.613,2.965],[97.6265,2.9605],[97.6355,2.963],[97.6345,2.967],[97.633,2.9865],[97.6335,2.9895]]]},"properties":{"code":"11.01.17.2004","name":"Seuneubok Alur Buloh"}},{"type":"Feature","geometry":{"type":"Polygon","coordinates":[[[97.554,2.9815],[97.5525,2.9805],[97.551,2.981],[97.543,2.98],[97.5395,2.981],[97.5385,2.9805],[97.538,2.98],[97.5385,2.9775],[97.5395,2.9725],[97.5565,2.9755],[97.559,2.976],[97.554,2.9815]]]},"properties":{"code":"11.01.17.2005","name":"Ujong Tanoh"}},{"type":"Feature","geometry":{"type":"Polygon","coordinates":[[[97.5395,2.9725],[97.5385,2.9775],[97.538,2.98],[97.5375,2.979],[97.5365,2.9785],[97.535,2.9785],[97.534,2.979],[97.5335,2.9785],[97.532,2.9795],[97.5325,2.9785],[97.532,2.978],[97.532,2.9765],[97.5315,2.975],[97.531,2.973],[97.53,2.972],[97.5305,2.973],[97.5275,2.971],[97.5265,2.97],[97.526,2.971],[97.526,2.9695],[97.52,2.9665],[97.52,2.961],[97.52,2.9605],[97.519,2.9595],[97.51,2.962],[97.5105,2.961],[97.51,2.958],[97.5085,2.953],[97.5025,2.94],[97.5105,2.933],[97.51,2.9225],[97.524,2.9165],[97.532,2.921],[97.5475,2.929],[97.5395,2.9725]]]},"properties":{"code":"11.01.17.2006","name":"Ujong Gunong Cut"}},{"type":"Feature","geometry":{"type":"Polygon","coordinates":[[[97.533,2.9795],[97.5325,2.982],[97.5385,2.9895],[97.5345,3.0055],[97.527,2.9955],[97.527,2.9945],[97.526,2.989],[97.526,2.988],[97.528,2.9755],[97.5265,2.971],[97.526,2.971],[97.5265,2.97],[97.527,2.97],[97.5275,2.971],[97.5305,2.973],[97.53,2.972],[97.531,2.973],[97.5315,2.975],[97.532,2.9765],[97.532,2.978],[97.5325,2.9785],[97.532,2.9795],[97.533,2.9795]]]},"properties":{"code":"11.01.17.2007","name":"Ujong Gunung Rayeuk"}},{"type":"Feature","geometry":{"type":"Polygon","coordinates":[[[97.558,3.0715],[97.5565,3.0705],[97.555,3.07],[97.55,3.07],[97.5475,3.071],[97.5445,3.072],[97.538,3.068],[97.5285,3.062],[97.525,3.061],[97.519,3.0575],[97.518,3.053],[97.518,3.0525],[97.5235,3.04],[97.5385,3.0285],[97.5345,3.0055],[97.5385,2.9895],[97.5325,2.982],[97.533,2.9795],[97.5335,2.9785],[97.534,2.979],[97.535,2.9785],[97.5365,2.9785],[97.5375,2.979],[97.5385,2.9805],[97.5395,2.981],[97.543,2.98],[97.5445,2.98],[97.5455,2.9985],[97.5435,3.005],[97.545,3.0155],[97.5575,3.0275],[97.553,3.0315],[97.551,3.0345],[97.553,3.0425],[97.556,3.048],[97.5595,3.051],[97.5635,3.0555],[97.564,3.056],[97.564,3.061],[97.5625,3.0655],[97.558,3.069],[97.558,3.0705],[97.558,3.0715]]]},"properties":{"code":"11.01.17.2008","name":"Beutong"}},{"type":"Feature","geometry":{"type":"Polygon","coordinates":[[[97.6135,3.095],[97.604,3.1085],[97.5805,3.1245],[97.5725,3.107],[97.557,3.0955],[97.5555,3.096],[97.556,3.095],[97.557,3.094],[97.5645,3.091],[97.57,3.0915],[97.576,3.082],[97.565,3.0755],[97.56,3.074],[97.558,3.0715],[97.558,3.0705],[97.558,3.069],[97.5625,3.0655],[97.564,3.061],[97.564,3.056],[97.5635,3.0555],[97.5595,3.051],[97.556,3.048],[97.553,3.0425],[97.551,3.0345],[97.553,3.0315],[97.5575,3.0275],[97.545,3.0155],[97.5435,3.005],[97.5455,2.9985],[97.5445,2.98],[97.551,2.981],[97.5525,2.9805],[97.554,2.9815],[97.557,2.984],[97.563,2.994],[97.565,2.9945],[97.5865,3.0105],[97.618,3.0415],[97.619,3.0525],[97.627,3.06],[97.629,3.059],[97.6295,3.0575],[97.63,3.0565],[97.6265,3.0655],[97.6235,3.072],[97.6135,3.095]]]},"properties":{"code":"11.01.17.2009","name":"Jambo Keupok"}},{"type":"Feature","geometry":{"type":"Polygon","coordinates":[[[97.63,3.0565],[97.6295,3.0575],[97.629,3.059],[97.627,3.06],[97.619,3.0525],[97.618,3.0415],[97.5865,3.0105],[97.565,2.9945],[97.563,2.994],[97.557,2.984],[97.554,2.9815],[97.559,2.976],[97.5615,2.9755],[97.572,2.973],[97.5835,2.9785],[97.6035,2.98],[97.6065,2.983],[97.622,2.986],[97.6295,2.9915],[97.631,2.9905],[97.6335,2.9895],[97.6335,2.9925],[97.6345,3.015],[97.6425,3.0245],[97.643,3.03],[97.6335,3.0475],[97.63,3.0565]]]},"properties":{"code":"11.01.17.2010","name":"Alurduamas"}},{"type":"Feature","geometry":{"type":"Polygon","coordinates":[[[97.6585,2.947],[97.657,2.9475],[97.6515,2.949],[97.6355,2.9305],[97.6345,2.917],[97.643,2.9],[97.6375,2.8915],[97.639,2.891],[97.639,2.8865],[97.6375,2.8825],[97.654,2.879],[97.655,2.881],[97.655,2.9025],[97.6545,2.905],[97.654,2.907],[97.6545,2.909],[97.661,2.9275],[97.6585,2.939],[97.662,2.941],[97.662,2.944],[97.6585,2.947]]]},"properties":{"code":"11.01.18.2001","name":"Ladang Rimba"}},{"type":"Feature","geometry":{"type":"Polygon","coordinates":[[[97.6145,2.884],[97.613,2.888],[97.612,2.895],[97.61,2.9035],[97.61,2.9065],[97.611,2.921],[97.611,2.922],[97.6055,2.9195],[97.5935,2.8975],[97.592,2.8965],[97.5955,2.8935],[97.597,2.887],[97.599,2.886],[97.6145,2.884]]]},"properties":{"code":"11.01.18.2002","name":"Gunong Kapho"}},{"type":"Feature","geometry":{"type":"Polygon","coordinates":[[[97.6265,2.9605],[97.613,2.965],[97.611,2.955],[97.6025,2.948],[97.6015,2.9455],[97.6,2.9385],[97.6005,2.9355],[97.6,2.9335],[97.6005,2.9325],[97.6025,2.9295],[97.611,2.926],[97.611,2.921],[97.61,2.9065],[97.61,2.9035],[97.612,2.895],[97.613,2.888],[97.6145,2.884],[97.6155,2.8835],[97.619,2.8835],[97.617,2.912],[97.618,2.916],[97.627,2.9315],[97.632,2.9405],[97.6335,2.9555],[97.6265,2.9605]]]},"properties":{"code":"11.01.18.2003","name":"Kampong Teungoh"}},{"type":"Feature","geometry":{"type":"Polygon","coordinates":[[[97.627,2.8855],[97.6255,2.9],[97.63,2.91],[97.6255,2.9225],[97.626,2.926],[97.627,2.9315],[97.618,2.916],[97.617,2.912],[97.619,2.8835],[97.627,2.8855]]]},"properties":{"code":"11.01.18.2004","name":"Krueng Batee"}},{"type":"Feature","geometry":{"type":"Polygon","coordinates":[[[97.6355,2.963],[97.6265,2.9605],[97.6335,2.9555],[97.632,2.9405],[97.627,2.9315],[97.626,2.926],[97.6255,2.9225],[97.63,2.91],[97.6255,2.9],[97.627,2.8855],[97.629,2.886],[97.63,2.8865],[97.639,2.889],[97.6375,2.8915],[97.643,2.9],[97.6345,2.917],[97.6355,2.9305],[97.6515,2.949],[97.648,2.95],[97.6405,2.9535],[97.638,2.9565],[97.6375,2.958],[97.6355,2.963]]]},"properties":{"code":"11.01.18.2005","name":"Pulo Paya"}},{"type":"Feature","geometry":{"type":"Polygon","coordinates":[[[97.6785,2.9445],[97.6745,2.9455],[97.6585,2.947],[97.662,2.944],[97.662,2.941],[97.6585,2.939],[97.661,2.9275],[97.6545,2.909],[97.654,2.907],[97.6545,2.905],[97.655,2.9025],[97.655,2.881],[97.654,2.879],[97.6575,2.878],[97.6675,2.8825],[97.665,2.893],[97.6675,2.9295],[97.6785,2.9445]]]},"properties":{"code":"11.01.18.2006","name":"Jambo Papeun"}},{"type":"Feature","geometry":{"type":"Polygon","coordinates":[[[97.6855,2.8835],[97.685,2.8835],[97.6805,2.8855],[97.68,2.8855],[97.6755,2.8835],[97.675,2.883],[97.671,2.8825],[97.6675,2.8825],[97.6575,2.878],[97.666,2.859],[97.6705,2.8575],[97.673,2.858],[97.6835,2.872],[97.684,2.875],[97.6855,2.8835]]]},"properties":{"code":"11.01.18.2007","name":"Cot Bayu"}},{"type":"Feature","geometry":{"type":"Polygon","coordinates":[[[97.6975,2.941],[97.6935,2.942],[97.6885,2.9425],[97.6785,2.9445],[97.6675,2.9295],[97.665,2.893],[97.6675,2.8825],[97.671,2.8825],[97.675,2.883],[97.6755,2.8835],[97.68,2.8855],[97.6805,2.8855],[97.685,2.8835],[97.6855,2.8835],[97.686,2.885],[97.687,2.886],[97.686,2.887],[97.6865,2.8875],[97.687,2.8885],[97.6865,2.8915],[97.687,2.8935],[97.6835,2.8995],[97.692,2.9125],[97.69,2.9325],[97.689,2.935],[97.693,2.936],[97.6955,2.939],[97.6965,2.9395],[97.6975,2.941]]]},"properties":{"code":"11.01.18.2008","name":"Naca"}},{"type":"Feature","geometry":{"type":"Polygon","coordinates":[[[97.716,2.9355],[97.712,2.9365],[97.7025,2.9395],[97.6975,2.941],[97.6965,2.9395],[97.6955,2.939],[97.693,2.936],[97.689,2.935],[97.69,2.9325],[97.692,2.9125],[97.6835,2.8995],[97.687,2.8935],[97.6865,2.8915],[97.687,2.8885],[97.6865,2.8875],[97.686,2.887],[97.687,2.886],[97.686,2.885],[97.6855,2.8835],[97.684,2.875],[97.684,2.874],[97.696,2.8735],[97.7005,2.873],[97.704,2.874],[97.711,2.872],[97.7125,2.875],[97.7165,2.8945],[97.7115,2.9],[97.7105,2.9225],[97.716,2.9355]]]},"properties":{"code":"11.01.18.2009","name":"Ie Jeureuneh"}},{"type":"Feature","geometry":{"type":"Polygon","coordinates":[[[97.711,2.872],[97.704,2.874],[97.7005,2.873],[97.696,2.8735],[97.684,2.874],[97.6835,2.872],[97.673,2.858],[97.67,2.857],[97.681,2.8425],[97.7015,2.8325],[97.7095,2.8235],[97.712,2.8445],[97.712,2.863],[97.711,2.866],[97.711,2.872]]]},"properties":{"code":"11.01.18.2010","name":"Lhok Raya"}}]}