{"type":"FeatureCollection","features":[{"type":"Feature","geometry":{"type":"Polygon","coordinates":[[[95.8185,4.4465],[95.8135,4.448],[95.813,4.4485],[95.812,4.4465],[95.813,4.445],[95.8145,4.4465],[95.816,4.445],[95.8185,4.4465]]]},"properties":{"code":"11.14.01.2001","name":"Keude Teunom"}},{"type":"Feature","geometry":{"type":"Polygon","coordinates":[[[95.806,4.454],[95.7995,4.453],[95.7905,4.4625],[95.783,4.4695],[95.7815,4.471],[95.7805,4.4725],[95.777,4.4695],[95.8055,4.4335],[95.8115,4.4435],[95.813,4.445],[95.812,4.4465],[95.813,4.4485],[95.8095,4.4515],[95.806,4.454]]]},"properties":{"code":"11.14.01.2002","name":"Alue Ambang"}},{"type":"Feature","geometry":{"type":"Polygon","coordinates":[[[95.813,4.4555],[95.8115,4.456],[95.8085,4.456],[95.806,4.454],[95.8095,4.4515],[95.8135,4.448],[95.8185,4.4465],[95.8235,4.447],[95.826,4.448],[95.813,4.4555]]]},"properties":{"code":"11.14.01.2003","name":"Padang Kleng"}},{"type":"Feature","geometry":{"type":"Polygon","coordinates":[[[95.816,4.445],[95.8145,4.4465],[95.8115,4.4435],[95.8055,4.4335],[95.8095,4.4295],[95.8205,4.4385],[95.816,4.445]]]},"properties":{"code":"11.14.01.2004","name":"Panton"}},{"type":"Feature","geometry":{"type":"Polygon","coordinates":[[[95.8285,4.4475],[95.828,4.449],[95.8265,4.448],[95.8235,4.447],[95.8185,4.4465],[95.816,4.445],[95.8205,4.4385],[95.8095,4.4295],[95.81,4.429],[95.821,4.434],[95.8235,4.4345],[95.824,4.437],[95.823,4.441],[95.8275,4.4445],[95.8285,4.4475]]]},"properties":{"code":"11.14.01.2005","name":"Pasi Tulak Bala"}},{"type":"Feature","geometry":{"type":"Polygon","coordinates":[[[95.8305,4.437],[95.8275,4.4445],[95.823,4.441],[95.824,4.437],[95.8235,4.4345],[95.825,4.4345],[95.8305,4.437]]]},"properties":{"code":"11.14.01.2006","name":"Gampong Baro"}},{"type":"Feature","geometry":{"type":"Polygon","coordinates":[[[95.835,4.447],[95.8285,4.4475],[95.8275,4.4445],[95.8305,4.437],[95.8325,4.4375],[95.8355,4.442],[95.835,4.447]]]},"properties":{"code":"11.14.01.2007","name":"Rambong Payong"}},{"type":"Feature","geometry":{"type":"Polygon","coordinates":[[[95.8495,4.44],[95.848,4.4415],[95.8355,4.442],[95.8325,4.4375],[95.8365,4.438],[95.8375,4.438],[95.843,4.4355],[95.8485,4.435],[95.85,4.437],[95.85,4.438],[95.8495,4.439],[95.8495,4.44]]]},"properties":{"code":"11.14.01.2008","name":"Pasi Pawang"}},{"type":"Feature","geometry":{"type":"Polygon","coordinates":[[[95.8435,4.4565],[95.8345,4.463],[95.8325,4.4585],[95.83,4.45],[95.828,4.449],[95.8285,4.4475],[95.835,4.447],[95.842,4.4555],[95.8435,4.4565]]]},"properties":{"code":"11.14.01.2009","name":"Blang Baro"}},{"type":"Feature","geometry":{"type":"Polygon","coordinates":[[[95.835,4.5005],[95.824,4.509],[95.8205,4.5045],[95.8205,4.4975],[95.8205,4.4805],[95.819,4.48],[95.82,4.4745],[95.819,4.474],[95.817,4.4705],[95.815,4.4675],[95.8155,4.462],[95.8145,4.4595],[95.813,4.4555],[95.826,4.448],[95.8265,4.448],[95.83,4.45],[95.8325,4.4585],[95.838,4.471],[95.843,4.4815],[95.844,4.4895],[95.835,4.5],[95.835,4.5005]]]},"properties":{"code":"11.14.01.2010","name":"Tanoh Anoe"}},{"type":"Feature","geometry":{"type":"Polygon","coordinates":[[[95.824,4.509],[95.8285,4.517],[95.82,4.5295],[95.815,4.518],[95.81,4.5055],[95.805,4.499],[95.786,4.4765],[95.7805,4.4725],[95.7815,4.471],[95.783,4.4695],[95.7905,4.4625],[95.7995,4.453],[95.806,4.454],[95.8085,4.456],[95.8115,4.456],[95.813,4.4555],[95.8145,4.4595],[95.8155,4.462],[95.815,4.4675],[95.817,4.4705],[95.819,4.474],[95.82,4.4745],[95.819,4.48],[95.8205,4.4805],[95.8205,4.4975],[95.8205,4.5045],[95.824,4.509]]]},"properties":{"code":"11.14.01.2011","name":"Tanoh Manyang"}},{"type":"Feature","geometry":{"type":"Polygon","coordinates":[[[95.8245,4.536],[95.817,4.537],[95.809,4.525],[95.8025,4.5215],[95.8015,4.518],[95.801,4.509],[95.8015,4.5045],[95.7985,4.5015],[95.7765,4.494],[95.767,4.48],[95.777,4.4695],[95.7805,4.472],[95.786,4.4765],[95.805,4.499],[95.81,4.5055],[95.815,4.518],[95.82,4.5295],[95.8245,4.536]]]},"properties":{"code":"11.14.01.2012","name":"Batee Roo"}},{"type":"Feature","geometry":{"type":"Polygon","coordinates":[[[95.817,4.537],[95.8135,4.538],[95.8095,4.543],[95.788,4.5115],[95.773,4.509],[95.7715,4.4965],[95.765,4.482],[95.767,4.48],[95.7765,4.494],[95.7985,4.5015],[95.8015,4.5045],[95.801,4.509],[95.8015,4.518],[95.8025,4.5215],[95.809,4.525],[95.817,4.537]]]},"properties":{"code":"11.14.01.2013","name":"Seuneubok Padang"}},{"type":"Feature","geometry":{"type":"Polygon","coordinates":[[[95.868,4.544],[95.862,4.5465],[95.8595,4.547],[95.857,4.5435],[95.855,4.5415],[95.8485,4.5375],[95.8295,4.5355],[95.8245,4.536],[95.82,4.5295],[95.8285,4.517],[95.824,4.509],[95.835,4.5005],[95.837,4.5015],[95.8395,4.506],[95.842,4.5085],[95.841,4.5105],[95.8405,4.5115],[95.8415,4.513],[95.85,4.5145],[95.8505,4.5165],[95.8505,4.52],[95.8515,4.5235],[95.8545,4.524],[95.8545,4.525],[95.855,4.5265],[95.868,4.544]]]},"properties":{"code":"11.14.01.2014","name":"Seumira"}},{"type":"Feature","geometry":{"type":"Polygon","coordinates":[[[95.8595,4.547],[95.852,4.547],[95.84,4.5475],[95.8295,4.5535],[95.818,4.567],[95.811,4.5555],[95.811,4.5525],[95.8095,4.5505],[95.8085,4.5455],[95.8095,4.543],[95.8135,4.538],[95.8295,4.5355],[95.8485,4.5375],[95.855,4.5415],[95.857,4.5435],[95.8595,4.547]]]},"properties":{"code":"11.14.01.2015","name":"Kubu"}},{"type":"Feature","geometry":{"type":"Polygon","coordinates":[[[95.895,4.623],[95.8735,4.6265],[95.871,4.625],[95.86,4.62],[95.8575,4.6105],[95.8445,4.5975],[95.8415,4.598],[95.8205,4.57],[95.8195,4.5675],[95.818,4.567],[95.8295,4.5535],[95.84,4.5475],[95.852,4.547],[95.8605,4.547],[95.862,4.5465],[95.868,4.544],[95.872,4.546],[95.8725,4.5465],[95.876,4.565],[95.8785,4.5735],[95.881,4.583],[95.884,4.594],[95.885,4.6015],[95.887,4.603],[95.895,4.623]]]},"properties":{"code":"11.14.01.2016","name":"Alue Meuraksa"}},{"type":"Feature","geometry":{"type":"Polygon","coordinates":[[[95.8435,4.428],[95.8305,4.437],[95.825,4.4345],[95.824,4.4345],[95.821,4.434],[95.81,4.429],[95.8255,4.417],[95.8435,4.428]]]},"properties":{"code":"11.14.01.2017","name":"Paya Baro"}},{"type":"Feature","geometry":{"type":"Polygon","coordinates":[[[95.849,4.434],[95.85,4.435],[95.852,4.4365],[95.85,4.439],[95.8495,4.44],[95.8495,4.439],[95.85,4.438],[95.85,4.437],[95.8485,4.435],[95.843,4.4355],[95.8375,4.438],[95.8365,4.438],[95.8305,4.437],[95.8435,4.428],[95.849,4.434]]]},"properties":{"code":"11.14.01.2018","name":"Teupin Ara"}},{"type":"Feature","geometry":{"type":"Polygon","coordinates":[[[95.862,4.432],[95.8585,4.4335],[95.849,4.434],[95.8435,4.428],[95.8255,4.417],[95.834,4.4095],[95.8365,4.4105],[95.8425,4.411],[95.8505,4.421],[95.8615,4.426],[95.862,4.43],[95.862,4.431],[95.862,4.432]]]},"properties":{"code":"11.14.01.2019","name":"Cot Trap"}},{"type":"Feature","geometry":{"type":"Polygon","coordinates":[[[95.9125,4.424],[95.9065,4.4265],[95.8745,4.4265],[95.8705,4.427],[95.8675,4.4285],[95.864,4.4315],[95.862,4.432],[95.862,4.431],[95.862,4.43],[95.8615,4.426],[95.8505,4.421],[95.8425,4.411],[95.8365,4.4105],[95.834,4.4095],[95.8765,4.37],[95.88,4.384],[95.8875,4.3955],[95.902,4.4085],[95.9125,4.424]]]},"properties":{"code":"11.14.01.2020","name":"Leung Gayo"}},{"type":"Feature","geometry":{"type":"Polygon","coordinates":[[[95.848,4.451],[95.8435,4.4565],[95.842,4.4555],[95.835,4.447],[95.8355,4.442],[95.848,4.4415],[95.849,4.4405],[95.85,4.439],[95.852,4.4365],[95.85,4.435],[95.849,4.434],[95.8585,4.4335],[95.864,4.4315],[95.8675,4.4285],[95.8705,4.427],[95.8745,4.4265],[95.9065,4.4265],[95.9125,4.424],[95.9275,4.446],[95.9175,4.4425],[95.897,4.4435],[95.883,4.436],[95.861,4.437],[95.861,4.4545],[95.859,4.4545],[95.8565,4.4545],[95.85,4.451],[95.848,4.451]]]},"properties":{"code":"11.14.01.2021","name":"Pasi Geulima"}},{"type":"Feature","geometry":{"type":"Polygon","coordinates":[[[95.9455,4.4875],[95.923,4.498],[95.9185,4.4985],[95.916,4.4945],[95.913,4.4905],[95.8985,4.4795],[95.886,4.489],[95.8785,4.483],[95.878,4.4845],[95.8775,4.485],[95.874,4.484],[95.8725,4.483],[95.8705,4.475],[95.8705,4.472],[95.8665,4.4535],[95.861,4.4545],[95.861,4.437],[95.883,4.436],[95.897,4.4435],[95.9175,4.4425],[95.9275,4.446],[95.9445,4.486],[95.9455,4.4875]]]},"properties":{"code":"11.14.01.2022","name":"Pasi Timon"}},{"type":"Feature","geometry":{"type":"Polygon","coordinates":[[[95.584,4.633],[95.575,4.635],[95.574,4.633],[95.5795,4.63],[95.5835,4.632],[95.584,4.633]]]},"properties":{"code":"11.14.02.2001","name":"Bahagia"}},{"type":"Feature","geometry":{"type":"Polygon","coordinates":[[[95.574,4.633],[95.572,4.628],[95.576,4.6245],[95.5795,4.63],[95.574,4.633]]]},"properties":{"code":"11.14.02.2002","name":"Sentosa"}},{"type":"Feature","geometry":{"type":"Polygon","coordinates":[[[95.5955,4.6375],[95.5845,4.6375],[95.584,4.633],[95.5835,4.632],[95.592,4.6295],[95.594,4.6345],[95.5955,4.6375]]]},"properties":{"code":"11.14.02.2003","name":"Dayah Baro"}},{"type":"Feature","geometry":{"type":"Polygon","coordinates":[[[95.596,4.6375],[95.605,4.6465],[95.5815,4.641],[95.575,4.635],[95.584,4.633],[95.5845,4.6375],[95.5955,4.6375],[95.596,4.6375]]]},"properties":{"code":"11.14.02.2004","name":"Gampong Blang"}},{"type":"Feature","geometry":{"type":"Polygon","coordinates":[[[95.6225,4.6485],[95.626,4.6625],[95.6125,4.654],[95.6115,4.6505],[95.6075,4.652],[95.6055,4.6515],[95.6055,4.649],[95.605,4.6465],[95.596,4.6375],[95.594,4.6345],[95.592,4.6295],[95.6155,4.614],[95.6195,4.615],[95.62,4.617],[95.624,4.6305],[95.6195,4.639],[95.6225,4.6485]]]},"properties":{"code":"11.14.02.2005","name":"Keutapang"}},{"type":"Feature","geometry":{"type":"Polygon","coordinates":[[[95.604,4.654],[95.5845,4.6545],[95.5815,4.641],[95.605,4.6465],[95.6055,4.649],[95.6055,4.6515],[95.606,4.653],[95.604,4.654]]]},"properties":{"code":"11.14.02.2006","name":"Panton Makmur"}},{"type":"Feature","geometry":{"type":"Polygon","coordinates":[[[95.6595,4.603],[95.647,4.611],[95.6435,4.6055],[95.6425,4.5885],[95.646,4.5855],[95.6565,4.6],[95.6595,4.603]]]},"properties":{"code":"11.14.02.2007","name":"Keude Krueng Sabee"}},{"type":"Feature","geometry":{"type":"Polygon","coordinates":[[[95.6935,4.607],[95.678,4.6105],[95.678,4.6125],[95.6635,4.607],[95.6625,4.6075],[95.662,4.6055],[95.6565,4.6],[95.646,4.5855],[95.6745,4.5645],[95.6925,4.585],[95.6925,4.604],[95.693,4.606],[95.6935,4.607]]]},"properties":{"code":"11.14.02.2008","name":"Kabong"}},{"type":"Feature","geometry":{"type":"Polygon","coordinates":[[[95.6435,4.6275],[95.64,4.6415],[95.627,4.641],[95.6225,4.6485],[95.6195,4.639],[95.624,4.6305],[95.62,4.617],[95.6195,4.615],[95.6155,4.614],[95.628,4.6025],[95.638,4.614],[95.6435,4.6275]]]},"properties":{"code":"11.14.02.2009","name":"Padang Datar"}},{"type":"Feature","geometry":{"type":"Polygon","coordinates":[[[95.6625,4.6075],[95.661,4.608],[95.6535,4.615],[95.6515,4.6155],[95.6495,4.616],[95.648,4.615],[95.6475,4.6115],[95.647,4.611],[95.6595,4.603],[95.662,4.6055],[95.6625,4.6075]]]},"properties":{"code":"11.14.02.2010","name":"Datar Luas"}},{"type":"Feature","geometry":{"type":"Polygon","coordinates":[[[95.678,4.6505],[95.6705,4.6545],[95.658,4.6515],[95.6455,4.6685],[95.6395,4.6695],[95.6335,4.6735],[95.6325,4.67],[95.626,4.6625],[95.6225,4.6485],[95.627,4.641],[95.64,4.6415],[95.6435,4.6275],[95.6555,4.6265],[95.676,4.6355],[95.675,4.648],[95.678,4.6505]]]},"properties":{"code":"11.14.02.2011","name":"Ranto Panyang"}},{"type":"Feature","geometry":{"type":"Polygon","coordinates":[[[95.699,4.6655],[95.684,4.6725],[95.6765,4.6685],[95.6605,4.6745],[95.6585,4.676],[95.641,4.6835],[95.639,4.682],[95.637,4.679],[95.6335,4.6735],[95.6395,4.6695],[95.6455,4.6685],[95.658,4.6515],[95.6705,4.6545],[95.678,4.6505],[95.6785,4.651],[95.699,4.653],[95.6995,4.6545],[95.699,4.6655]]]},"properties":{"code":"11.14.02.2012","name":"Buntha"}},{"type":"Feature","geometry":{"type":"Polygon","coordinates":[[[95.699,4.6655],[95.7085,4.6725],[95.708,4.6925],[95.7035,4.701],[95.7095,4.7065],[95.728,4.7235],[95.737,4.727],[95.7495,4.7405],[95.758,4.767],[95.7685,4.779],[95.7755,4.8105],[95.7765,4.8105],[95.7775,4.8105],[95.783,4.817],[95.7835,4.8165],[95.783,4.819],[95.783,4.8205],[95.7865,4.827],[95.786,4.8285],[95.782,4.8295],[95.7815,4.8305],[95.781,4.8325],[95.7765,4.8315],[95.7755,4.832],[95.7765,4.836],[95.7795,4.8375],[95.785,4.844],[95.8015,4.8505],[95.794,4.86],[95.799,4.876],[95.7985,4.8895],[95.808,4.905],[95.8095,4.914],[95.801,4.931],[95.8005,4.9335],[95.8,4.9355],[95.8,4.9375],[95.798,4.941],[95.787,4.9445],[95.7865,4.94],[95.76,4.9285],[95.751,4.9125],[95.7475,4.91],[95.733,4.911],[95.7195,4.901],[95.728,4.8905],[95.737,4.888],[95.7365,4.8715],[95.7225,4.86],[95.7195,4.857],[95.7175,4.8525],[95.725,4.8355],[95.7255,4.824],[95.7165,4.8155],[95.7195,4.796],[95.702,4.789],[95.6895,4.7605],[95.689,4.7595],[95.692,4.754],[95.6915,4.752],[95.6745,4.7185],[95.6635,4.712],[95.642,4.685],[95.641,4.6835],[95.6585,4.676],[95.6605,4.6745],[95.6765,4.6685],[95.684,4.6725],[95.699,4.6655]]]},"properties":{"code":"11.14.02.2013","name":"Panggong"}},{"type":"Feature","geometry":{"type":"Polygon","coordinates":[[[95.8335,4.9645],[95.8245,4.9735],[95.8205,4.976],[95.8075,4.972],[95.7915,4.9585],[95.787,4.9445],[95.798,4.941],[95.8,4.9375],[95.8,4.9355],[95.8005,4.9335],[95.801,4.931],[95.8095,4.914],[95.808,4.905],[95.7985,4.8895],[95.799,4.876],[95.794,4.86],[95.8015,4.8505],[95.785,4.844],[95.7795,4.8375],[95.7765,4.836],[95.7755,4.832],[95.7765,4.8315],[95.781,4.8325],[95.7815,4.8305],[95.782,4.8295],[95.786,4.8285],[95.7865,4.827],[95.783,4.8205],[95.783,4.819],[95.7835,4.8165],[95.783,4.817],[95.7775,4.8105],[95.7765,4.8105],[95.7755,4.8105],[95.7685,4.779],[95.758,4.767],[95.7495,4.7405],[95.737,4.727],[95.728,4.7235],[95.7095,4.7065],[95.7035,4.701],[95.708,4.6925],[95.7085,4.6725],[95.699,4.6655],[95.6995,4.6545],[95.699,4.653],[95.6785,4.651],[95.675,4.648],[95.676,4.6355],[95.675,4.6215],[95.687,4.621],[95.7045,4.6245],[95.712,4.6325],[95.7195,4.668],[95.726,4.68],[95.738,4.6865],[95.7455,4.6835],[95.753,4.6945],[95.7595,4.6945],[95.765,4.7045],[95.786,4.708],[95.8095,4.7265],[95.812,4.731],[95.8325,4.7385],[95.835,4.7395],[95.853,4.7355],[95.8535,4.741],[95.8695,4.753],[95.879,4.7505],[95.9245,4.752],[95.9305,4.75],[95.968,4.7545],[95.9945,4.7555],[95.992,4.786],[95.982,4.7945],[95.9795,4.7965],[95.9715,4.8135],[95.963,4.8195],[95.954,4.8325],[95.9495,4.8365],[95.927,4.8475],[95.9015,4.868],[95.8935,4.8805],[95.887,4.891],[95.882,4.915],[95.855,4.93],[95.847,4.9545],[95.8425,4.956],[95.841,4.957],[95.835,4.9625],[95.8335,4.9645]]]},"properties":{"code":"11.14.02.2014","name":"Curek"}},{"type":"Feature","geometry":{"type":"Polygon","coordinates":[[[95.6935,4.607],[95.6975,4.611],[95.7045,4.6245],[95.687,4.621],[95.675,4.6215],[95.6785,4.617],[95.679,4.6155],[95.679,4.6145],[95.678,4.6105],[95.6935,4.607]]]},"properties":{"code":"11.14.02.2015","name":"Alue Tho"}},{"type":"Feature","geometry":{"type":"Polygon","coordinates":[[[95.6555,4.6265],[95.6435,4.6275],[95.638,4.614],[95.628,4.6025],[95.6425,4.5885],[95.6435,4.6055],[95.6475,4.6115],[95.648,4.615],[95.651,4.617],[95.6555,4.6265]]]},"properties":{"code":"11.14.02.2016","name":"Mon Mata"}},{"type":"Feature","geometry":{"type":"Polygon","coordinates":[[[95.675,4.6215],[95.676,4.6355],[95.6555,4.6265],[95.651,4.617],[95.6495,4.616],[95.6515,4.6155],[95.6535,4.615],[95.661,4.608],[95.6635,4.607],[95.678,4.6125],[95.679,4.6145],[95.679,4.6155],[95.6785,4.617],[95.675,4.6215]]]},"properties":{"code":"11.14.02.2017","name":"Paya Seumantok"}},{"type":"Feature","geometry":{"type":"Polygon","coordinates":[[[95.533,4.729],[95.5255,4.7315],[95.5265,4.744],[95.5185,4.7555],[95.518,4.7585],[95.517,4.7695],[95.5145,4.7765],[95.5215,4.7925],[95.5155,4.79],[95.5085,4.7845],[95.4975,4.7765],[95.49,4.7665],[95.4875,4.766],[95.486,4.765],[95.4825,4.761],[95.4925,4.751],[95.513,4.7185],[95.528,4.72],[95.533,4.729]]]},"properties":{"code":"11.14.03.2001","name":"Sawang"}},{"type":"Feature","geometry":{"type":"Polygon","coordinates":[[[95.6045,4.753],[95.594,4.7515],[95.588,4.759],[95.583,4.7585],[95.5825,4.759],[95.582,4.754],[95.581,4.7535],[95.58,4.754],[95.5775,4.7535],[95.5775,4.7515],[95.5765,4.7485],[95.5735,4.7435],[95.5735,4.742],[95.5665,4.733],[95.565,4.73],[95.5645,4.729],[95.564,4.7265],[95.5615,4.7265],[95.5595,4.7255],[95.5585,4.7255],[95.557,4.725],[95.556,4.725],[95.556,4.7265],[95.555,4.728],[95.5515,4.729],[95.5355,4.7295],[95.533,4.729],[95.528,4.72],[95.513,4.7185],[95.512,4.7035],[95.533,4.6845],[95.5375,4.672],[95.5385,4.6795],[95.5385,4.6805],[95.541,4.6815],[95.5505,4.69],[95.5505,4.693],[95.5555,4.7055],[95.573,4.706],[95.581,4.7115],[95.6025,4.7055],[95.602,4.7155],[95.6095,4.731],[95.6095,4.743],[95.6165,4.7515],[95.61,4.7535],[95.6045,4.753]]]},"properties":{"code":"11.14.03.2002","name":"Lhok Geulumpang"}},{"type":"Feature","geometry":{"type":"Polygon","coordinates":[[[95.531,4.767],[95.517,4.7695],[95.518,4.7585],[95.5185,4.7555],[95.5265,4.744],[95.5255,4.7315],[95.533,4.729],[95.537,4.737],[95.531,4.767]]]},"properties":{"code":"11.14.03.2003","name":"Padang"}},{"type":"Feature","geometry":{"type":"Polygon","coordinates":[[[95.5605,4.7755],[95.5575,4.776],[95.5475,4.767],[95.531,4.767],[95.537,4.737],[95.533,4.729],[95.5355,4.7295],[95.5515,4.729],[95.555,4.728],[95.556,4.7265],[95.556,4.725],[95.557,4.725],[95.5585,4.7255],[95.5595,4.7255],[95.5615,4.7265],[95.564,4.7265],[95.5645,4.729],[95.565,4.73],[95.5665,4.733],[95.5735,4.742],[95.5735,4.7435],[95.5765,4.7485],[95.5775,4.7515],[95.5775,4.7535],[95.5775,4.754],[95.5595,4.768],[95.5595,4.7755],[95.5605,4.7755]]]},"properties":{"code":"11.14.03.2004","name":"Gunong Meunasah"}},{"type":"Feature","geometry":{"type":"Polygon","coordinates":[[[95.58,4.767],[95.5835,4.775],[95.5675,4.789],[95.5665,4.7885],[95.566,4.7875],[95.563,4.781],[95.563,4.7795],[95.564,4.776],[95.5635,4.7755],[95.5595,4.7755],[95.5595,4.768],[95.5775,4.754],[95.58,4.754],[95.581,4.7535],[95.582,4.754],[95.5825,4.759],[95.58,4.767]]]},"properties":{"code":"11.14.03.2005","name":"Sapek"}},{"type":"Feature","geometry":{"type":"Polygon","coordinates":[[[95.665,4.906],[95.6655,4.902],[95.665,4.9005],[95.6605,4.8945],[95.658,4.896],[95.6515,4.9015],[95.651,4.9025],[95.6475,4.9045],[95.64,4.9075],[95.6375,4.907],[95.628,4.8985],[95.6125,4.8945],[95.6125,4.8855],[95.602,4.8785],[95.599,4.87],[95.587,4.8645],[95.597,4.8485],[95.5965,4.8375],[95.606,4.829],[95.606,4.8215],[95.5885,4.8195],[95.5885,4.8075],[95.582,4.8035],[95.579,4.8005],[95.5755,4.797],[95.571,4.795],[95.57,4.7945],[95.5695,4.7925],[95.5695,4.7905],[95.5685,4.7895],[95.5675,4.789],[95.5835,4.775],[95.58,4.767],[95.5825,4.768],[95.5835,4.768],[95.5855,4.766],[95.5915,4.773],[95.593,4.77],[95.5945,4.769],[95.5955,4.7685],[95.5955,4.7695],[95.5955,4.7715],[95.596,4.773],[95.595,4.781],[95.613,4.7875],[95.623,4.788],[95.631,4.795],[95.632,4.7975],[95.6345,4.7975],[95.636,4.799],[95.6375,4.8005],[95.64,4.801],[95.641,4.802],[95.6425,4.804],[95.644,4.8045],[95.6485,4.8055],[95.6505,4.8085],[95.652,4.8105],[95.653,4.812],[95.657,4.815],[95.66,4.8155],[95.666,4.8255],[95.665,4.83],[95.662,4.8365],[95.6765,4.851],[95.6725,4.861],[95.6855,4.886],[95.6835,4.8895],[95.6685,4.9055],[95.665,4.906]]]},"properties":{"code":"11.14.03.2006","name":"Pante Kuyun"}},{"type":"Feature","geometry":{"type":"Polygon","coordinates":[[[95.7175,4.8525],[95.7165,4.8525],[95.7115,4.8525],[95.711,4.8515],[95.708,4.834],[95.6935,4.8115],[95.691,4.812],[95.688,4.811],[95.685,4.81],[95.6825,4.8095],[95.682,4.8075],[95.672,4.7945],[95.6695,4.7755],[95.667,4.7745],[95.6645,4.774],[95.661,4.774],[95.652,4.765],[95.649,4.749],[95.646,4.7475],[95.6375,4.7455],[95.637,4.746],[95.635,4.7475],[95.6315,4.748],[95.6305,4.7515],[95.6245,4.756],[95.623,4.7565],[95.616,4.7625],[95.616,4.7635],[95.6155,4.7625],[95.6145,4.763],[95.612,4.7655],[95.6115,4.766],[95.611,4.763],[95.611,4.762],[95.6105,4.762],[95.604,4.7635],[95.603,4.7635],[95.6015,4.7655],[95.6005,4.764],[95.598,4.7645],[95.5955,4.7665],[95.598,4.768],[95.5955,4.7685],[95.5945,4.769],[95.593,4.77],[95.5915,4.773],[95.5855,4.766],[95.5835,4.768],[95.5825,4.768],[95.5825,4.759],[95.583,4.7585],[95.588,4.759],[95.594,4.7515],[95.6045,4.753],[95.61,4.7535],[95.6165,4.7515],[95.618,4.751],[95.6205,4.7505],[95.624,4.739],[95.655,4.7285],[95.6685,4.715],[95.6745,4.7185],[95.6915,4.752],[95.692,4.754],[95.689,4.7595],[95.6895,4.7605],[95.702,4.789],[95.7195,4.796],[95.7165,4.8155],[95.7255,4.824],[95.725,4.8355],[95.7175,4.8525]]]},"properties":{"code":"11.14.03.2007","name":"Glee Seubak"}},{"type":"Feature","geometry":{"type":"Polygon","coordinates":[[[95.8205,4.976],[95.815,4.9805],[95.798,4.9925],[95.7835,5.009],[95.7755,5.0245],[95.7665,5.019],[95.7615,5.0075],[95.7405,5.003],[95.739,4.9865],[95.727,4.968],[95.728,4.959],[95.709,4.9605],[95.7075,4.9535],[95.686,4.952],[95.679,4.948],[95.6765,4.9485],[95.6725,4.9495],[95.67,4.949],[95.6675,4.948],[95.6665,4.9465],[95.6665,4.9365],[95.6645,4.9305],[95.6595,4.9215],[95.665,4.907],[95.6685,4.9055],[95.6835,4.8895],[95.6855,4.886],[95.6725,4.861],[95.6765,4.851],[95.662,4.8365],[95.665,4.83],[95.666,4.8255],[95.66,4.8155],[95.657,4.815],[95.653,4.812],[95.652,4.8105],[95.6505,4.8085],[95.6485,4.8055],[95.644,4.8045],[95.6425,4.804],[95.641,4.802],[95.64,4.801],[95.6375,4.8005],[95.636,4.799],[95.6345,4.7975],[95.632,4.7975],[95.631,4.795],[95.623,4.788],[95.613,4.7875],[95.595,4.781],[95.596,4.773],[95.5955,4.7715],[95.5955,4.7695],[95.598,4.768],[95.5955,4.7665],[95.598,4.7645],[95.6005,4.764],[95.6015,4.7655],[95.603,4.7635],[95.604,4.7635],[95.6105,4.762],[95.611,4.762],[95.611,4.763],[95.6115,4.766],[95.612,4.7655],[95.6145,4.763],[95.6155,4.7625],[95.616,4.7635],[95.616,4.7625],[95.623,4.7565],[95.6245,4.756],[95.6305,4.7515],[95.6315,4.748],[95.635,4.7475],[95.637,4.746],[95.6375,4.7455],[95.646,4.7475],[95.649,4.749],[95.652,4.765],[95.661,4.774],[95.6645,4.774],[95.667,4.7745],[95.6695,4.7755],[95.672,4.7945],[95.682,4.8075],[95.6825,4.8095],[95.685,4.81],[95.688,4.811],[95.691,4.812],[95.6935,4.8115],[95.708,4.834],[95.711,4.8515],[95.7115,4.8525],[95.7165,4.8525],[95.7175,4.8525],[95.7195,4.857],[95.7225,4.86],[95.7365,4.8715],[95.737,4.888],[95.728,4.8905],[95.7195,4.901],[95.733,4.911],[95.7475,4.91],[95.751,4.9125],[95.76,4.9285],[95.7865,4.94],[95.787,4.9445],[95.7915,4.9585],[95.8075,4.972],[95.8205,4.976]]]},"properties":{"code":"11.14.03.2008","name":"Gampong Baroh"}},{"type":"Feature","geometry":{"type":"Polygon","coordinates":[[[95.5795,4.7035],[95.5805,4.7075],[95.581,4.7115],[95.573,4.706],[95.5555,4.7055],[95.5505,4.693],[95.5505,4.69],[95.541,4.6815],[95.5385,4.6805],[95.5385,4.6795],[95.5375,4.672],[95.541,4.656],[95.5565,4.655],[95.5615,4.6665],[95.563,4.683],[95.5695,4.698],[95.5765,4.698],[95.577,4.7],[95.5785,4.702],[95.5795,4.7035]]]},"properties":{"code":"11.14.03.2009","name":"Lhok Timon"}},{"type":"Feature","geometry":{"type":"Polygon","coordinates":[[[95.6025,4.7055],[95.581,4.7115],[95.5805,4.7075],[95.5795,4.7035],[95.5785,4.702],[95.577,4.7],[95.5765,4.698],[95.5695,4.698],[95.563,4.683],[95.5615,4.6665],[95.576,4.66],[95.5815,4.663],[95.5845,4.667],[95.5785,4.6765],[95.5955,4.6945],[95.6025,4.7055]]]},"properties":{"code":"11.14.03.2010","name":"Gampong Baro"}},{"type":"Feature","geometry":{"type":"Polygon","coordinates":[[[95.5955,4.6945],[95.5785,4.6765],[95.5845,4.667],[95.5815,4.663],[95.576,4.66],[95.5845,4.6545],[95.604,4.654],[95.5935,4.659],[95.5995,4.6715],[95.6,4.674],[95.5945,4.689],[95.595,4.6925],[95.5955,4.6945]]]},"properties":{"code":"11.14.03.2011","name":"Lhok Buya"}},{"type":"Feature","geometry":{"type":"Polygon","coordinates":[[[95.6685,4.715],[95.655,4.7285],[95.624,4.739],[95.6205,4.7505],[95.618,4.751],[95.6165,4.7515],[95.6095,4.743],[95.6095,4.731],[95.602,4.7155],[95.6025,4.7055],[95.5955,4.6945],[95.595,4.6925],[95.5945,4.689],[95.6,4.674],[95.5995,4.6715],[95.5935,4.659],[95.604,4.654],[95.606,4.653],[95.6075,4.652],[95.6115,4.6505],[95.6125,4.654],[95.626,4.6625],[95.6325,4.67],[95.634,4.674],[95.637,4.679],[95.639,4.682],[95.642,4.685],[95.6635,4.712],[95.6685,4.715]]]},"properties":{"code":"11.14.03.2012","name":"Lhok Bot"}},{"type":"Feature","geometry":{"type":"Polygon","coordinates":[[[95.5885,4.8195],[95.575,4.8055],[95.5565,4.8125],[95.551,4.8095],[95.54,4.7965],[95.5295,4.794],[95.5215,4.7925],[95.5145,4.7765],[95.517,4.7695],[95.531,4.767],[95.5475,4.767],[95.5575,4.776],[95.5605,4.7755],[95.564,4.776],[95.563,4.7795],[95.563,4.781],[95.566,4.7875],[95.5665,4.7885],[95.5685,4.7895],[95.5695,4.7905],[95.5695,4.7925],[95.57,4.7945],[95.571,4.795],[95.5755,4.797],[95.579,4.8005],[95.582,4.8035],[95.5885,4.8075],[95.5885,4.8195]]]},"properties":{"code":"11.14.03.2013","name":"Paya Laot"}},{"type":"Feature","geometry":{"type":"Polygon","coordinates":[[[95.4035,4.869],[95.4015,4.871],[95.4,4.876],[95.4,4.878],[95.405,4.884],[95.405,4.8955],[95.4035,4.8945],[95.402,4.894],[95.401,4.8935],[95.396,4.8765],[95.402,4.8685],[95.4025,4.8685],[95.4035,4.869]]]},"properties":{"code":"11.14.04.2001","name":"Lhok Kruet"}},{"type":"Feature","geometry":{"type":"MultiPolygon","coordinates":[[[[95.371,4.877],[95.3685,4.867],[95.382,4.861],[95.388,4.8765],[95.371,4.877]]],[[[95.3985,4.907],[95.398,4.909],[95.3935,4.902],[95.396,4.902],[95.3985,4.907]]]]},"properties":{"code":"11.14.04.2002","name":"Pulo Raya"}},{"type":"Feature","geometry":{"type":"Polygon","coordinates":[[[95.4115,4.9035],[95.4035,4.8955],[95.403,4.8945],[95.403,4.894],[95.4035,4.8945],[95.405,4.8955],[95.405,4.884],[95.4,4.878],[95.4,4.876],[95.4015,4.871],[95.4035,4.869],[95.404,4.869],[95.418,4.87],[95.423,4.8785],[95.4245,4.881],[95.426,4.8815],[95.4265,4.8825],[95.4125,4.8915],[95.412,4.898],[95.4115,4.9035]]]},"properties":{"code":"11.14.04.2003","name":"Meunasah Kulam"}},{"type":"Feature","geometry":{"type":"Polygon","coordinates":[[[95.4515,4.9335],[95.447,4.954],[95.445,4.9595],[95.443,4.961],[95.441,4.963],[95.4385,4.9625],[95.437,4.9605],[95.435,4.957],[95.4305,4.955],[95.4255,4.9385],[95.4145,4.924],[95.3905,4.9105],[95.3935,4.902],[95.398,4.909],[95.3985,4.907],[95.396,4.902],[95.401,4.8935],[95.402,4.894],[95.403,4.894],[95.403,4.8945],[95.4035,4.8955],[95.4115,4.9035],[95.4105,4.9115],[95.429,4.9155],[95.4455,4.926],[95.447,4.933],[95.4515,4.9335]]]},"properties":{"code":"11.14.04.2004","name":"Crak Mong"}},{"type":"Feature","geometry":{"type":"Polygon","coordinates":[[[95.522,4.9885],[95.5205,5.006],[95.51,5.0145],[95.478,5.0125],[95.4695,4.9945],[95.449,4.994],[95.4665,4.9735],[95.458,4.9545],[95.462,4.938],[95.4435,4.912],[95.4485,4.9075],[95.444,4.896],[95.447,4.884],[95.4445,4.884],[95.4425,4.88],[95.443,4.8795],[95.4455,4.8775],[95.4445,4.8755],[95.4445,4.872],[95.444,4.8705],[95.445,4.871],[95.451,4.872],[95.455,4.886],[95.469,4.9055],[95.4745,4.908],[95.4825,4.929],[95.485,4.928],[95.487,4.9285],[95.491,4.9305],[95.5015,4.9435],[95.514,4.948],[95.5115,4.961],[95.5125,4.9635],[95.5175,4.971],[95.5185,4.9865],[95.52,4.9885],[95.522,4.9885]]]},"properties":{"code":"11.14.04.2005","name":"Alue Gro"}},{"type":"Feature","geometry":{"type":"Polygon","coordinates":[[[95.4425,4.88],[95.4315,4.876],[95.43,4.8755],[95.428,4.876],[95.427,4.8755],[95.426,4.876],[95.423,4.8785],[95.418,4.87],[95.404,4.869],[95.4025,4.8685],[95.402,4.8685],[95.4215,4.8475],[95.4255,4.8395],[95.4355,4.8545],[95.442,4.8615],[95.441,4.8615],[95.441,4.8625],[95.4405,4.8645],[95.443,4.871],[95.444,4.8705],[95.4445,4.872],[95.4445,4.8755],[95.4455,4.8775],[95.443,4.8795],[95.4425,4.88]]]},"properties":{"code":"11.14.04.2006","name":"Kuala Ligan"}},{"type":"Feature","geometry":{"type":"Polygon","coordinates":[[[95.474,4.86],[95.474,4.8585],[95.472,4.8585],[95.4515,4.863],[95.449,4.863],[95.447,4.8625],[95.4445,4.862],[95.441,4.862],[95.441,4.8615],[95.442,4.8615],[95.4355,4.8545],[95.4255,4.8395],[95.423,4.8265],[95.427,4.827],[95.4285,4.829],[95.4315,4.828],[95.435,4.8275],[95.4355,4.8285],[95.4385,4.831],[95.4475,4.838],[95.449,4.839],[95.45,4.8415],[95.461,4.85],[95.4625,4.8495],[95.472,4.846],[95.4745,4.853],[95.474,4.86]]]},"properties":{"code":"11.14.04.2007","name":"Babah Nipah"}},{"type":"Feature","geometry":{"type":"Polygon","coordinates":[[[95.435,4.8275],[95.4315,4.828],[95.4285,4.829],[95.427,4.827],[95.428,4.811],[95.432,4.808],[95.443,4.8185],[95.456,4.8175],[95.457,4.8195],[95.4355,4.8265],[95.435,4.8275]]]},"properties":{"code":"11.14.04.2008","name":"Jeumpheuk"}},{"type":"Feature","geometry":{"type":"Polygon","coordinates":[[[95.4475,4.838],[95.4385,4.831],[95.4355,4.8285],[95.435,4.8275],[95.4355,4.8265],[95.457,4.8195],[95.4595,4.8235],[95.4615,4.825],[95.4475,4.838]]]},"properties":{"code":"11.14.04.2009","name":"Cot Langsat"}},{"type":"Feature","geometry":{"type":"MultiPolygon","coordinates":[[[[95.427,4.827],[95.423,4.8265],[95.428,4.811],[95.427,4.827]]],[[[95.4625,4.8495],[95.461,4.85],[95.45,4.8415],[95.449,4.839],[95.4475,4.838],[95.4615,4.825],[95.4665,4.822],[95.4695,4.829],[95.4715,4.8305],[95.4835,4.835],[95.4815,4.8355],[95.482,4.8385],[95.4815,4.8395],[95.479,4.8425],[95.4755,4.8445],[95.472,4.846],[95.4625,4.8495]]]]},"properties":{"code":"11.14.04.2010","name":"Mata Ie"}},{"type":"Feature","geometry":{"type":"Polygon","coordinates":[[[95.4425,4.88],[95.4445,4.884],[95.447,4.884],[95.444,4.896],[95.4485,4.9075],[95.4435,4.912],[95.462,4.938],[95.458,4.9545],[95.4665,4.9735],[95.449,4.994],[95.4385,4.987],[95.438,4.9815],[95.438,4.978],[95.4435,4.9635],[95.441,4.963],[95.443,4.961],[95.445,4.9595],[95.447,4.954],[95.4515,4.9335],[95.447,4.933],[95.4455,4.926],[95.429,4.9155],[95.4105,4.9115],[95.4115,4.9035],[95.412,4.898],[95.4125,4.8915],[95.4265,4.8825],[95.426,4.8815],[95.4245,4.881],[95.423,4.8785],[95.426,4.876],[95.427,4.8755],[95.428,4.876],[95.43,4.8755],[95.4315,4.876],[95.4425,4.88]]]},"properties":{"code":"11.14.04.2011","name":"Blang Monlung"}},{"type":"Feature","geometry":{"type":"Polygon","coordinates":[[[95.4325,4.9635],[95.4285,4.9665],[95.4235,4.965],[95.421,4.965],[95.417,4.9635],[95.416,4.9625],[95.413,4.9605],[95.405,4.9555],[95.3975,4.941],[95.3885,4.9375],[95.3675,4.948],[95.3775,4.9345],[95.3785,4.9215],[95.3905,4.9105],[95.4145,4.924],[95.4255,4.9385],[95.4305,4.955],[95.435,4.957],[95.437,4.9605],[95.4385,4.9625],[95.4375,4.962],[95.4325,4.9635]]]},"properties":{"code":"11.14.04.2012","name":"Krueng No"}},{"type":"Feature","geometry":{"type":"Polygon","coordinates":[[[95.5015,4.8635],[95.5015,4.864],[95.494,4.863],[95.492,4.879],[95.4915,4.88],[95.49,4.878],[95.4855,4.8745],[95.4845,4.8695],[95.474,4.861],[95.474,4.859],[95.4745,4.853],[95.472,4.846],[95.4755,4.8445],[95.479,4.8425],[95.4815,4.8395],[95.482,4.8385],[95.4815,4.8355],[95.4845,4.8345],[95.493,4.8385],[95.4945,4.839],[95.4965,4.839],[95.497,4.8395],[95.496,4.8405],[95.497,4.8415],[95.498,4.8405],[95.4985,4.8395],[95.5,4.8385],[95.501,4.8385],[95.501,4.8395],[95.5005,4.8415],[95.5015,4.8425],[95.4955,4.8475],[95.4975,4.8515],[95.5165,4.849],[95.518,4.85],[95.5165,4.8525],[95.5115,4.8535],[95.5065,4.856],[95.5055,4.857],[95.502,4.8625],[95.5015,4.8635]]]},"properties":{"code":"11.14.04.2013","name":"Seumantok"}},{"type":"Feature","geometry":{"type":"Polygon","coordinates":[[[95.608,5.0345],[95.604,5.0385],[95.5895,5.0535],[95.5725,5.054],[95.534,5.048],[95.535,5.0205],[95.5405,4.9965],[95.5285,4.99],[95.524,4.9885],[95.52,4.9885],[95.5185,4.9865],[95.5175,4.971],[95.5125,4.9635],[95.5115,4.961],[95.514,4.948],[95.5015,4.9435],[95.491,4.9305],[95.49,4.927],[95.4895,4.922],[95.4905,4.9105],[95.4915,4.91],[95.4935,4.912],[95.494,4.909],[95.4935,4.9075],[95.4915,4.906],[95.494,4.905],[95.4895,4.8905],[95.4895,4.8885],[95.4895,4.8875],[95.489,4.886],[95.4875,4.8835],[95.4855,4.8815],[95.491,4.8805],[95.492,4.8795],[95.492,4.879],[95.494,4.863],[95.5015,4.864],[95.503,4.8655],[95.5115,4.872],[95.516,4.885],[95.5165,4.887],[95.5005,4.891],[95.4995,4.9015],[95.5225,4.909],[95.5195,4.9245],[95.5405,4.9445],[95.5555,4.946],[95.5585,4.948],[95.5845,4.95],[95.5895,4.9555],[95.5865,4.9695],[95.5965,4.984],[95.6025,5.0195],[95.6075,5.0315],[95.608,5.0345]]]},"properties":{"code":"11.14.04.2014","name":"Ranto Sabon"}},{"type":"Feature","geometry":{"type":"Polygon","coordinates":[[[95.487,4.883],[95.486,4.8835],[95.485,4.895],[95.469,4.9055],[95.455,4.886],[95.451,4.872],[95.445,4.871],[95.444,4.8705],[95.443,4.871],[95.4405,4.8645],[95.441,4.8625],[95.441,4.862],[95.4445,4.862],[95.447,4.8625],[95.449,4.863],[95.4515,4.863],[95.472,4.8585],[95.474,4.8585],[95.474,4.86],[95.474,4.861],[95.4845,4.8695],[95.4855,4.8745],[95.49,4.878],[95.4915,4.88],[95.491,4.8805],[95.4855,4.8815],[95.487,4.883]]]},"properties":{"code":"11.14.04.2015","name":"Ligan"}},{"type":"Feature","geometry":{"type":"Polygon","coordinates":[[[95.487,4.9285],[95.485,4.928],[95.4825,4.929],[95.4745,4.908],[95.469,4.9055],[95.485,4.895],[95.486,4.8835],[95.487,4.883],[95.4885,4.8855],[95.4895,4.888],[95.4895,4.8905],[95.494,4.905],[95.4915,4.906],[95.4935,4.9075],[95.494,4.909],[95.4935,4.912],[95.4915,4.91],[95.4905,4.9105],[95.4895,4.922],[95.49,4.927],[95.487,4.9285]]]},"properties":{"code":"11.14.04.2016","name":"Ie Jeureungeh"}},{"type":"Feature","geometry":{"type":"Polygon","coordinates":[[[95.4615,4.825],[95.4595,4.8235],[95.456,4.8175],[95.443,4.8185],[95.432,4.808],[95.4455,4.808],[95.4525,4.799],[95.4565,4.8015],[95.4625,4.805],[95.463,4.8055],[95.4665,4.822],[95.4615,4.825]]]},"properties":{"code":"11.14.04.2020","name":"Kuala Bakong"}},{"type":"Feature","geometry":{"type":"Polygon","coordinates":[[[95.5165,4.887],[95.5175,4.8905],[95.529,4.8905],[95.5295,4.891],[95.5315,4.8905],[95.5335,4.89],[95.534,4.8905],[95.535,4.8905],[95.536,4.8925],[95.5375,4.8955],[95.536,4.899],[95.537,4.9015],[95.5395,4.904],[95.5405,4.906],[95.541,4.9165],[95.5545,4.945],[95.5555,4.946],[95.5405,4.9445],[95.5195,4.9245],[95.5225,4.909],[95.4995,4.9015],[95.5005,4.891],[95.5165,4.887]]]},"properties":{"code":"11.14.04.2036","name":"Cot Punti"}},{"type":"Feature","geometry":{"type":"Polygon","coordinates":[[[95.6385,5.0745],[95.63,5.0745],[95.63,5.073],[95.628,5.0505],[95.6205,5.048],[95.609,5.0345],[95.608,5.0345],[95.6075,5.0315],[95.6025,5.0195],[95.5965,4.984],[95.5865,4.9695],[95.5895,4.9555],[95.5845,4.95],[95.5585,4.948],[95.5545,4.945],[95.541,4.9165],[95.5405,4.906],[95.5395,4.904],[95.537,4.9015],[95.536,4.899],[95.5375,4.8955],[95.536,4.8925],[95.535,4.8905],[95.534,4.8905],[95.5335,4.89],[95.5315,4.8905],[95.5295,4.891],[95.529,4.8905],[95.5175,4.8905],[95.516,4.885],[95.5115,4.872],[95.503,4.8655],[95.5015,4.8635],[95.502,4.8625],[95.5055,4.857],[95.5065,4.856],[95.5115,4.8535],[95.5165,4.8525],[95.518,4.85],[95.5195,4.852],[95.5245,4.858],[95.5265,4.8595],[95.5395,4.863],[95.539,4.8675],[95.54,4.8745],[95.5405,4.8755],[95.542,4.8765],[95.543,4.878],[95.5445,4.8785],[95.558,4.8915],[95.561,4.8915],[95.5725,4.897],[95.5775,4.9105],[95.592,4.9265],[95.594,4.9375],[95.596,4.939],[95.6175,4.947],[95.6355,4.9645],[95.64,4.968],[95.645,4.991],[95.6485,4.995],[95.6495,5.017],[95.65,5.018],[95.663,5.0215],[95.671,5.031],[95.6765,5.0455],[95.686,5.0455],[95.688,5.046],[95.6925,5.052],[95.695,5.054],[95.6965,5.0555],[95.698,5.056],[95.699,5.057],[95.696,5.0585],[95.6745,5.0605],[95.6485,5.067],[95.639,5.0735],[95.6385,5.0745]]]},"properties":{"code":"11.14.04.2037","name":"Krueng Ayon"}},{"type":"Feature","geometry":{"type":"Polygon","coordinates":[[[95.449,5.2195],[95.447,5.22],[95.437,5.224],[95.421,5.225],[95.4005,5.2155],[95.3995,5.2175],[95.395,5.192],[95.3875,5.183],[95.3915,5.173],[95.384,5.153],[95.383,5.149],[95.3845,5.146],[95.3935,5.1445],[95.395,5.141],[95.3985,5.141],[95.3985,5.143],[95.401,5.14],[95.4025,5.136],[95.401,5.133],[95.4,5.132],[95.4,5.131],[95.4015,5.1305],[95.402,5.13],[95.4005,5.1275],[95.398,5.1275],[95.391,5.123],[95.3865,5.117],[95.386,5.1145],[95.387,5.111],[95.389,5.1095],[95.39,5.1105],[95.3925,5.1095],[95.397,5.113],[95.3985,5.1135],[95.406,5.117],[95.4085,5.125],[95.409,5.126],[95.4125,5.127],[95.413,5.127],[95.4125,5.1315],[95.4155,5.154],[95.4235,5.18],[95.441,5.203],[95.4475,5.205],[95.449,5.2195]]]},"properties":{"code":"11.14.05.2011","name":"Pante Cermin"}},{"type":"Feature","geometry":{"type":"Polygon","coordinates":[[[95.5195,5.2165],[95.4975,5.22],[95.4925,5.2175],[95.4895,5.2145],[95.4805,5.2115],[95.477,5.2105],[95.47,5.184],[95.4465,5.174],[95.4365,5.163],[95.432,5.1445],[95.422,5.1275],[95.416,5.128],[95.413,5.128],[95.413,5.127],[95.4125,5.127],[95.409,5.126],[95.4085,5.125],[95.4085,5.1185],[95.4335,5.116],[95.443,5.125],[95.454,5.125],[95.472,5.14],[95.484,5.1425],[95.4855,5.143],[95.4895,5.1395],[95.5165,5.132],[95.528,5.1395],[95.543,5.1565],[95.5655,5.161],[95.5795,5.1745],[95.59,5.194],[95.5955,5.194],[95.594,5.1955],[95.5825,5.2095],[95.579,5.2095],[95.5515,5.208],[95.5455,5.206],[95.532,5.217],[95.5195,5.2165]]]},"properties":{"code":"11.14.05.2012","name":"Sabet"}},{"type":"Feature","geometry":{"type":"Polygon","coordinates":[[[95.387,5.111],[95.386,5.1145],[95.3865,5.117],[95.391,5.123],[95.398,5.1275],[95.4005,5.1275],[95.402,5.13],[95.4015,5.1305],[95.4,5.131],[95.4,5.132],[95.401,5.133],[95.4025,5.136],[95.401,5.14],[95.3985,5.143],[95.3985,5.141],[95.395,5.141],[95.3935,5.1445],[95.3845,5.146],[95.383,5.145],[95.3825,5.145],[95.3805,5.143],[95.3805,5.1395],[95.3775,5.131],[95.378,5.1265],[95.3785,5.124],[95.3795,5.1145],[95.378,5.109],[95.377,5.1085],[95.387,5.111]]]},"properties":{"code":"11.14.05.2013","name":"Sango"}},{"type":"Feature","geometry":{"type":"Polygon","coordinates":[[[95.452,5.2195],[95.449,5.2195],[95.4475,5.205],[95.441,5.203],[95.4235,5.18],[95.4155,5.154],[95.4125,5.1315],[95.413,5.128],[95.416,5.128],[95.422,5.1275],[95.432,5.1445],[95.4365,5.163],[95.4465,5.174],[95.47,5.184],[95.477,5.2105],[95.4645,5.2105],[95.452,5.2195]]]},"properties":{"code":"11.14.05.2014","name":"Mareu"}},{"type":"Feature","geometry":{"type":"Polygon","coordinates":[[[95.5955,5.194],[95.59,5.194],[95.5795,5.1745],[95.5655,5.161],[95.543,5.1565],[95.528,5.1395],[95.5165,5.132],[95.4895,5.1395],[95.4855,5.143],[95.484,5.1425],[95.472,5.14],[95.454,5.125],[95.443,5.125],[95.4335,5.116],[95.4085,5.1185],[95.406,5.117],[95.3985,5.1135],[95.397,5.113],[95.3925,5.1095],[95.39,5.1105],[95.389,5.1095],[95.387,5.111],[95.377,5.1085],[95.3795,5.097],[95.381,5.0955],[95.3865,5.095],[95.3895,5.095],[95.3905,5.096],[95.4105,5.0985],[95.4325,5.105],[95.477,5.1035],[95.4855,5.0905],[95.5,5.0825],[95.5065,5.0735],[95.515,5.0725],[95.519,5.071],[95.532,5.058],[95.534,5.048],[95.5725,5.054],[95.5895,5.0535],[95.604,5.0385],[95.609,5.0345],[95.6205,5.048],[95.628,5.0505],[95.63,5.073],[95.63,5.0745],[95.6385,5.0745],[95.6345,5.0805],[95.63,5.0915],[95.6405,5.109],[95.632,5.127],[95.6435,5.1445],[95.635,5.155],[95.633,5.158],[95.622,5.165],[95.618,5.1855],[95.616,5.189],[95.6045,5.1915],[95.5995,5.1915],[95.5975,5.192],[95.5955,5.194]]]},"properties":{"code":"11.14.05.2015","name":"Lam Asan"}},{"type":"Feature","geometry":{"type":"Polygon","coordinates":[[[95.4855,5.0905],[95.477,5.1035],[95.4325,5.105],[95.4105,5.0985],[95.3905,5.096],[95.3895,5.095],[95.3865,5.095],[95.381,5.0955],[95.381,5.0905],[95.383,5.091],[95.3845,5.09],[95.394,5.09],[95.391,5.086],[95.4105,5.0845],[95.4145,5.08],[95.4155,5.0795],[95.4165,5.079],[95.436,5.0855],[95.444,5.0845],[95.4705,5.0825],[95.4855,5.0905]]]},"properties":{"code":"11.14.05.2016","name":"Alue Rayeuk"}},{"type":"Feature","geometry":{"type":"Polygon","coordinates":[[[95.3825,5.145],[95.3815,5.146],[95.377,5.1485],[95.374,5.153],[95.3695,5.157],[95.3675,5.1595],[95.3675,5.164],[95.361,5.166],[95.3575,5.1665],[95.356,5.1655],[95.354,5.162],[95.3535,5.152],[95.341,5.1375],[95.3405,5.129],[95.344,5.134],[95.345,5.134],[95.3535,5.1355],[95.3595,5.131],[95.3625,5.1275],[95.3645,5.129],[95.376,5.143],[95.3805,5.143],[95.3825,5.145]]]},"properties":{"code":"11.14.05.2017","name":"Sapek"}},{"type":"Feature","geometry":{"type":"Polygon","coordinates":[[[95.3795,5.1145],[95.3785,5.124],[95.378,5.1265],[95.3775,5.131],[95.3805,5.1395],[95.3805,5.143],[95.376,5.143],[95.3645,5.129],[95.3625,5.1275],[95.3595,5.131],[95.3535,5.1355],[95.345,5.134],[95.344,5.134],[95.3405,5.129],[95.336,5.1185],[95.3415,5.1085],[95.349,5.116],[95.372,5.1215],[95.3795,5.1145]]]},"properties":{"code":"11.14.05.2018","name":"Lambaroh"}},{"type":"Feature","geometry":{"type":"Polygon","coordinates":[[[95.377,5.247],[95.371,5.254],[95.3595,5.2525],[95.3475,5.2445],[95.349,5.2335],[95.3255,5.225],[95.325,5.2235],[95.326,5.219],[95.328,5.215],[95.329,5.214],[95.3315,5.208],[95.332,5.2045],[95.3285,5.186],[95.332,5.179],[95.33,5.178],[95.327,5.1775],[95.3255,5.1765],[95.323,5.1455],[95.3285,5.1395],[95.3295,5.1195],[95.3335,5.1215],[95.3345,5.124],[95.3365,5.127],[95.339,5.126],[95.3405,5.129],[95.341,5.1375],[95.3535,5.152],[95.354,5.162],[95.356,5.1655],[95.3575,5.1665],[95.361,5.166],[95.3675,5.164],[95.3675,5.1595],[95.3695,5.157],[95.374,5.153],[95.377,5.1485],[95.3815,5.146],[95.3825,5.145],[95.383,5.145],[95.3845,5.146],[95.383,5.149],[95.384,5.153],[95.3915,5.173],[95.3875,5.183],[95.395,5.192],[95.3995,5.2175],[95.3995,5.2185],[95.39,5.2335],[95.3795,5.2395],[95.377,5.247]]]},"properties":{"code":"11.14.05.2019","name":"Meudheun"}},{"type":"Feature","geometry":{"type":"Polygon","coordinates":[[[95.323,5.1455],[95.3255,5.176],[95.3255,5.1765],[95.3245,5.176],[95.31,5.1685],[95.3085,5.1675],[95.307,5.168],[95.3095,5.162],[95.3055,5.139],[95.3105,5.124],[95.314,5.1165],[95.313,5.114],[95.315,5.1145],[95.318,5.117],[95.3225,5.119],[95.3295,5.1195],[95.3285,5.1395],[95.323,5.1455]]]},"properties":{"code":"11.14.05.2020","name":"Babah Ie"}},{"type":"Feature","geometry":{"type":"Polygon","coordinates":[[[95.314,5.1165],[95.3105,5.124],[95.3095,5.106],[95.3115,5.1065],[95.313,5.1095],[95.313,5.113],[95.313,5.115],[95.314,5.1165]]]},"properties":{"code":"11.14.05.2021","name":"Ujong Sudheun"}},{"type":"Feature","geometry":{"type":"Polygon","coordinates":[[[95.3295,5.1195],[95.3225,5.119],[95.318,5.117],[95.315,5.1145],[95.313,5.114],[95.313,5.113],[95.313,5.1095],[95.3125,5.108],[95.328,5.1125],[95.3295,5.1145],[95.3295,5.1195]]]},"properties":{"code":"11.14.05.2022","name":"Krueng Tunong"}},{"type":"Feature","geometry":{"type":"Polygon","coordinates":[[[95.336,5.1185],[95.3405,5.129],[95.339,5.126],[95.3365,5.127],[95.3345,5.124],[95.3335,5.1215],[95.3295,5.1195],[95.3295,5.1145],[95.336,5.1185]]]},"properties":{"code":"11.14.05.2023","name":"Jambo Masi"}},{"type":"Feature","geometry":{"type":"Polygon","coordinates":[[[95.3415,5.1085],[95.336,5.1185],[95.3295,5.1145],[95.328,5.1125],[95.3305,5.109],[95.335,5.107],[95.3415,5.1085]]]},"properties":{"code":"11.14.05.2024","name":"Lamtui"}},{"type":"Feature","geometry":{"type":"Polygon","coordinates":[[[95.3665,5.0895],[95.3625,5.088],[95.3655,5.0875],[95.3665,5.0895]]]},"properties":{"code":"11.14.05.2025","name":"Pasar Lamno"}},{"type":"Feature","geometry":{"type":"Polygon","coordinates":[[[95.3625,5.088],[95.362,5.095],[95.3555,5.0865],[95.3685,5.082],[95.3695,5.0825],[95.3715,5.0825],[95.3725,5.085],[95.366,5.087],[95.3655,5.0875],[95.3625,5.088]]]},"properties":{"code":"11.14.05.2026","name":"Meunasah Weh"}},{"type":"Feature","geometry":{"type":"Polygon","coordinates":[[[95.377,5.1085],[95.3635,5.106],[95.362,5.095],[95.3625,5.088],[95.3665,5.0895],[95.37,5.09],[95.3705,5.0855],[95.3725,5.085],[95.3715,5.0825],[95.3735,5.083],[95.375,5.0835],[95.377,5.085],[95.3755,5.089],[95.372,5.097],[95.3745,5.0995],[95.3795,5.097],[95.377,5.1085]]]},"properties":{"code":"11.14.05.2027","name":"Bak Paoh"}},{"type":"Feature","geometry":{"type":"Polygon","coordinates":[[[95.3795,5.097],[95.3745,5.0995],[95.372,5.097],[95.3755,5.089],[95.3765,5.086],[95.381,5.0845],[95.381,5.0905],[95.381,5.0955],[95.3795,5.097]]]},"properties":{"code":"11.14.05.2028","name":"Babah Krueng"}},{"type":"Feature","geometry":{"type":"Polygon","coordinates":[[[95.381,5.0845],[95.3765,5.086],[95.377,5.085],[95.375,5.0835],[95.374,5.083],[95.3695,5.0825],[95.3685,5.082],[95.3665,5.079],[95.3725,5.0775],[95.381,5.0845]]]},"properties":{"code":"11.14.05.2029","name":"Cot Dulang"}},{"type":"Feature","geometry":{"type":"Polygon","coordinates":[[[95.391,5.086],[95.394,5.09],[95.3845,5.09],[95.383,5.091],[95.381,5.0905],[95.381,5.0845],[95.391,5.086]]]},"properties":{"code":"11.14.05.2030","name":"Lamdurian"}},{"type":"Feature","geometry":{"type":"Polygon","coordinates":[[[95.4145,5.08],[95.4105,5.0845],[95.391,5.086],[95.381,5.0845],[95.3725,5.0775],[95.3735,5.077],[95.3745,5.077],[95.3945,5.0795],[95.414,5.078],[95.4145,5.08]]]},"properties":{"code":"11.14.05.2031","name":"Putue"}},{"type":"Feature","geometry":{"type":"Polygon","coordinates":[[[95.3795,5.1145],[95.372,5.1215],[95.349,5.116],[95.3415,5.1085],[95.354,5.096],[95.3555,5.0865],[95.362,5.095],[95.3635,5.106],[95.377,5.1085],[95.378,5.109],[95.3795,5.1145]]]},"properties":{"code":"11.14.05.2032","name":"Gle Putoh"}},{"type":"Feature","geometry":{"type":"Polygon","coordinates":[[[95.3705,5.0855],[95.37,5.09],[95.3665,5.0895],[95.3655,5.0875],[95.366,5.087],[95.3705,5.0855]]]},"properties":{"code":"11.14.05.2033","name":"Pante Keutapang"}},{"type":"Feature","geometry":{"type":"Polygon","coordinates":[[[95.356,5.08],[95.3545,5.0785],[95.356,5.077],[95.3595,5.075],[95.3615,5.073],[95.3635,5.077],[95.356,5.08]]]},"properties":{"code":"11.14.05.2034","name":"Lamme"}},{"type":"Feature","geometry":{"type":"Polygon","coordinates":[[[95.3665,5.079],[95.3555,5.082],[95.356,5.08],[95.3635,5.077],[95.3665,5.079]]]},"properties":{"code":"11.14.05.2035","name":"Meunasah Serba"}},{"type":"Feature","geometry":{"type":"Polygon","coordinates":[[[95.3685,5.082],[95.3555,5.0865],[95.3555,5.082],[95.3665,5.079],[95.3685,5.082]]]},"properties":{"code":"11.14.05.2036","name":"Leupe"}},{"type":"Feature","geometry":{"type":"Polygon","coordinates":[[[95.36,5.0745],[95.3595,5.075],[95.356,5.077],[95.3555,5.0775],[95.354,5.076],[95.353,5.0755],[95.353,5.075],[95.353,5.074],[95.3535,5.073],[95.354,5.07],[95.3545,5.07],[95.3555,5.07],[95.357,5.0725],[95.357,5.074],[95.358,5.0745],[95.36,5.0745]]]},"properties":{"code":"11.14.05.2037","name":"Meutara"}},{"type":"Feature","geometry":{"type":"Polygon","coordinates":[[[95.3555,5.0865],[95.354,5.096],[95.3435,5.084],[95.345,5.077],[95.347,5.0765],[95.3475,5.0765],[95.352,5.076],[95.354,5.076],[95.3555,5.0775],[95.3545,5.0785],[95.356,5.08],[95.3555,5.082],[95.3555,5.0865]]]},"properties":{"code":"11.14.05.2038","name":"Lhuet"}},{"type":"Feature","geometry":{"type":"Polygon","coordinates":[[[95.323,5.084],[95.3195,5.085],[95.321,5.073],[95.3225,5.0745],[95.3225,5.0795],[95.323,5.083],[95.3235,5.084],[95.323,5.084]]]},"properties":{"code":"11.14.05.2039","name":"Gle Jong"}},{"type":"Feature","geometry":{"type":"Polygon","coordinates":[[[95.3245,5.083],[95.3235,5.084],[95.323,5.083],[95.3225,5.0795],[95.3225,5.0745],[95.321,5.073],[95.322,5.0715],[95.326,5.08],[95.3245,5.083]]]},"properties":{"code":"11.14.05.2040","name":"Darat"}},{"type":"Feature","geometry":{"type":"Polygon","coordinates":[[[95.331,5.109],[95.3305,5.109],[95.328,5.1125],[95.3125,5.108],[95.3115,5.1065],[95.3095,5.106],[95.312,5.0985],[95.3235,5.1],[95.3265,5.103],[95.3285,5.1065],[95.33,5.1075],[95.331,5.1085],[95.331,5.109]]]},"properties":{"code":"11.14.05.2041","name":"Gampong Baro"}},{"type":"Feature","geometry":{"type":"Polygon","coordinates":[[[95.3415,5.1085],[95.335,5.107],[95.331,5.109],[95.331,5.1085],[95.33,5.1075],[95.3285,5.1065],[95.3265,5.103],[95.3235,5.1],[95.312,5.0985],[95.3195,5.085],[95.323,5.084],[95.3245,5.083],[95.3295,5.0825],[95.3315,5.0785],[95.3435,5.084],[95.354,5.096],[95.3415,5.1085]]]},"properties":{"code":"11.14.05.2042","name":"Panton Makmur"}},{"type":"Feature","geometry":{"type":"Polygon","coordinates":[[[95.3295,5.0825],[95.3245,5.083],[95.326,5.08],[95.322,5.0715],[95.324,5.0685],[95.3295,5.0825]]]},"properties":{"code":"11.14.05.2043","name":"Rumpet"}},{"type":"Feature","geometry":{"type":"Polygon","coordinates":[[[95.3315,5.0785],[95.3295,5.0825],[95.324,5.0685],[95.3295,5.061],[95.33,5.065],[95.333,5.072],[95.335,5.073],[95.3315,5.0785]]]},"properties":{"code":"11.14.05.2044","name":"Nusa"}},{"type":"Feature","geometry":{"type":"Polygon","coordinates":[[[95.7195,4.5435],[95.7155,4.5415],[95.7145,4.5425],[95.7145,4.546],[95.711,4.5335],[95.738,4.5085],[95.765,4.482],[95.7715,4.4965],[95.773,4.509],[95.7455,4.5305],[95.732,4.5335],[95.7195,4.5435]]]},"properties":{"code":"11.14.06.2001","name":"Keude Panga"}},{"type":"Feature","geometry":{"type":"Polygon","coordinates":[[[95.7165,4.572],[95.7155,4.576],[95.713,4.5765],[95.712,4.578],[95.709,4.5795],[95.704,4.5805],[95.701,4.5795],[95.7055,4.5705],[95.6905,4.551],[95.711,4.5335],[95.7145,4.546],[95.7145,4.5425],[95.7155,4.5415],[95.718,4.546],[95.7175,4.546],[95.7165,4.5465],[95.719,4.5465],[95.72,4.5485],[95.7205,4.55],[95.721,4.5505],[95.7215,4.552],[95.7215,4.553],[95.7115,4.5595],[95.7165,4.572]]]},"properties":{"code":"11.14.06.2002","name":"Kuta Tuha"}},{"type":"Feature","geometry":{"type":"Polygon","coordinates":[[[95.726,4.556],[95.724,4.557],[95.7225,4.556],[95.7225,4.554],[95.7215,4.552],[95.721,4.5505],[95.7205,4.55],[95.72,4.5485],[95.719,4.5465],[95.7165,4.5465],[95.7175,4.546],[95.718,4.546],[95.7195,4.5435],[95.732,4.5335],[95.7455,4.5305],[95.773,4.509],[95.788,4.5115],[95.8095,4.543],[95.8085,4.5455],[95.8085,4.5445],[95.7905,4.539],[95.7785,4.54],[95.764,4.5345],[95.7665,4.5465],[95.7615,4.548],[95.758,4.5495],[95.757,4.5495],[95.754,4.549],[95.753,4.549],[95.7435,4.553],[95.726,4.556]]]},"properties":{"code":"11.14.06.2003","name":"Tuwi Kareung"}},{"type":"Feature","geometry":{"type":"Polygon","coordinates":[[[95.7345,4.5655],[95.728,4.564],[95.718,4.567],[95.7175,4.5675],[95.7165,4.572],[95.7115,4.5595],[95.7215,4.553],[95.7225,4.554],[95.7225,4.556],[95.724,4.557],[95.726,4.556],[95.725,4.5575],[95.7265,4.558],[95.7295,4.5595],[95.7345,4.5635],[95.7345,4.5655]]]},"properties":{"code":"11.14.06.2004","name":"Ladang Baro"}},{"type":"Feature","geometry":{"type":"Polygon","coordinates":[[[95.74,4.592],[95.7315,4.599],[95.722,4.5985],[95.7225,4.586],[95.723,4.584],[95.735,4.579],[95.7465,4.5855],[95.755,4.5815],[95.755,4.5825],[95.7535,4.583],[95.754,4.5845],[95.7535,4.5865],[95.752,4.586],[95.74,4.592]]]},"properties":{"code":"11.14.06.2005","name":"Panton Krueng"}},{"type":"Feature","geometry":{"type":"Polygon","coordinates":[[[95.7595,4.6945],[95.753,4.6945],[95.7455,4.6835],[95.744,4.67],[95.7385,4.663],[95.742,4.6465],[95.732,4.6305],[95.731,4.6135],[95.7295,4.6135],[95.7275,4.614],[95.725,4.6125],[95.724,4.608],[95.721,4.604],[95.722,4.5985],[95.7315,4.599],[95.74,4.592],[95.74,4.5925],[95.741,4.5925],[95.7415,4.5935],[95.74,4.5945],[95.745,4.596],[95.7485,4.614],[95.7545,4.617],[95.758,4.641],[95.753,4.6535],[95.762,4.6605],[95.767,4.674],[95.7595,4.6945]]]},"properties":{"code":"11.14.06.2006","name":"Gle Putoh"}},{"type":"Feature","geometry":{"type":"Polygon","coordinates":[[[95.722,4.5985],[95.703,4.6],[95.6925,4.604],[95.6925,4.585],[95.697,4.579],[95.704,4.5805],[95.709,4.5795],[95.712,4.578],[95.713,4.5765],[95.7155,4.576],[95.7175,4.5675],[95.718,4.567],[95.728,4.564],[95.7345,4.5655],[95.735,4.579],[95.723,4.584],[95.7225,4.586],[95.722,4.5985]]]},"properties":{"code":"11.14.06.2007","name":"Alue Pande"}},{"type":"Feature","geometry":{"type":"Polygon","coordinates":[[[95.7455,4.6835],[95.738,4.6865],[95.726,4.68],[95.7195,4.668],[95.712,4.6325],[95.7045,4.6245],[95.6975,4.611],[95.693,4.606],[95.6925,4.604],[95.703,4.6],[95.722,4.5985],[95.721,4.604],[95.724,4.608],[95.725,4.6125],[95.7275,4.614],[95.7295,4.6135],[95.731,4.6135],[95.732,4.6305],[95.742,4.6465],[95.7385,4.663],[95.744,4.67],[95.7455,4.6835]]]},"properties":{"code":"11.14.06.2008","name":"Batee Meutudong"}},{"type":"Feature","geometry":{"type":"Polygon","coordinates":[[[95.7445,4.56],[95.7345,4.5635],[95.7295,4.5595],[95.7265,4.558],[95.725,4.5575],[95.726,4.556],[95.7435,4.553],[95.7465,4.5515],[95.748,4.5535],[95.751,4.558],[95.7445,4.56]]]},"properties":{"code":"11.14.06.2009","name":"Gampong Harapan"}},{"type":"Feature","geometry":{"type":"Polygon","coordinates":[[[95.968,4.7545],[95.9305,4.75],[95.9245,4.752],[95.879,4.7505],[95.8695,4.753],[95.8535,4.741],[95.853,4.7355],[95.858,4.724],[95.8575,4.711],[95.861,4.6805],[95.8455,4.669],[95.8445,4.647],[95.8405,4.625],[95.8325,4.621],[95.8345,4.604],[95.821,4.5925],[95.8185,4.583],[95.799,4.577],[95.796,4.5675],[95.779,4.557],[95.7805,4.5495],[95.78,4.545],[95.7785,4.54],[95.7905,4.539],[95.8085,4.5445],[95.8095,4.5505],[95.811,4.5525],[95.811,4.5555],[95.818,4.567],[95.8195,4.5675],[95.8205,4.57],[95.8415,4.598],[95.8445,4.5975],[95.8575,4.6105],[95.86,4.62],[95.871,4.625],[95.873,4.626],[95.876,4.652],[95.9025,4.6585],[95.909,4.665],[95.9245,4.6955],[95.9435,4.7245],[95.961,4.7415],[95.968,4.7545]]]},"properties":{"code":"11.14.06.2010","name":"Gunong Buloh"}},{"type":"Feature","geometry":{"type":"Polygon","coordinates":[[[95.853,4.7355],[95.835,4.7395],[95.834,4.7395],[95.8345,4.739],[95.8345,4.7385],[95.832,4.7335],[95.8315,4.7305],[95.829,4.7235],[95.8365,4.7145],[95.8425,4.696],[95.8335,4.6855],[95.8245,4.664],[95.8285,4.6495],[95.828,4.636],[95.817,4.6215],[95.818,4.611],[95.796,4.58],[95.774,4.57],[95.7755,4.56],[95.7695,4.5535],[95.7725,4.55],[95.7775,4.5475],[95.78,4.5475],[95.7805,4.5495],[95.779,4.557],[95.796,4.5675],[95.799,4.577],[95.8185,4.583],[95.821,4.5925],[95.8345,4.604],[95.8325,4.621],[95.8405,4.625],[95.8445,4.647],[95.8455,4.669],[95.861,4.6805],[95.8575,4.711],[95.858,4.724],[95.853,4.7355]]]},"properties":{"code":"11.14.06.2011","name":"Gunong Meulinteung"}},{"type":"Feature","geometry":{"type":"Polygon","coordinates":[[[95.7695,4.5535],[95.7755,4.56],[95.774,4.57],[95.796,4.58],[95.818,4.611],[95.817,4.6215],[95.828,4.636],[95.8285,4.6495],[95.8245,4.664],[95.8335,4.6855],[95.8425,4.696],[95.8365,4.7145],[95.829,4.7235],[95.8315,4.7305],[95.832,4.7335],[95.8345,4.7385],[95.8345,4.739],[95.834,4.7395],[95.8325,4.7385],[95.812,4.731],[95.8095,4.7265],[95.811,4.7165],[95.8025,4.699],[95.798,4.6545],[95.7845,4.6215],[95.782,4.6095],[95.774,4.6015],[95.7765,4.579],[95.7645,4.5725],[95.763,4.555],[95.762,4.552],[95.7605,4.5495],[95.7595,4.549],[95.7615,4.548],[95.7665,4.5465],[95.7695,4.5535]]]},"properties":{"code":"11.14.06.2013","name":"Alue Abed"}},{"type":"Feature","geometry":{"type":"Polygon","coordinates":[[[95.763,4.554],[95.763,4.555],[95.7645,4.5725],[95.7765,4.579],[95.774,4.6015],[95.782,4.6095],[95.7845,4.6215],[95.798,4.6545],[95.8025,4.699],[95.811,4.7165],[95.8095,4.7265],[95.786,4.708],[95.779,4.694],[95.778,4.692],[95.784,4.6845],[95.7785,4.6765],[95.782,4.6665],[95.774,4.657],[95.776,4.6435],[95.768,4.637],[95.772,4.6105],[95.7665,4.602],[95.7655,4.5815],[95.753,4.5625],[95.7585,4.5565],[95.758,4.556],[95.756,4.557],[95.7535,4.5575],[95.753,4.5535],[95.757,4.5535],[95.761,4.554],[95.763,4.554]]]},"properties":{"code":"11.14.06.2014","name":"Gunong Mantok"}},{"type":"Feature","geometry":{"type":"Polygon","coordinates":[[[95.753,4.5625],[95.7655,4.5815],[95.7665,4.602],[95.772,4.6105],[95.768,4.637],[95.776,4.6435],[95.774,4.657],[95.782,4.6665],[95.7785,4.6765],[95.784,4.6845],[95.778,4.692],[95.779,4.694],[95.786,4.708],[95.765,4.7045],[95.7595,4.6945],[95.767,4.674],[95.762,4.6605],[95.753,4.6535],[95.758,4.641],[95.7545,4.617],[95.7485,4.614],[95.745,4.596],[95.74,4.5945],[95.7415,4.5935],[95.741,4.5925],[95.74,4.5925],[95.74,4.592],[95.752,4.586],[95.7535,4.5865],[95.754,4.5845],[95.7535,4.583],[95.755,4.5825],[95.755,4.5815],[95.7475,4.565],[95.7515,4.563],[95.753,4.5625]]]},"properties":{"code":"11.14.06.2015","name":"Alue Raya"}},{"type":"Feature","geometry":{"type":"Polygon","coordinates":[[[95.7475,4.565],[95.7445,4.56],[95.751,4.558],[95.7515,4.563],[95.7475,4.565]]]},"properties":{"code":"11.14.06.2016","name":"Alue Teungoh"}},{"type":"Feature","geometry":{"type":"Polygon","coordinates":[[[95.755,4.5815],[95.7465,4.5855],[95.735,4.579],[95.7345,4.5635],[95.7445,4.56],[95.7475,4.565],[95.755,4.5815]]]},"properties":{"code":"11.14.06.2017","name":"Babah Ceupan"}},{"type":"Feature","geometry":{"type":"Polygon","coordinates":[[[95.78,4.5475],[95.7775,4.5475],[95.7725,4.55],[95.7695,4.5535],[95.7665,4.5465],[95.764,4.5345],[95.7785,4.54],[95.78,4.545],[95.78,4.5475]]]},"properties":{"code":"11.14.06.2018","name":"Tuwi Eumpeuk"}},{"type":"Feature","geometry":{"type":"Polygon","coordinates":[[[95.753,4.5625],[95.7515,4.563],[95.751,4.558],[95.752,4.5575],[95.756,4.557],[95.758,4.556],[95.7585,4.5565],[95.753,4.5625]]]},"properties":{"code":"11.14.06.2019","name":"Panton Kabu"}},{"type":"Feature","geometry":{"type":"Polygon","coordinates":[[[95.7535,4.5575],[95.752,4.5575],[95.751,4.558],[95.748,4.5535],[95.7465,4.5515],[95.757,4.5495],[95.758,4.5495],[95.7595,4.549],[95.7605,4.5495],[95.763,4.554],[95.761,4.554],[95.757,4.5535],[95.753,4.5535],[95.7535,4.5575]]]},"properties":{"code":"11.14.06.2020","name":"Tuwi Kayee"}},{"type":"Feature","geometry":{"type":"Polygon","coordinates":[[[95.701,4.5795],[95.697,4.579],[95.6925,4.585],[95.6745,4.5645],[95.6905,4.551],[95.7055,4.5705],[95.701,4.5795]]]},"properties":{"code":"11.14.06.2021","name":"Alue Piet"}},{"type":"Feature","geometry":{"type":"Polygon","coordinates":[[[95.3385,5.0605],[95.3305,5.0605],[95.34,5.05],[95.3405,5.053],[95.3385,5.0605]]]},"properties":{"code":"11.14.07.2001","name":"Ujong Muloh"}},{"type":"Feature","geometry":{"type":"Polygon","coordinates":[[[95.3405,5.0615],[95.3405,5.0625],[95.3405,5.063],[95.3415,5.064],[95.342,5.065],[95.341,5.0665],[95.3405,5.0675],[95.331,5.0675],[95.33,5.065],[95.3295,5.061],[95.3305,5.0605],[95.3385,5.0605],[95.3405,5.0615]]]},"properties":{"code":"11.14.07.2002","name":"Janguet"}},{"type":"Feature","geometry":{"type":"Polygon","coordinates":[[[95.3405,5.0695],[95.339,5.069],[95.338,5.074],[95.3365,5.072],[95.335,5.073],[95.333,5.072],[95.331,5.0675],[95.3405,5.0675],[95.3405,5.0695]]]},"properties":{"code":"11.14.07.2003","name":"Meunasah Rayeuk"}},{"type":"Feature","geometry":{"type":"Polygon","coordinates":[[[95.3435,5.084],[95.3315,5.0785],[95.335,5.073],[95.3365,5.072],[95.3385,5.0745],[95.3395,5.0755],[95.343,5.0755],[95.345,5.077],[95.3435,5.084]]]},"properties":{"code":"11.14.07.2004","name":"Mukhan"}},{"type":"Feature","geometry":{"type":"Polygon","coordinates":[[[95.342,5.0755],[95.3395,5.0755],[95.3385,5.0745],[95.338,5.074],[95.339,5.069],[95.3415,5.0695],[95.342,5.0715],[95.3415,5.0745],[95.342,5.0755]]]},"properties":{"code":"11.14.07.2005","name":"Meunasah Teungoh"}},{"type":"Feature","geometry":{"type":"Polygon","coordinates":[[[95.347,5.0765],[95.343,5.0755],[95.342,5.0755],[95.3415,5.0745],[95.342,5.0715],[95.3415,5.0695],[95.3435,5.07],[95.3465,5.073],[95.347,5.0765]]]},"properties":{"code":"11.14.07.2006","name":"Meunasah Tutong"}},{"type":"Feature","geometry":{"type":"Polygon","coordinates":[[[95.353,5.0755],[95.352,5.076],[95.3475,5.0765],[95.3465,5.073],[95.345,5.072],[95.3465,5.071],[95.3475,5.071],[95.348,5.07],[95.3485,5.0695],[95.3495,5.0685],[95.3505,5.07],[95.3525,5.071],[95.354,5.07],[95.3535,5.073],[95.353,5.074],[95.353,5.075],[95.353,5.0755]]]},"properties":{"code":"11.14.07.2007","name":"Babah Dua"}},{"type":"Feature","geometry":{"type":"Polygon","coordinates":[[[95.3495,5.0685],[95.3485,5.0695],[95.348,5.07],[95.3475,5.071],[95.3465,5.071],[95.345,5.072],[95.3435,5.07],[95.3405,5.0695],[95.341,5.067],[95.342,5.065],[95.3415,5.064],[95.3405,5.063],[95.3405,5.0625],[95.3405,5.0615],[95.344,5.0635],[95.348,5.0665],[95.3495,5.0685]]]},"properties":{"code":"11.14.07.2008","name":"Alue Mie"}},{"type":"Feature","geometry":{"type":"Polygon","coordinates":[[[95.3725,5.0775],[95.3665,5.079],[95.3635,5.077],[95.3615,5.073],[95.36,5.0745],[95.358,5.0745],[95.357,5.074],[95.357,5.0725],[95.3555,5.07],[95.3545,5.07],[95.3525,5.071],[95.3505,5.07],[95.348,5.0665],[95.344,5.0635],[95.3385,5.0605],[95.3405,5.053],[95.343,5.0555],[95.3435,5.0585],[95.3455,5.058],[95.352,5.062],[95.3535,5.063],[95.356,5.0605],[95.3685,5.066],[95.37,5.066],[95.3745,5.065],[95.375,5.067],[95.3725,5.076],[95.3735,5.077],[95.3725,5.0775]]]},"properties":{"code":"11.14.07.2009","name":"Teumareum"}},{"type":"Feature","geometry":{"type":"Polygon","coordinates":[[[95.3745,5.065],[95.37,5.066],[95.3685,5.066],[95.356,5.0605],[95.3535,5.063],[95.352,5.062],[95.3455,5.058],[95.3435,5.0585],[95.343,5.0555],[95.3405,5.053],[95.34,5.05],[95.3615,5.0395],[95.3665,5.0585],[95.371,5.0605],[95.374,5.0635],[95.3745,5.065]]]},"properties":{"code":"11.14.07.2010","name":"Kuala"}},{"type":"Feature","geometry":{"type":"Polygon","coordinates":[[[95.5065,5.0735],[95.5,5.0825],[95.4855,5.0905],[95.4705,5.0825],[95.444,5.0845],[95.436,5.0855],[95.4165,5.079],[95.4155,5.0795],[95.4145,5.08],[95.414,5.078],[95.3945,5.0795],[95.3745,5.077],[95.3725,5.076],[95.375,5.067],[95.3745,5.0645],[95.374,5.0635],[95.371,5.0605],[95.3665,5.0585],[95.3615,5.0395],[95.364,5.0375],[95.3775,5.037],[95.3835,5.025],[95.3715,5.0175],[95.374,5.0185],[95.3765,5.014],[95.3855,5.014],[95.4,5.0265],[95.42,5.0495],[95.4225,5.048],[95.435,5.047],[95.444,5.0545],[95.4555,5.057],[95.47,5.0535],[95.482,5.055],[95.5095,5.064],[95.5065,5.0735]]]},"properties":{"code":"11.14.07.2011","name":"Meudhang Ghon"}},{"type":"Feature","geometry":{"type":"Polygon","coordinates":[[[95.534,5.048],[95.532,5.058],[95.519,5.071],[95.515,5.0725],[95.5065,5.0735],[95.5095,5.064],[95.482,5.055],[95.47,5.0535],[95.4555,5.057],[95.444,5.0545],[95.435,5.047],[95.4225,5.048],[95.42,5.0495],[95.4,5.0265],[95.3855,5.014],[95.3765,5.014],[95.3755,5.008],[95.3825,5.0085],[95.401,5.0105],[95.4165,5.006],[95.4425,5.0185],[95.4685,5.033],[95.4745,5.0425],[95.523,5.039],[95.534,5.048]]]},"properties":{"code":"11.14.07.2012","name":"Kareung Ateuh"}},{"type":"Feature","geometry":{"type":"Polygon","coordinates":[[[95.534,5.048],[95.523,5.039],[95.4745,5.0425],[95.4685,5.033],[95.4425,5.0185],[95.4165,5.006],[95.401,5.0105],[95.3825,5.0085],[95.3755,5.008],[95.3765,5.014],[95.374,5.0185],[95.3715,5.0175],[95.3835,5.025],[95.3775,5.037],[95.364,5.0375],[95.3685,5.022],[95.3555,5.0055],[95.3685,4.997],[95.4,4.991],[95.4035,4.991],[95.4165,4.995],[95.429,4.9885],[95.4305,4.9885],[95.4385,4.987],[95.449,4.994],[95.4695,4.9945],[95.478,5.0125],[95.51,5.0145],[95.5205,5.006],[95.522,4.9885],[95.524,4.9885],[95.5285,4.99],[95.5405,4.9965],[95.535,5.0205],[95.534,5.048]]]},"properties":{"code":"11.14.07.2013","name":"Keude Unga"}},{"type":"Feature","geometry":{"type":"Polygon","coordinates":[[[95.4385,4.987],[95.4305,4.9885],[95.429,4.9885],[95.4165,4.995],[95.4035,4.991],[95.4,4.991],[95.3685,4.997],[95.3735,4.9745],[95.3815,4.9625],[95.3755,4.949],[95.3675,4.948],[95.3885,4.9375],[95.3975,4.941],[95.405,4.9555],[95.413,4.9605],[95.416,4.9625],[95.417,4.9635],[95.421,4.965],[95.4235,4.965],[95.4285,4.9665],[95.4325,4.9635],[95.4375,4.962],[95.4395,4.963],[95.4435,4.9635],[95.438,4.978],[95.438,4.9815],[95.4385,4.987]]]},"properties":{"code":"11.14.07.2014","name":"Ceunamprong"}},{"type":"Feature","geometry":{"type":"Polygon","coordinates":[[[95.47,4.784],[95.462,4.786],[95.4605,4.7895],[95.459,4.7935],[95.4565,4.8015],[95.4525,4.799],[95.4545,4.783],[95.4655,4.7765],[95.4825,4.761],[95.486,4.765],[95.4875,4.766],[95.488,4.766],[95.4895,4.7705],[95.4885,4.774],[95.4775,4.78],[95.47,4.784]]]},"properties":{"code":"11.14.08.2001","name":"Patek"}},{"type":"Feature","geometry":{"type":"Polygon","coordinates":[[[95.4695,4.8055],[95.468,4.806],[95.463,4.8055],[95.4625,4.805],[95.4565,4.8015],[95.459,4.7935],[95.4605,4.79],[95.463,4.7925],[95.466,4.7945],[95.467,4.796],[95.4695,4.8055]]]},"properties":{"code":"11.14.08.2002","name":"Gampong Baro Patek"}},{"type":"Feature","geometry":{"type":"Polygon","coordinates":[[[95.4725,4.8035],[95.4695,4.8055],[95.467,4.796],[95.466,4.7945],[95.463,4.7925],[95.4605,4.79],[95.462,4.786],[95.47,4.784],[95.4775,4.78],[95.4885,4.774],[95.4895,4.7705],[95.488,4.766],[95.49,4.7665],[95.4975,4.7765],[95.4725,4.8035]]]},"properties":{"code":"11.14.08.2003","name":"Blang Dalam"}},{"type":"Feature","geometry":{"type":"Polygon","coordinates":[[[95.4965,4.818],[95.4935,4.821],[95.4725,4.8035],[95.4975,4.7765],[95.5085,4.7845],[95.511,4.7865],[95.5055,4.785],[95.504,4.787],[95.4945,4.803],[95.4975,4.814],[95.497,4.817],[95.4965,4.818]]]},"properties":{"code":"11.14.08.2004","name":"Pajar"}},{"type":"Feature","geometry":{"type":"Polygon","coordinates":[[[95.5265,4.7935],[95.5205,4.807],[95.5025,4.812],[95.499,4.814],[95.4975,4.8145],[95.4975,4.814],[95.4945,4.803],[95.504,4.787],[95.5055,4.785],[95.511,4.7865],[95.5155,4.79],[95.5215,4.7925],[95.5265,4.7935]]]},"properties":{"code":"11.14.08.2005","name":"Reuntang"}},{"type":"Feature","geometry":{"type":"Polygon","coordinates":[[[95.5255,4.823],[95.525,4.8225],[95.5205,4.8225],[95.5135,4.8245],[95.505,4.823],[95.503,4.8225],[95.4965,4.818],[95.497,4.817],[95.4975,4.8145],[95.499,4.814],[95.5025,4.812],[95.5205,4.807],[95.5265,4.7935],[95.5295,4.794],[95.54,4.7965],[95.551,4.8095],[95.554,4.8115],[95.552,4.8155],[95.5385,4.817],[95.536,4.8175],[95.5335,4.8195],[95.531,4.8175],[95.5295,4.8185],[95.5255,4.823]]]},"properties":{"code":"11.14.08.2006","name":"Cot Pange"}},{"type":"Feature","geometry":{"type":"Polygon","coordinates":[[[95.4975,4.8355],[95.4965,4.839],[95.4945,4.839],[95.493,4.8385],[95.4845,4.8345],[95.4835,4.835],[95.4715,4.8305],[95.4695,4.829],[95.4665,4.822],[95.463,4.8055],[95.468,4.806],[95.4695,4.8055],[95.4725,4.8035],[95.4935,4.821],[95.498,4.8305],[95.4975,4.8355]]]},"properties":{"code":"11.14.08.2007","name":"Arongan"}},{"type":"Feature","geometry":{"type":"Polygon","coordinates":[[[95.5115,4.8285],[95.5085,4.83],[95.501,4.831],[95.498,4.831],[95.498,4.8305],[95.4935,4.821],[95.4965,4.818],[95.503,4.8225],[95.505,4.823],[95.5135,4.8245],[95.5115,4.8265],[95.511,4.8275],[95.5115,4.8285]]]},"properties":{"code":"11.14.08.2008","name":"Paya Santeut"}},{"type":"Feature","geometry":{"type":"Polygon","coordinates":[[[95.514,4.8305],[95.5135,4.8335],[95.511,4.8345],[95.5095,4.8335],[95.5075,4.837],[95.5045,4.8375],[95.5035,4.838],[95.503,4.839],[95.5025,4.842],[95.5015,4.8425],[95.5005,4.8415],[95.501,4.8395],[95.501,4.8385],[95.5,4.8385],[95.4985,4.8395],[95.498,4.8405],[95.497,4.8415],[95.496,4.8405],[95.497,4.8395],[95.4975,4.8355],[95.498,4.831],[95.501,4.831],[95.5085,4.83],[95.5115,4.8285],[95.512,4.8295],[95.514,4.8305]]]},"properties":{"code":"11.14.08.2009","name":"Krueng Tho"}},{"type":"Feature","geometry":{"type":"Polygon","coordinates":[[[95.518,4.8265],[95.5165,4.829],[95.5145,4.8245],[95.5135,4.8245],[95.5205,4.8225],[95.525,4.8225],[95.5255,4.823],[95.5255,4.825],[95.525,4.828],[95.5215,4.8245],[95.518,4.8265]]]},"properties":{"code":"11.14.08.2010","name":"Panton Krueng"}},{"type":"Feature","geometry":{"type":"Polygon","coordinates":[[[95.5445,4.8785],[95.543,4.878],[95.542,4.8765],[95.5405,4.8755],[95.54,4.8745],[95.539,4.8675],[95.5395,4.863],[95.5265,4.8595],[95.5245,4.858],[95.5275,4.851],[95.528,4.8435],[95.528,4.841],[95.5275,4.84],[95.528,4.8405],[95.5295,4.8405],[95.5325,4.84],[95.533,4.8405],[95.5355,4.8425],[95.545,4.842],[95.5465,4.843],[95.5475,4.8445],[95.548,4.8455],[95.5545,4.8475],[95.5565,4.8495],[95.557,4.8505],[95.5575,4.854],[95.5535,4.8745],[95.553,4.878],[95.548,4.8785],[95.5445,4.8785]]]},"properties":{"code":"11.14.08.2011","name":"Alue Gajah"}},{"type":"Feature","geometry":{"type":"Polygon","coordinates":[[[95.5245,4.858],[95.5195,4.852],[95.518,4.85],[95.5165,4.849],[95.519,4.8395],[95.519,4.839],[95.522,4.839],[95.5225,4.8405],[95.5255,4.839],[95.528,4.841],[95.528,4.8435],[95.5275,4.851],[95.5245,4.858]]]},"properties":{"code":"11.14.08.2012","name":"Sayeung"}},{"type":"Feature","geometry":{"type":"Polygon","coordinates":[[[95.5165,4.849],[95.4975,4.8515],[95.496,4.849],[95.5075,4.8385],[95.5185,4.837],[95.519,4.8395],[95.5165,4.849]]]},"properties":{"code":"11.14.08.2013","name":"Gunong Cut"}},{"type":"Feature","geometry":{"type":"Polygon","coordinates":[[[95.519,4.839],[95.5185,4.837],[95.5075,4.8385],[95.496,4.849],[95.4955,4.8475],[95.5015,4.8425],[95.5025,4.842],[95.503,4.839],[95.5035,4.838],[95.5045,4.8375],[95.5075,4.837],[95.5095,4.8335],[95.511,4.8345],[95.5135,4.8335],[95.514,4.8305],[95.5215,4.838],[95.522,4.839],[95.519,4.839]]]},"properties":{"code":"11.14.08.2014","name":"Ujong Rimba"}},{"type":"Feature","geometry":{"type":"Polygon","coordinates":[[[95.5255,4.839],[95.5225,4.8405],[95.5215,4.838],[95.514,4.8305],[95.512,4.8295],[95.511,4.8275],[95.5115,4.8265],[95.5145,4.8245],[95.5165,4.829],[95.518,4.8265],[95.5255,4.839]]]},"properties":{"code":"11.14.08.2015","name":"Lamteungoh"}},{"type":"Feature","geometry":{"type":"Polygon","coordinates":[[[95.533,4.8405],[95.5325,4.84],[95.5295,4.8405],[95.528,4.8405],[95.5275,4.84],[95.5255,4.839],[95.518,4.8265],[95.5215,4.8245],[95.525,4.828],[95.5265,4.8275],[95.533,4.832],[95.536,4.8315],[95.533,4.8405]]]},"properties":{"code":"11.14.08.2016","name":"Gampong Baro Lamteungoh"}},{"type":"Feature","geometry":{"type":"Polygon","coordinates":[[[95.545,4.842],[95.5355,4.8425],[95.533,4.8405],[95.536,4.8315],[95.533,4.832],[95.5265,4.8275],[95.5255,4.825],[95.5255,4.823],[95.5295,4.8185],[95.531,4.8175],[95.5335,4.8195],[95.536,4.8175],[95.5385,4.817],[95.5405,4.8195],[95.542,4.8245],[95.5465,4.8335],[95.547,4.837],[95.545,4.842]]]},"properties":{"code":"11.14.08.2017","name":"Babah Dua"}},{"type":"Feature","geometry":{"type":"Polygon","coordinates":[[[95.552,4.8155],[95.5515,4.816],[95.5485,4.8185],[95.5495,4.8215],[95.553,4.8395],[95.551,4.8415],[95.5475,4.845],[95.5475,4.8445],[95.5465,4.843],[95.545,4.842],[95.547,4.837],[95.5465,4.8335],[95.542,4.8245],[95.5405,4.8195],[95.5385,4.817],[95.552,4.8155]]]},"properties":{"code":"11.14.08.2018","name":"Masen"}},{"type":"Feature","geometry":{"type":"Polygon","coordinates":[[[95.7755,5.0245],[95.766,5.038],[95.762,5.0555],[95.745,5.0605],[95.736,5.054],[95.702,5.055],[95.699,5.057],[95.698,5.056],[95.6965,5.0555],[95.695,5.054],[95.6925,5.052],[95.688,5.046],[95.686,5.0455],[95.6765,5.0455],[95.671,5.031],[95.663,5.0215],[95.65,5.018],[95.6495,5.017],[95.6485,4.995],[95.645,4.991],[95.64,4.968],[95.6355,4.9645],[95.6175,4.947],[95.596,4.939],[95.594,4.9375],[95.592,4.9265],[95.5775,4.9105],[95.5725,4.897],[95.561,4.8915],[95.558,4.8915],[95.5445,4.8785],[95.548,4.8785],[95.553,4.878],[95.5535,4.8745],[95.5575,4.854],[95.557,4.8505],[95.5565,4.8495],[95.5545,4.8475],[95.548,4.8455],[95.5475,4.845],[95.551,4.8415],[95.553,4.8395],[95.5495,4.8215],[95.5485,4.8185],[95.5515,4.816],[95.554,4.8115],[95.5565,4.8125],[95.575,4.8055],[95.5885,4.8195],[95.606,4.8215],[95.606,4.829],[95.5965,4.8375],[95.597,4.8485],[95.587,4.8645],[95.599,4.87],[95.602,4.8785],[95.6125,4.8855],[95.6125,4.8945],[95.628,4.8985],[95.6375,4.907],[95.64,4.9075],[95.6475,4.9045],[95.651,4.9025],[95.6515,4.9015],[95.658,4.896],[95.6605,4.8945],[95.665,4.9005],[95.6655,4.902],[95.665,4.906],[95.665,4.907],[95.6595,4.9215],[95.6645,4.9305],[95.6665,4.9365],[95.6665,4.9465],[95.6675,4.948],[95.67,4.949],[95.6725,4.9495],[95.6765,4.9485],[95.679,4.948],[95.686,4.952],[95.7075,4.9535],[95.709,4.9605],[95.728,4.959],[95.727,4.968],[95.739,4.9865],[95.7405,5.003],[95.7615,5.0075],[95.7665,5.019],[95.7755,5.0245]]]},"properties":{"code":"11.14.08.2019","name":"Teupin Asan"}},{"type":"Feature","geometry":{"type":"Polygon","coordinates":[[[95.848,4.451],[95.845,4.472],[95.842,4.4795],[95.838,4.471],[95.8345,4.463],[95.8435,4.4565],[95.848,4.451]]]},"properties":{"code":"11.14.09.2001","name":"Pulo Tinggi"}},{"type":"Feature","geometry":{"type":"Polygon","coordinates":[[[95.859,4.4545],[95.8565,4.48],[95.844,4.4895],[95.843,4.4815],[95.842,4.4795],[95.842,4.479],[95.845,4.472],[95.848,4.451],[95.85,4.451],[95.8565,4.4545],[95.859,4.4545]]]},"properties":{"code":"11.14.09.2002","name":"Alue Krueng"}},{"type":"Feature","geometry":{"type":"Polygon","coordinates":[[[95.8705,4.473],[95.8665,4.4725],[95.8625,4.475],[95.862,4.484],[95.85,4.5045],[95.843,4.5075],[95.842,4.508],[95.8395,4.506],[95.837,4.5015],[95.835,4.5],[95.844,4.4895],[95.8565,4.48],[95.859,4.4545],[95.861,4.4545],[95.8665,4.4535],[95.8705,4.472],[95.8705,4.473]]]},"properties":{"code":"11.14.09.2003","name":"Pasi Teubee"}},{"type":"Feature","geometry":{"type":"Polygon","coordinates":[[[95.8725,4.483],[95.8665,4.4985],[95.85,4.5145],[95.8415,4.513],[95.8405,4.5115],[95.841,4.5105],[95.842,4.5085],[95.842,4.508],[95.843,4.5075],[95.85,4.5045],[95.862,4.484],[95.8625,4.475],[95.8665,4.4725],[95.8705,4.473],[95.8705,4.475],[95.8725,4.483]]]},"properties":{"code":"11.14.09.2004","name":"Timpleung"}},{"type":"Feature","geometry":{"type":"Polygon","coordinates":[[[95.886,4.489],[95.8705,4.5035],[95.855,4.5255],[95.8545,4.525],[95.8545,4.524],[95.8515,4.5235],[95.8505,4.52],[95.8505,4.5165],[95.85,4.5145],[95.8665,4.4985],[95.8725,4.483],[95.874,4.484],[95.8775,4.485],[95.878,4.4845],[95.8785,4.483],[95.886,4.489]]]},"properties":{"code":"11.14.09.2005","name":"Krueng Beukah"}},{"type":"Feature","geometry":{"type":"Polygon","coordinates":[[[95.8875,4.508],[95.883,4.525],[95.873,4.5345],[95.8725,4.5465],[95.872,4.546],[95.868,4.544],[95.855,4.5265],[95.855,4.5255],[95.8705,4.5035],[95.886,4.489],[95.8985,4.4795],[95.913,4.4905],[95.917,4.4955],[95.905,4.499],[95.9,4.4965],[95.8875,4.508]]]},"properties":{"code":"11.14.09.2006","name":"Tuwi Kareung"}},{"type":"Feature","geometry":{"type":"Polygon","coordinates":[[[95.9725,4.526],[95.9695,4.526],[95.951,4.531],[95.937,4.5275],[95.92,4.5355],[95.911,4.5265],[95.9035,4.512],[95.8875,4.508],[95.9,4.4965],[95.905,4.499],[95.917,4.4955],[95.9185,4.4985],[95.923,4.498],[95.9455,4.4875],[95.95,4.4975],[95.964,4.5175],[95.9685,4.5225],[95.9725,4.526]]]},"properties":{"code":"11.14.09.2007","name":"Lhok Guci"}},{"type":"Feature","geometry":{"type":"Polygon","coordinates":[[[95.9135,4.549],[95.8785,4.5735],[95.876,4.565],[95.8725,4.5465],[95.873,4.5345],[95.883,4.525],[95.8875,4.508],[95.9035,4.512],[95.911,4.5265],[95.92,4.5355],[95.9135,4.549]]]},"properties":{"code":"11.14.09.2008","name":"Tuwi Peuriya"}},{"type":"Feature","geometry":{"type":"Polygon","coordinates":[[[96.039,4.5955],[96.0265,4.612],[96.026,4.6135],[96.0285,4.6225],[96.0295,4.6255],[96.043,4.66],[96.0215,4.7025],[96.0165,4.715],[96.0145,4.7145],[96.013,4.713],[96.0065,4.7005],[96.0125,4.693],[96.01,4.658],[95.983,4.6415],[95.9725,4.6315],[95.9405,4.6275],[95.9235,4.6125],[95.925,4.609],[95.925,4.605],[95.924,4.5895],[95.9235,4.5775],[95.9215,4.571],[95.926,4.561],[95.9625,4.5645],[95.973,4.5695],[95.992,4.5545],[96.0105,4.558],[96.016,4.555],[96.017,4.5705],[96.0195,4.5725],[96.0245,4.5725],[96.0275,4.573],[96.0335,4.5725],[96.0345,4.573],[96.0375,4.5755],[96.0385,4.5765],[96.04,4.581],[96.042,4.5855],[96.039,4.5955]]]},"properties":{"code":"11.14.09.2009","name":"Sarah Raya"}},{"type":"Feature","geometry":{"type":"Polygon","coordinates":[[[95.9945,4.7555],[95.968,4.7545],[95.961,4.7415],[95.9435,4.7245],[95.9245,4.6955],[95.909,4.665],[95.9025,4.6585],[95.876,4.652],[95.873,4.626],[95.8735,4.6265],[95.895,4.623],[95.9085,4.624],[95.916,4.6075],[95.913,4.5935],[95.8975,4.5915],[95.888,4.594],[95.887,4.603],[95.885,4.6015],[95.884,4.594],[95.882,4.5855],[95.8945,4.584],[95.915,4.5825],[95.9235,4.5775],[95.924,4.5895],[95.925,4.605],[95.925,4.609],[95.9235,4.6125],[95.9405,4.6275],[95.9725,4.6315],[95.983,4.6415],[96.01,4.658],[96.0125,4.693],[96.0065,4.7005],[96.013,4.713],[96.0145,4.7145],[96.0165,4.715],[96.0085,4.731],[96,4.7495],[95.9945,4.7555]]]},"properties":{"code":"11.14.09.2010","name":"Alue Jang"}},{"type":"Feature","geometry":{"type":"Polygon","coordinates":[[[95.9235,4.5775],[95.915,4.5825],[95.8945,4.584],[95.9065,4.58],[95.9175,4.5715],[95.9195,4.571],[95.9215,4.571],[95.9235,4.5775]]]},"properties":{"code":"11.14.09.2011","name":"Ceuraceu"}},{"type":"Feature","geometry":{"type":"Polygon","coordinates":[[[95.8945,4.584],[95.882,4.5855],[95.881,4.583],[95.8785,4.5735],[95.9135,4.549],[95.914,4.5565],[95.926,4.561],[95.9215,4.571],[95.9195,4.571],[95.9175,4.5715],[95.9065,4.58],[95.8945,4.584]]]},"properties":{"code":"11.14.09.2012","name":"Alue Punti"}},{"type":"Feature","geometry":{"type":"Polygon","coordinates":[[[96.016,4.555],[96.0105,4.558],[95.992,4.5545],[95.973,4.5695],[95.9625,4.5645],[95.926,4.561],[95.914,4.5565],[95.9135,4.549],[95.92,4.5355],[95.937,4.5275],[95.951,4.531],[95.9695,4.526],[95.9725,4.526],[95.978,4.5295],[95.995,4.5395],[95.9965,4.5395],[96.0005,4.54],[96.016,4.555]]]},"properties":{"code":"11.14.09.2013","name":"Bintah"}},{"type":"Feature","geometry":{"type":"Polygon","coordinates":[[[95.887,4.603],[95.888,4.594],[95.8975,4.5915],[95.913,4.5935],[95.916,4.6075],[95.9085,4.624],[95.895,4.623],[95.887,4.603]]]},"properties":{"code":"11.14.09.2014","name":"Buket Keumuneng"}}]}