{"type":"FeatureCollection","features":[{"type":"Feature","geometry":{"type":"Polygon","coordinates":[[[99.3305,3.425],[99.3195,3.4325],[99.309,3.423],[99.3065,3.424],[99.3045,3.4205],[99.3105,3.418],[99.318,3.413],[99.3205,3.4115],[99.323,3.413],[99.3305,3.425]]]},"properties":{"code":"12.19.01.1001","name":"Pangkalan Dodek"}},{"type":"Feature","geometry":{"type":"Polygon","coordinates":[[[99.3205,3.4115],[99.318,3.413],[99.3105,3.418],[99.3045,3.4205],[99.303,3.4185],[99.313,3.413],[99.3185,3.4105],[99.3195,3.411],[99.3205,3.4115]]]},"properties":{"code":"12.19.01.1002","name":"Pangkalan Dodek Baru"}},{"type":"Feature","geometry":{"type":"Polygon","coordinates":[[[99.3185,3.4105],[99.313,3.413],[99.312,3.41],[99.3155,3.408],[99.3175,3.4085],[99.3185,3.4105]]]},"properties":{"code":"12.19.01.1021","name":"Pagurawan"}},{"type":"Feature","geometry":{"type":"Polygon","coordinates":[[[99.332,3.382],[99.3305,3.392],[99.3255,3.3935],[99.313,3.402],[99.3095,3.403],[99.309,3.402],[99.297,3.3905],[99.2935,3.379],[99.291,3.3735],[99.2875,3.369],[99.289,3.37],[99.291,3.37],[99.295,3.3745],[99.2985,3.3715],[99.3005,3.3735],[99.3005,3.374],[99.3015,3.376],[99.302,3.3775],[99.3035,3.379],[99.3065,3.3805],[99.3085,3.3815],[99.311,3.3795],[99.313,3.3825],[99.3215,3.3855],[99.332,3.382]]]},"properties":{"code":"12.19.01.2003","name":"Aek Nauli"}},{"type":"Feature","geometry":{"type":"Polygon","coordinates":[[[99.358,3.4085],[99.353,3.401],[99.3525,3.3985],[99.3525,3.3945],[99.354,3.3935],[99.3545,3.3925],[99.3545,3.384],[99.3515,3.3835],[99.351,3.3835],[99.349,3.383],[99.3485,3.383],[99.347,3.3815],[99.346,3.38],[99.3495,3.3755],[99.352,3.3745],[99.357,3.373],[99.358,3.372],[99.3655,3.3665],[99.3715,3.3685],[99.371,3.369],[99.3705,3.369],[99.369,3.3695],[99.365,3.386],[99.3635,3.395],[99.3655,3.4025],[99.358,3.4085]]]},"properties":{"code":"12.19.01.2004","name":"Durian"}},{"type":"Feature","geometry":{"type":"Polygon","coordinates":[[[99.443,3.3715],[99.407,3.388],[99.403,3.3765],[99.3825,3.369],[99.381,3.367],[99.381,3.3655],[99.381,3.364],[99.3875,3.367],[99.3945,3.368],[99.4005,3.364],[99.4045,3.363],[99.4045,3.3625],[99.4055,3.3635],[99.406,3.363],[99.407,3.364],[99.4135,3.3595],[99.4145,3.3585],[99.421,3.3525],[99.4215,3.3535],[99.4275,3.3685],[99.4375,3.3645],[99.443,3.3715]]]},"properties":{"code":"12.19.01.2005","name":"Lalang"}},{"type":"Feature","geometry":{"type":"Polygon","coordinates":[[[99.407,3.388],[99.3875,3.393],[99.3855,3.3865],[99.3815,3.379],[99.3745,3.374],[99.3735,3.373],[99.373,3.3715],[99.374,3.3665],[99.375,3.366],[99.381,3.367],[99.3825,3.369],[99.403,3.3765],[99.407,3.388]]]},"properties":{"code":"12.19.01.2006","name":"Medang"}},{"type":"Feature","geometry":{"type":"Polygon","coordinates":[[[99.406,3.363],[99.4055,3.3635],[99.4045,3.3625],[99.4045,3.363],[99.4005,3.364],[99.3945,3.368],[99.3875,3.367],[99.381,3.364],[99.381,3.3635],[99.383,3.3595],[99.3855,3.3565],[99.39,3.3525],[99.3965,3.353],[99.3965,3.3545],[99.398,3.3545],[99.3985,3.356],[99.4035,3.3605],[99.4055,3.363],[99.406,3.363]]]},"properties":{"code":"12.19.01.2007","name":"Pakam"}},{"type":"Feature","geometry":{"type":"Polygon","coordinates":[[[99.3935,3.349],[99.39,3.3525],[99.3855,3.3565],[99.3825,3.3585],[99.3785,3.353],[99.3745,3.3445],[99.374,3.3445],[99.3735,3.344],[99.374,3.344],[99.3755,3.345],[99.373,3.3405],[99.374,3.34],[99.3765,3.3405],[99.381,3.345],[99.3805,3.3435],[99.3805,3.3395],[99.38,3.339],[99.3815,3.338],[99.382,3.338],[99.3825,3.3385],[99.384,3.3395],[99.385,3.343],[99.3875,3.3455],[99.388,3.3455],[99.3905,3.3475],[99.3925,3.3485],[99.3935,3.349]]]},"properties":{"code":"12.19.01.2008","name":"Pakam Raya"}},{"type":"Feature","geometry":{"type":"Polygon","coordinates":[[[99.3715,3.3685],[99.3655,3.3665],[99.367,3.357],[99.367,3.355],[99.3785,3.353],[99.3825,3.3585],[99.383,3.3595],[99.381,3.3635],[99.381,3.3655],[99.381,3.367],[99.375,3.366],[99.373,3.3665],[99.3715,3.3685]]]},"properties":{"code":"12.19.01.2009","name":"Pematang Cengkering"}},{"type":"Feature","geometry":{"type":"Polygon","coordinates":[[[99.3525,3.3985],[99.3425,3.3935],[99.3285,3.409],[99.327,3.41],[99.32,3.4055],[99.3175,3.4085],[99.3155,3.408],[99.3125,3.409],[99.3125,3.408],[99.3115,3.4065],[99.3095,3.403],[99.313,3.402],[99.3255,3.3935],[99.3305,3.392],[99.332,3.382],[99.3335,3.3795],[99.337,3.379],[99.3385,3.379],[99.3395,3.3805],[99.34,3.381],[99.3405,3.381],[99.342,3.381],[99.346,3.38],[99.347,3.3815],[99.3485,3.383],[99.349,3.383],[99.351,3.3835],[99.3515,3.3835],[99.3545,3.384],[99.3545,3.3925],[99.354,3.3935],[99.3525,3.3945],[99.3525,3.3985]]]},"properties":{"code":"12.19.01.2010","name":"Sei Buah Keras"}},{"type":"Feature","geometry":{"type":"Polygon","coordinates":[[[99.346,3.38],[99.342,3.381],[99.3415,3.381],[99.3425,3.374],[99.342,3.3705],[99.3415,3.369],[99.342,3.367],[99.3425,3.3625],[99.343,3.362],[99.3435,3.3615],[99.3455,3.359],[99.3475,3.3575],[99.3485,3.357],[99.351,3.357],[99.3535,3.357],[99.3565,3.3725],[99.357,3.373],[99.352,3.3745],[99.3495,3.3755],[99.346,3.38]]]},"properties":{"code":"12.19.01.2011","name":"Sei Rakyat"}},{"type":"Feature","geometry":{"type":"Polygon","coordinates":[[[99.313,3.413],[99.303,3.4185],[99.2985,3.414],[99.2915,3.4055],[99.2855,3.3995],[99.288,3.386],[99.2935,3.379],[99.297,3.3905],[99.309,3.402],[99.3105,3.4055],[99.3115,3.4065],[99.3125,3.408],[99.3125,3.409],[99.312,3.41],[99.313,3.413]]]},"properties":{"code":"12.19.01.2012","name":"Sidomulyo"}},{"type":"Feature","geometry":{"type":"Polygon","coordinates":[[[99.3535,3.357],[99.351,3.357],[99.3485,3.357],[99.3475,3.3575],[99.3455,3.359],[99.3455,3.3575],[99.345,3.356],[99.3545,3.348],[99.358,3.3465],[99.36,3.3475],[99.3635,3.3455],[99.363,3.3405],[99.363,3.3385],[99.3635,3.338],[99.369,3.342],[99.371,3.3415],[99.369,3.3495],[99.368,3.35],[99.3675,3.353],[99.3665,3.354],[99.367,3.354],[99.3535,3.357]]]},"properties":{"code":"12.19.01.2013","name":"Tanjung Sigoni"}},{"type":"Feature","geometry":{"type":"Polygon","coordinates":[[[99.358,3.4085],[99.345,3.4195],[99.3305,3.425],[99.323,3.413],[99.3195,3.411],[99.3185,3.4105],[99.3175,3.4085],[99.32,3.4055],[99.327,3.41],[99.3285,3.409],[99.3425,3.3935],[99.3525,3.3985],[99.353,3.401],[99.358,3.4085]]]},"properties":{"code":"12.19.01.2014","name":"Nenas Siam"}},{"type":"Feature","geometry":{"type":"Polygon","coordinates":[[[99.3815,3.338],[99.38,3.339],[99.3805,3.3395],[99.3805,3.3435],[99.381,3.345],[99.3765,3.3405],[99.374,3.34],[99.373,3.3405],[99.3755,3.345],[99.374,3.344],[99.3735,3.344],[99.3735,3.343],[99.371,3.3415],[99.369,3.342],[99.3635,3.338],[99.3645,3.336],[99.3655,3.334],[99.3665,3.3315],[99.3655,3.3285],[99.3665,3.3185],[99.381,3.338],[99.3815,3.338]]]},"properties":{"code":"12.19.01.2015","name":"Pakam Raya Selatan"}},{"type":"Feature","geometry":{"type":"Polygon","coordinates":[[[99.421,3.3525],[99.4145,3.3585],[99.4135,3.3595],[99.407,3.364],[99.4055,3.363],[99.4035,3.3605],[99.3985,3.356],[99.398,3.3545],[99.3985,3.354],[99.401,3.345],[99.419,3.3475],[99.4195,3.349],[99.421,3.3505],[99.4205,3.352],[99.421,3.3525]]]},"properties":{"code":"12.19.01.2016","name":"Mandarsah"}},{"type":"Feature","geometry":{"type":"Polygon","coordinates":[[[99.3835,3.383],[99.374,3.3835],[99.365,3.388],[99.365,3.386],[99.369,3.3695],[99.3705,3.369],[99.371,3.369],[99.373,3.3665],[99.374,3.3665],[99.373,3.3715],[99.3735,3.373],[99.3745,3.374],[99.3815,3.379],[99.3835,3.383]]]},"properties":{"code":"12.19.01.2017","name":"Medang Baru"}},{"type":"Feature","geometry":{"type":"Polygon","coordinates":[[[99.3875,3.393],[99.368,3.3985],[99.3655,3.4025],[99.365,3.388],[99.374,3.3835],[99.3835,3.383],[99.3855,3.3865],[99.3875,3.393]]]},"properties":{"code":"12.19.01.2018","name":"Pematang Nibung"}},{"type":"Feature","geometry":{"type":"Polygon","coordinates":[[[99.3785,3.353],[99.367,3.355],[99.367,3.354],[99.3665,3.354],[99.3675,3.353],[99.368,3.35],[99.369,3.3495],[99.371,3.3415],[99.3735,3.343],[99.3735,3.344],[99.374,3.3445],[99.3745,3.3445],[99.3785,3.353]]]},"properties":{"code":"12.19.01.2019","name":"Cengkering Pekan"}},{"type":"Feature","geometry":{"type":"Polygon","coordinates":[[[99.3655,3.3665],[99.358,3.372],[99.3565,3.3725],[99.3535,3.357],[99.367,3.354],[99.367,3.357],[99.3655,3.3665]]]},"properties":{"code":"12.19.01.2020","name":"Sei Raja"}},{"type":"Feature","geometry":{"type":"MultiPolygon","coordinates":[[[[99.356,3.3365],[99.354,3.3365],[99.353,3.3365],[99.3505,3.3395],[99.3495,3.3385],[99.3505,3.3365],[99.3425,3.336],[99.333,3.325],[99.3325,3.3215],[99.329,3.3045],[99.33,3.303],[99.3385,3.3025],[99.348,3.303],[99.3495,3.3035],[99.3565,3.31],[99.351,3.3135],[99.3595,3.3295],[99.361,3.3325],[99.36,3.3335],[99.356,3.3365]]],[[[99.328,3.3295],[99.3215,3.33],[99.3185,3.324],[99.3175,3.322],[99.3185,3.311],[99.3215,3.31],[99.3225,3.3105],[99.327,3.3105],[99.328,3.3295]]],[[[99.381,3.3115],[99.3765,3.319],[99.3665,3.316],[99.362,3.3085],[99.359,3.307],[99.359,3.303],[99.3555,3.3005],[99.355,3.2975],[99.3675,3.2995],[99.372,3.3015],[99.3735,3.303],[99.381,3.3115]]],[[[99.327,3.3035],[99.3145,3.3085],[99.31,3.3015],[99.315,3.2985],[99.3235,3.2955],[99.329,3.301],[99.327,3.3035]]]]},"properties":{"code":"12.19.02.1001","name":"Perkebunan Sipare Pare"}},{"type":"Feature","geometry":{"type":"Polygon","coordinates":[[[99.3505,3.3365],[99.3495,3.3385],[99.3505,3.3395],[99.3495,3.34],[99.348,3.342],[99.344,3.3465],[99.3335,3.3665],[99.332,3.364],[99.3295,3.3495],[99.329,3.3465],[99.321,3.3335],[99.3205,3.3325],[99.32,3.331],[99.3175,3.3245],[99.316,3.321],[99.3155,3.3185],[99.316,3.316],[99.3145,3.311],[99.3125,3.307],[99.309,3.3045],[99.305,3.3045],[99.315,3.2985],[99.31,3.3015],[99.3145,3.3085],[99.327,3.3035],[99.328,3.3025],[99.328,3.303],[99.3295,3.304],[99.329,3.3045],[99.3325,3.3215],[99.333,3.325],[99.3425,3.336],[99.3505,3.3365]],[[99.3185,3.324],[99.3215,3.33],[99.328,3.3295],[99.327,3.3105],[99.3225,3.3105],[99.3215,3.31],[99.3185,3.311],[99.3175,3.322],[99.3185,3.324]]]},"properties":{"code":"12.19.02.2007","name":"Sei Suka Deras"}},{"type":"Feature","geometry":{"type":"Polygon","coordinates":[[[99.3415,3.381],[99.3405,3.381],[99.339,3.378],[99.3345,3.37],[99.3335,3.3665],[99.344,3.3465],[99.348,3.342],[99.3495,3.34],[99.3525,3.3385],[99.353,3.3365],[99.356,3.3365],[99.36,3.3335],[99.361,3.3325],[99.3615,3.332],[99.3635,3.3285],[99.3665,3.3315],[99.3655,3.334],[99.3645,3.336],[99.363,3.3385],[99.363,3.3405],[99.3635,3.3455],[99.36,3.3475],[99.358,3.3465],[99.3545,3.348],[99.345,3.356],[99.3455,3.3575],[99.3455,3.359],[99.3435,3.3615],[99.343,3.362],[99.3425,3.3625],[99.342,3.367],[99.3415,3.369],[99.342,3.3705],[99.3425,3.374],[99.3415,3.381]]]},"properties":{"code":"12.19.02.2008","name":"Simodong"}},{"type":"Feature","geometry":{"type":"Polygon","coordinates":[[[99.398,3.3545],[99.3965,3.3545],[99.3965,3.353],[99.3935,3.349],[99.3925,3.3485],[99.3905,3.3475],[99.388,3.3455],[99.3875,3.3455],[99.385,3.343],[99.384,3.3395],[99.3825,3.3385],[99.382,3.338],[99.381,3.338],[99.3665,3.3185],[99.3655,3.3175],[99.3665,3.317],[99.3765,3.319],[99.381,3.3115],[99.39,3.318],[99.4045,3.332],[99.3985,3.354],[99.398,3.3545]]]},"properties":{"code":"12.19.02.2009","name":"Pematang Jering"}},{"type":"Feature","geometry":{"type":"Polygon","coordinates":[[[99.4195,3.349],[99.419,3.3475],[99.401,3.345],[99.4045,3.332],[99.39,3.318],[99.401,3.3165],[99.4075,3.316],[99.4335,3.3375],[99.437,3.3395],[99.4295,3.343],[99.4195,3.349]]]},"properties":{"code":"12.19.02.2010","name":"Pematang Kuning"}},{"type":"Feature","geometry":{"type":"Polygon","coordinates":[[[99.465,3.3525],[99.455,3.3415],[99.4455,3.3405],[99.4435,3.3415],[99.438,3.342],[99.4365,3.3515],[99.4315,3.3505],[99.431,3.348],[99.4285,3.345],[99.428,3.344],[99.4295,3.343],[99.437,3.3395],[99.4425,3.334],[99.444,3.334],[99.4445,3.3345],[99.4455,3.336],[99.445,3.3365],[99.4455,3.337],[99.446,3.3375],[99.4465,3.339],[99.4465,3.3395],[99.4485,3.3395],[99.4495,3.338],[99.451,3.3365],[99.452,3.3355],[99.4525,3.334],[99.472,3.327],[99.4725,3.327],[99.475,3.3255],[99.4765,3.3255],[99.477,3.325],[99.478,3.3265],[99.4785,3.3265],[99.484,3.327],[99.486,3.3265],[99.4885,3.344],[99.465,3.3525]]]},"properties":{"code":"12.19.02.2011","name":"Kuala Indah"}},{"type":"Feature","geometry":{"type":"Polygon","coordinates":[[[99.465,3.3525],[99.4555,3.3575],[99.443,3.3715],[99.4375,3.3645],[99.4275,3.3685],[99.4215,3.3535],[99.4205,3.352],[99.421,3.3505],[99.4195,3.349],[99.423,3.3475],[99.428,3.344],[99.4285,3.345],[99.431,3.348],[99.4315,3.3505],[99.4365,3.3515],[99.438,3.342],[99.4435,3.3415],[99.4455,3.3405],[99.455,3.3415],[99.465,3.3525]]]},"properties":{"code":"12.19.02.2012","name":"Kuala Tanjung"}},{"type":"Feature","geometry":{"type":"Polygon","coordinates":[[[99.348,3.303],[99.3385,3.3025],[99.3345,3.303],[99.334,3.293],[99.345,3.288],[99.3465,3.2945],[99.345,3.2965],[99.3445,3.2995],[99.345,3.3005],[99.346,3.3005],[99.348,3.303]]]},"properties":{"code":"12.19.02.2018","name":"Tanjung Gading"}},{"type":"Feature","geometry":{"type":"Polygon","coordinates":[[[99.3345,3.303],[99.33,3.303],[99.3295,3.304],[99.328,3.303],[99.328,3.3025],[99.329,3.301],[99.3235,3.2955],[99.3315,3.2925],[99.334,3.293],[99.3345,3.303]]]},"properties":{"code":"12.19.02.2019","name":"Simpang Kopi"}},{"type":"Feature","geometry":{"type":"Polygon","coordinates":[[[99.3665,3.3315],[99.3635,3.3285],[99.3615,3.332],[99.3595,3.3295],[99.351,3.3135],[99.3565,3.31],[99.361,3.311],[99.362,3.311],[99.364,3.316],[99.3655,3.3175],[99.3665,3.3185],[99.3655,3.3285],[99.3665,3.3315]]]},"properties":{"code":"12.19.02.2020","name":"Brohol"}},{"type":"Feature","geometry":{"type":"Polygon","coordinates":[[[99.3745,3.2835],[99.372,3.2885],[99.3715,3.288],[99.3705,3.287],[99.3685,3.286],[99.368,3.2855],[99.368,3.2765],[99.3705,3.2775],[99.3725,3.2765],[99.3745,3.2785],[99.3745,3.279],[99.3735,3.2805],[99.371,3.2805],[99.3715,3.2815],[99.372,3.2825],[99.3745,3.2835]]]},"properties":{"code":"12.19.03.1001","name":"Indrapura"}},{"type":"Feature","geometry":{"type":"Polygon","coordinates":[[[99.37,3.294],[99.364,3.296],[99.3645,3.295],[99.3675,3.288],[99.3665,3.2875],[99.367,3.2855],[99.367,3.285],[99.3685,3.286],[99.372,3.288],[99.37,3.294]]]},"properties":{"code":"12.19.03.1019","name":"Indrasakti"}},{"type":"Feature","geometry":{"type":"Polygon","coordinates":[[[99.453,3.296],[99.441,3.294],[99.4345,3.3005],[99.435,3.3015],[99.437,3.302],[99.4375,3.302],[99.439,3.303],[99.434,3.3135],[99.4335,3.3135],[99.4285,3.312],[99.425,3.31],[99.4235,3.309],[99.413,3.297],[99.412,3.295],[99.4105,3.2945],[99.409,3.293],[99.4125,3.2855],[99.415,3.2815],[99.4235,3.2735],[99.424,3.2735],[99.4295,3.2815],[99.4305,3.2835],[99.4305,3.284],[99.431,3.285],[99.4315,3.287],[99.4325,3.289],[99.4345,3.29],[99.44,3.2925],[99.443,3.2925],[99.453,3.296]]]},"properties":{"code":"12.19.03.2002","name":"Limau Sundai"}},{"type":"Feature","geometry":{"type":"Polygon","coordinates":[[[99.4235,3.2735],[99.415,3.2815],[99.4115,3.2835],[99.4085,3.2805],[99.4045,3.2655],[99.399,3.2645],[99.399,3.2605],[99.398,3.259],[99.398,3.258],[99.3965,3.256],[99.3975,3.2565],[99.404,3.2545],[99.404,3.254],[99.416,3.262],[99.4195,3.271],[99.422,3.271],[99.4225,3.272],[99.4235,3.2735]]]},"properties":{"code":"12.19.03.2003","name":"Pematang Panjang"}},{"type":"Feature","geometry":{"type":"Polygon","coordinates":[[[99.399,3.2645],[99.401,3.2805],[99.4,3.2825],[99.3795,3.2695],[99.381,3.2655],[99.3805,3.255],[99.382,3.255],[99.391,3.2515],[99.3925,3.2495],[99.396,3.2555],[99.3965,3.256],[99.398,3.258],[99.398,3.259],[99.399,3.2605],[99.399,3.2645]]]},"properties":{"code":"12.19.03.2004","name":"Sukaraja"}},{"type":"Feature","geometry":{"type":"Polygon","coordinates":[[[99.3805,3.255],[99.381,3.2655],[99.381,3.2665],[99.378,3.2655],[99.375,3.2635],[99.372,3.259],[99.371,3.2585],[99.3675,3.259],[99.3665,3.2585],[99.365,3.258],[99.364,3.2595],[99.363,3.258],[99.3625,3.2575],[99.361,3.2555],[99.37,3.2425],[99.371,3.243],[99.378,3.2525],[99.3805,3.255]]]},"properties":{"code":"12.19.03.2005","name":"Tanah Tinggi"}},{"type":"Feature","geometry":{"type":"Polygon","coordinates":[[[99.361,3.2555],[99.358,3.2625],[99.3575,3.2615],[99.3555,3.2565],[99.3545,3.255],[99.3565,3.2465],[99.355,3.243],[99.349,3.231],[99.3565,3.22],[99.37,3.242],[99.37,3.2425],[99.361,3.2555]]]},"properties":{"code":"12.19.03.2006","name":"Tanjungmuda"}},{"type":"Feature","geometry":{"type":"Polygon","coordinates":[[[99.374,3.278],[99.3725,3.2765],[99.3705,3.2775],[99.368,3.2765],[99.364,3.2755],[99.364,3.2745],[99.362,3.2695],[99.36,3.2655],[99.358,3.2635],[99.358,3.2625],[99.361,3.2555],[99.3625,3.2575],[99.363,3.258],[99.364,3.2595],[99.364,3.26],[99.3655,3.261],[99.3675,3.2645],[99.3765,3.272],[99.375,3.275],[99.374,3.278]]]},"properties":{"code":"12.19.03.2007","name":"Tanah Merah"}},{"type":"Feature","geometry":{"type":"Polygon","coordinates":[[[99.452,3.3355],[99.451,3.3365],[99.4495,3.338],[99.4485,3.3395],[99.4465,3.3395],[99.4465,3.339],[99.446,3.3375],[99.4455,3.337],[99.445,3.3365],[99.4455,3.336],[99.4445,3.3345],[99.444,3.334],[99.4425,3.334],[99.442,3.3345],[99.4415,3.3345],[99.441,3.3335],[99.4395,3.3325],[99.438,3.331],[99.436,3.327],[99.435,3.3255],[99.4225,3.316],[99.421,3.3145],[99.4195,3.3125],[99.419,3.312],[99.4185,3.3105],[99.4175,3.309],[99.412,3.304],[99.41,3.3035],[99.402,3.298],[99.4,3.2985],[99.386,3.2915],[99.3815,3.287],[99.3765,3.285],[99.3755,3.2835],[99.372,3.2825],[99.3715,3.2815],[99.371,3.2805],[99.3735,3.2805],[99.3745,3.279],[99.3745,3.2785],[99.374,3.278],[99.375,3.275],[99.376,3.2735],[99.3775,3.274],[99.3795,3.2695],[99.4,3.2825],[99.401,3.2835],[99.4015,3.2875],[99.402,3.2905],[99.407,3.2935],[99.4105,3.2945],[99.412,3.295],[99.413,3.297],[99.4235,3.309],[99.425,3.31],[99.4285,3.312],[99.4335,3.3135],[99.4365,3.316],[99.4445,3.3235],[99.4495,3.3345],[99.45,3.3355],[99.452,3.3355]]]},"properties":{"code":"12.19.03.2008","name":"Aras"}},{"type":"Feature","geometry":{"type":"Polygon","coordinates":[[[99.3665,3.2875],[99.3605,3.2835],[99.3525,3.29],[99.347,3.2885],[99.345,3.288],[99.346,3.281],[99.346,3.2785],[99.3475,3.275],[99.347,3.274],[99.349,3.2745],[99.35,3.2755],[99.3505,3.277],[99.353,3.2765],[99.356,3.279],[99.3585,3.2805],[99.3635,3.2725],[99.364,3.2745],[99.364,3.2755],[99.368,3.2765],[99.368,3.2855],[99.367,3.285],[99.367,3.2855],[99.3665,3.2875]]]},"properties":{"code":"12.19.03.2009","name":"Pasar Lapan"}},{"type":"Feature","geometry":{"type":"Polygon","coordinates":[[[99.3665,3.317],[99.3655,3.3175],[99.364,3.316],[99.362,3.311],[99.361,3.311],[99.3565,3.31],[99.3495,3.3035],[99.346,3.3005],[99.345,3.3005],[99.3445,3.2995],[99.345,3.2965],[99.3465,3.2945],[99.345,3.288],[99.347,3.2885],[99.362,3.2965],[99.3635,3.293],[99.365,3.2935],[99.364,3.296],[99.37,3.294],[99.369,3.3],[99.3675,3.2995],[99.355,3.2975],[99.3555,3.3005],[99.359,3.303],[99.359,3.307],[99.362,3.3085],[99.3665,3.316],[99.3665,3.317]]]},"properties":{"code":"12.19.03.2010","name":"Sipare-Pare"}},{"type":"Feature","geometry":{"type":"Polygon","coordinates":[[[99.4005,3.2985],[99.3935,3.3105],[99.392,3.308],[99.3915,3.3065],[99.391,3.3055],[99.389,3.3045],[99.372,3.2965],[99.372,3.288],[99.372,3.2885],[99.3725,3.288],[99.3745,3.2835],[99.3765,3.285],[99.3815,3.287],[99.386,3.2915],[99.4,3.2985],[99.4005,3.2985]]]},"properties":{"code":"12.19.03.2011","name":"Tanjungkubah"}},{"type":"Feature","geometry":{"type":"Polygon","coordinates":[[[99.4425,3.334],[99.437,3.3395],[99.4335,3.3375],[99.4075,3.316],[99.401,3.3165],[99.3935,3.3175],[99.394,3.3115],[99.3935,3.3105],[99.4005,3.2985],[99.402,3.298],[99.41,3.3035],[99.412,3.304],[99.4175,3.309],[99.4185,3.3105],[99.419,3.312],[99.4195,3.3125],[99.421,3.3145],[99.4225,3.316],[99.435,3.3255],[99.436,3.327],[99.438,3.331],[99.4395,3.3325],[99.441,3.3335],[99.4415,3.3345],[99.442,3.3345],[99.4425,3.334]]]},"properties":{"code":"12.19.03.2012","name":"Tanjungharapan"}},{"type":"Feature","geometry":{"type":"Polygon","coordinates":[[[99.452,3.3355],[99.45,3.3355],[99.4495,3.3345],[99.4445,3.3235],[99.4365,3.316],[99.434,3.3135],[99.439,3.303],[99.4375,3.302],[99.437,3.302],[99.435,3.3015],[99.4345,3.3005],[99.441,3.294],[99.453,3.296],[99.4545,3.298],[99.4555,3.299],[99.456,3.303],[99.463,3.315],[99.4655,3.3155],[99.4745,3.3245],[99.475,3.3255],[99.4725,3.327],[99.472,3.327],[99.4525,3.334],[99.4525,3.335],[99.452,3.3355]]]},"properties":{"code":"12.19.03.2013","name":"Suka Ramai"}},{"type":"Feature","geometry":{"type":"Polygon","coordinates":[[[99.3795,3.2695],[99.3775,3.274],[99.376,3.2735],[99.3765,3.272],[99.3675,3.2645],[99.3655,3.261],[99.364,3.26],[99.365,3.258],[99.3665,3.2585],[99.3675,3.259],[99.371,3.2585],[99.372,3.259],[99.375,3.2635],[99.378,3.2655],[99.381,3.2665],[99.3795,3.2695]]]},"properties":{"code":"12.19.03.2014","name":"Tanah Rendah"}},{"type":"Feature","geometry":{"type":"Polygon","coordinates":[[[99.3935,3.3175],[99.39,3.318],[99.3735,3.303],[99.372,3.3015],[99.369,3.3],[99.37,3.294],[99.372,3.2965],[99.389,3.3045],[99.391,3.3055],[99.3915,3.3065],[99.392,3.308],[99.394,3.3115],[99.3935,3.3175]]]},"properties":{"code":"12.19.03.2015","name":"Tanjungmulya"}},{"type":"Feature","geometry":{"type":"Polygon","coordinates":[[[99.365,3.2935],[99.3635,3.293],[99.362,3.2965],[99.3525,3.29],[99.3605,3.2835],[99.3675,3.288],[99.365,3.2935]]]},"properties":{"code":"12.19.03.2016","name":"Titi Payung"}},{"type":"Feature","geometry":{"type":"Polygon","coordinates":[[[99.3635,3.2725],[99.3585,3.2805],[99.356,3.279],[99.353,3.2765],[99.3505,3.277],[99.35,3.2755],[99.349,3.2745],[99.347,3.274],[99.347,3.2735],[99.344,3.269],[99.3485,3.25],[99.346,3.2495],[99.3565,3.2465],[99.3545,3.255],[99.3555,3.2565],[99.3575,3.2615],[99.358,3.2635],[99.36,3.2655],[99.362,3.2695],[99.3635,3.2725]]]},"properties":{"code":"12.19.03.2017","name":"Perkotaan"}},{"type":"Feature","geometry":{"type":"Polygon","coordinates":[[[99.409,3.293],[99.407,3.2935],[99.402,3.2905],[99.4015,3.2875],[99.401,3.2835],[99.401,3.2805],[99.399,3.2645],[99.4045,3.2655],[99.4085,3.2805],[99.4115,3.2835],[99.4125,3.2855],[99.409,3.293]]]},"properties":{"code":"12.19.03.2018","name":"Kampung Kelapa"}},{"type":"Feature","geometry":{"type":"Polygon","coordinates":[[[99.432,3.1715],[99.43,3.172],[99.431,3.1725],[99.4465,3.1825],[99.446,3.1835],[99.426,3.174],[99.423,3.1755],[99.42,3.1755],[99.4115,3.17],[99.4155,3.164],[99.417,3.1645],[99.427,3.168],[99.4285,3.168],[99.4295,3.1685],[99.43,3.1695],[99.432,3.1715]]]},"properties":{"code":"12.19.04.1001","name":"Lima Puluh Kota"}},{"type":"Feature","geometry":{"type":"Polygon","coordinates":[[[99.3855,3.169],[99.38,3.1695],[99.3755,3.1695],[99.37,3.1515],[99.37,3.151],[99.382,3.152],[99.386,3.16],[99.3855,3.1615],[99.3855,3.169]]]},"properties":{"code":"12.19.04.2011","name":"Mangkai Baru"}},{"type":"Feature","geometry":{"type":"Polygon","coordinates":[[[99.4115,3.17],[99.4035,3.1705],[99.401,3.169],[99.3935,3.1685],[99.392,3.1685],[99.391,3.169],[99.389,3.1685],[99.3855,3.169],[99.3855,3.1615],[99.386,3.16],[99.382,3.152],[99.392,3.1525],[99.403,3.1525],[99.403,3.1535],[99.4025,3.1545],[99.4045,3.156],[99.4065,3.1595],[99.4145,3.164],[99.4155,3.164],[99.4115,3.17]]]},"properties":{"code":"12.19.04.2012","name":"Mangkai Lama"}},{"type":"Feature","geometry":{"type":"Polygon","coordinates":[[[99.4325,3.1625],[99.433,3.17],[99.432,3.1715],[99.43,3.1695],[99.4295,3.1685],[99.4285,3.168],[99.427,3.168],[99.417,3.1645],[99.4145,3.164],[99.4065,3.1595],[99.4045,3.156],[99.4025,3.1545],[99.403,3.1535],[99.403,3.1525],[99.416,3.153],[99.4185,3.1485],[99.441,3.1425],[99.447,3.1485],[99.448,3.1495],[99.4455,3.15],[99.437,3.153],[99.432,3.155],[99.4285,3.158],[99.4325,3.1625]]]},"properties":{"code":"12.19.04.2014","name":"Perkebunan Dolok"}},{"type":"Feature","geometry":{"type":"MultiPolygon","coordinates":[[[[99.5025,3.171],[99.4995,3.167],[99.4945,3.1735],[99.4955,3.1755],[99.4945,3.1755],[99.4815,3.166],[99.48,3.1655],[99.47,3.147],[99.4755,3.139],[99.479,3.143],[99.4805,3.1435],[99.4825,3.1455],[99.485,3.151],[99.486,3.1515],[99.489,3.1575],[99.49,3.159],[99.4965,3.159],[99.503,3.1685],[99.504,3.169],[99.5045,3.169],[99.505,3.17],[99.506,3.1705],[99.5035,3.1715],[99.5025,3.171]]],[[[99.5075,3.1735],[99.506,3.1755],[99.506,3.176],[99.505,3.1765],[99.5035,3.1755],[99.504,3.175],[99.4995,3.1755],[99.5005,3.1705],[99.501,3.172],[99.503,3.1735],[99.5075,3.1735]]],[[[99.4655,3.182],[99.4545,3.182],[99.452,3.181],[99.449,3.1805],[99.4475,3.1785],[99.447,3.177],[99.4465,3.177],[99.4445,3.1765],[99.4435,3.176],[99.443,3.176],[99.436,3.17],[99.432,3.1715],[99.433,3.17],[99.4325,3.1625],[99.4335,3.164],[99.434,3.1635],[99.448,3.165],[99.467,3.18],[99.4655,3.182]]],[[[99.4815,3.1845],[99.4775,3.184],[99.464,3.173],[99.463,3.172],[99.462,3.17],[99.4615,3.17],[99.462,3.17],[99.468,3.17],[99.483,3.17],[99.4835,3.171],[99.485,3.18],[99.4835,3.1805],[99.483,3.182],[99.4825,3.1825],[99.4815,3.184],[99.4815,3.1845]]]]},"properties":{"code":"12.19.04.2015","name":"Perkebunan Kwala Gunung"}},{"type":"Feature","geometry":{"type":"Polygon","coordinates":[[[99.481,3.166],[99.4795,3.167],[99.4765,3.1625],[99.475,3.162],[99.471,3.1635],[99.463,3.137],[99.472,3.134],[99.4765,3.139],[99.4765,3.1395],[99.478,3.1415],[99.4785,3.1415],[99.482,3.1445],[99.4875,3.1505],[99.4925,3.155],[99.4935,3.1545],[99.4965,3.159],[99.49,3.159],[99.489,3.1575],[99.486,3.1515],[99.485,3.151],[99.4825,3.1455],[99.4805,3.1435],[99.479,3.143],[99.4755,3.139],[99.47,3.147],[99.48,3.1655],[99.481,3.166]]]},"properties":{"code":"12.19.04.2016","name":"Antara"}},{"type":"Feature","geometry":{"type":"Polygon","coordinates":[[[99.4495,3.2005],[99.4405,3.201],[99.423,3.2005],[99.41,3.1845],[99.395,3.1815],[99.3955,3.172],[99.3955,3.1685],[99.4015,3.169],[99.4035,3.1705],[99.4115,3.17],[99.42,3.1755],[99.423,3.1755],[99.426,3.174],[99.4495,3.186],[99.449,3.1915],[99.4495,3.2005]]]},"properties":{"code":"12.19.04.2017","name":"Perkebunan Lima Puluh"}},{"type":"Feature","geometry":{"type":"Polygon","coordinates":[[[99.483,3.17],[99.462,3.17],[99.4615,3.17],[99.461,3.1695],[99.455,3.1625],[99.4525,3.159],[99.452,3.157],[99.451,3.155],[99.4505,3.154],[99.45,3.1525],[99.4485,3.151],[99.448,3.15],[99.447,3.1485],[99.441,3.1425],[99.4445,3.136],[99.45,3.134],[99.463,3.137],[99.471,3.1635],[99.475,3.162],[99.4765,3.1625],[99.4795,3.167],[99.481,3.1685],[99.482,3.1695],[99.4825,3.17],[99.483,3.17]]]},"properties":{"code":"12.19.04.2018","name":"Perkebunan Limau Manis"}},{"type":"Feature","geometry":{"type":"Polygon","coordinates":[[[99.407,3.2375],[99.4035,3.2375],[99.401,3.245],[99.392,3.2195],[99.3855,3.1965],[99.3855,3.1785],[99.3955,3.171],[99.3955,3.172],[99.395,3.1815],[99.41,3.1845],[99.423,3.2005],[99.4405,3.201],[99.4495,3.2005],[99.449,3.2185],[99.4495,3.22],[99.4495,3.2315],[99.407,3.2375]]]},"properties":{"code":"12.19.04.2019","name":"Perkebunan Tanah Gambus"}},{"type":"Feature","geometry":{"type":"Polygon","coordinates":[[[99.4205,3.2705],[99.4195,3.271],[99.416,3.262],[99.404,3.254],[99.401,3.245],[99.4035,3.2375],[99.407,3.2375],[99.4495,3.2315],[99.4495,3.2425],[99.4495,3.2435],[99.4495,3.2535],[99.4285,3.2535],[99.4205,3.2705]]]},"properties":{"code":"12.19.04.2025","name":"Simpang Gambus"}},{"type":"Feature","geometry":{"type":"Polygon","coordinates":[[[99.3955,3.171],[99.3855,3.1785],[99.3835,3.193],[99.3755,3.1695],[99.3795,3.1695],[99.3825,3.169],[99.3865,3.169],[99.389,3.1685],[99.391,3.169],[99.3925,3.1685],[99.3955,3.1685],[99.3955,3.171]]]},"properties":{"code":"12.19.04.2026","name":"Sumber Makmur"}},{"type":"Feature","geometry":{"type":"Polygon","coordinates":[[[99.448,3.165],[99.434,3.1635],[99.4335,3.164],[99.4325,3.1625],[99.4285,3.158],[99.432,3.155],[99.437,3.153],[99.4455,3.15],[99.448,3.1495],[99.448,3.15],[99.4485,3.151],[99.4495,3.152],[99.4505,3.153],[99.4515,3.156],[99.452,3.157],[99.4525,3.159],[99.455,3.1625],[99.448,3.165]]]},"properties":{"code":"12.19.04.2027","name":"Sumber Padi"}},{"type":"Feature","geometry":{"type":"Polygon","coordinates":[[[99.574,3.213],[99.5695,3.212],[99.5675,3.2125],[99.5675,3.2075],[99.5655,3.204],[99.562,3.2045],[99.5605,3.203],[99.5615,3.202],[99.5605,3.201],[99.573,3.182],[99.5745,3.182],[99.579,3.1845],[99.578,3.186],[99.5775,3.186],[99.576,3.1885],[99.5765,3.191],[99.5775,3.1935],[99.581,3.194],[99.5855,3.204],[99.585,3.207],[99.5735,3.2125],[99.574,3.213]]]},"properties":{"code":"12.19.05.1001","name":"Labuhan Ruku"}},{"type":"Feature","geometry":{"type":"Polygon","coordinates":[[[99.5585,3.2375],[99.545,3.2475],[99.529,3.2265],[99.5305,3.225],[99.5325,3.223],[99.5415,3.2165],[99.554,3.228],[99.5585,3.2375]]]},"properties":{"code":"12.19.05.2004","name":"Dahari Selebar"}},{"type":"Feature","geometry":{"type":"Polygon","coordinates":[[[99.57,3.229],[99.5585,3.2375],[99.554,3.228],[99.5415,3.2165],[99.5435,3.2155],[99.5635,3.2065],[99.5655,3.204],[99.5675,3.2075],[99.5675,3.2125],[99.566,3.2135],[99.565,3.214],[99.5655,3.2145],[99.5625,3.2155],[99.5625,3.216],[99.565,3.217],[99.566,3.2195],[99.5705,3.2225],[99.573,3.2235],[99.5745,3.2235],[99.57,3.229]]]},"properties":{"code":"12.19.05.2006","name":"Mesjid Lama"}},{"type":"Feature","geometry":{"type":"Polygon","coordinates":[[[99.5635,3.2065],[99.5435,3.2155],[99.537,3.2005],[99.536,3.199],[99.5305,3.194],[99.535,3.191],[99.536,3.193],[99.544,3.183],[99.545,3.183],[99.5465,3.182],[99.549,3.18],[99.549,3.182],[99.5505,3.181],[99.5525,3.1845],[99.5495,3.19],[99.558,3.2025],[99.5585,3.203],[99.5595,3.2025],[99.5615,3.202],[99.5605,3.203],[99.562,3.2045],[99.5635,3.2065]]]},"properties":{"code":"12.19.05.2007","name":"Padang Genting"}},{"type":"Feature","geometry":{"type":"Polygon","coordinates":[[[99.5605,3.201],[99.5595,3.2025],[99.5585,3.203],[99.558,3.2025],[99.5495,3.19],[99.5525,3.1845],[99.5505,3.181],[99.549,3.182],[99.549,3.18],[99.5605,3.179],[99.573,3.182],[99.5605,3.201]]]},"properties":{"code":"12.19.05.2008","name":"Pahang"}},{"type":"Feature","geometry":{"type":"Polygon","coordinates":[[[99.544,3.183],[99.536,3.193],[99.535,3.191],[99.5305,3.194],[99.5285,3.192],[99.5195,3.184],[99.5165,3.182],[99.511,3.1775],[99.5105,3.1745],[99.5085,3.1745],[99.507,3.175],[99.507,3.174],[99.5075,3.1735],[99.503,3.1735],[99.5015,3.1725],[99.503,3.1715],[99.5035,3.1715],[99.506,3.1705],[99.505,3.17],[99.5045,3.169],[99.5055,3.1695],[99.5075,3.169],[99.5095,3.1685],[99.514,3.1725],[99.5145,3.176],[99.5155,3.177],[99.5225,3.1725],[99.524,3.17],[99.5245,3.169],[99.5235,3.1685],[99.523,3.168],[99.524,3.168],[99.527,3.168],[99.541,3.177],[99.544,3.183]]]},"properties":{"code":"12.19.05.2009","name":"Panjang"}},{"type":"Feature","geometry":{"type":"Polygon","coordinates":[[[99.541,3.177],[99.527,3.168],[99.519,3.1575],[99.5295,3.151],[99.5295,3.153],[99.534,3.156],[99.5345,3.157],[99.54,3.1715],[99.5405,3.1745],[99.541,3.177]]]},"properties":{"code":"12.19.05.2014","name":"Gunung Rante"}},{"type":"Feature","geometry":{"type":"Polygon","coordinates":[[[99.545,3.2475],[99.535,3.259],[99.5335,3.2545],[99.526,3.2445],[99.526,3.245],[99.52,3.2375],[99.5225,3.235],[99.5265,3.2295],[99.529,3.2265],[99.545,3.2475]]]},"properties":{"code":"12.19.05.2015","name":"Dahari Indah"}},{"type":"Feature","geometry":{"type":"Polygon","coordinates":[[[99.5785,3.219],[99.5745,3.2235],[99.573,3.2235],[99.5705,3.2225],[99.566,3.2195],[99.565,3.217],[99.5625,3.216],[99.5625,3.2155],[99.5655,3.2145],[99.565,3.214],[99.566,3.2135],[99.5695,3.212],[99.574,3.213],[99.5755,3.2155],[99.5785,3.219]]]},"properties":{"code":"12.19.05.2016","name":"Indra Yaman"}},{"type":"Feature","geometry":{"type":"Polygon","coordinates":[[[99.581,3.178],[99.581,3.18],[99.579,3.1845],[99.5745,3.182],[99.573,3.182],[99.5605,3.179],[99.5545,3.1795],[99.5485,3.18],[99.545,3.183],[99.544,3.183],[99.541,3.177],[99.5405,3.1745],[99.54,3.1715],[99.572,3.1695],[99.5715,3.1685],[99.571,3.168],[99.578,3.1695],[99.58,3.173],[99.5795,3.1775],[99.5805,3.178],[99.581,3.178]]]},"properties":{"code":"12.19.05.2017","name":"Benteng"}},{"type":"Feature","geometry":{"type":"Polygon","coordinates":[[[99.5865,3.223],[99.584,3.225],[99.583,3.227],[99.5825,3.224],[99.5815,3.222],[99.5845,3.221],[99.5855,3.2205],[99.5865,3.223]]]},"properties":{"code":"12.19.06.1001","name":"Tanjung Tiram"}},{"type":"Feature","geometry":{"type":"Polygon","coordinates":[[[99.6005,3.2305],[99.584,3.2285],[99.583,3.227],[99.584,3.225],[99.589,3.2225],[99.5915,3.219],[99.5955,3.219],[99.5965,3.2175],[99.5965,3.2165],[99.593,3.212],[99.595,3.2105],[99.6005,3.2305]]]},"properties":{"code":"12.19.06.1022","name":"Bagan Arya"}},{"type":"Feature","geometry":{"type":"Polygon","coordinates":[[[99.636,3.218],[99.6005,3.2305],[99.595,3.2105],[99.611,3.2045],[99.62,3.206],[99.635,3.216],[99.636,3.218]]]},"properties":{"code":"12.19.06.2002","name":"Guntung"}},{"type":"Feature","geometry":{"type":"Polygon","coordinates":[[[99.593,3.212],[99.5855,3.221],[99.5855,3.2205],[99.585,3.2205],[99.5895,3.2135],[99.5905,3.2135],[99.593,3.212]]]},"properties":{"code":"12.19.06.2004","name":"Bagan Dalam"}},{"type":"Feature","geometry":{"type":"Polygon","coordinates":[[[99.581,3.2215],[99.576,3.2255],[99.5745,3.2235],[99.5785,3.219],[99.581,3.2215]]]},"properties":{"code":"12.19.06.2005","name":"Bogak"}},{"type":"Feature","geometry":{"type":"Polygon","coordinates":[[[99.585,3.2205],[99.5845,3.221],[99.5815,3.222],[99.581,3.2215],[99.577,3.217],[99.5785,3.218],[99.5835,3.2155],[99.5885,3.2115],[99.5895,3.2135],[99.585,3.2205]]]},"properties":{"code":"12.19.06.2006","name":"Suka Maju"}},{"type":"Feature","geometry":{"type":"Polygon","coordinates":[[[99.593,3.212],[99.5965,3.2165],[99.5965,3.2175],[99.5955,3.219],[99.5915,3.219],[99.589,3.2225],[99.5865,3.223],[99.5855,3.221],[99.593,3.212]]]},"properties":{"code":"12.19.06.2016","name":"Suka Jaya"}},{"type":"Feature","geometry":{"type":"Polygon","coordinates":[[[99.583,3.227],[99.5825,3.2255],[99.5795,3.228],[99.578,3.2275],[99.576,3.2255],[99.581,3.2215],[99.5825,3.224],[99.583,3.227]]]},"properties":{"code":"12.19.06.2017","name":"Pahlawan"}},{"type":"Feature","geometry":{"type":"Polygon","coordinates":[[[99.584,3.2285],[99.57,3.229],[99.5745,3.2235],[99.578,3.2275],[99.5795,3.228],[99.5825,3.2255],[99.584,3.2285]]]},"properties":{"code":"12.19.06.2018","name":"Bandar Rahmat"}},{"type":"Feature","geometry":{"type":"Polygon","coordinates":[[[99.5885,3.2115],[99.5835,3.2155],[99.5785,3.218],[99.577,3.217],[99.5735,3.2125],[99.585,3.207],[99.588,3.2105],[99.5885,3.2115]]]},"properties":{"code":"12.19.06.2019","name":"Kampung Lalang"}},{"type":"Feature","geometry":{"type":"Polygon","coordinates":[[[99.6135,3.143],[99.611,3.151],[99.6105,3.152],[99.6085,3.151],[99.6005,3.149],[99.599,3.139],[99.59,3.134],[99.591,3.13],[99.6085,3.1385],[99.6095,3.1395],[99.6185,3.1315],[99.618,3.129],[99.62,3.13],[99.621,3.137],[99.618,3.1385],[99.6145,3.1415],[99.6135,3.1425],[99.6135,3.143]]]},"properties":{"code":"12.19.07.2001","name":"Kwala Sikasim"}},{"type":"Feature","geometry":{"type":"Polygon","coordinates":[[[99.59,3.134],[99.5895,3.135],[99.5895,3.136],[99.576,3.1325],[99.5745,3.117],[99.5745,3.1175],[99.58,3.1205],[99.59,3.1295],[99.591,3.13],[99.59,3.134]]]},"properties":{"code":"12.19.07.2002","name":"Sei Balai"}},{"type":"Feature","geometry":{"type":"Polygon","coordinates":[[[99.611,3.0985],[99.604,3.095],[99.604,3.0825],[99.601,3.0825],[99.601,3.0815],[99.607,3.0795],[99.6075,3.0805],[99.6155,3.084],[99.62,3.0935],[99.611,3.0975],[99.611,3.0985]]]},"properties":{"code":"12.19.07.2004","name":"Durian"}},{"type":"Feature","geometry":{"type":"Polygon","coordinates":[[[99.601,3.0825],[99.6015,3.089],[99.582,3.089],[99.582,3.085],[99.571,3.0835],[99.5685,3.0615],[99.5575,3.0615],[99.556,3.0435],[99.5495,3.029],[99.531,3.029],[99.53,3.0215],[99.5495,3.0215],[99.563,3.0185],[99.555,3.026],[99.573,3.029],[99.587,3.0385],[99.5905,3.039],[99.5955,3.045],[99.597,3.0675],[99.599,3.0705],[99.6005,3.071],[99.601,3.0825]]]},"properties":{"code":"12.19.07.2005","name":"Perkebunan Sei Balai"}},{"type":"Feature","geometry":{"type":"Polygon","coordinates":[[[99.565,3.0985],[99.557,3.098],[99.557,3.094],[99.5655,3.0855],[99.5655,3.079],[99.5685,3.083],[99.5715,3.0885],[99.565,3.0985]]]},"properties":{"code":"12.19.07.2007","name":"Suka Ramai"}},{"type":"Feature","geometry":{"type":"Polygon","coordinates":[[[99.557,3.1],[99.565,3.1055],[99.559,3.1075],[99.5585,3.108],[99.557,3.111],[99.56,3.1165],[99.552,3.1085],[99.5495,3.1095],[99.54,3.1005],[99.5415,3.095],[99.5415,3.0945],[99.5425,3.0955],[99.557,3.094],[99.557,3.1]]]},"properties":{"code":"12.19.07.2008","name":"Sei Bejangkar"}},{"type":"Feature","geometry":{"type":"Polygon","coordinates":[[[99.583,3.163],[99.5765,3.157],[99.575,3.1635],[99.5745,3.1635],[99.568,3.157],[99.568,3.1535],[99.562,3.148],[99.561,3.147],[99.5695,3.15],[99.5715,3.1495],[99.572,3.1465],[99.5725,3.1455],[99.5715,3.1445],[99.573,3.1445],[99.574,3.1445],[99.5755,3.1405],[99.5795,3.147],[99.5815,3.1475],[99.5865,3.151],[99.5875,3.1515],[99.589,3.1515],[99.589,3.1525],[99.5895,3.1535],[99.588,3.158],[99.5845,3.1575],[99.584,3.1625],[99.5835,3.1625],[99.5835,3.163],[99.583,3.163]]]},"properties":{"code":"12.19.07.2009","name":"Mekar Mulio"}},{"type":"Feature","geometry":{"type":"MultiPolygon","coordinates":[[[[99.527,3.1135],[99.516,3.1135],[99.514,3.11],[99.513,3.106],[99.5145,3.0975],[99.5245,3.0845],[99.529,3.103],[99.54,3.1005],[99.5495,3.1095],[99.5465,3.1105],[99.545,3.111],[99.5315,3.1115],[99.53,3.112],[99.527,3.1135]]],[[[99.557,3.1],[99.557,3.098],[99.565,3.0985],[99.5645,3.099],[99.5755,3.101],[99.5745,3.117],[99.576,3.1325],[99.5755,3.1405],[99.574,3.1445],[99.573,3.1445],[99.5715,3.1445],[99.5725,3.1455],[99.572,3.1465],[99.5715,3.1495],[99.5695,3.15],[99.561,3.147],[99.561,3.1455],[99.561,3.129],[99.561,3.12],[99.56,3.1165],[99.557,3.111],[99.5585,3.108],[99.559,3.1075],[99.565,3.1055],[99.557,3.1]]]]},"properties":{"code":"12.19.07.2010","name":"Perkebunan Sei Bejangkar"}},{"type":"Feature","geometry":{"type":"Polygon","coordinates":[[[99.58,3.1205],[99.5745,3.1175],[99.575,3.1155],[99.575,3.1105],[99.579,3.1015],[99.579,3.098],[99.58,3.096],[99.582,3.096],[99.582,3.1145],[99.58,3.1205]]]},"properties":{"code":"12.19.07.2012","name":"Benteng Jaya"}},{"type":"Feature","geometry":{"type":"Polygon","coordinates":[[[99.5895,3.136],[99.5895,3.1385],[99.5885,3.1515],[99.5875,3.1515],[99.5865,3.151],[99.5815,3.1475],[99.5795,3.147],[99.5755,3.1405],[99.576,3.1325],[99.5895,3.136]]]},"properties":{"code":"12.19.07.2013","name":"Tanah Timbul"}},{"type":"Feature","geometry":{"type":"MultiPolygon","coordinates":[[[[99.601,3.0815],[99.6005,3.071],[99.603,3.0735],[99.6065,3.078],[99.607,3.0795],[99.601,3.0815]]],[[[99.618,3.129],[99.6185,3.1315],[99.6095,3.1395],[99.6085,3.1385],[99.59,3.1295],[99.58,3.1205],[99.582,3.1145],[99.582,3.089],[99.6015,3.089],[99.601,3.0825],[99.604,3.0825],[99.604,3.0945],[99.602,3.0945],[99.6015,3.0965],[99.5985,3.097],[99.6025,3.106],[99.6165,3.121],[99.618,3.129]]]]},"properties":{"code":"12.19.07.2014","name":"Perjuangan"}},{"type":"Feature","geometry":{"type":"Polygon","coordinates":[[[99.591,3.1655],[99.5865,3.1655],[99.5845,3.1645],[99.583,3.163],[99.5835,3.163],[99.5835,3.1625],[99.584,3.1625],[99.5845,3.1575],[99.588,3.158],[99.5895,3.1535],[99.589,3.1525],[99.589,3.1515],[99.591,3.152],[99.594,3.1585],[99.5935,3.16],[99.5945,3.16],[99.5955,3.161],[99.597,3.1615],[99.597,3.163],[99.595,3.162],[99.594,3.1635],[99.592,3.165],[99.5905,3.1645],[99.591,3.1655]]]},"properties":{"code":"12.19.07.2015","name":"Sidomulio"}},{"type":"Feature","geometry":{"type":"Polygon","coordinates":[[[99.6085,3.151],[99.602,3.16],[99.6015,3.16],[99.5985,3.1605],[99.597,3.1605],[99.5965,3.161],[99.5955,3.161],[99.5945,3.16],[99.5935,3.16],[99.594,3.1585],[99.591,3.152],[99.5885,3.1515],[99.5895,3.1385],[99.5895,3.135],[99.59,3.134],[99.599,3.139],[99.6005,3.149],[99.6085,3.151]]]},"properties":{"code":"12.19.07.2016","name":"Mekar Baru"}},{"type":"Feature","geometry":{"type":"Polygon","coordinates":[[[99.582,3.096],[99.58,3.096],[99.579,3.098],[99.579,3.1015],[99.575,3.1105],[99.575,3.1155],[99.5745,3.117],[99.5755,3.101],[99.5645,3.099],[99.5715,3.0885],[99.57,3.085],[99.571,3.0835],[99.582,3.085],[99.582,3.096]]]},"properties":{"code":"12.19.07.2017","name":"Suko Rejo"}},{"type":"Feature","geometry":{"type":"Polygon","coordinates":[[[99.2375,3.258],[99.236,3.2585],[99.2355,3.259],[99.2355,3.262],[99.2395,3.277],[99.243,3.279],[99.2435,3.2805],[99.2375,3.2805],[99.237,3.2785],[99.2235,3.2795],[99.2235,3.261],[99.231,3.256],[99.2075,3.2255],[99.207,3.2245],[99.214,3.217],[99.2275,3.2065],[99.227,3.2285],[99.2315,3.236],[99.2315,3.2375],[99.2325,3.239],[99.2325,3.2425],[99.24,3.247],[99.237,3.2575],[99.2375,3.258]]]},"properties":{"code":"12.19.08.2001","name":"Tanjung Prapat"}},{"type":"Feature","geometry":{"type":"Polygon","coordinates":[[[99.2665,3.302],[99.263,3.3035],[99.2625,3.3045],[99.2605,3.3055],[99.248,3.2875],[99.2435,3.2805],[99.243,3.279],[99.2395,3.277],[99.2355,3.262],[99.236,3.259],[99.236,3.2585],[99.2365,3.258],[99.2375,3.258],[99.238,3.2585],[99.2435,3.2575],[99.244,3.258],[99.244,3.259],[99.245,3.26],[99.2555,3.258],[99.2585,3.259],[99.2645,3.2785],[99.255,3.282],[99.2665,3.302]]]},"properties":{"code":"12.19.08.2002","name":"Laut Tador"}},{"type":"Feature","geometry":{"type":"Polygon","coordinates":[[[99.2665,3.302],[99.269,3.3065],[99.264,3.318],[99.261,3.3065],[99.2605,3.3055],[99.2625,3.3045],[99.263,3.3035],[99.2665,3.302]]]},"properties":{"code":"12.19.08.2003","name":"Pelanggiran Laut Tador"}},{"type":"Feature","geometry":{"type":"Polygon","coordinates":[[[99.3115,3.333],[99.2795,3.3365],[99.2705,3.338],[99.263,3.325],[99.264,3.318],[99.269,3.3065],[99.255,3.282],[99.2645,3.2785],[99.276,3.2765],[99.2775,3.2755],[99.28,3.2775],[99.2885,3.2785],[99.288,3.2855],[99.295,3.2985],[99.2915,3.298],[99.2895,3.3045],[99.297,3.304],[99.297,3.3055],[99.298,3.306],[99.3035,3.3055],[99.304,3.3055],[99.3045,3.307],[99.306,3.307],[99.3115,3.3085],[99.3125,3.309],[99.31,3.3165],[99.296,3.317],[99.296,3.3235],[99.297,3.3295],[99.3115,3.333]]]},"properties":{"code":"12.19.08.2004","name":"Perkebunan Tanjung Kasau"}},{"type":"Feature","geometry":{"type":"Polygon","coordinates":[[[99.297,3.304],[99.2895,3.3045],[99.2915,3.298],[99.295,3.2985],[99.297,3.3015],[99.297,3.304]]]},"properties":{"code":"12.19.08.2005","name":"Dewi Sri"}},{"type":"Feature","geometry":{"type":"Polygon","coordinates":[[[99.3035,3.3055],[99.298,3.306],[99.297,3.3055],[99.297,3.3015],[99.295,3.2985],[99.288,3.2855],[99.2885,3.2785],[99.28,3.2775],[99.2775,3.2755],[99.2785,3.2755],[99.28,3.2745],[99.282,3.274],[99.2855,3.2755],[99.2885,3.2755],[99.304,3.2875],[99.305,3.3025],[99.305,3.3045],[99.304,3.3055],[99.3035,3.3055]]]},"properties":{"code":"12.19.08.2006","name":"Tanjung Kasau"}},{"type":"Feature","geometry":{"type":"Polygon","coordinates":[[[99.316,3.321],[99.3175,3.3245],[99.32,3.331],[99.3205,3.3315],[99.319,3.3325],[99.3175,3.334],[99.3155,3.3315],[99.311,3.3225],[99.296,3.3235],[99.296,3.317],[99.31,3.3165],[99.3125,3.309],[99.3115,3.3085],[99.306,3.307],[99.3045,3.307],[99.305,3.3045],[99.309,3.3045],[99.3125,3.307],[99.3145,3.311],[99.316,3.316],[99.3155,3.3185],[99.316,3.321]]]},"properties":{"code":"12.19.08.2007","name":"Tanjung Seri"}},{"type":"Feature","geometry":{"type":"Polygon","coordinates":[[[99.3165,3.3325],[99.3115,3.333],[99.297,3.3295],[99.296,3.3235],[99.311,3.3225],[99.3155,3.3315],[99.3165,3.3325]]]},"properties":{"code":"12.19.08.2008","name":"Mekar Sari"}},{"type":"Feature","geometry":{"type":"Polygon","coordinates":[[[99.311,3.3795],[99.3085,3.3815],[99.3065,3.3805],[99.3035,3.379],[99.302,3.3775],[99.3015,3.376],[99.3005,3.374],[99.3005,3.3735],[99.2985,3.3715],[99.295,3.3745],[99.291,3.37],[99.289,3.37],[99.2875,3.369],[99.285,3.366],[99.2835,3.3625],[99.272,3.3525],[99.2705,3.338],[99.2795,3.3365],[99.3165,3.3325],[99.3225,3.3395],[99.3265,3.35],[99.3075,3.351],[99.3,3.362],[99.306,3.375],[99.311,3.3795]]]},"properties":{"code":"12.19.08.2009","name":"Sei Simujur"}},{"type":"Feature","geometry":{"type":"Polygon","coordinates":[[[99.332,3.382],[99.3215,3.3855],[99.313,3.3825],[99.311,3.3795],[99.306,3.375],[99.3,3.362],[99.3075,3.351],[99.3265,3.35],[99.3225,3.3395],[99.3175,3.334],[99.319,3.3325],[99.3205,3.3315],[99.321,3.3335],[99.329,3.3465],[99.3295,3.3495],[99.332,3.364],[99.3345,3.37],[99.339,3.378],[99.34,3.381],[99.3395,3.3805],[99.3385,3.379],[99.337,3.379],[99.3335,3.3795],[99.332,3.382]]]},"properties":{"code":"12.19.08.2010","name":"Kandangan"}},{"type":"Feature","geometry":{"type":"Polygon","coordinates":[[[99.486,3.3265],[99.484,3.327],[99.4785,3.3265],[99.478,3.3265],[99.477,3.325],[99.4765,3.3255],[99.4745,3.3245],[99.4655,3.3155],[99.463,3.315],[99.456,3.303],[99.4555,3.299],[99.4545,3.298],[99.453,3.296],[99.457,3.2915],[99.466,3.2855],[99.4645,3.277],[99.4665,3.278],[99.4765,3.2825],[99.4975,3.3115],[99.487,3.3175],[99.486,3.3265]]]},"properties":{"code":"12.19.09.2001","name":"Gambus Laut"}},{"type":"Feature","geometry":{"type":"Polygon","coordinates":[[[99.531,3.2655],[99.526,3.274],[99.5125,3.2855],[99.5105,3.2955],[99.4975,3.3115],[99.4765,3.2825],[99.4665,3.278],[99.465,3.277],[99.47,3.2725],[99.4735,3.2725],[99.4765,3.2735],[99.4775,3.274],[99.484,3.2715],[99.491,3.266],[99.4925,3.267],[99.495,3.2695],[99.5075,3.268],[99.5185,3.2655],[99.5185,3.266],[99.5195,3.2665],[99.5215,3.2665],[99.531,3.2655]]]},"properties":{"code":"12.19.09.2002","name":"Perupuk"}},{"type":"Feature","geometry":{"type":"Polygon","coordinates":[[[99.531,3.2655],[99.5215,3.2665],[99.5195,3.2665],[99.5185,3.2655],[99.5205,3.2625],[99.516,3.255],[99.509,3.2485],[99.5085,3.247],[99.5065,3.2415],[99.51,3.2415],[99.52,3.237],[99.5205,3.238],[99.526,3.245],[99.526,3.2445],[99.5335,3.2545],[99.535,3.259],[99.531,3.2655]]]},"properties":{"code":"12.19.09.2003","name":"Guntung"}},{"type":"Feature","geometry":{"type":"Polygon","coordinates":[[[99.52,3.2375],[99.52,3.237],[99.51,3.2415],[99.5005,3.234],[99.508,3.2215],[99.526,3.2145],[99.5325,3.223],[99.5305,3.225],[99.5265,3.2295],[99.5225,3.235],[99.52,3.2375]]]},"properties":{"code":"12.19.09.2004","name":"Barung-Barung"}},{"type":"Feature","geometry":{"type":"Polygon","coordinates":[[[99.5185,3.2655],[99.5075,3.268],[99.4955,3.251],[99.5035,3.253],[99.5075,3.2455],[99.5085,3.247],[99.509,3.2485],[99.516,3.255],[99.5205,3.2625],[99.5185,3.2655]]]},"properties":{"code":"12.19.09.2005","name":"Titi Putih"}},{"type":"Feature","geometry":{"type":"Polygon","coordinates":[[[99.5075,3.2455],[99.5035,3.253],[99.491,3.2495],[99.4895,3.244],[99.484,3.235],[99.483,3.2345],[99.4805,3.2305],[99.48,3.2295],[99.4795,3.229],[99.482,3.2245],[99.486,3.222],[99.491,3.2245],[99.498,3.231],[99.5005,3.234],[99.5065,3.2415],[99.5075,3.2455]]]},"properties":{"code":"12.19.09.2006","name":"Pasir Permit"}},{"type":"Feature","geometry":{"type":"Polygon","coordinates":[[[99.491,3.266],[99.484,3.2715],[99.4815,3.2725],[99.48,3.269],[99.4775,3.269],[99.4775,3.2665],[99.473,3.265],[99.4745,3.2595],[99.475,3.2595],[99.4825,3.2445],[99.488,3.2545],[99.487,3.256],[99.491,3.266]]]},"properties":{"code":"12.19.09.2007","name":"Titi Merah"}},{"type":"Feature","geometry":{"type":"Polygon","coordinates":[[[99.5075,3.268],[99.495,3.2695],[99.4925,3.267],[99.487,3.256],[99.488,3.2545],[99.477,3.233],[99.477,3.232],[99.4775,3.2305],[99.4785,3.2305],[99.479,3.2295],[99.4795,3.229],[99.48,3.2295],[99.4805,3.2305],[99.483,3.2345],[99.484,3.235],[99.4895,3.244],[99.491,3.2495],[99.4955,3.251],[99.5075,3.268]]]},"properties":{"code":"12.19.09.2008","name":"Pematang Panjang"}},{"type":"Feature","geometry":{"type":"Polygon","coordinates":[[[99.4815,3.2725],[99.4765,3.2735],[99.4735,3.2725],[99.47,3.2725],[99.465,3.277],[99.4645,3.277],[99.4625,3.2745],[99.464,3.2675],[99.4645,3.264],[99.465,3.2645],[99.465,3.259],[99.473,3.2585],[99.4745,3.2595],[99.473,3.265],[99.4775,3.2665],[99.4775,3.269],[99.48,3.269],[99.4815,3.2725]]]},"properties":{"code":"12.19.09.2009","name":"Bulan-Bulan"}},{"type":"Feature","geometry":{"type":"Polygon","coordinates":[[[99.4825,3.2445],[99.475,3.2595],[99.473,3.2585],[99.465,3.259],[99.472,3.2485],[99.474,3.234],[99.477,3.232],[99.477,3.233],[99.4825,3.2445]]]},"properties":{"code":"12.19.09.2010","name":"Gunung Bandung"}},{"type":"Feature","geometry":{"type":"Polygon","coordinates":[[[99.4645,3.277],[99.466,3.2855],[99.457,3.2915],[99.455,3.289],[99.4465,3.2765],[99.4455,3.2745],[99.4545,3.2635],[99.446,3.2535],[99.4495,3.2535],[99.4575,3.263],[99.4645,3.264],[99.464,3.2675],[99.4625,3.2745],[99.4645,3.277]]]},"properties":{"code":"12.19.09.2011","name":"Lubuk Cuik"}},{"type":"Feature","geometry":{"type":"Polygon","coordinates":[[[99.4455,3.2745],[99.443,3.2775],[99.4395,3.2825],[99.4305,3.283],[99.4295,3.2815],[99.424,3.2735],[99.4235,3.273],[99.4225,3.272],[99.422,3.271],[99.4205,3.2705],[99.4285,3.2535],[99.446,3.2535],[99.4545,3.2635],[99.4455,3.2745]]]},"properties":{"code":"12.19.09.2012","name":"Tanah Itam Ilir"}},{"type":"Feature","geometry":{"type":"Polygon","coordinates":[[[99.457,3.2915],[99.453,3.296],[99.443,3.2925],[99.44,3.2925],[99.4345,3.29],[99.4325,3.289],[99.4315,3.287],[99.431,3.285],[99.4305,3.284],[99.4305,3.2835],[99.4305,3.283],[99.4395,3.2825],[99.443,3.2775],[99.4455,3.2745],[99.4465,3.2765],[99.455,3.289],[99.457,3.2915]]]},"properties":{"code":"12.19.09.2013","name":"Pematang Tengah"}},{"type":"Feature","geometry":{"type":"Polygon","coordinates":[[[99.465,3.259],[99.465,3.2645],[99.4575,3.263],[99.4495,3.2545],[99.4495,3.25],[99.4495,3.2435],[99.4495,3.2425],[99.4495,3.22],[99.449,3.2185],[99.4495,3.212],[99.449,3.1915],[99.4495,3.1845],[99.4645,3.185],[99.4645,3.2055],[99.4635,3.208],[99.463,3.2085],[99.4625,3.2085],[99.4595,3.2055],[99.459,3.206],[99.463,3.217],[99.463,3.2185],[99.475,3.218],[99.474,3.234],[99.472,3.2485],[99.465,3.259]]]},"properties":{"code":"12.19.10.2001","name":"Perkebunan Tanah Itam Ulu"}},{"type":"Feature","geometry":{"type":"Polygon","coordinates":[[[99.4885,3.191],[99.488,3.191],[99.4865,3.1905],[99.4865,3.1925],[99.4865,3.194],[99.4865,3.1955],[99.4865,3.1965],[99.4795,3.1955],[99.4775,3.196],[99.4645,3.193],[99.4645,3.185],[99.4495,3.1845],[99.4495,3.186],[99.446,3.1835],[99.4465,3.1825],[99.431,3.1725],[99.43,3.172],[99.436,3.17],[99.443,3.176],[99.4435,3.176],[99.4445,3.1765],[99.4465,3.177],[99.447,3.177],[99.4475,3.1785],[99.449,3.1805],[99.452,3.181],[99.4545,3.182],[99.4655,3.182],[99.467,3.18],[99.4775,3.1845],[99.4815,3.1845],[99.4815,3.184],[99.482,3.1835],[99.486,3.1865],[99.4875,3.189],[99.488,3.1905],[99.4885,3.191]]]},"properties":{"code":"12.19.10.2002","name":"Empat Negeri"}},{"type":"Feature","geometry":{"type":"Polygon","coordinates":[[[99.4775,3.184],[99.4775,3.1845],[99.467,3.18],[99.448,3.165],[99.455,3.1625],[99.461,3.1695],[99.4615,3.17],[99.462,3.17],[99.463,3.172],[99.464,3.173],[99.4775,3.184]]]},"properties":{"code":"12.19.10.2003","name":"Sumber Rejo"}},{"type":"Feature","geometry":{"type":"Polygon","coordinates":[[[99.4715,3.208],[99.47,3.2085],[99.469,3.2075],[99.4675,3.2085],[99.4655,3.2085],[99.4635,3.208],[99.4645,3.2055],[99.4645,3.193],[99.473,3.195],[99.4715,3.2065],[99.4715,3.208]]]},"properties":{"code":"12.19.10.2004","name":"Lubuk Hulu"}},{"type":"Feature","geometry":{"type":"Polygon","coordinates":[[[99.477,3.232],[99.475,3.218],[99.463,3.2185],[99.463,3.217],[99.459,3.206],[99.4595,3.2055],[99.4625,3.2085],[99.463,3.2085],[99.4635,3.208],[99.4655,3.2085],[99.4675,3.2085],[99.469,3.2075],[99.47,3.2085],[99.4715,3.208],[99.4745,3.207],[99.482,3.2135],[99.482,3.2145],[99.4825,3.2155],[99.4855,3.2195],[99.482,3.2245],[99.479,3.2295],[99.4785,3.2305],[99.4775,3.2305],[99.477,3.232]]]},"properties":{"code":"12.19.10.2005","name":"Lubuk Besar"}},{"type":"Feature","geometry":{"type":"Polygon","coordinates":[[[99.482,3.2135],[99.4745,3.207],[99.4715,3.2065],[99.473,3.195],[99.478,3.196],[99.4795,3.1955],[99.4865,3.1965],[99.487,3.201],[99.4905,3.2005],[99.4895,3.2035],[99.4865,3.2075],[99.482,3.2135]]]},"properties":{"code":"12.19.10.2006","name":"Pulau Sejuk"}},{"type":"Feature","geometry":{"type":"Polygon","coordinates":[[[99.4905,3.2005],[99.487,3.201],[99.4865,3.1955],[99.4865,3.194],[99.4865,3.1925],[99.4865,3.1905],[99.488,3.191],[99.489,3.191],[99.491,3.1915],[99.493,3.194],[99.494,3.1945],[99.4955,3.194],[99.497,3.193],[99.497,3.1925],[99.4975,3.194],[99.4975,3.195],[99.4905,3.2005]]]},"properties":{"code":"12.19.10.2007","name":"Simpang Dolok"}},{"type":"Feature","geometry":{"type":"Polygon","coordinates":[[[99.5005,3.234],[99.498,3.231],[99.491,3.2245],[99.486,3.222],[99.4855,3.2195],[99.4825,3.2155],[99.482,3.2145],[99.482,3.2135],[99.4865,3.2075],[99.4895,3.2035],[99.4905,3.2005],[99.4975,3.195],[99.4975,3.194],[99.497,3.1925],[99.4975,3.1925],[99.4985,3.1925],[99.501,3.1945],[99.502,3.195],[99.503,3.1955],[99.504,3.1955],[99.5305,3.1975],[99.537,3.2005],[99.5435,3.2155],[99.5415,3.2165],[99.5325,3.223],[99.526,3.2145],[99.508,3.2215],[99.5005,3.234]]]},"properties":{"code":"12.19.10.2008","name":"Air Hitam"}},{"type":"Feature","geometry":{"type":"Polygon","coordinates":[[[99.507,3.174],[99.507,3.176],[99.5055,3.179],[99.503,3.1815],[99.506,3.1865],[99.504,3.19],[99.504,3.1915],[99.502,3.195],[99.501,3.1945],[99.4985,3.1925],[99.4975,3.1925],[99.497,3.1925],[99.4965,3.1925],[99.497,3.193],[99.4955,3.194],[99.494,3.1945],[99.493,3.194],[99.491,3.1915],[99.489,3.191],[99.4885,3.191],[99.488,3.1905],[99.4875,3.189],[99.486,3.1865],[99.482,3.1835],[99.483,3.182],[99.4835,3.1805],[99.485,3.18],[99.4835,3.171],[99.483,3.17],[99.4825,3.17],[99.482,3.1695],[99.481,3.1685],[99.481,3.166],[99.4815,3.166],[99.4945,3.1755],[99.4955,3.1755],[99.4945,3.1735],[99.4995,3.167],[99.5025,3.171],[99.503,3.1715],[99.5015,3.1725],[99.501,3.172],[99.5005,3.1705],[99.4995,3.1755],[99.504,3.175],[99.5035,3.1755],[99.505,3.1765],[99.506,3.176],[99.507,3.174]]]},"properties":{"code":"12.19.10.2009","name":"Kwala Gunung"}},{"type":"Feature","geometry":{"type":"Polygon","coordinates":[[[99.537,3.2005],[99.5305,3.1975],[99.504,3.1955],[99.502,3.195],[99.504,3.1915],[99.504,3.19],[99.506,3.1865],[99.503,3.1815],[99.5055,3.179],[99.507,3.176],[99.507,3.174],[99.507,3.175],[99.5085,3.1745],[99.5105,3.1745],[99.511,3.1775],[99.5165,3.182],[99.5195,3.184],[99.5285,3.192],[99.5335,3.197],[99.536,3.199],[99.537,3.2005]]]},"properties":{"code":"12.19.10.2010","name":"Cahaya Pardomuan"}},{"type":"Feature","geometry":{"type":"Polygon","coordinates":[[[99.54,3.1715],[99.5345,3.157],[99.534,3.1565],[99.537,3.157],[99.543,3.16],[99.5545,3.159],[99.5705,3.166],[99.571,3.168],[99.5715,3.1685],[99.572,3.1695],[99.54,3.1715]]]},"properties":{"code":"12.19.11.2001","name":"Sumber Tani"}},{"type":"Feature","geometry":{"type":"Polygon","coordinates":[[[99.578,3.1695],[99.571,3.168],[99.5705,3.166],[99.5545,3.159],[99.543,3.16],[99.534,3.1475],[99.534,3.145],[99.562,3.1505],[99.5605,3.149],[99.5595,3.1475],[99.552,3.1445],[99.5425,3.1335],[99.547,3.1315],[99.5495,3.1325],[99.549,3.1345],[99.55,3.1355],[99.555,3.138],[99.5565,3.1405],[99.5585,3.143],[99.561,3.145],[99.561,3.147],[99.562,3.148],[99.568,3.1535],[99.568,3.157],[99.5745,3.1635],[99.578,3.1695]]]},"properties":{"code":"12.19.11.2002","name":"Sei Muka"}},{"type":"Feature","geometry":{"type":"Polygon","coordinates":[[[99.5425,3.1335],[99.552,3.1445],[99.5595,3.1475],[99.5605,3.149],[99.562,3.1505],[99.534,3.145],[99.534,3.1465],[99.534,3.147],[99.5335,3.1465],[99.5325,3.147],[99.532,3.145],[99.53,3.1435],[99.5295,3.1435],[99.521,3.1375],[99.5145,3.1315],[99.51,3.129],[99.519,3.1185],[99.5425,3.1335]]]},"properties":{"code":"12.19.11.2003","name":"Perkebunan Tanah Datar"}},{"type":"Feature","geometry":{"type":"Polygon","coordinates":[[[99.561,3.1455],[99.561,3.145],[99.5585,3.143],[99.5565,3.1405],[99.555,3.138],[99.55,3.1355],[99.549,3.1345],[99.55,3.132],[99.542,3.124],[99.561,3.1225],[99.561,3.129],[99.561,3.1455]]]},"properties":{"code":"12.19.11.2004","name":"Binjai Baru"}},{"type":"Feature","geometry":{"type":"Polygon","coordinates":[[[99.561,3.1225],[99.542,3.124],[99.53,3.112],[99.545,3.111],[99.5465,3.1105],[99.552,3.1085],[99.56,3.1165],[99.561,3.12],[99.561,3.1225]]]},"properties":{"code":"12.19.11.2005","name":"Bangun Sari"}},{"type":"Feature","geometry":{"type":"MultiPolygon","coordinates":[[[[99.547,3.1315],[99.5425,3.1335],[99.519,3.1185],[99.51,3.129],[99.5065,3.1275],[99.506,3.1275],[99.5055,3.127],[99.5045,3.1265],[99.5,3.124],[99.495,3.1255],[99.499,3.1165],[99.501,3.1185],[99.516,3.1135],[99.527,3.1135],[99.53,3.112],[99.542,3.124],[99.55,3.132],[99.5495,3.1325],[99.547,3.1315]]],[[[99.5255,3.149],[99.5245,3.1495],[99.524,3.1485],[99.524,3.148],[99.5225,3.1475],[99.521,3.1465],[99.5125,3.1385],[99.5115,3.1385],[99.5075,3.14],[99.506,3.1385],[99.505,3.138],[99.5065,3.136],[99.5075,3.1365],[99.511,3.136],[99.512,3.135],[99.513,3.135],[99.5135,3.1365],[99.513,3.137],[99.514,3.1365],[99.5145,3.1345],[99.515,3.134],[99.521,3.1375],[99.5295,3.1435],[99.528,3.1445],[99.5255,3.149]]]]},"properties":{"code":"12.19.11.2006","name":"Karang Baru"}},{"type":"Feature","geometry":{"type":"MultiPolygon","coordinates":[[[[99.511,3.136],[99.5075,3.1365],[99.5065,3.136],[99.5065,3.1335],[99.505,3.1325],[99.5045,3.1275],[99.5065,3.1275],[99.51,3.129],[99.5145,3.1315],[99.515,3.134],[99.5145,3.1345],[99.514,3.1365],[99.513,3.137],[99.5135,3.1365],[99.513,3.135],[99.512,3.135],[99.511,3.136]]],[[[99.5225,3.1725],[99.5155,3.177],[99.5145,3.176],[99.514,3.1725],[99.5095,3.1685],[99.5075,3.169],[99.5055,3.1695],[99.5045,3.169],[99.504,3.169],[99.503,3.1685],[99.4965,3.159],[99.4935,3.1545],[99.494,3.154],[99.495,3.1455],[99.494,3.1425],[99.4955,3.14],[99.496,3.139],[99.496,3.14],[99.5035,3.148],[99.504,3.1495],[99.504,3.15],[99.504,3.1505],[99.509,3.151],[99.5095,3.152],[99.5055,3.141],[99.505,3.138],[99.506,3.1385],[99.5075,3.14],[99.5115,3.1385],[99.5125,3.1385],[99.521,3.1465],[99.5225,3.1475],[99.524,3.148],[99.524,3.1485],[99.5245,3.1495],[99.5255,3.149],[99.528,3.1445],[99.53,3.1435],[99.532,3.145],[99.5325,3.147],[99.5335,3.1465],[99.534,3.147],[99.534,3.1465],[99.534,3.1475],[99.543,3.16],[99.537,3.157],[99.534,3.1565],[99.534,3.156],[99.5295,3.153],[99.5295,3.151],[99.519,3.1575],[99.524,3.168],[99.523,3.168],[99.5235,3.1685],[99.5245,3.169],[99.524,3.17],[99.5225,3.1725]]]]},"properties":{"code":"12.19.11.2007","name":"Perkebunan Petatal"}},{"type":"Feature","geometry":{"type":"Polygon","coordinates":[[[99.505,3.138],[99.5055,3.141],[99.5095,3.152],[99.509,3.151],[99.504,3.1505],[99.504,3.15],[99.504,3.1495],[99.5035,3.148],[99.496,3.14],[99.496,3.139],[99.4955,3.139],[99.495,3.1385],[99.495,3.1255],[99.5,3.124],[99.5045,3.1265],[99.5055,3.127],[99.506,3.1275],[99.5045,3.1275],[99.505,3.1325],[99.5065,3.1335],[99.505,3.138]]]},"properties":{"code":"12.19.11.2008","name":"Mekar Baru"}},{"type":"Feature","geometry":{"type":"Polygon","coordinates":[[[99.495,3.1385],[99.478,3.138],[99.479,3.14],[99.478,3.141],[99.4785,3.1415],[99.478,3.1415],[99.4765,3.1395],[99.4765,3.139],[99.472,3.134],[99.481,3.131],[99.4865,3.1285],[99.495,3.1255],[99.495,3.1385]]]},"properties":{"code":"12.19.11.2009","name":"Petatal"}},{"type":"Feature","geometry":{"type":"Polygon","coordinates":[[[99.4955,3.139],[99.4955,3.14],[99.494,3.1425],[99.495,3.1455],[99.494,3.154],[99.4925,3.155],[99.491,3.1535],[99.488,3.1505],[99.4875,3.1505],[99.482,3.1445],[99.478,3.141],[99.479,3.14],[99.478,3.138],[99.495,3.1385],[99.4955,3.139]]]},"properties":{"code":"12.19.11.2010","name":"Glugur Makmur"}},{"type":"Feature","geometry":{"type":"Polygon","coordinates":[[[99.593,3.212],[99.5905,3.2135],[99.588,3.2105],[99.5855,3.204],[99.581,3.194],[99.5775,3.1935],[99.5765,3.191],[99.576,3.1885],[99.5775,3.186],[99.578,3.186],[99.581,3.18],[99.581,3.178],[99.5845,3.18],[99.586,3.179],[99.5925,3.181],[99.594,3.181],[99.5955,3.183],[99.5985,3.188],[99.5995,3.189],[99.6005,3.1915],[99.6005,3.203],[99.593,3.212]]]},"properties":{"code":"12.19.12.2001","name":"Sentang"}},{"type":"Feature","geometry":{"type":"Polygon","coordinates":[[[99.627,3.167],[99.624,3.1765],[99.6165,3.171],[99.6025,3.1765],[99.5935,3.169],[99.592,3.168],[99.593,3.167],[99.5905,3.1645],[99.592,3.165],[99.594,3.1635],[99.595,3.162],[99.597,3.163],[99.597,3.1615],[99.5965,3.161],[99.597,3.1605],[99.5985,3.1605],[99.6015,3.16],[99.602,3.16],[99.6085,3.151],[99.6105,3.152],[99.611,3.151],[99.6135,3.143],[99.627,3.167]]]},"properties":{"code":"12.19.12.2002","name":"Tanjung Mulia"}},{"type":"Feature","geometry":{"type":"Polygon","coordinates":[[[99.6235,3.1765],[99.6145,3.179],[99.6115,3.183],[99.6085,3.1785],[99.603,3.1785],[99.595,3.1815],[99.5925,3.181],[99.586,3.179],[99.5845,3.18],[99.581,3.178],[99.5805,3.178],[99.5795,3.1775],[99.58,3.173],[99.575,3.1635],[99.5765,3.157],[99.584,3.164],[99.5865,3.1655],[99.591,3.1655],[99.593,3.167],[99.592,3.168],[99.5935,3.169],[99.6025,3.1765],[99.6165,3.171],[99.6235,3.1765]]]},"properties":{"code":"12.19.12.2003","name":"Jati Mulia"}},{"type":"Feature","geometry":{"type":"Polygon","coordinates":[[[99.595,3.2105],[99.593,3.212],[99.6005,3.203],[99.6005,3.1915],[99.5995,3.189],[99.5985,3.188],[99.5955,3.183],[99.594,3.181],[99.595,3.1815],[99.603,3.1785],[99.6075,3.185],[99.611,3.2045],[99.595,3.2105]]]},"properties":{"code":"12.19.12.2004","name":"Lima Laras"}},{"type":"Feature","geometry":{"type":"Polygon","coordinates":[[[99.635,3.216],[99.62,3.206],[99.611,3.2045],[99.6075,3.185],[99.603,3.1785],[99.6085,3.1785],[99.62,3.194],[99.635,3.216]]]},"properties":{"code":"12.19.12.2005","name":"Mekar Laras"}},{"type":"Feature","geometry":{"type":"Polygon","coordinates":[[[99.664,3.212],[99.636,3.218],[99.635,3.216],[99.62,3.194],[99.6115,3.183],[99.6145,3.179],[99.6235,3.1765],[99.6315,3.1845],[99.644,3.1995],[99.664,3.212]]]},"properties":{"code":"12.19.12.2006","name":"Bandar Sono"}},{"type":"Feature","geometry":{"type":"Polygon","coordinates":[[[99.666,3.2115],[99.664,3.212],[99.644,3.1995],[99.6315,3.1845],[99.624,3.1765],[99.627,3.167],[99.642,3.1525],[99.6325,3.169],[99.643,3.1755],[99.6615,3.1965],[99.666,3.2045],[99.6665,3.206],[99.666,3.2115]]]},"properties":{"code":"12.19.12.2007","name":"Ujung Kubu"}},{"type":"Feature","geometry":{"type":"Polygon","coordinates":[[[99.642,3.1525],[99.627,3.167],[99.6135,3.143],[99.6135,3.1425],[99.6145,3.1415],[99.618,3.1385],[99.621,3.137],[99.6375,3.133],[99.6445,3.1275],[99.6605,3.1275],[99.661,3.1365],[99.6605,3.1385],[99.659,3.141],[99.642,3.1525]]]},"properties":{"code":"12.19.12.2008","name":"Sei Mentaram"}},{"type":"Feature","geometry":{"type":"Polygon","coordinates":[[[99.6525,3.1715],[99.6495,3.17],[99.643,3.1755],[99.6325,3.169],[99.642,3.1525],[99.659,3.141],[99.6605,3.1385],[99.661,3.1365],[99.6605,3.1275],[99.677,3.1275],[99.686,3.1195],[99.702,3.1175],[99.706,3.125],[99.7125,3.1345],[99.7185,3.142],[99.7015,3.1555],[99.6885,3.1615],[99.678,3.1605],[99.6725,3.1605],[99.669,3.1625],[99.6585,3.1715],[99.6525,3.1715]]]},"properties":{"code":"12.19.12.2009","name":"Pematang Rambai"}},{"type":"Feature","geometry":{"type":"Polygon","coordinates":[[[99.673,3.2075],[99.666,3.2115],[99.6665,3.206],[99.666,3.2045],[99.6615,3.1965],[99.643,3.1755],[99.6495,3.17],[99.6525,3.1715],[99.6585,3.1715],[99.669,3.1625],[99.6705,3.1615],[99.673,3.165],[99.673,3.1675],[99.6715,3.169],[99.6545,3.1785],[99.67,3.206],[99.673,3.207],[99.673,3.2075]]]},"properties":{"code":"12.19.12.2010","name":"Tali Air Permai"}},{"type":"Feature","geometry":{"type":"Polygon","coordinates":[[[99.711,3.19],[99.709,3.195],[99.688,3.2045],[99.673,3.2075],[99.673,3.207],[99.67,3.206],[99.6545,3.1785],[99.6715,3.169],[99.673,3.1675],[99.673,3.165],[99.6705,3.1615],[99.672,3.1605],[99.673,3.1605],[99.678,3.1605],[99.6885,3.1615],[99.6925,3.1605],[99.696,3.1705],[99.706,3.1815],[99.711,3.19]]]},"properties":{"code":"12.19.12.2011","name":"Bagan Baru"}},{"type":"Feature","geometry":{"type":"Polygon","coordinates":[[[99.7375,3.173],[99.7165,3.19],[99.711,3.19],[99.706,3.1815],[99.696,3.1705],[99.6925,3.1605],[99.7015,3.1555],[99.7185,3.142],[99.728,3.1555],[99.7375,3.165],[99.738,3.1665],[99.7375,3.169],[99.7365,3.173],[99.7375,3.173]]]},"properties":{"code":"12.19.12.2012","name":"Kapal Merah"}}]}