{"type":"FeatureCollection","features":[{"type":"Feature","geometry":{"type":"Polygon","coordinates":[[[98.503,3.624],[98.5045,3.6315],[98.4955,3.6315],[98.495,3.6275],[98.4905,3.624],[98.492,3.6215],[98.491,3.619],[98.492,3.6175],[98.493,3.616],[98.492,3.6105],[98.492,3.609],[98.493,3.609],[98.4935,3.6105],[98.495,3.6105],[98.496,3.614],[98.5,3.6185],[98.501,3.624],[98.503,3.624]]]},"properties":{"code":"12.75.01.1001","name":"Pahlawan","latitude":3.623127961350582,"longitude":98.49716568799968}},{"type":"Feature","geometry":{"type":"Polygon","coordinates":[[[98.4985,3.613],[98.4995,3.6165],[98.5,3.6185],[98.496,3.614],[98.495,3.6105],[98.4975,3.6105],[98.4985,3.613]]]},"properties":{"code":"12.75.01.1002","name":"Jati Negara","latitude":3.613641352707433,"longitude":98.49753539570247}},{"type":"Feature","geometry":{"type":"Polygon","coordinates":[[[98.514,3.621],[98.512,3.621],[98.503,3.624],[98.501,3.624],[98.4995,3.6165],[98.4985,3.613],[98.5125,3.613],[98.514,3.617],[98.514,3.621]]]},"properties":{"code":"12.75.01.1003","name":"Nangka","latitude":3.617832515047095,"longitude":98.50618021445561}},{"type":"Feature","geometry":{"type":"Polygon","coordinates":[[[98.4965,3.639],[98.498,3.6465],[98.4895,3.6375],[98.4955,3.6295],[98.4955,3.6305],[98.4965,3.639]]]},"properties":{"code":"12.75.01.1004","name":"Damai","latitude":3.637923873877863,"longitude":98.49426915187546}},{"type":"Feature","geometry":{"type":"Polygon","coordinates":[[[98.4895,3.6375],[98.487,3.641],[98.484,3.6385],[98.4905,3.624],[98.495,3.6275],[98.4955,3.6295],[98.4895,3.6375]]]},"properties":{"code":"12.75.01.1005","name":"Kebun Lada","latitude":3.6315055161505554,"longitude":98.48917994815513}},{"type":"Feature","geometry":{"type":"Polygon","coordinates":[[[98.498,3.6515],[98.5005,3.67],[98.5005,3.6695],[98.4885,3.6675],[98.48,3.657],[98.474,3.6485],[98.473,3.648],[98.4725,3.648],[98.4735,3.646],[98.478,3.6395],[98.48,3.64],[98.4805,3.639],[98.48,3.6355],[98.48,3.6345],[98.4805,3.634],[98.481,3.6345],[98.4825,3.6375],[98.484,3.6385],[98.487,3.641],[98.4975,3.646],[98.498,3.6515]]]},"properties":{"code":"12.75.01.1006","name":"Cengkeh Turi","latitude":3.652442752341008,"longitude":98.48791299871041}},{"type":"Feature","geometry":{"type":"Polygon","coordinates":[[[98.511,3.6725],[98.501,3.6725],[98.498,3.6515],[98.505,3.6515],[98.5095,3.651],[98.5095,3.652],[98.5115,3.652],[98.5165,3.6525],[98.511,3.6555],[98.511,3.6725]]]},"properties":{"code":"12.75.01.1007","name":"Jati Utomo","latitude":3.6615730392402663,"longitude":98.50691698419175}},{"type":"Feature","geometry":{"type":"Polygon","coordinates":[[[98.512,3.6385],[98.4965,3.639],[98.4955,3.6315],[98.5045,3.6315],[98.503,3.624],[98.512,3.621],[98.516,3.621],[98.516,3.6315],[98.512,3.632],[98.512,3.6385]]]},"properties":{"code":"12.75.01.1008","name":"Jati Makmur","latitude":3.6309018569337206,"longitude":98.50720923878121}},{"type":"Feature","geometry":{"type":"Polygon","coordinates":[[[98.5115,3.652],[98.5095,3.652],[98.5095,3.651],[98.505,3.6515],[98.498,3.6515],[98.4975,3.646],[98.498,3.6465],[98.4965,3.639],[98.512,3.6385],[98.512,3.642],[98.517,3.642],[98.517,3.646],[98.5115,3.646],[98.511,3.652],[98.5115,3.652]]]},"properties":{"code":"12.75.01.1009","name":"Jati Karya","latitude":3.6448879817256983,"longitude":98.50559957305131}},{"type":"Feature","geometry":{"type":"Polygon","coordinates":[[[98.473,3.604],[98.4685,3.599],[98.4665,3.5975],[98.462,3.6005],[98.4595,3.5995],[98.46,3.596],[98.4665,3.5935],[98.469,3.592],[98.4785,3.5895],[98.479,3.5975],[98.478,3.5995],[98.4775,3.5995],[98.4765,3.6],[98.476,3.599],[98.4755,3.6],[98.4705,3.6005],[98.4705,3.601],[98.473,3.603],[98.473,3.604]]]},"properties":{"code":"12.75.02.1001","name":"Berngam","latitude":3.59673363085797,"longitude":98.47080182385204}},{"type":"Feature","geometry":{"type":"Polygon","coordinates":[[[98.481,3.602],[98.4795,3.6025],[98.4785,3.602],[98.4765,3.6],[98.4775,3.5995],[98.478,3.5995],[98.479,3.5975],[98.479,3.5965],[98.4855,3.596],[98.4865,3.596],[98.486,3.596],[98.4855,3.597],[98.4855,3.5975],[98.486,3.599],[98.4875,3.6],[98.4865,3.6],[98.481,3.602]]]},"properties":{"code":"12.75.02.1002","name":"Satria","latitude":3.5991059331096715,"longitude":98.48191611362809}},{"type":"Feature","geometry":{"type":"Polygon","coordinates":[[[98.493,3.609],[98.492,3.609],[98.492,3.6095],[98.492,3.6085],[98.49,3.6075],[98.4895,3.606],[98.487,3.6],[98.489,3.602],[98.4895,3.602],[98.489,3.603],[98.4895,3.604],[98.4925,3.6055],[98.493,3.6065],[98.4925,3.608],[98.4935,3.609],[98.493,3.609]]]},"properties":{"code":"12.75.02.1003","name":"Setia","latitude":3.604383030349252,"longitude":98.49001756129348}},{"type":"Feature","geometry":{"type":"Polygon","coordinates":[[[98.4895,3.606],[98.489,3.6065],[98.488,3.605],[98.486,3.605],[98.481,3.602],[98.4865,3.6],[98.487,3.6],[98.4895,3.606]]]},"properties":{"code":"12.75.02.1004","name":"Kartini","latitude":3.6027844034691316,"longitude":98.48571824599357}},{"type":"Feature","geometry":{"type":"Polygon","coordinates":[[[98.485,3.6045],[98.4845,3.605],[98.484,3.6055],[98.484,3.606],[98.4835,3.606],[98.484,3.6085],[98.48,3.6085],[98.478,3.608],[98.4795,3.6045],[98.4795,3.6035],[98.4795,3.6025],[98.481,3.602],[98.485,3.6045]]]},"properties":{"code":"12.75.02.1005","name":"Tangsi","latitude":3.6058667516771,"longitude":98.48137893179769}},{"type":"Feature","geometry":{"type":"Polygon","coordinates":[[[98.489,3.6065],[98.4875,3.6075],[98.487,3.6095],[98.4865,3.609],[98.484,3.6085],[98.4835,3.606],[98.484,3.606],[98.484,3.6055],[98.4845,3.605],[98.485,3.6045],[98.486,3.605],[98.488,3.605],[98.489,3.6065]]]},"properties":{"code":"12.75.02.1006","name":"Binjai","latitude":3.6068482841800873,"longitude":98.48609221041815}},{"type":"Feature","geometry":{"type":"Polygon","coordinates":[[[98.492,3.6095],[98.492,3.6105],[98.493,3.616],[98.492,3.6165],[98.492,3.616],[98.492,3.6135],[98.49,3.611],[98.487,3.6095],[98.4875,3.6075],[98.4895,3.606],[98.49,3.6075],[98.492,3.6085],[98.492,3.6095]]]},"properties":{"code":"12.75.02.1007","name":"Pekan Binjai","latitude":3.6109490293565316,"longitude":98.49104156694393}},{"type":"Feature","geometry":{"type":"Polygon","coordinates":[[[98.4625,3.607],[98.457,3.6035],[98.441,3.6075],[98.4405,3.607],[98.445,3.606],[98.445,3.598],[98.4585,3.595],[98.46,3.596],[98.4595,3.5995],[98.462,3.6005],[98.4665,3.5975],[98.4685,3.599],[98.473,3.604],[98.473,3.605],[98.4725,3.605],[98.4725,3.6065],[98.4625,3.607]]]},"properties":{"code":"12.75.03.1001","name":"Bandar Senembah","latitude":3.6016075576763247,"longitude":98.45686716577261}},{"type":"Feature","geometry":{"type":"Polygon","coordinates":[[[98.4805,3.618],[98.474,3.6175],[98.4715,3.6115],[98.4725,3.605],[98.473,3.605],[98.473,3.603],[98.4705,3.601],[98.4705,3.6005],[98.4755,3.6],[98.476,3.599],[98.477,3.6005],[98.4795,3.6025],[98.4795,3.6035],[98.4795,3.6045],[98.478,3.608],[98.48,3.6085],[98.4825,3.6085],[98.4805,3.618]]]},"properties":{"code":"12.75.03.1002","name":"Limau Mungkur","latitude":3.6092591222159065,"longitude":98.47654594730678}},{"type":"Feature","geometry":{"type":"Polygon","coordinates":[[[98.492,3.6165],[98.492,3.6175],[98.491,3.619],[98.491,3.62],[98.4805,3.618],[98.4825,3.6085],[98.4865,3.609],[98.49,3.611],[98.492,3.6135],[98.492,3.616],[98.492,3.6165]]]},"properties":{"code":"12.75.03.1003","name":"Limau Sundai","latitude":3.614403589560253,"longitude":98.48626129009772}},{"type":"Feature","geometry":{"type":"Polygon","coordinates":[[[98.4595,3.6545],[98.4495,3.6565],[98.4495,3.6545],[98.449,3.6545],[98.4465,3.657],[98.4465,3.654],[98.458,3.651],[98.4625,3.6415],[98.473,3.6355],[98.474,3.6175],[98.4805,3.618],[98.491,3.62],[98.492,3.6215],[98.4905,3.624],[98.484,3.6385],[98.4825,3.6375],[98.481,3.6345],[98.4805,3.634],[98.48,3.6345],[98.48,3.6355],[98.4805,3.639],[98.48,3.64],[98.478,3.6395],[98.4735,3.646],[98.4725,3.648],[98.473,3.648],[98.472,3.6485],[98.4705,3.649],[98.468,3.6485],[98.4595,3.6545]]]},"properties":{"code":"12.75.03.1004","name":"Paya Roba","latitude":3.6350051320409644,"longitude":98.47449336231637}},{"type":"Feature","geometry":{"type":"Polygon","coordinates":[[[98.4625,3.607],[98.4615,3.6155],[98.4425,3.613],[98.441,3.609],[98.457,3.6035],[98.4625,3.607]]]},"properties":{"code":"12.75.03.1005","name":"Suka Maju","latitude":3.6094936462116074,"longitude":98.45271315076543}},{"type":"Feature","geometry":{"type":"Polygon","coordinates":[[[98.4725,3.6065],[98.4715,3.6115],[98.474,3.6175],[98.4615,3.6155],[98.4625,3.607],[98.4725,3.6065]]]},"properties":{"code":"12.75.03.1006","name":"Sukaramai","latitude":3.6115498926388563,"longitude":98.46752023567329}},{"type":"Feature","geometry":{"type":"Polygon","coordinates":[[[98.5115,3.6085],[98.512,3.613],[98.4985,3.613],[98.4975,3.6105],[98.4945,3.6105],[98.4985,3.6085],[98.5115,3.6085]]]},"properties":{"code":"12.75.04.1001","name":"Tanah Tinggi","latitude":3.6107524720535555,"longitude":98.5045441655716}},{"type":"Feature","geometry":{"type":"Polygon","coordinates":[[[98.5115,3.603],[98.5115,3.6085],[98.4985,3.6085],[98.5115,3.603]]]},"properties":{"code":"12.75.04.1002","name":"Dataran Tinggi","latitude":3.605987478002107,"longitude":98.50637706866239}},{"type":"Feature","geometry":{"type":"Polygon","coordinates":[[[98.4945,3.6105],[98.4935,3.6105],[98.493,3.609],[98.4935,3.609],[98.4925,3.608],[98.493,3.6065],[98.4925,3.6055],[98.507,3.595],[98.5115,3.591],[98.5115,3.603],[98.4985,3.6085],[98.4945,3.6105]]]},"properties":{"code":"12.75.04.1003","name":"Timbang Langkat","latitude":3.6007995310503613,"longitude":98.50358012550534}},{"type":"Feature","geometry":{"type":"Polygon","coordinates":[[[98.4925,3.6055],[98.4895,3.604],[98.489,3.603],[98.4895,3.6025],[98.495,3.5975],[98.495,3.5965],[98.4965,3.5965],[98.4975,3.59],[98.499,3.5895],[98.4995,3.589],[98.499,3.588],[98.498,3.5865],[98.498,3.5855],[98.498,3.5795],[98.4985,3.58],[98.4995,3.5805],[98.5075,3.5875],[98.507,3.595],[98.4925,3.6055]]]},"properties":{"code":"12.75.04.1004","name":"Mencirim","latitude":3.5934675385446564,"longitude":98.49973493198199}},{"type":"Feature","geometry":{"type":"Polygon","coordinates":[[[98.521,3.608],[98.5115,3.6085],[98.5115,3.603],[98.5115,3.591],[98.5075,3.5875],[98.4995,3.5805],[98.5005,3.5805],[98.504,3.573],[98.5155,3.57],[98.5355,3.5705],[98.5395,3.5755],[98.5335,3.598],[98.5355,3.6035],[98.5355,3.604],[98.5295,3.6065],[98.521,3.608]]]},"properties":{"code":"12.75.04.1005","name":"Tunggurono","latitude":3.5868735624153603,"longitude":98.52130484668653}},{"type":"Feature","geometry":{"type":"Polygon","coordinates":[[[98.5275,3.6305],[98.527,3.632],[98.516,3.6315],[98.516,3.621],[98.514,3.621],[98.514,3.617],[98.5125,3.613],[98.512,3.613],[98.5115,3.6085],[98.521,3.608],[98.5225,3.613],[98.5225,3.62],[98.524,3.6245],[98.5255,3.625],[98.527,3.625],[98.5275,3.6305]]]},"properties":{"code":"12.75.04.1006","name":"Sumber Mulyorejo","latitude":3.620239066854764,"longitude":98.51921880473421}},{"type":"Feature","geometry":{"type":"Polygon","coordinates":[[[98.527,3.625],[98.5255,3.625],[98.524,3.6245],[98.5225,3.62],[98.5225,3.613],[98.5295,3.6065],[98.5355,3.604],[98.5355,3.6045],[98.536,3.605],[98.5355,3.607],[98.5355,3.6095],[98.527,3.621],[98.527,3.625]]]},"properties":{"code":"12.75.04.1007","name":"Sumber Karya","latitude":3.613829556128688,"longitude":98.52822075335735}},{"type":"Feature","geometry":{"type":"Polygon","coordinates":[[[98.469,3.592],[98.464,3.5915],[98.463,3.594],[98.4605,3.5955],[98.46,3.595],[98.46,3.592],[98.4565,3.583],[98.456,3.5825],[98.4535,3.573],[98.4535,3.5715],[98.4505,3.5715],[98.447,3.5625],[98.4485,3.561],[98.4465,3.5615],[98.446,3.561],[98.445,3.5585],[98.446,3.5575],[98.4465,3.5535],[98.4455,3.547],[98.4455,3.5435],[98.447,3.5405],[98.4455,3.5375],[98.446,3.5365],[98.4505,3.532],[98.4495,3.5295],[98.452,3.529],[98.4525,3.529],[98.453,3.529],[98.4535,3.5285],[98.4545,3.529],[98.4625,3.529],[98.463,3.568],[98.4735,3.576],[98.4785,3.5875],[98.4785,3.5895],[98.469,3.592]]]},"properties":{"code":"12.75.05.1001","name":"Tanah Merah","latitude":3.5617527783311735,"longitude":98.4580189610272}},{"type":"Feature","geometry":{"type":"Polygon","coordinates":[[[98.479,3.5965],[98.4785,3.5875],[98.4735,3.576],[98.4795,3.574],[98.4825,3.5745],[98.485,3.5775],[98.486,3.5785],[98.4855,3.579],[98.486,3.579],[98.4895,3.587],[98.4905,3.587],[98.491,3.5875],[98.4855,3.5935],[98.4855,3.595],[98.485,3.596],[98.479,3.5965]]]},"properties":{"code":"12.75.05.1002","name":"Binjai Estate","latitude":3.584615737021042,"longitude":98.4810843932322}},{"type":"Feature","geometry":{"type":"Polygon","coordinates":[[[98.4735,3.576],[98.463,3.568],[98.4625,3.529],[98.4655,3.5285],[98.4665,3.5285],[98.474,3.528],[98.4745,3.5435],[98.475,3.546],[98.475,3.5475],[98.4735,3.55],[98.4745,3.5565],[98.476,3.5565],[98.475,3.5595],[98.475,3.5635],[98.476,3.5645],[98.476,3.5655],[98.476,3.566],[98.477,3.5665],[98.478,3.5665],[98.478,3.5675],[98.477,3.5675],[98.4775,3.5685],[98.4815,3.5735],[98.4795,3.574],[98.4735,3.576]]]},"properties":{"code":"12.75.05.1003","name":"Bhakti Karya","latitude":3.5527143140862973,"longitude":98.46907057526995}},{"type":"Feature","geometry":{"type":"Polygon","coordinates":[[[98.498,3.5855],[98.498,3.5865],[98.499,3.588],[98.4995,3.589],[98.499,3.5895],[98.4975,3.59],[98.4965,3.5965],[98.495,3.5965],[98.495,3.597],[98.4945,3.597],[98.49,3.5965],[98.491,3.5915],[98.492,3.587],[98.492,3.5855],[98.4965,3.5855],[98.497,3.5855],[98.498,3.5855]]]},"properties":{"code":"12.75.05.1004","name":"Rambung Dalam","latitude":3.591532721495227,"longitude":98.49465374797028}},{"type":"Feature","geometry":{"type":"Polygon","coordinates":[[[98.498,3.5855],[98.497,3.5855],[98.4965,3.5855],[98.492,3.5855],[98.492,3.587],[98.4895,3.587],[98.486,3.579],[98.4855,3.579],[98.486,3.5785],[98.485,3.5775],[98.4825,3.5745],[98.4815,3.5735],[98.4775,3.5685],[98.477,3.5675],[98.478,3.5675],[98.478,3.5665],[98.4805,3.5665],[98.495,3.5665],[98.496,3.5695],[98.4985,3.569],[98.4985,3.57],[98.4995,3.5705],[98.5,3.572],[98.5,3.5795],[98.4995,3.5805],[98.4985,3.58],[98.498,3.5795],[98.498,3.5855]]]},"properties":{"code":"12.75.05.1005","name":"Pujidadi","latitude":3.5749973460217372,"longitude":98.49036736943344}},{"type":"Feature","geometry":{"type":"Polygon","coordinates":[[[98.4985,3.569],[98.496,3.5695],[98.495,3.5665],[98.4805,3.5665],[98.477,3.5665],[98.476,3.566],[98.476,3.5655],[98.476,3.5645],[98.475,3.5635],[98.475,3.5595],[98.476,3.5565],[98.487,3.5555],[98.498,3.5645],[98.497,3.5645],[98.497,3.5675],[98.4985,3.569]]]},"properties":{"code":"12.75.05.1006","name":"Tanah Seribu","latitude":3.561575517251813,"longitude":98.48676407108806}},{"type":"Feature","geometry":{"type":"Polygon","coordinates":[[[98.491,3.5915],[98.4875,3.6],[98.486,3.599],[98.4855,3.5975],[98.4855,3.597],[98.486,3.596],[98.4865,3.596],[98.4855,3.596],[98.485,3.596],[98.4855,3.595],[98.4855,3.5935],[98.491,3.5875],[98.4905,3.587],[98.492,3.587],[98.491,3.5915]]]},"properties":{"code":"12.75.05.1007","name":"Rambung Barat","latitude":3.593813099448846,"longitude":98.4883080552059}},{"type":"Feature","geometry":{"type":"Polygon","coordinates":[[[98.495,3.597],[98.495,3.5975],[98.4895,3.6025],[98.4895,3.602],[98.489,3.602],[98.49,3.5965],[98.4945,3.597],[98.495,3.597]]]},"properties":{"code":"12.75.05.1008","name":"Rambung Timur","latitude":3.5996047375438014,"longitude":98.49214258232918}}]}