{"type":"FeatureCollection","features":[{"type":"Feature","geometry":{"type":"Polygon","coordinates":[[[98.8005,1.7445],[98.7955,1.7585],[98.785,1.7495],[98.7835,1.748],[98.786,1.7445],[98.7885,1.7385],[98.79,1.7375],[98.797,1.739],[98.7975,1.737],[98.798,1.7375],[98.8005,1.7445]]]},"properties":{"code":"12.73.01.1001","name":"Huta Barangan"}},{"type":"Feature","geometry":{"type":"Polygon","coordinates":[[[98.7955,1.7585],[98.77,1.7565],[98.773,1.756],[98.773,1.7555],[98.774,1.752],[98.775,1.753],[98.7785,1.7455],[98.7835,1.748],[98.785,1.7495],[98.7955,1.7585]]]},"properties":{"code":"12.73.01.1002","name":"Angin Nauli"}},{"type":"Feature","geometry":{"type":"Polygon","coordinates":[[[98.786,1.7445],[98.7835,1.748],[98.7785,1.7455],[98.7805,1.7425],[98.781,1.743],[98.7815,1.7425],[98.782,1.743],[98.783,1.743],[98.784,1.742],[98.7845,1.7425],[98.786,1.7445]]]},"properties":{"code":"12.73.01.1003","name":"Huta Tonga-Tonga"}},{"type":"Feature","geometry":{"type":"Polygon","coordinates":[[[98.774,1.752],[98.773,1.7555],[98.773,1.756],[98.77,1.7565],[98.771,1.744],[98.773,1.7505],[98.774,1.752]]]},"properties":{"code":"12.73.01.1004","name":"Sibolga Ilir"}},{"type":"Feature","geometry":{"type":"Polygon","coordinates":[[[98.7785,1.7455],[98.775,1.753],[98.773,1.7505],[98.771,1.744],[98.7735,1.7425],[98.7785,1.7455]]]},"properties":{"code":"12.73.01.1005","name":"Simare-Mare"}},{"type":"Feature","geometry":{"type":"Polygon","coordinates":[[[98.7805,1.7425],[98.7785,1.7455],[98.7735,1.7425],[98.7805,1.7425]]]},"properties":{"code":"12.73.02.1001","name":"Kota Baringin"}},{"type":"Feature","geometry":{"type":"Polygon","coordinates":[[[98.784,1.742],[98.783,1.743],[98.782,1.743],[98.7815,1.7425],[98.781,1.743],[98.7765,1.738],[98.778,1.738],[98.782,1.741],[98.7825,1.7415],[98.7835,1.7415],[98.783,1.7425],[98.784,1.742]]]},"properties":{"code":"12.73.02.1002","name":"Pasar Baru"}},{"type":"Feature","geometry":{"type":"Polygon","coordinates":[[[98.784,1.735],[98.78,1.7395],[98.778,1.738],[98.7765,1.738],[98.782,1.734],[98.784,1.735]]]},"properties":{"code":"12.73.02.1003","name":"Pasar Belakang"}},{"type":"Feature","geometry":{"type":"Polygon","coordinates":[[[98.7885,1.7385],[98.786,1.7445],[98.7845,1.7425],[98.784,1.742],[98.783,1.7425],[98.7835,1.7415],[98.7825,1.7415],[98.782,1.741],[98.78,1.7395],[98.784,1.735],[98.7885,1.7385]]]},"properties":{"code":"12.73.02.1004","name":"Pancuran Gerobak"}},{"type":"Feature","geometry":{"type":"Polygon","coordinates":[[[98.8,1.728],[98.7985,1.7285],[98.796,1.729],[98.794,1.7265],[98.797,1.7215],[98.8,1.728]]]},"properties":{"code":"12.73.03.1001","name":"Aek Habil"}},{"type":"Feature","geometry":{"type":"Polygon","coordinates":[[[98.7975,1.737],[98.797,1.739],[98.79,1.7375],[98.7925,1.7345],[98.79,1.7295],[98.794,1.7265],[98.796,1.729],[98.7965,1.7295],[98.7975,1.737]]]},"properties":{"code":"12.73.03.1002","name":"Aek Manis"}},{"type":"Feature","geometry":{"type":"Polygon","coordinates":[[[98.797,1.7215],[98.8035,1.726],[98.8,1.728],[98.797,1.7215]]]},"properties":{"code":"12.73.03.1003","name":"Aek Muara Pinang"}},{"type":"Feature","geometry":{"type":"Polygon","coordinates":[[[98.7985,1.7285],[98.811,1.7295],[98.8005,1.7445],[98.798,1.7375],[98.7975,1.737],[98.7965,1.7295],[98.7985,1.7285]]]},"properties":{"code":"12.73.03.1004","name":"Aek Parombunan"}},{"type":"Feature","geometry":{"type":"Polygon","coordinates":[[[98.79,1.7375],[98.7885,1.7385],[98.784,1.735],[98.7855,1.733],[98.79,1.7375]]]},"properties":{"code":"12.73.04.1001","name":"Pancuran Kerambil"}},{"type":"Feature","geometry":{"type":"Polygon","coordinates":[[[98.7915,1.7355],[98.79,1.7375],[98.786,1.73],[98.7915,1.7355]]]},"properties":{"code":"12.73.04.1002","name":"Pancuran Dewa"}},{"type":"Feature","geometry":{"type":"Polygon","coordinates":[[[98.784,1.735],[98.782,1.734],[98.7855,1.733],[98.784,1.735]]]},"properties":{"code":"12.73.04.1003","name":"Pancuran Pinang"}},{"type":"Feature","geometry":{"type":"Polygon","coordinates":[[[98.79,1.7295],[98.7925,1.7345],[98.7915,1.7355],[98.786,1.73],[98.79,1.7295]]]},"properties":{"code":"12.73.04.1004","name":"Pancuran Bambu"}}]}