{"type":"FeatureCollection","features":[{"type":"Feature","geometry":{"type":"Polygon","coordinates":[[[99.071,2.9545],[99.069,2.955],[99.0705,2.949],[99.0745,2.95],[99.075,2.9505],[99.077,2.9505],[99.078,2.9505],[99.072,2.953],[99.071,2.9545]]]},"properties":{"code":"12.72.01.1001","name":"Kebun Sayur","latitude":2.9516700262402535,"longitude":99.07273065818156}},{"type":"Feature","geometry":{"type":"Polygon","coordinates":[[[99.079,2.9565],[99.0745,2.958],[99.0715,2.958],[99.071,2.9545],[99.072,2.953],[99.078,2.9505],[99.0795,2.95],[99.082,2.95],[99.084,2.954],[99.084,2.9555],[99.084,2.956],[99.0835,2.9555],[99.082,2.9565],[99.0815,2.957],[99.081,2.957],[99.0805,2.9575],[99.08,2.9575],[99.079,2.9565]]]},"properties":{"code":"12.72.01.1002","name":"Tomuan","latitude":2.9540911392502367,"longitude":99.07795557993339}},{"type":"Feature","geometry":{"type":"Polygon","coordinates":[[[99.077,2.9615],[99.075,2.963],[99.0725,2.962],[99.07,2.961],[99.071,2.959],[99.07,2.959],[99.0715,2.958],[99.0745,2.958],[99.079,2.9565],[99.077,2.9615]]]},"properties":{"code":"12.72.01.1003","name":"Pahlawan","latitude":2.9593013877281837,"longitude":99.07472137628325}},{"type":"Feature","geometry":{"type":"Polygon","coordinates":[[[99.078,2.9685],[99.0815,2.972],[99.0815,2.975],[99.079,2.975],[99.076,2.9745],[99.0755,2.9715],[99.0745,2.97],[99.074,2.9675],[99.076,2.9675],[99.078,2.9685]]]},"properties":{"code":"12.72.01.1004","name":"Asuhan","latitude":2.9716412415235673,"longitude":99.07820349979214}},{"type":"Feature","geometry":{"type":"Polygon","coordinates":[[[99.078,2.9685],[99.076,2.9675],[99.075,2.963],[99.077,2.9615],[99.078,2.9685]]]},"properties":{"code":"12.72.01.1005","name":"Merdeka","latitude":2.9650035146832003,"longitude":99.07660485698409}},{"type":"Feature","geometry":{"type":"Polygon","coordinates":[[[99.074,2.9675],[99.072,2.9675],[99.072,2.966],[99.0725,2.9625],[99.0725,2.962],[99.075,2.963],[99.076,2.9675],[99.074,2.9675]]]},"properties":{"code":"12.72.01.1006","name":"Pardomuan","latitude":2.9649467363249653,"longitude":99.07349131668157}},{"type":"Feature","geometry":{"type":"Polygon","coordinates":[[[99.094,2.986],[99.0925,2.988],[99.0895,2.9885],[99.089,2.984],[99.0815,2.9795],[99.0815,2.972],[99.078,2.9685],[99.077,2.9615],[99.079,2.9565],[99.0805,2.9575],[99.081,2.957],[99.0815,2.957],[99.081,2.9575],[99.0885,2.9665],[99.088,2.967],[99.0885,2.9675],[99.089,2.97],[99.0905,2.972],[99.0905,2.9725],[99.091,2.9745],[99.0945,2.978],[99.0945,2.9795],[99.0935,2.9835],[99.094,2.986]]]},"properties":{"code":"12.72.01.1007","name":"Siopat Suhu","latitude":2.972440937789952,"longitude":99.08557414052758}},{"type":"Feature","geometry":{"type":"Polygon","coordinates":[[[99.07,2.961],[99.07,2.9615],[99.0695,2.961],[99.066,2.9595],[99.0635,2.959],[99.065,2.956],[99.0685,2.9575],[99.0685,2.958],[99.071,2.959],[99.07,2.961]]]},"properties":{"code":"12.72.02.1001","name":"Dwikora","latitude":2.9585394771836557,"longitude":99.06721968981742}},{"type":"Feature","geometry":{"type":"Polygon","coordinates":[[[99.061,2.96],[99.059,2.96],[99.0595,2.9585],[99.06,2.9535],[99.0615,2.9535],[99.0625,2.9545],[99.064,2.9545],[99.064,2.955],[99.065,2.956],[99.0635,2.959],[99.0605,2.9595],[99.061,2.96]]]},"properties":{"code":"12.72.02.1002","name":"Proklamasi","latitude":2.9567706750098197,"longitude":99.06151831790292}},{"type":"Feature","geometry":{"type":"Polygon","coordinates":[[[99.061,2.9675],[99.0515,2.9675],[99.0515,2.956],[99.0525,2.9555],[99.0555,2.957],[99.0585,2.9655],[99.0605,2.967],[99.061,2.967],[99.061,2.9675]]]},"properties":{"code":"12.72.02.1003","name":"Bantan","latitude":2.962627041683672,"longitude":99.05443237413122}},{"type":"Feature","geometry":{"type":"Polygon","coordinates":[[[99.06,2.9535],[99.0525,2.9555],[99.0535,2.9505],[99.0545,2.95],[99.0585,2.9525],[99.06,2.9535]]]},"properties":{"code":"12.72.02.1004","name":"Timbang Galung","latitude":2.9541379401430277,"longitude":99.05615816088341}},{"type":"Feature","geometry":{"type":"Polygon","coordinates":[[[99.0525,2.9555],[99.0515,2.956],[99.0465,2.953],[99.047,2.951],[99.0535,2.95],[99.0535,2.9505],[99.0525,2.9555]]]},"properties":{"code":"12.72.02.1005","name":"Simarito","latitude":2.953062022503372,"longitude":99.04999819346038}},{"type":"Feature","geometry":{"type":"Polygon","coordinates":[[[99.0535,2.95],[99.047,2.951],[99.048,2.947],[99.049,2.9435],[99.0505,2.944],[99.0525,2.946],[99.054,2.948],[99.0545,2.9495],[99.054,2.95],[99.0535,2.95]]]},"properties":{"code":"12.72.02.1006","name":"Sipinggolpinggol","latitude":2.9478938027862753,"longitude":99.05040748476392}},{"type":"Feature","geometry":{"type":"Polygon","coordinates":[[[99.0595,2.9655],[99.0585,2.9655],[99.0555,2.957],[99.0595,2.9585],[99.059,2.96],[99.0595,2.96],[99.061,2.96],[99.0615,2.961],[99.0595,2.9655]]]},"properties":{"code":"12.72.02.1007","name":"Banjar","latitude":2.961260473926336,"longitude":99.05812372809538}},{"type":"Feature","geometry":{"type":"Polygon","coordinates":[[[99.064,2.9545],[99.0625,2.9545],[99.0615,2.9535],[99.0585,2.9525],[99.0545,2.95],[99.054,2.95],[99.0545,2.9495],[99.055,2.9495],[99.0575,2.9485],[99.0605,2.95],[99.0625,2.9505],[99.065,2.952],[99.064,2.9545]]]},"properties":{"code":"12.72.02.1008","name":"Teladan","latitude":2.9515036586717724,"longitude":99.05973924773154}},{"type":"Feature","geometry":{"type":"Polygon","coordinates":[[[99.07,2.9615],[99.069,2.9625],[99.0675,2.9665],[99.061,2.96],[99.0605,2.9595],[99.066,2.9595],[99.0695,2.961],[99.07,2.9615]]]},"properties":{"code":"12.72.03.1001","name":"Melayu","latitude":2.9619439103319305,"longitude":99.06572377499822}},{"type":"Feature","geometry":{"type":"Polygon","coordinates":[[[99.0675,2.9675],[99.065,2.9675],[99.0645,2.968],[99.062,2.9685],[99.062,2.968],[99.061,2.967],[99.0605,2.967],[99.0595,2.9655],[99.0615,2.961],[99.0675,2.9665],[99.0675,2.9675]]]},"properties":{"code":"12.72.03.1002","name":"Martoba","latitude":2.965242829414566,"longitude":99.06295576401546}},{"type":"Feature","geometry":{"type":"Polygon","coordinates":[[[99.072,2.967],[99.0675,2.9675],[99.0675,2.9665],[99.069,2.9625],[99.07,2.9615],[99.07,2.961],[99.0725,2.962],[99.0725,2.9625],[99.072,2.966],[99.072,2.967]]]},"properties":{"code":"12.72.03.1003","name":"Baru","latitude":2.964592822125761,"longitude":99.06998975948746}},{"type":"Feature","geometry":{"type":"Polygon","coordinates":[[[99.075,2.9705],[99.072,2.971],[99.0635,2.971],[99.0625,2.97],[99.062,2.9685],[99.0645,2.968],[99.065,2.9675],[99.072,2.967],[99.072,2.9675],[99.074,2.9675],[99.0745,2.97],[99.075,2.9705]]]},"properties":{"code":"12.72.03.1004","name":"Sukadame","latitude":2.969105644012858,"longitude":99.06884702207195}},{"type":"Feature","geometry":{"type":"Polygon","coordinates":[[[99.0765,2.9745],[99.07,2.977],[99.0695,2.9765],[99.0695,2.971],[99.072,2.971],[99.075,2.9705],[99.0755,2.9715],[99.076,2.9745],[99.0765,2.9745]]]},"properties":{"code":"12.72.03.1005","name":"Kahean","latitude":2.9748695350889047,"longitude":99.07333548456478}},{"type":"Feature","geometry":{"type":"Polygon","coordinates":[[[99.0685,2.976],[99.067,2.976],[99.0625,2.976],[99.062,2.971],[99.0625,2.97],[99.0635,2.971],[99.0695,2.971],[99.0695,2.9765],[99.069,2.976],[99.0685,2.976]]]},"properties":{"code":"12.72.03.1006","name":"Sigulanggulang","latitude":2.973579590308527,"longitude":99.06548206042109}},{"type":"Feature","geometry":{"type":"Polygon","coordinates":[[[99.063,2.977],[99.053,2.9775],[99.052,2.9765],[99.0515,2.975],[99.0515,2.974],[99.052,2.972],[99.051,2.9715],[99.051,2.971],[99.05,2.9695],[99.0505,2.9675],[99.061,2.9675],[99.062,2.968],[99.062,2.971],[99.0625,2.976],[99.063,2.977]]]},"properties":{"code":"12.72.03.1007","name":"Bane","latitude":2.9722213415464678,"longitude":99.0565624211757}},{"type":"Feature","geometry":{"type":"Polygon","coordinates":[[[99.0685,2.9465],[99.0645,2.952],[99.0625,2.9505],[99.0645,2.947],[99.067,2.944],[99.0675,2.9445],[99.0685,2.9465]]]},"properties":{"code":"12.72.04.1001","name":"Toba","latitude":2.948174640626934,"longitude":99.06581916240408}},{"type":"Feature","geometry":{"type":"Polygon","coordinates":[[[99.069,2.955],[99.068,2.954],[99.0665,2.953],[99.0645,2.9545],[99.064,2.9545],[99.065,2.9525],[99.065,2.952],[99.0645,2.952],[99.0685,2.9465],[99.07,2.9485],[99.0705,2.949],[99.069,2.955]]]},"properties":{"code":"12.72.04.1002","name":"Karo","latitude":2.9510618081841713,"longitude":99.06793640001183}},{"type":"Feature","geometry":{"type":"Polygon","coordinates":[[[99.068,2.954],[99.07,2.959],[99.0685,2.958],[99.0685,2.9575],[99.064,2.955],[99.064,2.9545],[99.0645,2.9545],[99.0665,2.953],[99.068,2.954]]]},"properties":{"code":"12.72.04.1003","name":"Simalungun","latitude":2.9556982306915236,"longitude":99.06809952818747}},{"type":"Feature","geometry":{"type":"Polygon","coordinates":[[[99.0585,2.949],[99.0575,2.9485],[99.055,2.9495],[99.0545,2.9495],[99.054,2.948],[99.0535,2.9475],[99.056,2.9445],[99.0575,2.9415],[99.0595,2.9415],[99.06,2.942],[99.061,2.942],[99.0615,2.942],[99.0625,2.943],[99.0585,2.949]]]},"properties":{"code":"12.72.04.1004","name":"Martimbang","latitude":2.9453405011872196,"longitude":99.0579721698476}},{"type":"Feature","geometry":{"type":"Polygon","coordinates":[[[99.0625,2.9505],[99.0605,2.95],[99.0585,2.949],[99.0625,2.943],[99.064,2.944],[99.0665,2.944],[99.067,2.944],[99.0645,2.947],[99.0625,2.9505]]]},"properties":{"code":"12.72.04.1005","name":"Kristen","latitude":2.9470630729866207,"longitude":99.06241139527174}},{"type":"Feature","geometry":{"type":"Polygon","coordinates":[[[99.0505,2.9405],[99.0545,2.946],[99.0535,2.9475],[99.0525,2.946],[99.0505,2.944],[99.0485,2.943],[99.047,2.943],[99.0455,2.9425],[99.045,2.942],[99.043,2.9425],[99.048,2.941],[99.05,2.94],[99.0505,2.9405]]]},"properties":{"code":"12.72.04.1006","name":"Aek Nauli","latitude":2.943184600521202,"longitude":99.0502461490612}},{"type":"Feature","geometry":{"type":"Polygon","coordinates":[[[99.078,2.947],[99.0705,2.9425],[99.0795,2.9325],[99.086,2.9325],[99.0895,2.9335],[99.0895,2.9345],[99.078,2.947]]]},"properties":{"code":"12.72.05.1002","name":"Sukaraja","latitude":2.938486651565409,"longitude":99.07960911348982}},{"type":"Feature","geometry":{"type":"Polygon","coordinates":[[[99.0965,2.9435],[99.085,2.951],[99.082,2.9495],[99.08,2.9495],[99.079,2.949],[99.078,2.947],[99.0895,2.9345],[99.0905,2.9335],[99.095,2.934],[99.101,2.9345],[99.102,2.935],[99.1025,2.9365],[99.1025,2.937],[99.1025,2.939],[99.097,2.942],[99.0965,2.9435]]]},"properties":{"code":"12.72.05.1005","name":"Baringin Pancur Nauli","latitude":2.9418315212767103,"longitude":99.09007618932945}},{"type":"Feature","geometry":{"type":"Polygon","coordinates":[[[99.078,2.9505],[99.077,2.9505],[99.075,2.9505],[99.0745,2.95],[99.07,2.9485],[99.0685,2.9465],[99.0695,2.9445],[99.0765,2.9495],[99.078,2.9505]]]},"properties":{"code":"12.72.05.1006","name":"Pardamean","latitude":2.9480122017261516,"longitude":99.07249616372673}},{"type":"Feature","geometry":{"type":"Polygon","coordinates":[[[99.0665,2.939],[99.0645,2.9405],[99.065,2.941],[99.0635,2.9435],[99.0615,2.942],[99.0615,2.9415],[99.0595,2.937],[99.0665,2.9365],[99.0665,2.939]]]},"properties":{"code":"12.72.05.1007","name":"Sukamaju","latitude":2.9392358476877996,"longitude":99.06297540211814}},{"type":"Feature","geometry":{"type":"Polygon","coordinates":[[[99.08,2.9495],[99.0795,2.95],[99.078,2.9505],[99.0765,2.9495],[99.0695,2.9445],[99.0705,2.9425],[99.078,2.947],[99.079,2.949],[99.08,2.9495]]]},"properties":{"code":"12.72.05.1008","name":"Parhorasan Nauli","latitude":2.9466250443191453,"longitude":99.07440919323484}},{"type":"Feature","geometry":{"type":"Polygon","coordinates":[[[99.0695,2.9445],[99.0685,2.9465],[99.0675,2.9445],[99.0665,2.944],[99.064,2.944],[99.0635,2.9435],[99.065,2.941],[99.0645,2.9405],[99.0675,2.9395],[99.069,2.941],[99.0705,2.9425],[99.0695,2.9445]]]},"properties":{"code":"12.72.05.1009","name":"Sukamakmur","latitude":2.9424079301113486,"longitude":99.06707499136596}},{"type":"Feature","geometry":{"type":"Polygon","coordinates":[[[99.1015,2.959],[99.094,2.962],[99.0845,2.956],[99.084,2.956],[99.084,2.9555],[99.084,2.954],[99.082,2.95],[99.082,2.9495],[99.085,2.951],[99.0965,2.9435],[99.0925,2.957],[99.1015,2.959]]]},"properties":{"code":"12.72.05.1010","name":"Mekar Nauli","latitude":2.9539263818641834,"longitude":99.09191060190382}},{"type":"Feature","geometry":{"type":"Polygon","coordinates":[[[99.0945,2.9875],[99.083,3],[99.081,2.985],[99.079,2.975],[99.0815,2.975],[99.0815,2.9795],[99.089,2.984],[99.0895,2.9885],[99.0925,2.988],[99.094,2.986],[99.0945,2.9865],[99.0945,2.9875]]]},"properties":{"code":"12.72.06.1001","name":"Sumber Jaya","latitude":2.9882771779613644,"longitude":99.08492055245651}},{"type":"Feature","geometry":{"type":"Polygon","coordinates":[[[99.1005,3.0185],[99.0995,3.0185],[99.0975,3.0175],[99.096,3.0175],[99.0955,3.0165],[99.0935,3.0145],[99.093,3.013],[99.091,3.013],[99.088,3.013],[99.086,3.015],[99.0855,3.0155],[99.085,3.012],[99.083,3],[99.0945,2.9875],[99.0955,2.9885],[99.096,2.99],[99.0925,3.0055],[99.0935,3.0085],[99.099,3.014],[99.1,3.017],[99.1005,3.0185]]]},"properties":{"code":"12.72.06.1003","name":"Tambun Nabolon","latitude":3.0046556625352285,"longitude":99.09052937949411}},{"type":"Feature","geometry":{"type":"Polygon","coordinates":[[[99.0815,2.9885],[99.0685,2.9875],[99.068,2.987],[99.068,2.986],[99.063,2.977],[99.067,2.976],[99.0685,2.976],[99.076,2.9825],[99.0805,2.9825],[99.081,2.985],[99.0815,2.9885]]]},"properties":{"code":"12.72.06.1007","name":"Naga Pita","latitude":2.982308008362343,"longitude":99.07202592065093}},{"type":"Feature","geometry":{"type":"Polygon","coordinates":[[[99.083,3],[99.0825,3.001],[99.0735,3.001],[99.0665,2.993],[99.0655,2.992],[99.0655,2.9905],[99.0645,2.9875],[99.0685,2.9875],[99.0815,2.9885],[99.083,3]]]},"properties":{"code":"12.72.06.1008","name":"Pondok Sayur","latitude":2.9928007914983863,"longitude":99.07449068283023}},{"type":"Feature","geometry":{"type":"Polygon","coordinates":[[[99.0855,3.0155],[99.085,3.0155],[99.0845,3.015],[99.072,3.016],[99.068,3.014],[99.0665,3.0135],[99.0665,3.013],[99.0735,3.001],[99.0825,3.001],[99.085,3.012],[99.0855,3.0155]]]},"properties":{"code":"12.72.06.1009","name":"Tanjung Tongah","latitude":3.0084708865966743,"longitude":99.07691312576611}},{"type":"Feature","geometry":{"type":"Polygon","coordinates":[[[99.0805,2.9825],[99.076,2.9825],[99.0685,2.976],[99.069,2.976],[99.07,2.977],[99.0765,2.9745],[99.079,2.975],[99.0805,2.9825]]]},"properties":{"code":"12.72.06.1010","name":"Naga Pitu","latitude":2.979025179128152,"longitude":99.07586062476156}},{"type":"Feature","geometry":{"type":"MultiPolygon","coordinates":[[[[99.035,3.0015],[99.035,3.001],[99.0355,3.001],[99.0365,3.0015],[99.0365,3.002],[99.0355,3.002],[99.035,3.0015]]],[[[99.0645,3.012],[99.059,3.008],[99.0565,3.0065],[99.06,2.998],[99.0595,2.996],[99.06,2.996],[99.0605,2.995],[99.0595,2.993],[99.0555,2.985],[99.055,2.984],[99.0545,2.983],[99.0535,2.978],[99.053,2.9775],[99.063,2.977],[99.068,2.986],[99.068,2.987],[99.0685,2.9875],[99.0645,2.9875],[99.0655,2.9905],[99.0655,2.992],[99.0665,2.993],[99.0735,3.001],[99.0665,3.013],[99.0645,3.012]]]]},"properties":{"code":"12.72.06.1011","name":"Tanjung Pinggir","latitude":2.9951700844398212,"longitude":99.06312274646264}},{"type":"Feature","geometry":{"type":"Polygon","coordinates":[[[99.0565,3.0065],[99.0545,3.0065],[99.054,3.0065],[99.0495,3.006],[99.039,3.006],[99.0355,3.0055],[99.031,3.0025],[99.0335,3.0015],[99.0355,3.002],[99.0365,3.002],[99.0365,3.0015],[99.0375,3.002],[99.038,3.0035],[99.039,3.0025],[99.0395,2.994],[99.0275,2.9885],[99.0255,2.9675],[99.027,2.968],[99.027,2.967],[99.0265,2.965],[99.0265,2.964],[99.0285,2.964],[99.031,2.9675],[99.0335,2.9715],[99.036,2.9745],[99.0365,2.975],[99.0555,2.994],[99.057,2.9935],[99.0575,2.994],[99.0585,2.995],[99.0595,2.996],[99.06,2.998],[99.0565,3.0065]]]},"properties":{"code":"12.72.07.1001","name":"Gurilla","latitude":2.9895523978134078,"longitude":99.04021500711136}},{"type":"Feature","geometry":{"type":"Polygon","coordinates":[[[99.0515,2.9745],[99.0505,2.9745],[99.0495,2.9735],[99.049,2.9735],[99.0465,2.9715],[99.042,2.9675],[99.031,2.9645],[99.0285,2.964],[99.0265,2.964],[99.0265,2.962],[99.024,2.956],[99.0345,2.958],[99.037,2.954],[99.045,2.9505],[99.045,2.955],[99.0485,2.964],[99.0485,2.966],[99.049,2.9665],[99.0485,2.968],[99.0485,2.9695],[99.0505,2.9705],[99.051,2.9715],[99.052,2.972],[99.0515,2.974],[99.0515,2.9745]]]},"properties":{"code":"12.72.07.1002","name":"Bah Kapul","latitude":2.961183167388782,"longitude":99.03903812832291}},{"type":"Feature","geometry":{"type":"Polygon","coordinates":[[[99.045,2.951],[99.045,2.9505],[99.037,2.954],[99.0345,2.958],[99.024,2.956],[99.022,2.951],[99.0235,2.944],[99.0235,2.943],[99.025,2.943],[99.025,2.941],[99.026,2.9385],[99.042,2.942],[99.0435,2.9425],[99.045,2.942],[99.0455,2.9425],[99.047,2.943],[99.0485,2.943],[99.049,2.9435],[99.048,2.947],[99.047,2.951],[99.0455,2.951],[99.045,2.951]]]},"properties":{"code":"12.72.07.1003","name":"Setia Negara","latitude":2.947980933901625,"longitude":99.03372956052097}},{"type":"Feature","geometry":{"type":"Polygon","coordinates":[[[99.0515,2.9675],[99.0505,2.9675],[99.05,2.9695],[99.0505,2.9705],[99.0485,2.9695],[99.0485,2.969],[99.049,2.9665],[99.0485,2.966],[99.0485,2.964],[99.045,2.955],[99.045,2.951],[99.0455,2.951],[99.047,2.951],[99.0465,2.953],[99.0515,2.956],[99.0515,2.9675]]]},"properties":{"code":"12.72.07.1004","name":"Bukit Sofa","latitude":2.9604460302913367,"longitude":99.04871959740113}},{"type":"Feature","geometry":{"type":"Polygon","coordinates":[[[99.053,2.9775],[99.0535,2.978],[99.0545,2.983],[99.055,2.984],[99.0555,2.985],[99.0595,2.993],[99.0605,2.995],[99.06,2.996],[99.0595,2.996],[99.0585,2.995],[99.0575,2.994],[99.057,2.9935],[99.0555,2.994],[99.0365,2.975],[99.036,2.9745],[99.0335,2.9715],[99.031,2.9675],[99.0285,2.964],[99.031,2.9645],[99.042,2.9675],[99.0465,2.9715],[99.049,2.9735],[99.0495,2.9735],[99.0505,2.9745],[99.0515,2.9745],[99.0515,2.975],[99.052,2.9765],[99.053,2.9775]]]},"properties":{"code":"12.72.07.1005","name":"Bah Sorma","latitude":2.9790247020735743,"longitude":99.04609443811427}},{"type":"Feature","geometry":{"type":"Polygon","coordinates":[[[99.0325,2.898],[99.035,2.9045],[99.0455,2.924],[99.0455,2.9265],[99.0415,2.9255],[99.038,2.9145],[99.0285,2.91],[99.0265,2.91],[99.026,2.9085],[99.024,2.9055],[99.0225,2.905],[99.012,2.892],[99.014,2.8925],[99.017,2.8925],[99.0205,2.892],[99.0265,2.892],[99.029,2.8925],[99.0325,2.898]]]},"properties":{"code":"12.72.08.1001","name":"Simarimbun","latitude":2.905458168408244,"longitude":99.02914545277402}},{"type":"Feature","geometry":{"type":"Polygon","coordinates":[[[99.046,2.9315],[99.046,2.932],[99.0455,2.924],[99.035,2.9045],[99.037,2.906],[99.0455,2.907],[99.0465,2.9075],[99.0495,2.909],[99.0505,2.91],[99.0605,2.9165],[99.061,2.9165],[99.053,2.927],[99.052,2.9265],[99.0515,2.9265],[99.049,2.931],[99.048,2.931],[99.046,2.9315]]]},"properties":{"code":"12.72.08.1002","name":"Tong Marimbun","latitude":2.9176194937483784,"longitude":99.0490279038909}},{"type":"Feature","geometry":{"type":"Polygon","coordinates":[[[99.05,2.94],[99.048,2.941],[99.043,2.9425],[99.042,2.942],[99.026,2.9385],[99.0265,2.9375],[99.027,2.9365],[99.0275,2.9355],[99.0285,2.9335],[99.0415,2.9255],[99.0455,2.9265],[99.046,2.932],[99.046,2.9315],[99.05,2.94]]]},"properties":{"code":"12.72.08.1003","name":"Naga Huta","latitude":2.935631331257934,"longitude":99.03888399640333}},{"type":"Feature","geometry":{"type":"Polygon","coordinates":[[[99.0615,2.942],[99.061,2.942],[99.06,2.942],[99.0595,2.9415],[99.0575,2.9415],[99.056,2.9445],[99.0505,2.9405],[99.046,2.9315],[99.048,2.931],[99.049,2.931],[99.0515,2.9265],[99.052,2.9265],[99.0535,2.9275],[99.0535,2.929],[99.059,2.9355],[99.0595,2.938],[99.0615,2.9415],[99.0615,2.942]]]},"properties":{"code":"12.72.08.1004","name":"Naga Huta Timur","latitude":2.936130296550501,"longitude":99.05328236941642}},{"type":"Feature","geometry":{"type":"Polygon","coordinates":[[[99.086,2.9325],[99.0795,2.9325],[99.074,2.9365],[99.0615,2.9295],[99.0535,2.9275],[99.053,2.927],[99.061,2.9165],[99.063,2.917],[99.064,2.918],[99.0655,2.919],[99.0745,2.924],[99.0765,2.925],[99.078,2.9275],[99.08,2.928],[99.08,2.929],[99.082,2.929],[99.0825,2.931],[99.086,2.9325]]]},"properties":{"code":"12.72.08.1005","name":"Pematang Marihat","latitude":2.9271280879534474,"longitude":99.06825279107294}},{"type":"Feature","geometry":{"type":"Polygon","coordinates":[[[99.074,2.9365],[99.0705,2.9425],[99.069,2.941],[99.0675,2.9395],[99.0665,2.939],[99.0665,2.9365],[99.0595,2.937],[99.059,2.9355],[99.0535,2.929],[99.0535,2.9275],[99.0615,2.9295],[99.074,2.9365]]]},"properties":{"code":"12.72.08.1006","name":"Marihat Jaya","latitude":2.934556430337278,"longitude":99.06411535867609}}]}