{"type":"FeatureCollection","features":[{"type":"Feature","geometry":{"type":"Polygon","coordinates":[[[100.4445,-0.1055],[100.433,-0.105],[100.4175,-0.098],[100.405,-0.105],[100.3885,-0.12],[100.3875,-0.1195],[100.3805,-0.1155],[100.374,-0.124],[100.378,-0.137],[100.378,-0.1385],[100.3775,-0.1415],[100.385,-0.15],[100.4045,-0.161],[100.4055,-0.1605],[100.412,-0.155],[100.4245,-0.1575],[100.447,-0.1315],[100.439,-0.1295],[100.4295,-0.1185],[100.441,-0.115],[100.4425,-0.1145],[100.444,-0.112],[100.445,-0.1085],[100.4445,-0.1055]]]},"properties":{"code":"13.07.01.2001","name":"Kurai","latitude":-0.1305699195526926,"longitude":100.41042662260463}},{"type":"Feature","geometry":{"type":"Polygon","coordinates":[[[100.459,-0.063],[100.4585,-0.0625],[100.456,-0.0635],[100.4365,-0.0715],[100.4175,-0.0675],[100.4155,-0.0675],[100.415,-0.0685],[100.416,-0.0715],[100.4195,-0.075],[100.42,-0.082],[100.4355,-0.093],[100.443,-0.0965],[100.449,-0.0985],[100.4505,-0.0985],[100.462,-0.0985],[100.476,-0.1135],[100.484,-0.1275],[100.4855,-0.1115],[100.482,-0.087],[100.4645,-0.071],[100.4635,-0.067],[100.459,-0.0645],[100.4585,-0.0635],[100.459,-0.063]]]},"properties":{"code":"13.07.01.2002","name":"Sungai Rimbang","latitude":-0.08731217982974192,"longitude":100.456154046684}},{"type":"Feature","geometry":{"type":"Polygon","coordinates":[[[100.4495,-0.057],[100.427,-0.044],[100.4225,-0.0455],[100.4185,-0.0455],[100.4145,-0.045],[100.4115,-0.066],[100.415,-0.0675],[100.4165,-0.0675],[100.4175,-0.0675],[100.4365,-0.0715],[100.456,-0.0635],[100.4495,-0.057]]]},"properties":{"code":"13.07.01.2003","name":"Tanjuang Bungo","latitude":-0.058894168825465706,"longitude":100.43184650685853}},{"type":"Feature","geometry":{"type":"Polygon","coordinates":[[[100.484,-0.1275],[100.476,-0.1135],[100.462,-0.0985],[100.4505,-0.0985],[100.449,-0.0985],[100.4465,-0.0985],[100.4445,-0.1055],[100.445,-0.1085],[100.444,-0.112],[100.4425,-0.1145],[100.441,-0.115],[100.4295,-0.1185],[100.439,-0.1295],[100.447,-0.1315],[100.4245,-0.1575],[100.412,-0.155],[100.4055,-0.1605],[100.4045,-0.161],[100.405,-0.162],[100.4105,-0.177],[100.4435,-0.185],[100.444,-0.1855],[100.4435,-0.183],[100.443,-0.181],[100.444,-0.1755],[100.4415,-0.1695],[100.4445,-0.167],[100.452,-0.1535],[100.459,-0.1515],[100.457,-0.143],[100.4655,-0.133],[100.4835,-0.133],[100.485,-0.133],[100.4885,-0.13],[100.484,-0.1275]]]},"properties":{"code":"13.07.01.2004","name":"Suliki","latitude":-0.14060007190124824,"longitude":100.44557955948319}},{"type":"Feature","geometry":{"type":"Polygon","coordinates":[[[100.489,-0.0735],[100.4885,-0.074],[100.4865,-0.075],[100.485,-0.075],[100.483,-0.072],[100.48,-0.0725],[100.478,-0.071],[100.477,-0.07],[100.474,-0.0675],[100.4625,-0.0625],[100.4605,-0.0635],[100.4595,-0.0635],[100.459,-0.063],[100.4585,-0.0635],[100.459,-0.0645],[100.4635,-0.067],[100.4645,-0.071],[100.482,-0.087],[100.4855,-0.1115],[100.484,-0.1275],[100.4885,-0.13],[100.497,-0.127],[100.498,-0.127],[100.5005,-0.127],[100.5025,-0.1265],[100.5025,-0.125],[100.5165,-0.1045],[100.516,-0.1035],[100.519,-0.0965],[100.519,-0.0955],[100.5175,-0.095],[100.5175,-0.096],[100.514,-0.098],[100.5135,-0.098],[100.5105,-0.0975],[100.5075,-0.0975],[100.507,-0.097],[100.507,-0.0965],[100.508,-0.095],[100.5085,-0.0955],[100.509,-0.0965],[100.51,-0.096],[100.51,-0.095],[100.508,-0.094],[100.4955,-0.0975],[100.489,-0.0735]]]},"properties":{"code":"13.07.01.2005","name":"Limbanang","latitude":-0.09982653687228257,"longitude":100.49180602798042}},{"type":"Feature","geometry":{"type":"Polygon","coordinates":[[[100.5175,-0.0685],[100.5165,-0.068],[100.503,-0.079],[100.489,-0.0735],[100.4955,-0.0975],[100.508,-0.094],[100.51,-0.095],[100.51,-0.096],[100.509,-0.0965],[100.5085,-0.0955],[100.508,-0.095],[100.5075,-0.096],[100.507,-0.0965],[100.5075,-0.097],[100.5105,-0.0975],[100.5135,-0.098],[100.514,-0.098],[100.5175,-0.096],[100.5175,-0.094],[100.518,-0.094],[100.517,-0.0805],[100.5155,-0.0795],[100.516,-0.075],[100.517,-0.0735],[100.517,-0.0715],[100.5175,-0.0705],[100.5175,-0.0685]]]},"properties":{"code":"13.07.01.2006","name":"Andiang","latitude":-0.08576487955503084,"longitude":100.50488870795004}},{"type":"Feature","geometry":{"type":"Polygon","coordinates":[[[100.5475,-0.1225],[100.5395,-0.119],[100.531,-0.126],[100.53,-0.126],[100.53,-0.1265],[100.529,-0.128],[100.5285,-0.131],[100.528,-0.131],[100.533,-0.146],[100.558,-0.1725],[100.5785,-0.1755],[100.5805,-0.176],[100.581,-0.175],[100.581,-0.174],[100.58,-0.1675],[100.5805,-0.167],[100.581,-0.167],[100.581,-0.166],[100.5755,-0.149],[100.5755,-0.1485],[100.5715,-0.143],[100.571,-0.1415],[100.571,-0.142],[100.571,-0.143],[100.5685,-0.1425],[100.568,-0.14],[100.5635,-0.1345],[100.5655,-0.133],[100.564,-0.1325],[100.5535,-0.127],[100.553,-0.1265],[100.551,-0.124],[100.5495,-0.124],[100.5475,-0.1225]]]},"properties":{"code":"13.07.02.2001","name":"Guguak VIII Koto","latitude":-0.14767958661591907,"longitude":100.55465682457664}},{"type":"Feature","geometry":{"type":"Polygon","coordinates":[[[100.5485,-0.0765],[100.5385,-0.0775],[100.524,-0.063],[100.522,-0.062],[100.5225,-0.0605],[100.521,-0.0615],[100.519,-0.069],[100.5175,-0.0685],[100.5175,-0.0705],[100.517,-0.0715],[100.517,-0.0735],[100.516,-0.075],[100.5155,-0.0795],[100.517,-0.0805],[100.518,-0.094],[100.5175,-0.094],[100.5175,-0.095],[100.519,-0.0955],[100.519,-0.0965],[100.516,-0.1035],[100.5165,-0.1045],[100.5025,-0.125],[100.5025,-0.1265],[100.5005,-0.127],[100.499,-0.127],[100.501,-0.1285],[100.504,-0.129],[100.5055,-0.13],[100.5195,-0.127],[100.527,-0.1305],[100.5275,-0.131],[100.528,-0.131],[100.5285,-0.131],[100.529,-0.128],[100.53,-0.1265],[100.53,-0.126],[100.531,-0.126],[100.5395,-0.119],[100.5475,-0.1225],[100.548,-0.121],[100.5475,-0.12],[100.5485,-0.12],[100.548,-0.1195],[100.5475,-0.119],[100.546,-0.111],[100.5525,-0.0855],[100.5485,-0.0765]]]},"properties":{"code":"13.07.02.2002","name":"VII Koto Talago","latitude":-0.1003355399011562,"longitude":100.5298707488019}},{"type":"Feature","geometry":{"type":"Polygon","coordinates":[[[100.58,-0.176],[100.5785,-0.1755],[100.558,-0.1725],[100.533,-0.146],[100.5185,-0.1545],[100.517,-0.1555],[100.5335,-0.184],[100.525,-0.1975],[100.542,-0.1995],[100.544,-0.2065],[100.5445,-0.2065],[100.5455,-0.2065],[100.547,-0.206],[100.552,-0.1955],[100.555,-0.191],[100.556,-0.19],[100.557,-0.1905],[100.5685,-0.191],[100.5705,-0.1875],[100.571,-0.1875],[100.5785,-0.179],[100.5795,-0.1775],[100.58,-0.176]]]},"properties":{"code":"13.07.02.2003","name":"Sungai Talang","latitude":-0.17651770320994803,"longitude":100.54501692356283}},{"type":"Feature","geometry":{"type":"Polygon","coordinates":[[[100.528,-0.131],[100.5275,-0.131],[100.527,-0.1305],[100.5195,-0.127],[100.5055,-0.13],[100.504,-0.129],[100.501,-0.1285],[100.499,-0.127],[100.497,-0.127],[100.4885,-0.13],[100.485,-0.133],[100.4835,-0.133],[100.4655,-0.133],[100.457,-0.143],[100.459,-0.1515],[100.462,-0.1515],[100.4835,-0.1525],[100.484,-0.151],[100.4975,-0.162],[100.512,-0.1575],[100.5185,-0.1545],[100.533,-0.146],[100.528,-0.131]]]},"properties":{"code":"13.07.02.2004","name":"Kubang","latitude":-0.14247866841672027,"longitude":100.49772003739754}},{"type":"Feature","geometry":{"type":"Polygon","coordinates":[[[100.525,-0.1975],[100.5335,-0.184],[100.517,-0.1555],[100.512,-0.1575],[100.4975,-0.162],[100.4955,-0.172],[100.504,-0.18],[100.5075,-0.1825],[100.509,-0.1835],[100.5115,-0.1865],[100.5175,-0.1935],[100.519,-0.195],[100.5195,-0.1955],[100.5195,-0.1965],[100.52,-0.196],[100.525,-0.1975]]]},"properties":{"code":"13.07.02.2005","name":"Simpang Sugiran","latitude":-0.1752805028754315,"longitude":100.51554914364372}},{"type":"Feature","geometry":{"type":"Polygon","coordinates":[[[100.5945,-0.1735],[100.5935,-0.174],[100.5945,-0.174],[100.5945,-0.1755],[100.595,-0.1755],[100.594,-0.1755],[100.593,-0.1745],[100.5825,-0.167],[100.581,-0.167],[100.5805,-0.167],[100.58,-0.1675],[100.581,-0.174],[100.581,-0.175],[100.5805,-0.176],[100.58,-0.176],[100.5795,-0.1775],[100.5785,-0.179],[100.571,-0.1875],[100.5705,-0.1875],[100.57,-0.1875],[100.5685,-0.1905],[100.572,-0.192],[100.572,-0.1915],[100.576,-0.193],[100.5835,-0.2005],[100.5835,-0.201],[100.601,-0.192],[100.6025,-0.1935],[100.605,-0.1935],[100.6065,-0.1935],[100.6055,-0.193],[100.604,-0.185],[100.604,-0.1845],[100.6025,-0.1835],[100.5945,-0.174],[100.5945,-0.1735]]]},"properties":{"code":"13.07.03.2001","name":"Koto Baru Simalanggang","latitude":-0.18505950822015882,"longitude":100.58785136530469}},{"type":"Feature","geometry":{"type":"Polygon","coordinates":[[[100.624,-0.115],[100.6235,-0.1105],[100.6205,-0.108],[100.614,-0.109],[100.612,-0.112],[100.599,-0.1125],[100.597,-0.112],[100.5945,-0.1125],[100.591,-0.1125],[100.5895,-0.114],[100.592,-0.123],[100.5925,-0.1255],[100.59,-0.1305],[100.5885,-0.132],[100.588,-0.1315],[100.586,-0.1315],[100.584,-0.132],[100.5845,-0.134],[100.5855,-0.1355],[100.585,-0.1365],[100.593,-0.147],[100.6,-0.1535],[100.6025,-0.1575],[100.6025,-0.1625],[100.604,-0.1625],[100.606,-0.161],[100.6065,-0.1605],[100.608,-0.1605],[100.608,-0.16],[100.609,-0.159],[100.6115,-0.144],[100.6125,-0.143],[100.614,-0.143],[100.6175,-0.141],[100.6265,-0.125],[100.6235,-0.1155],[100.624,-0.115]]]},"properties":{"code":"13.07.03.2002","name":"Taeh Bukik","latitude":-0.1312822157369246,"longitude":100.60561064195242}},{"type":"Feature","geometry":{"type":"Polygon","coordinates":[[[100.624,-0.176],[100.6175,-0.173],[100.6165,-0.1725],[100.6155,-0.1745],[100.615,-0.1745],[100.6135,-0.177],[100.615,-0.1775],[100.6115,-0.1795],[100.6105,-0.1815],[100.6055,-0.1835],[100.6045,-0.184],[100.604,-0.185],[100.6055,-0.193],[100.6065,-0.193],[100.6065,-0.194],[100.6055,-0.1945],[100.606,-0.1965],[100.6175,-0.1955],[100.621,-0.202],[100.6285,-0.195],[100.632,-0.1935],[100.632,-0.1925],[100.634,-0.192],[100.6305,-0.186],[100.6315,-0.1855],[100.6295,-0.185],[100.63,-0.182],[100.6295,-0.18],[100.6245,-0.177],[100.624,-0.176]]]},"properties":{"code":"13.07.03.2003","name":"Simalanggang","latitude":-0.18706706215726288,"longitude":100.61892369014612}},{"type":"Feature","geometry":{"type":"Polygon","coordinates":[[[100.5865,-0.2115],[100.585,-0.211],[100.584,-0.2105],[100.584,-0.2115],[100.583,-0.213],[100.5785,-0.223],[100.577,-0.2265],[100.576,-0.231],[100.5755,-0.235],[100.5845,-0.236],[100.587,-0.24],[100.588,-0.24],[100.589,-0.2405],[100.59,-0.241],[100.5895,-0.2395],[100.5905,-0.238],[100.592,-0.236],[100.593,-0.2345],[100.592,-0.2335],[100.592,-0.2325],[100.5975,-0.2235],[100.6,-0.22],[100.6005,-0.22],[100.599,-0.2195],[100.5985,-0.219],[100.597,-0.2185],[100.5865,-0.2115]]]},"properties":{"code":"13.07.03.2004","name":"Sungai Beringin","latitude":-0.22541143445223918,"longitude":100.58678510861455}},{"type":"Feature","geometry":{"type":"Polygon","coordinates":[[[100.5685,-0.1905],[100.5685,-0.191],[100.557,-0.1905],[100.556,-0.19],[100.555,-0.191],[100.552,-0.1955],[100.547,-0.206],[100.5455,-0.2065],[100.545,-0.2065],[100.545,-0.2075],[100.5455,-0.208],[100.5565,-0.218],[100.561,-0.2225],[100.563,-0.225],[100.5675,-0.2345],[100.573,-0.2345],[100.576,-0.231],[100.577,-0.2265],[100.5785,-0.223],[100.583,-0.213],[100.584,-0.2115],[100.584,-0.2105],[100.5835,-0.2105],[100.5835,-0.2015],[100.5835,-0.2005],[100.576,-0.193],[100.572,-0.1915],[100.572,-0.192],[100.5685,-0.1905]]]},"properties":{"code":"13.07.03.2005","name":"Piobang","latitude":-0.20984335953826733,"longitude":100.56684713422395}},{"type":"Feature","geometry":{"type":"Polygon","coordinates":[[[100.6025,-0.1625],[100.6025,-0.1575],[100.6,-0.1535],[100.593,-0.147],[100.585,-0.1365],[100.5855,-0.1355],[100.5845,-0.134],[100.585,-0.136],[100.5815,-0.136],[100.5805,-0.1365],[100.5785,-0.136],[100.577,-0.1365],[100.5745,-0.135],[100.572,-0.137],[100.571,-0.138],[100.571,-0.142],[100.571,-0.1415],[100.5715,-0.143],[100.5755,-0.1485],[100.5755,-0.149],[100.581,-0.166],[100.5825,-0.167],[100.593,-0.1745],[100.594,-0.1755],[100.595,-0.1755],[100.5945,-0.1755],[100.5945,-0.174],[100.5935,-0.174],[100.5945,-0.1735],[100.5945,-0.1725],[100.5975,-0.1705],[100.599,-0.169],[100.6025,-0.1625]]]},"properties":{"code":"13.07.03.2006","name":"Taeh Baruah","latitude":-0.1542833805504062,"longitude":100.5865747361853}},{"type":"Feature","geometry":{"type":"Polygon","coordinates":[[[100.608,-0.1605],[100.6065,-0.1605],[100.606,-0.161],[100.604,-0.1625],[100.6025,-0.1625],[100.599,-0.169],[100.5975,-0.1705],[100.5945,-0.1725],[100.5945,-0.174],[100.6025,-0.1835],[100.604,-0.1845],[100.6045,-0.184],[100.6055,-0.1835],[100.6105,-0.1815],[100.6115,-0.1795],[100.615,-0.1775],[100.6135,-0.177],[100.615,-0.1745],[100.6155,-0.1745],[100.6165,-0.1725],[100.615,-0.1715],[100.609,-0.1655],[100.6065,-0.166],[100.6085,-0.161],[100.608,-0.1605]]]},"properties":{"code":"13.07.03.2007","name":"Koto Tangah Simalanggang","latitude":-0.17331852046948765,"longitude":100.60532936058688}},{"type":"Feature","geometry":{"type":"Polygon","coordinates":[[[100.6645,-0.243],[100.665,-0.2425],[100.659,-0.246],[100.6575,-0.2455],[100.6575,-0.2435],[100.6555,-0.2445],[100.655,-0.2445],[100.6545,-0.246],[100.6525,-0.2445],[100.6475,-0.251],[100.647,-0.2525],[100.6475,-0.254],[100.6475,-0.2565],[100.645,-0.2565],[100.6445,-0.2565],[100.6445,-0.26],[100.647,-0.2665],[100.6475,-0.273],[100.65,-0.277],[100.6445,-0.2765],[100.6465,-0.281],[100.6565,-0.301],[100.6545,-0.3085],[100.668,-0.3295],[100.6715,-0.326],[100.6705,-0.291],[100.6645,-0.269],[100.6675,-0.264],[100.665,-0.2455],[100.665,-0.2445],[100.6655,-0.2445],[100.6645,-0.243]]]},"properties":{"code":"13.07.04.2001","name":"Tj. Haro Sikabu-kabu Pd. Panjang","latitude":-0.2820121193188586,"longitude":100.65964336776668}},{"type":"Feature","geometry":{"type":"Polygon","coordinates":[[[100.7165,-0.228],[100.7145,-0.228],[100.712,-0.23],[100.71,-0.2305],[100.7085,-0.2305],[100.6955,-0.226],[100.6935,-0.2245],[100.694,-0.226],[100.6925,-0.228],[100.694,-0.229],[100.695,-0.2315],[100.6915,-0.2385],[100.695,-0.2505],[100.694,-0.259],[100.6935,-0.2595],[100.6925,-0.263],[100.69,-0.2635],[100.6895,-0.265],[100.686,-0.28],[100.6865,-0.2815],[100.687,-0.2845],[100.687,-0.286],[100.6845,-0.3025],[100.678,-0.3135],[100.6775,-0.324],[100.685,-0.3255],[100.6865,-0.3045],[100.694,-0.2825],[100.7055,-0.2575],[100.7065,-0.2565],[100.713,-0.2345],[100.7135,-0.2315],[100.715,-0.2295],[100.7165,-0.228]]]},"properties":{"code":"13.07.04.2002","name":"Mungo","latitude":-0.2644205363082612,"longitude":100.69607162274305}},{"type":"Feature","geometry":{"type":"Polygon","coordinates":[[[100.6895,-0.2645],[100.685,-0.2565],[100.686,-0.241],[100.686,-0.24],[100.6815,-0.237],[100.681,-0.237],[100.6805,-0.2365],[100.681,-0.237],[100.68,-0.238],[100.679,-0.2375],[100.679,-0.238],[100.6675,-0.244],[100.6655,-0.2445],[100.665,-0.2445],[100.665,-0.2455],[100.6675,-0.264],[100.6645,-0.269],[100.6705,-0.291],[100.6715,-0.326],[100.6775,-0.324],[100.678,-0.3135],[100.6845,-0.3025],[100.687,-0.286],[100.687,-0.2845],[100.6865,-0.2815],[100.686,-0.28],[100.6895,-0.265],[100.6895,-0.2645]]]},"properties":{"code":"13.07.04.2003","name":"Sungai Kamuyang","latitude":-0.27488631436357347,"longitude":100.67686166098794}},{"type":"Feature","geometry":{"type":"Polygon","coordinates":[[[100.6935,-0.2245],[100.6925,-0.224],[100.687,-0.221],[100.6865,-0.221],[100.68,-0.2155],[100.6795,-0.216],[100.6755,-0.2205],[100.679,-0.224],[100.6795,-0.2245],[100.678,-0.2305],[100.6785,-0.2365],[100.679,-0.2375],[100.68,-0.238],[100.681,-0.237],[100.6805,-0.2365],[100.681,-0.237],[100.6815,-0.237],[100.686,-0.24],[100.686,-0.241],[100.685,-0.2565],[100.6895,-0.2645],[100.69,-0.2635],[100.6925,-0.263],[100.6935,-0.2595],[100.694,-0.259],[100.695,-0.2505],[100.6915,-0.2385],[100.695,-0.2315],[100.694,-0.229],[100.6925,-0.228],[100.694,-0.226],[100.6935,-0.2245]]]},"properties":{"code":"13.07.04.2004","name":"Andaleh","latitude":-0.23700998058250508,"longitude":100.68686168309873}},{"type":"Feature","geometry":{"type":"Polygon","coordinates":[[[100.768,-0.16],[100.7285,-0.152],[100.717,-0.158],[100.714,-0.159],[100.7135,-0.1605],[100.7155,-0.1685],[100.7155,-0.1715],[100.7155,-0.172],[100.719,-0.1735],[100.7035,-0.176],[100.7005,-0.1765],[100.6995,-0.1775],[100.699,-0.178],[100.699,-0.1785],[100.7,-0.179],[100.6985,-0.179],[100.692,-0.196],[100.6915,-0.1975],[100.685,-0.2065],[100.6855,-0.2075],[100.68,-0.2145],[100.68,-0.2155],[100.6865,-0.221],[100.687,-0.221],[100.6925,-0.224],[100.694,-0.225],[100.6955,-0.226],[100.7085,-0.2305],[100.71,-0.2305],[100.712,-0.23],[100.7145,-0.228],[100.7165,-0.228],[100.719,-0.2255],[100.7365,-0.211],[100.758,-0.206],[100.762,-0.2065],[100.776,-0.211],[100.7775,-0.21],[100.784,-0.2005],[100.7835,-0.185],[100.7755,-0.1825],[100.772,-0.1725],[100.7705,-0.1655],[100.7695,-0.162],[100.768,-0.16]]]},"properties":{"code":"13.07.05.2001","name":"Taram","latitude":-0.19057247720027146,"longitude":100.73294849205804}},{"type":"Feature","geometry":{"type":"Polygon","coordinates":[[[100.655,-0.111],[100.646,-0.0835],[100.6325,-0.0645],[100.6325,-0.0655],[100.63,-0.0675],[100.6285,-0.069],[100.6265,-0.0725],[100.6285,-0.1065],[100.6285,-0.1095],[100.626,-0.114],[100.6235,-0.1155],[100.6265,-0.125],[100.6295,-0.124],[100.6325,-0.1255],[100.6355,-0.13],[100.637,-0.1315],[100.638,-0.13],[100.6425,-0.124],[100.6455,-0.126],[100.6485,-0.125],[100.654,-0.1245],[100.655,-0.1235],[100.655,-0.111]]]},"properties":{"code":"13.07.05.2002","name":"Solok Bio Bio","latitude":-0.10150559005273871,"longitude":100.63857133792612}},{"type":"Feature","geometry":{"type":"Polygon","coordinates":[[[100.639,-0.132],[100.6505,-0.132],[100.6515,-0.132],[100.657,-0.1375],[100.6585,-0.138],[100.664,-0.1375],[100.667,-0.136],[100.6735,-0.125],[100.6895,-0.113],[100.688,-0.0925],[100.6975,-0.074],[100.6805,-0.0845],[100.6815,-0.093],[100.6715,-0.1055],[100.661,-0.1105],[100.658,-0.112],[100.655,-0.111],[100.655,-0.1235],[100.654,-0.1245],[100.6485,-0.125],[100.6455,-0.126],[100.6425,-0.124],[100.638,-0.13],[100.6375,-0.131],[100.639,-0.132]]]},"properties":{"code":"13.07.05.2003","name":"Tarantang","latitude":-0.11377748676564377,"longitude":100.6722174626225}},{"type":"Feature","geometry":{"type":"Polygon","coordinates":[[[100.7005,-0.1765],[100.6995,-0.1765],[100.7015,-0.176],[100.699,-0.176],[100.698,-0.1755],[100.6965,-0.177],[100.695,-0.1755],[100.695,-0.1775],[100.69,-0.182],[100.689,-0.1825],[100.6905,-0.1835],[100.6905,-0.1845],[100.6785,-0.196],[100.678,-0.198],[100.6815,-0.2055],[100.6825,-0.206],[100.685,-0.2065],[100.6915,-0.1975],[100.692,-0.196],[100.6985,-0.179],[100.7,-0.179],[100.699,-0.1785],[100.699,-0.178],[100.6995,-0.1775],[100.7005,-0.1765]]]},"properties":{"code":"13.07.05.2004","name":"Bukik Limbuku","latitude":-0.19188307281636466,"longitude":100.6896728953238}},{"type":"Feature","geometry":{"type":"Polygon","coordinates":[[[100.742,-0.039],[100.7415,-0.0375],[100.741,-0.0365],[100.74,-0.035],[100.7335,-0.034],[100.7275,-0.038],[100.712,-0.031],[100.7055,-0.0205],[100.683,-0.025],[100.679,-0.0185],[100.6615,-0.0135],[100.648,-0.002],[100.643,-0.005],[100.644,-0.017],[100.6335,-0.027],[100.6305,-0.0455],[100.6325,-0.064],[100.6325,-0.0645],[100.646,-0.0835],[100.655,-0.111],[100.658,-0.112],[100.661,-0.1105],[100.6715,-0.1055],[100.6815,-0.093],[100.6805,-0.0845],[100.6975,-0.074],[100.7195,-0.072],[100.7395,-0.0635],[100.744,-0.0515],[100.74,-0.051],[100.7405,-0.039],[100.742,-0.039]]]},"properties":{"code":"13.07.05.2005","name":"Harau","latitude":-0.053438412718754554,"longitude":100.67748408692422}},{"type":"Feature","geometry":{"type":"Polygon","coordinates":[[[100.695,-0.1755],[100.694,-0.1745],[100.698,-0.1595],[100.6885,-0.1645],[100.6655,-0.17],[100.664,-0.1695],[100.663,-0.1745],[100.6605,-0.1865],[100.6625,-0.1905],[100.664,-0.1905],[100.664,-0.191],[100.673,-0.1975],[100.6765,-0.1985],[100.678,-0.197],[100.6785,-0.196],[100.6905,-0.1845],[100.6905,-0.1835],[100.689,-0.1825],[100.69,-0.182],[100.695,-0.1775],[100.695,-0.1755]]]},"properties":{"code":"13.07.05.2006","name":"Batu Balang","latitude":-0.1791904442132481,"longitude":100.67852272898958}},{"type":"Feature","geometry":{"type":"Polygon","coordinates":[[[100.753,-0.132],[100.7595,-0.1195],[100.757,-0.0985],[100.746,-0.052],[100.744,-0.0515],[100.7395,-0.0635],[100.7195,-0.072],[100.6975,-0.074],[100.688,-0.0925],[100.6895,-0.113],[100.6735,-0.125],[100.667,-0.136],[100.664,-0.1375],[100.6585,-0.138],[100.657,-0.1375],[100.6515,-0.132],[100.6505,-0.132],[100.639,-0.132],[100.6395,-0.1325],[100.638,-0.1385],[100.6495,-0.1485],[100.6535,-0.161],[100.655,-0.1635],[100.66,-0.1665],[100.661,-0.1675],[100.662,-0.1685],[100.664,-0.169],[100.6655,-0.17],[100.6885,-0.1645],[100.698,-0.1595],[100.698,-0.1575],[100.711,-0.147],[100.7145,-0.1585],[100.717,-0.158],[100.7285,-0.152],[100.768,-0.16],[100.767,-0.157],[100.7655,-0.148],[100.753,-0.132]]]},"properties":{"code":"13.07.05.2007","name":"Sarilamak","latitude":-0.12013866917440581,"longitude":100.71298680407264}},{"type":"Feature","geometry":{"type":"Polygon","coordinates":[[[100.6375,-0.131],[100.637,-0.1315],[100.6355,-0.13],[100.6325,-0.1255],[100.6295,-0.124],[100.6265,-0.125],[100.6175,-0.141],[100.6165,-0.142],[100.6185,-0.1425],[100.6195,-0.1425],[100.6245,-0.143],[100.6245,-0.1435],[100.6275,-0.147],[100.624,-0.164],[100.639,-0.1655],[100.6395,-0.1665],[100.64,-0.167],[100.641,-0.167],[100.642,-0.1675],[100.643,-0.1675],[100.643,-0.1665],[100.655,-0.1635],[100.6535,-0.161],[100.6495,-0.1485],[100.638,-0.1385],[100.6395,-0.1325],[100.639,-0.132],[100.6375,-0.131]]]},"properties":{"code":"13.07.05.2008","name":"Gurun","latitude":-0.14810735651392634,"longitude":100.6341096119732}},{"type":"Feature","geometry":{"type":"Polygon","coordinates":[[[100.64,-0.167],[100.6395,-0.1665],[100.639,-0.1655],[100.624,-0.164],[100.6275,-0.147],[100.6245,-0.1435],[100.6245,-0.143],[100.6195,-0.1425],[100.6185,-0.1425],[100.6165,-0.142],[100.614,-0.143],[100.6125,-0.143],[100.6115,-0.144],[100.609,-0.159],[100.608,-0.16],[100.608,-0.1605],[100.6085,-0.1605],[100.6085,-0.161],[100.6065,-0.166],[100.609,-0.1655],[100.615,-0.1715],[100.616,-0.1725],[100.6175,-0.173],[100.624,-0.176],[100.6275,-0.17],[100.6285,-0.17],[100.64,-0.167]]]},"properties":{"code":"13.07.05.2009","name":"Lubuak Batingkok","latitude":-0.16028865951037824,"longitude":100.6209587395318}},{"type":"Feature","geometry":{"type":"Polygon","coordinates":[[[100.655,-0.1635],[100.643,-0.1665],[100.643,-0.1675],[100.642,-0.1675],[100.641,-0.167],[100.64,-0.167],[100.6285,-0.17],[100.6275,-0.17],[100.624,-0.176],[100.6245,-0.177],[100.6295,-0.18],[100.63,-0.182],[100.6295,-0.185],[100.6315,-0.1855],[100.6345,-0.184],[100.6575,-0.187],[100.6605,-0.1865],[100.663,-0.1745],[100.664,-0.1695],[100.664,-0.169],[100.662,-0.1685],[100.661,-0.1675],[100.66,-0.1665],[100.655,-0.1635]]]},"properties":{"code":"13.07.05.2010","name":"Koto Tuo","latitude":-0.17608365027222686,"longitude":100.6468500420483}},{"type":"Feature","geometry":{"type":"Polygon","coordinates":[[[100.7145,-0.1585],[100.711,-0.147],[100.698,-0.1575],[100.698,-0.1595],[100.694,-0.1745],[100.696,-0.176],[100.6965,-0.177],[100.698,-0.1755],[100.699,-0.176],[100.7015,-0.176],[100.6995,-0.1765],[100.7035,-0.176],[100.719,-0.1735],[100.7155,-0.172],[100.7155,-0.1715],[100.7155,-0.1685],[100.7135,-0.1605],[100.714,-0.159],[100.7145,-0.1585]]]},"properties":{"code":"13.07.05.2011","name":"Pilubang","latitude":-0.163323218443979,"longitude":100.7060711797741}},{"type":"Feature","geometry":{"type":"Polygon","coordinates":[[[100.861,0.047],[100.8305,0.0675],[100.8245,0.0545],[100.81,0.0545],[100.8,0.05],[100.766,0.056],[100.728,0.0435],[100.735,0.0165],[100.746,0.0145],[100.7455,0.0025],[100.759,0.0005],[100.7545,-0.012],[100.764,-0.022],[100.781,-0.03],[100.7905,-0.0225],[100.806,-0.0195],[100.8045,-0.034],[100.8255,-0.035],[100.826,-0.034],[100.8235,-0.021],[100.8415,-0.0065],[100.846,0.0105],[100.8445,0.034],[100.861,0.047]]]},"properties":{"code":"13.07.06.2001","name":"Manggilang","latitude":0.017651978427081418,"longitude":100.79556737680154}},{"type":"Feature","geometry":{"type":"Polygon","coordinates":[[[100.7395,0.243],[100.7365,0.237],[100.722,0.242],[100.7015,0.2385],[100.694,0.2285],[100.696,0.22],[100.6845,0.2015],[100.687,0.1905],[100.6865,0.1895],[100.6925,0.1805],[100.709,0.173],[100.719,0.1725],[100.7145,0.1565],[100.7195,0.1375],[100.7195,0.122],[100.732,0.1195],[100.741,0.1105],[100.7695,0.105],[100.7775,0.0975],[100.7895,0.116],[100.7855,0.119],[100.786,0.126],[100.788,0.1275],[100.8135,0.134],[100.82,0.145],[100.832,0.1405],[100.842,0.146],[100.8475,0.1595],[100.8475,0.16],[100.8455,0.162],[100.844,0.164],[100.841,0.1675],[100.8385,0.171],[100.819,0.1785],[100.815,0.1915],[100.805,0.1985],[100.7975,0.1935],[100.785,0.1995],[100.779,0.1915],[100.746,0.209],[100.74,0.2295],[100.7395,0.243]]]},"properties":{"code":"13.07.06.2002","name":"Tanjuang Balik","latitude":0.16991138662992597,"longitude":100.75745532738313}},{"type":"Feature","geometry":{"type":"Polygon","coordinates":[[[100.658,0.1995],[100.6475,0.2035],[100.6325,0.2165],[100.629,0.2175],[100.628,0.1955],[100.621,0.1785],[100.611,0.185],[100.601,0.1765],[100.6065,0.1615],[100.606,0.16],[100.603,0.1615],[100.602,0.1625],[100.593,0.17],[100.58,0.1575],[100.5705,0.1635],[100.5695,0.163],[100.5655,0.162],[100.5525,0.1585],[100.5505,0.1565],[100.5705,0.1175],[100.5605,0.098],[100.5665,0.0905],[100.5645,0.073],[100.5745,0.065],[100.5875,0.0645],[100.5925,0.0485],[100.578,0.032],[100.581,0.007],[100.5865,0],[100.5895,0],[100.59,0.0085],[100.606,0.018],[100.61,0.0065],[100.623,0],[100.643,-0.005],[100.651,0.013],[100.64,0.0255],[100.6405,0.045],[100.6415,0.0475],[100.6505,0.0645],[100.6685,0.084],[100.68,0.081],[100.688,0.1055],[100.686,0.1605],[100.692,0.1685],[100.6925,0.1805],[100.6865,0.1895],[100.686,0.1885],[100.675,0.185],[100.6705,0.196],[100.658,0.1995]]]},"properties":{"code":"13.07.06.2003","name":"Gunuang Malintang","latitude":0.11015156034320635,"longitude":100.6248830255955}},{"type":"Feature","geometry":{"type":"Polygon","coordinates":[[[100.7775,0.0975],[100.7695,0.105],[100.741,0.1105],[100.732,0.1195],[100.7195,0.122],[100.7195,0.1375],[100.7145,0.1565],[100.719,0.1725],[100.709,0.173],[100.6925,0.1805],[100.692,0.1685],[100.686,0.1605],[100.688,0.1055],[100.68,0.081],[100.6685,0.084],[100.6505,0.0645],[100.6415,0.0475],[100.6405,0.045],[100.64,0.0255],[100.651,0.013],[100.657,0.0035],[100.6585,0.005],[100.6625,0.0125],[100.679,0.013],[100.6885,0.023],[100.716,0.044],[100.7205,0.0515],[100.7215,0.05],[100.722,0.0475],[100.723,0.0455],[100.727,0.044],[100.728,0.0435],[100.766,0.056],[100.8,0.05],[100.793,0.0675],[100.779,0.0825],[100.7775,0.0975]]]},"properties":{"code":"13.07.06.2004","name":"Pangkalan","latitude":0.08003890542553374,"longitude":100.71011816247426}},{"type":"Feature","geometry":{"type":"Polygon","coordinates":[[[100.728,0.0435],[100.727,0.044],[100.723,0.0455],[100.722,0.0475],[100.7215,0.05],[100.7205,0.0515],[100.716,0.044],[100.6885,0.023],[100.679,0.013],[100.6625,0.0125],[100.6585,0.005],[100.657,0.0035],[100.651,0.013],[100.643,-0.005],[100.648,-0.002],[100.6615,-0.0135],[100.679,-0.0185],[100.683,-0.025],[100.7055,-0.0205],[100.712,-0.031],[100.7275,-0.038],[100.7335,-0.034],[100.74,-0.035],[100.741,-0.0365],[100.7415,-0.0375],[100.742,-0.039],[100.7475,-0.039],[100.7545,-0.044],[100.7585,-0.0435],[100.759,-0.0385],[100.764,-0.022],[100.7545,-0.012],[100.759,0.0005],[100.7455,0.0025],[100.746,0.0145],[100.735,0.0165],[100.728,0.0435]]]},"properties":{"code":"13.07.06.2005","name":"Koto Alam","latitude":-0.0013643529893544858,"longitude":100.71248639790198}},{"type":"Feature","geometry":{"type":"Polygon","coordinates":[[[100.8465,0.2065],[100.839,0.218],[100.8395,0.2195],[100.836,0.2345],[100.8145,0.2605],[100.811,0.2515],[100.7975,0.258],[100.789,0.2525],[100.7735,0.2515],[100.7685,0.2365],[100.741,0.2415],[100.7405,0.242],[100.7395,0.243],[100.74,0.2295],[100.746,0.209],[100.779,0.1915],[100.785,0.1995],[100.7975,0.1935],[100.805,0.1985],[100.815,0.1915],[100.819,0.1785],[100.8385,0.171],[100.841,0.1675],[100.844,0.164],[100.8455,0.162],[100.8475,0.16],[100.849,0.1625],[100.8445,0.179],[100.8465,0.2065]]]},"properties":{"code":"13.07.06.2006","name":"Tanjung Pauh","latitude":0.2176172141346217,"longitude":100.79974348949037}},{"type":"Feature","geometry":{"type":"Polygon","coordinates":[[[100.5735,0.287],[100.571,0.29],[100.565,0.2985],[100.5615,0.295],[100.5555,0.293],[100.5525,0.263],[100.5445,0.2585],[100.5385,0.2395],[100.5315,0.2385],[100.53,0.2375],[100.531,0.2355],[100.5305,0.2355],[100.53,0.235],[100.531,0.234],[100.53,0.222],[100.5505,0.213],[100.5525,0.2055],[100.5715,0.2175],[100.5975,0.222],[100.6115,0.2315],[100.626,0.234],[100.6255,0.234],[100.6215,0.2365],[100.587,0.2535],[100.5845,0.274],[100.5735,0.287]]]},"properties":{"code":"13.07.07.2001","name":"Muaro Paiti","latitude":0.2450519053296311,"longitude":100.56893707909155}},{"type":"Feature","geometry":{"type":"Polygon","coordinates":[[[100.5525,0.306],[100.5365,0.3035],[100.53,0.3185],[100.511,0.3185],[100.5035,0.312],[100.4985,0.306],[100.506,0.2525],[100.5095,0.2395],[100.51,0.2395],[100.525,0.242],[100.5295,0.236],[100.53,0.235],[100.5305,0.2355],[100.531,0.2355],[100.53,0.2375],[100.5315,0.2385],[100.5385,0.2395],[100.5445,0.2585],[100.5525,0.263],[100.5555,0.293],[100.5615,0.295],[100.565,0.2985],[100.5625,0.3015],[100.5525,0.306]]]},"properties":{"code":"13.07.07.2002","name":"Koto Bangun","latitude":0.28021465032944826,"longitude":100.52695162944899}},{"type":"Feature","geometry":{"type":"Polygon","coordinates":[[[100.629,0.2175],[100.628,0.218],[100.6275,0.231],[100.626,0.234],[100.6115,0.2315],[100.5975,0.222],[100.5715,0.2175],[100.5525,0.2055],[100.551,0.204],[100.5505,0.202],[100.5495,0.181],[100.56,0.1745],[100.5675,0.1835],[100.569,0.183],[100.567,0.17],[100.569,0.168],[100.569,0.167],[100.5655,0.162],[100.5695,0.163],[100.5705,0.1635],[100.58,0.1575],[100.593,0.17],[100.602,0.1625],[100.603,0.1615],[100.606,0.16],[100.6065,0.1615],[100.601,0.1765],[100.611,0.185],[100.621,0.1785],[100.628,0.1955],[100.629,0.2175]]]},"properties":{"code":"13.07.07.2003","name":"Lubuak Alai","latitude":0.19625548893510225,"longitude":100.59141719541736}},{"type":"Feature","geometry":{"type":"Polygon","coordinates":[[[100.53,0.222],[100.5295,0.2205],[100.5265,0.22],[100.5255,0.2205],[100.523,0.2205],[100.5215,0.2205],[100.5,0.221],[100.489,0.224],[100.4775,0.2175],[100.463,0.215],[100.463,0.202],[100.444,0.1865],[100.4345,0.192],[100.4295,0.1775],[100.4295,0.158],[100.433,0.1395],[100.4265,0.135],[100.409,0.1335],[100.4065,0.12],[100.383,0.112],[100.382,0.098],[100.3945,0.0835],[100.4015,0.1015],[100.4145,0.111],[100.4175,0.1225],[100.453,0.119],[100.476,0.112],[100.4845,0.118],[100.5065,0.105],[100.5245,0.103],[100.5295,0.1075],[100.563,0.112],[100.5705,0.1175],[100.5505,0.1565],[100.5525,0.1585],[100.5655,0.162],[100.569,0.167],[100.569,0.168],[100.567,0.17],[100.569,0.183],[100.5675,0.1835],[100.56,0.1745],[100.5495,0.181],[100.5505,0.202],[100.551,0.204],[100.5525,0.2055],[100.5505,0.213],[100.53,0.222]]]},"properties":{"code":"13.07.07.2004","name":"Koto Lamo","latitude":0.1585378865984737,"longitude":100.49236029845694}},{"type":"Feature","geometry":{"type":"Polygon","coordinates":[[[100.4985,0.306],[100.496,0.305],[100.467,0.3145],[100.465,0.319],[100.465,0.318],[100.4645,0.3165],[100.4645,0.314],[100.4635,0.3115],[100.4645,0.277],[100.4615,0.2795],[100.456,0.2805],[100.4545,0.2815],[100.47,0.244],[100.4695,0.242],[100.469,0.232],[100.46,0.2225],[100.463,0.215],[100.4775,0.2175],[100.489,0.224],[100.5,0.221],[100.5215,0.2205],[100.523,0.2205],[100.5255,0.2205],[100.5265,0.22],[100.5295,0.2205],[100.53,0.222],[100.531,0.234],[100.53,0.2355],[100.5295,0.236],[100.525,0.242],[100.51,0.2395],[100.5095,0.2395],[100.506,0.2525],[100.4985,0.306]]]},"properties":{"code":"13.07.07.2005","name":"Durian Tinggi","latitude":0.2597542674068784,"longitude":100.48723392984421}},{"type":"Feature","geometry":{"type":"Polygon","coordinates":[[[100.4545,0.2815],[100.454,0.283],[100.447,0.294],[100.422,0.288],[100.4125,0.289],[100.385,0.28],[100.372,0.269],[100.3635,0.277],[100.356,0.2735],[100.346,0.2815],[100.3435,0.29],[100.322,0.2915],[100.3205,0.2875],[100.3195,0.287],[100.316,0.274],[100.325,0.27],[100.3335,0.255],[100.336,0.2185],[100.347,0.2055],[100.3525,0.171],[100.334,0.1515],[100.3285,0.152],[100.3265,0.125],[100.3205,0.114],[100.3245,0.0975],[100.316,0.0875],[100.316,0.084],[100.3305,0.058],[100.33,0.0505],[100.3445,0.045],[100.3545,0.0445],[100.358,0.04],[100.3735,0.049],[100.3945,0.0835],[100.382,0.098],[100.383,0.112],[100.4065,0.12],[100.409,0.1335],[100.4265,0.135],[100.433,0.1395],[100.4295,0.158],[100.4295,0.1775],[100.4345,0.192],[100.444,0.1865],[100.463,0.202],[100.463,0.215],[100.46,0.2225],[100.469,0.232],[100.4695,0.242],[100.47,0.244],[100.4545,0.2815]]]},"properties":{"code":"13.07.07.2006","name":"Sialang","latitude":0.18537573971040966,"longitude":100.38519221718096}},{"type":"Feature","geometry":{"type":"Polygon","coordinates":[[[100.446,0.418],[100.437,0.414],[100.4225,0.4245],[100.42,0.424],[100.416,0.4175],[100.3895,0.407],[100.3765,0.3895],[100.3675,0.3945],[100.352,0.389],[100.3505,0.3845],[100.346,0.3805],[100.33,0.3955],[100.3235,0.4005],[100.306,0.3975],[100.3015,0.3965],[100.3015,0.386],[100.332,0.3535],[100.3225,0.3185],[100.3085,0.302],[100.316,0.2875],[100.3175,0.2875],[100.3195,0.287],[100.3205,0.2875],[100.322,0.2915],[100.3435,0.29],[100.346,0.2815],[100.356,0.2735],[100.3635,0.277],[100.372,0.269],[100.385,0.28],[100.4125,0.289],[100.422,0.288],[100.447,0.294],[100.454,0.283],[100.456,0.2805],[100.4615,0.2795],[100.4645,0.277],[100.4635,0.3115],[100.4645,0.314],[100.4645,0.3165],[100.465,0.318],[100.465,0.319],[100.4565,0.3375],[100.453,0.343],[100.4305,0.3565],[100.434,0.379],[100.4415,0.3885],[100.4545,0.394],[100.461,0.4115],[100.446,0.418]]]},"properties":{"code":"13.07.07.2007","name":"Galugua","latitude":0.3427240227766532,"longitude":100.38875482237262}},{"type":"Feature","geometry":{"type":"Polygon","coordinates":[[[100.4115,-0.066],[100.401,-0.075],[100.3995,-0.0765],[100.388,-0.073],[100.377,-0.0755],[100.377,-0.075],[100.378,-0.071],[100.376,-0.0715],[100.3755,-0.0715],[100.373,-0.073],[100.371,-0.074],[100.369,-0.0785],[100.3405,-0.0895],[100.3435,-0.093],[100.3445,-0.0935],[100.35,-0.093],[100.361,-0.107],[100.3805,-0.1155],[100.3875,-0.1195],[100.3885,-0.12],[100.405,-0.105],[100.4175,-0.098],[100.433,-0.105],[100.4445,-0.1055],[100.4465,-0.0985],[100.449,-0.0985],[100.443,-0.0965],[100.4355,-0.093],[100.42,-0.082],[100.4195,-0.075],[100.416,-0.0715],[100.415,-0.0685],[100.4155,-0.0675],[100.415,-0.0675],[100.4115,-0.066]]]},"properties":{"code":"13.07.08.2001","name":"Pandam Gadang","latitude":-0.09251422186399137,"longitude":100.39384474400492}},{"type":"Feature","geometry":{"type":"Polygon","coordinates":[[[100.3885,-0.021],[100.3835,-0.0145],[100.3835,-0.012],[100.384,-0.01],[100.381,0.006],[100.3695,0.015],[100.366,0.02],[100.365,0.0255],[100.349,0.034],[100.2995,0.003],[100.2905,-0.0015],[100.2855,-0.0085],[100.2665,-0.02],[100.2655,-0.0325],[100.275,-0.0375],[100.301,-0.0375],[100.325,-0.0545],[100.333,-0.0815],[100.34,-0.0885],[100.3405,-0.0895],[100.369,-0.0785],[100.371,-0.074],[100.373,-0.073],[100.3755,-0.0715],[100.375,-0.0685],[100.3755,-0.0675],[100.396,-0.051],[100.397,-0.0385],[100.3985,-0.037],[100.3985,-0.0365],[100.399,-0.0365],[100.399,-0.0355],[100.388,-0.0255],[100.388,-0.0225],[100.3885,-0.021]]]},"properties":{"code":"13.07.08.2002","name":"Koto Tinggi","latitude":-0.025702414764020527,"longitude":100.34101815507493}},{"type":"Feature","geometry":{"type":"Polygon","coordinates":[[[100.4145,-0.045],[100.412,-0.0405],[100.4085,-0.04],[100.4055,-0.04],[100.4015,-0.037],[100.3995,-0.038],[100.399,-0.0365],[100.3985,-0.0365],[100.3985,-0.037],[100.397,-0.0385],[100.396,-0.051],[100.3755,-0.0675],[100.375,-0.0685],[100.3755,-0.0715],[100.376,-0.0715],[100.378,-0.071],[100.377,-0.075],[100.377,-0.0755],[100.388,-0.073],[100.3995,-0.0765],[100.401,-0.075],[100.4115,-0.066],[100.4145,-0.045]]]},"properties":{"code":"13.07.08.2003","name":"Talang Anau","latitude":-0.0586234233460591,"longitude":100.39836054666063}},{"type":"Feature","geometry":{"type":"Polygon","coordinates":[[[100.7265,-0.2705],[100.7265,-0.271],[100.7195,-0.275],[100.7175,-0.2775],[100.715,-0.279],[100.714,-0.2795],[100.714,-0.279],[100.696,-0.2965],[100.6995,-0.335],[100.696,-0.338],[100.714,-0.3245],[100.7225,-0.315],[100.7225,-0.312],[100.7235,-0.309],[100.7275,-0.299],[100.728,-0.2915],[100.729,-0.2835],[100.729,-0.283],[100.7295,-0.276],[100.7295,-0.275],[100.7265,-0.2705]]]},"properties":{"code":"13.07.09.2001","name":"Labuah Gunuang","latitude":-0.30204486072217906,"longitude":100.71229581891586}},{"type":"Feature","geometry":{"type":"Polygon","coordinates":[[[100.796,-0.2355],[100.787,-0.2285],[100.7745,-0.234],[100.763,-0.2315],[100.7535,-0.24],[100.7235,-0.2475],[100.719,-0.2635],[100.694,-0.2925],[100.696,-0.2995],[100.692,-0.327],[100.696,-0.338],[100.6995,-0.335],[100.696,-0.2965],[100.714,-0.279],[100.714,-0.2795],[100.715,-0.279],[100.7175,-0.2775],[100.7195,-0.275],[100.7265,-0.271],[100.727,-0.27],[100.7515,-0.259],[100.761,-0.251],[100.77,-0.2485],[100.7865,-0.2395],[100.7935,-0.2375],[100.796,-0.2355]]]},"properties":{"code":"13.07.09.2002","name":"Batu Payuang","latitude":-0.2574980559885096,"longitude":100.74122674216768}},{"type":"Feature","geometry":{"type":"Polygon","coordinates":[[[100.8235,-0.2835],[100.816,-0.2805],[100.787,-0.2795],[100.7685,-0.287],[100.76,-0.2995],[100.7585,-0.2985],[100.7535,-0.303],[100.755,-0.3055],[100.755,-0.306],[100.7535,-0.309],[100.7545,-0.3105],[100.77,-0.3335],[100.7725,-0.3355],[100.7925,-0.334],[100.8,-0.3405],[100.7895,-0.3515],[100.79,-0.352],[100.7905,-0.3525],[100.7925,-0.3525],[100.8045,-0.3545],[100.8185,-0.351],[100.82,-0.3515],[100.822,-0.3515],[100.8245,-0.3525],[100.825,-0.3525],[100.835,-0.353],[100.8385,-0.352],[100.848,-0.343],[100.845,-0.343],[100.8445,-0.2995],[100.838,-0.2845],[100.8235,-0.2835]]]},"properties":{"code":"13.07.09.2003","name":"Ampalu","latitude":-0.3143277514495132,"longitude":100.80466951536415}},{"type":"Feature","geometry":{"type":"Polygon","coordinates":[[[100.6865,-0.3315],[100.686,-0.331],[100.6865,-0.329],[100.6875,-0.328],[100.6875,-0.3205],[100.69,-0.312],[100.689,-0.3065],[100.693,-0.2935],[100.7115,-0.2655],[100.723,-0.2415],[100.713,-0.2345],[100.7065,-0.2565],[100.7055,-0.2575],[100.694,-0.2825],[100.6865,-0.3045],[100.685,-0.3255],[100.6855,-0.3315],[100.6865,-0.3315]]]},"properties":{"code":"13.07.09.2004","name":"Bukik Sikumpa","latitude":-0.2710452246954962,"longitude":100.70397452777773}},{"type":"Feature","geometry":{"type":"Polygon","coordinates":[[[100.776,-0.211],[100.762,-0.2065],[100.758,-0.206],[100.7365,-0.211],[100.719,-0.2255],[100.7165,-0.228],[100.715,-0.2295],[100.7135,-0.2315],[100.713,-0.2345],[100.723,-0.2415],[100.7115,-0.2655],[100.693,-0.2935],[100.689,-0.3065],[100.69,-0.312],[100.6875,-0.3205],[100.6875,-0.328],[100.6865,-0.329],[100.686,-0.331],[100.6865,-0.3315],[100.6865,-0.331],[100.6895,-0.329],[100.696,-0.338],[100.692,-0.327],[100.696,-0.2995],[100.694,-0.2925],[100.719,-0.2635],[100.7235,-0.2475],[100.7535,-0.24],[100.763,-0.2315],[100.7745,-0.234],[100.787,-0.2285],[100.7745,-0.212],[100.776,-0.211]]]},"properties":{"code":"13.07.09.2005","name":"Balai Panjang","latitude":-0.23785233470708236,"longitude":100.73965649308357}},{"type":"Feature","geometry":{"type":"Polygon","coordinates":[[[100.7535,-0.3095],[100.7485,-0.3145],[100.7265,-0.316],[100.726,-0.313],[100.7225,-0.3115],[100.7225,-0.315],[100.714,-0.3245],[100.696,-0.338],[100.7515,-0.37],[100.7705,-0.3655],[100.7735,-0.357],[100.7725,-0.356],[100.786,-0.347],[100.7865,-0.348],[100.7875,-0.3505],[100.789,-0.351],[100.7895,-0.3515],[100.8,-0.3405],[100.7925,-0.334],[100.7725,-0.3355],[100.77,-0.3335],[100.7545,-0.3105],[100.7535,-0.3095]]]},"properties":{"code":"13.07.09.2006","name":"Halaban","latitude":-0.3404597910754502,"longitude":100.74719597894516}},{"type":"Feature","geometry":{"type":"Polygon","coordinates":[[[100.7595,-0.2995],[100.759,-0.2975],[100.758,-0.296],[100.756,-0.2955],[100.7525,-0.284],[100.7325,-0.274],[100.731,-0.2745],[100.73,-0.275],[100.7295,-0.2755],[100.7295,-0.276],[100.729,-0.283],[100.729,-0.2835],[100.728,-0.2915],[100.7275,-0.299],[100.7235,-0.309],[100.7225,-0.3115],[100.726,-0.313],[100.7265,-0.316],[100.7485,-0.3145],[100.7535,-0.3095],[100.7535,-0.309],[100.755,-0.306],[100.755,-0.3055],[100.7535,-0.303],[100.7585,-0.2985],[100.7595,-0.2995]]]},"properties":{"code":"13.07.09.2007","name":"Tanjuang Gadang","latitude":-0.29702565980919093,"longitude":100.74008210967548}},{"type":"Feature","geometry":{"type":"Polygon","coordinates":[[[100.8235,-0.2835],[100.809,-0.27],[100.8045,-0.247],[100.7975,-0.2365],[100.796,-0.2355],[100.7935,-0.2375],[100.7865,-0.2395],[100.77,-0.2485],[100.761,-0.251],[100.7515,-0.259],[100.727,-0.27],[100.7265,-0.2705],[100.7295,-0.275],[100.7295,-0.2755],[100.731,-0.2745],[100.7325,-0.274],[100.7525,-0.284],[100.756,-0.2955],[100.758,-0.296],[100.759,-0.2975],[100.7595,-0.2995],[100.76,-0.2995],[100.7685,-0.287],[100.787,-0.2795],[100.816,-0.2805],[100.8235,-0.2835]]]},"properties":{"code":"13.07.09.2008","name":"Sitanang","latitude":-0.26621865327848165,"longitude":100.77505574288918}},{"type":"Feature","geometry":{"type":"Polygon","coordinates":[[[100.5865,-0.2775],[100.586,-0.2775],[100.5835,-0.2805],[100.581,-0.29],[100.58,-0.291],[100.5815,-0.292],[100.5845,-0.293],[100.586,-0.2935],[100.592,-0.296],[100.5995,-0.318],[100.611,-0.3145],[100.613,-0.3135],[100.621,-0.315],[100.622,-0.315],[100.647,-0.339],[100.6565,-0.3425],[100.658,-0.343],[100.659,-0.3425],[100.6605,-0.342],[100.6595,-0.339],[100.661,-0.335],[100.644,-0.326],[100.639,-0.3185],[100.617,-0.3065],[100.615,-0.305],[100.614,-0.3035],[100.6035,-0.286],[100.604,-0.285],[100.6025,-0.284],[100.6005,-0.283],[100.588,-0.278],[100.5865,-0.2775]]]},"properties":{"code":"13.07.10.2001","name":"Situjuah Batua","latitude":-0.30822929263960464,"longitude":100.61452377274743}},{"type":"Feature","geometry":{"type":"Polygon","coordinates":[[[100.6605,-0.342],[100.659,-0.3425],[100.658,-0.343],[100.6565,-0.3425],[100.647,-0.339],[100.622,-0.315],[100.621,-0.315],[100.613,-0.3135],[100.611,-0.3145],[100.5995,-0.318],[100.6015,-0.3255],[100.5995,-0.3375],[100.601,-0.3405],[100.6075,-0.3395],[100.613,-0.345],[100.627,-0.35],[100.636,-0.351],[100.6455,-0.351],[100.6515,-0.3515],[100.664,-0.3515],[100.662,-0.347],[100.6605,-0.342]]]},"properties":{"code":"13.07.10.2002","name":"Situjuah Ladang Laweh","latitude":-0.3351239334957344,"longitude":100.62525027942463}},{"type":"Feature","geometry":{"type":"Polygon","coordinates":[[[100.5995,-0.318],[100.592,-0.296],[100.586,-0.2935],[100.5845,-0.293],[100.5815,-0.292],[100.566,-0.3185],[100.5805,-0.3315],[100.585,-0.3365],[100.584,-0.3395],[100.601,-0.3405],[100.5995,-0.3375],[100.6015,-0.3255],[100.5995,-0.318]]]},"properties":{"code":"13.07.10.2003","name":"Tungka","latitude":-0.3175316476358503,"longitude":100.58594577495786}},{"type":"Feature","geometry":{"type":"Polygon","coordinates":[[[100.597,-0.266],[100.5875,-0.2775],[100.5865,-0.2775],[100.588,-0.278],[100.6005,-0.283],[100.6025,-0.284],[100.604,-0.285],[100.6035,-0.286],[100.614,-0.3035],[100.615,-0.305],[100.617,-0.3065],[100.639,-0.3185],[100.644,-0.326],[100.661,-0.335],[100.6635,-0.33],[100.6625,-0.33],[100.6585,-0.3285],[100.626,-0.2995],[100.6255,-0.2975],[100.6185,-0.284],[100.618,-0.283],[100.6165,-0.2795],[100.6155,-0.279],[100.6135,-0.2755],[100.613,-0.2735],[100.6135,-0.273],[100.6125,-0.272],[100.6085,-0.268],[100.6085,-0.267],[100.597,-0.266]]]},"properties":{"code":"13.07.10.2004","name":"Situjuah Banda Dalam","latitude":-0.29522325334831945,"longitude":100.61866243950057}},{"type":"Feature","geometry":{"type":"Polygon","coordinates":[[[100.6445,-0.2765],[100.6435,-0.2765],[100.633,-0.271],[100.63,-0.2715],[100.629,-0.271],[100.6145,-0.274],[100.6135,-0.273],[100.613,-0.2735],[100.6135,-0.2755],[100.6155,-0.279],[100.6165,-0.2795],[100.618,-0.283],[100.6185,-0.284],[100.6255,-0.2975],[100.626,-0.2995],[100.6585,-0.3285],[100.6625,-0.33],[100.6635,-0.33],[100.668,-0.3295],[100.6545,-0.3085],[100.6565,-0.301],[100.6465,-0.281],[100.6445,-0.2765]]]},"properties":{"code":"13.07.10.2005","name":"Situjuah Gadang","latitude":-0.2967852806871995,"longitude":100.64024044558037}},{"type":"Feature","geometry":{"type":"Polygon","coordinates":[[[100.5655,-0.089],[100.5645,-0.0885],[100.5485,-0.0765],[100.5525,-0.0855],[100.546,-0.111],[100.5475,-0.119],[100.548,-0.1195],[100.5485,-0.12],[100.5475,-0.12],[100.548,-0.121],[100.5475,-0.1225],[100.5495,-0.124],[100.5505,-0.124],[100.554,-0.113],[100.5555,-0.1125],[100.556,-0.1115],[100.557,-0.1115],[100.5575,-0.1095],[100.559,-0.1085],[100.5635,-0.11],[100.5635,-0.109],[100.564,-0.1095],[100.5665,-0.1075],[100.5685,-0.1055],[100.5655,-0.098],[100.564,-0.09],[100.565,-0.089],[100.5655,-0.089]]]},"properties":{"code":"13.07.11.2001","name":"Jopang Manganti","latitude":-0.10144169037673392,"longitude":100.55638669523078}},{"type":"Feature","geometry":{"type":"Polygon","coordinates":[[[100.643,-0.005],[100.623,0],[100.61,0.0065],[100.606,0.018],[100.59,0.0085],[100.5895,0],[100.5865,0],[100.586,-0.001],[100.5865,-0.0025],[100.5895,-0.007],[100.5885,-0.0215],[100.5885,-0.0225],[100.5905,-0.0365],[100.591,-0.04],[100.5925,-0.042],[100.5995,-0.0525],[100.5915,-0.082],[100.599,-0.0925],[100.5945,-0.1125],[100.597,-0.112],[100.599,-0.1125],[100.612,-0.112],[100.614,-0.109],[100.6205,-0.108],[100.6235,-0.1105],[100.624,-0.115],[100.626,-0.114],[100.6285,-0.1095],[100.6285,-0.1065],[100.6265,-0.0725],[100.6285,-0.069],[100.63,-0.0675],[100.6325,-0.0655],[100.6325,-0.064],[100.6305,-0.0455],[100.6335,-0.027],[100.644,-0.017],[100.643,-0.005]]]},"properties":{"code":"13.07.11.2002","name":"Simpang Kapuak","latitude":-0.04477062341200582,"longitude":100.61233112387407}},{"type":"Feature","geometry":{"type":"Polygon","coordinates":[[[100.5635,-0.11],[100.559,-0.1085],[100.5575,-0.1095],[100.557,-0.1115],[100.556,-0.1115],[100.5555,-0.1125],[100.554,-0.113],[100.5505,-0.124],[100.551,-0.124],[100.553,-0.1265],[100.5535,-0.127],[100.564,-0.1325],[100.5655,-0.133],[100.5635,-0.1345],[100.568,-0.14],[100.5685,-0.1425],[100.571,-0.143],[100.571,-0.142],[100.571,-0.138],[100.572,-0.137],[100.5745,-0.135],[100.577,-0.1365],[100.5785,-0.136],[100.5805,-0.1365],[100.5815,-0.136],[100.585,-0.136],[100.5835,-0.133],[100.584,-0.132],[100.586,-0.1315],[100.588,-0.1315],[100.5885,-0.132],[100.59,-0.1305],[100.5925,-0.1255],[100.592,-0.123],[100.5895,-0.114],[100.586,-0.115],[100.5745,-0.117],[100.566,-0.1115],[100.5645,-0.111],[100.5635,-0.11]]]},"properties":{"code":"13.07.11.2003","name":"Mungka","latitude":-0.12428516709998734,"longitude":100.57132400572414}},{"type":"Feature","geometry":{"type":"Polygon","coordinates":[[[100.581,0.007],[100.5585,0.0055],[100.556,-0.0065],[100.5395,-0.012],[100.532,-0.024],[100.521,-0.0205],[100.519,-0.023],[100.518,-0.0335],[100.524,-0.043],[100.5215,-0.0595],[100.5225,-0.0605],[100.522,-0.062],[100.524,-0.063],[100.5385,-0.0775],[100.5485,-0.0765],[100.5645,-0.0885],[100.566,-0.089],[100.5865,-0.074],[100.5905,-0.0655],[100.587,-0.0485],[100.587,-0.0455],[100.5885,-0.0445],[100.5925,-0.042],[100.591,-0.04],[100.5905,-0.0365],[100.5885,-0.0225],[100.5885,-0.0215],[100.5895,-0.007],[100.5865,-0.0025],[100.586,-0.001],[100.5865,0],[100.581,0.007]]]},"properties":{"code":"13.07.11.2004","name":"Talang Maur","latitude":-0.041322914115576065,"longitude":100.5591216239789}},{"type":"Feature","geometry":{"type":"Polygon","coordinates":[[[100.5945,-0.1125],[100.599,-0.0925],[100.5915,-0.082],[100.5995,-0.0525],[100.5925,-0.042],[100.5885,-0.0445],[100.587,-0.0455],[100.587,-0.0485],[100.5905,-0.0655],[100.5865,-0.074],[100.566,-0.089],[100.5655,-0.089],[100.565,-0.089],[100.564,-0.09],[100.5655,-0.098],[100.5685,-0.1055],[100.5665,-0.1075],[100.564,-0.1095],[100.5635,-0.109],[100.5635,-0.11],[100.5645,-0.111],[100.566,-0.1115],[100.5745,-0.117],[100.586,-0.115],[100.591,-0.1125],[100.5945,-0.1125]]]},"properties":{"code":"13.07.11.2005","name":"Sungai Antuan","latitude":-0.0889099919170992,"longitude":100.58472957526759}},{"type":"Feature","geometry":{"type":"Polygon","coordinates":[[[100.5705,0.1175],[100.563,0.112],[100.5295,0.1075],[100.5245,0.103],[100.5065,0.105],[100.4845,0.118],[100.476,0.112],[100.453,0.119],[100.4175,0.1225],[100.4145,0.111],[100.4015,0.1015],[100.3945,0.0835],[100.4125,0.0575],[100.4225,0.05],[100.438,0.0165],[100.446,0.007],[100.4535,-0.005],[100.4535,-0.0055],[100.452,-0.011],[100.449,-0.017],[100.464,-0.0215],[100.469,-0.0175],[100.471,-0.0175],[100.472,-0.022],[100.4745,-0.026],[100.4755,-0.027],[100.4765,-0.027],[100.479,-0.0275],[100.481,-0.027],[100.519,-0.023],[100.521,-0.0205],[100.532,-0.024],[100.5395,-0.012],[100.556,-0.0065],[100.5585,0.0055],[100.581,0.007],[100.578,0.032],[100.5925,0.0485],[100.5875,0.0645],[100.5745,0.065],[100.5645,0.073],[100.5665,0.0905],[100.5605,0.098],[100.5705,0.1175]],[[100.4875,0.0825],[100.4945,0.0665],[100.4895,0.0535],[100.493,0.035],[100.4915,0.0185],[100.4755,0.0245],[100.4635,0.0235],[100.447,0.039],[100.4415,0.053],[100.4385,0.07],[100.446,0.0765],[100.4875,0.0825]]]},"properties":{"code":"13.07.12.2001","name":"Maek","latitude":0.05123367448730456,"longitude":100.49867443097554}},{"type":"Feature","geometry":{"type":"Polygon","coordinates":[[[100.519,-0.023],[100.481,-0.027],[100.4795,-0.0275],[100.4785,-0.0275],[100.476,-0.027],[100.475,-0.0265],[100.469,-0.043],[100.449,-0.055],[100.449,-0.056],[100.4495,-0.057],[100.456,-0.0635],[100.4585,-0.0625],[100.459,-0.0635],[100.4595,-0.0635],[100.4605,-0.0635],[100.4625,-0.0625],[100.474,-0.0675],[100.477,-0.07],[100.478,-0.071],[100.48,-0.0725],[100.483,-0.072],[100.485,-0.075],[100.4865,-0.075],[100.4885,-0.074],[100.489,-0.0735],[100.503,-0.079],[100.5165,-0.068],[100.519,-0.069],[100.521,-0.0615],[100.5215,-0.0595],[100.524,-0.043],[100.518,-0.0335],[100.519,-0.023]]]},"properties":{"code":"13.07.12.2002","name":"Banja Loweh","latitude":-0.049964584192266646,"longitude":100.49270552282233}},{"type":"Feature","geometry":{"type":"Polygon","coordinates":[[[100.446,0.007],[100.438,0.0165],[100.4225,0.05],[100.4125,0.0575],[100.3945,0.0835],[100.3735,0.049],[100.358,0.04],[100.3545,0.0445],[100.3485,0.0395],[100.349,0.034],[100.365,0.0255],[100.366,0.02],[100.3695,0.015],[100.381,0.006],[100.384,-0.01],[100.3835,-0.012],[100.3835,-0.0145],[100.3885,-0.021],[100.39,-0.0195],[100.3965,-0.01],[100.397,-0.009],[100.3975,-0.0105],[100.3985,-0.0105],[100.401,-0.0075],[100.401,-0.009],[100.414,-0.0105],[100.4175,0.0005],[100.4255,0.006],[100.436,-0.001],[100.446,0.007]]]},"properties":{"code":"13.07.12.2003","name":"Baruah Gunuang","latitude":0.028438133223434577,"longitude":100.39902887031191}},{"type":"Feature","geometry":{"type":"Polygon","coordinates":[[[100.449,-0.017],[100.452,-0.011],[100.4535,-0.0055],[100.4535,-0.005],[100.446,0.007],[100.436,-0.001],[100.4255,0.006],[100.4175,0.0005],[100.414,-0.0105],[100.401,-0.009],[100.401,-0.0075],[100.3985,-0.0105],[100.3975,-0.0105],[100.397,-0.009],[100.3965,-0.01],[100.39,-0.0195],[100.388,-0.0225],[100.388,-0.0255],[100.399,-0.0355],[100.3995,-0.038],[100.4015,-0.037],[100.4055,-0.04],[100.4085,-0.04],[100.412,-0.0405],[100.4145,-0.045],[100.4185,-0.0455],[100.4225,-0.0455],[100.427,-0.044],[100.4215,-0.0405],[100.4285,-0.0225],[100.442,-0.0125],[100.449,-0.017]]]},"properties":{"code":"13.07.12.2004","name":"Sungai Naniang","latitude":-0.018256497291267305,"longitude":100.41903662603856}},{"type":"Feature","geometry":{"type":"Polygon","coordinates":[[[100.449,-0.017],[100.442,-0.0125],[100.4285,-0.0225],[100.4215,-0.0405],[100.427,-0.044],[100.4495,-0.057],[100.449,-0.056],[100.449,-0.055],[100.469,-0.043],[100.475,-0.0265],[100.4755,-0.027],[100.4745,-0.026],[100.472,-0.022],[100.471,-0.0175],[100.469,-0.0175],[100.464,-0.0215],[100.449,-0.017]]]},"properties":{"code":"13.07.12.2005","name":"Koto Tangah","latitude":-0.033671822760073786,"longitude":100.44779386721243}},{"type":"Feature","geometry":{"type":"Polygon","coordinates":[[[100.525,-0.1975],[100.52,-0.196],[100.518,-0.1975],[100.514,-0.206],[100.4975,-0.2095],[100.4945,-0.218],[100.483,-0.226],[100.511,-0.2445],[100.514,-0.2475],[100.5185,-0.2495],[100.521,-0.25],[100.5305,-0.236],[100.5425,-0.23],[100.5455,-0.229],[100.547,-0.228],[100.5475,-0.2255],[100.548,-0.2245],[100.55,-0.2225],[100.5515,-0.2225],[100.5565,-0.218],[100.5455,-0.208],[100.545,-0.2065],[100.544,-0.2065],[100.542,-0.1995],[100.525,-0.1975]]]},"properties":{"code":"13.07.13.2001","name":"Sariak Laweh","latitude":-0.22142679965755213,"longitude":100.52072956369979}},{"type":"Feature","geometry":{"type":"Polygon","coordinates":[[[100.593,-0.246],[100.59,-0.2415],[100.59,-0.241],[100.589,-0.2415],[100.5875,-0.243],[100.5805,-0.2435],[100.579,-0.244],[100.5675,-0.252],[100.5645,-0.2515],[100.5625,-0.251],[100.5615,-0.251],[100.5615,-0.2515],[100.558,-0.2545],[100.555,-0.253],[100.5425,-0.259],[100.54,-0.2565],[100.544,-0.265],[100.537,-0.2795],[100.5465,-0.284],[100.5525,-0.281],[100.5695,-0.281],[100.5745,-0.2865],[100.5755,-0.287],[100.578,-0.287],[100.58,-0.291],[100.581,-0.29],[100.5835,-0.2805],[100.586,-0.2775],[100.5875,-0.2775],[100.597,-0.266],[100.595,-0.2585],[100.5945,-0.254],[100.593,-0.246]]]},"properties":{"code":"13.07.13.2002","name":"Koto Tangah Batu Ampa","latitude":-0.2658228538466058,"longitude":100.56986222790636}},{"type":"Feature","geometry":{"type":"Polygon","coordinates":[[[100.549,-0.227],[100.5485,-0.226],[100.548,-0.225],[100.5475,-0.2255],[100.547,-0.228],[100.5455,-0.229],[100.5425,-0.23],[100.5305,-0.236],[100.521,-0.25],[100.5215,-0.25],[100.528,-0.245],[100.54,-0.2565],[100.5425,-0.259],[100.555,-0.253],[100.558,-0.2545],[100.5615,-0.2515],[100.561,-0.2505],[100.56,-0.2495],[100.5595,-0.249],[100.549,-0.227]]]},"properties":{"code":"13.07.13.2003","name":"Batuhampar","latitude":-0.24563790300075217,"longitude":100.54441765328703}},{"type":"Feature","geometry":{"type":"Polygon","coordinates":[[[100.4955,-0.172],[100.4825,-0.173],[100.467,-0.169],[100.4675,-0.1795],[100.46,-0.1855],[100.4435,-0.1905],[100.443,-0.1925],[100.4455,-0.2005],[100.4465,-0.205],[100.463,-0.219],[100.502,-0.1905],[100.502,-0.189],[100.5065,-0.182],[100.504,-0.18],[100.4955,-0.172]]]},"properties":{"code":"13.07.13.2004","name":"Suayan","latitude":-0.1918918204138493,"longitude":100.47337234915796}},{"type":"Feature","geometry":{"type":"Polygon","coordinates":[[[100.5195,-0.1965],[100.5195,-0.1955],[100.519,-0.195],[100.5175,-0.1935],[100.5115,-0.1865],[100.509,-0.1835],[100.5075,-0.1825],[100.5065,-0.182],[100.502,-0.189],[100.502,-0.1905],[100.463,-0.219],[100.465,-0.221],[100.4775,-0.223],[100.4815,-0.2245],[100.483,-0.226],[100.4945,-0.218],[100.4975,-0.2095],[100.514,-0.206],[100.518,-0.1975],[100.5195,-0.1965]]]},"properties":{"code":"13.07.13.2005","name":"Sungai Balantiak","latitude":-0.2055004317261625,"longitude":100.49398758049327}},{"type":"Feature","geometry":{"type":"Polygon","coordinates":[[[100.4975,-0.162],[100.484,-0.151],[100.4835,-0.1525],[100.462,-0.1515],[100.459,-0.1515],[100.452,-0.1535],[100.4445,-0.167],[100.4415,-0.1695],[100.444,-0.1755],[100.443,-0.181],[100.4435,-0.183],[100.444,-0.1855],[100.4445,-0.1855],[100.444,-0.1875],[100.4435,-0.1905],[100.46,-0.1855],[100.4675,-0.1795],[100.467,-0.169],[100.4825,-0.173],[100.4955,-0.172],[100.4975,-0.162]]]},"properties":{"code":"13.07.13.2006","name":"Pauh Sangik","latitude":-0.1665634942812441,"longitude":100.46619013829984}},{"type":"Feature","geometry":{"type":"Polygon","coordinates":[[[100.5755,-0.235],[100.573,-0.2345],[100.5675,-0.2345],[100.563,-0.225],[100.561,-0.2225],[100.5565,-0.218],[100.5515,-0.2225],[100.55,-0.2225],[100.548,-0.2245],[100.548,-0.225],[100.5485,-0.226],[100.549,-0.227],[100.5595,-0.249],[100.56,-0.2495],[100.561,-0.2505],[100.5615,-0.251],[100.5625,-0.251],[100.5645,-0.2515],[100.5675,-0.252],[100.579,-0.244],[100.5805,-0.2435],[100.5875,-0.243],[100.589,-0.2415],[100.59,-0.241],[100.589,-0.2405],[100.588,-0.24],[100.587,-0.24],[100.5845,-0.236],[100.5755,-0.235]]]},"properties":{"code":"13.07.13.2007","name":"Durian Gadang","latitude":-0.2375736846474515,"longitude":100.56509192852394}}]}