{"type":"FeatureCollection","features":[{"type":"Feature","geometry":{"type":"Polygon","coordinates":[[[101.0775,-0.7235],[101.059,-0.723],[101.0545,-0.7225],[101.051,-0.725],[101.0445,-0.721],[101.0425,-0.7185],[101.042,-0.7175],[101.0335,-0.712],[101.0265,-0.721],[101.0265,-0.7245],[101.026,-0.7275],[101.0215,-0.74],[101.021,-0.7405],[101.0345,-0.7375],[101.0495,-0.7525],[101.0625,-0.7545],[101.0605,-0.763],[101.064,-0.767],[101.0685,-0.767],[101.073,-0.7645],[101.0715,-0.7635],[101.0685,-0.7545],[101.102,-0.764],[101.103,-0.752],[101.123,-0.7505],[101.123,-0.743],[101.106,-0.748],[101.0845,-0.749],[101.077,-0.7275],[101.077,-0.7245],[101.0775,-0.7235]]]},"properties":{"code":"13.03.03.2001","name":"Timbulun"}},{"type":"Feature","geometry":{"type":"Polygon","coordinates":[[[101.148,-0.7475],[101.1475,-0.7475],[101.1385,-0.748],[101.1315,-0.7405],[101.123,-0.743],[101.123,-0.7505],[101.103,-0.752],[101.102,-0.764],[101.0685,-0.7545],[101.0715,-0.7635],[101.0725,-0.764],[101.0735,-0.7645],[101.098,-0.775],[101.121,-0.771],[101.1585,-0.7815],[101.1585,-0.7655],[101.148,-0.7475]]]},"properties":{"code":"13.03.03.2002","name":"Tanjung Gadang"}},{"type":"Feature","geometry":{"type":"Polygon","coordinates":[[[101.0985,-0.79],[101.0895,-0.7775],[101.0725,-0.777],[101.066,-0.783],[101.0625,-0.7845],[101.067,-0.8105],[101.0685,-0.818],[101.069,-0.826],[101.081,-0.831],[101.084,-0.816],[101.1005,-0.8055],[101.0935,-0.797],[101.0985,-0.79]]]},"properties":{"code":"13.03.03.2003","name":"Taratak Baru"}},{"type":"Feature","geometry":{"type":"Polygon","coordinates":[[[101.1585,-0.7815],[101.121,-0.771],[101.098,-0.775],[101.0985,-0.79],[101.0935,-0.797],[101.1005,-0.8055],[101.084,-0.816],[101.081,-0.831],[101.085,-0.8335],[101.0855,-0.836],[101.0885,-0.8475],[101.098,-0.862],[101.102,-0.849],[101.1025,-0.846],[101.099,-0.833],[101.101,-0.829],[101.108,-0.827],[101.1185,-0.8375],[101.1225,-0.8395],[101.13,-0.8365],[101.142,-0.844],[101.165,-0.8375],[101.1885,-0.8385],[101.191,-0.8385],[101.19,-0.834],[101.19,-0.8315],[101.184,-0.8065],[101.1585,-0.7815]]]},"properties":{"code":"13.03.03.2004","name":"Pulasan"}},{"type":"Feature","geometry":{"type":"Polygon","coordinates":[[[101.191,-0.839],[101.1885,-0.8385],[101.165,-0.8375],[101.142,-0.844],[101.1475,-0.854],[101.1405,-0.8845],[101.143,-0.8975],[101.1465,-0.945],[101.142,-0.9615],[101.1495,-0.9585],[101.1745,-0.9575],[101.19,-0.9515],[101.191,-0.951],[101.194,-0.9515],[101.2025,-0.951],[101.211,-0.941],[101.208,-0.9235],[101.215,-0.9215],[101.217,-0.921],[101.2095,-0.9105],[101.21,-0.9095],[101.23,-0.901],[101.2325,-0.8805],[101.2365,-0.8655],[101.2345,-0.8585],[101.213,-0.844],[101.191,-0.839]]]},"properties":{"code":"13.03.03.2005","name":"Langki"}},{"type":"Feature","geometry":{"type":"Polygon","coordinates":[[[101.142,-0.844],[101.13,-0.8365],[101.1225,-0.8395],[101.1185,-0.8375],[101.108,-0.827],[101.101,-0.829],[101.099,-0.833],[101.1025,-0.846],[101.102,-0.849],[101.098,-0.862],[101.1005,-0.872],[101.096,-0.8955],[101.0945,-0.902],[101.074,-0.9255],[101.065,-0.9295],[101.06,-0.93],[101.06,-0.9325],[101.0665,-0.9495],[101.0495,-0.9685],[101.0515,-0.9725],[101.055,-0.975],[101.0635,-0.988],[101.086,-0.9895],[101.1015,-0.9795],[101.1285,-0.977],[101.1405,-0.962],[101.142,-0.9615],[101.1465,-0.945],[101.143,-0.8975],[101.1405,-0.8845],[101.1475,-0.854],[101.142,-0.844]]]},"properties":{"code":"13.03.03.2006","name":"Sibakur"}},{"type":"Feature","geometry":{"type":"Polygon","coordinates":[[[101.2445,-0.7535],[101.2195,-0.7405],[101.2145,-0.753],[101.1975,-0.757],[101.1795,-0.738],[101.1605,-0.7365],[101.1585,-0.7355],[101.1585,-0.738],[101.157,-0.7415],[101.151,-0.747],[101.1495,-0.7475],[101.148,-0.7475],[101.1585,-0.7655],[101.1585,-0.7815],[101.184,-0.8065],[101.19,-0.8315],[101.19,-0.834],[101.191,-0.8385],[101.191,-0.839],[101.213,-0.844],[101.2345,-0.8585],[101.2435,-0.847],[101.256,-0.8195],[101.261,-0.802],[101.264,-0.781],[101.26,-0.766],[101.2445,-0.7535]]]},"properties":{"code":"13.03.03.2007","name":"Tanjung Lolo"}},{"type":"Feature","geometry":{"type":"Polygon","coordinates":[[[101.0605,-0.763],[101.0625,-0.7545],[101.0495,-0.7525],[101.0345,-0.7375],[101.021,-0.7405],[101.015,-0.748],[101.0135,-0.7495],[101.0135,-0.75],[101.0155,-0.7525],[101.019,-0.756],[101.024,-0.756],[101.0255,-0.7625],[101.032,-0.7665],[101.0295,-0.777],[101.034,-0.786],[101.0405,-0.788],[101.056,-0.8065],[101.0635,-0.8115],[101.0675,-0.8125],[101.067,-0.8105],[101.0625,-0.7845],[101.061,-0.785],[101.0565,-0.777],[101.0605,-0.763]]]},"properties":{"code":"13.03.03.2008","name":"Taratak Baru Utara"}},{"type":"Feature","geometry":{"type":"Polygon","coordinates":[[[101.073,-0.7645],[101.0685,-0.767],[101.064,-0.767],[101.0605,-0.763],[101.0565,-0.777],[101.061,-0.785],[101.066,-0.783],[101.0725,-0.777],[101.0895,-0.7775],[101.0985,-0.79],[101.098,-0.775],[101.0735,-0.7645],[101.073,-0.7645]]]},"properties":{"code":"13.03.03.2009","name":"Sinyamu"}},{"type":"Feature","geometry":{"type":"Polygon","coordinates":[[[101.009,-0.661],[100.9965,-0.6495],[100.984,-0.6455],[100.9625,-0.6395],[100.9525,-0.637],[100.936,-0.6425],[100.9275,-0.657],[100.919,-0.6585],[100.9175,-0.6785],[100.9185,-0.6775],[100.9215,-0.6775],[100.9255,-0.6785],[100.9305,-0.6915],[100.947,-0.6885],[100.95,-0.6885],[100.954,-0.689],[100.962,-0.692],[100.9875,-0.682],[101.002,-0.669],[101.009,-0.661]]]},"properties":{"code":"13.03.04.2001","name":"Muaro"}},{"type":"Feature","geometry":{"type":"Polygon","coordinates":[[[100.938,-0.7405],[100.94,-0.7395],[100.943,-0.739],[100.9465,-0.7335],[100.948,-0.7125],[100.945,-0.7],[100.936,-0.7015],[100.9365,-0.7095],[100.929,-0.719],[100.9235,-0.728],[100.935,-0.74],[100.938,-0.7405]]]},"properties":{"code":"13.03.04.2002","name":"Kandang Baru"}},{"type":"Feature","geometry":{"type":"Polygon","coordinates":[[[101.0545,-0.6045],[101.028,-0.596],[101.005,-0.598],[100.992,-0.593],[100.9895,-0.589],[100.984,-0.5905],[100.98,-0.5915],[100.974,-0.591],[100.97,-0.5915],[100.9625,-0.596],[100.9625,-0.6125],[100.9635,-0.6145],[100.964,-0.6185],[100.9615,-0.6265],[100.9585,-0.633],[100.9525,-0.637],[100.9625,-0.6395],[100.984,-0.6455],[100.9965,-0.6495],[101.009,-0.661],[101.019,-0.6425],[101.034,-0.636],[101.035,-0.636],[101.042,-0.621],[101.0495,-0.6085],[101.0545,-0.6045]]]},"properties":{"code":"13.03.04.2003","name":"Silokek"}},{"type":"Feature","geometry":{"type":"Polygon","coordinates":[[[100.9495,-0.6885],[100.947,-0.6885],[100.9305,-0.6915],[100.9345,-0.698],[100.936,-0.7015],[100.945,-0.7],[100.948,-0.7125],[100.9465,-0.7335],[100.943,-0.739],[100.94,-0.7395],[100.938,-0.7405],[100.939,-0.741],[100.9525,-0.74],[100.964,-0.741],[100.9735,-0.743],[100.9765,-0.743],[100.9785,-0.7285],[100.9545,-0.701],[100.9495,-0.6885]]]},"properties":{"code":"13.03.04.2004","name":"Pematang Panjang"}},{"type":"Feature","geometry":{"type":"Polygon","coordinates":[[[101.1115,-0.6675],[101.0775,-0.71],[101.0775,-0.7235],[101.077,-0.7245],[101.077,-0.7275],[101.0845,-0.749],[101.106,-0.748],[101.123,-0.743],[101.1315,-0.7405],[101.1385,-0.748],[101.1475,-0.7475],[101.1495,-0.7475],[101.151,-0.747],[101.157,-0.7415],[101.1585,-0.738],[101.1585,-0.7355],[101.16,-0.73],[101.162,-0.728],[101.1625,-0.7255],[101.1605,-0.7205],[101.1595,-0.7195],[101.1555,-0.711],[101.154,-0.706],[101.151,-0.6975],[101.1505,-0.694],[101.1505,-0.68],[101.151,-0.6785],[101.144,-0.6765],[101.141,-0.676],[101.1345,-0.674],[101.1295,-0.671],[101.112,-0.668],[101.1115,-0.6675]]]},"properties":{"code":"13.03.04.2005","name":"Solok Ambah"}},{"type":"Feature","geometry":{"type":"Polygon","coordinates":[[[101.174,-0.6455],[101.161,-0.629],[101.1505,-0.622],[101.128,-0.606],[101.109,-0.592],[101.088,-0.5915],[101.0595,-0.6005],[101.0545,-0.6045],[101.0495,-0.6085],[101.042,-0.621],[101.035,-0.636],[101.0355,-0.636],[101.0565,-0.65],[101.0865,-0.6605],[101.109,-0.666],[101.112,-0.668],[101.1295,-0.671],[101.1345,-0.674],[101.141,-0.676],[101.144,-0.6765],[101.151,-0.6785],[101.152,-0.677],[101.1715,-0.67],[101.1785,-0.6575],[101.1795,-0.657],[101.174,-0.6455]]]},"properties":{"code":"13.03.04.2006","name":"Paru"}},{"type":"Feature","geometry":{"type":"Polygon","coordinates":[[[101.0265,-0.3435],[101.0215,-0.3435],[101.0065,-0.3275],[101.0045,-0.325],[101.0025,-0.328],[101.0015,-0.33],[100.9985,-0.3345],[100.996,-0.336],[100.991,-0.34],[100.9885,-0.343],[100.983,-0.352],[100.979,-0.365],[100.982,-0.39],[100.9805,-0.3965],[100.981,-0.405],[100.98,-0.4115],[100.9765,-0.422],[100.975,-0.429],[100.984,-0.462],[100.992,-0.4745],[100.9915,-0.5055],[100.9865,-0.5195],[100.985,-0.5195],[100.979,-0.5265],[100.9775,-0.529],[100.975,-0.533],[100.9735,-0.537],[100.9725,-0.5405],[100.972,-0.545],[100.984,-0.5555],[100.983,-0.5775],[100.9905,-0.5885],[100.9895,-0.589],[100.992,-0.593],[101.005,-0.598],[101.028,-0.596],[101.0545,-0.6045],[101.0595,-0.6005],[101.088,-0.5915],[101.109,-0.592],[101.128,-0.606],[101.1505,-0.622],[101.161,-0.629],[101.174,-0.6455],[101.1725,-0.6315],[101.145,-0.6115],[101.1335,-0.5965],[101.122,-0.56],[101.1235,-0.5435],[101.1255,-0.5385],[101.1345,-0.522],[101.1325,-0.5205],[101.122,-0.515],[101.1085,-0.501],[101.0975,-0.502],[101.086,-0.509],[101.067,-0.5035],[101.0635,-0.4845],[101.0505,-0.4725],[101.0445,-0.4535],[101.037,-0.44],[101.0405,-0.4225],[101.0285,-0.3985],[101.0415,-0.3855],[101.0415,-0.376],[101.0385,-0.3535],[101.0265,-0.3435]]]},"properties":{"code":"13.03.04.2007","name":"Durian Gadang"}},{"type":"Feature","geometry":{"type":"Polygon","coordinates":[[[101.1115,-0.6675],[101.109,-0.666],[101.0865,-0.6605],[101.0565,-0.65],[101.0355,-0.636],[101.034,-0.636],[101.019,-0.6425],[101.009,-0.661],[101.002,-0.669],[101.004,-0.678],[101.025,-0.7],[101.025,-0.7015],[101.024,-0.703],[101.0185,-0.706],[101.018,-0.707],[101.019,-0.7115],[101.018,-0.718],[101.022,-0.721],[101.025,-0.722],[101.0265,-0.723],[101.0265,-0.721],[101.0335,-0.712],[101.042,-0.7175],[101.0425,-0.7185],[101.0445,-0.721],[101.051,-0.725],[101.0545,-0.7225],[101.059,-0.723],[101.0775,-0.7235],[101.0775,-0.71],[101.1115,-0.6675]]]},"properties":{"code":"13.03.04.2008","name":"Aie Angek"}},{"type":"Feature","geometry":{"type":"Polygon","coordinates":[[[101.0265,-0.723],[101.025,-0.722],[101.022,-0.721],[101.018,-0.718],[101.019,-0.7115],[101.018,-0.707],[101.0185,-0.706],[101.024,-0.703],[101.025,-0.7015],[101.025,-0.7],[101.004,-0.678],[101.002,-0.669],[100.9875,-0.682],[100.962,-0.692],[100.954,-0.689],[100.95,-0.6885],[100.9495,-0.6885],[100.9545,-0.701],[100.9785,-0.7285],[100.9765,-0.743],[100.979,-0.7435],[101.013,-0.75],[101.015,-0.748],[101.021,-0.7405],[101.0215,-0.74],[101.026,-0.7275],[101.0265,-0.7255],[101.0265,-0.723]]]},"properties":{"code":"13.03.04.2009","name":"Sijunjung"}},{"type":"Feature","geometry":{"type":"Polygon","coordinates":[[[100.8945,-0.705],[100.8925,-0.705],[100.8915,-0.718],[100.8935,-0.7255],[100.8945,-0.7275],[100.9,-0.7375],[100.916,-0.7375],[100.9235,-0.728],[100.929,-0.719],[100.8945,-0.705]]]},"properties":{"code":"13.03.05.2001","name":"Palangki"}},{"type":"Feature","geometry":{"type":"Polygon","coordinates":[[[100.8965,-0.733],[100.883,-0.732],[100.878,-0.732],[100.857,-0.7335],[100.85,-0.7305],[100.8475,-0.7335],[100.8405,-0.7405],[100.849,-0.751],[100.8515,-0.7625],[100.852,-0.785],[100.87,-0.8055],[100.8815,-0.8105],[100.8865,-0.8195],[100.887,-0.8265],[100.9005,-0.8195],[100.9015,-0.817],[100.896,-0.8115],[100.8915,-0.7925],[100.885,-0.7835],[100.883,-0.7665],[100.89,-0.7555],[100.9205,-0.7495],[100.9205,-0.7465],[100.916,-0.7375],[100.9,-0.7375],[100.8965,-0.733]]]},"properties":{"code":"13.03.05.2002","name":"Koto Baru"}},{"type":"Feature","geometry":{"type":"Polygon","coordinates":[[[100.907,-0.66],[100.892,-0.6615],[100.878,-0.657],[100.8735,-0.658],[100.872,-0.678],[100.87,-0.683],[100.871,-0.699],[100.866,-0.704],[100.8495,-0.723],[100.851,-0.729],[100.85,-0.7305],[100.857,-0.7335],[100.878,-0.732],[100.883,-0.732],[100.8965,-0.733],[100.8945,-0.7275],[100.8935,-0.7255],[100.8915,-0.718],[100.8925,-0.705],[100.895,-0.7045],[100.9205,-0.6965],[100.9215,-0.696],[100.92,-0.69],[100.9195,-0.6875],[100.919,-0.683],[100.9185,-0.6815],[100.9165,-0.6835],[100.9145,-0.6835],[100.91,-0.683],[100.9005,-0.6825],[100.8995,-0.6815],[100.901,-0.679],[100.898,-0.671],[100.907,-0.66]]]},"properties":{"code":"13.03.05.2003","name":"Muaro Bodi"}},{"type":"Feature","geometry":{"type":"Polygon","coordinates":[[[100.9205,-0.7495],[100.89,-0.7555],[100.883,-0.7665],[100.885,-0.7835],[100.8915,-0.7925],[100.896,-0.8115],[100.9015,-0.817],[100.902,-0.816],[100.914,-0.8115],[100.919,-0.81],[100.9205,-0.81],[100.924,-0.809],[100.9255,-0.8085],[100.9255,-0.8075],[100.926,-0.8055],[100.926,-0.8025],[100.927,-0.7995],[100.9305,-0.782],[100.9225,-0.7615],[100.9225,-0.758],[100.9215,-0.753],[100.9205,-0.751],[100.9205,-0.7495]]]},"properties":{"code":"13.03.05.2004","name":"Mundam Sakti"}},{"type":"Feature","geometry":{"type":"Polygon","coordinates":[[[100.9305,-0.6915],[100.9255,-0.6785],[100.9215,-0.6775],[100.921,-0.6775],[100.9195,-0.68],[100.919,-0.68],[100.9185,-0.681],[100.9185,-0.6815],[100.919,-0.683],[100.9195,-0.6875],[100.92,-0.69],[100.9215,-0.696],[100.9205,-0.6965],[100.895,-0.7045],[100.8945,-0.705],[100.929,-0.719],[100.9365,-0.7095],[100.9345,-0.698],[100.9305,-0.6915]]]},"properties":{"code":"13.03.05.2005","name":"Koto Tuo"}},{"type":"Feature","geometry":{"type":"Polygon","coordinates":[[[101.3325,-0.839],[101.3235,-0.839],[101.306,-0.825],[101.302,-0.824],[101.2925,-0.846],[101.2775,-0.8635],[101.2725,-0.888],[101.2955,-0.8915],[101.3275,-0.891],[101.341,-0.898],[101.3515,-0.888],[101.353,-0.8835],[101.3435,-0.8735],[101.3395,-0.8615],[101.343,-0.8485],[101.3325,-0.839]]]},"properties":{"code":"13.03.06.2001","name":"Sungai Lansek"}},{"type":"Feature","geometry":{"type":"Polygon","coordinates":[[[101.4485,-0.7645],[101.4325,-0.746],[101.411,-0.7445],[101.408,-0.745],[101.4055,-0.747],[101.4035,-0.748],[101.3835,-0.7535],[101.3745,-0.763],[101.353,-0.758],[101.338,-0.7585],[101.335,-0.76],[101.3235,-0.768],[101.2965,-0.7765],[101.292,-0.7775],[101.28,-0.7885],[101.271,-0.789],[101.268,-0.7865],[101.2655,-0.7805],[101.264,-0.7805],[101.264,-0.781],[101.261,-0.802],[101.2605,-0.804],[101.261,-0.8045],[101.264,-0.8055],[101.2725,-0.8105],[101.276,-0.811],[101.284,-0.816],[101.288,-0.816],[101.301,-0.8235],[101.306,-0.825],[101.3235,-0.839],[101.3325,-0.839],[101.331,-0.8185],[101.32,-0.8],[101.328,-0.795],[101.3585,-0.8085],[101.3675,-0.814],[101.3805,-0.832],[101.395,-0.8335],[101.4005,-0.803],[101.4025,-0.8025],[101.41,-0.807],[101.4295,-0.829],[101.43,-0.831],[101.451,-0.8495],[101.454,-0.834],[101.477,-0.834],[101.481,-0.8375],[101.483,-0.839],[101.495,-0.8495],[101.505,-0.839],[101.5205,-0.848],[101.54,-0.831],[101.548,-0.821],[101.5465,-0.82],[101.53,-0.81],[101.5115,-0.8105],[101.506,-0.8085],[101.4945,-0.792],[101.4815,-0.786],[101.4485,-0.7645]]]},"properties":{"code":"13.03.06.2002","name":"Kamang"}},{"type":"Feature","geometry":{"type":"Polygon","coordinates":[[[101.4145,-0.8995],[101.3995,-0.883],[101.36,-0.888],[101.3525,-0.885],[101.3515,-0.888],[101.341,-0.898],[101.349,-0.9165],[101.3385,-0.9235],[101.3275,-0.9455],[101.319,-0.951],[101.318,-0.963],[101.3255,-0.967],[101.341,-0.9635],[101.353,-0.955],[101.3755,-0.973],[101.3895,-0.976],[101.403,-0.9695],[101.3995,-0.9535],[101.3995,-0.9525],[101.3985,-0.951],[101.3985,-0.9495],[101.396,-0.9405],[101.413,-0.928],[101.4205,-0.927],[101.4215,-0.907],[101.4135,-0.8995],[101.4145,-0.8995]]]},"properties":{"code":"13.03.06.2003","name":"Muaro Takuang"}},{"type":"Feature","geometry":{"type":"Polygon","coordinates":[[[101.348,-0.6835],[101.323,-0.697],[101.31,-0.6985],[101.277,-0.694],[101.259,-0.6855],[101.245,-0.6885],[101.2285,-0.6805],[101.2185,-0.7005],[101.2075,-0.7055],[101.1785,-0.7065],[101.1705,-0.7145],[101.165,-0.717],[101.1605,-0.7195],[101.16,-0.72],[101.1605,-0.7205],[101.1625,-0.7255],[101.162,-0.728],[101.16,-0.73],[101.1585,-0.7355],[101.1605,-0.7365],[101.1795,-0.738],[101.1975,-0.757],[101.2145,-0.753],[101.2195,-0.7405],[101.2445,-0.7535],[101.247,-0.73],[101.2625,-0.706],[101.275,-0.7075],[101.3165,-0.733],[101.329,-0.743],[101.3325,-0.7475],[101.338,-0.7585],[101.353,-0.758],[101.3745,-0.763],[101.3835,-0.7535],[101.4035,-0.748],[101.4055,-0.747],[101.408,-0.745],[101.403,-0.746],[101.402,-0.732],[101.4055,-0.7175],[101.3955,-0.7055],[101.375,-0.7045],[101.356,-0.6905],[101.35,-0.686],[101.348,-0.6835]]]},"properties":{"code":"13.03.06.2004","name":"Aie Amo"}},{"type":"Feature","geometry":{"type":"Polygon","coordinates":[[[101.2285,-0.6805],[101.215,-0.666],[101.1895,-0.655],[101.182,-0.657],[101.1785,-0.6575],[101.1715,-0.67],[101.152,-0.677],[101.1505,-0.68],[101.1505,-0.694],[101.151,-0.6975],[101.154,-0.706],[101.1555,-0.711],[101.1595,-0.7195],[101.16,-0.72],[101.1605,-0.7195],[101.165,-0.717],[101.1705,-0.7145],[101.1785,-0.7065],[101.2075,-0.7055],[101.2185,-0.7005],[101.2285,-0.6805]]]},"properties":{"code":"13.03.06.2005","name":"Sungai Batuang"}},{"type":"Feature","geometry":{"type":"Polygon","coordinates":[[[101.451,-0.8495],[101.43,-0.831],[101.4295,-0.829],[101.41,-0.807],[101.4025,-0.8025],[101.4005,-0.803],[101.395,-0.8335],[101.3805,-0.832],[101.3675,-0.814],[101.3585,-0.8085],[101.328,-0.795],[101.32,-0.8],[101.331,-0.8185],[101.3325,-0.839],[101.343,-0.8485],[101.3395,-0.8615],[101.3435,-0.8735],[101.353,-0.8835],[101.3525,-0.885],[101.36,-0.888],[101.3995,-0.883],[101.4145,-0.8995],[101.415,-0.8995],[101.4255,-0.8985],[101.439,-0.8825],[101.447,-0.8665],[101.4515,-0.8605],[101.453,-0.859],[101.451,-0.8495]]]},"properties":{"code":"13.03.06.2006","name":"Kunangan Parik Rantang"}},{"type":"Feature","geometry":{"type":"Polygon","coordinates":[[[101.3055,-0.628],[101.2935,-0.631],[101.277,-0.622],[101.255,-0.625],[101.247,-0.6475],[101.2285,-0.6805],[101.245,-0.6885],[101.259,-0.6855],[101.277,-0.694],[101.31,-0.6985],[101.323,-0.697],[101.348,-0.6835],[101.3505,-0.6715],[101.358,-0.6685],[101.3575,-0.6575],[101.3455,-0.66],[101.3395,-0.6515],[101.3225,-0.6495],[101.3145,-0.6335],[101.307,-0.629],[101.3055,-0.628]]]},"properties":{"code":"13.03.06.2007","name":"Tanjung Kaliang"}},{"type":"Feature","geometry":{"type":"Polygon","coordinates":[[[101.224,-0.588],[101.218,-0.584],[101.2035,-0.5865],[101.191,-0.5715],[101.1785,-0.5415],[101.1685,-0.541],[101.162,-0.534],[101.152,-0.535],[101.1375,-0.524],[101.1345,-0.522],[101.1255,-0.5385],[101.1235,-0.5435],[101.122,-0.56],[101.1335,-0.5965],[101.145,-0.6115],[101.1725,-0.6315],[101.174,-0.6455],[101.1795,-0.657],[101.182,-0.657],[101.1895,-0.655],[101.215,-0.666],[101.2285,-0.6805],[101.247,-0.6475],[101.255,-0.625],[101.2425,-0.614],[101.2365,-0.598],[101.224,-0.588]]]},"properties":{"code":"13.03.06.2008","name":"Padang Tarok"}},{"type":"Feature","geometry":{"type":"Polygon","coordinates":[[[101.302,-0.824],[101.301,-0.8235],[101.288,-0.816],[101.284,-0.816],[101.276,-0.811],[101.2725,-0.8105],[101.264,-0.8055],[101.261,-0.8045],[101.2605,-0.804],[101.256,-0.8195],[101.2435,-0.847],[101.2365,-0.8655],[101.2325,-0.8805],[101.2425,-0.872],[101.2495,-0.873],[101.251,-0.8735],[101.261,-0.8865],[101.2725,-0.888],[101.2775,-0.8635],[101.2925,-0.846],[101.302,-0.824]]]},"properties":{"code":"13.03.06.2009","name":"Siaur"}},{"type":"Feature","geometry":{"type":"Polygon","coordinates":[[[101.2725,-0.888],[101.261,-0.8865],[101.251,-0.8735],[101.2495,-0.873],[101.2425,-0.872],[101.2325,-0.8805],[101.23,-0.901],[101.21,-0.9095],[101.2095,-0.9105],[101.217,-0.921],[101.2175,-0.921],[101.2255,-0.93],[101.258,-0.9335],[101.273,-0.952],[101.274,-0.9535],[101.2745,-0.955],[101.286,-0.9575],[101.311,-0.951],[101.318,-0.963],[101.319,-0.951],[101.3275,-0.9455],[101.3385,-0.9235],[101.349,-0.9165],[101.341,-0.898],[101.3275,-0.891],[101.2955,-0.8915],[101.2725,-0.888]]]},"properties":{"code":"13.03.06.2010","name":"Lubuk Tarantang"}},{"type":"Feature","geometry":{"type":"Polygon","coordinates":[[[101.338,-0.7585],[101.3325,-0.7475],[101.329,-0.743],[101.3165,-0.733],[101.275,-0.7075],[101.2625,-0.706],[101.247,-0.73],[101.2445,-0.7535],[101.26,-0.766],[101.264,-0.7805],[101.2655,-0.7805],[101.268,-0.7865],[101.271,-0.789],[101.28,-0.7885],[101.292,-0.7775],[101.2965,-0.7765],[101.3235,-0.768],[101.335,-0.76],[101.338,-0.7585]]]},"properties":{"code":"13.03.06.2011","name":"Maloro"}},{"type":"Feature","geometry":{"type":"Polygon","coordinates":[[[101.0115,-0.802],[100.9925,-0.803],[100.983,-0.7985],[100.969,-0.7825],[100.959,-0.7805],[100.9465,-0.785],[100.9395,-0.796],[100.9325,-0.8015],[100.9285,-0.8025],[100.9265,-0.802],[100.926,-0.8055],[100.9255,-0.808],[100.9255,-0.8085],[100.926,-0.8085],[100.949,-0.809],[100.9515,-0.8055],[100.9535,-0.8045],[100.9555,-0.804],[100.9585,-0.803],[100.958,-0.804],[100.9535,-0.8315],[100.9695,-0.8425],[100.995,-0.8545],[100.9935,-0.8705],[101.0005,-0.878],[101.0225,-0.8855],[101.032,-0.8845],[101.0355,-0.884],[101.0345,-0.8805],[101.0335,-0.879],[101.034,-0.875],[101.0235,-0.8565],[101.032,-0.8475],[101.0275,-0.822],[101.037,-0.8145],[101.0335,-0.809],[101.0115,-0.802]]]},"properties":{"code":"13.03.07.2001","name":"Lubuak Tarok"}},{"type":"Feature","geometry":{"type":"Polygon","coordinates":[[[100.9235,-0.728],[100.916,-0.7375],[100.9205,-0.7465],[100.9205,-0.751],[100.9215,-0.753],[100.9225,-0.758],[100.9225,-0.7615],[100.9305,-0.782],[100.927,-0.7995],[100.9265,-0.802],[100.9285,-0.8025],[100.9325,-0.8015],[100.9395,-0.796],[100.9465,-0.785],[100.959,-0.7805],[100.969,-0.7825],[100.983,-0.7985],[100.9925,-0.803],[101.0115,-0.802],[101.0225,-0.7985],[101.0365,-0.787],[101.034,-0.786],[101.0295,-0.777],[101.032,-0.7665],[101.0255,-0.7625],[101.024,-0.756],[101.019,-0.756],[101.0155,-0.7525],[101.0135,-0.75],[101.0135,-0.7495],[101.013,-0.75],[100.979,-0.7435],[100.9735,-0.743],[100.964,-0.741],[100.9525,-0.74],[100.939,-0.741],[100.935,-0.74],[100.9235,-0.728]]]},"properties":{"code":"13.03.07.2002","name":"Lalan"}},{"type":"Feature","geometry":{"type":"Polygon","coordinates":[[[101.098,-0.862],[101.0885,-0.8475],[101.0855,-0.836],[101.0705,-0.84],[101.0565,-0.8395],[101.043,-0.8495],[101.032,-0.8475],[101.0235,-0.8565],[101.034,-0.875],[101.0335,-0.879],[101.0345,-0.8805],[101.0355,-0.884],[101.0405,-0.8825],[101.046,-0.886],[101.055,-0.9075],[101.0605,-0.929],[101.06,-0.93],[101.065,-0.9295],[101.074,-0.9255],[101.0945,-0.902],[101.096,-0.8955],[101.1005,-0.872],[101.098,-0.862]]]},"properties":{"code":"13.03.07.2003","name":"Buluah Kasok"}},{"type":"Feature","geometry":{"type":"Polygon","coordinates":[[[101.0565,-0.8395],[101.057,-0.828],[101.0515,-0.823],[101.044,-0.8175],[101.037,-0.8145],[101.0275,-0.822],[101.032,-0.8475],[101.043,-0.8495],[101.0565,-0.8395]]]},"properties":{"code":"13.03.07.2004","name":"Kampung Dalam"}},{"type":"Feature","geometry":{"type":"Polygon","coordinates":[[[101.061,-0.8095],[101.0405,-0.804],[101.039,-0.804],[101.037,-0.8145],[101.044,-0.8175],[101.0515,-0.823],[101.057,-0.828],[101.0565,-0.8395],[101.0705,-0.84],[101.0855,-0.836],[101.085,-0.8335],[101.069,-0.826],[101.0685,-0.818],[101.0675,-0.8125],[101.0635,-0.8115],[101.061,-0.8095]]]},"properties":{"code":"13.03.07.2005","name":"Silongo"}},{"type":"Feature","geometry":{"type":"Polygon","coordinates":[[[101.061,-0.8095],[101.056,-0.8065],[101.0405,-0.788],[101.0365,-0.787],[101.0225,-0.7985],[101.0115,-0.802],[101.0335,-0.809],[101.037,-0.8145],[101.039,-0.804],[101.0405,-0.804],[101.061,-0.8095]]]},"properties":{"code":"13.03.07.2006","name":"Latang"}},{"type":"Feature","geometry":{"type":"Polygon","coordinates":[[[100.8325,-0.598],[100.831,-0.6005],[100.8105,-0.5975],[100.804,-0.5925],[100.8025,-0.593],[100.801,-0.5955],[100.799,-0.597],[100.8085,-0.62],[100.8095,-0.623],[100.796,-0.6475],[100.7975,-0.659],[100.7965,-0.66],[100.7965,-0.6605],[100.804,-0.6625],[100.817,-0.666],[100.831,-0.6575],[100.837,-0.659],[100.8455,-0.674],[100.87,-0.6815],[100.872,-0.678],[100.8735,-0.658],[100.8745,-0.6575],[100.8745,-0.655],[100.8815,-0.644],[100.885,-0.644],[100.893,-0.644],[100.894,-0.643],[100.883,-0.6335],[100.882,-0.631],[100.8815,-0.6265],[100.882,-0.625],[100.8815,-0.624],[100.8795,-0.6245],[100.862,-0.6235],[100.8615,-0.624],[100.861,-0.625],[100.858,-0.6265],[100.846,-0.632],[100.8395,-0.635],[100.824,-0.6295],[100.8285,-0.617],[100.838,-0.6165],[100.835,-0.608],[100.8355,-0.604],[100.834,-0.602],[100.833,-0.5985],[100.8325,-0.598]]]},"properties":{"code":"13.03.08.2001","name":"Limo Koto"}},{"type":"Feature","geometry":{"type":"Polygon","coordinates":[[[100.8525,-0.595],[100.8515,-0.595],[100.842,-0.587],[100.833,-0.597],[100.8325,-0.598],[100.833,-0.5985],[100.834,-0.602],[100.8355,-0.604],[100.835,-0.608],[100.838,-0.6165],[100.8445,-0.618],[100.846,-0.632],[100.858,-0.6265],[100.861,-0.625],[100.8615,-0.624],[100.862,-0.6225],[100.863,-0.6195],[100.8605,-0.616],[100.8585,-0.613],[100.855,-0.605],[100.8545,-0.603],[100.8535,-0.599],[100.8525,-0.595]]]},"properties":{"code":"13.03.08.2002","name":"Palaluar"}},{"type":"Feature","geometry":{"type":"Polygon","coordinates":[[[100.8855,-0.559],[100.8845,-0.5585],[100.8775,-0.5575],[100.8765,-0.5595],[100.848,-0.5665],[100.8345,-0.5705],[100.8135,-0.583],[100.812,-0.585],[100.8115,-0.5855],[100.8045,-0.592],[100.804,-0.5925],[100.8105,-0.5975],[100.831,-0.6005],[100.833,-0.597],[100.842,-0.587],[100.8515,-0.595],[100.8535,-0.5945],[100.8585,-0.594],[100.8615,-0.595],[100.8725,-0.5835],[100.8735,-0.5835],[100.8765,-0.5705],[100.88,-0.564],[100.8825,-0.5625],[100.8855,-0.559]]]},"properties":{"code":"13.03.08.2003","name":"Guguak"}},{"type":"Feature","geometry":{"type":"Polygon","coordinates":[[[100.963,-0.6145],[100.956,-0.611],[100.941,-0.6085],[100.9225,-0.594],[100.9115,-0.591],[100.9095,-0.5905],[100.9075,-0.597],[100.8875,-0.5945],[100.8855,-0.5985],[100.8835,-0.6185],[100.882,-0.624],[100.8815,-0.624],[100.882,-0.625],[100.8815,-0.6265],[100.882,-0.631],[100.883,-0.6335],[100.894,-0.643],[100.893,-0.644],[100.885,-0.644],[100.8815,-0.644],[100.8745,-0.655],[100.8745,-0.6575],[100.878,-0.657],[100.892,-0.6615],[100.907,-0.66],[100.907,-0.6595],[100.9085,-0.6565],[100.906,-0.65],[100.905,-0.6485],[100.905,-0.648],[100.9045,-0.647],[100.901,-0.6375],[100.9025,-0.634],[100.914,-0.6175],[100.9325,-0.6215],[100.936,-0.6425],[100.9525,-0.637],[100.9585,-0.633],[100.9615,-0.6265],[100.964,-0.6185],[100.963,-0.6145]]]},"properties":{"code":"13.03.08.2004","name":"Padang Laweh"}},{"type":"Feature","geometry":{"type":"Polygon","coordinates":[[[100.9095,-0.5905],[100.908,-0.588],[100.898,-0.563],[100.887,-0.5595],[100.8855,-0.559],[100.8825,-0.5625],[100.88,-0.564],[100.8765,-0.5705],[100.8735,-0.5835],[100.8725,-0.5835],[100.8615,-0.595],[100.8585,-0.594],[100.8535,-0.5945],[100.8525,-0.595],[100.8535,-0.599],[100.8545,-0.603],[100.855,-0.605],[100.8585,-0.613],[100.8605,-0.616],[100.863,-0.6195],[100.862,-0.6225],[100.862,-0.6235],[100.8795,-0.6245],[100.882,-0.624],[100.8835,-0.6185],[100.8855,-0.5985],[100.8875,-0.5945],[100.9075,-0.597],[100.9095,-0.5905]]]},"properties":{"code":"13.03.08.2005","name":"Tanjung"}},{"type":"Feature","geometry":{"type":"Polygon","coordinates":[[[100.846,-0.632],[100.8445,-0.618],[100.838,-0.6165],[100.8285,-0.617],[100.824,-0.6295],[100.8395,-0.635],[100.846,-0.632]]]},"properties":{"code":"13.03.08.2006","name":"Bukit Bual"}},{"type":"Feature","geometry":{"type":"Polygon","coordinates":[[[100.936,-0.6425],[100.9325,-0.6215],[100.914,-0.6175],[100.9025,-0.634],[100.901,-0.6375],[100.9045,-0.647],[100.905,-0.648],[100.905,-0.6485],[100.906,-0.65],[100.9085,-0.6565],[100.907,-0.6595],[100.907,-0.66],[100.898,-0.671],[100.901,-0.679],[100.8995,-0.6815],[100.9005,-0.6825],[100.91,-0.683],[100.9145,-0.6835],[100.9165,-0.6835],[100.9185,-0.6815],[100.9185,-0.681],[100.919,-0.68],[100.9195,-0.68],[100.921,-0.6775],[100.9175,-0.6785],[100.919,-0.6585],[100.9275,-0.657],[100.936,-0.6425]]]},"properties":{"code":"13.03.08.2007","name":"Padang Laweh Selatan"}},{"type":"Feature","geometry":{"type":"Polygon","coordinates":[[[100.982,-0.3905],[100.9765,-0.3905],[100.968,-0.39],[100.946,-0.3885],[100.9165,-0.3985],[100.8955,-0.403],[100.8785,-0.403],[100.834,-0.397],[100.83,-0.3985],[100.8295,-0.401],[100.844,-0.419],[100.844,-0.4205],[100.8465,-0.422],[100.849,-0.425],[100.8505,-0.4255],[100.876,-0.4195],[100.9175,-0.422],[100.924,-0.422],[100.9305,-0.4195],[100.945,-0.4195],[100.975,-0.4285],[100.9765,-0.422],[100.98,-0.4115],[100.981,-0.405],[100.9805,-0.3965],[100.982,-0.3905]]]},"properties":{"code":"13.03.09.2001","name":"Silantai"}},{"type":"Feature","geometry":{"type":"Polygon","coordinates":[[[100.985,-0.5195],[100.9655,-0.5155],[100.9615,-0.514],[100.956,-0.51],[100.9555,-0.5095],[100.952,-0.506],[100.949,-0.5045],[100.942,-0.5055],[100.929,-0.508],[100.9045,-0.5345],[100.8955,-0.54],[100.882,-0.54],[100.8775,-0.557],[100.8775,-0.5575],[100.8845,-0.5585],[100.887,-0.5595],[100.898,-0.563],[100.908,-0.588],[100.9115,-0.591],[100.9225,-0.594],[100.941,-0.6085],[100.956,-0.611],[100.963,-0.6145],[100.9625,-0.6125],[100.9625,-0.596],[100.97,-0.5915],[100.974,-0.591],[100.98,-0.5915],[100.984,-0.5905],[100.9905,-0.5885],[100.983,-0.5775],[100.984,-0.5555],[100.972,-0.545],[100.9725,-0.5405],[100.9735,-0.537],[100.975,-0.533],[100.9775,-0.529],[100.979,-0.5265],[100.985,-0.5195]]]},"properties":{"code":"13.03.09.2002","name":"Sisawah"}},{"type":"Feature","geometry":{"type":"Polygon","coordinates":[[[100.9965,-0.3185],[100.978,-0.314],[100.968,-0.318],[100.9615,-0.313],[100.9325,-0.3155],[100.915,-0.3245],[100.9015,-0.325],[100.8825,-0.34],[100.87,-0.344],[100.8615,-0.3325],[100.8515,-0.342],[100.848,-0.343],[100.8385,-0.352],[100.835,-0.353],[100.825,-0.3525],[100.8245,-0.3525],[100.825,-0.3525],[100.8265,-0.3545],[100.83,-0.3585],[100.8295,-0.359],[100.8285,-0.363],[100.832,-0.366],[100.8355,-0.3955],[100.834,-0.397],[100.8785,-0.403],[100.8955,-0.403],[100.9165,-0.3985],[100.946,-0.3885],[100.968,-0.39],[100.9765,-0.3905],[100.982,-0.3905],[100.982,-0.39],[100.979,-0.365],[100.983,-0.352],[100.9885,-0.343],[100.991,-0.34],[100.996,-0.336],[100.9985,-0.3345],[101.0015,-0.33],[101.0025,-0.328],[101.0045,-0.325],[101.0035,-0.324],[100.9965,-0.3185]]]},"properties":{"code":"13.03.09.2003","name":"Unggan"}},{"type":"Feature","geometry":{"type":"Polygon","coordinates":[[[100.8345,-0.5455],[100.846,-0.538],[100.845,-0.5245],[100.836,-0.5115],[100.842,-0.499],[100.8375,-0.4925],[100.8325,-0.495],[100.8225,-0.5045],[100.8215,-0.505],[100.821,-0.505],[100.819,-0.5055],[100.8185,-0.5245],[100.8175,-0.5255],[100.816,-0.5255],[100.815,-0.527],[100.814,-0.5365],[100.814,-0.5405],[100.826,-0.538],[100.8345,-0.5455]]]},"properties":{"code":"13.03.09.2004","name":"Tanjung Bonai Aur"}},{"type":"Feature","geometry":{"type":"Polygon","coordinates":[[[100.921,-0.422],[100.9175,-0.422],[100.876,-0.4195],[100.8505,-0.4255],[100.849,-0.425],[100.8465,-0.422],[100.844,-0.4205],[100.8445,-0.422],[100.847,-0.425],[100.845,-0.439],[100.842,-0.444],[100.8415,-0.447],[100.8415,-0.458],[100.835,-0.468],[100.838,-0.483],[100.8355,-0.483],[100.833,-0.4815],[100.827,-0.4825],[100.821,-0.492],[100.823,-0.49],[100.8315,-0.4945],[100.8325,-0.495],[100.836,-0.491],[100.837,-0.4905],[100.846,-0.4875],[100.8485,-0.4875],[100.8445,-0.472],[100.8455,-0.469],[100.8585,-0.4525],[100.8695,-0.453],[100.8705,-0.4645],[100.881,-0.472],[100.886,-0.4705],[100.8965,-0.47],[100.9065,-0.459],[100.924,-0.4555],[100.9305,-0.4525],[100.9345,-0.452],[100.9405,-0.4505],[100.9385,-0.447],[100.9365,-0.443],[100.93,-0.4295],[100.9285,-0.4285],[100.926,-0.426],[100.921,-0.422]]]},"properties":{"code":"13.03.09.2005","name":"Sumpur Kudus"}},{"type":"Feature","geometry":{"type":"Polygon","coordinates":[[[100.929,-0.508],[100.9025,-0.495],[100.892,-0.482],[100.8835,-0.4795],[100.883,-0.4805],[100.882,-0.481],[100.88,-0.4855],[100.878,-0.4895],[100.8775,-0.4925],[100.88,-0.4985],[100.869,-0.51],[100.871,-0.5205],[100.882,-0.54],[100.8955,-0.54],[100.9045,-0.5345],[100.929,-0.508]]]},"properties":{"code":"13.03.09.2006","name":"Tamparungo"}},{"type":"Feature","geometry":{"type":"Polygon","coordinates":[[[100.8345,-0.5455],[100.826,-0.538],[100.814,-0.5405],[100.8135,-0.542],[100.804,-0.564],[100.8035,-0.566],[100.804,-0.5665],[100.8125,-0.579],[100.8135,-0.583],[100.8345,-0.5705],[100.848,-0.5665],[100.8385,-0.562],[100.8345,-0.5455]]]},"properties":{"code":"13.03.09.2007","name":"Kumanis"}},{"type":"Feature","geometry":{"type":"Polygon","coordinates":[[[100.975,-0.4285],[100.945,-0.4195],[100.9305,-0.4195],[100.924,-0.422],[100.921,-0.422],[100.926,-0.426],[100.9285,-0.4285],[100.93,-0.4295],[100.9365,-0.443],[100.9385,-0.447],[100.9425,-0.454],[100.9445,-0.4585],[100.947,-0.474],[100.946,-0.4755],[100.9425,-0.478],[100.935,-0.482],[100.9355,-0.4945],[100.9445,-0.505],[100.949,-0.5045],[100.952,-0.506],[100.9555,-0.5095],[100.956,-0.51],[100.9615,-0.514],[100.9655,-0.5155],[100.985,-0.5195],[100.9865,-0.5195],[100.9915,-0.5055],[100.992,-0.4745],[100.984,-0.462],[100.975,-0.429],[100.975,-0.4285]]]},"properties":{"code":"13.03.09.2008","name":"Manganti"}},{"type":"Feature","geometry":{"type":"Polygon","coordinates":[[[100.9445,-0.505],[100.9355,-0.4945],[100.935,-0.482],[100.9425,-0.478],[100.946,-0.4755],[100.947,-0.474],[100.9445,-0.4585],[100.9405,-0.4505],[100.9345,-0.452],[100.9305,-0.4525],[100.924,-0.4555],[100.9065,-0.459],[100.8965,-0.47],[100.884,-0.4785],[100.8835,-0.4795],[100.892,-0.482],[100.9025,-0.495],[100.929,-0.508],[100.942,-0.5055],[100.9445,-0.505]]]},"properties":{"code":"13.03.09.2009","name":"Sumpur Kudus Selatan"}},{"type":"Feature","geometry":{"type":"Polygon","coordinates":[[[100.8965,-0.47],[100.886,-0.4705],[100.881,-0.472],[100.8705,-0.4645],[100.8695,-0.453],[100.8585,-0.4525],[100.8455,-0.469],[100.8445,-0.472],[100.8485,-0.4875],[100.8585,-0.506],[100.869,-0.51],[100.88,-0.4985],[100.8775,-0.4925],[100.878,-0.4895],[100.88,-0.4855],[100.882,-0.481],[100.883,-0.4805],[100.884,-0.4785],[100.8965,-0.47]]]},"properties":{"code":"13.03.09.2010","name":"Tanjung Labuah"}},{"type":"Feature","geometry":{"type":"Polygon","coordinates":[[[100.8485,-0.4875],[100.846,-0.4875],[100.837,-0.4905],[100.836,-0.491],[100.8375,-0.4925],[100.842,-0.499],[100.836,-0.5115],[100.845,-0.5245],[100.846,-0.538],[100.8345,-0.5455],[100.8385,-0.562],[100.848,-0.5665],[100.8765,-0.5595],[100.8775,-0.557],[100.882,-0.54],[100.871,-0.5205],[100.869,-0.51],[100.8585,-0.506],[100.8485,-0.4875]]]},"properties":{"code":"13.03.09.2011","name":"Tanjung Bonai Aur Selatan"}},{"type":"Feature","geometry":{"type":"Polygon","coordinates":[[[100.8405,-0.7405],[100.8355,-0.747],[100.835,-0.7475],[100.834,-0.747],[100.8335,-0.746],[100.811,-0.7405],[100.812,-0.744],[100.8145,-0.7455],[100.8175,-0.7505],[100.822,-0.765],[100.8215,-0.7665],[100.819,-0.7665],[100.818,-0.7675],[100.812,-0.7675],[100.8115,-0.77],[100.8095,-0.773],[100.83,-0.787],[100.833,-0.788],[100.842,-0.788],[100.8445,-0.7875],[100.8485,-0.784],[100.852,-0.785],[100.8515,-0.7625],[100.849,-0.751],[100.8405,-0.7405]]]},"properties":{"code":"13.03.10.2001","name":"Batu Manjulur"}},{"type":"Feature","geometry":{"type":"Polygon","coordinates":[[[100.87,-0.6815],[100.8455,-0.674],[100.837,-0.659],[100.831,-0.6575],[100.817,-0.666],[100.804,-0.6625],[100.7965,-0.6605],[100.7965,-0.6625],[100.789,-0.6705],[100.7895,-0.673],[100.79,-0.678],[100.7895,-0.679],[100.7915,-0.6815],[100.7945,-0.683],[100.796,-0.689],[100.7955,-0.6915],[100.794,-0.696],[100.7965,-0.6965],[100.7995,-0.695],[100.809,-0.6905],[100.8385,-0.6935],[100.854,-0.7025],[100.866,-0.704],[100.871,-0.699],[100.87,-0.683],[100.87,-0.6815]]]},"properties":{"code":"13.03.10.2002","name":"Pamuatan"}},{"type":"Feature","geometry":{"type":"Polygon","coordinates":[[[100.866,-0.704],[100.854,-0.7025],[100.8385,-0.6935],[100.809,-0.6905],[100.7995,-0.695],[100.7965,-0.6965],[100.794,-0.696],[100.794,-0.6965],[100.7965,-0.6975],[100.803,-0.7055],[100.804,-0.7095],[100.8,-0.7175],[100.8035,-0.7195],[100.8045,-0.7225],[100.805,-0.723],[100.8055,-0.722],[100.8075,-0.7195],[100.807,-0.7175],[100.814,-0.7085],[100.8335,-0.709],[100.8375,-0.7215],[100.8495,-0.723],[100.866,-0.704]]]},"properties":{"code":"13.03.10.2003","name":"Padang Sibusuk"}},{"type":"Feature","geometry":{"type":"MultiPolygon","coordinates":[[[[100.818,-0.7675],[100.819,-0.7665],[100.8215,-0.7665],[100.822,-0.765],[100.8175,-0.7505],[100.8145,-0.7455],[100.812,-0.744],[100.81,-0.7435],[100.808,-0.755],[100.807,-0.7575],[100.8115,-0.7665],[100.812,-0.7675],[100.818,-0.7675]]],[[[100.8495,-0.723],[100.8375,-0.7215],[100.8335,-0.709],[100.814,-0.7085],[100.807,-0.7175],[100.8075,-0.7195],[100.8055,-0.722],[100.805,-0.723],[100.806,-0.7245],[100.812,-0.7355],[100.811,-0.7405],[100.8335,-0.746],[100.834,-0.747],[100.835,-0.7475],[100.8355,-0.747],[100.8405,-0.7405],[100.8475,-0.7335],[100.851,-0.729],[100.8495,-0.723]]]]},"properties":{"code":"13.03.10.2004","name":"Desa Kampung Baru"}}]}