{"type":"FeatureCollection","features":[{"type":"Feature","geometry":{"type":"Polygon","coordinates":[[[101.2475,-1.435],[101.2435,-1.4305],[101.2145,-1.4175],[101.205,-1.425],[101.2045,-1.4275],[101.1915,-1.442],[101.1905,-1.4525],[101.182,-1.466],[101.198,-1.4735],[101.1835,-1.492],[101.1835,-1.4935],[101.1855,-1.4995],[101.192,-1.512],[101.1815,-1.5255],[101.1905,-1.5265],[101.1975,-1.535],[101.1975,-1.5485],[101.205,-1.553],[101.2165,-1.5475],[101.227,-1.549],[101.237,-1.559],[101.2375,-1.573],[101.2455,-1.581],[101.2485,-1.5935],[101.246,-1.605],[101.2595,-1.6175],[101.255,-1.624],[101.2625,-1.658],[101.265,-1.6775],[101.26,-1.689],[101.266,-1.696],[101.27,-1.6955],[101.2785,-1.682],[101.2925,-1.6695],[101.297,-1.6535],[101.2945,-1.638],[101.304,-1.6335],[101.3005,-1.616],[101.3045,-1.5975],[101.3125,-1.5855],[101.306,-1.58],[101.29,-1.5945],[101.289,-1.5945],[101.287,-1.5945],[101.2835,-1.591],[101.2825,-1.5895],[101.2845,-1.5725],[101.282,-1.5705],[101.265,-1.575],[101.263,-1.564],[101.259,-1.5575],[101.2625,-1.5555],[101.2625,-1.5565],[101.2685,-1.5495],[101.269,-1.5495],[101.2765,-1.533],[101.275,-1.532],[101.2635,-1.525],[101.2515,-1.5035],[101.2515,-1.5025],[101.2575,-1.494],[101.251,-1.4745],[101.246,-1.451],[101.2475,-1.435]]]},"properties":{"code":"13.11.01.2001","name":"Lubuk Gadang"}},{"type":"Feature","geometry":{"type":"Polygon","coordinates":[[[101.383,-1.5185],[101.372,-1.521],[101.372,-1.5215],[101.3715,-1.5215],[101.3625,-1.5215],[101.356,-1.538],[101.343,-1.5425],[101.3075,-1.5385],[101.302,-1.547],[101.2845,-1.548],[101.2735,-1.5555],[101.273,-1.555],[101.273,-1.553],[101.2725,-1.552],[101.2695,-1.5495],[101.2685,-1.5495],[101.2625,-1.5565],[101.2625,-1.5555],[101.259,-1.5575],[101.263,-1.564],[101.265,-1.575],[101.282,-1.5705],[101.2845,-1.5725],[101.2825,-1.5895],[101.2835,-1.591],[101.287,-1.5945],[101.289,-1.5945],[101.29,-1.5945],[101.306,-1.58],[101.3125,-1.5855],[101.3045,-1.5975],[101.3005,-1.616],[101.304,-1.6335],[101.2945,-1.638],[101.297,-1.6535],[101.2925,-1.6695],[101.2785,-1.682],[101.27,-1.6955],[101.272,-1.6955],[101.279,-1.6965],[101.288,-1.6975],[101.307,-1.701],[101.3135,-1.6995],[101.3225,-1.694],[101.3275,-1.6955],[101.3335,-1.684],[101.3365,-1.6805],[101.3685,-1.6795],[101.373,-1.6755],[101.3875,-1.688],[101.3925,-1.69],[101.4015,-1.686],[101.403,-1.6835],[101.4025,-1.68],[101.403,-1.679],[101.4025,-1.6785],[101.402,-1.678],[101.3985,-1.6755],[101.3925,-1.665],[101.385,-1.6605],[101.3815,-1.6355],[101.3815,-1.6065],[101.382,-1.6035],[101.383,-1.5995],[101.3985,-1.5845],[101.3975,-1.583],[101.401,-1.576],[101.4025,-1.575],[101.402,-1.5735],[101.4035,-1.571],[101.4035,-1.569],[101.4025,-1.5695],[101.403,-1.5545],[101.4105,-1.54],[101.412,-1.54],[101.411,-1.539],[101.413,-1.537],[101.412,-1.5355],[101.411,-1.5355],[101.4075,-1.5345],[101.405,-1.534],[101.4045,-1.534],[101.402,-1.534],[101.4,-1.5345],[101.3835,-1.527],[101.384,-1.526],[101.3845,-1.52],[101.383,-1.5185]]]},"properties":{"code":"13.11.01.2002","name":"Lubuk Gadang Timur"}},{"type":"Feature","geometry":{"type":"Polygon","coordinates":[[[101.266,-1.696],[101.26,-1.689],[101.265,-1.6775],[101.2625,-1.658],[101.255,-1.624],[101.2595,-1.6175],[101.246,-1.605],[101.2485,-1.5935],[101.2455,-1.581],[101.2375,-1.573],[101.237,-1.559],[101.227,-1.549],[101.2165,-1.5475],[101.205,-1.553],[101.1975,-1.5485],[101.1975,-1.535],[101.1905,-1.5265],[101.1815,-1.5255],[101.1695,-1.5305],[101.163,-1.542],[101.1625,-1.5445],[101.154,-1.5765],[101.153,-1.578],[101.1535,-1.5805],[101.1595,-1.5875],[101.1495,-1.608],[101.1485,-1.611],[101.1475,-1.6135],[101.1485,-1.615],[101.1485,-1.616],[101.146,-1.632],[101.146,-1.636],[101.147,-1.666],[101.1405,-1.6825],[101.1385,-1.6855],[101.1395,-1.686],[101.169,-1.7105],[101.1835,-1.693],[101.1945,-1.685],[101.197,-1.71],[101.208,-1.722],[101.23,-1.7235],[101.2325,-1.7215],[101.2445,-1.719],[101.253,-1.714],[101.256,-1.7105],[101.2575,-1.7065],[101.263,-1.698],[101.2655,-1.696],[101.266,-1.696]]]},"properties":{"code":"13.11.01.2003","name":"Lubuk Gadang Selatan"}},{"type":"Feature","geometry":{"type":"Polygon","coordinates":[[[101.372,-1.521],[101.37,-1.521],[101.3595,-1.511],[101.345,-1.5125],[101.3285,-1.5035],[101.2995,-1.4985],[101.291,-1.4875],[101.2915,-1.4605],[101.2785,-1.456],[101.259,-1.4345],[101.2475,-1.435],[101.246,-1.451],[101.251,-1.4745],[101.2575,-1.494],[101.2515,-1.5025],[101.2515,-1.5035],[101.2635,-1.525],[101.275,-1.532],[101.2765,-1.533],[101.269,-1.5495],[101.2695,-1.5495],[101.2725,-1.552],[101.273,-1.553],[101.273,-1.555],[101.2735,-1.5555],[101.2845,-1.548],[101.302,-1.547],[101.3075,-1.5385],[101.343,-1.5425],[101.356,-1.538],[101.3625,-1.5215],[101.3715,-1.5215],[101.372,-1.521]]]},"properties":{"code":"13.11.01.2004","name":"Lubuk Gadang Utara"}},{"type":"Feature","geometry":{"type":"Polygon","coordinates":[[[101.0325,-1.464],[101.0325,-1.4635],[101.0335,-1.462],[101.0345,-1.4585],[101.034,-1.4555],[101.032,-1.4525],[101.032,-1.4515],[101.0315,-1.4505],[101.031,-1.4515],[101.03,-1.4515],[101.015,-1.4545],[100.9855,-1.4785],[100.984,-1.479],[100.9775,-1.4815],[100.9755,-1.4825],[100.9785,-1.489],[100.9785,-1.4895],[100.9815,-1.49],[100.9945,-1.4865],[101.0185,-1.476],[101.0325,-1.464]]]},"properties":{"code":"13.11.02.2001","name":"Pasir Talang"}},{"type":"Feature","geometry":{"type":"Polygon","coordinates":[[[101.2025,-1.426],[101.1915,-1.4275],[101.1775,-1.439],[101.129,-1.449],[101.0905,-1.4675],[101.0825,-1.4705],[101.061,-1.475],[101.059,-1.481],[101.058,-1.4815],[101.052,-1.486],[101.051,-1.4875],[101.051,-1.489],[101.0525,-1.489],[101.0645,-1.4965],[101.088,-1.482],[101.124,-1.465],[101.149,-1.467],[101.162,-1.4715],[101.1655,-1.4665],[101.175,-1.4585],[101.1985,-1.4285],[101.2025,-1.426]]]},"properties":{"code":"13.11.02.2002","name":"Koto Baru"}},{"type":"Feature","geometry":{"type":"Polygon","coordinates":[[[101.051,-1.489],[101.051,-1.4875],[101.052,-1.486],[101.058,-1.4815],[101.057,-1.4815],[101.053,-1.4845],[101.0515,-1.4855],[101.05,-1.483],[101.047,-1.4825],[101.038,-1.4955],[101.0195,-1.5095],[100.988,-1.5295],[100.989,-1.529],[101.004,-1.5505],[101.0075,-1.5515],[101.044,-1.499],[101.0505,-1.497],[101.05,-1.496],[101.0505,-1.489],[101.051,-1.489]]]},"properties":{"code":"13.11.02.2004","name":"Sako Pasia Talang"}},{"type":"Feature","geometry":{"type":"Polygon","coordinates":[[[101.088,-1.4685],[101.0865,-1.468],[101.083,-1.468],[101.0765,-1.4685],[101.0655,-1.4705],[101.051,-1.4835],[101.05,-1.483],[101.0515,-1.4855],[101.053,-1.4845],[101.057,-1.4815],[101.059,-1.481],[101.061,-1.475],[101.0825,-1.4705],[101.088,-1.4685]]]},"properties":{"code":"13.11.02.2005","name":"Pasar Muara Labuh"}},{"type":"Feature","geometry":{"type":"Polygon","coordinates":[[[101.162,-1.4715],[101.149,-1.467],[101.124,-1.465],[101.088,-1.482],[101.0645,-1.4965],[101.0745,-1.5115],[101.0805,-1.513],[101.0845,-1.513],[101.092,-1.511],[101.106,-1.499],[101.126,-1.489],[101.133,-1.4755],[101.1645,-1.478],[101.162,-1.4715]]]},"properties":{"code":"13.11.02.2006","name":"Pulakek Koto Baru"}},{"type":"Feature","geometry":{"type":"Polygon","coordinates":[[[101.0645,-1.4965],[101.0525,-1.489],[101.0505,-1.489],[101.05,-1.496],[101.051,-1.4995],[101.056,-1.5095],[101.0525,-1.523],[101.0575,-1.52],[101.0625,-1.5135],[101.068,-1.5095],[101.0745,-1.5115],[101.0645,-1.4965]]]},"properties":{"code":"13.11.02.2007","name":"Bomas"}},{"type":"Feature","geometry":{"type":"Polygon","coordinates":[[[101.037,-1.479],[100.9945,-1.4935],[100.985,-1.4945],[100.9795,-1.496],[100.977,-1.4965],[100.9755,-1.497],[100.9815,-1.5055],[100.979,-1.519],[100.987,-1.5295],[100.988,-1.5295],[101.0195,-1.5095],[101.038,-1.4955],[101.047,-1.4825],[101.04,-1.482],[101.037,-1.479]]]},"properties":{"code":"13.11.02.2008","name":"Sako Utara Pasia Talang"}},{"type":"Feature","geometry":{"type":"Polygon","coordinates":[[[101.0525,-1.523],[101.056,-1.5095],[101.051,-1.4995],[101.0505,-1.497],[101.044,-1.499],[101.0075,-1.5515],[101.008,-1.552],[101.0085,-1.555],[101.02,-1.5645],[101.014,-1.59],[101.014,-1.5905],[101.021,-1.586],[101.0395,-1.553],[101.0365,-1.5425],[101.0525,-1.525],[101.0525,-1.523]]]},"properties":{"code":"13.11.02.2009","name":"Sako Selatan Pasia Talang"}},{"type":"Feature","geometry":{"type":"Polygon","coordinates":[[[101.044,-1.471],[101.034,-1.465],[101.0325,-1.464],[101.0185,-1.476],[100.9945,-1.4865],[100.9815,-1.49],[100.9785,-1.4895],[100.977,-1.4925],[100.9755,-1.497],[100.977,-1.4965],[100.9795,-1.496],[100.985,-1.4945],[100.9945,-1.4935],[101.037,-1.479],[101.04,-1.476],[101.0425,-1.474],[101.044,-1.471]]]},"properties":{"code":"13.11.02.2010","name":"Pasir Talang Barat"}},{"type":"Feature","geometry":{"type":"Polygon","coordinates":[[[101.202,-1.37],[101.1725,-1.364],[101.1525,-1.3625],[101.123,-1.368],[101.1045,-1.3685],[101.095,-1.3735],[101.076,-1.3755],[101.0725,-1.3915],[101.077,-1.403],[101.066,-1.4105],[101.0545,-1.4055],[101.048,-1.4155],[101.045,-1.4175],[101.045,-1.4215],[101.0435,-1.426],[101.044,-1.434],[101.035,-1.447],[101.0345,-1.4475],[101.0335,-1.449],[101.0325,-1.4495],[101.032,-1.45],[101.0315,-1.4505],[101.032,-1.4515],[101.032,-1.4525],[101.034,-1.4555],[101.0345,-1.4585],[101.0335,-1.462],[101.0325,-1.4635],[101.034,-1.465],[101.044,-1.471],[101.045,-1.4665],[101.0465,-1.464],[101.0485,-1.4615],[101.053,-1.457],[101.0705,-1.4485],[101.125,-1.432],[101.1925,-1.415],[101.203,-1.411],[101.211,-1.408],[101.211,-1.4075],[101.2085,-1.406],[101.1995,-1.3945],[101.202,-1.37]]]},"properties":{"code":"13.11.02.2011","name":"Pasir Talang Timur"}},{"type":"Feature","geometry":{"type":"Polygon","coordinates":[[[101.203,-1.4255],[101.202,-1.4255],[101.211,-1.409],[101.211,-1.408],[101.203,-1.411],[101.1925,-1.415],[101.125,-1.432],[101.0705,-1.4485],[101.053,-1.457],[101.0485,-1.4615],[101.0465,-1.464],[101.045,-1.4665],[101.044,-1.471],[101.0425,-1.474],[101.04,-1.476],[101.037,-1.479],[101.04,-1.482],[101.047,-1.4825],[101.051,-1.4835],[101.0655,-1.4705],[101.0765,-1.4685],[101.083,-1.468],[101.0865,-1.468],[101.088,-1.4685],[101.0905,-1.4675],[101.129,-1.449],[101.1775,-1.439],[101.1915,-1.4275],[101.2025,-1.426],[101.203,-1.4255]]]},"properties":{"code":"13.11.02.2012","name":"Pasir Talang Selatan"}},{"type":"Feature","geometry":{"type":"Polygon","coordinates":[[[101.045,-1.4175],[101.0445,-1.4175],[101.033,-1.409],[101.0255,-1.419],[101.0155,-1.421],[101.013,-1.4315],[101.002,-1.4405],[100.982,-1.4505],[100.9745,-1.45],[100.9555,-1.46],[100.945,-1.471],[100.949,-1.4735],[100.9575,-1.4795],[100.9595,-1.4805],[100.9755,-1.4825],[100.9775,-1.4815],[100.984,-1.479],[100.9855,-1.4785],[101.015,-1.4545],[101.03,-1.4515],[101.031,-1.4515],[101.032,-1.45],[101.0325,-1.4495],[101.0335,-1.449],[101.0345,-1.4475],[101.035,-1.447],[101.044,-1.434],[101.0435,-1.426],[101.045,-1.4215],[101.045,-1.4175]]]},"properties":{"code":"13.11.03.2001","name":"Pakan Rabaa"}},{"type":"Feature","geometry":{"type":"Polygon","coordinates":[[[101.18,-1.299],[101.176,-1.3005],[101.1645,-1.3035],[101.1535,-1.296],[101.119,-1.2995],[101.1065,-1.2935],[101.0975,-1.301],[101.084,-1.2975],[101.0725,-1.2845],[101.055,-1.281],[101.0425,-1.275],[101.034,-1.277],[101.0035,-1.2595],[101.003,-1.2795],[101.0065,-1.2855],[101.005,-1.3],[101,-1.306],[100.9835,-1.313],[100.9695,-1.2965],[100.947,-1.287],[100.943,-1.285],[100.955,-1.302],[100.96,-1.32],[100.9575,-1.327],[100.9805,-1.362],[100.992,-1.3705],[101.007,-1.375],[101.033,-1.409],[101.0445,-1.4175],[101.048,-1.4155],[101.0545,-1.4055],[101.066,-1.4105],[101.077,-1.403],[101.0725,-1.3915],[101.076,-1.3755],[101.095,-1.3735],[101.1045,-1.3685],[101.123,-1.368],[101.1525,-1.3625],[101.156,-1.3445],[101.171,-1.319],[101.181,-1.305],[101.1815,-1.303],[101.18,-1.299]]]},"properties":{"code":"13.11.03.2002","name":"Pakan Rabaa Timur"}},{"type":"Feature","geometry":{"type":"Polygon","coordinates":[[[100.943,-1.285],[100.942,-1.2845],[100.918,-1.288],[100.9105,-1.2905],[100.8945,-1.304],[100.893,-1.3115],[100.8925,-1.323],[100.893,-1.3255],[100.8895,-1.3395],[100.9065,-1.3705],[100.8965,-1.378],[100.893,-1.3905],[100.9005,-1.398],[100.9175,-1.402],[100.9325,-1.421],[100.9505,-1.3995],[100.971,-1.3825],[100.986,-1.3745],[100.99,-1.3725],[100.992,-1.3705],[100.9805,-1.362],[100.9575,-1.327],[100.96,-1.32],[100.955,-1.302],[100.943,-1.285]]]},"properties":{"code":"13.11.03.2003","name":"Pakan Rabaa Utara"}},{"type":"Feature","geometry":{"type":"Polygon","coordinates":[[[101.033,-1.409],[101.007,-1.375],[100.992,-1.3705],[100.99,-1.3725],[100.986,-1.3745],[100.971,-1.3825],[100.9505,-1.3995],[100.9325,-1.421],[100.939,-1.431],[100.9385,-1.4455],[100.935,-1.46],[100.945,-1.471],[100.9555,-1.46],[100.9745,-1.45],[100.982,-1.4505],[101.002,-1.4405],[101.013,-1.4315],[101.0155,-1.421],[101.0255,-1.419],[101.033,-1.409]]]},"properties":{"code":"13.11.03.2004","name":"Pakan Rabaa Tengah"}},{"type":"Feature","geometry":{"type":"Polygon","coordinates":[[[101.397,-1.436],[101.389,-1.428],[101.3775,-1.431],[101.36,-1.428],[101.3485,-1.4295],[101.3485,-1.4315],[101.3505,-1.4325],[101.3475,-1.447],[101.342,-1.4505],[101.3395,-1.451],[101.3345,-1.4515],[101.341,-1.4545],[101.357,-1.484],[101.3775,-1.501],[101.383,-1.5185],[101.3845,-1.52],[101.384,-1.526],[101.3835,-1.527],[101.4,-1.5345],[101.402,-1.534],[101.4045,-1.534],[101.405,-1.534],[101.4075,-1.5345],[101.411,-1.5355],[101.412,-1.5355],[101.413,-1.535],[101.417,-1.522],[101.4285,-1.5185],[101.434,-1.5095],[101.425,-1.4925],[101.428,-1.4805],[101.4275,-1.479],[101.424,-1.463],[101.424,-1.46],[101.4295,-1.4335],[101.429,-1.433],[101.4145,-1.4415],[101.403,-1.4405],[101.3995,-1.439],[101.3975,-1.437],[101.397,-1.436]]]},"properties":{"code":"13.11.04.2001","name":"Lubuk Malako"}},{"type":"Feature","geometry":{"type":"Polygon","coordinates":[[[101.413,-1.398],[101.3695,-1.392],[101.3615,-1.3875],[101.3605,-1.3885],[101.353,-1.4205],[101.349,-1.4235],[101.3485,-1.4295],[101.36,-1.428],[101.3775,-1.431],[101.389,-1.428],[101.397,-1.436],[101.3945,-1.4295],[101.4005,-1.42],[101.4155,-1.409],[101.418,-1.408],[101.414,-1.399],[101.413,-1.398]]]},"properties":{"code":"13.11.04.2002","name":"Bidar Alam"}},{"type":"Feature","geometry":{"type":"Polygon","coordinates":[[[101.3345,-1.4515],[101.3255,-1.4505],[101.302,-1.432],[101.224,-1.4095],[101.215,-1.4095],[101.2105,-1.4075],[101.211,-1.4075],[101.211,-1.409],[101.202,-1.4255],[101.205,-1.426],[101.205,-1.425],[101.2145,-1.4175],[101.2435,-1.4305],[101.2475,-1.435],[101.259,-1.4345],[101.2785,-1.456],[101.2915,-1.4605],[101.291,-1.4875],[101.2995,-1.4985],[101.3285,-1.5035],[101.345,-1.5125],[101.3595,-1.511],[101.37,-1.521],[101.372,-1.521],[101.383,-1.5185],[101.3775,-1.501],[101.357,-1.484],[101.341,-1.4545],[101.3345,-1.4515]]]},"properties":{"code":"13.11.04.2004","name":"Padang Air Dingin"}},{"type":"Feature","geometry":{"type":"Polygon","coordinates":[[[101.3235,-1.3665],[101.296,-1.354],[101.272,-1.3475],[101.256,-1.341],[101.2075,-1.331],[101.171,-1.319],[101.156,-1.3445],[101.1525,-1.3625],[101.1725,-1.364],[101.202,-1.37],[101.2665,-1.394],[101.317,-1.414],[101.349,-1.4235],[101.353,-1.4205],[101.3605,-1.3885],[101.361,-1.3875],[101.359,-1.3845],[101.3235,-1.3665]]]},"properties":{"code":"13.11.04.2005","name":"Padang Limau Sundai"}},{"type":"Feature","geometry":{"type":"Polygon","coordinates":[[[101.349,-1.4235],[101.317,-1.414],[101.2665,-1.394],[101.202,-1.37],[101.1995,-1.3945],[101.2085,-1.406],[101.2105,-1.4075],[101.215,-1.4095],[101.224,-1.4095],[101.302,-1.432],[101.3255,-1.4505],[101.3345,-1.4515],[101.3395,-1.451],[101.342,-1.4505],[101.3475,-1.447],[101.3505,-1.4325],[101.3485,-1.4315],[101.3485,-1.4295],[101.349,-1.4235]]]},"properties":{"code":"13.11.04.2006","name":"Padang Gantiang"}},{"type":"Feature","geometry":{"type":"Polygon","coordinates":[[[101.515,-1.3355],[101.5155,-1.3325],[101.5245,-1.303],[101.501,-1.297],[101.4685,-1.2815],[101.4685,-1.2795],[101.4635,-1.2805],[101.4585,-1.2825],[101.459,-1.2855],[101.4545,-1.3015],[101.4175,-1.3095],[101.416,-1.3095],[101.4155,-1.3035],[101.413,-1.3025],[101.399,-1.308],[101.3805,-1.309],[101.3575,-1.3015],[101.342,-1.311],[101.3325,-1.323],[101.3275,-1.347],[101.3275,-1.3505],[101.37,-1.362],[101.396,-1.3655],[101.421,-1.367],[101.444,-1.366],[101.465,-1.353],[101.48,-1.332],[101.4835,-1.338],[101.501,-1.3435],[101.5125,-1.341],[101.514,-1.34],[101.514,-1.339],[101.515,-1.3355]]]},"properties":{"code":"13.11.05.2001","name":"Abai"}},{"type":"Feature","geometry":{"type":"Polygon","coordinates":[[[101.411,-1.1845],[101.3775,-1.1845],[101.37,-1.185],[101.37,-1.187],[101.369,-1.1925],[101.3665,-1.195],[101.363,-1.231],[101.3655,-1.2535],[101.3645,-1.2715],[101.3685,-1.273],[101.3765,-1.279],[101.382,-1.281],[101.395,-1.284],[101.416,-1.2815],[101.43,-1.274],[101.449,-1.2695],[101.4585,-1.265],[101.4665,-1.26],[101.468,-1.2595],[101.468,-1.259],[101.4565,-1.254],[101.447,-1.2415],[101.4445,-1.2215],[101.449,-1.2095],[101.4355,-1.208],[101.413,-1.1865],[101.411,-1.1845]]]},"properties":{"code":"13.11.05.2002","name":"Dusun Tangah"}},{"type":"Feature","geometry":{"type":"Polygon","coordinates":[[[101.437,-1.007],[101.4225,-1.008],[101.417,-1.0275],[101.404,-1.038],[101.3765,-1.0475],[101.36,-1.0405],[101.353,-1.043],[101.347,-1.042],[101.343,-1.045],[101.3425,-1.047],[101.3485,-1.06],[101.344,-1.0655],[101.3425,-1.072],[101.3655,-1.1065],[101.3785,-1.1185],[101.4085,-1.1395],[101.41,-1.1375],[101.4135,-1.1235],[101.4265,-1.1095],[101.4385,-1.091],[101.441,-1.0865],[101.441,-1.0575],[101.4425,-1.0555],[101.445,-1.053],[101.456,-1.0435],[101.46,-1.0305],[101.457,-1.0165],[101.456,-1.0145],[101.437,-1.007]]]},"properties":{"code":"13.11.05.2003","name":"Lubuk Ulang Aling"}},{"type":"Feature","geometry":{"type":"Polygon","coordinates":[[[101.442,-1.3665],[101.421,-1.367],[101.396,-1.3655],[101.37,-1.362],[101.3275,-1.3505],[101.3275,-1.35],[101.3235,-1.3665],[101.359,-1.3845],[101.361,-1.3875],[101.3615,-1.3875],[101.3695,-1.392],[101.413,-1.398],[101.413,-1.3975],[101.426,-1.3945],[101.432,-1.3795],[101.442,-1.3665]]]},"properties":{"code":"13.11.05.2004","name":"Ranah Pantai Cermin"}},{"type":"Feature","geometry":{"type":"Polygon","coordinates":[[[101.4685,-1.2795],[101.4695,-1.2735],[101.4695,-1.2635],[101.468,-1.2595],[101.4665,-1.26],[101.4585,-1.265],[101.449,-1.2695],[101.43,-1.274],[101.416,-1.2815],[101.395,-1.284],[101.382,-1.281],[101.3765,-1.279],[101.3685,-1.273],[101.3645,-1.2715],[101.344,-1.266],[101.3415,-1.282],[101.338,-1.2885],[101.339,-1.296],[101.3435,-1.298],[101.3575,-1.3015],[101.3805,-1.309],[101.399,-1.308],[101.413,-1.3025],[101.4155,-1.3035],[101.416,-1.3095],[101.4175,-1.3095],[101.4545,-1.3015],[101.459,-1.2855],[101.4585,-1.2825],[101.4635,-1.2805],[101.4685,-1.2795]]]},"properties":{"code":"13.11.05.2005","name":"Sitapus"}},{"type":"Feature","geometry":{"type":"Polygon","coordinates":[[[101.311,-1.145],[101.3055,-1.146],[101.2995,-1.1435],[101.2925,-1.158],[101.2925,-1.174],[101.2775,-1.174],[101.2635,-1.1665],[101.257,-1.153],[101.25,-1.1475],[101.2325,-1.151],[101.2145,-1.135],[101.198,-1.107],[101.1735,-1.0995],[101.1665,-1.103],[101.177,-1.135],[101.1995,-1.163],[101.212,-1.1655],[101.2225,-1.1865],[101.232,-1.193],[101.2455,-1.2145],[101.2345,-1.2325],[101.236,-1.2545],[101.2625,-1.263],[101.257,-1.2735],[101.258,-1.286],[101.2425,-1.295],[101.237,-1.288],[101.2265,-1.2885],[101.2155,-1.2815],[101.209,-1.2935],[101.1885,-1.2835],[101.1845,-1.297],[101.18,-1.299],[101.1815,-1.303],[101.181,-1.305],[101.171,-1.319],[101.2075,-1.331],[101.256,-1.341],[101.272,-1.3475],[101.296,-1.354],[101.3235,-1.3665],[101.3275,-1.35],[101.3275,-1.347],[101.3325,-1.323],[101.342,-1.311],[101.3575,-1.3015],[101.3435,-1.298],[101.339,-1.296],[101.338,-1.2885],[101.3415,-1.282],[101.344,-1.266],[101.3645,-1.2715],[101.3655,-1.2535],[101.363,-1.231],[101.3665,-1.195],[101.369,-1.1925],[101.37,-1.187],[101.37,-1.185],[101.3605,-1.1855],[101.338,-1.1805],[101.323,-1.155],[101.3135,-1.148],[101.311,-1.145]]]},"properties":{"code":"13.11.05.2006","name":"Lubuk Ulang Aling Selatan"}},{"type":"Feature","geometry":{"type":"Polygon","coordinates":[[[101.4085,-1.1395],[101.3785,-1.1185],[101.3655,-1.1065],[101.3425,-1.072],[101.341,-1.074],[101.344,-1.096],[101.3445,-1.1175],[101.3505,-1.1315],[101.335,-1.134],[101.314,-1.1445],[101.311,-1.145],[101.3135,-1.148],[101.323,-1.155],[101.338,-1.1805],[101.3605,-1.1855],[101.3775,-1.1845],[101.411,-1.1845],[101.411,-1.184],[101.408,-1.1705],[101.406,-1.167],[101.4045,-1.1465],[101.4085,-1.1395]]]},"properties":{"code":"13.11.05.2007","name":"Lubuk Ulang Aling Tengah"}},{"type":"Feature","geometry":{"type":"Polygon","coordinates":[[[101.205,-1.426],[101.203,-1.4255],[101.1985,-1.4285],[101.175,-1.4585],[101.1655,-1.4665],[101.1645,-1.478],[101.133,-1.4755],[101.126,-1.489],[101.106,-1.499],[101.092,-1.511],[101.0845,-1.513],[101.0815,-1.513],[101.084,-1.5165],[101.0845,-1.52],[101.0955,-1.5285],[101.1015,-1.5395],[101.113,-1.5465],[101.122,-1.568],[101.132,-1.574],[101.122,-1.584],[101.1265,-1.604],[101.135,-1.619],[101.1365,-1.6295],[101.136,-1.6335],[101.1345,-1.636],[101.133,-1.638],[101.124,-1.6775],[101.1315,-1.6845],[101.1345,-1.684],[101.1385,-1.6855],[101.139,-1.6845],[101.1405,-1.6825],[101.147,-1.666],[101.146,-1.636],[101.146,-1.632],[101.1485,-1.616],[101.1485,-1.615],[101.1475,-1.6135],[101.1485,-1.611],[101.1495,-1.608],[101.1595,-1.5875],[101.1535,-1.5805],[101.153,-1.578],[101.154,-1.5765],[101.1625,-1.5445],[101.163,-1.542],[101.1695,-1.5305],[101.1815,-1.5255],[101.192,-1.512],[101.1855,-1.4995],[101.1835,-1.4935],[101.1835,-1.492],[101.198,-1.4735],[101.182,-1.466],[101.1905,-1.4525],[101.1915,-1.442],[101.2045,-1.4275],[101.205,-1.426]]]},"properties":{"code":"13.11.06.2001","name":"Alam Pauh Duo"}},{"type":"Feature","geometry":{"type":"Polygon","coordinates":[[[101.0295,-1.616],[101.065,-1.5655],[101.081,-1.548],[101.085,-1.5395],[101.0755,-1.5305],[101.0645,-1.5125],[101.0625,-1.5135],[101.0575,-1.52],[101.0525,-1.525],[101.0365,-1.5425],[101.0395,-1.553],[101.021,-1.586],[101.014,-1.5905],[101.014,-1.592],[101.0135,-1.5965],[101.018,-1.6075],[101.0295,-1.616]]]},"properties":{"code":"13.11.06.2002","name":"Kapau Alam Pauh Duo"}},{"type":"Feature","geometry":{"type":"Polygon","coordinates":[[[101.0745,-1.5115],[101.068,-1.5095],[101.0645,-1.5125],[101.0755,-1.5305],[101.085,-1.5395],[101.081,-1.548],[101.065,-1.5655],[101.0295,-1.616],[101.0445,-1.624],[101.0455,-1.6265],[101.06,-1.6385],[101.0655,-1.658],[101.068,-1.658],[101.0955,-1.6705],[101.109,-1.67],[101.124,-1.6775],[101.133,-1.638],[101.1345,-1.636],[101.136,-1.6335],[101.1365,-1.6295],[101.135,-1.619],[101.1265,-1.604],[101.122,-1.584],[101.1145,-1.572],[101.1115,-1.57],[101.107,-1.5565],[101.0795,-1.5305],[101.0845,-1.519],[101.084,-1.5165],[101.0815,-1.513],[101.0805,-1.513],[101.0745,-1.5115]]]},"properties":{"code":"13.11.06.2003","name":"Luak Kapau Alam Pauh Duo"}},{"type":"Feature","geometry":{"type":"Polygon","coordinates":[[[101.0845,-1.519],[101.0795,-1.5305],[101.107,-1.5565],[101.1115,-1.57],[101.1145,-1.572],[101.122,-1.584],[101.132,-1.574],[101.122,-1.568],[101.113,-1.5465],[101.1015,-1.5395],[101.0955,-1.5285],[101.0845,-1.52],[101.0845,-1.519]]]},"properties":{"code":"13.11.06.2004","name":"Pauh Duo Nan Batigo"}},{"type":"Feature","geometry":{"type":"Polygon","coordinates":[[[101.5905,-1.3285],[101.587,-1.3255],[101.5515,-1.325],[101.5455,-1.3315],[101.531,-1.3365],[101.5145,-1.3365],[101.515,-1.3355],[101.514,-1.339],[101.5145,-1.3405],[101.512,-1.3465],[101.496,-1.3585],[101.4895,-1.3735],[101.465,-1.373],[101.465,-1.388],[101.4585,-1.402],[101.442,-1.41],[101.423,-1.4085],[101.422,-1.408],[101.4305,-1.4205],[101.441,-1.4245],[101.4415,-1.4535],[101.4365,-1.4685],[101.437,-1.477],[101.437,-1.478],[101.4465,-1.4755],[101.4525,-1.472],[101.4755,-1.4695],[101.506,-1.4705],[101.5185,-1.4655],[101.526,-1.4695],[101.542,-1.471],[101.5465,-1.4725],[101.5475,-1.4715],[101.5575,-1.4625],[101.56,-1.449],[101.5605,-1.4445],[101.582,-1.4475],[101.6095,-1.4375],[101.6265,-1.413],[101.6435,-1.403],[101.647,-1.403],[101.657,-1.3915],[101.6665,-1.391],[101.661,-1.3785],[101.6465,-1.373],[101.6465,-1.3675],[101.624,-1.359],[101.612,-1.3495],[101.597,-1.349],[101.5905,-1.3285]]]},"properties":{"code":"13.11.07.2001","name":"Sungai Kunyit"}},{"type":"Feature","geometry":{"type":"Polygon","coordinates":[[[101.5465,-1.4725],[101.542,-1.471],[101.526,-1.4695],[101.5185,-1.4655],[101.506,-1.4705],[101.4755,-1.4695],[101.4525,-1.472],[101.4465,-1.4755],[101.4355,-1.4785],[101.428,-1.4795],[101.428,-1.4805],[101.425,-1.4925],[101.434,-1.5095],[101.4285,-1.5185],[101.417,-1.522],[101.413,-1.535],[101.413,-1.537],[101.411,-1.539],[101.412,-1.54],[101.4105,-1.54],[101.403,-1.5545],[101.4025,-1.5695],[101.4035,-1.569],[101.4035,-1.571],[101.402,-1.5735],[101.4025,-1.575],[101.401,-1.576],[101.3975,-1.583],[101.3985,-1.5845],[101.383,-1.5995],[101.382,-1.6035],[101.3815,-1.6065],[101.3815,-1.6355],[101.385,-1.6605],[101.3925,-1.665],[101.3985,-1.6755],[101.402,-1.678],[101.4025,-1.6785],[101.403,-1.679],[101.403,-1.6785],[101.409,-1.674],[101.411,-1.6725],[101.4135,-1.6725],[101.4215,-1.675],[101.429,-1.6685],[101.4315,-1.6415],[101.441,-1.627],[101.453,-1.6175],[101.473,-1.592],[101.4935,-1.5775],[101.5095,-1.573],[101.5175,-1.557],[101.518,-1.545],[101.528,-1.525],[101.541,-1.514],[101.527,-1.4885],[101.5455,-1.473],[101.5465,-1.4725]]]},"properties":{"code":"13.11.07.2002","name":"Talao Sungai Kunyit"}},{"type":"Feature","geometry":{"type":"Polygon","coordinates":[[[101.422,-1.408],[101.42,-1.4075],[101.42,-1.407],[101.4155,-1.409],[101.4005,-1.42],[101.3945,-1.4295],[101.3975,-1.437],[101.3995,-1.439],[101.403,-1.4405],[101.4145,-1.4415],[101.429,-1.433],[101.4295,-1.4335],[101.424,-1.46],[101.424,-1.463],[101.4275,-1.479],[101.428,-1.4795],[101.4355,-1.4785],[101.437,-1.478],[101.437,-1.477],[101.4365,-1.4685],[101.4415,-1.4535],[101.441,-1.4245],[101.4305,-1.4205],[101.422,-1.408]]]},"properties":{"code":"13.11.07.2003","name":"Sungai Kunyit Barat"}},{"type":"Feature","geometry":{"type":"Polygon","coordinates":[[[101.514,-1.34],[101.5125,-1.341],[101.501,-1.3435],[101.4835,-1.338],[101.48,-1.332],[101.465,-1.353],[101.444,-1.366],[101.442,-1.3665],[101.432,-1.3795],[101.426,-1.3945],[101.413,-1.3975],[101.414,-1.399],[101.418,-1.408],[101.42,-1.407],[101.42,-1.4075],[101.423,-1.4085],[101.442,-1.41],[101.4585,-1.402],[101.465,-1.388],[101.465,-1.373],[101.4895,-1.3735],[101.496,-1.3585],[101.512,-1.3465],[101.5145,-1.3405],[101.514,-1.34]]]},"properties":{"code":"13.11.07.2004","name":"Talunan Maju"}}]}