{"type":"FeatureCollection","features":[{"type":"Feature","geometry":{"type":"Polygon","coordinates":[[[102.119,1.476],[102.1175,1.477],[102.115,1.4775],[102.1135,1.4785],[102.105,1.4695],[102.112,1.464],[102.119,1.476]]]},"properties":{"code":"14.03.01.1001","name":"Bengkalis Kota"}},{"type":"Feature","geometry":{"type":"Polygon","coordinates":[[[102.1135,1.4785],[102.109,1.4815],[102.1065,1.4785],[102.1035,1.4745],[102.103,1.474],[102.1025,1.472],[102.105,1.4695],[102.1135,1.4785]]]},"properties":{"code":"14.03.01.1002","name":"Damon"}},{"type":"Feature","geometry":{"type":"Polygon","coordinates":[[[102.1215,1.4755],[102.119,1.476],[102.112,1.464],[102.1195,1.46],[102.1215,1.4755]]]},"properties":{"code":"14.03.01.1003","name":"Rimba Sekampung"}},{"type":"Feature","geometry":{"type":"Polygon","coordinates":[[[102.1035,1.485],[102.093,1.4925],[102.0855,1.491],[102.0825,1.49],[102.0795,1.487],[102.1025,1.472],[102.103,1.474],[102.1035,1.4745],[102.1065,1.4785],[102.109,1.4815],[102.1035,1.485]]]},"properties":{"code":"14.03.01.2004","name":"Kelapapati"}},{"type":"Feature","geometry":{"type":"Polygon","coordinates":[[[102.1035,1.485],[102.1195,1.521],[102.1325,1.541],[102.1325,1.5735],[102.1105,1.548],[102.0915,1.5205],[102.089,1.503],[102.0805,1.49],[102.0855,1.491],[102.093,1.4925],[102.1035,1.485]]]},"properties":{"code":"14.03.01.2005","name":"Pedekik"}},{"type":"Feature","geometry":{"type":"Polygon","coordinates":[[[102.1325,1.5835],[102.0955,1.5955],[102.077,1.5295],[102.0625,1.514],[102.074,1.507],[102.0695,1.4955],[102.0795,1.487],[102.0825,1.49],[102.0805,1.49],[102.089,1.503],[102.0915,1.5205],[102.1105,1.548],[102.1325,1.5735],[102.1325,1.5835]]]},"properties":{"code":"14.03.01.2006","name":"Pangkalan Batang"}},{"type":"Feature","geometry":{"type":"Polygon","coordinates":[[[102.0955,1.5955],[102.0865,1.5985],[102.064,1.53],[102.043,1.522],[102.055,1.509],[102.0625,1.514],[102.077,1.5295],[102.0955,1.5955]]]},"properties":{"code":"14.03.01.2007","name":"Sebauk"}},{"type":"Feature","geometry":{"type":"Polygon","coordinates":[[[102.08,1.6],[102.0715,1.6025],[102.065,1.5875],[102.0485,1.573],[102.04,1.5615],[102.032,1.5515],[102.03,1.55],[102.023,1.546],[102.0325,1.532],[102.0605,1.5625],[102.0725,1.581],[102.08,1.6]]]},"properties":{"code":"14.03.01.2008","name":"Teluk Latak"}},{"type":"Feature","geometry":{"type":"Polygon","coordinates":[[[102.046,1.5695],[102.0445,1.57],[102.04,1.572],[102.0315,1.5675],[102.024,1.574],[102.013,1.566],[102.023,1.546],[102.03,1.55],[102.032,1.5515],[102.04,1.5615],[102.046,1.5695]]]},"properties":{"code":"14.03.01.2009","name":"Meskom"}},{"type":"Feature","geometry":{"type":"Polygon","coordinates":[[[102.151,1.494],[102.146,1.493],[102.1385,1.4965],[102.136,1.496],[102.135,1.4955],[102.13,1.4865],[102.1265,1.4785],[102.1245,1.478],[102.1215,1.4755],[102.1195,1.46],[102.1265,1.4555],[102.1275,1.4565],[102.1275,1.458],[102.128,1.461],[102.134,1.4695],[102.151,1.494]]]},"properties":{"code":"14.03.01.2010","name":"Senggoro"}},{"type":"Feature","geometry":{"type":"Polygon","coordinates":[[[102.17,1.4965],[102.159,1.4965],[102.151,1.494],[102.134,1.4695],[102.128,1.461],[102.1275,1.458],[102.1275,1.4565],[102.1265,1.4555],[102.1455,1.4485],[102.151,1.474],[102.1555,1.479],[102.17,1.4965]]]},"properties":{"code":"14.03.01.2011","name":"Air Putih"}},{"type":"Feature","geometry":{"type":"Polygon","coordinates":[[[102.1895,1.495],[102.1865,1.496],[102.17,1.4965],[102.1555,1.479],[102.151,1.474],[102.1455,1.4485],[102.153,1.446],[102.1565,1.4545],[102.174,1.4595],[102.1895,1.495]]]},"properties":{"code":"14.03.01.2012","name":"Sungai Alam"}},{"type":"Feature","geometry":{"type":"Polygon","coordinates":[[[102.1975,1.492],[102.195,1.493],[102.1935,1.4935],[102.188,1.48],[102.1725,1.4535],[102.1565,1.445],[102.187,1.4375],[102.1885,1.462],[102.1975,1.492]]]},"properties":{"code":"14.03.01.2013","name":"Penampi"}},{"type":"Feature","geometry":{"type":"Polygon","coordinates":[[[102.237,1.47],[102.222,1.4795],[102.2215,1.4365],[102.22,1.4325],[102.246,1.433],[102.2455,1.4705],[102.237,1.47]]]},"properties":{"code":"14.03.01.2014","name":"Temeran"}},{"type":"Feature","geometry":{"type":"Polygon","coordinates":[[[102.293,1.4295],[102.3005,1.4535],[102.305,1.48],[102.2665,1.473],[102.2455,1.4705],[102.246,1.433],[102.2725,1.4355],[102.293,1.4295]]]},"properties":{"code":"14.03.01.2015","name":"Penebal"}},{"type":"Feature","geometry":{"type":"Polygon","coordinates":[[[102.337,1.482],[102.334,1.482],[102.3255,1.482],[102.305,1.48],[102.3005,1.4535],[102.293,1.4295],[102.3095,1.414],[102.309,1.4165],[102.3095,1.417],[102.3105,1.4185],[102.319,1.4245],[102.32,1.4245],[102.323,1.425],[102.3235,1.425],[102.3235,1.4305],[102.3325,1.4385],[102.328,1.4465],[102.3335,1.458],[102.3455,1.481],[102.343,1.4815],[102.337,1.482]]]},"properties":{"code":"14.03.01.2016","name":"Pematang Duku"}},{"type":"Feature","geometry":{"type":"Polygon","coordinates":[[[102.395,1.43],[102.394,1.4365],[102.337,1.4275],[102.329,1.4255],[102.325,1.4255],[102.324,1.4255],[102.323,1.425],[102.32,1.4245],[102.319,1.4245],[102.3105,1.4185],[102.3095,1.417],[102.309,1.4165],[102.3095,1.414],[102.317,1.406],[102.325,1.4155],[102.3475,1.4205],[102.3585,1.4],[102.3735,1.3845],[102.376,1.388],[102.395,1.43]]]},"properties":{"code":"14.03.01.2017","name":"Ketam Putih"}},{"type":"Feature","geometry":{"type":"Polygon","coordinates":[[[102.457,1.335],[102.4455,1.347],[102.4335,1.3605],[102.4315,1.363],[102.402,1.3205],[102.429,1.3025],[102.457,1.335]]]},"properties":{"code":"14.03.01.2018","name":"Kelemantan"}},{"type":"Feature","geometry":{"type":"Polygon","coordinates":[[[102.5035,1.3095],[102.4865,1.319],[102.4755,1.3265],[102.462,1.296],[102.4575,1.2885],[102.456,1.283],[102.495,1.254],[102.5085,1.2585],[102.5035,1.3095]]]},"properties":{"code":"14.03.01.2019","name":"Sekodi"}},{"type":"Feature","geometry":{"type":"Polygon","coordinates":[[[102.1545,1.5765],[102.1325,1.5835],[102.1325,1.541],[102.1195,1.521],[102.1035,1.485],[102.109,1.4815],[102.115,1.4775],[102.1175,1.477],[102.1215,1.4755],[102.1245,1.478],[102.1265,1.4785],[102.13,1.4865],[102.135,1.4955],[102.136,1.496],[102.1385,1.4965],[102.154,1.56],[102.1545,1.5765]]]},"properties":{"code":"14.03.01.2020","name":"Wonosari"}},{"type":"Feature","geometry":{"type":"Polygon","coordinates":[[[102.1935,1.4935],[102.1895,1.495],[102.174,1.4595],[102.1565,1.4545],[102.153,1.446],[102.1565,1.445],[102.1725,1.4535],[102.188,1.48],[102.1935,1.4935]]]},"properties":{"code":"14.03.01.2021","name":"Kuala Alam"}},{"type":"Feature","geometry":{"type":"Polygon","coordinates":[[[102.206,1.4885],[102.203,1.489],[102.1975,1.492],[102.1885,1.462],[102.187,1.4375],[102.1995,1.435],[102.2,1.4375],[102.2,1.4395],[102.1995,1.4405],[102.1995,1.442],[102.206,1.4885]]]},"properties":{"code":"14.03.01.2022","name":"Kelebuk"}},{"type":"Feature","geometry":{"type":"Polygon","coordinates":[[[102.4755,1.3265],[102.472,1.3285],[102.457,1.335],[102.429,1.3025],[102.456,1.283],[102.4575,1.2885],[102.462,1.296],[102.4755,1.3265]]]},"properties":{"code":"14.03.01.2023","name":"Palkun"}},{"type":"Feature","geometry":{"type":"Polygon","coordinates":[[[102.3735,1.3845],[102.3585,1.4],[102.3475,1.4205],[102.325,1.4155],[102.317,1.406],[102.341,1.3865],[102.361,1.364],[102.3735,1.3845]]]},"properties":{"code":"14.03.01.2024","name":"Sungai Batang"}},{"type":"Feature","geometry":{"type":"Polygon","coordinates":[[[102.024,1.574],[102.009,1.6015],[102.002,1.5955],[101.999,1.583],[102.0095,1.5765],[102.013,1.566],[102.024,1.574]]]},"properties":{"code":"14.03.01.2025","name":"Prapat Tunggal"}},{"type":"Feature","geometry":{"type":"Polygon","coordinates":[[[102.0715,1.6025],[102.0445,1.607],[102.025,1.6065],[102.009,1.6015],[102.024,1.574],[102.0315,1.5675],[102.04,1.572],[102.0445,1.57],[102.046,1.5695],[102.0485,1.573],[102.065,1.5875],[102.0715,1.6025]]]},"properties":{"code":"14.03.01.2026","name":"Simpang Ayam"}},{"type":"Feature","geometry":{"type":"Polygon","coordinates":[[[102.0865,1.5985],[102.08,1.6],[102.0725,1.581],[102.0605,1.5625],[102.0325,1.532],[102.043,1.522],[102.064,1.53],[102.0865,1.5985]]]},"properties":{"code":"14.03.01.2027","name":"Senderak"}},{"type":"Feature","geometry":{"type":"Polygon","coordinates":[[[102.417,1.379],[102.403,1.394],[102.395,1.43],[102.376,1.388],[102.361,1.364],[102.383,1.338],[102.402,1.3205],[102.4315,1.363],[102.4245,1.3695],[102.417,1.379]]]},"properties":{"code":"14.03.01.2028","name":"Kelemantan Barat"}},{"type":"Feature","geometry":{"type":"Polygon","coordinates":[[[102.2155,1.483],[102.212,1.487],[102.206,1.4885],[102.1995,1.442],[102.1995,1.4405],[102.2,1.4395],[102.2,1.4375],[102.1995,1.435],[102.22,1.4325],[102.2215,1.4365],[102.222,1.4795],[102.2155,1.483]]]},"properties":{"code":"14.03.01.2029","name":"Damai"}},{"type":"Feature","geometry":{"type":"Polygon","coordinates":[[[102.0695,1.4955],[102.074,1.507],[102.0625,1.514],[102.055,1.509],[102.0695,1.4955]]]},"properties":{"code":"14.03.01.2030","name":"Pangkalan Batang Barat"}},{"type":"Feature","geometry":{"type":"Polygon","coordinates":[[[102.3515,1.479],[102.3455,1.481],[102.3335,1.458],[102.328,1.4465],[102.3325,1.4385],[102.3235,1.4305],[102.3235,1.425],[102.324,1.4255],[102.325,1.4255],[102.329,1.4255],[102.337,1.4275],[102.394,1.4365],[102.394,1.4395],[102.392,1.447],[102.3795,1.4555],[102.3645,1.464],[102.3515,1.479]]]},"properties":{"code":"14.03.01.2031","name":"Pematang Duku Timur"}},{"type":"Feature","geometry":{"type":"Polygon","coordinates":[[[102.2975,1.5235],[102.297,1.528],[102.2945,1.5325],[102.2715,1.5235],[102.255,1.5245],[102.2555,1.5145],[102.254,1.5105],[102.2575,1.5085],[102.268,1.505],[102.2715,1.5045],[102.2985,1.498],[102.3295,1.4935],[102.33,1.495],[102.3195,1.514],[102.2985,1.516],[102.2975,1.5235]]]},"properties":{"code":"14.03.02.2001","name":"Bantan Tengah"}},{"type":"Feature","geometry":{"type":"Polygon","coordinates":[[[102.3405,1.548],[102.3355,1.5515],[102.317,1.5495],[102.3155,1.535],[102.2975,1.5235],[102.2985,1.516],[102.3195,1.514],[102.33,1.495],[102.329,1.482],[102.334,1.482],[102.337,1.482],[102.3395,1.5015],[102.3345,1.53],[102.342,1.5405],[102.341,1.547],[102.3405,1.548]]]},"properties":{"code":"14.03.02.2002","name":"Bantan Air"}},{"type":"Feature","geometry":{"type":"Polygon","coordinates":[[[102.1895,1.534],[102.188,1.535],[102.186,1.535],[102.177,1.5365],[102.175,1.5365],[102.162,1.5525],[102.152,1.5525],[102.1385,1.4965],[102.146,1.493],[102.159,1.4965],[102.176,1.5205],[102.1835,1.5265],[102.183,1.528],[102.1855,1.5295],[102.1865,1.53],[102.188,1.5315],[102.188,1.533],[102.1895,1.534]]]},"properties":{"code":"14.03.02.2003","name":"Bantan Tua"}},{"type":"Feature","geometry":{"type":"Polygon","coordinates":[[[102.4835,1.4835],[102.4755,1.479],[102.4505,1.4845],[102.45,1.4815],[102.4455,1.4615],[102.455,1.4585],[102.457,1.4575],[102.457,1.4555],[102.4555,1.4545],[102.455,1.453],[102.462,1.4495],[102.47,1.444],[102.472,1.4435],[102.487,1.4415],[102.496,1.4695],[102.4835,1.4835]]]},"properties":{"code":"14.03.02.2004","name":"Teluk Pambang"}},{"type":"Feature","geometry":{"type":"Polygon","coordinates":[[[102.265,1.5615],[102.232,1.5645],[102.2285,1.558],[102.215,1.5625],[102.2125,1.561],[102.212,1.5495],[102.2085,1.547],[102.2075,1.5465],[102.2035,1.5445],[102.2015,1.5385],[102.1985,1.5355],[102.2005,1.533],[102.205,1.529],[102.2085,1.525],[102.211,1.5275],[102.224,1.5165],[102.2235,1.5145],[102.228,1.513],[102.23,1.52],[102.237,1.538],[102.2375,1.545],[102.2385,1.5455],[102.24,1.547],[102.244,1.5465],[102.246,1.546],[102.2525,1.5445],[102.2575,1.5475],[102.2635,1.557],[102.265,1.5615]]]},"properties":{"code":"14.03.02.2005","name":"Selat Baru"}},{"type":"Feature","geometry":{"type":"Polygon","coordinates":[[[102.5035,1.3095],[102.4975,1.339],[102.4935,1.39],[102.4765,1.3875],[102.4685,1.38],[102.434,1.3805],[102.4205,1.3745],[102.4245,1.3695],[102.4335,1.3605],[102.4455,1.347],[102.457,1.335],[102.472,1.3285],[102.4865,1.319],[102.5035,1.3095]]]},"properties":{"code":"14.03.02.2006","name":"Teluk Lancar"}},{"type":"Feature","geometry":{"type":"Polygon","coordinates":[[[102.487,1.4415],[102.472,1.4435],[102.4725,1.441],[102.472,1.439],[102.4695,1.4395],[102.4685,1.4405],[102.4655,1.4395],[102.4595,1.44],[102.459,1.438],[102.4585,1.433],[102.4585,1.4295],[102.4585,1.429],[102.4595,1.4265],[102.46,1.423],[102.46,1.422],[102.4295,1.413],[102.4275,1.397],[102.417,1.379],[102.4205,1.3745],[102.434,1.3805],[102.4685,1.38],[102.4765,1.3875],[102.4935,1.39],[102.4955,1.4265],[102.487,1.4415]]]},"properties":{"code":"14.03.02.2007","name":"Kembung Luar"}},{"type":"Feature","geometry":{"type":"Polygon","coordinates":[[[102.184,1.5695],[102.1545,1.5765],[102.154,1.56],[102.152,1.5525],[102.162,1.5525],[102.175,1.5365],[102.177,1.5365],[102.186,1.535],[102.188,1.535],[102.1895,1.534],[102.197,1.5345],[102.2015,1.5385],[102.2035,1.5445],[102.2075,1.5465],[102.2085,1.547],[102.21,1.548],[102.201,1.553],[102.195,1.554],[102.19,1.552],[102.1895,1.558],[102.184,1.5585],[102.184,1.5695]]]},"properties":{"code":"14.03.02.2008","name":"Jangkang"}},{"type":"Feature","geometry":{"type":"Polygon","coordinates":[[[102.4595,1.5185],[102.428,1.528],[102.424,1.5175],[102.4195,1.515],[102.416,1.502],[102.4325,1.5035],[102.432,1.5055],[102.4505,1.517],[102.4595,1.5185]]]},"properties":{"code":"14.03.02.2009","name":"Muntai"}},{"type":"Feature","geometry":{"type":"Polygon","coordinates":[[[102.228,1.513],[102.2235,1.5145],[102.224,1.5165],[102.211,1.5275],[102.2085,1.525],[102.205,1.529],[102.2005,1.533],[102.1985,1.5355],[102.197,1.5345],[102.1935,1.5175],[102.1935,1.4935],[102.195,1.493],[102.203,1.489],[102.212,1.487],[102.2155,1.483],[102.218,1.503],[102.2275,1.511],[102.228,1.513]]]},"properties":{"code":"14.03.02.2010","name":"Resam Lapis"}},{"type":"Feature","geometry":{"type":"Polygon","coordinates":[[[102.255,1.5245],[102.26,1.5345],[102.2585,1.5455],[102.2575,1.5475],[102.2525,1.5445],[102.246,1.546],[102.244,1.5465],[102.24,1.547],[102.2385,1.5455],[102.2375,1.545],[102.237,1.538],[102.23,1.52],[102.2275,1.511],[102.218,1.503],[102.2155,1.483],[102.222,1.4795],[102.237,1.47],[102.2475,1.4925],[102.256,1.5035],[102.2565,1.506],[102.255,1.507],[102.254,1.508],[102.2535,1.5085],[102.2535,1.509],[102.254,1.5105],[102.2555,1.5145],[102.255,1.5245]]]},"properties":{"code":"14.03.02.2011","name":"Berancah"}},{"type":"Feature","geometry":{"type":"Polygon","coordinates":[[[102.3295,1.4935],[102.2985,1.498],[102.2715,1.5045],[102.268,1.505],[102.2575,1.5085],[102.254,1.5105],[102.2535,1.509],[102.254,1.508],[102.255,1.507],[102.2565,1.506],[102.256,1.5035],[102.2475,1.4925],[102.237,1.47],[102.2455,1.4705],[102.2665,1.473],[102.305,1.48],[102.3255,1.482],[102.329,1.482],[102.3295,1.4935]]]},"properties":{"code":"14.03.02.2012","name":"Ulu Pulau"}},{"type":"Feature","geometry":{"type":"Polygon","coordinates":[[[102.2805,1.553],[102.265,1.5615],[102.2635,1.557],[102.2585,1.5455],[102.26,1.5345],[102.255,1.5245],[102.2715,1.5235],[102.2945,1.5325],[102.291,1.54],[102.2805,1.54],[102.2805,1.553]]]},"properties":{"code":"14.03.02.2013","name":"Mentayan"}},{"type":"Feature","geometry":{"type":"Polygon","coordinates":[[[102.48,1.49],[102.464,1.5155],[102.461,1.4915],[102.48,1.49]]]},"properties":{"code":"14.03.02.2014","name":"Pambang Pesisir"}},{"type":"Feature","geometry":{"type":"Polygon","coordinates":[[[102.4325,1.5035],[102.416,1.502],[102.4195,1.515],[102.41,1.5105],[102.408,1.5055],[102.3885,1.5095],[102.3715,1.5045],[102.37,1.4615],[102.3795,1.4555],[102.392,1.447],[102.3925,1.446],[102.3935,1.446],[102.3955,1.4465],[102.3985,1.448],[102.4015,1.4525],[102.4115,1.459],[102.427,1.466],[102.437,1.4655],[102.439,1.483],[102.4335,1.49],[102.4325,1.5035]]]},"properties":{"code":"14.03.02.2015","name":"Sukamaju"}},{"type":"Feature","geometry":{"type":"Polygon","coordinates":[[[102.464,1.5155],[102.4595,1.5185],[102.4505,1.517],[102.432,1.5055],[102.4335,1.49],[102.439,1.483],[102.437,1.4655],[102.44,1.4655],[102.444,1.462],[102.4455,1.4615],[102.45,1.4815],[102.4505,1.4845],[102.4755,1.479],[102.4835,1.4835],[102.48,1.49],[102.461,1.4915],[102.464,1.5155]]]},"properties":{"code":"14.03.02.2016","name":"Pambang Baru"}},{"type":"Feature","geometry":{"type":"Polygon","coordinates":[[[102.437,1.4655],[102.427,1.466],[102.4115,1.459],[102.4015,1.4525],[102.3985,1.448],[102.3955,1.4465],[102.3935,1.446],[102.3925,1.446],[102.394,1.4395],[102.395,1.43],[102.403,1.394],[102.417,1.379],[102.4275,1.397],[102.4295,1.413],[102.46,1.422],[102.46,1.423],[102.4595,1.4265],[102.4585,1.429],[102.4585,1.4295],[102.4585,1.433],[102.459,1.438],[102.4595,1.44],[102.4655,1.4395],[102.4685,1.4405],[102.4695,1.4395],[102.472,1.439],[102.4725,1.441],[102.472,1.4435],[102.47,1.444],[102.462,1.4495],[102.455,1.453],[102.4555,1.4545],[102.457,1.4555],[102.457,1.4575],[102.455,1.4585],[102.4495,1.4605],[102.445,1.462],[102.44,1.4655],[102.437,1.4655]]]},"properties":{"code":"14.03.02.2017","name":"Kembung Baru"}},{"type":"Feature","geometry":{"type":"Polygon","coordinates":[[[102.197,1.5345],[102.1895,1.534],[102.189,1.533],[102.188,1.533],[102.188,1.5315],[102.1865,1.53],[102.1855,1.5295],[102.183,1.528],[102.1835,1.5265],[102.176,1.5205],[102.159,1.4965],[102.1865,1.496],[102.1935,1.4935],[102.1935,1.5175],[102.197,1.5345]]]},"properties":{"code":"14.03.02.2018","name":"Pasiran"}},{"type":"Feature","geometry":{"type":"Polygon","coordinates":[[[102.3535,1.5475],[102.3405,1.548],[102.341,1.547],[102.342,1.5405],[102.3345,1.53],[102.3395,1.5015],[102.337,1.482],[102.343,1.4815],[102.3515,1.479],[102.3535,1.5475]]]},"properties":{"code":"14.03.02.2019","name":"Bantan Sari"}},{"type":"Feature","geometry":{"type":"Polygon","coordinates":[[[102.3795,1.541],[102.3535,1.5475],[102.3515,1.479],[102.3645,1.464],[102.37,1.4615],[102.3715,1.5045],[102.374,1.525],[102.3795,1.541]]]},"properties":{"code":"14.03.02.2020","name":"Bantan Timur"}},{"type":"Feature","geometry":{"type":"Polygon","coordinates":[[[102.317,1.5495],[102.297,1.5535],[102.2805,1.553],[102.2805,1.54],[102.291,1.54],[102.297,1.528],[102.2975,1.5235],[102.3155,1.535],[102.317,1.5495]]]},"properties":{"code":"14.03.02.2021","name":"Teluk Papal"}},{"type":"Feature","geometry":{"type":"Polygon","coordinates":[[[102.428,1.528],[102.41,1.5345],[102.3795,1.541],[102.374,1.525],[102.3715,1.5045],[102.3885,1.5095],[102.408,1.5055],[102.41,1.5105],[102.424,1.5175],[102.428,1.528]]]},"properties":{"code":"14.03.02.2022","name":"Muntai Barat"}},{"type":"Feature","geometry":{"type":"Polygon","coordinates":[[[102.232,1.5645],[102.184,1.5695],[102.184,1.5585],[102.1895,1.558],[102.19,1.552],[102.195,1.554],[102.201,1.553],[102.21,1.548],[102.212,1.5495],[102.2125,1.561],[102.215,1.5625],[102.2285,1.558],[102.232,1.5645]]]},"properties":{"code":"14.03.02.2023","name":"Deluk"}},{"type":"Feature","geometry":{"type":"Polygon","coordinates":[[[102.06,1.3595],[102.0495,1.3605],[102.011,1.3605],[102.012,1.36],[101.9835,1.3605],[101.984,1.3415],[102.102,1.342],[102.1575,1.3395],[102.159,1.3565],[102.1545,1.3595],[102.136,1.359],[102.1135,1.354],[102.1105,1.36],[102.06,1.3595]]]},"properties":{"code":"14.03.03.1010","name":"Sungai Pakning"}},{"type":"Feature","geometry":{"type":"Polygon","coordinates":[[[102.1565,1.333],[102.1265,1.333],[102.1125,1.3305],[101.984,1.33],[101.984,1.3255],[102.0205,1.325],[102.0435,1.3255],[102.1165,1.3255],[102.1545,1.3235],[102.1565,1.333]]]},"properties":{"code":"14.03.03.2001","name":"Sejangat"}},{"type":"Feature","geometry":{"type":"Polygon","coordinates":[[[102.1545,1.3235],[102.1165,1.3255],[102.0435,1.3255],[102.0205,1.325],[101.984,1.3255],[101.9635,1.325],[101.964,1.3185],[101.9485,1.3115],[101.9355,1.297],[101.986,1.298],[102.045,1.2975],[102.0475,1.3035],[102.0755,1.3045],[102.0855,1.309],[102.107,1.31],[102.112,1.2965],[102.151,1.296],[102.1545,1.3235]]]},"properties":{"code":"14.03.03.2002","name":"Dompas"}},{"type":"Feature","geometry":{"type":"Polygon","coordinates":[[[102.151,1.296],[102.112,1.2965],[102.115,1.273],[102.1415,1.277],[102.1515,1.2775],[102.151,1.296]]]},"properties":{"code":"14.03.03.2003","name":"Pangkalan Jambi"}},{"type":"Feature","geometry":{"type":"Polygon","coordinates":[[[102.159,1.3565],[102.1485,1.378],[102.139,1.3815],[102.136,1.359],[102.1545,1.3595],[102.159,1.3565]]]},"properties":{"code":"14.03.03.2004","name":"Sungai Selari"}},{"type":"Feature","geometry":{"type":"Polygon","coordinates":[[[102.083,1.407],[102.0605,1.4215],[102.0315,1.4435],[102.015,1.434],[101.9835,1.38],[101.9835,1.3605],[102.012,1.36],[102.011,1.3605],[102.0495,1.3605],[102.06,1.3595],[102.0735,1.384],[102.083,1.407]]]},"properties":{"code":"14.03.03.2005","name":"Buruk Bakul"}},{"type":"Feature","geometry":{"type":"Polygon","coordinates":[[[102.0315,1.4435],[102.003,1.461],[101.9965,1.4695],[101.992,1.465],[101.99,1.457],[101.989,1.4515],[101.964,1.411],[101.9265,1.3795],[101.8865,1.3475],[101.88,1.3475],[101.88,1.297],[101.9355,1.297],[101.9485,1.3115],[101.964,1.3185],[101.9635,1.325],[101.984,1.3255],[101.984,1.3415],[101.9835,1.38],[102.015,1.434],[102.0315,1.4435]]]},"properties":{"code":"14.03.03.2006","name":"Bukit Batu"}},{"type":"Feature","geometry":{"type":"Polygon","coordinates":[[[101.9965,1.4695],[101.9785,1.483],[101.968,1.4655],[101.968,1.465],[101.9685,1.4625],[101.9495,1.463],[101.943,1.469],[101.933,1.4665],[101.9315,1.466],[101.9325,1.44],[101.9235,1.4265],[101.9265,1.4195],[101.9085,1.406],[101.9065,1.403],[101.9065,1.3995],[101.906,1.398],[101.9045,1.397],[101.9015,1.3965],[101.9005,1.396],[101.898,1.396],[101.895,1.3975],[101.892,1.3975],[101.891,1.3965],[101.8885,1.389],[101.873,1.393],[101.8705,1.3935],[101.867,1.3925],[101.854,1.3895],[101.8515,1.3835],[101.834,1.382],[101.823,1.3755],[101.8315,1.367],[101.829,1.3545],[101.821,1.3545],[101.8165,1.3645],[101.807,1.357],[101.792,1.3615],[101.7875,1.3445],[101.794,1.33],[101.786,1.327],[101.7855,1.317],[101.793,1.309],[101.776,1.297],[101.88,1.297],[101.88,1.3475],[101.8865,1.3475],[101.9265,1.3795],[101.964,1.411],[101.989,1.4515],[101.99,1.457],[101.992,1.465],[101.9965,1.4695]]]},"properties":{"code":"14.03.03.2007","name":"Sukajadi"}},{"type":"Feature","geometry":{"type":"Polygon","coordinates":[[[102.139,1.3815],[102.124,1.3895],[102.107,1.3925],[102.083,1.407],[102.0735,1.384],[102.06,1.3595],[102.1105,1.36],[102.1135,1.354],[102.136,1.359],[102.139,1.3815]]]},"properties":{"code":"14.03.03.2016","name":"Batang Duku"}},{"type":"Feature","geometry":{"type":"Polygon","coordinates":[[[102.1575,1.3395],[102.102,1.342],[101.984,1.3415],[101.984,1.33],[102.1125,1.3305],[102.1265,1.333],[102.1565,1.333],[102.1575,1.3395]]]},"properties":{"code":"14.03.03.2017","name":"Pakning Asal"}},{"type":"Feature","geometry":{"type":"Polygon","coordinates":[[[101.1965,1.3025],[101.1795,1.307],[101.1785,1.2985],[101.179,1.297],[101.1845,1.29],[101.183,1.287],[101.1675,1.293],[101.167,1.292],[101.161,1.287],[101.157,1.2645],[101.167,1.265],[101.1695,1.2655],[101.1725,1.274],[101.206,1.2875],[101.2285,1.2865],[101.2285,1.3015],[101.1965,1.3025]]]},"properties":{"code":"14.03.09.1001","name":"Air Jamban"}},{"type":"Feature","geometry":{"type":"Polygon","coordinates":[[[101.2285,1.2865],[101.206,1.2875],[101.1725,1.274],[101.1695,1.2655],[101.175,1.2645],[101.175,1.266],[101.179,1.269],[101.179,1.271],[101.183,1.272],[101.1965,1.278],[101.196,1.279],[101.2075,1.285],[101.217,1.2845],[101.2285,1.2845],[101.2285,1.2865]]]},"properties":{"code":"14.03.09.1002","name":"Babussalam"}},{"type":"Feature","geometry":{"type":"Polygon","coordinates":[[[101.2105,1.26],[101.2035,1.2675],[101.201,1.2715],[101.199,1.2695],[101.194,1.2675],[101.194,1.2625],[101.2015,1.2605],[101.203,1.2555],[101.206,1.255],[101.211,1.2575],[101.2105,1.26]]]},"properties":{"code":"14.03.09.1003","name":"Batang Serosa"}},{"type":"Feature","geometry":{"type":"Polygon","coordinates":[[[101.199,1.274],[101.1975,1.275],[101.1875,1.267],[101.186,1.2645],[101.186,1.2635],[101.1915,1.263],[101.194,1.2625],[101.194,1.2675],[101.199,1.2695],[101.201,1.2715],[101.199,1.274]]]},"properties":{"code":"14.03.09.1004","name":"Balik Alam"}},{"type":"Feature","geometry":{"type":"Polygon","coordinates":[[[101.1975,1.275],[101.1965,1.278],[101.183,1.272],[101.179,1.271],[101.179,1.269],[101.175,1.266],[101.175,1.2645],[101.186,1.2635],[101.186,1.2645],[101.1875,1.267],[101.1975,1.275]]]},"properties":{"code":"14.03.09.1006","name":"Duri Barat"}},{"type":"Feature","geometry":{"type":"Polygon","coordinates":[[[101.2285,1.2845],[101.217,1.2845],[101.2075,1.285],[101.196,1.279],[101.199,1.274],[101.208,1.2785],[101.2115,1.278],[101.229,1.2785],[101.2285,1.2845]]]},"properties":{"code":"14.03.09.1007","name":"Duri Timur"}},{"type":"Feature","geometry":{"type":"Polygon","coordinates":[[[101.229,1.2785],[101.2115,1.278],[101.208,1.2785],[101.199,1.274],[101.201,1.272],[101.2035,1.2675],[101.2105,1.26],[101.2295,1.2645],[101.2285,1.2775],[101.229,1.2785]]]},"properties":{"code":"14.03.09.1008","name":"Gajah Sakti"}},{"type":"Feature","geometry":{"type":"Polygon","coordinates":[[[101.308,1.26],[101.2665,1.2625],[101.258,1.271],[101.251,1.261],[101.229,1.261],[101.2285,1.2625],[101.2295,1.2645],[101.2105,1.26],[101.211,1.2575],[101.2135,1.254],[101.221,1.255],[101.224,1.2535],[101.2365,1.25],[101.2435,1.249],[101.2575,1.241],[101.2715,1.239],[101.278,1.2425],[101.3095,1.2435],[101.314,1.2435],[101.323,1.24],[101.328,1.2365],[101.332,1.233],[101.3335,1.2295],[101.3365,1.2275],[101.341,1.224],[101.347,1.2215],[101.3535,1.2205],[101.355,1.2185],[101.358,1.2145],[101.3705,1.2315],[101.3785,1.2565],[101.308,1.26]]]},"properties":{"code":"14.03.09.1009","name":"Talang Mandi"}},{"type":"Feature","geometry":{"type":"Polygon","coordinates":[[[101.1695,1.2655],[101.167,1.265],[101.1505,1.2635],[101.1375,1.264],[101.137,1.239],[101.118,1.209],[101.085,1.196],[101.0605,1.1825],[101.0405,1.161],[101.066,1.1415],[101.1045,1.146],[101.1355,1.1465],[101.1405,1.149],[101.136,1.1665],[101.142,1.1765],[101.161,1.194],[101.1735,1.195],[101.196,1.205],[101.1985,1.2185],[101.2195,1.229],[101.2185,1.243],[101.2165,1.249],[101.211,1.2575],[101.206,1.255],[101.203,1.2555],[101.2015,1.2605],[101.1915,1.263],[101.185,1.2635],[101.1695,1.2655]]]},"properties":{"code":"14.03.09.1010","name":"Pematang Pudu"}},{"type":"Feature","geometry":{"type":"Polygon","coordinates":[[[101.308,1.26],[101.317,1.2745],[101.3155,1.307],[101.288,1.3065],[101.293,1.3345],[101.2885,1.3435],[101.269,1.337],[101.2245,1.337],[101.229,1.329],[101.229,1.314],[101.2285,1.3015],[101.2285,1.289],[101.229,1.2805],[101.2285,1.2775],[101.2295,1.2645],[101.2285,1.2625],[101.229,1.261],[101.251,1.261],[101.258,1.271],[101.2665,1.2625],[101.308,1.26]]]},"properties":{"code":"14.03.09.2011","name":"Harapan Baru"}},{"type":"Feature","geometry":{"type":"Polygon","coordinates":[[[101.3785,1.2565],[101.388,1.293],[101.3815,1.3135],[101.382,1.3145],[101.395,1.3385],[101.412,1.345],[101.4135,1.3655],[101.383,1.364],[101.3835,1.358],[101.338,1.356],[101.2885,1.3435],[101.293,1.3345],[101.288,1.3065],[101.3155,1.307],[101.317,1.2745],[101.308,1.26],[101.3785,1.2565]]]},"properties":{"code":"14.03.09.2021","name":"Bathin Betuah"}},{"type":"Feature","geometry":{"type":"Polygon","coordinates":[[[101.5685,1.8725],[101.5495,1.8745],[101.4925,1.766],[101.4705,1.7215],[101.53,1.703],[101.536,1.7155],[101.5735,1.8045],[101.6,1.871],[101.5685,1.8725]]]},"properties":{"code":"14.03.10.1001","name":"Batu Panjang"}},{"type":"Feature","geometry":{"type":"Polygon","coordinates":[[[101.6705,1.8545],[101.6285,1.8695],[101.6105,1.8035],[101.616,1.6885],[101.6365,1.7045],[101.641,1.711],[101.6655,1.7225],[101.6725,1.731],[101.6875,1.735],[101.6785,1.7455],[101.6595,1.8015],[101.6705,1.8545]]]},"properties":{"code":"14.03.10.1002","name":"Pergam"}},{"type":"Feature","geometry":{"type":"Polygon","coordinates":[[[101.6285,1.8695],[101.6,1.871],[101.5735,1.8045],[101.536,1.7155],[101.53,1.703],[101.5605,1.6955],[101.5915,1.6935],[101.616,1.6885],[101.6105,1.8035],[101.6285,1.8695]]]},"properties":{"code":"14.03.10.1003","name":"Terkul"}},{"type":"Feature","geometry":{"type":"MultiPolygon","coordinates":[[[[101.401,1.8285],[101.3935,1.822],[101.394,1.789],[101.404,1.7635],[101.411,1.767],[101.411,1.803],[101.405,1.8255],[101.401,1.8285]]],[[[101.5775,1.9285],[101.468,1.971],[101.4605,1.9385],[101.4425,1.878],[101.434,1.8555],[101.445,1.8235],[101.429,1.8245],[101.428,1.824],[101.428,1.8235],[101.427,1.8225],[101.4255,1.8215],[101.4235,1.8215],[101.4235,1.821],[101.423,1.8205],[101.422,1.8185],[101.4215,1.8185],[101.421,1.8185],[101.4285,1.78],[101.44,1.761],[101.446,1.742],[101.4535,1.7265],[101.4705,1.7215],[101.4925,1.766],[101.5495,1.8745],[101.5685,1.8725],[101.5775,1.9285]]]]},"properties":{"code":"14.03.10.1004","name":"Tanjung Kapal"}},{"type":"Feature","geometry":{"type":"Polygon","coordinates":[[[101.777,1.9875],[101.769,1.985],[101.7605,1.993],[101.756,1.993],[101.739,1.995],[101.7425,1.9565],[101.732,1.9405],[101.726,1.908],[101.7615,1.903],[101.7735,1.918],[101.7745,1.9335],[101.785,1.9385],[101.7815,1.9675],[101.777,1.9875]]]},"properties":{"code":"14.03.10.2005","name":"Sungai Cingam"}},{"type":"Feature","geometry":{"type":"Polygon","coordinates":[[[101.7615,1.903],[101.744,1.9055],[101.7385,1.8825],[101.7205,1.8855],[101.7145,1.876],[101.686,1.889],[101.6855,1.8885],[101.68,1.8855],[101.678,1.883],[101.6775,1.8785],[101.674,1.878],[101.663,1.8785],[101.661,1.877],[101.659,1.877],[101.6555,1.8785],[101.6535,1.88],[101.6505,1.882],[101.638,1.887],[101.6285,1.8695],[101.704,1.8425],[101.745,1.8385],[101.7475,1.8645],[101.7545,1.893],[101.7615,1.903]]]},"properties":{"code":"14.03.10.2006","name":"Teluk Lecah"}},{"type":"Feature","geometry":{"type":"Polygon","coordinates":[[[101.7215,2.0445],[101.7125,2.047],[101.711,2.0465],[101.711,2.045],[101.7155,2.039],[101.7185,2.039],[101.723,2.036],[101.719,2.0325],[101.706,2.032],[101.71,2.0255],[101.713,2.0205],[101.7135,2.017],[101.714,2.0135],[101.7025,2.0115],[101.703,2.01],[101.707,2.008],[101.708,2.006],[101.707,2.0045],[101.7065,2.003],[101.7115,1.9905],[101.739,1.995],[101.756,1.993],[101.7605,1.993],[101.769,1.985],[101.777,1.9875],[101.7395,2.04],[101.7215,2.0445]]]},"properties":{"code":"14.03.10.2007","name":"Makeruh"}},{"type":"Feature","geometry":{"type":"Polygon","coordinates":[[[101.713,2.0205],[101.656,2.008],[101.659,2.004],[101.639,1.984],[101.631,1.977],[101.629,1.9735],[101.6285,1.9715],[101.6275,1.965],[101.6245,1.9585],[101.625,1.957],[101.6305,1.9535],[101.6375,1.947],[101.641,1.9515],[101.6455,1.9595],[101.658,1.965],[101.6575,1.9725],[101.6835,1.9765],[101.6915,1.9725],[101.69,1.968],[101.6885,1.9655],[101.69,1.9635],[101.6935,1.961],[101.695,1.959],[101.714,1.9785],[101.7115,1.9905],[101.7065,2.003],[101.707,2.0045],[101.708,2.006],[101.707,2.008],[101.703,2.01],[101.7025,2.0115],[101.714,2.0135],[101.7135,2.017],[101.713,2.0205]]]},"properties":{"code":"14.03.10.2008","name":"Hutan Panjang"}},{"type":"Feature","geometry":{"type":"Polygon","coordinates":[[[101.732,1.9405],[101.7425,1.9565],[101.739,1.995],[101.7115,1.9905],[101.714,1.9785],[101.719,1.96],[101.7095,1.954],[101.703,1.936],[101.7055,1.9365],[101.7075,1.9375],[101.7085,1.9385],[101.7115,1.942],[101.732,1.9405]]]},"properties":{"code":"14.03.10.2009","name":"Pangkalan Nyirih"}},{"type":"Feature","geometry":{"type":"Polygon","coordinates":[[[101.704,1.8425],[101.6705,1.8545],[101.6595,1.8015],[101.6785,1.7455],[101.6875,1.735],[101.7075,1.7425],[101.725,1.7605],[101.694,1.803],[101.704,1.8425]]]},"properties":{"code":"14.03.10.2010","name":"Sukarjo Mesim"}},{"type":"Feature","geometry":{"type":"Polygon","coordinates":[[[101.468,1.971],[101.398,1.9985],[101.3975,1.997],[101.3975,1.996],[101.397,1.995],[101.4,1.986],[101.3975,1.9495],[101.3915,1.921],[101.384,1.9065],[101.3935,1.8845],[101.409,1.8585],[101.421,1.8185],[101.4215,1.8185],[101.422,1.8185],[101.423,1.8205],[101.4235,1.821],[101.4235,1.8215],[101.4255,1.8215],[101.427,1.8225],[101.428,1.8235],[101.428,1.824],[101.429,1.8245],[101.445,1.8235],[101.434,1.8555],[101.4425,1.878],[101.4605,1.9385],[101.468,1.971]]]},"properties":{"code":"14.03.10.2011","name":"Darul Aman"}},{"type":"Feature","geometry":{"type":"Polygon","coordinates":[[[101.726,1.908],[101.72,1.91],[101.7,1.9065],[101.6915,1.9],[101.6915,1.8995],[101.689,1.894],[101.688,1.8915],[101.6865,1.89],[101.686,1.889],[101.7145,1.876],[101.7205,1.8855],[101.7385,1.8825],[101.744,1.9055],[101.726,1.908]]]},"properties":{"code":"14.03.10.2012","name":"Parit Kebumen"}},{"type":"Feature","geometry":{"type":"Polygon","coordinates":[[[101.745,1.8385],[101.704,1.8425],[101.694,1.803],[101.725,1.7605],[101.735,1.771],[101.74,1.7935],[101.745,1.8385]]]},"properties":{"code":"14.03.10.2013","name":"Sri Tanjung"}},{"type":"Feature","geometry":{"type":"Polygon","coordinates":[[[101.732,1.9405],[101.7115,1.942],[101.708,1.938],[101.706,1.937],[101.704,1.9365],[101.7,1.936],[101.7,1.9345],[101.7005,1.934],[101.703,1.934],[101.7015,1.9275],[101.707,1.9285],[101.7085,1.926],[101.7075,1.9265],[101.707,1.9245],[101.692,1.9155],[101.692,1.902],[101.6915,1.9],[101.7,1.9065],[101.72,1.91],[101.726,1.908],[101.732,1.9405]]]},"properties":{"code":"14.03.10.2014","name":"Pancur Jaya"}},{"type":"Feature","geometry":{"type":"Polygon","coordinates":[[[101.714,1.9785],[101.695,1.959],[101.696,1.9565],[101.6975,1.956],[101.692,1.9385],[101.6915,1.934],[101.6955,1.932],[101.697,1.9325],[101.698,1.9345],[101.6985,1.9355],[101.7,1.936],[101.703,1.936],[101.7095,1.954],[101.719,1.96],[101.714,1.9785]]]},"properties":{"code":"14.03.10.2015","name":"Pangkalan Pinang"}},{"type":"Feature","geometry":{"type":"Polygon","coordinates":[[[101.6325,1.9785],[101.6325,1.9795],[101.632,1.9805],[101.6175,1.991],[101.6045,1.9655],[101.593,1.956],[101.5925,1.944],[101.5775,1.9285],[101.5685,1.8725],[101.6285,1.8695],[101.638,1.887],[101.6505,1.882],[101.6535,1.88],[101.6555,1.8785],[101.659,1.877],[101.661,1.877],[101.663,1.8785],[101.674,1.878],[101.6775,1.8785],[101.678,1.883],[101.68,1.8855],[101.6855,1.8885],[101.6865,1.89],[101.688,1.8915],[101.689,1.894],[101.6915,1.8995],[101.692,1.902],[101.692,1.9155],[101.707,1.9245],[101.7075,1.9265],[101.7085,1.926],[101.707,1.9285],[101.7015,1.9275],[101.703,1.934],[101.7005,1.934],[101.7,1.9345],[101.7,1.936],[101.6995,1.936],[101.698,1.935],[101.6975,1.934],[101.697,1.9325],[101.6955,1.932],[101.6915,1.934],[101.692,1.9385],[101.6975,1.956],[101.696,1.9565],[101.6935,1.961],[101.69,1.9635],[101.6885,1.9655],[101.69,1.968],[101.6915,1.9725],[101.6835,1.9765],[101.6575,1.9725],[101.658,1.965],[101.6455,1.9595],[101.641,1.9515],[101.6375,1.947],[101.6305,1.9535],[101.625,1.957],[101.6245,1.9585],[101.6275,1.965],[101.6285,1.9715],[101.629,1.9735],[101.631,1.977],[101.6325,1.9785]]]},"properties":{"code":"14.03.10.2016","name":"Dungun Baru"}},{"type":"Feature","geometry":{"type":"Polygon","coordinates":[[[101.6575,2.1075],[101.6535,2.124],[101.6325,2.108],[101.6125,2.104],[101.5955,2.0935],[101.6385,2.0325],[101.6575,2.1075]]]},"properties":{"code":"14.03.11.2001","name":"Tanjung Medang"}},{"type":"Feature","geometry":{"type":"Polygon","coordinates":[[[101.6865,2.108],[101.6535,2.124],[101.6575,2.1075],[101.6385,2.0325],[101.641,2.029],[101.6865,2.108]]]},"properties":{"code":"14.03.11.2002","name":"Teluk Rhu"}},{"type":"Feature","geometry":{"type":"Polygon","coordinates":[[[101.715,2.0795],[101.704,2.0965],[101.6865,2.108],[101.641,2.029],[101.6435,2.0255],[101.6875,2.0845],[101.715,2.0795]]]},"properties":{"code":"14.03.11.2003","name":"Tanjung Punak"}},{"type":"Feature","geometry":{"type":"Polygon","coordinates":[[[101.711,2.046],[101.705,2.0505],[101.6995,2.048],[101.6975,2.0485],[101.6975,2.049],[101.6975,2.0525],[101.6935,2.0555],[101.672,2.0635],[101.6435,2.0255],[101.656,2.008],[101.713,2.0205],[101.71,2.0255],[101.706,2.032],[101.719,2.0325],[101.723,2.036],[101.7185,2.039],[101.7155,2.039],[101.711,2.045],[101.711,2.046]]]},"properties":{"code":"14.03.11.2004","name":"Kadur"}},{"type":"Feature","geometry":{"type":"Polygon","coordinates":[[[101.565,2.0485],[101.548,2.0405],[101.525,2.036],[101.5215,2.0305],[101.5085,2.049],[101.4775,2.0655],[101.4645,2.064],[101.446,2.0565],[101.4275,2.0445],[101.41,2.027],[101.3975,2.0045],[101.398,1.9985],[101.5775,1.9285],[101.591,1.9425],[101.59,1.9435],[101.589,1.9445],[101.5865,1.952],[101.576,1.9625],[101.574,1.9645],[101.595,1.9885],[101.6045,1.995],[101.606,2.0125],[101.651,2.0105],[101.656,2.008],[101.634,2.039],[101.6095,2.0365],[101.608,2.043],[101.5775,2.0425],[101.565,2.0485]]]},"properties":{"code":"14.03.11.2005","name":"Titi Akar"}},{"type":"Feature","geometry":{"type":"Polygon","coordinates":[[[101.656,2.008],[101.651,2.0105],[101.606,2.0125],[101.6045,1.995],[101.595,1.9885],[101.574,1.9645],[101.576,1.9625],[101.5865,1.952],[101.589,1.9445],[101.59,1.9435],[101.591,1.9425],[101.5925,1.944],[101.593,1.956],[101.6045,1.9655],[101.6175,1.991],[101.632,1.9805],[101.6325,1.9795],[101.6325,1.9785],[101.639,1.984],[101.659,2.004],[101.656,2.008]]]},"properties":{"code":"14.03.11.2006","name":"Hutan Ayu"}},{"type":"Feature","geometry":{"type":"Polygon","coordinates":[[[101.634,2.039],[101.5955,2.0935],[101.587,2.087],[101.5835,2.0755],[101.5735,2.069],[101.565,2.0485],[101.5775,2.0425],[101.608,2.043],[101.6095,2.0365],[101.634,2.039]]]},"properties":{"code":"14.03.11.2007","name":"Suka Damai"}},{"type":"Feature","geometry":{"type":"Polygon","coordinates":[[[101.715,2.0795],[101.6875,2.0845],[101.672,2.0635],[101.6935,2.0555],[101.6975,2.0525],[101.6975,2.049],[101.6975,2.0485],[101.6995,2.048],[101.705,2.0505],[101.711,2.046],[101.711,2.0465],[101.7125,2.047],[101.7215,2.0445],[101.715,2.0665],[101.715,2.0795]]]},"properties":{"code":"14.03.11.2008","name":"Puteri Sembilan"}},{"type":"Feature","geometry":{"type":"MultiPolygon","coordinates":[[[[102.0785,1.246],[102.0665,1.242],[102.0675,1.226],[102.068,1.2245],[102.079,1.218],[102.095,1.229],[102.083,1.2365],[102.0815,1.2385],[102.084,1.2425],[102.083,1.243],[102.0785,1.246]]],[[[102.1475,1.262],[102.151,1.267],[102.152,1.268],[102.1515,1.2775],[102.1415,1.277],[102.14,1.277],[102.128,1.254],[102.1275,1.2455],[102.145,1.2455],[102.1475,1.245],[102.1485,1.2495],[102.1475,1.252],[102.1455,1.2545],[102.144,1.2565],[102.1475,1.262]]]]},"properties":{"code":"14.03.12.2001","name":"Lubuk Muda"}},{"type":"Feature","geometry":{"type":"Polygon","coordinates":[[[102.112,1.2965],[102.107,1.31],[102.0855,1.309],[102.0755,1.3045],[102.0475,1.3035],[102.045,1.2975],[102.0525,1.297],[102.081,1.2765],[102.0725,1.261],[102.0835,1.2545],[102.0785,1.246],[102.083,1.243],[102.088,1.239],[102.112,1.2475],[102.1165,1.2435],[102.1235,1.246],[102.1275,1.2455],[102.128,1.254],[102.14,1.277],[102.115,1.273],[102.112,1.2965]]]},"properties":{"code":"14.03.12.2002","name":"Tanjung Belit"}},{"type":"Feature","geometry":{"type":"Polygon","coordinates":[[[102.1685,1.2285],[102.164,1.2285],[102.152,1.268],[102.151,1.267],[102.1475,1.262],[102.144,1.2565],[102.1455,1.2545],[102.1475,1.252],[102.1485,1.2495],[102.1475,1.245],[102.145,1.2455],[102.1455,1.236],[102.1325,1.2295],[102.1305,1.219],[102.13,1.217],[102.1385,1.2035],[102.148,1.2045],[102.164,1.2005],[102.1685,1.2105],[102.1685,1.2165],[102.1685,1.2285]]]},"properties":{"code":"14.03.12.2003","name":"Sungai Siput"}},{"type":"Feature","geometry":{"type":"Polygon","coordinates":[[[102.1325,1.1775],[102.126,1.1845],[102.122,1.1885],[102.1115,1.181],[102.1015,1.176],[102.093,1.1785],[102.0975,1.171],[102.094,1.161],[102.1025,1.149],[102.104,1.1495],[102.108,1.1505],[102.113,1.1555],[102.118,1.1625],[102.1325,1.1775]]]},"properties":{"code":"14.03.12.2004","name":"Sepotong"}},{"type":"Feature","geometry":{"type":"Polygon","coordinates":[[[102.0635,1.1805],[102.056,1.1555],[102.035,1.153],[102.0155,1.1405],[101.9085,1.297],[101.642,1.2965],[101.654,1.2695],[101.676,1.226],[101.689,1.2115],[101.6985,1.2045],[101.7055,1.201],[101.713,1.212],[101.777,1.212],[101.83,1.2045],[101.857,1.2015],[101.887,1.176],[101.8945,1.158],[101.901,1.1295],[101.906,1.1015],[101.91,1.089],[101.9325,1.057],[101.933,1.0565],[101.9375,1.058],[101.941,1.0815],[101.9315,1.0925],[101.9335,1.0935],[101.946,1.0995],[101.9475,1.106],[101.95,1.106],[101.952,1.1055],[101.9525,1.103],[101.9525,1.1015],[101.9545,1.0965],[101.9565,1.095],[101.9585,1.0955],[101.9605,1.0965],[101.961,1.099],[101.9615,1.1015],[101.962,1.1065],[101.9625,1.107],[101.966,1.1095],[101.9755,1.1085],[101.9775,1.107],[101.98,1.0975],[101.9795,1.094],[101.977,1.085],[101.977,1.08],[101.977,1.0795],[101.979,1.078],[101.9805,1.078],[101.985,1.0785],[101.9895,1.0805],[101.99,1.081],[101.9905,1.084],[101.9905,1.0845],[101.9925,1.0875],[101.9965,1.098],[102.0175,1.109],[102.0195,1.113],[102.02,1.114],[102.02,1.1155],[102.021,1.124],[102.0255,1.131],[102.0285,1.1455],[102.0315,1.1505],[102.0415,1.1475],[102.0475,1.145],[102.0515,1.147],[102.056,1.151],[102.063,1.153],[102.066,1.1475],[102.0675,1.143],[102.0715,1.1425],[102.078,1.1435],[102.082,1.1415],[102.0835,1.146],[102.0835,1.151],[102.068,1.161],[102.065,1.1635],[102.0665,1.168],[102.0875,1.176],[102.093,1.1785],[102.1015,1.176],[102.1115,1.181],[102.122,1.1885],[102.116,1.1945],[102.115,1.196],[102.1105,1.1925],[102.1065,1.199],[102.1025,1.2015],[102.098,1.2015],[102.0935,1.202],[102.093,1.2175],[102.0905,1.2235],[102.0735,1.215],[102.0855,1.1945],[102.079,1.184],[102.0655,1.1765],[102.0635,1.1805]]]},"properties":{"code":"14.03.12.2005","name":"Lubuk Gaung"}},{"type":"Feature","geometry":{"type":"Polygon","coordinates":[[[102.1025,1.149],[102.094,1.161],[102.0975,1.171],[102.093,1.1785],[102.0875,1.176],[102.0665,1.168],[102.065,1.1635],[102.068,1.161],[102.0835,1.151],[102.0835,1.146],[102.082,1.1415],[102.0845,1.14],[102.0865,1.1385],[102.1015,1.1295],[102.1025,1.132],[102.104,1.1375],[102.1015,1.1485],[102.1025,1.149]]]},"properties":{"code":"14.03.12.2006","name":"Langkat"}},{"type":"Feature","geometry":{"type":"Polygon","coordinates":[[[102.0705,1.1135],[102.0705,1.1425],[102.068,1.1425],[102.0665,1.144],[102.0655,1.1475],[102.0605,1.1515],[102.052,1.147],[102.048,1.145],[102.046,1.145],[102.0395,1.1475],[102.0305,1.1465],[102.0285,1.1445],[102.0275,1.1395],[102.027,1.1325],[102.0205,1.1105],[102.019,1.109],[102.0315,1.0995],[102.0405,1.087],[102.053,1.0865],[102.0655,1.093],[102.0705,1.1135]]]},"properties":{"code":"14.03.12.2007","name":"Sadar Jaya"}},{"type":"Feature","geometry":{"type":"Polygon","coordinates":[[[101.996,1.298],[101.986,1.298],[101.9355,1.297],[101.9085,1.297],[102.0155,1.1405],[102.035,1.153],[102.056,1.1555],[102.0635,1.1805],[101.996,1.298]]]},"properties":{"code":"14.03.12.2008","name":"Sungai Linau"}},{"type":"Feature","geometry":{"type":"Polygon","coordinates":[[[101.9765,1.08],[101.976,1.081],[101.9765,1.083],[101.9785,1.1],[101.977,1.1065],[101.972,1.1085],[101.967,1.109],[101.9625,1.1055],[101.965,1.0925],[101.959,1.066],[101.963,1.066],[101.961,0.999],[101.967,0.9925],[101.979,0.98],[102.008,1.012],[102.014,1.0215],[101.9665,1.0665],[101.964,1.0805],[101.9765,1.08]]]},"properties":{"code":"14.03.12.2009","name":"Bandar Jaya"}},{"type":"Feature","geometry":{"type":"Polygon","coordinates":[[[102.0405,1.087],[102.0315,1.0995],[102.019,1.109],[102.018,1.108],[102.015,1.106],[102.007,1.102],[101.9965,1.0965],[101.991,1.0845],[101.9905,1.081],[101.99,1.0805],[101.986,1.0785],[101.9845,1.078],[101.9825,1.0775],[101.979,1.0775],[101.9785,1.0775],[101.9775,1.078],[101.977,1.0785],[101.9765,1.08],[101.964,1.0805],[101.9665,1.0665],[102.014,1.0215],[102.0205,1.032],[102.0335,1.032],[102.035,1.0535],[102.0345,1.06],[102.035,1.0765],[102.0375,1.0875],[102.0405,1.087]]]},"properties":{"code":"14.03.12.2010","name":"Muara Dua"}},{"type":"Feature","geometry":{"type":"Polygon","coordinates":[[[102.0265,1.2975],[101.996,1.298],[102.0655,1.1765],[102.079,1.184],[102.0855,1.1945],[102.0735,1.215],[102.079,1.218],[102.068,1.2245],[102.0675,1.226],[102.0265,1.2975]]]},"properties":{"code":"14.03.12.2011","name":"Tanjung Damai"}},{"type":"Feature","geometry":{"type":"Polygon","coordinates":[[[102.0785,1.246],[102.0835,1.2545],[102.0725,1.261],[102.081,1.2765],[102.0525,1.297],[102.0265,1.2975],[102.0675,1.226],[102.0665,1.242],[102.0785,1.246]]]},"properties":{"code":"14.03.12.2012","name":"Sumber Jaya"}},{"type":"Feature","geometry":{"type":"Polygon","coordinates":[[[102.1165,1.2435],[102.112,1.2475],[102.088,1.239],[102.084,1.2425],[102.0815,1.2385],[102.083,1.2365],[102.095,1.229],[102.0905,1.2235],[102.093,1.2175],[102.0935,1.202],[102.098,1.2015],[102.1025,1.2015],[102.1065,1.199],[102.1105,1.1925],[102.114,1.195],[102.1215,1.201],[102.128,1.208],[102.1225,1.211],[102.1145,1.216],[102.1145,1.2185],[102.1125,1.228],[102.1165,1.2435]]]},"properties":{"code":"14.03.12.2013","name":"Lubuk Garam"}},{"type":"Feature","geometry":{"type":"Polygon","coordinates":[[[102.1325,1.2295],[102.1325,1.2345],[102.1285,1.2385],[102.1245,1.2415],[102.1205,1.245],[102.1165,1.2435],[102.1125,1.228],[102.1145,1.2185],[102.1145,1.216],[102.1225,1.211],[102.1285,1.2085],[102.129,1.2125],[102.1305,1.219],[102.1325,1.2295]]]},"properties":{"code":"14.03.12.2014","name":"Liang Banir"}},{"type":"Feature","geometry":{"type":"Polygon","coordinates":[[[102.1275,1.2455],[102.1235,1.246],[102.1205,1.245],[102.1245,1.2415],[102.1285,1.2385],[102.1325,1.2345],[102.1325,1.2295],[102.1455,1.236],[102.145,1.2455],[102.1275,1.2455]]]},"properties":{"code":"14.03.12.2015","name":"Tanjung Datuk"}},{"type":"Feature","geometry":{"type":"Polygon","coordinates":[[[102.148,1.2045],[102.1385,1.2035],[102.13,1.217],[102.129,1.2125],[102.1285,1.2085],[102.128,1.208],[102.1215,1.201],[102.115,1.196],[102.116,1.1945],[102.126,1.1845],[102.1325,1.1775],[102.133,1.1785],[102.149,1.1875],[102.148,1.2045]]]},"properties":{"code":"14.03.12.2016","name":"Koto Raja"}},{"type":"Feature","geometry":{"type":"Polygon","coordinates":[[[102.082,1.1415],[102.078,1.1435],[102.0715,1.1425],[102.0675,1.143],[102.066,1.1475],[102.063,1.153],[102.056,1.151],[102.0515,1.147],[102.0475,1.145],[102.0415,1.1475],[102.0315,1.1505],[102.0285,1.1455],[102.0255,1.131],[102.021,1.124],[102.02,1.1155],[102.02,1.114],[102.0195,1.113],[102.0175,1.109],[101.9965,1.098],[101.9925,1.0875],[101.9905,1.0845],[101.99,1.081],[101.9895,1.0805],[101.985,1.0785],[101.9805,1.078],[101.9795,1.078],[101.979,1.078],[101.9775,1.079],[101.977,1.0795],[101.977,1.0825],[101.977,1.085],[101.9795,1.094],[101.98,1.0975],[101.9775,1.107],[101.9755,1.1085],[101.966,1.1095],[101.9625,1.107],[101.962,1.1065],[101.9615,1.1015],[101.961,1.099],[101.9605,1.0965],[101.9585,1.0955],[101.9565,1.095],[101.9545,1.0965],[101.9525,1.1015],[101.9525,1.103],[101.952,1.1055],[101.95,1.106],[101.9475,1.106],[101.946,1.0995],[101.9335,1.0935],[101.9315,1.0925],[101.941,1.0815],[101.9375,1.058],[101.933,1.0565],[101.9325,1.057],[101.949,1.031],[101.954,1.006],[101.959,1.001],[101.961,0.999],[101.963,1.066],[101.959,1.066],[101.965,1.0925],[101.9625,1.1055],[101.967,1.109],[101.972,1.1085],[101.977,1.1065],[101.9785,1.1],[101.9765,1.083],[101.976,1.0805],[101.977,1.0785],[101.978,1.0775],[101.9785,1.0775],[101.9795,1.0775],[101.9845,1.078],[101.986,1.0785],[101.9905,1.0805],[101.991,1.0845],[101.9965,1.0965],[102.007,1.102],[102.015,1.106],[102.018,1.108],[102.0205,1.1105],[102.027,1.1325],[102.0275,1.1395],[102.0285,1.1445],[102.0305,1.1465],[102.0395,1.1475],[102.046,1.145],[102.0475,1.145],[102.0485,1.145],[102.052,1.147],[102.0605,1.1515],[102.0655,1.1475],[102.0665,1.144],[102.068,1.1425],[102.0705,1.1425],[102.0705,1.1135],[102.0735,1.117],[102.095,1.1215],[102.098,1.126],[102.1015,1.1295],[102.0865,1.1385],[102.0845,1.14],[102.082,1.1415]]]},"properties":{"code":"14.03.12.2017","name":"Sungai Nibung"}},{"type":"Feature","geometry":{"type":"Polygon","coordinates":[[[101.358,1.2145],[101.355,1.2185],[101.3535,1.2205],[101.347,1.2215],[101.341,1.224],[101.3365,1.2275],[101.3335,1.2295],[101.332,1.233],[101.328,1.2365],[101.323,1.24],[101.314,1.2435],[101.3095,1.2435],[101.278,1.2425],[101.2715,1.239],[101.2575,1.241],[101.2435,1.249],[101.2365,1.25],[101.224,1.2535],[101.222,1.25],[101.2205,1.243],[101.221,1.2395],[101.224,1.231],[101.2415,1.2245],[101.2715,1.222],[101.282,1.2175],[101.317,1.2175],[101.3495,1.2125],[101.356,1.1965],[101.3595,1.197],[101.3615,1.1985],[101.3615,1.2035],[101.3615,1.208],[101.3595,1.2125],[101.358,1.2145]]]},"properties":{"code":"14.03.13.1001","name":"Titian Antui"}},{"type":"Feature","geometry":{"type":"Polygon","coordinates":[[[101.222,1.25],[101.221,1.255],[101.2135,1.254],[101.2165,1.249],[101.2185,1.243],[101.2195,1.229],[101.1985,1.2185],[101.196,1.205],[101.1735,1.195],[101.161,1.194],[101.142,1.1765],[101.136,1.1665],[101.1405,1.149],[101.151,1.168],[101.1805,1.1725],[101.2085,1.1805],[101.2215,1.1735],[101.222,1.174],[101.253,1.195],[101.2545,1.1955],[101.2535,1.1975],[101.25,1.2055],[101.23,1.2205],[101.226,1.2265],[101.221,1.2395],[101.2205,1.243],[101.222,1.25]]]},"properties":{"code":"14.03.13.1012","name":"Balai Raja"}},{"type":"Feature","geometry":{"type":"Polygon","coordinates":[[[101.302,1.046],[101.3025,1.061],[101.3075,1.083],[101.309,1.088],[101.3065,1.0885],[101.301,1.09],[101.2795,1.0815],[101.2795,1.0725],[101.2745,1.0655],[101.2765,1.063],[101.28,1.0625],[101.2815,1.062],[101.2825,1.0595],[101.283,1.059],[101.2875,1.057],[101.302,1.046]]]},"properties":{"code":"14.03.13.2003","name":"Balai Pungut"}},{"type":"Feature","geometry":{"type":"Polygon","coordinates":[[[101.388,1.1655],[101.3785,1.1595],[101.3525,1.1645],[101.3515,1.165],[101.3485,1.167],[101.35,1.171],[101.349,1.174],[101.345,1.175],[101.333,1.1745],[101.3245,1.152],[101.3085,1.162],[101.2825,1.1595],[101.2785,1.1535],[101.277,1.154],[101.2725,1.155],[101.272,1.155],[101.2715,1.155],[101.2705,1.1545],[101.268,1.1535],[101.268,1.153],[101.2615,1.15],[101.26,1.149],[101.2595,1.149],[101.2595,1.1475],[101.2585,1.141],[101.257,1.139],[101.256,1.1355],[101.2545,1.135],[101.2555,1.1345],[101.257,1.133],[101.259,1.129],[101.264,1.126],[101.2765,1.1265],[101.28,1.111],[101.298,1.1115],[101.313,1.1045],[101.3195,1.116],[101.322,1.1145],[101.3345,1.1115],[101.337,1.11],[101.3385,1.1095],[101.339,1.1025],[101.3525,1.092],[101.3505,1.086],[101.3815,1.086],[101.3815,1.0865],[101.381,1.088],[101.3795,1.1025],[101.386,1.111],[101.3825,1.127],[101.3885,1.138],[101.3895,1.139],[101.3845,1.14],[101.393,1.162],[101.389,1.166],[101.388,1.1655]]]},"properties":{"code":"14.03.13.2005","name":"Muara Basung"}},{"type":"Feature","geometry":{"type":"Polygon","coordinates":[[[101.2825,1.1595],[101.2825,1.169],[101.272,1.176],[101.255,1.196],[101.253,1.195],[101.222,1.174],[101.2215,1.173],[101.222,1.1715],[101.222,1.171],[101.225,1.1595],[101.2245,1.158],[101.215,1.141],[101.214,1.1405],[101.2075,1.123],[101.208,1.1215],[101.2085,1.121],[101.209,1.12],[101.2095,1.119],[101.217,1.1085],[101.2165,1.108],[101.232,1.099],[101.2335,1.097],[101.2335,1.0965],[101.2345,1.0955],[101.237,1.094],[101.238,1.0945],[101.2385,1.1135],[101.2505,1.1245],[101.251,1.1255],[101.2545,1.1345],[101.2545,1.135],[101.255,1.1355],[101.256,1.1355],[101.257,1.139],[101.2585,1.141],[101.2595,1.1475],[101.2595,1.149],[101.26,1.149],[101.2615,1.15],[101.268,1.153],[101.268,1.1535],[101.2705,1.1545],[101.2715,1.155],[101.272,1.155],[101.2725,1.155],[101.277,1.154],[101.2785,1.1535],[101.2825,1.1595]]]},"properties":{"code":"14.03.13.2007","name":"Pinggir"}},{"type":"Feature","geometry":{"type":"Polygon","coordinates":[[[101.356,1.1965],[101.3495,1.2125],[101.317,1.2175],[101.282,1.2175],[101.2715,1.222],[101.2415,1.2245],[101.224,1.231],[101.226,1.2265],[101.23,1.2205],[101.25,1.2055],[101.2535,1.1975],[101.2545,1.1955],[101.255,1.196],[101.272,1.176],[101.2825,1.169],[101.2825,1.1595],[101.3085,1.162],[101.3245,1.152],[101.333,1.1745],[101.345,1.175],[101.349,1.174],[101.35,1.171],[101.3485,1.167],[101.3515,1.165],[101.3525,1.1645],[101.3785,1.1595],[101.388,1.1655],[101.356,1.1965]]]},"properties":{"code":"14.03.13.2008","name":"Semunai"}},{"type":"Feature","geometry":{"type":"Polygon","coordinates":[[[101.3505,1.086],[101.3525,1.092],[101.339,1.1025],[101.3385,1.1095],[101.337,1.11],[101.3345,1.1115],[101.322,1.1145],[101.3195,1.116],[101.313,1.1045],[101.298,1.1115],[101.28,1.111],[101.2765,1.1265],[101.264,1.126],[101.259,1.129],[101.257,1.133],[101.2555,1.1345],[101.2545,1.135],[101.2545,1.1345],[101.251,1.1255],[101.2505,1.1245],[101.2385,1.1135],[101.238,1.0945],[101.237,1.094],[101.2345,1.0955],[101.2365,1.092],[101.238,1.0905],[101.2405,1.0885],[101.243,1.0875],[101.251,1.0815],[101.2525,1.0785],[101.254,1.0775],[101.2745,1.0655],[101.2795,1.0725],[101.2795,1.0815],[101.301,1.09],[101.3065,1.0885],[101.309,1.088],[101.3075,1.083],[101.3025,1.061],[101.302,1.046],[101.3235,1.0405],[101.3385,1.029],[101.342,1.0285],[101.353,1.0325],[101.355,1.031],[101.3565,1.0295],[101.353,1.0515],[101.3545,1.0545],[101.3525,1.0585],[101.3505,1.086]]]},"properties":{"code":"14.03.13.2011","name":"Tengganau"}},{"type":"Feature","geometry":{"type":"Polygon","coordinates":[[[101.2165,1.108],[101.204,1.111],[101.193,1.12],[101.1905,1.122],[101.19,1.1225],[101.189,1.1225],[101.186,1.1225],[101.174,1.0975],[101.134,1.097],[101.135,1.074],[101.1465,1.074],[101.1465,1.064],[101.1465,1.0525],[101.1625,1.0485],[101.169,1.039],[101.2045,1.05],[101.2265,1.047],[101.2365,1.092],[101.2335,1.0965],[101.2335,1.097],[101.232,1.099],[101.2165,1.108]]]},"properties":{"code":"14.03.13.2014","name":"Sungai Meranti"}},{"type":"Feature","geometry":{"type":"Polygon","coordinates":[[[101.2745,1.0655],[101.254,1.0775],[101.2525,1.0785],[101.251,1.0815],[101.243,1.0875],[101.2405,1.0885],[101.238,1.0905],[101.2365,1.092],[101.2265,1.047],[101.2045,1.05],[101.169,1.039],[101.1625,1.0485],[101.1465,1.0525],[101.1465,1.064],[101.1465,1.074],[101.098,1.074],[101.0515,1.072],[100.996,1.072],[101.079,1.003],[101.093,1.012],[101.1135,1.0195],[101.1275,1.02],[101.1355,1.0195],[101.1415,1.019],[101.1445,1.0185],[101.17,1.0125],[101.192,1.0005],[101.194,0.9995],[101.195,1],[101.2,1.001],[101.21,1.0035],[101.2175,1.0065],[101.222,1.007],[101.2275,1.0075],[101.2545,1.024],[101.259,1.032],[101.276,1.0465],[101.276,1.048],[101.2765,1.049],[101.2785,1.0535],[101.2805,1.057],[101.2825,1.0595],[101.2815,1.062],[101.28,1.0625],[101.2765,1.063],[101.2745,1.0655]]]},"properties":{"code":"14.03.13.2015","name":"Pangkalan Libut"}},{"type":"Feature","geometry":{"type":"Polygon","coordinates":[[[101.0405,1.161],[100.9915,1.2005],[100.9915,1.2],[100.9915,1.1995],[100.9925,1.1975],[100.993,1.1935],[100.9885,1.179],[100.988,1.1255],[100.99,1.1145],[100.984,1.0985],[100.9855,1.0925],[100.984,1.0845],[100.984,1.082],[100.996,1.072],[101.0515,1.072],[101.098,1.074],[101.135,1.074],[101.134,1.097],[101.174,1.0975],[101.186,1.1225],[101.189,1.1225],[101.19,1.1225],[101.1905,1.122],[101.193,1.12],[101.204,1.111],[101.2165,1.108],[101.217,1.1085],[101.2095,1.119],[101.209,1.12],[101.2085,1.121],[101.208,1.1215],[101.2075,1.123],[101.214,1.1405],[101.215,1.141],[101.2245,1.158],[101.225,1.1595],[101.222,1.171],[101.222,1.1715],[101.2215,1.173],[101.2215,1.1735],[101.2085,1.1805],[101.1805,1.1725],[101.151,1.168],[101.1405,1.149],[101.1355,1.1465],[101.1045,1.146],[101.066,1.1415],[101.0405,1.161]]]},"properties":{"code":"14.03.13.2016","name":"Buluh Apo"}},{"type":"Feature","geometry":{"type":"Polygon","coordinates":[[[101.9785,1.483],[101.956,1.5],[101.9495,1.4935],[101.946,1.491],[101.968,1.4655],[101.9785,1.483]]]},"properties":{"code":"14.03.14.2001","name":"Parit I Api-Api"}},{"type":"Feature","geometry":{"type":"Polygon","coordinates":[[[101.968,1.4655],[101.946,1.491],[101.9215,1.4745],[101.642,1.2965],[101.776,1.297],[101.793,1.309],[101.7855,1.317],[101.786,1.327],[101.794,1.33],[101.7875,1.3445],[101.792,1.3615],[101.807,1.357],[101.8165,1.3645],[101.821,1.3545],[101.829,1.3545],[101.8315,1.367],[101.823,1.3755],[101.834,1.382],[101.8515,1.3835],[101.854,1.3895],[101.867,1.3925],[101.8705,1.3935],[101.873,1.393],[101.8885,1.389],[101.891,1.3965],[101.892,1.3975],[101.895,1.3975],[101.898,1.396],[101.9005,1.396],[101.9015,1.3965],[101.9045,1.397],[101.906,1.398],[101.9065,1.3995],[101.9065,1.403],[101.9085,1.406],[101.9265,1.4195],[101.9235,1.4265],[101.9325,1.44],[101.9315,1.466],[101.933,1.4665],[101.943,1.469],[101.9495,1.463],[101.9685,1.4625],[101.968,1.465],[101.968,1.4655]]]},"properties":{"code":"14.03.14.2002","name":"Temiang"}},{"type":"Feature","geometry":{"type":"Polygon","coordinates":[[[101.956,1.5],[101.9295,1.5245],[101.922,1.5155],[101.892,1.4955],[101.631,1.3285],[101.635,1.3195],[101.642,1.2965],[101.9215,1.4745],[101.9495,1.4935],[101.956,1.5]]]},"properties":{"code":"14.03.14.2003","name":"Api-Api"}},{"type":"Feature","geometry":{"type":"Polygon","coordinates":[[[101.9295,1.5245],[101.896,1.547],[101.892,1.544],[101.566,1.355],[101.5935,1.351],[101.629,1.3325],[101.631,1.3285],[101.892,1.4955],[101.922,1.5155],[101.9295,1.5245]]]},"properties":{"code":"14.03.14.2004","name":"Tenggayun"}},{"type":"Feature","geometry":{"type":"Polygon","coordinates":[[[101.896,1.547],[101.8735,1.5615],[101.841,1.5875],[101.8065,1.622],[101.7855,1.6395],[101.785,1.6375],[101.781,1.6305],[101.776,1.6245],[101.755,1.6015],[101.7285,1.5875],[101.7285,1.499],[101.727,1.4965],[101.7275,1.4485],[101.892,1.544],[101.896,1.547]]]},"properties":{"code":"14.03.14.2005","name":"Sepahat"}},{"type":"Feature","geometry":{"type":"Polygon","coordinates":[[[101.5065,1.4935],[101.4495,1.4945],[101.4475,1.486],[101.4355,1.447],[101.435,1.447],[101.44,1.443],[101.4605,1.417],[101.4655,1.4015],[101.473,1.3935],[101.4655,1.374],[101.4765,1.365],[101.4965,1.3535],[101.566,1.355],[101.6525,1.405],[101.5615,1.474],[101.549,1.483],[101.5265,1.4835],[101.5085,1.4925],[101.5065,1.4935]]]},"properties":{"code":"14.03.14.2006","name":"Bukit Kerikil"}},{"type":"Feature","geometry":{"type":"Polygon","coordinates":[[[101.7855,1.6395],[101.762,1.6595],[101.7405,1.6685],[101.725,1.6715],[101.727,1.6665],[101.7185,1.6225],[101.706,1.6215],[101.642,1.61],[101.6245,1.5885],[101.6425,1.562],[101.6405,1.548],[101.6185,1.5455],[101.6195,1.5525],[101.609,1.5825],[101.598,1.6],[101.5895,1.5985],[101.5795,1.597],[101.5745,1.5965],[101.5545,1.596],[101.5485,1.5965],[101.528,1.5955],[101.5065,1.4935],[101.5085,1.4925],[101.5265,1.4835],[101.549,1.483],[101.5615,1.474],[101.6525,1.405],[101.7275,1.4485],[101.727,1.4965],[101.7285,1.499],[101.7285,1.5875],[101.755,1.6015],[101.776,1.6245],[101.781,1.6305],[101.785,1.6375],[101.7855,1.6395]]]},"properties":{"code":"14.03.14.2007","name":"Tanjung Leban"}},{"type":"Feature","geometry":{"type":"Polygon","coordinates":[[[101.566,1.355],[101.4965,1.3535],[101.4765,1.365],[101.4655,1.374],[101.4665,1.3565],[101.4785,1.355],[101.491,1.3475],[101.492,1.339],[101.506,1.3295],[101.5135,1.3345],[101.5275,1.3265],[101.526,1.2825],[101.466,1.258],[101.464,1.2525],[101.449,1.2505],[101.439,1.241],[101.418,1.229],[101.4175,1.2155],[101.3895,1.202],[101.375,1.2015],[101.363,1.2075],[101.3615,1.208],[101.3615,1.2035],[101.3615,1.1985],[101.3595,1.197],[101.356,1.1965],[101.389,1.166],[101.393,1.162],[101.3845,1.14],[101.3895,1.139],[101.39,1.14],[101.3905,1.1395],[101.393,1.1415],[101.398,1.142],[101.4005,1.141],[101.402,1.1415],[101.402,1.141],[101.402,1.1395],[101.4165,1.1495],[101.4275,1.149],[101.4395,1.1605],[101.4455,1.16],[101.4465,1.1595],[101.447,1.1585],[101.4475,1.159],[101.451,1.1745],[101.4885,1.149],[101.491,1.122],[101.672,1.233],[101.654,1.2695],[101.642,1.2965],[101.635,1.3195],[101.629,1.3325],[101.5935,1.351],[101.566,1.355]]]},"properties":{"code":"14.03.15.2001","name":"Tasik Serai"}},{"type":"Feature","geometry":{"type":"Polygon","coordinates":[[[101.4655,1.374],[101.445,1.395],[101.4135,1.3655],[101.412,1.345],[101.395,1.3385],[101.382,1.3145],[101.3815,1.3135],[101.388,1.293],[101.3785,1.2565],[101.3705,1.2315],[101.358,1.2145],[101.3595,1.2125],[101.3615,1.208],[101.363,1.2075],[101.375,1.2015],[101.3895,1.202],[101.4175,1.2155],[101.418,1.229],[101.439,1.241],[101.449,1.2505],[101.464,1.2525],[101.466,1.258],[101.526,1.2825],[101.5275,1.3265],[101.5135,1.3345],[101.506,1.3295],[101.492,1.339],[101.491,1.3475],[101.4785,1.355],[101.4665,1.3565],[101.4655,1.374]]]},"properties":{"code":"14.03.15.2002","name":"Tasik Serai Barat"}},{"type":"Feature","geometry":{"type":"Polygon","coordinates":[[[101.3815,1.086],[101.3505,1.086],[101.3525,1.0585],[101.3545,1.0545],[101.353,1.0515],[101.3565,1.0295],[101.3635,1.032],[101.366,1.031],[101.367,1.028],[101.372,1.0265],[101.3735,1.026],[101.3755,1.025],[101.3765,1.026],[101.376,1.0285],[101.376,1.047],[101.3665,1.0545],[101.3785,1.0815],[101.3815,1.086]]]},"properties":{"code":"14.03.15.2003","name":"Kualo Penaso"}},{"type":"Feature","geometry":{"type":"Polygon","coordinates":[[[101.533,1.073],[101.531,1.0745],[101.5245,1.082],[101.519,1.084],[101.509,1.086],[101.504,1.097],[101.494,1.0985],[101.4895,1.098],[101.487,1.0975],[101.4845,1.098],[101.487,1.09],[101.486,1.0855],[101.489,1.0745],[101.4865,1.071],[101.4755,1.059],[101.463,1.054],[101.458,1.0465],[101.4425,1.041],[101.431,1.0415],[101.417,1.0225],[101.4185,1.021],[101.422,1.0145],[101.4305,1.0155],[101.4315,1.016],[101.4345,1.0155],[101.4445,1.006],[101.455,1.0045],[101.4575,1.0015],[101.457,0.9925],[101.456,0.985],[101.462,0.9825],[101.4665,0.98],[101.469,0.9785],[101.4695,0.978],[101.4735,0.976],[101.474,0.9755],[101.475,0.9745],[101.488,0.967],[101.501,0.9795],[101.5005,1.019],[101.5165,1.035],[101.52,1.0585],[101.533,1.0725],[101.533,1.073]]]},"properties":{"code":"14.03.15.2004","name":"Beringin"}},{"type":"Feature","geometry":{"type":"Polygon","coordinates":[[[101.447,1.1585],[101.4465,1.1595],[101.4455,1.16],[101.4395,1.1605],[101.4275,1.149],[101.4165,1.1495],[101.402,1.1395],[101.402,1.141],[101.402,1.1415],[101.4005,1.141],[101.398,1.142],[101.393,1.1415],[101.3905,1.1395],[101.39,1.14],[101.3885,1.138],[101.3825,1.127],[101.386,1.111],[101.3795,1.1025],[101.381,1.088],[101.3815,1.086],[101.379,1.082],[101.3785,1.0815],[101.3665,1.0545],[101.376,1.047],[101.376,1.0285],[101.3765,1.026],[101.3755,1.025],[101.376,1.024],[101.3775,1.0235],[101.394,1.0205],[101.409,1.022],[101.4165,1.023],[101.417,1.0225],[101.431,1.0415],[101.4425,1.041],[101.458,1.0465],[101.463,1.054],[101.4755,1.059],[101.4865,1.071],[101.489,1.0745],[101.486,1.0855],[101.487,1.09],[101.482,1.098],[101.468,1.1065],[101.4655,1.1065],[101.4625,1.107],[101.456,1.109],[101.455,1.1095],[101.4535,1.1165],[101.4565,1.12],[101.4595,1.123],[101.4635,1.125],[101.463,1.127],[101.46,1.129],[101.457,1.1315],[101.4465,1.1435],[101.444,1.1475],[101.444,1.15],[101.4455,1.1545],[101.446,1.156],[101.4455,1.1575],[101.4455,1.158],[101.447,1.1585]]]},"properties":{"code":"14.03.15.2005","name":"Koto Pait Beringin"}},{"type":"Feature","geometry":{"type":"Polygon","coordinates":[[[101.5495,1.069],[101.543,1.075],[101.5405,1.0765],[101.5325,1.0735],[101.533,1.0725],[101.52,1.0585],[101.5165,1.035],[101.5005,1.019],[101.501,0.9795],[101.488,0.967],[101.501,0.958],[101.519,0.951],[101.522,0.937],[101.5245,0.9315],[101.5365,0.9265],[101.541,0.925],[101.546,0.923],[101.5475,0.9215],[101.583,1.002],[101.599,1.034],[101.593,1.04],[101.589,1.061],[101.577,1.0565],[101.5685,1.068],[101.563,1.068],[101.563,1.0685],[101.561,1.0715],[101.5575,1.068],[101.557,1.068],[101.551,1.067],[101.5495,1.0675],[101.5495,1.069]]]},"properties":{"code":"14.03.15.2006","name":"Melibur"}},{"type":"Feature","geometry":{"type":"Polygon","coordinates":[[[101.689,1.2115],[101.676,1.226],[101.672,1.233],[101.491,1.122],[101.4885,1.149],[101.451,1.1745],[101.4475,1.159],[101.4455,1.158],[101.4455,1.1575],[101.446,1.156],[101.4455,1.1545],[101.444,1.15],[101.444,1.1475],[101.4465,1.1435],[101.457,1.1315],[101.46,1.129],[101.463,1.127],[101.4635,1.125],[101.4595,1.123],[101.4565,1.12],[101.4535,1.1165],[101.455,1.1095],[101.456,1.109],[101.4625,1.107],[101.4655,1.1065],[101.468,1.1065],[101.482,1.098],[101.4845,1.098],[101.487,1.0975],[101.4895,1.098],[101.494,1.0985],[101.504,1.097],[101.509,1.086],[101.519,1.084],[101.5245,1.082],[101.531,1.0745],[101.533,1.073],[101.5325,1.0735],[101.5405,1.0765],[101.543,1.075],[101.5495,1.069],[101.601,1.124],[101.6425,1.1425],[101.643,1.152],[101.664,1.167],[101.669,1.183],[101.6815,1.1955],[101.689,1.2115]],[[101.5165,1.12],[101.5165,1.1125],[101.506,1.1125],[101.506,1.12],[101.5165,1.12]]]},"properties":{"code":"14.03.15.2007","name":"Tasik Serai Timur"}},{"type":"Feature","geometry":{"type":"Polygon","coordinates":[[[101.7055,1.201],[101.6985,1.2045],[101.689,1.2115],[101.6815,1.1955],[101.669,1.183],[101.664,1.167],[101.643,1.152],[101.6425,1.1425],[101.601,1.124],[101.5495,1.069],[101.5495,1.0675],[101.551,1.067],[101.557,1.068],[101.5575,1.068],[101.561,1.0715],[101.563,1.0685],[101.563,1.068],[101.5685,1.068],[101.577,1.0565],[101.589,1.061],[101.593,1.04],[101.599,1.034],[101.64,1.099],[101.6575,1.1315],[101.669,1.148],[101.7055,1.201]]]},"properties":{"code":"14.03.15.2008","name":"Tasik Tebing Serai"}},{"type":"Feature","geometry":{"type":"Polygon","coordinates":[[[101.5165,1.12],[101.506,1.12],[101.506,1.1125],[101.5165,1.1125],[101.5165,1.12]]]},"properties":{"code":"14.03.15.2009","name":"Serai Wangi"}},{"type":"Feature","geometry":{"type":"Polygon","coordinates":[[[101.088,1.364],[101.0865,1.3645],[101.077,1.376],[101.072,1.378],[101.0695,1.3785],[101.068,1.379],[101.0665,1.378],[101.044,1.365],[101.021,1.3525],[101.014,1.3495],[100.9735,1.348],[100.9685,1.3295],[100.974,1.327],[100.9885,1.298],[100.9875,1.27],[100.979,1.264],[100.979,1.261],[101.0155,1.269],[101.039,1.2745],[101.071,1.2835],[101.077,1.2875],[101.0865,1.2775],[101.087,1.2775],[101.127,1.2735],[101.128,1.2725],[101.1375,1.264],[101.1505,1.2635],[101.157,1.2645],[101.161,1.287],[101.149,1.2795],[101.124,1.3175],[101.1235,1.318],[101.117,1.334],[101.108,1.338],[101.1075,1.338],[101.1065,1.338],[101.1055,1.338],[101.1045,1.3385],[101.104,1.339],[101.104,1.341],[101.095,1.349],[101.0935,1.35],[101.0935,1.3545],[101.0935,1.3585],[101.0935,1.3605],[101.0925,1.362],[101.0895,1.364],[101.088,1.364]]]},"properties":{"code":"14.03.16.2001","name":"Petani"}},{"type":"Feature","geometry":{"type":"Polygon","coordinates":[[[101.137,1.367],[101.135,1.373],[101.1355,1.374],[101.1265,1.3895],[101.1125,1.3875],[101.096,1.3865],[101.0935,1.387],[101.0775,1.3865],[101.068,1.379],[101.0695,1.3785],[101.072,1.378],[101.077,1.376],[101.0865,1.3645],[101.088,1.364],[101.0895,1.364],[101.0925,1.362],[101.0935,1.3605],[101.0935,1.3585],[101.0935,1.3545],[101.0935,1.35],[101.095,1.349],[101.104,1.341],[101.104,1.339],[101.1045,1.3385],[101.1055,1.338],[101.1065,1.338],[101.1075,1.338],[101.108,1.338],[101.117,1.334],[101.1235,1.318],[101.1275,1.317],[101.128,1.3165],[101.145,1.3265],[101.1475,1.3285],[101.1475,1.3295],[101.1495,1.331],[101.1545,1.337],[101.1535,1.337],[101.1505,1.3435],[101.14,1.3515],[101.1385,1.353],[101.135,1.359],[101.1345,1.363],[101.1345,1.364],[101.1365,1.366],[101.137,1.367]]]},"properties":{"code":"14.03.16.2002","name":"Air Kulim"}},{"type":"Feature","geometry":{"type":"Polygon","coordinates":[[[101.1375,1.264],[101.128,1.2725],[101.127,1.2735],[101.0865,1.2775],[101.077,1.2875],[101.071,1.2835],[101.039,1.2745],[101.0155,1.269],[100.979,1.261],[100.9795,1.2585],[100.99,1.233],[100.9915,1.2015],[100.9915,1.2005],[101.0405,1.161],[101.0605,1.1825],[101.085,1.196],[101.118,1.209],[101.137,1.239],[101.1375,1.264]]]},"properties":{"code":"14.03.16.2003","name":"Buluh Manis"}},{"type":"Feature","geometry":{"type":"Polygon","coordinates":[[[101.3915,1.4535],[101.3815,1.457],[101.3405,1.4675],[101.3015,1.4445],[101.2915,1.4315],[101.285,1.4295],[101.243,1.4295],[101.1765,1.4295],[101.172,1.4245],[101.1815,1.4165],[101.2245,1.337],[101.269,1.337],[101.2885,1.3435],[101.2715,1.3765],[101.2635,1.3765],[101.277,1.4035],[101.302,1.4285],[101.378,1.43],[101.3785,1.397],[101.3825,1.3825],[101.383,1.364],[101.4135,1.3655],[101.445,1.395],[101.4655,1.374],[101.473,1.3935],[101.4655,1.4015],[101.4605,1.417],[101.44,1.443],[101.435,1.447],[101.428,1.448],[101.3915,1.4535]]]},"properties":{"code":"14.03.16.2004","name":"Bumbung"}},{"type":"Feature","geometry":{"type":"Polygon","coordinates":[[[101.383,1.364],[101.3825,1.3825],[101.3785,1.397],[101.378,1.43],[101.302,1.4285],[101.277,1.4035],[101.2635,1.3765],[101.2715,1.3765],[101.2885,1.3435],[101.338,1.356],[101.3835,1.358],[101.383,1.364]]]},"properties":{"code":"14.03.16.2005","name":"Pamesi"}},{"type":"Feature","geometry":{"type":"Polygon","coordinates":[[[101.2655,1.465],[101.256,1.4635],[101.2425,1.481],[101.209,1.4655],[101.2095,1.4565],[101.1775,1.452],[101.1555,1.4385],[101.172,1.4245],[101.1765,1.4295],[101.267,1.4295],[101.2655,1.4525],[101.2655,1.465]]]},"properties":{"code":"14.03.16.2006","name":"Kesumbo Ampai"}},{"type":"Feature","geometry":{"type":"Polygon","coordinates":[[[101.277,1.49],[101.2645,1.49],[101.266,1.465],[101.2655,1.465],[101.2655,1.4625],[101.2655,1.4525],[101.267,1.4295],[101.2845,1.4295],[101.2915,1.4315],[101.293,1.434],[101.3015,1.4445],[101.3405,1.4675],[101.3205,1.4735],[101.317,1.4745],[101.2775,1.4675],[101.277,1.49]]]},"properties":{"code":"14.03.16.2007","name":"Bathin Sobanga"}},{"type":"Feature","geometry":{"type":"Polygon","coordinates":[[[101.2245,1.337],[101.1815,1.4165],[101.172,1.4245],[101.152,1.3965],[101.1465,1.382],[101.1425,1.377],[101.1375,1.369],[101.137,1.3665],[101.135,1.3645],[101.1345,1.3635],[101.135,1.36],[101.136,1.3595],[101.137,1.359],[101.138,1.3575],[101.1445,1.3615],[101.1605,1.359],[101.179,1.345],[101.1885,1.3265],[101.1965,1.3025],[101.2285,1.3015],[101.229,1.314],[101.229,1.329],[101.2245,1.337]]]},"properties":{"code":"14.03.16.2008","name":"Sebangar"}},{"type":"Feature","geometry":{"type":"Polygon","coordinates":[[[101.172,1.4245],[101.1555,1.4385],[101.152,1.4355],[101.136,1.424],[101.124,1.414],[101.1115,1.41],[101.093,1.3975],[101.0775,1.3865],[101.0935,1.387],[101.096,1.3865],[101.1125,1.3875],[101.1265,1.3895],[101.1355,1.374],[101.135,1.373],[101.137,1.367],[101.1375,1.369],[101.1425,1.377],[101.1465,1.382],[101.152,1.3965],[101.172,1.4245]]]},"properties":{"code":"14.03.16.2009","name":"Boncah Mahang"}},{"type":"Feature","geometry":{"type":"Polygon","coordinates":[[[101.1795,1.307],[101.175,1.3245],[101.1705,1.3305],[101.162,1.3335],[101.1545,1.337],[101.1495,1.331],[101.1475,1.3295],[101.1475,1.3285],[101.145,1.3265],[101.128,1.3165],[101.1275,1.317],[101.1265,1.317],[101.1435,1.312],[101.1795,1.307]]]},"properties":{"code":"14.03.16.2010","name":"Balai Makam"}},{"type":"Feature","geometry":{"type":"Polygon","coordinates":[[[101.1675,1.293],[101.183,1.287],[101.1845,1.29],[101.179,1.297],[101.1785,1.2975],[101.17,1.297],[101.1675,1.293]]]},"properties":{"code":"14.03.16.2011","name":"Tambusai Batang Dui"}},{"type":"Feature","geometry":{"type":"Polygon","coordinates":[[[101.1265,1.317],[101.124,1.3175],[101.149,1.2795],[101.167,1.292],[101.1675,1.293],[101.17,1.297],[101.1785,1.2975],[101.1785,1.2985],[101.1795,1.307],[101.1435,1.312],[101.1265,1.317]]]},"properties":{"code":"14.03.16.2012","name":"Simpang Padang"}},{"type":"Feature","geometry":{"type":"Polygon","coordinates":[[[101.1965,1.3025],[101.1885,1.3265],[101.179,1.345],[101.1605,1.359],[101.1445,1.3615],[101.138,1.3575],[101.137,1.359],[101.136,1.3595],[101.135,1.36],[101.1355,1.359],[101.139,1.3525],[101.14,1.3515],[101.1505,1.3435],[101.1535,1.337],[101.1545,1.337],[101.162,1.3335],[101.1705,1.3305],[101.175,1.3245],[101.1795,1.307],[101.1965,1.3025]]]},"properties":{"code":"14.03.16.2013","name":"Pematang Obo"}}]}