{"type":"FeatureCollection","features":[{"type":"Feature","geometry":{"type":"Polygon","coordinates":[[[102.7475,1.014],[102.734,1.0225],[102.7075,1.014],[102.7075,1.0125],[102.717,1.007],[102.7275,1.0085],[102.7475,1.014]]]},"properties":{"code":"14.10.01.1001","name":"Selatpanjang Kota"}},{"type":"Feature","geometry":{"type":"Polygon","coordinates":[[[102.7075,1.0075],[102.7075,1.0125],[102.7075,1.014],[102.6885,1.0075],[102.6935,1.0085],[102.7075,1.0075]]]},"properties":{"code":"14.10.01.1002","name":"Selatpanjang Barat"}},{"type":"Feature","geometry":{"type":"Polygon","coordinates":[[[102.7075,1.0075],[102.6935,1.0085],[102.694,1.007],[102.7025,1.0015],[102.7045,1.002],[102.707,1.002],[102.7075,1.0075]]]},"properties":{"code":"14.10.01.1003","name":"Selatpanjang Selatan"}},{"type":"Feature","geometry":{"type":"Polygon","coordinates":[[[102.729,1.0075],[102.7275,1.0085],[102.717,1.007],[102.7075,1.0075],[102.707,1.002],[102.7065,1.002],[102.708,0.993],[102.71,0.994],[102.729,1.0075]]]},"properties":{"code":"14.10.01.1004","name":"Selatpanjang Timur"}},{"type":"Feature","geometry":{"type":"Polygon","coordinates":[[[102.8255,0.9715],[102.7975,0.979],[102.7825,0.999],[102.7715,1.0065],[102.7475,1.014],[102.729,1.0075],[102.71,0.994],[102.708,0.993],[102.723,0.977],[102.7335,0.9765],[102.744,0.966],[102.82,0.9625],[102.8255,0.9715]]]},"properties":{"code":"14.10.01.2005","name":"Banglas"}},{"type":"Feature","geometry":{"type":"Polygon","coordinates":[[[102.6945,1.0015],[102.694,1.007],[102.6935,1.0085],[102.6885,1.0075],[102.6735,1.002],[102.68,0.9785],[102.6925,0.9785],[102.694,0.994],[102.6945,1.0015]]]},"properties":{"code":"14.10.01.2006","name":"Alah Air"}},{"type":"Feature","geometry":{"type":"Polygon","coordinates":[[[102.708,0.993],[102.7065,1.002],[102.7045,1.002],[102.7025,1.0015],[102.6945,1.0015],[102.694,0.994],[102.6925,0.9785],[102.704,0.9785],[102.7025,0.983],[102.706,0.992],[102.708,0.993]]]},"properties":{"code":"14.10.01.2007","name":"Alah Air Timur"}},{"type":"Feature","geometry":{"type":"Polygon","coordinates":[[[102.7095,0.9595],[102.7055,0.9665],[102.704,0.9785],[102.68,0.9785],[102.668,0.969],[102.648,0.9585],[102.652,0.9535],[102.6525,0.9525],[102.656,0.9535],[102.685,0.959],[102.703,0.955],[102.7055,0.957],[102.7095,0.9595]]]},"properties":{"code":"14.10.01.2008","name":"Sesap"}},{"type":"Feature","geometry":{"type":"Polygon","coordinates":[[[102.82,0.9625],[102.744,0.966],[102.7335,0.9765],[102.723,0.977],[102.708,0.993],[102.706,0.992],[102.7025,0.983],[102.704,0.9785],[102.7055,0.9665],[102.7095,0.9595],[102.719,0.9455],[102.746,0.9405],[102.7645,0.9325],[102.773,0.931],[102.7905,0.942],[102.8125,0.946],[102.821,0.951],[102.822,0.952],[102.8205,0.954],[102.82,0.9625]]]},"properties":{"code":"14.10.01.2016","name":"Banglas Barat"}},{"type":"Feature","geometry":{"type":"Polygon","coordinates":[[[102.6685,1.083],[102.668,1.0705],[102.689,1.0545],[102.678,1.043],[102.6805,1.0425],[102.699,1.045],[102.705,1.047],[102.696,1.073],[102.6685,1.083]]]},"properties":{"code":"14.10.02.2001","name":"Segomeng"}},{"type":"Feature","geometry":{"type":"Polygon","coordinates":[[[102.676,1.022],[102.6675,1.0365],[102.6665,1.036],[102.665,1.0345],[102.6625,1.0325],[102.653,1.03],[102.65,1.0275],[102.6505,1.0105],[102.676,1.022]]]},"properties":{"code":"14.10.02.2002","name":"Bantar"}},{"type":"Feature","geometry":{"type":"Polygon","coordinates":[[[102.668,1.0705],[102.6635,1.0505],[102.653,1.03],[102.6625,1.0325],[102.665,1.0345],[102.6665,1.036],[102.672,1.037],[102.678,1.043],[102.689,1.0545],[102.668,1.0705]]]},"properties":{"code":"14.10.02.2003","name":"Anak Setatah"}},{"type":"Feature","geometry":{"type":"Polygon","coordinates":[[[102.726,1.039],[102.726,1.049],[102.7255,1.057],[102.705,1.047],[102.699,1.045],[102.703,1.031],[102.726,1.039]]]},"properties":{"code":"14.10.02.2004","name":"Lemang"}},{"type":"Feature","geometry":{"type":"Polygon","coordinates":[[[102.7725,1.0875],[102.7515,1.088],[102.744,1.089],[102.74,1.0395],[102.7515,1.035],[102.7695,1.022],[102.786,1.02],[102.787,1.024],[102.788,1.026],[102.782,1.0295],[102.7725,1.0875]]]},"properties":{"code":"14.10.02.2005","name":"Bokor"}},{"type":"Feature","geometry":{"type":"Polygon","coordinates":[[[102.669,1.086],[102.6685,1.083],[102.696,1.073],[102.705,1.047],[102.7255,1.057],[102.7255,1.064],[102.715,1.065],[102.713,1.076],[102.669,1.086]]]},"properties":{"code":"14.10.02.2006","name":"Sungai Cina"}},{"type":"Feature","geometry":{"type":"Polygon","coordinates":[[[102.7385,1.11],[102.7395,1.12],[102.7185,1.1405],[102.717,1.142],[102.6905,1.12],[102.7085,1.113],[102.723,1.1115],[102.7285,1.111],[102.7295,1.1115],[102.7385,1.11]]]},"properties":{"code":"14.10.02.2007","name":"Melai"}},{"type":"Feature","geometry":{"type":"Polygon","coordinates":[[[102.744,1.089],[102.7365,1.09],[102.732,1.091],[102.726,1.078],[102.7255,1.064],[102.726,1.049],[102.726,1.039],[102.74,1.0395],[102.744,1.089]]]},"properties":{"code":"14.10.02.2011","name":"Telaga Baru"}},{"type":"Feature","geometry":{"type":"Polygon","coordinates":[[[102.7185,1.0925],[102.708,1.093],[102.6825,1.1015],[102.6815,1.102],[102.678,1.1045],[102.669,1.086],[102.713,1.076],[102.715,1.065],[102.7255,1.064],[102.726,1.078],[102.732,1.091],[102.7255,1.092],[102.7185,1.0925]]]},"properties":{"code":"14.10.02.2012","name":"Bina Maju"}},{"type":"Feature","geometry":{"type":"Polygon","coordinates":[[[102.699,1.045],[102.6805,1.0425],[102.672,1.037],[102.6675,1.0365],[102.676,1.022],[102.703,1.031],[102.699,1.045]]]},"properties":{"code":"14.10.02.2015","name":"Sialang Pasung"}},{"type":"Feature","geometry":{"type":"Polygon","coordinates":[[[102.6505,1.0105],[102.65,1.0275],[102.623,1.0185],[102.627,1.009],[102.636,1.0065],[102.6505,1.0105]]]},"properties":{"code":"14.10.02.2016","name":"Permai"}},{"type":"Feature","geometry":{"type":"Polygon","coordinates":[[[102.6905,1.12],[102.678,1.1045],[102.6815,1.102],[102.6825,1.1015],[102.708,1.093],[102.7185,1.0925],[102.726,1.111],[102.723,1.1115],[102.7085,1.113],[102.6905,1.12]]]},"properties":{"code":"14.10.02.2017","name":"Mekar Baru"}},{"type":"Feature","geometry":{"type":"Polygon","coordinates":[[[103.076,0.858],[103.0655,0.8595],[103.057,0.848],[103.0715,0.832],[103.087,0.829],[103.0895,0.8415],[103.092,0.851],[103.0765,0.852],[103.076,0.858]]]},"properties":{"code":"14.10.03.2001","name":"Tanjung Samak"}},{"type":"Feature","geometry":{"type":"Polygon","coordinates":[[[103.117,0.939],[103.111,0.9355],[103.0945,0.9405],[103.0715,0.9405],[103.0515,0.9315],[103.082,0.8955],[103.092,0.8865],[103.1005,0.8905],[103.1165,0.8795],[103.124,0.878],[103.1265,0.884],[103.156,0.8885],[103.1535,0.895],[103.119,0.933],[103.117,0.939]]]},"properties":{"code":"14.10.03.2002","name":"Tanjung Medang"}},{"type":"Feature","geometry":{"type":"Polygon","coordinates":[[[103.0515,0.932],[103.0385,0.938],[102.9995,0.975],[102.984,0.977],[102.9705,0.9595],[102.9395,0.9235],[102.9525,0.9075],[102.9855,0.8935],[103.028,0.8675],[103.038,0.8835],[103.0435,0.9035],[103.0515,0.932]]]},"properties":{"code":"14.10.03.2004","name":"Gemala Sari"}},{"type":"Feature","geometry":{"type":"MultiPolygon","coordinates":[[[[103.097,0.799],[103.0855,0.789],[103.0815,0.7785],[103.076,0.743],[103.081,0.7255],[103.088,0.7185],[103.0985,0.7195],[103.1095,0.727],[103.114,0.739],[103.1125,0.764],[103.106,0.797],[103.097,0.799]]],[[[103.081,0.8225],[103.0755,0.818],[103.084,0.7965],[103.0935,0.804],[103.1075,0.8065],[103.105,0.8175],[103.081,0.8225]]]]},"properties":{"code":"14.10.03.2007","name":"Topang"}},{"type":"Feature","geometry":{"type":"Polygon","coordinates":[[[102.9735,0.9845],[102.9335,1.013],[102.933,1.013],[102.923,0.972],[102.927,0.9605],[102.9275,0.9375],[102.9395,0.9235],[102.9705,0.9595],[102.984,0.977],[102.9735,0.9845]]]},"properties":{"code":"14.10.03.2008","name":"Penyagun"}},{"type":"Feature","geometry":{"type":"Polygon","coordinates":[[[102.933,1.013],[102.916,1.0185],[102.9055,1.001],[102.9045,0.967],[102.896,0.9625],[102.8945,0.9605],[102.9275,0.9375],[102.927,0.9605],[102.923,0.972],[102.933,1.013]]]},"properties":{"code":"14.10.03.2010","name":"Repan"}},{"type":"Feature","geometry":{"type":"Polygon","coordinates":[[[103.124,0.878],[103.1165,0.8795],[103.112,0.859],[103.102,0.841],[103.0985,0.828],[103.124,0.8325],[103.129,0.8495],[103.129,0.8665],[103.124,0.878]]]},"properties":{"code":"14.10.03.2011","name":"Tanjung Bakau"}},{"type":"Feature","geometry":{"type":"Polygon","coordinates":[[[103.064,0.9165],[103.0515,0.9315],[103.038,0.8835],[103.028,0.8675],[103.043,0.8595],[103.057,0.848],[103.0655,0.8595],[103.0635,0.877],[103.064,0.892],[103.0645,0.902],[103.064,0.9165]]]},"properties":{"code":"14.10.03.2012","name":"Teluk Samak"}},{"type":"Feature","geometry":{"type":"Polygon","coordinates":[[[103.117,0.939],[103.1045,0.95],[103.09,0.9725],[103.07,0.999],[103.05,1.0175],[103.0325,1.0395],[103.0305,1.039],[103.025,1.046],[103.023,1.0475],[103.0215,1.0485],[102.996,1.0155],[102.9735,0.9845],[102.984,0.977],[102.9995,0.975],[103.0385,0.938],[103.0515,0.932],[103.0715,0.9405],[103.0945,0.9405],[103.111,0.9355],[103.117,0.939]]]},"properties":{"code":"14.10.03.2013","name":"Sungai Gayung Kiri"}},{"type":"Feature","geometry":{"type":"Polygon","coordinates":[[[103.082,0.8955],[103.079,0.8955],[103.076,0.858],[103.0765,0.852],[103.092,0.851],[103.0945,0.8595],[103.1005,0.8905],[103.092,0.8865],[103.082,0.8955]]]},"properties":{"code":"14.10.03.2014","name":"Citra Damai"}},{"type":"Feature","geometry":{"type":"Polygon","coordinates":[[[103.1165,0.8795],[103.1005,0.8905],[103.0945,0.8595],[103.0895,0.8415],[103.087,0.829],[103.0985,0.828],[103.102,0.841],[103.112,0.859],[103.1165,0.8795]]]},"properties":{"code":"14.10.03.2016","name":"Dwi Tunggal"}},{"type":"Feature","geometry":{"type":"Polygon","coordinates":[[[103.082,0.8955],[103.064,0.9165],[103.0645,0.902],[103.064,0.892],[103.0635,0.877],[103.0655,0.8595],[103.076,0.858],[103.079,0.8955],[103.082,0.8955]]]},"properties":{"code":"14.10.03.2017","name":"Wonosari"}},{"type":"Feature","geometry":{"type":"Polygon","coordinates":[[[102.916,1.0185],[102.894,1.026],[102.862,0.9885],[102.8615,0.975],[102.8945,0.9605],[102.896,0.9625],[102.9045,0.967],[102.9055,1.001],[102.916,1.0185]]]},"properties":{"code":"14.10.03.2018","name":"Tebun"}},{"type":"Feature","geometry":{"type":"Polygon","coordinates":[[[103.124,0.8325],[103.1445,0.84],[103.1525,0.8485],[103.156,0.863],[103.1525,0.8715],[103.156,0.8885],[103.1265,0.884],[103.124,0.878],[103.129,0.8665],[103.129,0.8495],[103.124,0.8325]]]},"properties":{"code":"14.10.03.2020","name":"Tanjung Gemuk"}},{"type":"Feature","geometry":{"type":"Polygon","coordinates":[[[102.635,0.99],[102.617,0.995],[102.6165,0.9905],[102.614,0.9825],[102.618,0.983],[102.636,0.982],[102.635,0.99]]]},"properties":{"code":"14.10.04.2001","name":"Alai"}},{"type":"Feature","geometry":{"type":"Polygon","coordinates":[[[102.637,0.9545],[102.6325,0.955],[102.627,0.958],[102.6265,0.959],[102.6245,0.9575],[102.616,0.956],[102.613,0.9555],[102.6105,0.9545],[102.607,0.9545],[102.6065,0.9525],[102.602,0.9515],[102.599,0.951],[102.5965,0.9495],[102.5915,0.9485],[102.5805,0.947],[102.5805,0.944],[102.5245,0.8955],[102.5375,0.8735],[102.529,0.8625],[102.55,0.8535],[102.618,0.929],[102.6245,0.939],[102.63,0.945],[102.629,0.946],[102.637,0.9545]]]},"properties":{"code":"14.10.04.2002","name":"Tenan"}},{"type":"Feature","geometry":{"type":"Polygon","coordinates":[[[102.68,0.9785],[102.6735,1.002],[102.6585,0.995],[102.6635,0.984],[102.661,0.976],[102.6715,0.9715],[102.68,0.9785]]]},"properties":{"code":"14.10.04.2003","name":"Insit"}},{"type":"Feature","geometry":{"type":"Polygon","coordinates":[[[102.642,0.9375],[102.63,0.945],[102.6245,0.939],[102.618,0.929],[102.55,0.8535],[102.596,0.8385],[102.6355,0.8415],[102.6365,0.842],[102.638,0.8425],[102.6385,0.8435],[102.6385,0.8445],[102.6385,0.8455],[102.6365,0.8465],[102.6355,0.847],[102.635,0.8465],[102.6335,0.8465],[102.623,0.852],[102.6215,0.8535],[102.622,0.858],[102.6215,0.8585],[102.619,0.862],[102.619,0.8655],[102.617,0.8735],[102.6165,0.877],[102.617,0.8965],[102.638,0.919],[102.641,0.9295],[102.642,0.9375]]]},"properties":{"code":"14.10.04.2004","name":"Tanjung"}},{"type":"Feature","geometry":{"type":"Polygon","coordinates":[[[102.5245,0.8955],[102.522,0.904],[102.512,0.9115],[102.516,0.922],[102.5115,0.931],[102.4975,0.94],[102.4875,0.931],[102.475,0.928],[102.4475,0.9365],[102.44,0.9355],[102.4305,0.916],[102.438,0.9085],[102.464,0.8995],[102.4975,0.878],[102.529,0.8625],[102.5375,0.8735],[102.5245,0.8955]]]},"properties":{"code":"14.10.04.2005","name":"Tanjung Peranap"}},{"type":"Feature","geometry":{"type":"Polygon","coordinates":[[[102.585,0.9745],[102.584,0.9745],[102.572,0.9835],[102.5675,0.9775],[102.555,0.9695],[102.538,0.9655],[102.522,0.957],[102.4975,0.94],[102.5115,0.931],[102.516,0.922],[102.512,0.9115],[102.522,0.904],[102.5245,0.8955],[102.5805,0.944],[102.58,0.951],[102.5805,0.966],[102.585,0.9745]]]},"properties":{"code":"14.10.04.2006","name":"Kundur"}},{"type":"Feature","geometry":{"type":"Polygon","coordinates":[[[102.617,0.995],[102.608,1.003],[102.5915,1.002],[102.5795,0.994],[102.572,0.9835],[102.584,0.9745],[102.5975,0.979],[102.5985,0.982],[102.614,0.982],[102.6165,0.9905],[102.617,0.995]]]},"properties":{"code":"14.10.04.2007","name":"Mekong"}},{"type":"Feature","geometry":{"type":"Polygon","coordinates":[[[102.609,0.982],[102.5985,0.982],[102.5975,0.979],[102.585,0.9745],[102.5805,0.966],[102.58,0.951],[102.5805,0.947],[102.5915,0.9485],[102.5965,0.9495],[102.599,0.951],[102.602,0.9515],[102.6065,0.9525],[102.607,0.9545],[102.6105,0.9545],[102.613,0.9555],[102.611,0.9575],[102.6105,0.9595],[102.612,0.9615],[102.613,0.965],[102.613,0.968],[102.609,0.975],[102.609,0.9775],[102.609,0.982]]]},"properties":{"code":"14.10.04.2008","name":"Batang Malas"}},{"type":"Feature","geometry":{"type":"Polygon","coordinates":[[[102.661,0.976],[102.639,0.976],[102.6365,0.975],[102.6295,0.9615],[102.6265,0.959],[102.627,0.958],[102.6325,0.955],[102.639,0.9545],[102.648,0.9585],[102.668,0.969],[102.6715,0.9715],[102.661,0.976]]]},"properties":{"code":"14.10.04.2009","name":"Mantiasa"}},{"type":"Feature","geometry":{"type":"Polygon","coordinates":[[[102.661,0.976],[102.6635,0.984],[102.6585,0.995],[102.635,0.99],[102.636,0.982],[102.639,0.9765],[102.639,0.976],[102.661,0.976]]]},"properties":{"code":"14.10.04.2010","name":"Gogok Darussalam"}},{"type":"Feature","geometry":{"type":"Polygon","coordinates":[[[102.648,0.9585],[102.639,0.9545],[102.637,0.9545],[102.629,0.946],[102.63,0.945],[102.642,0.9375],[102.643,0.943],[102.6445,0.9475],[102.6465,0.95],[102.65,0.952],[102.6525,0.9525],[102.652,0.9535],[102.648,0.9585]]]},"properties":{"code":"14.10.04.2011","name":"Maini Darul Aman"}},{"type":"Feature","geometry":{"type":"Polygon","coordinates":[[[102.529,0.8625],[102.4975,0.878],[102.464,0.8995],[102.438,0.9085],[102.4305,0.916],[102.4105,0.892],[102.4075,0.8815],[102.413,0.854],[102.4365,0.826],[102.4515,0.816],[102.4785,0.8035],[102.5005,0.791],[102.5495,0.772],[102.5705,0.7675],[102.5725,0.7835],[102.5845,0.809],[102.596,0.8255],[102.596,0.8385],[102.55,0.8535],[102.529,0.8625]]]},"properties":{"code":"14.10.04.2012","name":"Mengkikip"}},{"type":"Feature","geometry":{"type":"Polygon","coordinates":[[[102.636,0.982],[102.618,0.983],[102.616,0.983],[102.614,0.9825],[102.614,0.982],[102.609,0.982],[102.609,0.9775],[102.609,0.975],[102.613,0.968],[102.613,0.965],[102.612,0.9615],[102.6105,0.9595],[102.611,0.9575],[102.613,0.9555],[102.616,0.956],[102.6245,0.9575],[102.6295,0.9615],[102.6365,0.975],[102.639,0.9765],[102.636,0.982]]]},"properties":{"code":"14.10.04.2013","name":"Alai Selatan"}},{"type":"Feature","geometry":{"type":"Polygon","coordinates":[[[102.703,0.955],[102.685,0.959],[102.656,0.9535],[102.65,0.952],[102.6465,0.95],[102.6445,0.9475],[102.643,0.943],[102.641,0.9295],[102.638,0.919],[102.617,0.8965],[102.6165,0.877],[102.617,0.8735],[102.619,0.8655],[102.619,0.862],[102.6215,0.8585],[102.622,0.858],[102.6215,0.8535],[102.623,0.852],[102.6335,0.8465],[102.635,0.8465],[102.6355,0.847],[102.6365,0.8465],[102.6385,0.8455],[102.6385,0.8445],[102.6385,0.8435],[102.638,0.8425],[102.6365,0.842],[102.6355,0.8405],[102.6445,0.8415],[102.6635,0.869],[102.678,0.8935],[102.682,0.9075],[102.6835,0.9255],[102.6945,0.933],[102.695,0.9455],[102.702,0.9545],[102.703,0.955]]]},"properties":{"code":"14.10.04.2014","name":"Tanjung Darul Takzim"}},{"type":"Feature","geometry":{"type":"Polygon","coordinates":[[[102.4395,1.063],[102.433,1.0595],[102.433,1.057],[102.427,1.053],[102.364,1.05],[102.3525,1.0495],[102.3525,1.048],[102.3525,1.039],[102.361,1.0235],[102.361,1.0145],[102.3805,1.0205],[102.436,1.0235],[102.4555,1.031],[102.4395,1.063]]]},"properties":{"code":"14.10.05.1001","name":"Teluk Belitung"}},{"type":"Feature","geometry":{"type":"Polygon","coordinates":[[[102.463,0.9585],[102.446,0.966],[102.4495,0.9495],[102.4765,0.941],[102.482,0.944],[102.4815,0.9585],[102.463,0.9585]]]},"properties":{"code":"14.10.05.2002","name":"Meranti Bunting"}},{"type":"Feature","geometry":{"type":"Polygon","coordinates":[[[102.331,1.218],[102.318,1.235],[102.29,1.2455],[102.2585,1.25],[102.2535,1.2495],[102.2435,1.25],[102.225,1.242],[102.236,1.2255],[102.246,1.1945],[102.2495,1.1765],[102.2475,1.149],[102.2375,1.1165],[102.2365,1.1015],[102.2655,1.033],[102.276,1.0055],[102.2845,0.9955],[102.332,0.9615],[102.3635,0.9275],[102.3795,0.916],[102.4,0.9165],[102.4,0.9205],[102.3965,0.9625],[102.3835,0.9895],[102.3735,0.997],[102.361,1.0145],[102.361,1.0235],[102.3525,1.039],[102.3525,1.048],[102.353,1.0535],[102.354,1.071],[102.356,1.074],[102.3615,1.0805],[102.3645,1.0885],[102.367,1.1505],[102.331,1.218]]]},"properties":{"code":"14.10.05.2003","name":"Lukit"}},{"type":"Feature","geometry":{"type":"Polygon","coordinates":[[[102.433,1.084],[102.4265,1.0815],[102.3615,1.0805],[102.356,1.074],[102.354,1.071],[102.353,1.0535],[102.3525,1.0495],[102.364,1.05],[102.427,1.053],[102.433,1.057],[102.433,1.0595],[102.4395,1.063],[102.441,1.0795],[102.4365,1.082],[102.433,1.084]]]},"properties":{"code":"14.10.05.2004","name":"Bagan Melibur"}},{"type":"Feature","geometry":{"type":"MultiPolygon","coordinates":[[[[102.468,0.9845],[102.4615,0.985],[102.463,0.9585],[102.4815,0.9585],[102.4725,0.9845],[102.468,0.9845]]],[[[102.4525,0.986],[102.451,0.9985],[102.4365,0.999],[102.3805,1.0205],[102.361,1.0145],[102.3735,0.997],[102.3835,0.9895],[102.4345,0.9895],[102.4525,0.986]]]]},"properties":{"code":"14.10.05.2018","name":"Pelantai"}},{"type":"Feature","geometry":{"type":"Polygon","coordinates":[[[102.4265,0.9375],[102.3975,0.95],[102.4,0.9205],[102.4,0.9165],[102.4185,0.9215],[102.4265,0.9375]]]},"properties":{"code":"14.10.05.2019","name":"Tanjung Kulim"}},{"type":"Feature","geometry":{"type":"Polygon","coordinates":[[[102.4555,1.031],[102.436,1.0235],[102.3805,1.0205],[102.4365,0.999],[102.451,0.9985],[102.4525,0.986],[102.4585,0.985],[102.468,0.9845],[102.4725,0.9845],[102.4675,1.0105],[102.4555,1.031]]]},"properties":{"code":"14.10.05.2021","name":"Mekar Sari"}},{"type":"Feature","geometry":{"type":"Polygon","coordinates":[[[102.433,1.084],[102.4325,1.0845],[102.4325,1.0855],[102.4365,1.086],[102.435,1.0875],[102.425,1.0945],[102.41,1.091],[102.365,1.097],[102.3645,1.0885],[102.3615,1.0805],[102.4265,1.0815],[102.433,1.084]]]},"properties":{"code":"14.10.05.2023","name":"Mayang Sari"}},{"type":"Feature","geometry":{"type":"Polygon","coordinates":[[[102.4525,0.986],[102.4345,0.9895],[102.3835,0.9895],[102.3965,0.9625],[102.4395,0.9755],[102.446,0.966],[102.463,0.9585],[102.4615,0.985],[102.4585,0.985],[102.4525,0.986]]]},"properties":{"code":"14.10.05.2026","name":"Sungai Anak Kamal"}},{"type":"Feature","geometry":{"type":"Polygon","coordinates":[[[102.446,0.966],[102.4395,0.9755],[102.3965,0.9625],[102.3975,0.95],[102.4265,0.9375],[102.437,0.948],[102.4495,0.9495],[102.446,0.966]]]},"properties":{"code":"14.10.05.2027","name":"Sungai Tengah"}},{"type":"Feature","geometry":{"type":"Polygon","coordinates":[[[102.547,1.115],[102.5365,1.13],[102.523,1.125],[102.487,1.1265],[102.4785,1.12],[102.512,1.103],[102.513,1.1045],[102.5155,1.1065],[102.528,1.113],[102.539,1.1095],[102.54,1.1105],[102.547,1.115]]]},"properties":{"code":"14.10.06.2001","name":"Kuala Merbau"}},{"type":"Feature","geometry":{"type":"Polygon","coordinates":[[[102.539,1.1095],[102.528,1.113],[102.5155,1.1065],[102.513,1.1045],[102.512,1.103],[102.511,1.0935],[102.5015,1.0805],[102.497,1.069],[102.5055,1.055],[102.511,1.044],[102.516,1.0325],[102.5175,1.0295],[102.518,1.029],[102.5225,1.029],[102.5225,1.0315],[102.5225,1.039],[102.5335,1.06],[102.5385,1.0615],[102.541,1.065],[102.5415,1.0655],[102.5395,1.0715],[102.5395,1.074],[102.5425,1.0795],[102.5435,1.081],[102.5475,1.082],[102.55,1.084],[102.55,1.085],[102.548,1.087],[102.539,1.103],[102.539,1.1095]]]},"properties":{"code":"14.10.06.2002","name":"Renak Dungun"}},{"type":"Feature","geometry":{"type":"Polygon","coordinates":[[[102.467,1.0915],[102.4665,1.0915],[102.461,1.081],[102.46,1.064],[102.479,1.0235],[102.5115,1.029],[102.518,1.029],[102.5175,1.0295],[102.516,1.0325],[102.511,1.044],[102.5055,1.055],[102.497,1.069],[102.4975,1.072],[102.472,1.0795],[102.467,1.0915]]]},"properties":{"code":"14.10.06.2003","name":"Baran Melintang"}},{"type":"Feature","geometry":{"type":"Polygon","coordinates":[[[102.516,0.9535],[102.511,0.9635],[102.512,0.981],[102.517,0.9835],[102.5185,0.985],[102.519,0.9865],[102.4995,0.9815],[102.491,0.975],[102.501,0.9455],[102.516,0.9535]]]},"properties":{"code":"14.10.06.2004","name":"Teluk Ketapang"}},{"type":"Feature","geometry":{"type":"Polygon","coordinates":[[[102.61,1.0415],[102.591,1.0355],[102.591,1.033],[102.577,1.0205],[102.575,1.021],[102.5655,1.022],[102.5455,1.01],[102.534,1.0065],[102.5325,0.996],[102.5385,0.979],[102.546,0.9685],[102.5565,0.971],[102.566,0.978],[102.577,0.9935],[102.5895,1.003],[102.6075,1.005],[102.602,1.026],[102.61,1.0415]]]},"properties":{"code":"14.10.06.2005","name":"Semukut"}},{"type":"Feature","geometry":{"type":"Polygon","coordinates":[[[102.61,1.0415],[102.598,1.0635],[102.578,1.082],[102.569,1.072],[102.5695,1.06],[102.5605,1.0505],[102.59,1.0355],[102.5905,1.036],[102.591,1.0355],[102.61,1.0415]]]},"properties":{"code":"14.10.06.2006","name":"Centai"}},{"type":"Feature","geometry":{"type":"Polygon","coordinates":[[[102.578,1.082],[102.567,1.0955],[102.5495,1.109],[102.547,1.115],[102.54,1.1105],[102.539,1.103],[102.548,1.087],[102.55,1.085],[102.55,1.084],[102.5475,1.082],[102.5435,1.081],[102.5425,1.0795],[102.5395,1.074],[102.5395,1.0715],[102.5415,1.0655],[102.541,1.065],[102.54,1.057],[102.5525,1.0495],[102.5605,1.0505],[102.5695,1.06],[102.569,1.072],[102.578,1.082]]]},"properties":{"code":"14.10.06.2007","name":"Tanjungbunga"}},{"type":"Feature","geometry":{"type":"Polygon","coordinates":[[[102.5605,1.0505],[102.5525,1.0495],[102.54,1.057],[102.5385,1.0615],[102.5335,1.06],[102.5225,1.039],[102.5225,1.0315],[102.5225,1.0275],[102.5235,1.006],[102.534,1.0065],[102.5455,1.01],[102.5655,1.022],[102.575,1.021],[102.577,1.0205],[102.591,1.033],[102.591,1.0355],[102.5905,1.036],[102.59,1.0355],[102.5605,1.0505]]]},"properties":{"code":"14.10.06.2008","name":"Batang Meranti"}},{"type":"Feature","geometry":{"type":"Polygon","coordinates":[[[102.512,1.103],[102.4785,1.12],[102.4665,1.0915],[102.467,1.0915],[102.472,1.0795],[102.4975,1.072],[102.5015,1.0805],[102.511,1.0935],[102.512,1.103]]]},"properties":{"code":"14.10.06.2009","name":"Pangkalan Balai"}},{"type":"Feature","geometry":{"type":"Polygon","coordinates":[[[102.546,0.9685],[102.5385,0.979],[102.5325,0.996],[102.534,1.0065],[102.5235,1.006],[102.5235,1.005],[102.5185,0.985],[102.517,0.9835],[102.512,0.981],[102.511,0.9635],[102.516,0.9535],[102.53,0.963],[102.546,0.9685]]]},"properties":{"code":"14.10.06.2010","name":"Padang Kamal"}},{"type":"Feature","geometry":{"type":"Polygon","coordinates":[[[102.5225,1.029],[102.5115,1.029],[102.479,1.0235],[102.484,1.0105],[102.491,0.975],[102.4995,0.9815],[102.519,0.9865],[102.5235,1.005],[102.5225,1.029]]]},"properties":{"code":"14.10.06.2011","name":"Ketapang Permai"}},{"type":"Feature","geometry":{"type":"Polygon","coordinates":[[[102.895,0.832],[102.822,0.952],[102.821,0.951],[102.8125,0.946],[102.7905,0.942],[102.773,0.931],[102.7645,0.9325],[102.747,0.94],[102.7425,0.9265],[102.741,0.9085],[102.736,0.9],[102.739,0.8645],[102.787,0.849],[102.826,0.8415],[102.8935,0.824],[102.895,0.832]]]},"properties":{"code":"14.10.07.2001","name":"Lukun"}},{"type":"Feature","geometry":{"type":"Polygon","coordinates":[[[102.9455,0.886],[102.9285,0.8685],[102.8985,0.8655],[102.888,0.883],[102.886,0.897],[102.8765,0.916],[102.8615,0.9305],[102.82,0.9625],[102.8205,0.954],[102.895,0.832],[102.928,0.818],[102.943,0.8115],[102.9675,0.8555],[102.963,0.863],[102.9675,0.8735],[102.9455,0.886]]]},"properties":{"code":"14.10.07.2002","name":"Sungai Tohor"}},{"type":"Feature","geometry":{"type":"Polygon","coordinates":[[[102.995,0.8605],[102.9675,0.8735],[102.963,0.863],[102.9675,0.8555],[102.943,0.8115],[102.9645,0.803],[102.979,0.8365],[102.995,0.8605]]]},"properties":{"code":"14.10.07.2003","name":"Nipah Sendanu"}},{"type":"Feature","geometry":{"type":"Polygon","coordinates":[[[103.0505,0.756],[103.056,0.781],[103.055,0.7935],[103.0465,0.8245],[103.027,0.84],[103.02,0.834],[102.9975,0.7895],[103.0005,0.788],[103.0185,0.778],[103.0215,0.7725],[103.0215,0.7695],[103.037,0.7645],[103.0505,0.756]]]},"properties":{"code":"14.10.07.2004","name":"Tanjung Sari"}},{"type":"Feature","geometry":{"type":"Polygon","coordinates":[[[103.0505,0.756],[103.037,0.7645],[103.0215,0.7695],[103.021,0.7385],[102.999,0.712],[102.988,0.6955],[102.9945,0.689],[103.02,0.6855],[103.0485,0.7205],[103.0505,0.756]]]},"properties":{"code":"14.10.07.2005","name":"Tanjung Gadai"}},{"type":"Feature","geometry":{"type":"Polygon","coordinates":[[[102.9645,0.803],[102.943,0.8115],[102.942,0.778],[102.9455,0.771],[102.934,0.763],[102.954,0.738],[102.974,0.7175],[102.988,0.6955],[102.999,0.712],[103.021,0.7385],[103.0215,0.7725],[103.0185,0.778],[103.0005,0.788],[102.993,0.7915],[102.9645,0.803]]]},"properties":{"code":"14.10.07.2006","name":"Teluk Buntal"}},{"type":"Feature","geometry":{"type":"Polygon","coordinates":[[[102.739,0.8645],[102.7175,0.864],[102.6615,0.866],[102.6445,0.8415],[102.6355,0.8405],[102.6355,0.8415],[102.596,0.8385],[102.596,0.8255],[102.5845,0.809],[102.5725,0.7835],[102.5705,0.7675],[102.6005,0.769],[102.632,0.784],[102.6545,0.789],[102.701,0.7925],[102.7405,0.789],[102.776,0.7885],[102.844,0.7945],[102.8645,0.792],[102.894,0.7805],[102.9145,0.7765],[102.934,0.763],[102.9455,0.771],[102.942,0.778],[102.943,0.8115],[102.928,0.818],[102.895,0.832],[102.8935,0.824],[102.826,0.8415],[102.787,0.849],[102.739,0.8645]]]},"properties":{"code":"14.10.07.2007","name":"Kepau Baru"}},{"type":"Feature","geometry":{"type":"Polygon","coordinates":[[[102.9455,0.886],[102.925,0.9065],[102.913,0.9245],[102.8765,0.953],[102.847,0.963],[102.8255,0.9715],[102.82,0.9625],[102.8615,0.9305],[102.8765,0.916],[102.886,0.897],[102.888,0.883],[102.8985,0.8655],[102.9285,0.8685],[102.9455,0.886]]]},"properties":{"code":"14.10.07.2008","name":"Sungai Tohor Barat"}},{"type":"Feature","geometry":{"type":"Polygon","coordinates":[[[103.027,0.84],[102.995,0.8605],[102.979,0.8365],[102.9645,0.803],[102.993,0.7915],[102.9975,0.7895],[103.02,0.834],[103.027,0.84]]]},"properties":{"code":"14.10.07.2009","name":"Sendanu Darul Ihsan"}},{"type":"Feature","geometry":{"type":"Polygon","coordinates":[[[102.747,0.94],[102.746,0.9405],[102.719,0.9455],[102.7095,0.9595],[102.7055,0.957],[102.702,0.9545],[102.695,0.9455],[102.6945,0.933],[102.6835,0.9255],[102.682,0.9075],[102.678,0.8935],[102.6635,0.869],[102.6615,0.866],[102.718,0.864],[102.739,0.8645],[102.736,0.9],[102.741,0.9085],[102.7425,0.9265],[102.747,0.94]]]},"properties":{"code":"14.10.07.2010","name":"Batin Suir"}},{"type":"Feature","geometry":{"type":"Polygon","coordinates":[[[102.3035,1.4015],[102.292,1.412],[102.272,1.4185],[102.245,1.412],[102.214,1.4145],[102.21,1.401],[102.2285,1.367],[102.228,1.3305],[102.2065,1.283],[102.206,1.277],[102.225,1.242],[102.2435,1.25],[102.2545,1.2495],[102.2635,1.255],[102.279,1.2645],[102.298,1.281],[102.316,1.3075],[102.3165,1.324],[102.3195,1.3285],[102.2815,1.375],[102.3035,1.4015]]]},"properties":{"code":"14.10.08.2001","name":"Tanjung Padang"}},{"type":"Feature","geometry":{"type":"Polygon","coordinates":[[[102.3415,1.362],[102.3255,1.3765],[102.3035,1.4015],[102.2815,1.375],[102.3195,1.3285],[102.3415,1.362]]]},"properties":{"code":"14.10.08.2002","name":"Putri Puyu"}},{"type":"Feature","geometry":{"type":"Polygon","coordinates":[[[102.3765,1.3225],[102.374,1.3255],[102.3615,1.3425],[102.3415,1.362],[102.3165,1.324],[102.316,1.3075],[102.309,1.297],[102.3095,1.2965],[102.31,1.296],[102.3105,1.296],[102.312,1.2955],[102.314,1.296],[102.3225,1.2915],[102.3475,1.289],[102.3595,1.311],[102.369,1.316],[102.3705,1.315],[102.3715,1.316],[102.3715,1.318],[102.372,1.317],[102.3735,1.3185],[102.373,1.319],[102.3745,1.32],[102.3745,1.3195],[102.3755,1.3195],[102.3765,1.3205],[102.3765,1.3225]]]},"properties":{"code":"14.10.08.2003","name":"Mekar Delima"}},{"type":"Feature","geometry":{"type":"Polygon","coordinates":[[[102.391,1.3125],[102.374,1.3255],[102.3765,1.3225],[102.3765,1.3205],[102.3755,1.3195],[102.3745,1.3195],[102.3745,1.32],[102.373,1.319],[102.3735,1.3185],[102.372,1.317],[102.3715,1.318],[102.3715,1.316],[102.3705,1.315],[102.369,1.316],[102.3595,1.311],[102.3475,1.289],[102.3225,1.2915],[102.314,1.296],[102.312,1.2955],[102.3105,1.296],[102.31,1.296],[102.3095,1.2965],[102.309,1.297],[102.298,1.281],[102.279,1.2645],[102.2635,1.255],[102.2545,1.2495],[102.2585,1.25],[102.29,1.2455],[102.318,1.235],[102.331,1.218],[102.346,1.222],[102.391,1.31],[102.391,1.3125]]]},"properties":{"code":"14.10.08.2004","name":"Dedap"}},{"type":"Feature","geometry":{"type":"Polygon","coordinates":[[[102.391,1.3125],[102.391,1.31],[102.346,1.222],[102.331,1.218],[102.3395,1.2015],[102.341,1.2015],[102.346,1.2025],[102.355,1.203],[102.3815,1.2085],[102.4215,1.256],[102.4275,1.26],[102.428,1.263],[102.437,1.278],[102.427,1.2895],[102.391,1.3125]]]},"properties":{"code":"14.10.08.2005","name":"Kudap"}},{"type":"Feature","geometry":{"type":"Polygon","coordinates":[[[102.483,1.197],[102.4855,1.2],[102.485,1.238],[102.467,1.257],[102.437,1.278],[102.428,1.263],[102.4315,1.253],[102.447,1.239],[102.452,1.222],[102.465,1.213],[102.4765,1.217],[102.483,1.197]]]},"properties":{"code":"14.10.08.2006","name":"Bandul"}},{"type":"Feature","geometry":{"type":"Polygon","coordinates":[[[102.483,1.197],[102.4765,1.217],[102.465,1.213],[102.452,1.222],[102.447,1.239],[102.4315,1.253],[102.4275,1.26],[102.4215,1.256],[102.3815,1.2085],[102.403,1.187],[102.427,1.17],[102.44,1.154],[102.459,1.1415],[102.464,1.16],[102.476,1.178],[102.483,1.197]]]},"properties":{"code":"14.10.08.2007","name":"Selat Akar"}},{"type":"Feature","geometry":{"type":"Polygon","coordinates":[[[102.459,1.1415],[102.44,1.154],[102.427,1.17],[102.403,1.187],[102.3815,1.2085],[102.355,1.203],[102.352,1.2025],[102.3635,1.1935],[102.3665,1.193],[102.3665,1.182],[102.3815,1.177],[102.3985,1.178],[102.4125,1.172],[102.4305,1.1555],[102.433,1.1555],[102.435,1.1525],[102.4365,1.145],[102.449,1.1205],[102.4535,1.1215],[102.4555,1.1225],[102.459,1.1415]]]},"properties":{"code":"14.10.08.2008","name":"Tanjung Pisang"}},{"type":"Feature","geometry":{"type":"Polygon","coordinates":[[[102.4555,1.1225],[102.4535,1.1215],[102.449,1.1205],[102.4365,1.145],[102.435,1.1525],[102.433,1.1555],[102.4305,1.1555],[102.4125,1.172],[102.3985,1.178],[102.3815,1.177],[102.3665,1.182],[102.3665,1.193],[102.3635,1.1935],[102.352,1.2025],[102.346,1.2025],[102.341,1.2015],[102.3395,1.2015],[102.367,1.1505],[102.4165,1.139],[102.417,1.1245],[102.448,1.0995],[102.449,1.113],[102.4555,1.1225]]]},"properties":{"code":"14.10.08.2009","name":"Mengkopot"}},{"type":"Feature","geometry":{"type":"Polygon","coordinates":[[[102.448,1.0995],[102.417,1.1245],[102.4165,1.139],[102.367,1.1505],[102.365,1.097],[102.41,1.091],[102.425,1.0945],[102.435,1.0875],[102.4365,1.086],[102.4325,1.0855],[102.4325,1.0845],[102.4365,1.082],[102.441,1.0795],[102.448,1.0995]]]},"properties":{"code":"14.10.08.2010","name":"Mengkirau"}},{"type":"Feature","geometry":{"type":"Polygon","coordinates":[[[102.996,1.0155],[103.0215,1.0485],[103.0085,1.0675],[102.9815,1.0905],[102.9385,1.1055],[102.894,1.026],[102.9335,1.013],[102.9735,0.9845],[102.996,1.0155]]]},"properties":{"code":"14.10.09.2001","name":"Tanjung Kedabu"}},{"type":"Feature","geometry":{"type":"Polygon","coordinates":[[[102.823,0.9875],[102.8315,1.001],[102.8315,1.0055],[102.8305,1.015],[102.82,1.022],[102.8145,1.035],[102.794,1.032],[102.789,1.028],[102.787,1.024],[102.786,1.02],[102.81,0.9905],[102.823,0.9875]]]},"properties":{"code":"14.10.09.2002","name":"Beting"}},{"type":"Feature","geometry":{"type":"Polygon","coordinates":[[[102.8765,1.044],[102.873,1.053],[102.8525,1.0565],[102.8205,1.051],[102.8175,1.0425],[102.8145,1.035],[102.82,1.022],[102.8305,1.015],[102.8315,1.0055],[102.8315,1.001],[102.823,0.9875],[102.8615,0.975],[102.862,0.9885],[102.894,1.026],[102.893,1.0325],[102.8765,1.044]]]},"properties":{"code":"14.10.09.2003","name":"Sokop"}},{"type":"Feature","geometry":{"type":"Polygon","coordinates":[[[102.9385,1.1055],[102.89,1.126],[102.8765,1.044],[102.893,1.0325],[102.894,1.026],[102.9385,1.1055]]]},"properties":{"code":"14.10.09.2004","name":"Telesung"}},{"type":"Feature","geometry":{"type":"Polygon","coordinates":[[[102.89,1.126],[102.8825,1.128],[102.869,1.089],[102.855,1.0845],[102.8495,1.0725],[102.8415,1.0725],[102.827,1.0695],[102.822,1.0585],[102.8205,1.051],[102.8525,1.0565],[102.873,1.053],[102.8765,1.044],[102.89,1.126]]]},"properties":{"code":"14.10.09.2005","name":"Bungur"}},{"type":"Feature","geometry":{"type":"Polygon","coordinates":[[[102.8825,1.128],[102.8595,1.136],[102.861,1.104],[102.855,1.0845],[102.869,1.089],[102.8825,1.128]]]},"properties":{"code":"14.10.09.2006","name":"Tenggayun Raya"}},{"type":"Feature","geometry":{"type":"Polygon","coordinates":[[[102.7385,1.11],[102.7295,1.1115],[102.7285,1.111],[102.726,1.111],[102.7185,1.0925],[102.7255,1.092],[102.7365,1.09],[102.7515,1.088],[102.7725,1.0875],[102.7705,1.109],[102.745,1.108],[102.7385,1.11]]]},"properties":{"code":"14.10.09.2007","name":"Sendaur"}},{"type":"Feature","geometry":{"type":"Polygon","coordinates":[[[102.8415,1.0725],[102.8345,1.0745],[102.8335,1.075],[102.833,1.092],[102.832,1.0935],[102.8315,1.094],[102.816,1.1005],[102.81,1.111],[102.7815,1.11],[102.7705,1.109],[102.7725,1.0875],[102.782,1.0295],[102.788,1.026],[102.789,1.028],[102.794,1.032],[102.8145,1.035],[102.8175,1.0425],[102.822,1.0585],[102.827,1.0695],[102.8415,1.0725]]]},"properties":{"code":"14.10.09.2008","name":"Kayu Ara"}},{"type":"Feature","geometry":{"type":"Polygon","coordinates":[[[102.8595,1.136],[102.821,1.146],[102.81,1.111],[102.816,1.1005],[102.8315,1.094],[102.832,1.0935],[102.833,1.092],[102.8335,1.075],[102.8345,1.0745],[102.8415,1.0725],[102.8495,1.0725],[102.855,1.0845],[102.861,1.104],[102.8595,1.136]]]},"properties":{"code":"14.10.09.2009","name":"Sonde"}},{"type":"Feature","geometry":{"type":"Polygon","coordinates":[[[102.7725,1.158],[102.756,1.1595],[102.737,1.155],[102.717,1.142],[102.7185,1.1405],[102.7395,1.12],[102.7385,1.11],[102.745,1.108],[102.7705,1.109],[102.7815,1.11],[102.7745,1.1335],[102.7725,1.158]]]},"properties":{"code":"14.10.09.2010","name":"Kedabu Rapat"}},{"type":"Feature","geometry":{"type":"Polygon","coordinates":[[[102.821,1.146],[102.7725,1.158],[102.7745,1.1335],[102.7815,1.11],[102.81,1.111],[102.821,1.146]]]},"properties":{"code":"14.10.09.2011","name":"Tanah Merah"}}]}