{"type":"FeatureCollection","features":[{"type":"Feature","geometry":{"type":"Polygon","coordinates":[[[101.438,1.6865],[101.4145,1.6955],[101.4125,1.692],[101.4085,1.685],[101.4165,1.6765],[101.423,1.676],[101.424,1.675],[101.428,1.675],[101.428,1.6735],[101.4295,1.674],[101.43,1.675],[101.4315,1.677],[101.432,1.6785],[101.4355,1.68],[101.435,1.6825],[101.4355,1.684],[101.4375,1.6855],[101.438,1.6865]]]},"properties":{"code":"14.72.01.1003","name":"Pangkalan Sesai"}},{"type":"Feature","geometry":{"type":"Polygon","coordinates":[[[101.4145,1.6955],[101.387,1.7195],[101.3885,1.7155],[101.378,1.703],[101.377,1.702],[101.38,1.701],[101.379,1.7],[101.3835,1.699],[101.389,1.6985],[101.3875,1.687],[101.387,1.66],[101.4,1.674],[101.406,1.682],[101.408,1.684],[101.4125,1.692],[101.4145,1.6955]]]},"properties":{"code":"14.72.01.1006","name":"Purnama"}},{"type":"Feature","geometry":{"type":"Polygon","coordinates":[[[101.387,1.66],[101.3875,1.687],[101.389,1.6985],[101.3835,1.699],[101.379,1.7],[101.3765,1.699],[101.3755,1.697],[101.374,1.697],[101.3695,1.697],[101.3695,1.6965],[101.37,1.6955],[101.37,1.695],[101.3685,1.693],[101.3685,1.6925],[101.367,1.6895],[101.357,1.687],[101.35,1.6615],[101.3485,1.6565],[101.3475,1.6545],[101.348,1.6535],[101.348,1.653],[101.383,1.6555],[101.387,1.66]]]},"properties":{"code":"14.72.01.1008","name":"Bagan Keladi"}},{"type":"Feature","geometry":{"type":"Polygon","coordinates":[[[101.4295,1.674],[101.428,1.6735],[101.428,1.675],[101.424,1.675],[101.423,1.676],[101.4165,1.6765],[101.4085,1.685],[101.408,1.684],[101.406,1.682],[101.4025,1.677],[101.409,1.6725],[101.4255,1.67],[101.4305,1.6695],[101.432,1.67],[101.4325,1.67],[101.4325,1.6705],[101.432,1.671],[101.429,1.673],[101.4295,1.674]]]},"properties":{"code":"14.72.01.1009","name":"Simpang Tetap Darul Ichsan"}},{"type":"Feature","geometry":{"type":"Polygon","coordinates":[[[101.4635,1.678],[101.4485,1.678],[101.444,1.659],[101.449,1.6585],[101.4635,1.672],[101.4635,1.6725],[101.4635,1.678]]]},"properties":{"code":"14.72.02.1002","name":"Teluk Binjai"}},{"type":"Feature","geometry":{"type":"Polygon","coordinates":[[[101.4925,1.6745],[101.4815,1.6825],[101.4635,1.686],[101.4635,1.684],[101.4635,1.6725],[101.4635,1.672],[101.463,1.671],[101.466,1.6535],[101.456,1.6255],[101.4285,1.6005],[101.433,1.5975],[101.434,1.597],[101.437,1.596],[101.4385,1.5955],[101.473,1.6445],[101.4925,1.6745]]]},"properties":{"code":"14.72.02.1003","name":"Tanjung Palas"}},{"type":"Feature","geometry":{"type":"Polygon","coordinates":[[[101.466,1.6535],[101.463,1.671],[101.449,1.6585],[101.45,1.657],[101.466,1.6535]]]},"properties":{"code":"14.72.02.1004","name":"Jaya Mukti"}},{"type":"Feature","geometry":{"type":"Polygon","coordinates":[[[101.4635,1.686],[101.448,1.687],[101.4485,1.678],[101.4635,1.678],[101.4635,1.684],[101.4635,1.686]]]},"properties":{"code":"14.72.02.1006","name":"Buluh Kasap"}},{"type":"Feature","geometry":{"type":"Polygon","coordinates":[[[101.466,1.6535],[101.45,1.657],[101.4505,1.6555],[101.4515,1.6505],[101.449,1.639],[101.444,1.6325],[101.4425,1.6285],[101.4425,1.628],[101.438,1.6215],[101.432,1.613],[101.43,1.611],[101.427,1.6085],[101.4235,1.6055],[101.4165,1.603],[101.419,1.6025],[101.42,1.602],[101.4265,1.5985],[101.429,1.5985],[101.4285,1.6005],[101.456,1.6255],[101.466,1.6535]]]},"properties":{"code":"14.72.02.1009","name":"Bukit Batrem"}},{"type":"Feature","geometry":{"type":"Polygon","coordinates":[[[101.4275,1.5675],[101.3685,1.569],[101.303,1.5665],[101.303,1.5635],[101.304,1.5495],[101.3175,1.5265],[101.319,1.523],[101.4125,1.5235],[101.4235,1.5585],[101.4275,1.5675]]]},"properties":{"code":"14.72.03.1001","name":"Bukit Nenas"}},{"type":"Feature","geometry":{"type":"Polygon","coordinates":[[[101.3915,1.4535],[101.4125,1.5235],[101.319,1.523],[101.3265,1.5105],[101.3355,1.496],[101.317,1.4745],[101.3205,1.4735],[101.3815,1.457],[101.3915,1.4535]]]},"properties":{"code":"14.72.03.1002","name":"Bukit Kayu Kapur"}},{"type":"Feature","geometry":{"type":"Polygon","coordinates":[[[101.523,1.57],[101.4805,1.5775],[101.4635,1.5745],[101.46,1.526],[101.4495,1.4945],[101.5065,1.4935],[101.523,1.57]]]},"properties":{"code":"14.72.03.1003","name":"Gurun Panjang"}},{"type":"Feature","geometry":{"type":"Polygon","coordinates":[[[101.336,1.621],[101.29,1.6],[101.303,1.5675],[101.303,1.5665],[101.3685,1.569],[101.4275,1.5675],[101.429,1.5705],[101.437,1.581],[101.455,1.5925],[101.453,1.593],[101.4395,1.5965],[101.4385,1.5955],[101.437,1.596],[101.434,1.597],[101.433,1.5975],[101.429,1.5985],[101.4265,1.5985],[101.42,1.602],[101.419,1.6025],[101.418,1.603],[101.4165,1.603],[101.411,1.6015],[101.41,1.6125],[101.376,1.6115],[101.328,1.613],[101.3295,1.616],[101.3355,1.619],[101.336,1.621]]]},"properties":{"code":"14.72.03.1004","name":"Bagan Besar"}},{"type":"Feature","geometry":{"type":"Polygon","coordinates":[[[101.4805,1.5855],[101.466,1.5885],[101.455,1.5925],[101.437,1.581],[101.429,1.5705],[101.4235,1.5585],[101.4125,1.5235],[101.3915,1.4535],[101.428,1.448],[101.4355,1.447],[101.4475,1.486],[101.4495,1.4945],[101.46,1.526],[101.4635,1.5745],[101.4805,1.5775],[101.523,1.57],[101.526,1.5865],[101.4805,1.5855]]]},"properties":{"code":"14.72.03.1005","name":"Kampung Baru"}},{"type":"Feature","geometry":{"type":"Polygon","coordinates":[[[101.375,1.743],[101.364,1.7595],[101.3545,1.7935],[101.3305,1.786],[101.323,1.787],[101.302,1.7765],[101.2505,1.748],[101.2415,1.7425],[101.217,1.727],[101.2185,1.7245],[101.239,1.695],[101.261,1.6525],[101.261,1.6655],[101.277,1.674],[101.345,1.7235],[101.375,1.743]]]},"properties":{"code":"14.72.04.1001","name":"Lubuk Gaung"}},{"type":"Feature","geometry":{"type":"Polygon","coordinates":[[[101.3545,1.7935],[101.3635,1.831],[101.3525,1.8465],[101.342,1.8445],[101.331,1.838],[101.305,1.8255],[101.2285,1.792],[101.1855,1.771],[101.209,1.74],[101.217,1.727],[101.2415,1.7425],[101.2505,1.748],[101.302,1.7765],[101.323,1.787],[101.3305,1.786],[101.3545,1.7935]]]},"properties":{"code":"14.72.04.1002","name":"Tanjung Penyembal"}},{"type":"Feature","geometry":{"type":"Polygon","coordinates":[[[101.387,1.7195],[101.375,1.743],[101.345,1.7235],[101.277,1.674],[101.261,1.6655],[101.261,1.6525],[101.29,1.6],[101.336,1.621],[101.338,1.6245],[101.3475,1.651],[101.3475,1.6525],[101.348,1.6535],[101.3475,1.6545],[101.3485,1.6565],[101.35,1.6615],[101.357,1.687],[101.367,1.6895],[101.3685,1.6925],[101.3685,1.693],[101.37,1.695],[101.37,1.6955],[101.3695,1.6965],[101.3695,1.697],[101.374,1.697],[101.3755,1.697],[101.3765,1.699],[101.38,1.701],[101.377,1.702],[101.378,1.703],[101.3885,1.7155],[101.387,1.7195]]]},"properties":{"code":"14.72.04.1003","name":"Bangsal Aceh"}},{"type":"Feature","geometry":{"type":"Polygon","coordinates":[[[101.319,2.001],[101.3005,1.9815],[101.281,1.9835],[101.2705,1.988],[101.2335,1.988],[101.0545,1.983],[101.0565,1.9695],[101.059,1.952],[101.067,1.9355],[101.0865,1.905],[101.096,1.894],[101.0975,1.891],[101.103,1.8825],[101.1215,1.8515],[101.1305,1.8355],[101.1765,1.7825],[101.1855,1.771],[101.2285,1.792],[101.305,1.8255],[101.331,1.838],[101.342,1.8445],[101.3525,1.8465],[101.3465,1.8695],[101.336,1.891],[101.326,1.938],[101.327,1.946],[101.319,2.001]]]},"properties":{"code":"14.72.04.1004","name":"Basilam Baru"}},{"type":"Feature","geometry":{"type":"Polygon","coordinates":[[[101.0655,2.2325],[101.0525,2.233],[101.0485,2.223],[101.039,2.22],[101.0255,2.1835],[101.011,2.134],[101.0125,2.098],[101.016,2.0805],[101.022,2.0635],[101.0315,2.038],[101.0435,2.0135],[101.0535,1.9885],[101.0545,1.983],[101.2335,1.988],[101.2705,1.988],[101.281,1.9835],[101.3005,1.9815],[101.319,2.001],[101.303,2.042],[101.281,2.058],[101.2675,2.08],[101.2365,2.092],[101.1785,2.1265],[101.1355,2.1665],[101.1075,2.191],[101.076,2.215],[101.0655,2.2325]]]},"properties":{"code":"14.72.04.1005","name":"Batu Teritip"}},{"type":"Feature","geometry":{"type":"Polygon","coordinates":[[[101.546,1.6395],[101.514,1.655],[101.4845,1.6],[101.4805,1.5855],[101.526,1.5865],[101.528,1.5955],[101.5485,1.5965],[101.552,1.5965],[101.549,1.6085],[101.552,1.632],[101.546,1.6395]]]},"properties":{"code":"14.72.05.1001","name":"Teluk Makmur"}},{"type":"Feature","geometry":{"type":"Polygon","coordinates":[[[101.514,1.655],[101.4925,1.6745],[101.473,1.6445],[101.4395,1.5965],[101.453,1.593],[101.466,1.5885],[101.4805,1.5855],[101.4845,1.6],[101.514,1.655]]]},"properties":{"code":"14.72.05.1002","name":"Mundam"}},{"type":"Feature","geometry":{"type":"Polygon","coordinates":[[[101.579,1.6365],[101.546,1.6395],[101.552,1.632],[101.549,1.6085],[101.552,1.5965],[101.5545,1.596],[101.5745,1.5965],[101.5785,1.597],[101.579,1.606],[101.5785,1.6305],[101.579,1.6365]]]},"properties":{"code":"14.72.05.1003","name":"Guntung"}},{"type":"Feature","geometry":{"type":"Polygon","coordinates":[[[101.725,1.6715],[101.6935,1.6655],[101.6645,1.6645],[101.645,1.6585],[101.6145,1.642],[101.6015,1.638],[101.579,1.6365],[101.5785,1.6305],[101.579,1.606],[101.5785,1.597],[101.5895,1.5985],[101.598,1.6],[101.609,1.5825],[101.6195,1.5525],[101.6185,1.5455],[101.6405,1.548],[101.6425,1.562],[101.6245,1.5885],[101.642,1.61],[101.706,1.6215],[101.7185,1.6225],[101.727,1.6665],[101.725,1.6715]]]},"properties":{"code":"14.72.05.1004","name":"Pelintung"}},{"type":"Feature","geometry":{"type":"Polygon","coordinates":[[[101.4415,1.688],[101.438,1.6865],[101.4375,1.6855],[101.4355,1.684],[101.435,1.6825],[101.4355,1.68],[101.432,1.6785],[101.4315,1.6775],[101.441,1.678],[101.4415,1.688]]]},"properties":{"code":"14.72.06.1001","name":"Laksamana"}},{"type":"Feature","geometry":{"type":"Polygon","coordinates":[[[101.441,1.678],[101.4315,1.6775],[101.4315,1.677],[101.43,1.675],[101.429,1.6745],[101.4295,1.674],[101.429,1.673],[101.432,1.671],[101.4325,1.6705],[101.433,1.6695],[101.433,1.669],[101.436,1.669],[101.436,1.6685],[101.437,1.668],[101.4375,1.668],[101.4395,1.6655],[101.4415,1.665],[101.441,1.678]]]},"properties":{"code":"14.72.06.1002","name":"Rimba Sekampung"}},{"type":"Feature","geometry":{"type":"Polygon","coordinates":[[[101.448,1.687],[101.4415,1.688],[101.441,1.678],[101.4485,1.678],[101.448,1.687]]]},"properties":{"code":"14.72.06.1003","name":"Dumai Kota"}},{"type":"Feature","geometry":{"type":"Polygon","coordinates":[[[101.444,1.659],[101.4485,1.678],[101.4465,1.678],[101.443,1.661],[101.4435,1.6595],[101.444,1.659]]]},"properties":{"code":"14.72.06.1004","name":"Bintan"}},{"type":"Feature","geometry":{"type":"Polygon","coordinates":[[[101.443,1.661],[101.4465,1.678],[101.441,1.678],[101.4415,1.665],[101.442,1.6635],[101.442,1.661],[101.443,1.661]]]},"properties":{"code":"14.72.06.1005","name":"Sukajadi"}},{"type":"Feature","geometry":{"type":"Polygon","coordinates":[[[101.4325,1.67],[101.432,1.67],[101.4305,1.6695],[101.4255,1.67],[101.409,1.6725],[101.4025,1.677],[101.4,1.674],[101.388,1.661],[101.3895,1.659],[101.3975,1.66],[101.4245,1.661],[101.438,1.667],[101.4375,1.668],[101.437,1.668],[101.436,1.6685],[101.436,1.669],[101.433,1.669],[101.4325,1.67]]]},"properties":{"code":"14.72.07.1001","name":"Ratu Sima"}},{"type":"Feature","geometry":{"type":"Polygon","coordinates":[[[101.388,1.6325],[101.376,1.6115],[101.41,1.6125],[101.411,1.6015],[101.4165,1.603],[101.423,1.605],[101.4245,1.606],[101.4285,1.6095],[101.4315,1.6125],[101.434,1.616],[101.441,1.626],[101.4365,1.6315],[101.4355,1.632],[101.388,1.6325]]]},"properties":{"code":"14.72.07.1002","name":"Bukit Timah"}},{"type":"Feature","geometry":{"type":"Polygon","coordinates":[[[101.388,1.6325],[101.388,1.661],[101.383,1.6555],[101.348,1.653],[101.3475,1.6525],[101.3475,1.651],[101.338,1.6245],[101.3355,1.619],[101.3295,1.616],[101.328,1.613],[101.376,1.6115],[101.388,1.6325]]]},"properties":{"code":"14.72.07.1003","name":"Mekar Sari"}},{"type":"Feature","geometry":{"type":"Polygon","coordinates":[[[101.4415,1.665],[101.4395,1.6655],[101.438,1.667],[101.4245,1.661],[101.3975,1.66],[101.3895,1.659],[101.388,1.661],[101.388,1.6325],[101.4355,1.632],[101.4365,1.6315],[101.441,1.626],[101.4425,1.6285],[101.4435,1.631],[101.441,1.633],[101.4405,1.6345],[101.4395,1.6355],[101.437,1.641],[101.4325,1.642],[101.4325,1.6535],[101.4335,1.655],[101.443,1.659],[101.442,1.661],[101.442,1.6635],[101.4415,1.665]]]},"properties":{"code":"14.72.07.1004","name":"Bukit Datuk"}},{"type":"Feature","geometry":{"type":"Polygon","coordinates":[[[101.444,1.659],[101.4435,1.6595],[101.443,1.659],[101.4335,1.655],[101.4325,1.6535],[101.4325,1.642],[101.437,1.641],[101.4395,1.6355],[101.4405,1.6345],[101.441,1.633],[101.4435,1.631],[101.444,1.6325],[101.449,1.639],[101.4515,1.6505],[101.4505,1.6555],[101.449,1.6585],[101.444,1.659]]]},"properties":{"code":"14.72.07.1005","name":"Bumi Ayu"}}]}