{"type":"FeatureCollection","features":[{"type":"Feature","geometry":{"type":"Polygon","coordinates":[[[103.911,-1.143],[103.906,-1.135],[103.9085,-1.1315],[103.9025,-1.1195],[103.8935,-1.1175],[103.889,-1.103],[103.8755,-1.11],[103.8455,-1.1125],[103.846,-1.1245],[103.849,-1.1305],[103.871,-1.119],[103.8835,-1.124],[103.8845,-1.136],[103.8945,-1.139],[103.895,-1.149],[103.899,-1.148],[103.909,-1.1435],[103.911,-1.143]]]},"properties":{"code":"15.07.01.1010","name":"Muara Sabak Ilir","latitude":-1.1229546057186017,"longitude":103.88051584984956}},{"type":"Feature","geometry":{"type":"Polygon","coordinates":[[[103.895,-1.149],[103.8945,-1.139],[103.8845,-1.136],[103.8835,-1.124],[103.871,-1.119],[103.849,-1.1305],[103.852,-1.136],[103.856,-1.145],[103.8565,-1.146],[103.8585,-1.1465],[103.874,-1.1455],[103.8765,-1.154],[103.8785,-1.1565],[103.882,-1.157],[103.882,-1.1575],[103.89,-1.15],[103.895,-1.149]]]},"properties":{"code":"15.07.01.1013","name":"Muara Sabak Ulu","latitude":-1.1370566220152951,"longitude":103.87332338227279}},{"type":"Feature","geometry":{"type":"Polygon","coordinates":[[[103.902,-1.0595],[103.8945,-1.0055],[103.888,-0.992],[103.837,-1.0095],[103.8355,-1.01],[103.843,-1.0085],[103.849,-1.0285],[103.847,-1.0495],[103.87,-1.049],[103.882,-1.0525],[103.887,-1.0545],[103.889,-1.0555],[103.902,-1.0595]]]},"properties":{"code":"15.07.01.2001","name":"Alang-Alang","latitude":-1.0254188029671556,"longitude":103.87336705658676}},{"type":"Feature","geometry":{"type":"Polygon","coordinates":[[[103.9555,-0.9965],[103.938,-0.9895],[103.919,-1.014],[103.917,-1.0265],[103.921,-1.048],[103.9175,-1.0675],[103.9185,-1.07],[103.9615,-1.074],[103.966,-1.07],[103.965,-1.0695],[103.963,-1.066],[103.962,-1.0625],[103.957,-1.053],[103.95,-1.0425],[103.9535,-1.029],[103.953,-1.0045],[103.9555,-0.9965]]]},"properties":{"code":"15.07.01.2002","name":"Lambur","latitude":-1.0359227839120666,"longitude":103.93833915698302}},{"type":"Feature","geometry":{"type":"Polygon","coordinates":[[[104.0515,-1.054],[104.0415,-1.033],[104.0325,-1.0295],[104.014,-1.012],[103.9735,-1.063],[103.9615,-1.074],[103.958,-1.074],[103.986,-1.0935],[103.9915,-1.0855],[104.008,-1.097],[104.02,-1.091],[104.034,-1.0775],[104.0445,-1.0615],[104.0495,-1.062],[104.0515,-1.054]]]},"properties":{"code":"15.07.01.2004","name":"Simbur Naik","latitude":-1.0586651502184667,"longitude":104.00979186290475}},{"type":"Feature","geometry":{"type":"Polygon","coordinates":[[[104.001,-1.1325],[103.946,-1.089],[103.9455,-1.089],[103.9375,-1.104],[103.9695,-1.1545],[104.001,-1.1325]]]},"properties":{"code":"15.07.01.2011","name":"Lambur I","latitude":-1.12290143917964,"longitude":103.96706342918418}},{"type":"Feature","geometry":{"type":"Polygon","coordinates":[[[104.0495,-1.062],[104.0445,-1.0615],[104.034,-1.0775],[104.02,-1.091],[104.008,-1.097],[103.9915,-1.0855],[103.986,-1.0935],[103.958,-1.074],[103.957,-1.0735],[103.947,-1.0875],[103.946,-1.089],[104.001,-1.1325],[104.023,-1.1305],[104.0175,-1.1405],[104.0275,-1.1445],[104.03,-1.146],[104.0355,-1.1525],[104.037,-1.1505],[104.0415,-1.139],[104.047,-1.136],[104.048,-1.1365],[104.0475,-1.1315],[104.0405,-1.1315],[104.0585,-1.1025],[104.061,-1.0925],[104.064,-1.0895],[104.0615,-1.0895],[104.066,-1.067],[104.0605,-1.0655],[104.0495,-1.062]]]},"properties":{"code":"15.07.01.2012","name":"Lambur II","latitude":-1.103178843583597,"longitude":104.01683123911432}},{"type":"Feature","geometry":{"type":"Polygon","coordinates":[[[103.847,-1.0495],[103.8215,-1.044],[103.8175,-1.0445],[103.8155,-1.049],[103.811,-1.0635],[103.8165,-1.07],[103.837,-1.083],[103.841,-1.0895],[103.8425,-1.0925],[103.858,-1.087],[103.8875,-1.0825],[103.8875,-1.055],[103.882,-1.0525],[103.87,-1.049],[103.847,-1.0495]]]},"properties":{"code":"15.07.01.2014","name":"Kota Raja","latitude":-1.065974233416359,"longitude":103.85134918336043}},{"type":"Feature","geometry":{"type":"Polygon","coordinates":[[[103.902,-1.0595],[103.889,-1.0555],[103.8875,-1.055],[103.8875,-1.0825],[103.858,-1.087],[103.8425,-1.0925],[103.8455,-1.1125],[103.8755,-1.11],[103.889,-1.103],[103.8935,-1.1175],[103.9025,-1.1195],[103.9085,-1.1315],[103.906,-1.135],[103.911,-1.143],[103.915,-1.143],[103.928,-1.152],[103.9335,-1.167],[103.9455,-1.165],[103.966,-1.155],[103.9695,-1.1545],[103.9375,-1.104],[103.9455,-1.089],[103.947,-1.0875],[103.957,-1.0735],[103.9185,-1.07],[103.9175,-1.0675],[103.902,-1.068],[103.902,-1.0595]]]},"properties":{"code":"15.07.01.2015","name":"Siau Dalam","latitude":-1.1086589050649187,"longitude":103.91428857663077}},{"type":"Feature","geometry":{"type":"Polygon","coordinates":[[[103.938,-0.9895],[103.915,-0.983],[103.902,-0.984],[103.888,-0.992],[103.8945,-1.0055],[103.902,-1.0595],[103.902,-1.068],[103.9175,-1.0675],[103.921,-1.048],[103.917,-1.0265],[103.919,-1.014],[103.938,-0.9895]]]},"properties":{"code":"15.07.01.2016","name":"Sungai Ular","latitude":-1.0190452418225528,"longitude":103.90992472327667}},{"type":"Feature","geometry":{"type":"Polygon","coordinates":[[[104.0235,-0.9995],[103.9735,-0.992],[103.9555,-0.9965],[103.953,-1.0045],[103.9535,-1.029],[103.95,-1.0425],[103.957,-1.053],[103.962,-1.0625],[103.963,-1.066],[103.965,-1.0695],[103.966,-1.07],[103.9735,-1.063],[104.0235,-0.9995]]]},"properties":{"code":"15.07.01.2017","name":"Kota Harapan","latitude":-1.0226474222935205,"longitude":103.9786019745254}},{"type":"Feature","geometry":{"type":"Polygon","coordinates":[[[104.0615,-1.0165],[104.0235,-0.9995],[104.014,-1.012],[104.0325,-1.0295],[104.0415,-1.033],[104.054,-1.044],[104.0515,-1.0335],[104.0615,-1.0165]]]},"properties":{"code":"15.07.01.2018","name":"Kuala Simbur","latitude":-1.0201033329603892,"longitude":104.03929662770794}},{"type":"Feature","geometry":{"type":"MultiPolygon","coordinates":[[[[104.2795,-1.0435],[104.2655,-1.0415],[104.2475,-1.0525],[104.224,-1.059],[104.207,-1.0705],[104.193,-1.058],[104.164,-1.0485],[104.1655,-1.06],[104.161,-1.0705],[104.161,-1.072],[104.18,-1.0765],[104.1885,-1.08],[104.19,-1.0825],[104.197,-1.0855],[104.2,-1.0875],[104.2005,-1.088],[104.2015,-1.089],[104.2045,-1.09],[104.208,-1.092],[104.214,-1.0945],[104.222,-1.103],[104.2255,-1.1035],[104.244,-1.085],[104.2525,-1.0805],[104.259,-1.078],[104.2795,-1.0435]]],[[[104.2055,-1.0315],[104.1905,-1.0385],[104.2,-1.054],[104.207,-1.049],[104.2055,-1.0315]]],[[[104.246,-1.031],[104.213,-1.0335],[104.2095,-1.061],[104.238,-1.0485],[104.255,-1.036],[104.246,-1.031]]]]},"properties":{"code":"15.07.02.1001","name":"Nipah Panjang I","latitude":-1.0625150897095172,"longitude":104.22053751140187}},{"type":"Feature","geometry":{"type":"Polygon","coordinates":[[[104.1995,-1.087],[104.19,-1.0825],[104.1885,-1.08],[104.18,-1.0765],[104.161,-1.072],[104.1605,-1.079],[104.159,-1.0925],[104.1565,-1.093],[104.1565,-1.094],[104.1525,-1.1045],[104.1595,-1.106],[104.1745,-1.108],[104.1775,-1.11],[104.188,-1.103],[104.192,-1.095],[104.197,-1.0895],[104.1995,-1.087]]]},"properties":{"code":"15.07.02.1002","name":"Nipah Panjang II","latitude":-1.091464287646367,"longitude":104.17430462478347}},{"type":"Feature","geometry":{"type":"Polygon","coordinates":[[[104.3285,-1.0425],[104.302,-1.0465],[104.2795,-1.0435],[104.259,-1.078],[104.2645,-1.0785],[104.285,-1.073],[104.2965,-1.075],[104.2945,-1.0865],[104.2865,-1.088],[104.287,-1.0865],[104.288,-1.087],[104.289,-1.084],[104.2875,-1.0835],[104.285,-1.086],[104.283,-1.089],[104.284,-1.0925],[104.2865,-1.0945],[104.288,-1.096],[104.2875,-1.0985],[104.291,-1.1015],[104.2915,-1.101],[104.298,-1.099],[104.299,-1.1005],[104.2965,-1.1025],[104.2975,-1.105],[104.306,-1.1035],[104.306,-1.103],[104.3165,-1.104],[104.3145,-1.1],[104.3075,-1.0845],[104.306,-1.08],[104.3075,-1.075],[104.3215,-1.062],[104.324,-1.0575],[104.325,-1.0555],[104.327,-1.0535],[104.3335,-1.053],[104.334,-1.0525],[104.3345,-1.0515],[104.3335,-1.0485],[104.3285,-1.0425]]]},"properties":{"code":"15.07.02.2003","name":"Simpang Jelita","latitude":-1.0682446495812545,"longitude":104.29771969799312}},{"type":"Feature","geometry":{"type":"Polygon","coordinates":[[[104.3165,-1.104],[104.306,-1.103],[104.306,-1.1035],[104.2975,-1.105],[104.2965,-1.1025],[104.299,-1.1005],[104.298,-1.099],[104.2915,-1.101],[104.291,-1.1015],[104.2875,-1.0985],[104.288,-1.096],[104.2865,-1.0945],[104.284,-1.0925],[104.283,-1.089],[104.285,-1.086],[104.2875,-1.0835],[104.289,-1.084],[104.288,-1.087],[104.287,-1.0865],[104.2865,-1.088],[104.2945,-1.0865],[104.2965,-1.075],[104.285,-1.073],[104.2645,-1.0785],[104.255,-1.0795],[104.2645,-1.087],[104.2695,-1.108],[104.2625,-1.1165],[104.2505,-1.142],[104.316,-1.143],[104.3355,-1.152],[104.3365,-1.127],[104.3265,-1.1205],[104.3275,-1.12],[104.327,-1.1185],[104.3285,-1.1105],[104.3265,-1.1095],[104.323,-1.1075],[104.32,-1.1065],[104.3185,-1.1075],[104.318,-1.1055],[104.3165,-1.104]]]},"properties":{"code":"15.07.02.2004","name":"Simpang Datuk","latitude":-1.1174880056081191,"longitude":104.29233845527834}},{"type":"Feature","geometry":{"type":"Polygon","coordinates":[[[104.0945,-1.029],[104.0735,-1.0235],[104.0615,-1.0165],[104.0515,-1.0335],[104.054,-1.044],[104.0515,-1.054],[104.0495,-1.062],[104.0605,-1.0655],[104.07,-1.0675],[104.0915,-1.0745],[104.0915,-1.0725],[104.0905,-1.0705],[104.0875,-1.0655],[104.088,-1.051],[104.0895,-1.0475],[104.0925,-1.0465],[104.0945,-1.029]]]},"properties":{"code":"15.07.02.2005","name":"Teluk Kijing","latitude":-1.0455502904051766,"longitude":104.07178719936101}},{"type":"Feature","geometry":{"type":"Polygon","coordinates":[[[104.0915,-1.0745],[104.07,-1.0675],[104.066,-1.067],[104.0615,-1.0895],[104.064,-1.0895],[104.061,-1.0925],[104.0585,-1.1025],[104.0615,-1.1225],[104.0615,-1.1235],[104.0635,-1.122],[104.1,-1.101],[104.098,-1.101],[104.096,-1.0995],[104.0955,-1.098],[104.0965,-1.0965],[104.1005,-1.091],[104.0915,-1.0745]]]},"properties":{"code":"15.07.02.2006","name":"Sungai Raya","latitude":-1.0928843112166458,"longitude":104.07755351575696}},{"type":"Feature","geometry":{"type":"Polygon","coordinates":[[[104.1255,-1.0485],[104.105,-1.0295],[104.0945,-1.029],[104.0925,-1.0465],[104.0895,-1.0475],[104.088,-1.051],[104.0875,-1.0655],[104.0905,-1.0705],[104.0915,-1.0725],[104.0915,-1.0745],[104.1005,-1.091],[104.0965,-1.0965],[104.0955,-1.098],[104.096,-1.0995],[104.098,-1.101],[104.102,-1.1005],[104.1055,-1.093],[104.108,-1.092],[104.1165,-1.0865],[104.1245,-1.0895],[104.126,-1.09],[104.13,-1.0865],[104.134,-1.0815],[104.1325,-1.0785],[104.1275,-1.075],[104.127,-1.075],[104.1215,-1.0775],[104.1195,-1.076],[104.1185,-1.0695],[104.116,-1.0655],[104.1165,-1.0625],[104.1255,-1.0485]]]},"properties":{"code":"15.07.02.2007","name":"Pemusiran","latitude":-1.0630047881527234,"longitude":104.10682297825393}},{"type":"Feature","geometry":{"type":"Polygon","coordinates":[[[104.1315,-1.0845],[104.13,-1.0865],[104.126,-1.09],[104.1245,-1.0895],[104.1165,-1.0865],[104.108,-1.092],[104.1055,-1.093],[104.102,-1.1005],[104.1,-1.101],[104.093,-1.105],[104.0885,-1.1155],[104.095,-1.1225],[104.1015,-1.131],[104.113,-1.1225],[104.127,-1.1205],[104.15,-1.1305],[104.1485,-1.1405],[104.1625,-1.1345],[104.1805,-1.133],[104.179,-1.1315],[104.176,-1.1265],[104.175,-1.124],[104.174,-1.12],[104.1775,-1.11],[104.1745,-1.108],[104.1595,-1.106],[104.1525,-1.1045],[104.1565,-1.094],[104.1565,-1.093],[104.145,-1.0925],[104.1315,-1.0845]]]},"properties":{"code":"15.07.02.2008","name":"Sungai Tering","latitude":-1.1119518471953513,"longitude":104.13468001290985}},{"type":"Feature","geometry":{"type":"Polygon","coordinates":[[[104.2505,-1.142],[104.2625,-1.1165],[104.2695,-1.108],[104.2645,-1.087],[104.255,-1.0795],[104.2525,-1.0805],[104.244,-1.085],[104.2255,-1.1035],[104.222,-1.103],[104.214,-1.0945],[104.208,-1.092],[104.2045,-1.09],[104.2015,-1.089],[104.2005,-1.088],[104.1995,-1.087],[104.197,-1.0895],[104.192,-1.095],[104.188,-1.103],[104.1775,-1.11],[104.174,-1.12],[104.175,-1.124],[104.176,-1.1265],[104.179,-1.1315],[104.1845,-1.137],[104.2035,-1.1335],[104.211,-1.13],[104.226,-1.1325],[104.2325,-1.1475],[104.2365,-1.1485],[104.2505,-1.142]]]},"properties":{"code":"15.07.02.2009","name":"Sungai Jeruk","latitude":-1.1140420951090417,"longitude":104.22477864816369}},{"type":"Feature","geometry":{"type":"Polygon","coordinates":[[[104.164,-1.0485],[104.1545,-1.046],[104.1375,-1.0495],[104.1255,-1.0485],[104.1165,-1.0625],[104.116,-1.0655],[104.1185,-1.0695],[104.1195,-1.076],[104.1215,-1.0775],[104.127,-1.075],[104.1275,-1.075],[104.1325,-1.0785],[104.134,-1.0815],[104.1315,-1.0845],[104.145,-1.0925],[104.156,-1.0935],[104.159,-1.0925],[104.1605,-1.079],[104.161,-1.0705],[104.1655,-1.06],[104.164,-1.0485]]]},"properties":{"code":"15.07.02.2010","name":"Bunga Tanjung","latitude":-1.0676199478877855,"longitude":104.14304182572778}},{"type":"Feature","geometry":{"type":"Polygon","coordinates":[[[103.7435,-0.975],[103.7245,-0.9555],[103.704,-0.9495],[103.674,-0.9515],[103.651,-0.9635],[103.649,-0.9755],[103.6385,-0.9715],[103.62,-0.986],[103.6465,-1.0025],[103.6695,-1.0305],[103.6845,-1.0315],[103.694,-1.004],[103.712,-0.9975],[103.724,-0.9835],[103.7435,-0.975]]]},"properties":{"code":"15.07.03.1002","name":"Mendahara Ilir","latitude":-0.98331479994199,"longitude":103.68221704426841}},{"type":"Feature","geometry":{"type":"Polygon","coordinates":[[[103.603,-0.9465],[103.567,-0.926],[103.56,-0.9385],[103.561,-0.9395],[103.556,-0.962],[103.5545,-0.964],[103.549,-0.963],[103.5485,-0.9655],[103.536,-0.9915],[103.524,-1.0025],[103.514,-1.0015],[103.514,-1.001],[103.514,-1.0035],[103.5115,-1.006],[103.4985,-1.013],[103.492,-1.0135],[103.4925,-1.016],[103.4925,-1.017],[103.49,-1.0185],[103.485,-1.021],[103.4745,-1.0245],[103.472,-1.0275],[103.4695,-1.0285],[103.4685,-1.0295],[103.468,-1.03],[103.471,-1.0325],[103.4585,-1.046],[103.455,-1.055],[103.453,-1.059],[103.4405,-1.0725],[103.4595,-1.0945],[103.471,-1.1255],[103.4785,-1.1095],[103.482,-1.1115],[103.491,-1.083],[103.5045,-1.0535],[103.514,-1.0585],[103.5185,-1.045],[103.5275,-1.0455],[103.53,-1.0305],[103.5405,-1.0025],[103.549,-0.9945],[103.5685,-0.986],[103.5845,-0.9695],[103.593,-0.966],[103.5965,-0.963],[103.596,-0.962],[103.6035,-0.947],[103.603,-0.9465]]]},"properties":{"code":"15.07.03.2001","name":"Pangkal Duri","latitude":-1.0245487776804583,"longitude":103.51351481506828}},{"type":"Feature","geometry":{"type":"Polygon","coordinates":[[[103.62,-0.986],[103.6125,-0.989],[103.6035,-0.9785],[103.5985,-0.9655],[103.5965,-0.963],[103.593,-0.966],[103.5845,-0.9695],[103.5685,-0.986],[103.549,-0.9945],[103.5405,-1.0025],[103.53,-1.0305],[103.561,-1.036],[103.5875,-1.044],[103.5945,-1.026],[103.595,-1.024],[103.6045,-1.002],[103.62,-0.986]]]},"properties":{"code":"15.07.03.2003","name":"Mendahara Tengah","latitude":-1.0065912637744237,"longitude":103.57506544051921}},{"type":"Feature","geometry":{"type":"Polygon","coordinates":[[[103.7515,-0.987],[103.7435,-0.975],[103.724,-0.9835],[103.712,-0.9975],[103.694,-1.004],[103.6845,-1.0315],[103.671,-1.079],[103.6725,-1.078],[103.686,-1.072],[103.702,-1.072],[103.722,-1.066],[103.731,-1.064],[103.7365,-1.0595],[103.737,-1.057],[103.7385,-1.0565],[103.7385,-1.053],[103.738,-1.0515],[103.7385,-1.049],[103.728,-1.0305],[103.747,-1.0085],[103.7475,-0.9945],[103.7485,-0.9895],[103.7515,-0.987]]]},"properties":{"code":"15.07.03.2007","name":"Lagan Ilir","latitude":-1.0293316602666314,"longitude":103.71360504679804}},{"type":"Feature","geometry":{"type":"Polygon","coordinates":[[[103.674,-0.9515],[103.671,-0.94],[103.66,-0.9295],[103.627,-0.9135],[103.6105,-0.9375],[103.6085,-0.9395],[103.605,-0.944],[103.603,-0.946],[103.6035,-0.947],[103.596,-0.962],[103.5985,-0.9655],[103.6035,-0.9785],[103.6125,-0.989],[103.62,-0.986],[103.6385,-0.9715],[103.649,-0.9755],[103.651,-0.9635],[103.674,-0.9515]]]},"properties":{"code":"15.07.03.2014","name":"Sinar Kalimantan","latitude":-0.950849056726598,"longitude":103.63232685696265}},{"type":"Feature","geometry":{"type":"Polygon","coordinates":[[[103.6845,-1.0315],[103.6695,-1.0305],[103.6465,-1.0025],[103.62,-0.986],[103.6045,-1.002],[103.595,-1.024],[103.5945,-1.026],[103.617,-1.0415],[103.6175,-1.05],[103.6315,-1.074],[103.654,-1.0875],[103.657,-1.086],[103.66,-1.0855],[103.6695,-1.0805],[103.671,-1.079],[103.6845,-1.0315]]]},"properties":{"code":"15.07.03.2015","name":"Sungai Tawar","latitude":-1.0375584961267623,"longitude":103.64083121674281}},{"type":"Feature","geometry":{"type":"Polygon","coordinates":[[[103.5875,-1.044],[103.561,-1.036],[103.53,-1.0305],[103.5275,-1.0455],[103.5185,-1.045],[103.514,-1.0585],[103.5045,-1.0535],[103.491,-1.083],[103.482,-1.1115],[103.4885,-1.1145],[103.5005,-1.1135],[103.5275,-1.1225],[103.533,-1.119],[103.534,-1.1135],[103.533,-1.102],[103.542,-1.0915],[103.545,-1.087],[103.5495,-1.0755],[103.555,-1.0725],[103.568,-1.067],[103.59,-1.063],[103.5935,-1.048],[103.5875,-1.044]]]},"properties":{"code":"15.07.03.2016","name":"Bakti Idaman","latitude":-1.0734272374870673,"longitude":103.53234214791202}},{"type":"Feature","geometry":{"type":"Polygon","coordinates":[[[103.654,-1.0875],[103.6315,-1.074],[103.6175,-1.05],[103.617,-1.0415],[103.5945,-1.026],[103.5875,-1.044],[103.5935,-1.048],[103.59,-1.063],[103.568,-1.067],[103.555,-1.0725],[103.5495,-1.0755],[103.545,-1.087],[103.543,-1.09],[103.5745,-1.109],[103.5795,-1.1065],[103.593,-1.115],[103.6165,-1.101],[103.6365,-1.102],[103.6515,-1.102],[103.652,-1.1015],[103.6525,-1.0995],[103.652,-1.0975],[103.653,-1.089],[103.653,-1.0885],[103.654,-1.0875]]]},"properties":{"code":"15.07.03.2017","name":"Merbau","latitude":-1.0790718700031658,"longitude":103.59859891886931}},{"type":"Feature","geometry":{"type":"Polygon","coordinates":[[[103.627,-0.9135],[103.589,-0.873],[103.574,-0.8755],[103.568,-0.882],[103.5685,-0.894],[103.561,-0.9025],[103.561,-0.9185],[103.561,-0.9225],[103.567,-0.926],[103.603,-0.9465],[103.603,-0.946],[103.605,-0.944],[103.6085,-0.9395],[103.6105,-0.9375],[103.627,-0.9135]]]},"properties":{"code":"15.07.03.2018","name":"Pangkal Duri Ilir","latitude":-0.909444602186488,"longitude":103.5915481155593}},{"type":"Feature","geometry":{"type":"Polygon","coordinates":[[[104.094,-1.172],[104.0825,-1.157],[104.048,-1.1855],[104.0405,-1.192],[104.053,-1.2085],[104.068,-1.2165],[104.079,-1.2225],[104.087,-1.217],[104.0895,-1.2075],[104.0885,-1.207],[104.0775,-1.194],[104.0815,-1.183],[104.094,-1.172]]]},"properties":{"code":"15.07.04.1006","name":"Bandar Jaya","latitude":-1.1903424286612607,"longitude":104.06941050654007}},{"type":"Feature","geometry":{"type":"Polygon","coordinates":[[[104.141,-1.157],[104.1305,-1.144],[104.1125,-1.1575],[104.114,-1.1595],[104.116,-1.161],[104.127,-1.174],[104.137,-1.188],[104.1485,-1.196],[104.1575,-1.196],[104.1585,-1.1955],[104.148,-1.18],[104.154,-1.1735],[104.141,-1.157]]]},"properties":{"code":"15.07.04.2004","name":"Rantau Rasau I","latitude":-1.1696592129114898,"longitude":104.1362470876038}},{"type":"Feature","geometry":{"type":"Polygon","coordinates":[[[104.117,-1.162],[104.116,-1.161],[104.114,-1.1595],[104.1125,-1.1575],[104.0965,-1.1705],[104.0815,-1.183],[104.0775,-1.194],[104.0885,-1.207],[104.089,-1.207],[104.091,-1.2055],[104.0935,-1.203],[104.0985,-1.2],[104.115,-1.186],[104.1205,-1.18],[104.1155,-1.1735],[104.1145,-1.1645],[104.117,-1.162]]]},"properties":{"code":"15.07.04.2005","name":"Rantau Rasau II","latitude":-1.1832004136409338,"longitude":104.09967667608656}},{"type":"Feature","geometry":{"type":"Polygon","coordinates":[[[104.048,-1.1365],[104.047,-1.136],[104.0415,-1.139],[104.037,-1.1505],[104.0355,-1.1525],[104.03,-1.146],[104.0275,-1.1445],[104.0175,-1.1405],[104.012,-1.149],[104.0165,-1.1525],[104.024,-1.1575],[104.0295,-1.177],[104.0405,-1.192],[104.048,-1.1855],[104.0825,-1.157],[104.075,-1.148],[104.063,-1.153],[104.048,-1.1365]]]},"properties":{"code":"15.07.04.2007","name":"Harapan Makmur","latitude":-1.1612390497185472,"longitude":104.04617095170052}},{"type":"Feature","geometry":{"type":"Polygon","coordinates":[[[104.097,-1.133],[104.075,-1.148],[104.094,-1.172],[104.115,-1.1555],[104.097,-1.133]]]},"properties":{"code":"15.07.04.2008","name":"Bangun Karya","latitude":-1.1514896661065919,"longitude":104.0949390104534}},{"type":"Feature","geometry":{"type":"Polygon","coordinates":[[[104.1485,-1.1405],[104.15,-1.1305],[104.127,-1.1205],[104.113,-1.1225],[104.1015,-1.131],[104.101,-1.13],[104.097,-1.133],[104.115,-1.1555],[104.1305,-1.144],[104.141,-1.157],[104.1485,-1.1405]]]},"properties":{"code":"15.07.04.2009","name":"Rantau Jaya","latitude":-1.1374360856591226,"longitude":104.12574552158213}},{"type":"Feature","geometry":{"type":"Polygon","coordinates":[[[104.093,-1.105],[104.0635,-1.122],[104.0615,-1.1235],[104.0615,-1.1225],[104.0585,-1.1025],[104.0405,-1.1315],[104.0475,-1.1315],[104.048,-1.1365],[104.063,-1.153],[104.075,-1.148],[104.097,-1.133],[104.101,-1.13],[104.095,-1.1225],[104.0885,-1.1155],[104.093,-1.105]]]},"properties":{"code":"15.07.04.2011","name":"Sungai Dusun","latitude":-1.1286784441464548,"longitude":104.0701040650266}},{"type":"Feature","geometry":{"type":"Polygon","coordinates":[[[104.1845,-1.137],[104.1805,-1.133],[104.1625,-1.1345],[104.1485,-1.1405],[104.141,-1.157],[104.154,-1.1735],[104.148,-1.18],[104.1585,-1.1955],[104.1625,-1.195],[104.1695,-1.1895],[104.177,-1.1745],[104.2065,-1.1525],[104.1845,-1.137]]]},"properties":{"code":"15.07.04.2013","name":"Karya Bakti","latitude":-1.1593972210172583,"longitude":104.16982498358487}},{"type":"Feature","geometry":{"type":"Polygon","coordinates":[[[104.0405,-1.192],[104.0295,-1.177],[104.024,-1.1575],[104.0165,-1.1525],[104.0145,-1.151],[104.0095,-1.158],[104.0095,-1.172],[104.0295,-1.1865],[104.0255,-1.1945],[104.0235,-1.196],[104.022,-1.202],[104.035,-1.1975],[104.038,-1.204],[104.0295,-1.2135],[104.0335,-1.2205],[104.044,-1.2165],[104.0575,-1.2275],[104.068,-1.2165],[104.053,-1.2085],[104.0405,-1.192]]]},"properties":{"code":"15.07.04.2014","name":"Marga Mulya","latitude":-1.1944608021978957,"longitude":104.03588456261691}},{"type":"Feature","geometry":{"type":"Polygon","coordinates":[[[104.137,-1.188],[104.127,-1.174],[104.117,-1.162],[104.1145,-1.1645],[104.1155,-1.1735],[104.1205,-1.18],[104.115,-1.186],[104.0985,-1.2],[104.0935,-1.203],[104.091,-1.2055],[104.089,-1.207],[104.0895,-1.2075],[104.087,-1.217],[104.104,-1.205],[104.116,-1.2205],[104.1255,-1.2215],[104.1385,-1.2085],[104.1255,-1.194],[104.137,-1.188]]]},"properties":{"code":"15.07.04.2015","name":"Pematang Mayan","latitude":-1.1987956716774812,"longitude":104.11609338588151}},{"type":"Feature","geometry":{"type":"Polygon","coordinates":[[[104.0175,-1.1405],[104.023,-1.1305],[104.001,-1.1325],[103.9695,-1.1545],[103.973,-1.1585],[104.025,-1.195],[104.0255,-1.1945],[104.0295,-1.1865],[104.0095,-1.172],[104.0095,-1.158],[104.0145,-1.151],[104.012,-1.149],[104.0175,-1.1405]]]},"properties":{"code":"15.07.04.2016","name":"Tri Mulyo","latitude":-1.1583026053802732,"longitude":104.00164509823202}},{"type":"Feature","geometry":{"type":"Polygon","coordinates":[[[104.3535,-1.089],[104.3475,-1.073],[104.3345,-1.052],[104.334,-1.0525],[104.3335,-1.053],[104.327,-1.0535],[104.325,-1.0555],[104.324,-1.0575],[104.3215,-1.062],[104.3075,-1.075],[104.306,-1.08],[104.3075,-1.0845],[104.3145,-1.1],[104.3165,-1.104],[104.318,-1.1055],[104.3185,-1.1075],[104.32,-1.1065],[104.323,-1.1075],[104.3265,-1.1095],[104.3285,-1.1105],[104.327,-1.1185],[104.3275,-1.12],[104.3265,-1.1205],[104.3365,-1.127],[104.3455,-1.123],[104.3405,-1.1105],[104.345,-1.098],[104.3535,-1.089]]]},"properties":{"code":"15.07.05.1005","name":"Sungai Lokan","latitude":-1.0874056907677014,"longitude":104.33062190994652}},{"type":"Feature","geometry":{"type":"Polygon","coordinates":[[[104.405,-1.1405],[104.3585,-1.1545],[104.3355,-1.152],[104.3215,-1.1805],[104.3085,-1.19],[104.269,-1.1775],[104.2485,-1.1895],[104.241,-1.2075],[104.264,-1.218],[104.2825,-1.221],[104.301,-1.2135],[104.328,-1.2165],[104.3675,-1.2145],[104.3825,-1.203],[104.384,-1.193],[104.387,-1.19],[104.3945,-1.1905],[104.408,-1.163],[104.405,-1.1405]]]},"properties":{"code":"15.07.05.2001","name":"Sungai Sayang","latitude":-1.1867954724545706,"longitude":104.33416299143556}},{"type":"Feature","geometry":{"type":"Polygon","coordinates":[[[104.411,-1.2605],[104.391,-1.27],[104.3675,-1.258],[104.3585,-1.272],[104.3365,-1.2745],[104.315,-1.2685],[104.2905,-1.2655],[104.2785,-1.257],[104.263,-1.2555],[104.2365,-1.2495],[104.2125,-1.26],[104.1855,-1.245],[104.1785,-1.2525],[104.165,-1.262],[104.148,-1.2875],[104.14,-1.2765],[104.1395,-1.277],[104.138,-1.277],[104.136,-1.278],[104.132,-1.278],[104.1265,-1.277],[104.098,-1.298],[104.1,-1.299],[104.102,-1.2995],[104.1045,-1.302],[104.1025,-1.314],[104.095,-1.325],[104.095,-1.3365],[104.0995,-1.3415],[104.1065,-1.3365],[104.1115,-1.336],[104.1375,-1.338],[104.189,-1.3205],[104.195,-1.3125],[104.212,-1.316],[104.2305,-1.31],[104.237,-1.2995],[104.25,-1.297],[104.263,-1.3085],[104.279,-1.3175],[104.2805,-1.3345],[104.2975,-1.3375],[104.3075,-1.3435],[104.323,-1.362],[104.321,-1.3765],[104.331,-1.3875],[104.355,-1.394],[104.3735,-1.395],[104.3815,-1.399],[104.3845,-1.382],[104.3965,-1.3735],[104.3975,-1.3665],[104.454,-1.365],[104.4555,-1.3325],[104.442,-1.3175],[104.44,-1.3055],[104.411,-1.2605]]]},"properties":{"code":"15.07.05.2002","name":"Air Hitam Laut","latitude":-1.3115438442123508,"longitude":104.29794402674156}},{"type":"Feature","geometry":{"type":"Polygon","coordinates":[[[104.405,-1.1405],[104.405,-1.1275],[104.3975,-1.0895],[104.3905,-1.069],[104.3535,-1.089],[104.345,-1.098],[104.3405,-1.1105],[104.3455,-1.123],[104.3365,-1.127],[104.3355,-1.152],[104.3585,-1.1545],[104.405,-1.1405]]]},"properties":{"code":"15.07.05.2003","name":"Sungai Jambat","latitude":-1.117481867380118,"longitude":104.37132360772924}},{"type":"Feature","geometry":{"type":"Polygon","coordinates":[[[104.3905,-1.069],[104.38,-1.0445],[104.3665,-1.0235],[104.3565,-1.019],[104.3485,-1.0345],[104.3285,-1.0425],[104.3335,-1.0485],[104.3345,-1.0515],[104.3345,-1.052],[104.3475,-1.073],[104.3535,-1.089],[104.3905,-1.069]]]},"properties":{"code":"15.07.05.2004","name":"Sungai Itik","latitude":-1.0558766972410527,"longitude":104.36073491614746}},{"type":"Feature","geometry":{"type":"MultiPolygon","coordinates":[[[[104.5005,-1.681],[104.4925,-1.6715],[104.4965,-1.6835],[104.498,-1.6835],[104.499,-1.6815],[104.5005,-1.681]]],[[[104.491,-1.668],[104.467,-1.6185],[104.4595,-1.596],[104.4355,-1.5945],[104.2955,-1.5995],[104.2965,-1.6035],[104.3165,-1.628],[104.3385,-1.6455],[104.347,-1.6465],[104.3625,-1.6465],[104.362,-1.646],[104.3615,-1.645],[104.3615,-1.6445],[104.3615,-1.643],[104.3665,-1.64],[104.37,-1.639],[104.391,-1.6375],[104.4055,-1.6295],[104.4195,-1.627],[104.4285,-1.628],[104.4295,-1.628],[104.4315,-1.64],[104.4385,-1.6415],[104.441,-1.6405],[104.4485,-1.6355],[104.451,-1.64],[104.4565,-1.646],[104.4605,-1.646],[104.472,-1.6525],[104.47,-1.661],[104.476,-1.662],[104.477,-1.6595],[104.4845,-1.664],[104.4855,-1.667],[104.486,-1.669],[104.489,-1.668],[104.491,-1.668]]]]},"properties":{"code":"15.07.05.2006","name":"Sungai Benuh","latitude":-1.6196268576247057,"longitude":104.39272616000727}},{"type":"Feature","geometry":{"type":"Polygon","coordinates":[[[104.454,-1.365],[104.3975,-1.3665],[104.3965,-1.3735],[104.3845,-1.382],[104.3815,-1.399],[104.3735,-1.395],[104.355,-1.394],[104.331,-1.3875],[104.321,-1.3765],[104.323,-1.362],[104.3075,-1.3435],[104.2975,-1.3375],[104.2805,-1.3345],[104.279,-1.3175],[104.263,-1.3085],[104.25,-1.297],[104.237,-1.2995],[104.2305,-1.31],[104.212,-1.316],[104.195,-1.3125],[104.189,-1.3205],[104.1375,-1.338],[104.1115,-1.336],[104.1065,-1.3365],[104.0995,-1.3415],[104.1025,-1.345],[104.164,-1.449],[104.173,-1.462],[104.179,-1.4685],[104.19,-1.46],[104.22,-1.4605],[104.235,-1.448],[104.2535,-1.4445],[104.2675,-1.4515],[104.2885,-1.447],[104.2985,-1.4555],[104.309,-1.453],[104.3115,-1.4355],[104.317,-1.4355],[104.3275,-1.453],[104.34,-1.4545],[104.3405,-1.4745],[104.441,-1.472],[104.454,-1.434],[104.457,-1.419],[104.4505,-1.3845],[104.454,-1.365]]]},"properties":{"code":"15.07.05.2007","name":"Sungai Cemara","latitude":-1.3966241507261525,"longitude":104.27803731003962}},{"type":"Feature","geometry":{"type":"Polygon","coordinates":[[[104.3945,-1.1905],[104.387,-1.19],[104.384,-1.193],[104.3825,-1.203],[104.3675,-1.2145],[104.328,-1.2165],[104.301,-1.2135],[104.2825,-1.221],[104.264,-1.218],[104.241,-1.2075],[104.2035,-1.2105],[104.189,-1.236],[104.187,-1.2435],[104.1855,-1.245],[104.2125,-1.26],[104.2365,-1.2495],[104.263,-1.2555],[104.2785,-1.257],[104.2905,-1.2655],[104.315,-1.2685],[104.3365,-1.2745],[104.3585,-1.272],[104.3675,-1.258],[104.391,-1.27],[104.411,-1.2605],[104.393,-1.2175],[104.3945,-1.1905]]]},"properties":{"code":"15.07.05.2008","name":"Remau Baku Tuo","latitude":-1.2382450666639238,"longitude":104.30529926202523}},{"type":"Feature","geometry":{"type":"Polygon","coordinates":[[[104.441,-1.472],[104.3405,-1.4745],[104.34,-1.4545],[104.3275,-1.453],[104.317,-1.4355],[104.3115,-1.4355],[104.309,-1.453],[104.2985,-1.4555],[104.2885,-1.447],[104.2675,-1.4515],[104.2535,-1.4445],[104.235,-1.448],[104.22,-1.4605],[104.19,-1.46],[104.179,-1.4685],[104.184,-1.474],[104.205,-1.504],[104.216,-1.515],[104.2355,-1.5435],[104.2505,-1.5555],[104.2735,-1.563],[104.2865,-1.5735],[104.2955,-1.5995],[104.4355,-1.5945],[104.4595,-1.596],[104.452,-1.566],[104.4495,-1.544],[104.442,-1.527],[104.4375,-1.5045],[104.441,-1.472]]]},"properties":{"code":"15.07.05.2009","name":"Labuhan Pering","latitude":-1.5221501324246822,"longitude":104.33029451314084}},{"type":"Feature","geometry":{"type":"Polygon","coordinates":[[[103.9545,-1.1815],[103.9475,-1.1855],[103.9225,-1.167],[103.906,-1.1795],[103.91,-1.1835],[103.9105,-1.183],[103.918,-1.1895],[103.9255,-1.185],[103.938,-1.202],[103.93,-1.2055],[103.9435,-1.236],[103.96,-1.229],[103.968,-1.2485],[103.9785,-1.2485],[103.9825,-1.2485],[103.9825,-1.24],[103.9935,-1.2255],[103.9645,-1.192],[103.9645,-1.1835],[103.9545,-1.183],[103.9545,-1.1815]]]},"properties":{"code":"15.07.06.1006","name":"Rantau Indah","latitude":-1.2093367238864283,"longitude":103.95436881521202}},{"type":"Feature","geometry":{"type":"Polygon","coordinates":[[[103.9695,-1.1545],[103.966,-1.155],[103.9455,-1.165],[103.9335,-1.167],[103.928,-1.152],[103.915,-1.143],[103.909,-1.1435],[103.899,-1.148],[103.89,-1.15],[103.882,-1.1575],[103.8825,-1.1615],[103.8835,-1.165],[103.8825,-1.1685],[103.872,-1.177],[103.87,-1.185],[103.871,-1.188],[103.875,-1.191],[103.877,-1.193],[103.88,-1.1985],[103.894,-1.192],[103.91,-1.1835],[103.906,-1.1795],[103.9225,-1.167],[103.9475,-1.1855],[103.9545,-1.1815],[103.954,-1.1795],[103.9625,-1.164],[103.9695,-1.1625],[103.973,-1.1585],[103.9695,-1.1545]]]},"properties":{"code":"15.07.06.2003","name":"Kuala Dendang","latitude":-1.1687597268090697,"longitude":103.91029974967468}},{"type":"Feature","geometry":{"type":"Polygon","coordinates":[[[104.022,-1.202],[103.995,-1.1965],[103.983,-1.1985],[103.9735,-1.184],[103.9645,-1.1835],[103.9645,-1.192],[103.9935,-1.2255],[103.9825,-1.24],[103.9825,-1.2485],[103.9935,-1.249],[104.0015,-1.2575],[104.019,-1.2545],[104.023,-1.259],[104.022,-1.202]]]},"properties":{"code":"15.07.06.2004","name":"Koto Kandis Dendang","latitude":-1.2226494927829914,"longitude":104.00063941909968}},{"type":"Feature","geometry":{"type":"Polygon","coordinates":[[[104.025,-1.195],[103.973,-1.1585],[103.9695,-1.1625],[103.9625,-1.164],[103.954,-1.1795],[103.9545,-1.183],[103.9645,-1.1835],[103.9735,-1.184],[103.983,-1.1985],[103.995,-1.1965],[104.022,-1.202],[104.0235,-1.196],[104.025,-1.195]]]},"properties":{"code":"15.07.06.2005","name":"Koto Kandis","latitude":-1.182079269901789,"longitude":103.9858353343001}},{"type":"Feature","geometry":{"type":"Polygon","coordinates":[[[103.93,-1.2055],[103.938,-1.202],[103.9255,-1.185],[103.918,-1.1895],[103.9105,-1.183],[103.894,-1.192],[103.88,-1.1985],[103.877,-1.193],[103.875,-1.191],[103.871,-1.188],[103.871,-1.1885],[103.8735,-1.193],[103.8725,-1.197],[103.867,-1.207],[103.8585,-1.212],[103.858,-1.222],[103.86,-1.234],[103.8605,-1.2415],[103.861,-1.243],[103.878,-1.2395],[103.885,-1.2295],[103.89,-1.232],[103.8925,-1.2325],[103.894,-1.232],[103.891,-1.224],[103.93,-1.2055]]]},"properties":{"code":"15.07.06.2007","name":"Sido Mukti","latitude":-1.2103073397645474,"longitude":103.89148158188254}},{"type":"Feature","geometry":{"type":"Polygon","coordinates":[[[103.894,-1.232],[103.8925,-1.2325],[103.89,-1.232],[103.885,-1.2295],[103.878,-1.2395],[103.861,-1.243],[103.861,-1.244],[103.86,-1.247],[103.8555,-1.2495],[103.853,-1.2565],[103.853,-1.259],[103.8525,-1.2595],[103.848,-1.261],[103.843,-1.2815],[103.846,-1.298],[103.842,-1.304],[103.8425,-1.328],[103.8425,-1.341],[103.8835,-1.336],[103.8965,-1.3355],[103.957,-1.328],[103.9545,-1.3135],[103.926,-1.2375],[103.9015,-1.2475],[103.8945,-1.2325],[103.894,-1.232]]]},"properties":{"code":"15.07.06.2008","name":"Catur Rahayu","latitude":-1.2910240719805939,"longitude":103.89390003061553}},{"type":"Feature","geometry":{"type":"Polygon","coordinates":[[[103.93,-1.2055],[103.891,-1.224],[103.8945,-1.2325],[103.9015,-1.2475],[103.926,-1.2375],[103.9545,-1.3135],[103.957,-1.328],[104.0125,-1.3215],[104.0305,-1.3195],[104.0225,-1.3075],[104.023,-1.259],[104.019,-1.2545],[104.0015,-1.2575],[103.9935,-1.249],[103.9825,-1.2485],[103.9785,-1.2485],[103.968,-1.2485],[103.96,-1.229],[103.9435,-1.236],[103.93,-1.2055]]]},"properties":{"code":"15.07.06.2009","name":"Jati Mulyo","latitude":-1.2726920364041245,"longitude":103.96881540426462}},{"type":"Feature","geometry":{"type":"Polygon","coordinates":[[[103.8425,-1.0925],[103.841,-1.0895],[103.8375,-1.0845],[103.8095,-1.0895],[103.7815,-1.112],[103.753,-1.1195],[103.7555,-1.13],[103.7635,-1.1285],[103.7665,-1.1305],[103.7705,-1.138],[103.7675,-1.1505],[103.77,-1.1575],[103.7965,-1.159],[103.81,-1.15],[103.8325,-1.1485],[103.843,-1.1575],[103.8405,-1.177],[103.841,-1.1885],[103.8555,-1.188],[103.866,-1.188],[103.8735,-1.193],[103.871,-1.1885],[103.87,-1.185],[103.872,-1.177],[103.8825,-1.1685],[103.8835,-1.165],[103.8825,-1.1615],[103.882,-1.157],[103.8785,-1.1565],[103.8765,-1.154],[103.874,-1.1455],[103.8585,-1.1465],[103.8565,-1.146],[103.856,-1.145],[103.852,-1.136],[103.849,-1.1305],[103.846,-1.1245],[103.8455,-1.1125],[103.8425,-1.0925]]]},"properties":{"code":"15.07.07.1001","name":"Kampung Singkep","latitude":-1.1351043809416184,"longitude":103.82120816082848}},{"type":"Feature","geometry":{"type":"Polygon","coordinates":[[[103.8405,-1.1995],[103.8405,-1.177],[103.843,-1.1575],[103.8325,-1.1485],[103.81,-1.15],[103.7965,-1.159],[103.796,-1.1795],[103.8015,-1.191],[103.8005,-1.195],[103.7945,-1.202],[103.7975,-1.211],[103.8305,-1.21],[103.831,-1.1995],[103.8405,-1.1995]]]},"properties":{"code":"15.07.07.1002","name":"Nibung Putih","latitude":-1.1781323618855377,"longitude":103.81940590854931}},{"type":"Feature","geometry":{"type":"Polygon","coordinates":[[[103.7965,-1.159],[103.77,-1.1575],[103.769,-1.1635],[103.7605,-1.181],[103.765,-1.194],[103.7535,-1.2065],[103.751,-1.212],[103.7545,-1.2195],[103.7665,-1.2245],[103.7665,-1.234],[103.7745,-1.2365],[103.776,-1.241],[103.7765,-1.24],[103.779,-1.237],[103.78,-1.236],[103.7855,-1.2295],[103.782,-1.2195],[103.792,-1.2165],[103.7945,-1.215],[103.7975,-1.211],[103.7945,-1.202],[103.8005,-1.195],[103.8015,-1.191],[103.796,-1.1795],[103.7965,-1.159]]]},"properties":{"code":"15.07.07.1003","name":"Rano","latitude":-1.1950893055994962,"longitude":103.77799384765031}},{"type":"Feature","geometry":{"type":"Polygon","coordinates":[[[103.859,-1.194],[103.8585,-1.188],[103.841,-1.1885],[103.8405,-1.1995],[103.831,-1.1995],[103.8305,-1.21],[103.7975,-1.211],[103.7945,-1.215],[103.792,-1.2165],[103.782,-1.2195],[103.7855,-1.2295],[103.78,-1.236],[103.779,-1.237],[103.7765,-1.24],[103.776,-1.241],[103.7765,-1.241],[103.7865,-1.2395],[103.787,-1.239],[103.789,-1.238],[103.7935,-1.2385],[103.8,-1.238],[103.813,-1.2265],[103.827,-1.225],[103.8325,-1.2315],[103.835,-1.225],[103.8405,-1.219],[103.8405,-1.205],[103.851,-1.205],[103.859,-1.194]]]},"properties":{"code":"15.07.07.1004","name":"Talang Babat","latitude":-1.2173613767695113,"longitude":103.81592061875547}},{"type":"Feature","geometry":{"type":"Polygon","coordinates":[[[103.8325,-1.2315],[103.827,-1.225],[103.813,-1.2265],[103.8,-1.238],[103.7935,-1.2385],[103.789,-1.238],[103.7875,-1.2385],[103.7885,-1.24],[103.7905,-1.252],[103.7915,-1.259],[103.802,-1.262],[103.8165,-1.2605],[103.834,-1.235],[103.8325,-1.2315]]]},"properties":{"code":"15.07.07.1005","name":"Parit Culum I","latitude":-1.244494021794183,"longitude":103.81083061575282}},{"type":"Feature","geometry":{"type":"Polygon","coordinates":[[[103.7665,-1.234],[103.749,-1.2335],[103.7475,-1.2355],[103.753,-1.2475],[103.749,-1.273],[103.7485,-1.274],[103.761,-1.276],[103.767,-1.2975],[103.7835,-1.298],[103.778,-1.27],[103.791,-1.2595],[103.7905,-1.252],[103.7885,-1.24],[103.7875,-1.2385],[103.7865,-1.2395],[103.7765,-1.241],[103.7745,-1.2365],[103.7665,-1.234]]]},"properties":{"code":"15.07.07.1006","name":"Parit Culum II","latitude":-1.2612854950878123,"longitude":103.76902567512617}},{"type":"Feature","geometry":{"type":"Polygon","coordinates":[[[103.8735,-1.193],[103.866,-1.188],[103.859,-1.194],[103.851,-1.205],[103.8405,-1.205],[103.8405,-1.219],[103.835,-1.225],[103.834,-1.235],[103.8165,-1.2605],[103.802,-1.262],[103.7915,-1.259],[103.791,-1.2595],[103.778,-1.27],[103.7835,-1.298],[103.767,-1.2975],[103.7665,-1.352],[103.7895,-1.3485],[103.837,-1.342],[103.8425,-1.341],[103.8425,-1.328],[103.842,-1.304],[103.846,-1.298],[103.843,-1.2815],[103.848,-1.261],[103.8525,-1.2595],[103.853,-1.259],[103.853,-1.2565],[103.8555,-1.2495],[103.86,-1.247],[103.861,-1.244],[103.8605,-1.2415],[103.86,-1.234],[103.858,-1.222],[103.8585,-1.212],[103.867,-1.207],[103.8725,-1.197],[103.8735,-1.193]]]},"properties":{"code":"15.07.07.1007","name":"Teluk Dawan","latitude":-1.2884032341014777,"longitude":103.81595316091544}},{"type":"Feature","geometry":{"type":"Polygon","coordinates":[[[103.819,-1.0385],[103.82,-1.031],[103.77,-1.0285],[103.7715,-1.0435],[103.7745,-1.0435],[103.819,-1.0385]]]},"properties":{"code":"15.07.08.1001","name":"Kampung Laut","latitude":-1.0353249308136805,"longitude":103.79214498481464}},{"type":"Feature","geometry":{"type":"Polygon","coordinates":[[[103.8355,-1.01],[103.835,-1.0105],[103.8305,-1.0155],[103.8115,-1.014],[103.8085,-1.0145],[103.7915,-1.0135],[103.791,-1.013],[103.781,-1.013],[103.7725,-1.0035],[103.77,-1.0285],[103.82,-1.031],[103.8215,-1.044],[103.847,-1.0495],[103.849,-1.0285],[103.843,-1.0085],[103.8355,-1.01]]]},"properties":{"code":"15.07.08.1002","name":"Tanjung Solok","latitude":-1.025667701957879,"longitude":103.81534995851676}},{"type":"Feature","geometry":{"type":"Polygon","coordinates":[[[103.8155,-1.049],[103.7875,-1.052],[103.7795,-1.052],[103.779,-1.068],[103.781,-1.078],[103.77,-1.1005],[103.759,-1.101],[103.754,-1.0995],[103.753,-1.1],[103.751,-1.1015],[103.7495,-1.1045],[103.7495,-1.107],[103.753,-1.1195],[103.7815,-1.112],[103.8095,-1.0895],[103.8375,-1.0845],[103.837,-1.083],[103.8165,-1.07],[103.811,-1.0635],[103.8155,-1.049]]]},"properties":{"code":"15.07.08.2003","name":"Teluk Majelis","latitude":-1.0829523186363805,"longitude":103.79310068895423}},{"type":"Feature","geometry":{"type":"Polygon","coordinates":[[[103.8115,-1.014],[103.8045,-0.9955],[103.795,-0.992],[103.7515,-0.987],[103.7485,-0.9895],[103.7475,-0.9945],[103.747,-1.0085],[103.728,-1.0305],[103.7385,-1.049],[103.738,-1.0515],[103.7385,-1.053],[103.74,-1.0555],[103.755,-1.0605],[103.7565,-1.061],[103.757,-1.0615],[103.764,-1.0545],[103.7625,-1.044],[103.7715,-1.0435],[103.77,-1.0285],[103.7725,-1.0035],[103.781,-1.013],[103.791,-1.013],[103.7915,-1.0135],[103.8085,-1.0145],[103.8115,-1.014]]]},"properties":{"code":"15.07.08.2004","name":"Kuala Lagan","latitude":-1.0187616989298807,"longitude":103.7639489667629}},{"type":"Feature","geometry":{"type":"Polygon","coordinates":[[[103.8175,-1.0445],[103.819,-1.0385],[103.7745,-1.0435],[103.7625,-1.044],[103.764,-1.0545],[103.767,-1.0535],[103.78,-1.052],[103.7875,-1.052],[103.8155,-1.049],[103.8175,-1.0445]]]},"properties":{"code":"15.07.08.2005","name":"Majelis Hidayah","latitude":-1.0463798209917679,"longitude":103.79091926538614}},{"type":"Feature","geometry":{"type":"Polygon","coordinates":[[[103.754,-1.0995],[103.759,-1.101],[103.77,-1.1005],[103.781,-1.078],[103.779,-1.068],[103.7795,-1.052],[103.767,-1.0535],[103.764,-1.0545],[103.757,-1.0615],[103.7565,-1.061],[103.755,-1.0605],[103.744,-1.0775],[103.745,-1.079],[103.7535,-1.0865],[103.756,-1.09],[103.755,-1.0995],[103.754,-1.0995]]]},"properties":{"code":"15.07.08.2006","name":"Manunggal Makmur","latitude":-1.0764053350909701,"longitude":103.76525903608703}},{"type":"Feature","geometry":{"type":"Polygon","coordinates":[[[103.5085,-1.23],[103.4845,-1.2325],[103.481,-1.2295],[103.45,-1.242],[103.447,-1.2505],[103.4215,-1.2745],[103.3935,-1.2885],[103.393,-1.2925],[103.405,-1.2955],[103.4165,-1.3065],[103.417,-1.3285],[103.4325,-1.3415],[103.4415,-1.3415],[103.4415,-1.33],[103.476,-1.331],[103.4815,-1.3195],[103.4895,-1.305],[103.496,-1.2885],[103.5155,-1.279],[103.543,-1.2775],[103.5255,-1.2565],[103.5085,-1.23]]]},"properties":{"code":"15.07.09.1001","name":"Simpang Tuan","latitude":-1.2820881972434421,"longitude":103.46536604357503}},{"type":"Feature","geometry":{"type":"Polygon","coordinates":[[[103.646,-1.1955],[103.5845,-1.1965],[103.576,-1.196],[103.5555,-1.2045],[103.541,-1.204],[103.535,-1.206],[103.5175,-1.2255],[103.5085,-1.23],[103.5255,-1.2565],[103.544,-1.278],[103.5545,-1.2775],[103.5745,-1.2725],[103.65,-1.252],[103.6505,-1.217],[103.646,-1.214],[103.646,-1.1955]]]},"properties":{"code":"15.07.09.2002","name":"Pematang Rahim","latitude":-1.2333984118867447,"longitude":103.58354288020443}},{"type":"Feature","geometry":{"type":"Polygon","coordinates":[[[103.481,-1.2295],[103.4695,-1.2235],[103.459,-1.2095],[103.4565,-1.1985],[103.457,-1.1945],[103.4495,-1.1945],[103.445,-1.196],[103.431,-1.2005],[103.4295,-1.201],[103.429,-1.2045],[103.4255,-1.2195],[103.3815,-1.222],[103.3815,-1.2365],[103.338,-1.237],[103.3305,-1.265],[103.331,-1.267],[103.337,-1.2785],[103.3895,-1.2795],[103.391,-1.288],[103.3935,-1.2885],[103.4215,-1.2745],[103.447,-1.2505],[103.45,-1.242],[103.481,-1.2295]]]},"properties":{"code":"15.07.09.2003","name":"Sungai Toman","latitude":-1.2453890612373202,"longitude":103.40281049869132}},{"type":"Feature","geometry":{"type":"Polygon","coordinates":[[[103.649,-1.276],[103.6495,-1.273],[103.65,-1.252],[103.5745,-1.2725],[103.5545,-1.2775],[103.544,-1.278],[103.543,-1.2775],[103.5155,-1.279],[103.496,-1.2885],[103.4895,-1.305],[103.4815,-1.3195],[103.476,-1.331],[103.507,-1.3325],[103.507,-1.3165],[103.559,-1.3155],[103.559,-1.329],[103.5835,-1.331],[103.5875,-1.3255],[103.581,-1.325],[103.5845,-1.3],[103.649,-1.276]]]},"properties":{"code":"15.07.09.2004","name":"Bukit Tempurung","latitude":-1.2941554429779831,"longitude":103.56062684568452}},{"type":"Feature","geometry":{"type":"Polygon","coordinates":[[[103.6465,-1.1445],[103.558,-1.143],[103.5255,-1.1415],[103.5155,-1.1495],[103.5045,-1.1485],[103.504,-1.152],[103.504,-1.159],[103.507,-1.172],[103.5265,-1.1865],[103.541,-1.204],[103.5555,-1.2045],[103.576,-1.196],[103.5845,-1.1965],[103.646,-1.1955],[103.6465,-1.1445]]]},"properties":{"code":"15.07.09.2005","name":"Sinar Wajo","latitude":-1.1699558575743545,"longitude":103.57819386681294}},{"type":"Feature","geometry":{"type":"Polygon","coordinates":[[[103.647,-1.102],[103.6365,-1.102],[103.6165,-1.101],[103.593,-1.115],[103.5795,-1.1065],[103.5745,-1.109],[103.543,-1.09],[103.542,-1.0915],[103.533,-1.102],[103.534,-1.1135],[103.533,-1.119],[103.5275,-1.1225],[103.5005,-1.1135],[103.4885,-1.1145],[103.4785,-1.1095],[103.471,-1.1255],[103.455,-1.118],[103.446,-1.127],[103.4455,-1.128],[103.445,-1.135],[103.4445,-1.1475],[103.445,-1.163],[103.449,-1.168],[103.4485,-1.1715],[103.4495,-1.1735],[103.448,-1.193],[103.448,-1.195],[103.4495,-1.1945],[103.457,-1.1945],[103.4575,-1.194],[103.4645,-1.177],[103.4975,-1.162],[103.501,-1.1525],[103.5045,-1.1485],[103.5155,-1.1495],[103.5255,-1.1415],[103.558,-1.143],[103.6465,-1.1445],[103.6465,-1.1365],[103.647,-1.102]]]},"properties":{"code":"15.07.09.2006","name":"Sungai Beras","latitude":-1.1325375560624502,"longitude":103.53863845083377}},{"type":"Feature","geometry":{"type":"Polygon","coordinates":[[[103.5045,-1.1485],[103.501,-1.1525],[103.4975,-1.162],[103.4645,-1.177],[103.4575,-1.194],[103.4565,-1.1985],[103.459,-1.2095],[103.4695,-1.2235],[103.481,-1.2295],[103.4845,-1.2325],[103.5085,-1.23],[103.5175,-1.2255],[103.535,-1.206],[103.541,-1.204],[103.5265,-1.1865],[103.507,-1.172],[103.504,-1.159],[103.504,-1.152],[103.5045,-1.1485]]]},"properties":{"code":"15.07.09.2007","name":"Mencolok","latitude":-1.1986363042395012,"longitude":103.49423673561}},{"type":"Feature","geometry":{"type":"MultiPolygon","coordinates":[[[[103.7535,-1.2065],[103.765,-1.194],[103.7595,-1.185],[103.7535,-1.1855],[103.737,-1.201],[103.746,-1.2055],[103.749,-1.2065],[103.753,-1.207],[103.7535,-1.2065]]],[[[103.716,-1.2205],[103.72,-1.2125],[103.741,-1.1645],[103.7245,-1.1595],[103.703,-1.215],[103.716,-1.2205]]],[[[103.707,-1.1115],[103.703,-1.1075],[103.6875,-1.1175],[103.691,-1.13],[103.699,-1.141],[103.7135,-1.1425],[103.7285,-1.122],[103.724,-1.1175],[103.707,-1.1115]]]]},"properties":{"code":"15.07.10.1010","name":"Pandan Jaya","latitude":-1.1637642743868801,"longitude":103.72080931499892}},{"type":"Feature","geometry":{"type":"Polygon","coordinates":[[[103.753,-1.1195],[103.7495,-1.107],[103.7495,-1.1045],[103.7505,-1.1025],[103.739,-1.112],[103.7285,-1.122],[103.7135,-1.1425],[103.699,-1.141],[103.691,-1.13],[103.6465,-1.1365],[103.669,-1.146],[103.6745,-1.1535],[103.703,-1.1535],[103.7065,-1.155],[103.7245,-1.1595],[103.741,-1.1645],[103.72,-1.2125],[103.736,-1.222],[103.733,-1.229],[103.7145,-1.24],[103.7115,-1.244],[103.7125,-1.246],[103.7155,-1.2515],[103.7155,-1.2525],[103.731,-1.263],[103.7435,-1.2785],[103.749,-1.273],[103.753,-1.2475],[103.7475,-1.2355],[103.749,-1.2335],[103.7665,-1.234],[103.7665,-1.2245],[103.7545,-1.2195],[103.751,-1.212],[103.753,-1.207],[103.749,-1.2065],[103.746,-1.2055],[103.737,-1.201],[103.7535,-1.1855],[103.7595,-1.185],[103.7605,-1.181],[103.769,-1.1635],[103.77,-1.1575],[103.7675,-1.1505],[103.7705,-1.138],[103.7665,-1.1305],[103.7635,-1.1285],[103.7555,-1.13],[103.753,-1.1195]]]},"properties":{"code":"15.07.10.2001","name":"Lagan Ulu","latitude":-1.1789442714576677,"longitude":103.73268124076787}},{"type":"Feature","geometry":{"type":"Polygon","coordinates":[[[103.755,-1.0605],[103.74,-1.0555],[103.7385,-1.0565],[103.737,-1.057],[103.7365,-1.0595],[103.731,-1.064],[103.722,-1.066],[103.702,-1.072],[103.686,-1.072],[103.6725,-1.078],[103.6695,-1.0805],[103.66,-1.0855],[103.657,-1.086],[103.653,-1.0885],[103.653,-1.089],[103.652,-1.0975],[103.6525,-1.0995],[103.652,-1.1015],[103.6515,-1.102],[103.647,-1.102],[103.6465,-1.1365],[103.691,-1.13],[103.6875,-1.1175],[103.703,-1.1075],[103.707,-1.1115],[103.724,-1.1175],[103.7285,-1.122],[103.739,-1.112],[103.7505,-1.1025],[103.751,-1.1015],[103.753,-1.1],[103.755,-1.0995],[103.756,-1.09],[103.7535,-1.0865],[103.745,-1.079],[103.744,-1.0775],[103.755,-1.0605]]]},"properties":{"code":"15.07.10.2002","name":"Lagan Tengah","latitude":-1.0965257978822192,"longitude":103.70023591800668}},{"type":"Feature","geometry":{"type":"Polygon","coordinates":[[[103.7245,-1.1595],[103.7065,-1.155],[103.703,-1.1535],[103.688,-1.178],[103.68,-1.202],[103.6765,-1.207],[103.703,-1.215],[103.7245,-1.1595]]]},"properties":{"code":"15.07.10.2004","name":"Pandan Makmur","latitude":-1.1846086034424148,"longitude":103.70093946479146}},{"type":"Feature","geometry":{"type":"Polygon","coordinates":[[[103.703,-1.215],[103.6765,-1.207],[103.6685,-1.215],[103.653,-1.2185],[103.6505,-1.217],[103.6495,-1.273],[103.649,-1.276],[103.6635,-1.2895],[103.7115,-1.244],[103.712,-1.2435],[103.7145,-1.24],[103.733,-1.229],[103.736,-1.222],[103.72,-1.2125],[103.716,-1.2205],[103.703,-1.215]]]},"properties":{"code":"15.07.10.2005","name":"Pandan Lagan","latitude":-1.2419086958328303,"longitude":103.68128226929916}},{"type":"Feature","geometry":{"type":"Polygon","coordinates":[[[103.7435,-1.2785],[103.731,-1.263],[103.7155,-1.2525],[103.7155,-1.2515],[103.7125,-1.246],[103.7115,-1.244],[103.6635,-1.2895],[103.649,-1.276],[103.5845,-1.3],[103.581,-1.325],[103.6075,-1.3255],[103.646,-1.3255],[103.704,-1.297],[103.7045,-1.306],[103.72,-1.3025],[103.7435,-1.2785]]]},"properties":{"code":"15.07.10.2006","name":"Suka Maju","latitude":-1.2936720417913672,"longitude":103.66400645423244}},{"type":"Feature","geometry":{"type":"Polygon","coordinates":[[[103.767,-1.2975],[103.761,-1.276],[103.7485,-1.274],[103.7435,-1.2785],[103.7195,-1.303],[103.7285,-1.3115],[103.737,-1.3105],[103.7435,-1.3525],[103.7445,-1.356],[103.7665,-1.352],[103.767,-1.2975]]]},"properties":{"code":"15.07.10.2007","name":"Kota Baru","latitude":-1.3129004019197266,"longitude":103.75018360352531}},{"type":"Feature","geometry":{"type":"Polygon","coordinates":[[[103.7195,-1.303],[103.7045,-1.306],[103.704,-1.297],[103.646,-1.3255],[103.6075,-1.3255],[103.5875,-1.3255],[103.5835,-1.331],[103.559,-1.329],[103.5585,-1.354],[103.581,-1.355],[103.5805,-1.39],[103.618,-1.392],[103.6335,-1.392],[103.6715,-1.3705],[103.6815,-1.369],[103.697,-1.3655],[103.716,-1.361],[103.7445,-1.356],[103.7435,-1.3525],[103.737,-1.3105],[103.7285,-1.3115],[103.7195,-1.303]]]},"properties":{"code":"15.07.10.2008","name":"Rantau Karya","latitude":-1.347060047082989,"longitude":103.65314516871743}},{"type":"Feature","geometry":{"type":"Polygon","coordinates":[[[103.703,-1.1535],[103.6745,-1.1535],[103.669,-1.146],[103.6465,-1.1365],[103.646,-1.214],[103.653,-1.2185],[103.6685,-1.215],[103.68,-1.202],[103.688,-1.178],[103.703,-1.1535]]]},"properties":{"code":"15.07.10.2009","name":"Pandan Sejahtera","latitude":-1.1776248867298236,"longitude":103.66606814590415}},{"type":"Feature","geometry":{"type":"Polygon","coordinates":[[[104.082,-1.22],[104.079,-1.2225],[104.068,-1.2165],[104.072,-1.2185],[104.0735,-1.2435],[104.0695,-1.2555],[104.0905,-1.264],[104.0885,-1.2665],[104.072,-1.2785],[104.06,-1.283],[104.0535,-1.2665],[104.045,-1.2555],[104.023,-1.259],[104.0225,-1.3075],[104.0305,-1.3195],[104.0555,-1.3185],[104.066,-1.3075],[104.076,-1.303],[104.0795,-1.294],[104.0845,-1.293],[104.087,-1.2935],[104.0885,-1.294],[104.0945,-1.2965],[104.098,-1.298],[104.1265,-1.277],[104.132,-1.278],[104.136,-1.278],[104.138,-1.277],[104.1395,-1.277],[104.14,-1.2765],[104.1245,-1.2555],[104.117,-1.261],[104.087,-1.2535],[104.083,-1.244],[104.083,-1.229],[104.0825,-1.2265],[104.082,-1.22]]]},"properties":{"code":"15.07.11.1001","name":"Simpang","latitude":-1.2798571139586283,"longitude":104.06910890073296}},{"type":"Feature","geometry":{"type":"Polygon","coordinates":[[[104.2505,-1.142],[104.2365,-1.1485],[104.2325,-1.1475],[104.226,-1.1325],[104.211,-1.13],[104.2035,-1.1335],[104.1845,-1.137],[104.2065,-1.1525],[104.177,-1.1745],[104.1695,-1.1895],[104.1625,-1.195],[104.1575,-1.196],[104.1485,-1.196],[104.137,-1.188],[104.1255,-1.194],[104.1385,-1.2085],[104.1435,-1.204],[104.1575,-1.2075],[104.189,-1.236],[104.2035,-1.2105],[104.241,-1.2075],[104.2485,-1.1895],[104.269,-1.1775],[104.3085,-1.19],[104.3215,-1.1805],[104.3355,-1.152],[104.316,-1.143],[104.2505,-1.142]]]},"properties":{"code":"15.07.11.2002","name":"Rantau Rasau","latitude":-1.1756093356774306,"longitude":104.233551119804}},{"type":"Feature","geometry":{"type":"Polygon","coordinates":[[[104.1255,-1.2215],[104.116,-1.2205],[104.104,-1.205],[104.087,-1.217],[104.082,-1.22],[104.0825,-1.2265],[104.083,-1.229],[104.083,-1.244],[104.087,-1.2535],[104.117,-1.261],[104.1365,-1.2465],[104.1235,-1.2305],[104.1255,-1.2215]]]},"properties":{"code":"15.07.11.2003","name":"Rantau Makmur","latitude":-1.2361026124007986,"longitude":104.10579134078382}},{"type":"Feature","geometry":{"type":"Polygon","coordinates":[[[104.189,-1.236],[104.1575,-1.2075],[104.1435,-1.204],[104.1385,-1.2085],[104.1595,-1.2155],[104.141,-1.2295],[104.151,-1.241],[104.1385,-1.274],[104.148,-1.2875],[104.165,-1.262],[104.1785,-1.2525],[104.187,-1.2435],[104.189,-1.236]]]},"properties":{"code":"15.07.11.2004","name":"Sungai Rambut","latitude":-1.2440267398121079,"longitude":104.16060618661955}},{"type":"Feature","geometry":{"type":"Polygon","coordinates":[[[104.068,-1.2165],[104.0575,-1.2275],[104.044,-1.2165],[104.0335,-1.2205],[104.0295,-1.2135],[104.038,-1.204],[104.035,-1.1975],[104.022,-1.202],[104.023,-1.259],[104.045,-1.2555],[104.0535,-1.2665],[104.06,-1.283],[104.072,-1.2785],[104.0885,-1.2665],[104.0905,-1.264],[104.0695,-1.2555],[104.0735,-1.2435],[104.072,-1.2185],[104.068,-1.2165]]]},"properties":{"code":"15.07.11.2005","name":"Rawasari","latitude":-1.243168376781408,"longitude":104.05095833186624}},{"type":"Feature","geometry":{"type":"Polygon","coordinates":[[[104.1385,-1.274],[104.151,-1.241],[104.141,-1.2295],[104.1595,-1.2155],[104.1385,-1.2085],[104.1255,-1.2215],[104.1235,-1.2305],[104.1365,-1.2465],[104.1245,-1.2555],[104.1385,-1.274]]]},"properties":{"code":"15.07.11.2006","name":"Telaga Limo","latitude":-1.2365013252598367,"longitude":104.13932913490842}}]}