{"type":"FeatureCollection","features":[{"type":"Feature","geometry":{"type":"Polygon","coordinates":[[[103.8685,-3.278],[103.8515,-3.271],[103.8195,-3.269],[103.818,-3.269],[103.823,-3.2765],[103.8385,-3.279],[103.8405,-3.286],[103.8525,-3.282],[103.8685,-3.278]]]},"properties":{"code":"16.12.01.1003","name":"Talang Ubi Timur","latitude":-3.276104584102927,"longitude":103.84235198387186}},{"type":"Feature","geometry":{"type":"Polygon","coordinates":[[[103.792,-3.24],[103.7835,-3.239],[103.7755,-3.2465],[103.7705,-3.25],[103.765,-3.252],[103.763,-3.2525],[103.762,-3.2535],[103.7575,-3.263],[103.7565,-3.264],[103.7555,-3.2675],[103.7545,-3.2695],[103.754,-3.27],[103.7555,-3.2725],[103.76,-3.2685],[103.7635,-3.2655],[103.7605,-3.28],[103.762,-3.2825],[103.789,-3.279],[103.8195,-3.269],[103.8035,-3.259],[103.792,-3.24]]]},"properties":{"code":"16.12.01.1010","name":"Talang Ubi Barat","latitude":-3.26271206789194,"longitude":103.78567818617664}},{"type":"Feature","geometry":{"type":"Polygon","coordinates":[[[103.8445,-3.2135],[103.8435,-3.2095],[103.843,-3.2095],[103.8415,-3.21],[103.8405,-3.2115],[103.8365,-3.212],[103.833,-3.216],[103.8295,-3.22],[103.806,-3.224],[103.7965,-3.231],[103.7955,-3.2405],[103.792,-3.24],[103.8035,-3.259],[103.8195,-3.269],[103.8515,-3.271],[103.8685,-3.278],[103.8845,-3.2755],[103.888,-3.277],[103.8875,-3.275],[103.8855,-3.272],[103.885,-3.269],[103.8845,-3.266],[103.8845,-3.263],[103.8855,-3.2505],[103.8815,-3.24],[103.879,-3.2385],[103.866,-3.2215],[103.8615,-3.217],[103.861,-3.216],[103.849,-3.214],[103.848,-3.2135],[103.8475,-3.214],[103.8445,-3.2135]]]},"properties":{"code":"16.12.01.1011","name":"Talang Ubi Utara","latitude":-3.245302765593472,"longitude":103.8428053407343}},{"type":"Feature","geometry":{"type":"Polygon","coordinates":[[[103.8405,-3.286],[103.8385,-3.279],[103.823,-3.2765],[103.821,-3.302],[103.826,-3.319],[103.8315,-3.315],[103.8495,-3.3175],[103.857,-3.333],[103.8745,-3.331],[103.8885,-3.341],[103.889,-3.3375],[103.8905,-3.327],[103.8615,-3.304],[103.8355,-3.291],[103.8405,-3.286]]]},"properties":{"code":"16.12.01.1012","name":"Talang Ubi Selatan","latitude":-3.309823878908863,"longitude":103.85001964154479}},{"type":"Feature","geometry":{"type":"Polygon","coordinates":[[[103.823,-3.2765],[103.818,-3.269],[103.789,-3.279],[103.762,-3.2825],[103.7645,-3.287],[103.773,-3.2885],[103.7795,-3.2905],[103.7855,-3.2915],[103.793,-3.2965],[103.801,-3.3095],[103.8015,-3.3095],[103.816,-3.3245],[103.826,-3.319],[103.821,-3.302],[103.823,-3.2765]]]},"properties":{"code":"16.12.01.1017","name":"Pasar Bhayangkara","latitude":-3.293322182172874,"longitude":103.80439221400918}},{"type":"Feature","geometry":{"type":"Polygon","coordinates":[[[103.888,-3.277],[103.8845,-3.2755],[103.8525,-3.282],[103.8355,-3.291],[103.8615,-3.304],[103.8905,-3.327],[103.8905,-3.3265],[103.9055,-3.3275],[103.916,-3.32],[103.9235,-3.3195],[103.907,-3.2865],[103.8985,-3.2865],[103.892,-3.2825],[103.8905,-3.2815],[103.8895,-3.2805],[103.888,-3.277]]]},"properties":{"code":"16.12.01.1018","name":"Handayani Mulya","latitude":-3.300386860276744,"longitude":103.88419868111207}},{"type":"Feature","geometry":{"type":"Polygon","coordinates":[[[103.944,-3.352],[103.9185,-3.349],[103.9135,-3.367],[103.909,-3.3685],[103.9115,-3.3765],[103.9175,-3.399],[103.9245,-3.403],[103.9485,-3.4125],[103.9585,-3.412],[103.966,-3.4125],[103.9815,-3.4135],[103.983,-3.4135],[103.98,-3.392],[103.971,-3.385],[103.945,-3.357],[103.944,-3.352]]]},"properties":{"code":"16.12.01.2001","name":"Talang Bulang","latitude":-3.3847510365200666,"longitude":103.94328305946567}},{"type":"Feature","geometry":{"type":"Polygon","coordinates":[[[103.937,-3.3295],[103.9235,-3.3195],[103.916,-3.32],[103.9365,-3.349],[103.944,-3.352],[103.961,-3.368],[103.9885,-3.364],[103.993,-3.389],[103.98,-3.392],[103.983,-3.4135],[103.985,-3.4135],[103.9925,-3.4135],[104.004,-3.41],[104.0105,-3.41],[104.0165,-3.408],[104.0245,-3.406],[104.027,-3.3665],[104.027,-3.366],[104.0265,-3.3655],[104.0235,-3.3645],[104.023,-3.364],[104.0135,-3.366],[103.994,-3.3565],[103.9835,-3.346],[103.9775,-3.3345],[103.9555,-3.332],[103.949,-3.3345],[103.937,-3.3295]]]},"properties":{"code":"16.12.01.2002","name":"Benuang","latitude":-3.367847528938369,"longitude":103.98370676389311}},{"type":"Feature","geometry":{"type":"Polygon","coordinates":[[[103.8195,-3.161],[103.8125,-3.155],[103.8115,-3.1435],[103.795,-3.143],[103.795,-3.1435],[103.797,-3.1505],[103.786,-3.162],[103.7845,-3.1745],[103.783,-3.1755],[103.7805,-3.18],[103.7885,-3.1955],[103.797,-3.2235],[103.7965,-3.231],[103.806,-3.224],[103.8295,-3.22],[103.833,-3.216],[103.84,-3.2115],[103.824,-3.1935],[103.813,-3.188],[103.8195,-3.161]]]},"properties":{"code":"16.12.01.2004","name":"Talang Akar","latitude":-3.187826046645116,"longitude":103.805999164384}},{"type":"Feature","geometry":{"type":"Polygon","coordinates":[[[103.9355,-3.187],[103.934,-3.1875],[103.9325,-3.188],[103.929,-3.1885],[103.928,-3.1895],[103.9145,-3.204],[103.9135,-3.204],[103.913,-3.202],[103.9115,-3.2015],[103.911,-3.203],[103.91,-3.202],[103.9,-3.203],[103.8895,-3.2325],[103.8835,-3.237],[103.883,-3.2375],[103.8815,-3.24],[103.8855,-3.2505],[103.8845,-3.263],[103.8845,-3.266],[103.885,-3.269],[103.8855,-3.272],[103.8875,-3.275],[103.8895,-3.2805],[103.8905,-3.2815],[103.892,-3.2825],[103.8985,-3.2865],[103.907,-3.2865],[103.911,-3.2945],[103.926,-3.2695],[103.925,-3.263],[103.947,-3.2285],[103.95,-3.2095],[103.951,-3.2065],[103.958,-3.194],[103.96,-3.1925],[103.939,-3.191],[103.9375,-3.19],[103.9355,-3.187]]]},"properties":{"code":"16.12.01.2005","name":"Sungai Ibul","latitude":-3.236648260479146,"longitude":103.91588133717099}},{"type":"Feature","geometry":{"type":"Polygon","coordinates":[[[104.015,-3.3405],[104.0015,-3.321],[103.989,-3.3115],[103.98,-3.2925],[103.9745,-3.2875],[103.9615,-3.2925],[103.9515,-3.2895],[103.951,-3.2915],[103.9505,-3.292],[103.946,-3.295],[103.911,-3.2945],[103.9235,-3.3195],[103.937,-3.3295],[103.949,-3.3345],[103.9555,-3.332],[103.9775,-3.3345],[103.9835,-3.346],[103.994,-3.3565],[104.0135,-3.366],[104.023,-3.364],[104.0235,-3.3645],[104.0265,-3.3655],[104.027,-3.366],[104.027,-3.3665],[104.028,-3.353],[104.02,-3.35],[104.015,-3.3405]]]},"properties":{"code":"16.12.01.2006","name":"Karta Dewa","latitude":-3.322075928137541,"longitude":103.9705532391468}},{"type":"Feature","geometry":{"type":"Polygon","coordinates":[[[104.0555,-3.249],[104.053,-3.2465],[104.034,-3.2485],[104.024,-3.2605],[104.0165,-3.2615],[103.9935,-3.28],[104.0365,-3.3005],[104.043,-3.3135],[104.0565,-3.296],[104.0575,-3.294],[104.0655,-3.2915],[104.067,-3.2915],[104.0655,-3.289],[104.0645,-3.288],[104.065,-3.2875],[104.067,-3.2855],[104.063,-3.266],[104.0615,-3.2505],[104.0555,-3.249]]]},"properties":{"code":"16.12.01.2007","name":"Panta Dewa","latitude":-3.276321217827433,"longitude":104.03747077340113}},{"type":"Feature","geometry":{"type":"MultiPolygon","coordinates":[[[[103.77,-3.2945],[103.78,-3.313],[103.787,-3.318],[103.7985,-3.31],[103.801,-3.3095],[103.793,-3.2965],[103.7855,-3.2915],[103.7795,-3.2905],[103.773,-3.2885],[103.7645,-3.287],[103.77,-3.2945]]],[[[103.7185,-3.241],[103.717,-3.2365],[103.7115,-3.238],[103.708,-3.238],[103.6955,-3.2445],[103.692,-3.2465],[103.691,-3.2695],[103.6955,-3.2995],[103.7075,-3.294],[103.721,-3.3035],[103.7235,-3.3185],[103.7165,-3.331],[103.7245,-3.3415],[103.727,-3.3495],[103.728,-3.3515],[103.7325,-3.353],[103.738,-3.346],[103.735,-3.332],[103.7385,-3.316],[103.7365,-3.3],[103.744,-3.2855],[103.7605,-3.28],[103.7635,-3.2655],[103.76,-3.2685],[103.7555,-3.2725],[103.754,-3.27],[103.7545,-3.2695],[103.7555,-3.2675],[103.7565,-3.264],[103.7575,-3.263],[103.762,-3.2535],[103.757,-3.254],[103.749,-3.255],[103.7425,-3.2595],[103.738,-3.261],[103.722,-3.2555],[103.7225,-3.2495],[103.722,-3.248],[103.7185,-3.241]]]]},"properties":{"code":"16.12.01.2008","name":"Sungai Baung","latitude":-3.2847756947461857,"longitude":103.73169905233975}},{"type":"Feature","geometry":{"type":"Polygon","coordinates":[[[103.6345,-3.263],[103.648,-3.25],[103.647,-3.2495],[103.646,-3.2505],[103.6325,-3.2545],[103.6215,-3.275],[103.605,-3.2875],[103.611,-3.3075],[103.61,-3.316],[103.618,-3.3245],[103.6155,-3.3375],[103.618,-3.3505],[103.6265,-3.3595],[103.634,-3.352],[103.6515,-3.3365],[103.6665,-3.3245],[103.679,-3.312],[103.6725,-3.301],[103.6435,-3.29],[103.635,-3.272],[103.6345,-3.263]]]},"properties":{"code":"16.12.01.2009","name":"Semangus","latitude":-3.3101083658841377,"longitude":103.6364406581089}},{"type":"Feature","geometry":{"type":"Polygon","coordinates":[[[104.043,-3.3135],[104.0365,-3.3005],[103.9935,-3.28],[103.9745,-3.2875],[103.98,-3.2925],[103.989,-3.3115],[104.0015,-3.321],[104.015,-3.3405],[104.026,-3.3245],[104.043,-3.3135]]]},"properties":{"code":"16.12.01.2013","name":"Sinar Dewa","latitude":-3.3061416321441013,"longitude":104.00932843617367}},{"type":"Feature","geometry":{"type":"Polygon","coordinates":[[[103.6955,-3.2995],[103.691,-3.2695],[103.692,-3.2465],[103.6895,-3.247],[103.6845,-3.2495],[103.6825,-3.2525],[103.6745,-3.2615],[103.655,-3.266],[103.6345,-3.263],[103.635,-3.272],[103.6435,-3.29],[103.6725,-3.301],[103.679,-3.312],[103.687,-3.3045],[103.6905,-3.3015],[103.6955,-3.2995]]]},"properties":{"code":"16.12.01.2014","name":"Benakat Minyak","latitude":-3.2796490516348253,"longitude":103.6699904742767}},{"type":"Feature","geometry":{"type":"Polygon","coordinates":[[[103.869,-3.199],[103.8645,-3.1985],[103.8615,-3.212],[103.861,-3.215],[103.8615,-3.217],[103.866,-3.2215],[103.879,-3.2385],[103.8815,-3.24],[103.883,-3.2375],[103.8835,-3.237],[103.8895,-3.2325],[103.9,-3.203],[103.893,-3.2025],[103.869,-3.199]]]},"properties":{"code":"16.12.01.2015","name":"Suka Maju","latitude":-3.214230067346234,"longitude":103.87855454952877}},{"type":"Feature","geometry":{"type":"Polygon","coordinates":[[[103.849,-3.1445],[103.846,-3.146],[103.836,-3.144],[103.8195,-3.161],[103.813,-3.188],[103.824,-3.1935],[103.84,-3.2115],[103.8405,-3.2115],[103.841,-3.2105],[103.8415,-3.21],[103.8435,-3.2095],[103.8445,-3.2135],[103.8475,-3.214],[103.848,-3.2135],[103.849,-3.214],[103.861,-3.216],[103.861,-3.215],[103.8615,-3.212],[103.8535,-3.197],[103.856,-3.1865],[103.857,-3.1845],[103.8575,-3.183],[103.8615,-3.1825],[103.8625,-3.1815],[103.8695,-3.1715],[103.868,-3.1705],[103.8665,-3.1715],[103.865,-3.1695],[103.853,-3.163],[103.856,-3.156],[103.849,-3.1445]]]},"properties":{"code":"16.12.01.2016","name":"Suka Damai","latitude":-3.178663740743055,"longitude":103.84017315703643}},{"type":"Feature","geometry":{"type":"Polygon","coordinates":[[[103.98,-3.392],[103.993,-3.389],[103.9885,-3.364],[103.961,-3.368],[103.944,-3.352],[103.945,-3.357],[103.971,-3.385],[103.98,-3.392]]]},"properties":{"code":"16.12.01.2019","name":"Beruge Darat","latitude":-3.3756412226446124,"longitude":103.97558600591285}},{"type":"Feature","geometry":{"type":"Polygon","coordinates":[[[103.944,-3.352],[103.9365,-3.349],[103.916,-3.32],[103.9055,-3.3275],[103.8905,-3.3265],[103.889,-3.3375],[103.8885,-3.341],[103.892,-3.344],[103.9035,-3.3555],[103.9075,-3.3595],[103.909,-3.3685],[103.9135,-3.367],[103.9185,-3.349],[103.944,-3.352]]]},"properties":{"code":"16.12.01.2020","name":"Simpang Tais","latitude":-3.3415181375485763,"longitude":103.9110579544133}},{"type":"Feature","geometry":{"type":"Polygon","coordinates":[[[103.943,-3.1755],[103.934,-3.17],[103.919,-3.1555],[103.8885,-3.1595],[103.883,-3.162],[103.902,-3.182],[103.9085,-3.202],[103.91,-3.202],[103.911,-3.203],[103.9115,-3.2015],[103.913,-3.202],[103.9135,-3.204],[103.9145,-3.204],[103.928,-3.1895],[103.929,-3.1885],[103.9325,-3.188],[103.9345,-3.1875],[103.936,-3.1865],[103.937,-3.1835],[103.9425,-3.1785],[103.943,-3.1775],[103.943,-3.176],[103.943,-3.1755]]]},"properties":{"code":"16.12.02.2001","name":"Sukarami","latitude":-3.175522910960682,"longitude":103.91413082417681}},{"type":"Feature","geometry":{"type":"Polygon","coordinates":[[[103.947,-3.1415],[103.938,-3.1385],[103.918,-3.145],[103.919,-3.1555],[103.934,-3.17],[103.944,-3.176],[103.9455,-3.1735],[103.947,-3.1725],[103.948,-3.1735],[103.947,-3.1425],[103.947,-3.1415]]]},"properties":{"code":"16.12.02.2002","name":"Tanjung Baru","latitude":-3.1555924575818683,"longitude":103.93477720270815}},{"type":"Feature","geometry":{"type":"Polygon","coordinates":[[[103.957,-3.108],[103.9565,-3.1075],[103.956,-3.107],[103.951,-3.1085],[103.94,-3.113],[103.9385,-3.113],[103.932,-3.115],[103.9315,-3.1155],[103.931,-3.116],[103.9315,-3.118],[103.9305,-3.119],[103.9295,-3.1195],[103.9275,-3.1205],[103.924,-3.127],[103.917,-3.134],[103.918,-3.145],[103.938,-3.1385],[103.947,-3.1415],[103.949,-3.139],[103.96,-3.1335],[103.961,-3.1325],[103.9615,-3.1325],[103.9615,-3.132],[103.9615,-3.1175],[103.957,-3.108]]]},"properties":{"code":"16.12.02.2003","name":"Prabu Menang","latitude":-3.126815053317779,"longitude":103.94150461673458}},{"type":"Feature","geometry":{"type":"Polygon","coordinates":[[[103.915,-3.023],[103.9125,-3.022],[103.912,-3.0225],[103.911,-3.027],[103.911,-3.028],[103.9105,-3.0285],[103.9095,-3.03],[103.91,-3.031],[103.909,-3.0305],[103.91,-3.0315],[103.9095,-3.032],[103.9075,-3.037],[103.9075,-3.0375],[103.908,-3.038],[103.907,-3.0385],[103.895,-3.052],[103.8955,-3.066],[103.889,-3.076],[103.8755,-3.078],[103.8725,-3.0785],[103.8665,-3.081],[103.8785,-3.1065],[103.8935,-3.1295],[103.8975,-3.128],[103.9115,-3.097],[103.9345,-3.041],[103.928,-3.04],[103.915,-3.023]]]},"properties":{"code":"16.12.02.2004","name":"Tanding Marga","latitude":-3.0769745453783077,"longitude":103.90207072398067}},{"type":"Feature","geometry":{"type":"Polygon","coordinates":[[[103.9605,-3.0075],[103.957,-3.006],[103.9505,-3.004],[103.94,-3.014],[103.924,-3.0235],[103.917,-3.023],[103.928,-3.04],[103.9345,-3.041],[103.9115,-3.097],[103.8975,-3.128],[103.9155,-3.1235],[103.917,-3.134],[103.924,-3.127],[103.93,-3.1075],[103.929,-3.095],[103.9435,-3.0645],[103.9605,-3.0335],[103.9605,-3.0075]]]},"properties":{"code":"16.12.02.2005","name":"Karang Tanding","latitude":-3.063050638571524,"longitude":103.93316470601064}},{"type":"Feature","geometry":{"type":"Polygon","coordinates":[[[103.951,-3.1085],[103.956,-3.075],[103.9695,-3.0505],[103.9695,-3.0335],[103.9605,-3.0075],[103.9605,-3.0335],[103.9435,-3.0645],[103.929,-3.095],[103.93,-3.1075],[103.924,-3.127],[103.9275,-3.1205],[103.9295,-3.1195],[103.9305,-3.119],[103.9315,-3.118],[103.931,-3.116],[103.9315,-3.1155],[103.932,-3.115],[103.9385,-3.113],[103.94,-3.113],[103.951,-3.1085]]]},"properties":{"code":"16.12.02.2006","name":"Lubuk Tampui","latitude":-3.074387190166318,"longitude":103.94950314680298}},{"type":"Feature","geometry":{"type":"Polygon","coordinates":[[[104.02,-3.03],[104.0195,-3.03],[104.0105,-3.025],[103.9695,-3.01],[103.9605,-3.0075],[103.9695,-3.0335],[103.9695,-3.0505],[103.956,-3.075],[103.951,-3.1085],[103.956,-3.107],[103.9565,-3.1075],[103.957,-3.108],[103.9605,-3.1085],[103.964,-3.1095],[103.9905,-3.104],[104.016,-3.0915],[104.02,-3.0905],[104.023,-3.0765],[104.0165,-3.068],[104.0125,-3.0625],[104.0215,-3.0555],[104.015,-3.0405],[104.02,-3.03]]]},"properties":{"code":"16.12.02.2007","name":"Tempirai","latitude":-3.063150416897484,"longitude":103.98733971170763}},{"type":"Feature","geometry":{"type":"Polygon","coordinates":[[[104.035,-3.096],[104.0235,-3.09],[104.021,-3.0905],[104.016,-3.0915],[103.9905,-3.104],[103.964,-3.1095],[103.9605,-3.1085],[103.957,-3.108],[103.9615,-3.1175],[103.9615,-3.132],[103.9815,-3.143],[103.9815,-3.142],[103.983,-3.1415],[103.9835,-3.1405],[103.9865,-3.1385],[103.988,-3.1375],[103.9885,-3.1375],[103.9905,-3.1355],[103.9905,-3.1335],[103.992,-3.134],[103.997,-3.1285],[103.998,-3.1275],[103.9985,-3.126],[104.007,-3.1245],[104.0085,-3.124],[104.009,-3.124],[104.011,-3.1225],[104.0145,-3.123],[104.014,-3.122],[104.015,-3.122],[104.0195,-3.1235],[104.02,-3.148],[104.0245,-3.1485],[104.024,-3.148],[104.0235,-3.146],[104.028,-3.1295],[104.028,-3.1275],[104.023,-3.118],[104.035,-3.1075],[104.0365,-3.098],[104.0355,-3.097],[104.035,-3.096]]]},"properties":{"code":"16.12.02.2008","name":"Tempirai Selatan","latitude":-3.115706253265081,"longitude":103.99853731252288}},{"type":"Feature","geometry":{"type":"Polygon","coordinates":[[[103.8665,-3.081],[103.866,-3.081],[103.8595,-3.0825],[103.857,-3.0825],[103.8545,-3.08],[103.8535,-3.081],[103.837,-3.094],[103.8365,-3.098],[103.836,-3.0985],[103.8345,-3.1045],[103.8335,-3.105],[103.833,-3.1045],[103.8265,-3.1],[103.8145,-3.11],[103.812,-3.1225],[103.809,-3.1225],[103.798,-3.1285],[103.797,-3.1285],[103.7915,-3.1345],[103.791,-3.136],[103.7925,-3.141],[103.795,-3.143],[103.8115,-3.1435],[103.8125,-3.155],[103.8195,-3.161],[103.836,-3.144],[103.846,-3.146],[103.849,-3.1445],[103.856,-3.156],[103.853,-3.163],[103.865,-3.1695],[103.8665,-3.1715],[103.868,-3.1705],[103.87,-3.1715],[103.872,-3.1725],[103.8725,-3.1715],[103.8725,-3.1705],[103.8735,-3.1695],[103.873,-3.169],[103.874,-3.169],[103.8805,-3.164],[103.88,-3.1625],[103.876,-3.158],[103.8755,-3.157],[103.8715,-3.1445],[103.8935,-3.1295],[103.8785,-3.1065],[103.8665,-3.081]]]},"properties":{"code":"16.12.02.2009","name":"Kota Baru","latitude":-3.125711546703731,"longitude":103.84743251756312}},{"type":"Feature","geometry":{"type":"Polygon","coordinates":[[[104.022,-3.09],[104.0425,-3.068],[104.043,-3.0455],[104.039,-3.0175],[104.037,-3.0195],[104.0235,-3.03],[104.02,-3.03],[104.015,-3.0405],[104.0215,-3.0555],[104.0125,-3.0625],[104.0165,-3.068],[104.023,-3.0765],[104.02,-3.0905],[104.021,-3.0905],[104.022,-3.09]]]},"properties":{"code":"16.12.02.2010","name":"Tempirai Utara","latitude":-3.05285007784976,"longitude":104.02948680023151}},{"type":"Feature","geometry":{"type":"Polygon","coordinates":[[[104.035,-3.096],[104.036,-3.095],[104.0375,-3.093],[104.0375,-3.092],[104.039,-3.0905],[104.0605,-3.079],[104.0645,-3.064],[104.0625,-3.05],[104.0725,-3.044],[104.072,-3.036],[104.0595,-3.024],[104.055,-3.0165],[104.0555,-3.013],[104.055,-3.0105],[104.056,-3.0095],[104.0555,-3.0075],[104.049,-3.01],[104.0415,-3.0145],[104.039,-3.0175],[104.043,-3.0455],[104.0425,-3.068],[104.022,-3.09],[104.0235,-3.09],[104.035,-3.096]]]},"properties":{"code":"16.12.02.2011","name":"Tempirai Timur","latitude":-3.051724316915711,"longitude":104.05043405388246}},{"type":"Feature","geometry":{"type":"Polygon","coordinates":[[[103.883,-3.162],[103.883,-3.1635],[103.883,-3.164],[103.882,-3.164],[103.8805,-3.164],[103.874,-3.169],[103.873,-3.169],[103.8735,-3.1695],[103.8725,-3.1705],[103.8725,-3.1715],[103.872,-3.1725],[103.87,-3.1715],[103.8695,-3.1715],[103.8625,-3.1815],[103.8615,-3.1825],[103.8575,-3.183],[103.857,-3.1845],[103.856,-3.1865],[103.8535,-3.197],[103.8645,-3.1985],[103.869,-3.199],[103.893,-3.2025],[103.8995,-3.203],[103.9085,-3.202],[103.902,-3.182],[103.883,-3.162]]]},"properties":{"code":"16.12.02.2012","name":"Tambak","latitude":-3.18640292365838,"longitude":103.8816676945952}},{"type":"Feature","geometry":{"type":"Polygon","coordinates":[[[103.8935,-3.1295],[103.8715,-3.1445],[103.8755,-3.157],[103.876,-3.158],[103.88,-3.1625],[103.882,-3.164],[103.883,-3.164],[103.883,-3.1635],[103.8825,-3.162],[103.8885,-3.1595],[103.919,-3.1555],[103.918,-3.145],[103.917,-3.134],[103.9155,-3.1235],[103.8975,-3.128],[103.8935,-3.1295]]]},"properties":{"code":"16.12.02.2013","name":"Muara Ikan","latitude":-3.1439274368209587,"longitude":103.89681589355754}},{"type":"Feature","geometry":{"type":"Polygon","coordinates":[[[104.089,-3.209],[104.086,-3.208],[104.0805,-3.2125],[104.0815,-3.2165],[104.0625,-3.2285],[104.065,-3.2325],[104.053,-3.2465],[104.0555,-3.249],[104.0615,-3.2505],[104.063,-3.266],[104.0665,-3.284],[104.068,-3.28],[104.0975,-3.278],[104.0955,-3.2645],[104.115,-3.2415],[104.1135,-3.2325],[104.112,-3.23],[104.112,-3.229],[104.1115,-3.2285],[104.107,-3.2295],[104.0885,-3.225],[104.089,-3.21],[104.089,-3.209]]]},"properties":{"code":"16.12.03.2001","name":"Purun","latitude":-3.2477244060586203,"longitude":104.08299783992506}},{"type":"Feature","geometry":{"type":"Polygon","coordinates":[[[104.0775,-3.151],[104.055,-3.165],[104.0445,-3.1605],[104.0435,-3.159],[104.037,-3.1535],[104.0355,-3.152],[104.0315,-3.152],[104.0265,-3.1545],[104.0265,-3.156],[104.0265,-3.157],[104.029,-3.1705],[103.998,-3.1855],[103.9885,-3.1965],[104.0055,-3.2005],[104.0095,-3.211],[104.03,-3.206],[104.032,-3.202],[104.0355,-3.1915],[104.058,-3.197],[104.0675,-3.1945],[104.072,-3.1875],[104.0755,-3.185],[104.079,-3.1835],[104.0805,-3.1825],[104.0815,-3.182],[104.0825,-3.1815],[104.0825,-3.1775],[104.0775,-3.151]]]},"properties":{"code":"16.12.03.2002","name":"Gunung Menang","latitude":-3.181264151732611,"longitude":104.03997046681663}},{"type":"Feature","geometry":{"type":"Polygon","coordinates":[[[103.997,-3.1285],[103.992,-3.134],[103.9905,-3.1335],[103.9905,-3.1355],[103.9885,-3.1375],[103.988,-3.1375],[103.9865,-3.1385],[103.9835,-3.1405],[103.983,-3.1415],[103.9815,-3.142],[103.9815,-3.143],[103.9835,-3.1685],[103.9745,-3.182],[103.958,-3.194],[103.951,-3.2065],[103.951,-3.2075],[103.9885,-3.1965],[103.998,-3.1855],[104.029,-3.1705],[103.997,-3.1285]]]},"properties":{"code":"16.12.03.2003","name":"Mangkunegara","latitude":-3.168677296672682,"longitude":103.9930865728663}},{"type":"Feature","geometry":{"type":"Polygon","coordinates":[[[103.9815,-3.143],[103.9615,-3.132],[103.9615,-3.1325],[103.961,-3.1325],[103.96,-3.1335],[103.949,-3.139],[103.947,-3.1425],[103.948,-3.1735],[103.947,-3.1725],[103.9455,-3.1735],[103.944,-3.176],[103.943,-3.1755],[103.943,-3.176],[103.943,-3.1775],[103.9425,-3.1785],[103.937,-3.1835],[103.936,-3.1865],[103.9345,-3.1875],[103.934,-3.1875],[103.9355,-3.187],[103.9375,-3.19],[103.939,-3.191],[103.96,-3.1925],[103.9745,-3.182],[103.9835,-3.1685],[103.9815,-3.143]]]},"properties":{"code":"16.12.03.2004","name":"Raja Jaya","latitude":-3.1638007096348275,"longitude":103.96169918622077}},{"type":"Feature","geometry":{"type":"Polygon","coordinates":[[[104.078,-3.0035],[104.0705,-3.0045],[104.0605,-3.0065],[104.0555,-3.0075],[104.056,-3.0095],[104.055,-3.0105],[104.0555,-3.013],[104.055,-3.0165],[104.0595,-3.024],[104.072,-3.036],[104.0725,-3.044],[104.0625,-3.05],[104.0645,-3.064],[104.0605,-3.079],[104.039,-3.0905],[104.0375,-3.092],[104.0375,-3.093],[104.036,-3.095],[104.035,-3.096],[104.0355,-3.097],[104.0365,-3.098],[104.035,-3.1075],[104.023,-3.118],[104.028,-3.1275],[104.028,-3.1295],[104.0235,-3.146],[104.024,-3.148],[104.0245,-3.148],[104.0245,-3.1485],[104.0255,-3.1495],[104.0255,-3.1505],[104.026,-3.152],[104.026,-3.153],[104.0265,-3.153],[104.0265,-3.1545],[104.0315,-3.152],[104.0355,-3.152],[104.037,-3.1535],[104.0435,-3.159],[104.0445,-3.1605],[104.055,-3.165],[104.0775,-3.151],[104.091,-3.1315],[104.073,-3.1085],[104.0635,-3.088],[104.092,-3.014],[104.089,-3.008],[104.081,-3.008],[104.078,-3.0035]]]},"properties":{"code":"16.12.03.2005","name":"Air Itam","latitude":-3.1007246182540738,"longitude":104.05931024877648}},{"type":"Feature","geometry":{"type":"Polygon","coordinates":[[[104.089,-3.209],[104.088,-3.2055],[104.082,-3.1845],[104.0825,-3.1815],[104.0815,-3.182],[104.0805,-3.1825],[104.079,-3.1835],[104.0755,-3.185],[104.072,-3.1875],[104.0675,-3.1945],[104.058,-3.197],[104.043,-3.2055],[104.0355,-3.22],[104.046,-3.2225],[104.053,-3.2145],[104.077,-3.2155],[104.086,-3.208],[104.089,-3.209]]]},"properties":{"code":"16.12.03.2006","name":"Gunung Raja","latitude":-3.2046560886695277,"longitude":104.0653095799962}},{"type":"Feature","geometry":{"type":"Polygon","coordinates":[[[104.1275,-3.009],[104.1175,-3.012],[104.0895,-3.003],[104.0885,-3.0035],[104.078,-3.0035],[104.081,-3.008],[104.089,-3.008],[104.092,-3.014],[104.0635,-3.088],[104.073,-3.1085],[104.091,-3.1315],[104.1,-3.1245],[104.101,-3.1185],[104.1095,-3.1095],[104.115,-3.087],[104.1155,-3.0595],[104.127,-3.0415],[104.1355,-3.034],[104.1345,-3.0325],[104.1345,-3.0205],[104.136,-3.016],[104.1275,-3.009]]]},"properties":{"code":"16.12.03.2007","name":"Air Itam Timur","latitude":-3.0623886752824783,"longitude":104.09806659677515}},{"type":"Feature","geometry":{"type":"Polygon","coordinates":[[[103.911,-3.2945],[103.946,-3.295],[103.9505,-3.292],[103.951,-3.2915],[103.952,-3.288],[103.963,-3.245],[103.9985,-3.215],[104.0055,-3.2005],[103.9885,-3.1965],[103.951,-3.2075],[103.95,-3.2095],[103.947,-3.2285],[103.925,-3.263],[103.926,-3.2695],[103.911,-3.2945]]]},"properties":{"code":"16.12.03.2008","name":"Sungai Langan","latitude":-3.2441250324495847,"longitude":103.95577923059722}},{"type":"Feature","geometry":{"type":"Polygon","coordinates":[[[104.03,-3.206],[104.0095,-3.211],[104.0055,-3.2005],[103.9985,-3.215],[103.963,-3.245],[103.976,-3.2385],[104.0015,-3.242],[104.0245,-3.232],[104.0355,-3.22],[104.03,-3.2105],[104.03,-3.206]]]},"properties":{"code":"16.12.03.2009","name":"Spantan Jaya","latitude":-3.2247077569628075,"longitude":104.00636036767763}},{"type":"Feature","geometry":{"type":"Polygon","coordinates":[[[104.053,-3.2465],[104.065,-3.2325],[104.0625,-3.2285],[104.0815,-3.2165],[104.0805,-3.2125],[104.077,-3.2155],[104.053,-3.2145],[104.046,-3.2225],[104.0355,-3.22],[104.0245,-3.232],[104.0015,-3.242],[103.976,-3.2385],[103.963,-3.245],[103.952,-3.288],[103.9515,-3.2895],[103.9615,-3.2925],[103.9935,-3.28],[104.0165,-3.2615],[104.024,-3.2605],[104.034,-3.2485],[104.053,-3.2465]]]},"properties":{"code":"16.12.03.2010","name":"Babat","latitude":-3.2521527789363365,"longitude":104.00526466902201}},{"type":"Feature","geometry":{"type":"Polygon","coordinates":[[[104.0355,-3.22],[104.043,-3.2055],[104.058,-3.197],[104.0355,-3.1915],[104.032,-3.202],[104.03,-3.2105],[104.0355,-3.22]]]},"properties":{"code":"16.12.03.2011","name":"Suka Raja","latitude":-3.2025479683431652,"longitude":104.04092244344832}},{"type":"Feature","geometry":{"type":"Polygon","coordinates":[[[104.117,-3.242],[104.115,-3.2415],[104.0955,-3.2645],[104.0975,-3.278],[104.102,-3.278],[104.1215,-3.2745],[104.1305,-3.262],[104.1305,-3.26],[104.1305,-3.2595],[104.129,-3.258],[104.1295,-3.257],[104.1305,-3.2565],[104.136,-3.253],[104.118,-3.2425],[104.1175,-3.2425],[104.117,-3.242]]]},"properties":{"code":"16.12.03.2012","name":"Purun Timur","latitude":-3.260443133116913,"longitude":104.1138052919083}},{"type":"Feature","geometry":{"type":"Polygon","coordinates":[[[104.0245,-3.1485],[104.02,-3.148],[104.0195,-3.1235],[104.015,-3.122],[104.014,-3.122],[104.0145,-3.123],[104.011,-3.1225],[104.009,-3.124],[104.0085,-3.124],[104.007,-3.1245],[103.9985,-3.126],[103.998,-3.1275],[103.997,-3.1285],[104.029,-3.1705],[104.0265,-3.157],[104.0265,-3.156],[104.0265,-3.1545],[104.0265,-3.153],[104.026,-3.153],[104.026,-3.152],[104.0255,-3.1505],[104.0255,-3.1495],[104.0245,-3.1485]]]},"properties":{"code":"16.12.03.2013","name":"Mangkunegara Timur","latitude":-3.1404837012678484,"longitude":104.01513745871536}},{"type":"Feature","geometry":{"type":"Polygon","coordinates":[[[104.1325,-3.166],[104.114,-3.165],[104.1115,-3.175],[104.1125,-3.1775],[104.1125,-3.178],[104.153,-3.208],[104.1545,-3.2065],[104.158,-3.208],[104.141,-3.167],[104.1325,-3.166]]]},"properties":{"code":"16.12.04.2001","name":"Betung","latitude":-3.18208112079985,"longitude":104.13401480115293}},{"type":"Feature","geometry":{"type":"Polygon","coordinates":[[[104.115,-3.162],[104.0775,-3.151],[104.0825,-3.1775],[104.0825,-3.1805],[104.082,-3.1845],[104.088,-3.2055],[104.0885,-3.208],[104.089,-3.21],[104.0885,-3.225],[104.107,-3.2295],[104.1115,-3.2285],[104.112,-3.229],[104.112,-3.2295],[104.1125,-3.229],[104.1125,-3.228],[104.1095,-3.2275],[104.1055,-3.224],[104.1095,-3.188],[104.11,-3.1815],[104.1115,-3.175],[104.114,-3.165],[104.115,-3.162]]]},"properties":{"code":"16.12.04.2002","name":"Betung Barat","latitude":-3.186901631517809,"longitude":104.09652710042826}},{"type":"Feature","geometry":{"type":"Polygon","coordinates":[[[104.1115,-3.127],[104.1075,-3.126],[104.1025,-3.1235],[104.1,-3.1245],[104.091,-3.1315],[104.0775,-3.151],[104.115,-3.162],[104.1325,-3.166],[104.1405,-3.1505],[104.14,-3.1325],[104.1115,-3.127]]]},"properties":{"code":"16.12.04.2003","name":"Karang Agung","latitude":-3.1443138879748465,"longitude":104.11284444256538}},{"type":"Feature","geometry":{"type":"Polygon","coordinates":[[[104.158,-3.0465],[104.1415,-3.0465],[104.14,-3.0435],[104.137,-3.0355],[104.1355,-3.034],[104.127,-3.0415],[104.1155,-3.0595],[104.115,-3.087],[104.1095,-3.1095],[104.101,-3.1185],[104.1025,-3.1235],[104.1075,-3.126],[104.1115,-3.127],[104.14,-3.1325],[104.144,-3.128],[104.171,-3.053],[104.1675,-3.051],[104.1645,-3.05],[104.158,-3.0465]]]},"properties":{"code":"16.12.04.2004","name":"Tanjung Kurung","latitude":-3.0848972500873955,"longitude":104.1357114752166}},{"type":"Feature","geometry":{"type":"Polygon","coordinates":[[[104.141,-3.2505],[104.1245,-3.237],[104.117,-3.2425],[104.1175,-3.2425],[104.118,-3.2425],[104.136,-3.253],[104.1305,-3.2565],[104.1295,-3.257],[104.129,-3.258],[104.1305,-3.2595],[104.1305,-3.26],[104.152,-3.276],[104.153,-3.2765],[104.1585,-3.277],[104.1765,-3.2815],[104.182,-3.2905],[104.1825,-3.29],[104.188,-3.275],[104.209,-3.2595],[104.21,-3.258],[104.186,-3.2575],[104.1715,-3.2495],[104.1495,-3.253],[104.149,-3.252],[104.141,-3.2505]]]},"properties":{"code":"16.12.04.2005","name":"Pengabuan","latitude":-3.263190031817527,"longitude":104.16426822256062}},{"type":"Feature","geometry":{"type":"Polygon","coordinates":[[[104.2465,-3.0255],[104.2325,-3.0205],[104.226,-3.028],[104.2225,-3.0325],[104.221,-3.0345],[104.219,-3.0365],[104.2155,-3.0385],[104.208,-3.0425],[104.2,-3.048],[104.1945,-3.051],[104.193,-3.052],[104.171,-3.053],[104.144,-3.128],[104.14,-3.1325],[104.1405,-3.1505],[104.1325,-3.166],[104.141,-3.167],[104.158,-3.208],[104.16,-3.2105],[104.165,-3.2125],[104.177,-3.214],[104.232,-3.2145],[104.234,-3.211],[104.2355,-3.2065],[104.236,-3.1995],[104.239,-3.184],[104.2415,-3.172],[104.243,-3.1465],[104.2435,-3.138],[104.2465,-3.1225],[104.248,-3.105],[104.249,-3.0945],[104.2515,-3.0805],[104.254,-3.064],[104.2555,-3.056],[104.256,-3.05],[104.2575,-3.038],[104.257,-3.0325],[104.256,-3.0325],[104.255,-3.0325],[104.2465,-3.0255]]]},"properties":{"code":"16.12.04.2006","name":"Prambatan","latitude":-3.1261218533170814,"longitude":104.2004029285915}},{"type":"Feature","geometry":{"type":"Polygon","coordinates":[[[104.158,-3.208],[104.1545,-3.2065],[104.15,-3.2105],[104.1365,-3.235],[104.1245,-3.237],[104.141,-3.2505],[104.149,-3.252],[104.1495,-3.253],[104.1715,-3.2495],[104.186,-3.2575],[104.21,-3.258],[104.2105,-3.2575],[104.211,-3.2505],[104.2135,-3.2375],[104.217,-3.2275],[104.219,-3.2245],[104.221,-3.223],[104.229,-3.2195],[104.232,-3.2145],[104.177,-3.214],[104.165,-3.2125],[104.16,-3.2105],[104.158,-3.208]]]},"properties":{"code":"16.12.04.2007","name":"Pengabuan Timur","latitude":-3.2331273329348105,"longitude":104.17835475101099}},{"type":"Feature","geometry":{"type":"Polygon","coordinates":[[[104.1125,-3.1775],[104.11,-3.1815],[104.1095,-3.188],[104.1055,-3.224],[104.1095,-3.2275],[104.1125,-3.228],[104.1125,-3.229],[104.112,-3.2295],[104.1135,-3.2325],[104.115,-3.2415],[104.117,-3.242],[104.117,-3.2425],[104.1245,-3.237],[104.1365,-3.235],[104.15,-3.2105],[104.153,-3.208],[104.1125,-3.178],[104.1125,-3.1775]]]},"properties":{"code":"16.12.04.2008","name":"Betung Selatan","latitude":-3.211442891020859,"longitude":104.1247754769153}},{"type":"Feature","geometry":{"type":"Polygon","coordinates":[[[104.0665,-3.3335],[104.0595,-3.3375],[104.0785,-3.3475],[104.084,-3.354],[104.0935,-3.35],[104.095,-3.348],[104.081,-3.3415],[104.074,-3.333],[104.0665,-3.3335]]]},"properties":{"code":"16.12.05.2001","name":"Bumi Ayu","latitude":-3.343610547444867,"longitude":104.07848840146036}},{"type":"Feature","geometry":{"type":"Polygon","coordinates":[[[104.1175,-3.3175],[104.117,-3.317],[104.1155,-3.318],[104.1105,-3.3235],[104.1095,-3.3225],[104.108,-3.32],[104.108,-3.3185],[104.105,-3.3205],[104.1045,-3.3425],[104.1045,-3.344],[104.11,-3.3465],[104.111,-3.3455],[104.1115,-3.334],[104.112,-3.333],[104.114,-3.333],[104.112,-3.3405],[104.113,-3.346],[104.112,-3.3495],[104.1125,-3.351],[104.115,-3.3515],[104.1265,-3.345],[104.1325,-3.3435],[104.131,-3.34],[104.131,-3.339],[104.13,-3.339],[104.1285,-3.338],[104.1235,-3.3295],[104.1245,-3.322],[104.1235,-3.3205],[104.119,-3.3185],[104.1175,-3.3175]]]},"properties":{"code":"16.12.05.2002","name":"Muara Sungai","latitude":-3.3349679138342343,"longitude":104.11644637663906}},{"type":"Feature","geometry":{"type":"Polygon","coordinates":[[[104.1045,-3.3425],[104.105,-3.3205],[104.093,-3.332],[104.1,-3.3385],[104.101,-3.338],[104.1035,-3.339],[104.1045,-3.3425]]]},"properties":{"code":"16.12.05.2003","name":"Tanah Abang Utara","latitude":-3.3321862514865654,"longitude":104.10120976716418}},{"type":"Feature","geometry":{"type":"Polygon","coordinates":[[[104.194,-3.3155],[104.1945,-3.305],[104.187,-3.2925],[104.188,-3.275],[104.1825,-3.29],[104.1805,-3.2915],[104.1785,-3.2945],[104.1665,-3.3075],[104.1685,-3.3185],[104.172,-3.317],[104.1735,-3.3255],[104.1735,-3.3305],[104.176,-3.3285],[104.177,-3.327],[104.18,-3.326],[104.1825,-3.3275],[104.1835,-3.327],[104.182,-3.3245],[104.1885,-3.32],[104.189,-3.319],[104.193,-3.3155],[104.194,-3.3155]]]},"properties":{"code":"16.12.05.2004","name":"Sedupi","latitude":-3.308198930129659,"longitude":104.18135972274014}},{"type":"Feature","geometry":{"type":"Polygon","coordinates":[[[104.1685,-3.3185],[104.1665,-3.3075],[104.1785,-3.2945],[104.1565,-3.299],[104.149,-3.305],[104.151,-3.3205],[104.1525,-3.319],[104.1555,-3.319],[104.157,-3.3195],[104.1595,-3.3245],[104.161,-3.3285],[104.1625,-3.3285],[104.165,-3.321],[104.1685,-3.3185]]]},"properties":{"code":"16.12.05.2005","name":"Sukaraja","latitude":-3.309484284714898,"longitude":104.16088256823373}},{"type":"Feature","geometry":{"type":"Polygon","coordinates":[[[104.149,-3.305],[104.133,-3.2945],[104.132,-3.3115],[104.123,-3.319],[104.1245,-3.322],[104.1235,-3.3295],[104.1285,-3.338],[104.13,-3.339],[104.131,-3.339],[104.131,-3.338],[104.127,-3.333],[104.1255,-3.33],[104.1255,-3.327],[104.128,-3.325],[104.1305,-3.325],[104.134,-3.326],[104.138,-3.3255],[104.142,-3.321],[104.1345,-3.331],[104.135,-3.333],[104.139,-3.3345],[104.142,-3.333],[104.1505,-3.3245],[104.151,-3.3205],[104.149,-3.305]]]},"properties":{"code":"16.12.05.2006","name":"Curup","latitude":-3.317412013619444,"longitude":104.13844792514524}},{"type":"Feature","geometry":{"type":"Polygon","coordinates":[[[104.133,-3.2945],[104.1215,-3.2745],[104.11,-3.3085],[104.108,-3.32],[104.1095,-3.3225],[104.1105,-3.3235],[104.1155,-3.318],[104.117,-3.317],[104.1175,-3.3175],[104.119,-3.3185],[104.1235,-3.3205],[104.123,-3.319],[104.132,-3.3115],[104.133,-3.2945]]]},"properties":{"code":"16.12.05.2007","name":"Raja","latitude":-3.3017447659102386,"longitude":104.12118619507373}},{"type":"Feature","geometry":{"type":"Polygon","coordinates":[[[104.227,-3.2875],[104.188,-3.275],[104.187,-3.2925],[104.1945,-3.305],[104.194,-3.3155],[104.197,-3.3195],[104.198,-3.3205],[104.1995,-3.321],[104.2035,-3.317],[104.2095,-3.3065],[104.2095,-3.3045],[104.2145,-3.3055],[104.217,-3.3045],[104.2175,-3.303],[104.215,-3.2975],[104.2165,-3.295],[104.2185,-3.2945],[104.2205,-3.2995],[104.2215,-3.301],[104.223,-3.301],[104.2235,-3.298],[104.224,-3.2945],[104.2265,-3.288],[104.227,-3.2875]]]},"properties":{"code":"16.12.05.2008","name":"Pandan","latitude":-3.2951196558112716,"longitude":104.2044381143147}},{"type":"Feature","geometry":{"type":"Polygon","coordinates":[[[104.23,-3.2855],[104.2305,-3.27],[104.21,-3.2625],[104.2105,-3.2575],[104.209,-3.2595],[104.188,-3.275],[104.227,-3.2875],[104.2285,-3.286],[104.23,-3.2855]]]},"properties":{"code":"16.12.05.2009","name":"Modong","latitude":-3.2736160958629967,"longitude":104.21384848058402}},{"type":"Feature","geometry":{"type":"Polygon","coordinates":[[[104.093,-3.332],[104.0565,-3.296],[104.043,-3.3135],[104.0545,-3.3165],[104.0565,-3.316],[104.061,-3.331],[104.0665,-3.3335],[104.074,-3.333],[104.081,-3.3415],[104.095,-3.348],[104.097,-3.346],[104.0995,-3.339],[104.1,-3.3385],[104.093,-3.332]]]},"properties":{"code":"16.12.05.2010","name":"Tanah Abang Selatan","latitude":-3.322729712570157,"longitude":104.07135820218335}},{"type":"Feature","geometry":{"type":"Polygon","coordinates":[[[104.1585,-3.277],[104.153,-3.2765],[104.152,-3.276],[104.1305,-3.262],[104.1215,-3.2745],[104.133,-3.2945],[104.136,-3.291],[104.1565,-3.299],[104.1785,-3.2945],[104.1805,-3.2915],[104.182,-3.2905],[104.1765,-3.2815],[104.1585,-3.277]]]},"properties":{"code":"16.12.05.2011","name":"Harapan Jaya","latitude":-3.283194311464266,"longitude":104.1490872501826}},{"type":"Feature","geometry":{"type":"Polygon","coordinates":[[[104.1885,-3.32],[104.182,-3.3245],[104.1835,-3.327],[104.1825,-3.3275],[104.1845,-3.3285],[104.186,-3.329],[104.1885,-3.321],[104.1885,-3.32]]]},"properties":{"code":"16.12.05.2012","name":"Tanjung Dalam","latitude":-3.3250610730892256,"longitude":104.18615741901242}},{"type":"Feature","geometry":{"type":"Polygon","coordinates":[[[104.1565,-3.299],[104.136,-3.291],[104.133,-3.2945],[104.149,-3.305],[104.1565,-3.299]]]},"properties":{"code":"16.12.05.2013","name":"Lunas Jaya","latitude":-3.2986946667398263,"longitude":104.1449334223532}},{"type":"Feature","geometry":{"type":"Polygon","coordinates":[[[104.108,-3.3185],[104.11,-3.3085],[104.1215,-3.2745],[104.102,-3.278],[104.0975,-3.3075],[104.105,-3.3205],[104.108,-3.3185]]]},"properties":{"code":"16.12.05.2014","name":"Raja Barat","latitude":-3.293975877249277,"longitude":104.10764352717855}},{"type":"Feature","geometry":{"type":"Polygon","coordinates":[[[104.0975,-3.3075],[104.0905,-3.3045],[104.0565,-3.296],[104.093,-3.332],[104.105,-3.3205],[104.0975,-3.3075]]]},"properties":{"code":"16.12.05.2015","name":"Tanah Abang Jaya","latitude":-3.313477447251683,"longitude":104.08591597488324}},{"type":"Feature","geometry":{"type":"Polygon","coordinates":[[[104.102,-3.278],[104.0975,-3.278],[104.068,-3.28],[104.0665,-3.284],[104.067,-3.2855],[104.065,-3.2875],[104.0645,-3.288],[104.0655,-3.289],[104.067,-3.2915],[104.0655,-3.2915],[104.0575,-3.294],[104.0905,-3.3045],[104.0975,-3.3075],[104.102,-3.278]]]},"properties":{"code":"16.12.05.2016","name":"Muara Dua","latitude":-3.2907006344761136,"longitude":104.08337244182233}},{"type":"Feature","geometry":{"type":"Polygon","coordinates":[[[104.0665,-3.3335],[104.061,-3.331],[104.0565,-3.316],[104.0545,-3.3165],[104.043,-3.3135],[104.026,-3.3245],[104.015,-3.3405],[104.02,-3.35],[104.028,-3.353],[104.0285,-3.341],[104.0505,-3.3435],[104.057,-3.3415],[104.0595,-3.3375],[104.0665,-3.3335]]]},"properties":{"code":"16.12.05.2017","name":"Sukamanis","latitude":-3.3317821157874725,"longitude":104.03939925995513}}]}