{"type":"FeatureCollection","features":[{"type":"Feature","geometry":{"type":"Polygon","coordinates":[[[107.642,-2.741],[107.64,-2.7375],[107.634,-2.74],[107.633,-2.74],[107.6285,-2.7435],[107.6385,-2.748],[107.6395,-2.7485],[107.6385,-2.7435],[107.6395,-2.742],[107.642,-2.741]]]},"properties":{"code":"19.02.01.1001","name":"Kota"}},{"type":"Feature","geometry":{"type":"Polygon","coordinates":[[[107.632,-2.73],[107.63,-2.7325],[107.6285,-2.735],[107.6285,-2.7365],[107.626,-2.738],[107.6285,-2.7435],[107.633,-2.74],[107.6355,-2.739],[107.6355,-2.738],[107.634,-2.7345],[107.6325,-2.7315],[107.6325,-2.73],[107.632,-2.73]]]},"properties":{"code":"19.02.01.1002","name":"Parit"}},{"type":"Feature","geometry":{"type":"Polygon","coordinates":[[[107.6615,-2.738],[107.6595,-2.7385],[107.652,-2.739],[107.65,-2.7475],[107.6735,-2.762],[107.6745,-2.758],[107.673,-2.7575],[107.673,-2.7565],[107.6695,-2.755],[107.662,-2.75],[107.6615,-2.738]]]},"properties":{"code":"19.02.01.1005","name":"Lesung Batang"}},{"type":"Feature","geometry":{"type":"Polygon","coordinates":[[[107.652,-2.739],[107.6495,-2.7385],[107.6485,-2.7375],[107.645,-2.7385],[107.644,-2.739],[107.6415,-2.7415],[107.6395,-2.742],[107.6385,-2.7435],[107.6395,-2.7485],[107.641,-2.75],[107.641,-2.769],[107.6515,-2.7615],[107.667,-2.7755],[107.6675,-2.775],[107.6735,-2.762],[107.65,-2.7475],[107.652,-2.739]]]},"properties":{"code":"19.02.01.1006","name":"Pangkallalang"}},{"type":"Feature","geometry":{"type":"Polygon","coordinates":[[[107.64,-2.7245],[107.6375,-2.7245],[107.634,-2.7235],[107.6295,-2.7235],[107.626,-2.738],[107.6285,-2.7365],[107.6285,-2.735],[107.63,-2.7325],[107.632,-2.73],[107.6325,-2.73],[107.6335,-2.73],[107.636,-2.729],[107.637,-2.7285],[107.6395,-2.727],[107.64,-2.726],[107.64,-2.7245]]]},"properties":{"code":"19.02.01.1009","name":"Tanjungpendam"}},{"type":"Feature","geometry":{"type":"Polygon","coordinates":[[[107.6465,-2.72],[107.644,-2.7205],[107.643,-2.721],[107.643,-2.723],[107.64,-2.7235],[107.6395,-2.726],[107.6395,-2.727],[107.639,-2.7275],[107.6405,-2.7285],[107.6395,-2.7295],[107.639,-2.734],[107.6375,-2.7345],[107.638,-2.7375],[107.64,-2.7375],[107.642,-2.741],[107.644,-2.739],[107.645,-2.7385],[107.6465,-2.7375],[107.649,-2.737],[107.6515,-2.7285],[107.652,-2.728],[107.6515,-2.7275],[107.651,-2.7275],[107.65,-2.726],[107.649,-2.727],[107.6485,-2.7245],[107.648,-2.7235],[107.647,-2.7225],[107.646,-2.721],[107.6465,-2.72]]]},"properties":{"code":"19.02.01.1011","name":"Paal Satu"}},{"type":"Feature","geometry":{"type":"Polygon","coordinates":[[[107.6355,-2.739],[107.6385,-2.738],[107.638,-2.7375],[107.6375,-2.7345],[107.639,-2.734],[107.6395,-2.7295],[107.6405,-2.7285],[107.639,-2.7275],[107.637,-2.729],[107.636,-2.729],[107.6335,-2.73],[107.6325,-2.7315],[107.634,-2.7345],[107.6355,-2.738],[107.6355,-2.739]]]},"properties":{"code":"19.02.01.1016","name":"Kampong Damai"}},{"type":"Feature","geometry":{"type":"Polygon","coordinates":[[[107.7835,-2.7075],[107.7825,-2.7075],[107.7745,-2.716],[107.763,-2.7125],[107.7435,-2.7245],[107.7415,-2.726],[107.736,-2.724],[107.733,-2.721],[107.729,-2.718],[107.728,-2.7175],[107.729,-2.729],[107.7115,-2.744],[107.6975,-2.76],[107.7015,-2.7765],[107.703,-2.777],[107.709,-2.794],[107.699,-2.801],[107.7145,-2.809],[107.733,-2.824],[107.738,-2.8375],[107.7385,-2.839],[107.739,-2.839],[107.7385,-2.838],[107.7395,-2.838],[107.7395,-2.8375],[107.74,-2.8365],[107.7525,-2.828],[107.754,-2.825],[107.756,-2.8255],[107.758,-2.8235],[107.7595,-2.822],[107.76,-2.8215],[107.762,-2.82],[107.7615,-2.8195],[107.763,-2.816],[107.7565,-2.808],[107.7555,-2.806],[107.753,-2.7965],[107.761,-2.79],[107.767,-2.7885],[107.7775,-2.7545],[107.7715,-2.745],[107.7745,-2.736],[107.787,-2.7185],[107.7835,-2.7075]]]},"properties":{"code":"19.02.01.2003","name":"Buluh Tumbang"}},{"type":"Feature","geometry":{"type":"Polygon","coordinates":[[[107.728,-2.7175],[107.726,-2.716],[107.71,-2.7165],[107.7065,-2.7155],[107.7005,-2.71],[107.6985,-2.709],[107.6975,-2.7085],[107.6885,-2.711],[107.687,-2.7115],[107.687,-2.712],[107.687,-2.7125],[107.6865,-2.714],[107.6865,-2.7145],[107.6855,-2.7155],[107.686,-2.717],[107.689,-2.717],[107.701,-2.7215],[107.7035,-2.724],[107.6875,-2.7315],[107.6795,-2.758],[107.6785,-2.7615],[107.677,-2.763],[107.6735,-2.762],[107.6675,-2.775],[107.667,-2.776],[107.6665,-2.787],[107.6655,-2.789],[107.669,-2.79],[107.6745,-2.795],[107.6895,-2.78],[107.6935,-2.777],[107.7,-2.7775],[107.7015,-2.7765],[107.6975,-2.76],[107.7115,-2.744],[107.729,-2.729],[107.728,-2.7175]]]},"properties":{"code":"19.02.01.2004","name":"Perawas"}},{"type":"Feature","geometry":{"type":"Polygon","coordinates":[[[107.667,-2.7755],[107.6515,-2.7615],[107.641,-2.769],[107.641,-2.771],[107.6405,-2.772],[107.638,-2.7775],[107.638,-2.7885],[107.6385,-2.792],[107.6385,-2.7935],[107.6375,-2.7955],[107.6415,-2.8005],[107.6425,-2.8],[107.6445,-2.799],[107.648,-2.8],[107.6575,-2.801],[107.659,-2.798],[107.6625,-2.79],[107.665,-2.789],[107.6655,-2.789],[107.6665,-2.787],[107.667,-2.776],[107.667,-2.7755]]]},"properties":{"code":"19.02.01.2007","name":"Dukong"}},{"type":"Feature","geometry":{"type":"Polygon","coordinates":[[[107.641,-2.75],[107.6385,-2.748],[107.6255,-2.75],[107.611,-2.7645],[107.613,-2.7805],[107.6015,-2.7885],[107.6015,-2.789],[107.6015,-2.79],[107.6025,-2.792],[107.606,-2.8025],[107.609,-2.803],[107.6235,-2.8],[107.6285,-2.7925],[107.634,-2.7925],[107.6375,-2.7915],[107.6385,-2.791],[107.638,-2.7885],[107.638,-2.7775],[107.6405,-2.772],[107.641,-2.771],[107.641,-2.769],[107.641,-2.75]]]},"properties":{"code":"19.02.01.2008","name":"Juru Seberang"}},{"type":"Feature","geometry":{"type":"Polygon","coordinates":[[[107.656,-2.698],[107.6535,-2.6955],[107.6495,-2.6915],[107.6435,-2.689],[107.6365,-2.698],[107.6245,-2.702],[107.622,-2.707],[107.6295,-2.7235],[107.63,-2.7235],[107.6315,-2.723],[107.634,-2.7235],[107.6375,-2.7245],[107.64,-2.7245],[107.64,-2.7235],[107.643,-2.723],[107.643,-2.721],[107.644,-2.7205],[107.6465,-2.72],[107.648,-2.7175],[107.6475,-2.7085],[107.655,-2.698],[107.656,-2.698]]]},"properties":{"code":"19.02.01.2010","name":"Air Saga"}},{"type":"Feature","geometry":{"type":"Polygon","coordinates":[[[107.6885,-2.711],[107.6875,-2.7085],[107.6865,-2.7065],[107.6685,-2.696],[107.6645,-2.716],[107.664,-2.7175],[107.6575,-2.7185],[107.6595,-2.72],[107.663,-2.7325],[107.666,-2.7335],[107.666,-2.734],[107.6675,-2.734],[107.676,-2.736],[107.685,-2.7175],[107.686,-2.717],[107.6855,-2.7155],[107.6865,-2.7145],[107.6865,-2.714],[107.687,-2.7125],[107.687,-2.712],[107.687,-2.7115],[107.6885,-2.711]]]},"properties":{"code":"19.02.01.2012","name":"Air Merbau"}},{"type":"Feature","geometry":{"type":"Polygon","coordinates":[[[107.6685,-2.696],[107.6615,-2.6935],[107.6565,-2.697],[107.656,-2.698],[107.655,-2.698],[107.6475,-2.7085],[107.648,-2.7175],[107.646,-2.721],[107.647,-2.7225],[107.648,-2.7235],[107.6485,-2.7245],[107.649,-2.727],[107.65,-2.726],[107.651,-2.7275],[107.6515,-2.7275],[107.652,-2.728],[107.6525,-2.7275],[107.6525,-2.727],[107.6525,-2.726],[107.6545,-2.723],[107.656,-2.7215],[107.6575,-2.7185],[107.664,-2.7175],[107.6645,-2.716],[107.6685,-2.696]]]},"properties":{"code":"19.02.01.2013","name":"Aik Pelempang Jaya"}},{"type":"Feature","geometry":{"type":"Polygon","coordinates":[[[107.664,-2.7335],[107.663,-2.7325],[107.6595,-2.72],[107.656,-2.7215],[107.6545,-2.723],[107.6525,-2.726],[107.6525,-2.7265],[107.6525,-2.7275],[107.6515,-2.7285],[107.649,-2.737],[107.6485,-2.7375],[107.6495,-2.7385],[107.652,-2.739],[107.6595,-2.7385],[107.662,-2.737],[107.664,-2.7335]]]},"properties":{"code":"19.02.01.2014","name":"Aik Ketekok"}},{"type":"Feature","geometry":{"type":"Polygon","coordinates":[[[107.6735,-2.762],[107.677,-2.763],[107.6785,-2.7615],[107.6795,-2.758],[107.6875,-2.7315],[107.7035,-2.724],[107.701,-2.7215],[107.689,-2.717],[107.685,-2.7175],[107.676,-2.736],[107.6675,-2.734],[107.666,-2.734],[107.666,-2.7335],[107.664,-2.7335],[107.662,-2.737],[107.6615,-2.738],[107.662,-2.75],[107.6695,-2.755],[107.673,-2.7565],[107.673,-2.7575],[107.6745,-2.758],[107.6735,-2.762]]]},"properties":{"code":"19.02.01.2015","name":"Aik Rayak"}},{"type":"Feature","geometry":{"type":"Polygon","coordinates":[[[107.7895,-3.095],[107.7825,-3.102],[107.77,-3.1015],[107.755,-3.109],[107.747,-3.097],[107.73,-3.085],[107.7195,-3.085],[107.714,-3.091],[107.7115,-3.09],[107.71,-3.089],[107.706,-3.087],[107.7035,-3.087],[107.678,-3.102],[107.675,-3.102],[107.674,-3.1005],[107.672,-3.0995],[107.668,-3.0995],[107.6655,-3.1005],[107.6625,-3.1025],[107.6505,-3.1045],[107.6495,-3.1055],[107.648,-3.1065],[107.647,-3.107],[107.65,-3.108],[107.6505,-3.1095],[107.6505,-3.11],[107.6495,-3.1115],[107.6515,-3.112],[107.6525,-3.1125],[107.6515,-3.1145],[107.65,-3.117],[107.647,-3.115],[107.645,-3.123],[107.6435,-3.122],[107.6355,-3.122],[107.6345,-3.1235],[107.6345,-3.1245],[107.636,-3.126],[107.6365,-3.1315],[107.635,-3.1315],[107.6295,-3.1295],[107.6255,-3.1285],[107.6275,-3.15],[107.609,-3.1705],[107.6095,-3.171],[107.6105,-3.1715],[107.6095,-3.173],[107.6105,-3.174],[107.6115,-3.1745],[107.6165,-3.1735],[107.623,-3.175],[107.626,-3.179],[107.6275,-3.1805],[107.634,-3.174],[107.6355,-3.171],[107.638,-3.1815],[107.6385,-3.1865],[107.6405,-3.186],[107.643,-3.188],[107.644,-3.188],[107.647,-3.1875],[107.6515,-3.1855],[107.673,-3.1645],[107.687,-3.1565],[107.705,-3.1575],[107.7305,-3.1445],[107.742,-3.146],[107.747,-3.144],[107.7515,-3.145],[107.7785,-3.155],[107.7795,-3.155],[107.7775,-3.1515],[107.7805,-3.1485],[107.783,-3.139],[107.783,-3.136],[107.7895,-3.1265],[107.7895,-3.095]]]},"properties":{"code":"19.02.02.2001","name":"Membalong"}},{"type":"Feature","geometry":{"type":"Polygon","coordinates":[[[107.69,-3.039],[107.6625,-3.0415],[107.6455,-3.045],[107.636,-3.056],[107.6315,-3.058],[107.6095,-3.0565],[107.607,-3.0635],[107.604,-3.0645],[107.603,-3.0645],[107.6005,-3.066],[107.5975,-3.064],[107.5885,-3.0565],[107.5845,-3.0585],[107.5815,-3.06],[107.585,-3.072],[107.5825,-3.0865],[107.592,-3.096],[107.596,-3.1075],[107.6045,-3.1065],[107.6095,-3.1155],[107.6255,-3.1285],[107.6295,-3.1295],[107.635,-3.1315],[107.6365,-3.1315],[107.636,-3.126],[107.6345,-3.1245],[107.6345,-3.1235],[107.6355,-3.122],[107.6435,-3.122],[107.645,-3.123],[107.647,-3.115],[107.65,-3.117],[107.6515,-3.1145],[107.6525,-3.1125],[107.6515,-3.112],[107.6495,-3.1115],[107.6505,-3.11],[107.6505,-3.1095],[107.65,-3.108],[107.647,-3.107],[107.648,-3.1065],[107.6495,-3.1055],[107.6505,-3.1045],[107.6625,-3.1025],[107.6655,-3.1005],[107.668,-3.0995],[107.672,-3.0995],[107.674,-3.1005],[107.675,-3.102],[107.678,-3.102],[107.7035,-3.087],[107.706,-3.087],[107.71,-3.089],[107.706,-3.0775],[107.6945,-3.0635],[107.69,-3.039]]]},"properties":{"code":"19.02.02.2002","name":"Perpat"}},{"type":"Feature","geometry":{"type":"MultiPolygon","coordinates":[[[[107.503,-3.033],[107.488,-3.03],[107.4875,-3.046],[107.493,-3.052],[107.502,-3.0445],[107.503,-3.033]]],[[[107.533,-2.9695],[107.516,-2.972],[107.519,-2.996],[107.5295,-2.9985],[107.533,-2.9695]]],[[[107.6125,-2.933],[107.6,-2.933],[107.595,-2.9475],[107.598,-2.956],[107.5905,-2.963],[107.584,-2.9825],[107.57,-2.9835],[107.561,-2.9985],[107.565,-3.0065],[107.5685,-3.0305],[107.5795,-3.05],[107.5815,-3.06],[107.5845,-3.0585],[107.5885,-3.0565],[107.5975,-3.064],[107.6005,-3.066],[107.603,-3.0645],[107.604,-3.0645],[107.607,-3.0635],[107.6095,-3.0565],[107.6315,-3.058],[107.636,-3.056],[107.6455,-3.045],[107.6625,-3.0415],[107.69,-3.039],[107.7125,-3.0155],[107.7175,-3.0035],[107.7175,-3.001],[107.7075,-2.9915],[107.7055,-2.991],[107.689,-2.9915],[107.6865,-2.9875],[107.6675,-2.9805],[107.656,-2.982],[107.644,-2.978],[107.622,-2.979],[107.617,-2.96],[107.6185,-2.96],[107.6165,-2.9595],[107.614,-2.953],[107.613,-2.953],[107.614,-2.9365],[107.616,-2.934],[107.6165,-2.933],[107.6125,-2.933]]]]},"properties":{"code":"19.02.02.2003","name":"Lassar"}},{"type":"Feature","geometry":{"type":"Polygon","coordinates":[[[107.7625,-2.9375],[107.7375,-2.9415],[107.7075,-2.9315],[107.692,-2.9325],[107.6845,-2.9225],[107.668,-2.9205],[107.6675,-2.9145],[107.6435,-2.91],[107.632,-2.901],[107.6305,-2.8985],[107.6285,-2.898],[107.626,-2.9],[107.622,-2.9015],[107.6145,-2.909],[107.6145,-2.912],[107.6145,-2.9125],[107.6125,-2.933],[107.6165,-2.933],[107.616,-2.934],[107.614,-2.9365],[107.613,-2.953],[107.614,-2.953],[107.6165,-2.9595],[107.6185,-2.96],[107.617,-2.96],[107.622,-2.979],[107.644,-2.978],[107.656,-2.982],[107.6675,-2.9805],[107.6865,-2.9875],[107.689,-2.9915],[107.7055,-2.991],[107.7075,-2.9915],[107.7175,-3.001],[107.7215,-3.005],[107.7395,-3.013],[107.7685,-2.991],[107.7685,-2.98],[107.78,-2.973],[107.785,-2.9735],[107.788,-2.974],[107.7915,-2.974],[107.7905,-2.974],[107.7885,-2.9705],[107.79,-2.9655],[107.7865,-2.9575],[107.7675,-2.946],[107.7645,-2.9445],[107.763,-2.9385],[107.7625,-2.9375]]]},"properties":{"code":"19.02.02.2004","name":"Simpang Rusa"}},{"type":"Feature","geometry":{"type":"Polygon","coordinates":[[[107.785,-2.9735],[107.78,-2.973],[107.7685,-2.98],[107.7685,-2.991],[107.7395,-3.013],[107.7215,-3.005],[107.7175,-3.0035],[107.7125,-3.0155],[107.69,-3.039],[107.6945,-3.0635],[107.706,-3.0775],[107.71,-3.089],[107.7115,-3.09],[107.714,-3.091],[107.7195,-3.085],[107.73,-3.085],[107.747,-3.097],[107.755,-3.109],[107.77,-3.1015],[107.7825,-3.102],[107.7895,-3.095],[107.79,-3.095],[107.7935,-3.0915],[107.7975,-3.09],[107.8035,-3.086],[107.8045,-3.0865],[107.807,-3.086],[107.8085,-3.085],[107.8095,-3.085],[107.8105,-3.086],[107.822,-3.0815],[107.848,-3.0595],[107.8485,-3.0525],[107.851,-3.051],[107.8515,-3.0495],[107.859,-3.04],[107.861,-3.037],[107.8635,-3.0325],[107.862,-3.025],[107.8615,-3.0235],[107.864,-3.017],[107.861,-3.0135],[107.8545,-3.0115],[107.837,-3.01],[107.835,-3.0095],[107.8325,-3.007],[107.8265,-3],[107.8165,-2.9895],[107.815,-2.989],[107.814,-2.989],[107.813,-2.9875],[107.794,-2.975],[107.7915,-2.974],[107.7895,-2.975],[107.788,-2.974],[107.785,-2.9735]]]},"properties":{"code":"19.02.02.2005","name":"Kembiri"}},{"type":"Feature","geometry":{"type":"Polygon","coordinates":[[[107.734,-2.881],[107.729,-2.869],[107.707,-2.857],[107.704,-2.851],[107.6835,-2.863],[107.6735,-2.849],[107.6625,-2.8505],[107.6565,-2.8485],[107.6495,-2.844],[107.642,-2.8485],[107.629,-2.8585],[107.624,-2.8715],[107.624,-2.874],[107.6145,-2.875],[107.6035,-2.8845],[107.5915,-2.9115],[107.6145,-2.9125],[107.6145,-2.912],[107.6145,-2.909],[107.622,-2.9015],[107.626,-2.9],[107.6285,-2.898],[107.6305,-2.8985],[107.632,-2.901],[107.6435,-2.91],[107.6675,-2.9145],[107.668,-2.9205],[107.6845,-2.9225],[107.692,-2.9325],[107.7075,-2.9315],[107.7375,-2.9415],[107.7625,-2.9375],[107.7625,-2.9365],[107.7625,-2.936],[107.7635,-2.932],[107.7635,-2.9305],[107.7555,-2.9195],[107.7575,-2.8965],[107.747,-2.888],[107.7445,-2.892],[107.7415,-2.892],[107.734,-2.881]]]},"properties":{"code":"19.02.02.2006","name":"Bantan"}},{"type":"Feature","geometry":{"type":"MultiPolygon","coordinates":[[[[107.8505,-3.1],[107.8395,-3.1085],[107.8555,-3.1125],[107.8505,-3.1]]],[[[107.8105,-3.086],[107.8095,-3.085],[107.8085,-3.085],[107.807,-3.086],[107.8045,-3.0865],[107.8035,-3.086],[107.7975,-3.09],[107.7935,-3.0915],[107.79,-3.095],[107.7895,-3.095],[107.7895,-3.1265],[107.783,-3.136],[107.783,-3.139],[107.7805,-3.1485],[107.7775,-3.1515],[107.7795,-3.155],[107.78,-3.155],[107.7825,-3.159],[107.784,-3.162],[107.784,-3.164],[107.783,-3.167],[107.7835,-3.1685],[107.783,-3.171],[107.7855,-3.1735],[107.7865,-3.175],[107.803,-3.1745],[107.8135,-3.1655],[107.8275,-3.1675],[107.836,-3.1575],[107.8335,-3.138],[107.846,-3.1135],[107.8345,-3.1135],[107.8345,-3.105],[107.825,-3.095],[107.8105,-3.086]]]]},"properties":{"code":"19.02.02.2007","name":"Tanjungrusa"}},{"type":"Feature","geometry":{"type":"Polygon","coordinates":[[[107.742,-3.146],[107.7305,-3.1445],[107.705,-3.1575],[107.687,-3.1565],[107.673,-3.1645],[107.6515,-3.1855],[107.647,-3.1875],[107.644,-3.188],[107.646,-3.189],[107.654,-3.1925],[107.654,-3.2185],[107.6675,-3.2125],[107.6835,-3.204],[107.72,-3.19],[107.7285,-3.1905],[107.735,-3.181],[107.742,-3.146]]]},"properties":{"code":"19.02.02.2008","name":"Mentigi"}},{"type":"Feature","geometry":{"type":"Polygon","coordinates":[[[107.5235,-3.191],[107.517,-3.196],[107.519,-3.2335],[107.5155,-3.249],[107.537,-3.2395],[107.552,-3.2025],[107.533,-3.1985],[107.5235,-3.191]]]},"properties":{"code":"19.02.02.2009","name":"Pulau Seliu"}},{"type":"Feature","geometry":{"type":"Polygon","coordinates":[[[107.2125,-3.315],[107.2095,-3.3175],[107.2105,-3.321],[107.2135,-3.319],[107.2125,-3.315]]]},"properties":{"code":"19.02.02.2010","name":"Pulau Sumedang"}},{"type":"Feature","geometry":{"type":"Polygon","coordinates":[[[107.7515,-3.145],[107.747,-3.144],[107.742,-3.146],[107.735,-3.181],[107.7285,-3.1905],[107.7445,-3.195],[107.763,-3.1925],[107.7865,-3.175],[107.7855,-3.1735],[107.783,-3.171],[107.7835,-3.1685],[107.783,-3.167],[107.784,-3.164],[107.784,-3.162],[107.7825,-3.159],[107.78,-3.155],[107.7785,-3.155],[107.7515,-3.145]]]},"properties":{"code":"19.02.02.2011","name":"Gunung Riting"}},{"type":"Feature","geometry":{"type":"Polygon","coordinates":[[[107.6105,-3.1715],[107.6095,-3.171],[107.609,-3.1705],[107.6025,-3.1845],[107.586,-3.203],[107.595,-3.217],[107.595,-3.2245],[107.6155,-3.2385],[107.622,-3.2345],[107.637,-3.2405],[107.6555,-3.229],[107.6675,-3.2125],[107.654,-3.2185],[107.654,-3.1925],[107.646,-3.189],[107.643,-3.188],[107.6405,-3.186],[107.6385,-3.1865],[107.638,-3.1815],[107.6355,-3.171],[107.634,-3.174],[107.6275,-3.1805],[107.626,-3.179],[107.623,-3.175],[107.6165,-3.1735],[107.6115,-3.1745],[107.6105,-3.174],[107.6095,-3.173],[107.6105,-3.1715]]]},"properties":{"code":"19.02.02.2012","name":"Padang Kandis"}},{"type":"Feature","geometry":{"type":"MultiPolygon","coordinates":[[[[107.491,-2.8215],[107.4805,-2.823],[107.481,-2.838],[107.4935,-2.8275],[107.491,-2.8215]]],[[[107.465,-2.851],[107.4745,-2.845],[107.4735,-2.8295],[107.458,-2.821],[107.4465,-2.8295],[107.4275,-2.8265],[107.41,-2.837],[107.4,-2.839],[107.3875,-2.851],[107.3805,-2.849],[107.371,-2.865],[107.3785,-2.877],[107.403,-2.881],[107.4635,-2.8515],[107.465,-2.851]]],[[[107.417,-2.7915],[107.4045,-2.7985],[107.402,-2.8105],[107.381,-2.817],[107.381,-2.827],[107.3925,-2.833],[107.404,-2.8335],[107.4325,-2.8205],[107.417,-2.7915]]]]},"properties":{"code":"19.02.03.2001","name":"Selat Nasik"}},{"type":"Feature","geometry":{"type":"MultiPolygon","coordinates":[[[[107.469,-2.9255],[107.465,-2.9235],[107.437,-2.9345],[107.425,-2.956],[107.4285,-2.9745],[107.4415,-2.9865],[107.4555,-2.98],[107.4655,-2.966],[107.461,-2.955],[107.4705,-2.9455],[107.469,-2.9255]]],[[[107.4305,-2.93],[107.4355,-2.9215],[107.458,-2.916],[107.47,-2.907],[107.476,-2.891],[107.4735,-2.8795],[107.477,-2.86],[107.4845,-2.8475],[107.465,-2.851],[107.4635,-2.8515],[107.403,-2.881],[107.4305,-2.93]]],[[[107.5035,-2.844],[107.484,-2.864],[107.493,-2.8765],[107.5035,-2.844]]]]},"properties":{"code":"19.02.03.2002","name":"Petaling"}},{"type":"Feature","geometry":{"type":"Polygon","coordinates":[[[107.3785,-2.877],[107.366,-2.882],[107.348,-2.8785],[107.341,-2.886],[107.3555,-2.8945],[107.366,-2.909],[107.3845,-2.918],[107.393,-2.932],[107.412,-2.946],[107.422,-2.933],[107.4305,-2.93],[107.403,-2.881],[107.3785,-2.877]]]},"properties":{"code":"19.02.03.2003","name":"Suak Gual"}},{"type":"Feature","geometry":{"type":"Polygon","coordinates":[[[107.2385,-2.9895],[107.228,-2.991],[107.2295,-3.001],[107.2385,-2.9895]]]},"properties":{"code":"19.02.03.2004","name":"Pulau Gersik"}},{"type":"Feature","geometry":{"type":"Polygon","coordinates":[[[107.834,-2.5545],[107.8275,-2.5395],[107.819,-2.5295],[107.7975,-2.5455],[107.7785,-2.5495],[107.7625,-2.5575],[107.7345,-2.5575],[107.7275,-2.555],[107.726,-2.556],[107.7265,-2.5575],[107.729,-2.56],[107.7325,-2.5745],[107.742,-2.572],[107.758,-2.5815],[107.7785,-2.6],[107.783,-2.61],[107.796,-2.6155],[107.806,-2.599],[107.8265,-2.607],[107.8205,-2.5845],[107.8345,-2.559],[107.834,-2.5545]]]},"properties":{"code":"19.02.04.2001","name":"Sijuk"}},{"type":"Feature","geometry":{"type":"Polygon","coordinates":[[[107.655,-2.667],[107.6495,-2.6665],[107.629,-2.6645],[107.63,-2.6785],[107.625,-2.69],[107.612,-2.7025],[107.622,-2.707],[107.6245,-2.702],[107.6365,-2.698],[107.6435,-2.689],[107.6495,-2.6915],[107.6535,-2.6955],[107.656,-2.698],[107.6565,-2.697],[107.6615,-2.6935],[107.6635,-2.6875],[107.6635,-2.6865],[107.6725,-2.6725],[107.6725,-2.6715],[107.672,-2.6715],[107.6715,-2.672],[107.669,-2.672],[107.661,-2.6655],[107.655,-2.667]]]},"properties":{"code":"19.02.04.2002","name":"Batu Itam"}},{"type":"Feature","geometry":{"type":"Polygon","coordinates":[[[107.6685,-2.6025],[107.6605,-2.6035],[107.6565,-2.6055],[107.6475,-2.606],[107.6435,-2.616],[107.6465,-2.6265],[107.639,-2.647],[107.631,-2.65],[107.629,-2.6645],[107.6495,-2.6665],[107.655,-2.667],[107.661,-2.6655],[107.669,-2.672],[107.6715,-2.672],[107.672,-2.6715],[107.6725,-2.6715],[107.67,-2.6675],[107.6695,-2.665],[107.6725,-2.6605],[107.675,-2.6565],[107.678,-2.653],[107.6815,-2.647],[107.685,-2.632],[107.6855,-2.63],[107.6895,-2.6235],[107.6905,-2.622],[107.691,-2.6215],[107.694,-2.6205],[107.694,-2.6195],[107.6945,-2.6195],[107.6945,-2.6185],[107.6955,-2.617],[107.6955,-2.6155],[107.675,-2.6155],[107.6665,-2.609],[107.6685,-2.6025]]]},"properties":{"code":"19.02.04.2003","name":"Terong"}},{"type":"Feature","geometry":{"type":"Polygon","coordinates":[[[107.7825,-2.7075],[107.784,-2.7055],[107.7755,-2.6885],[107.7525,-2.6765],[107.7505,-2.673],[107.7495,-2.669],[107.748,-2.6685],[107.721,-2.658],[107.72,-2.657],[107.72,-2.654],[107.7185,-2.6505],[107.718,-2.6495],[107.7145,-2.6385],[107.7135,-2.6375],[107.71,-2.6355],[107.699,-2.625],[107.697,-2.624],[107.6955,-2.6225],[107.6945,-2.6205],[107.694,-2.62],[107.694,-2.6205],[107.691,-2.6215],[107.6905,-2.622],[107.6895,-2.6235],[107.6855,-2.63],[107.685,-2.632],[107.6815,-2.647],[107.678,-2.653],[107.675,-2.6565],[107.6725,-2.6605],[107.6695,-2.665],[107.67,-2.6675],[107.671,-2.6705],[107.6725,-2.6715],[107.6725,-2.6725],[107.6635,-2.6865],[107.6635,-2.6875],[107.6615,-2.6935],[107.6685,-2.696],[107.6865,-2.7065],[107.6875,-2.7085],[107.6885,-2.711],[107.6975,-2.7085],[107.6985,-2.709],[107.7005,-2.71],[107.7065,-2.7155],[107.71,-2.7165],[107.726,-2.716],[107.729,-2.718],[107.733,-2.721],[107.736,-2.724],[107.7415,-2.726],[107.7435,-2.7245],[107.763,-2.7125],[107.7745,-2.716],[107.7825,-2.7075]]]},"properties":{"code":"19.02.04.2004","name":"Air Seruk"}},{"type":"Feature","geometry":{"type":"Polygon","coordinates":[[[107.653,-2.5735],[107.651,-2.5725],[107.641,-2.591],[107.6285,-2.5955],[107.627,-2.6035],[107.6435,-2.616],[107.6475,-2.606],[107.6565,-2.6055],[107.6605,-2.6035],[107.6685,-2.6025],[107.6665,-2.609],[107.675,-2.6155],[107.6955,-2.6155],[107.663,-2.5775],[107.6565,-2.5755],[107.653,-2.5735]]]},"properties":{"code":"19.02.04.2005","name":"Tanjung Binga"}},{"type":"Feature","geometry":{"type":"Polygon","coordinates":[[[107.7955,-2.615],[107.783,-2.61],[107.7785,-2.6],[107.758,-2.5815],[107.742,-2.572],[107.7365,-2.574],[107.7215,-2.5935],[107.71,-2.599],[107.6985,-2.6105],[107.6965,-2.614],[107.6955,-2.617],[107.6945,-2.6185],[107.694,-2.62],[107.6945,-2.6205],[107.6955,-2.6225],[107.697,-2.624],[107.699,-2.625],[107.71,-2.6355],[107.7135,-2.6375],[107.7145,-2.6385],[107.718,-2.6495],[107.7185,-2.6505],[107.72,-2.654],[107.72,-2.657],[107.721,-2.658],[107.748,-2.6685],[107.7495,-2.669],[107.7505,-2.673],[107.7525,-2.6765],[107.7755,-2.6885],[107.784,-2.7055],[107.7835,-2.7075],[107.7965,-2.707],[107.797,-2.7065],[107.7975,-2.7045],[107.7965,-2.698],[107.7995,-2.6965],[107.802,-2.6925],[107.805,-2.6865],[107.808,-2.6825],[107.808,-2.677],[107.807,-2.675],[107.8065,-2.6745],[107.8,-2.6695],[107.8025,-2.65],[107.7955,-2.636],[107.7955,-2.615]]]},"properties":{"code":"19.02.04.2006","name":"Air Selumar"}},{"type":"Feature","geometry":{"type":"Polygon","coordinates":[[[107.9385,-2.579],[107.938,-2.566],[107.922,-2.5615],[107.9195,-2.5725],[107.905,-2.5745],[107.8965,-2.5665],[107.884,-2.5675],[107.869,-2.5595],[107.834,-2.5545],[107.8345,-2.559],[107.8205,-2.5845],[107.8265,-2.607],[107.839,-2.624],[107.865,-2.6275],[107.8715,-2.6245],[107.895,-2.633],[107.9275,-2.6215],[107.9465,-2.598],[107.9465,-2.5955],[107.939,-2.5805],[107.9385,-2.579]]]},"properties":{"code":"19.02.04.2007","name":"Sungai Padang"}},{"type":"Feature","geometry":{"type":"Polygon","coordinates":[[[107.699,-2.562],[107.6765,-2.564],[107.6695,-2.5585],[107.658,-2.5595],[107.651,-2.5725],[107.653,-2.5735],[107.6565,-2.5755],[107.663,-2.5775],[107.6955,-2.6155],[107.6965,-2.614],[107.6985,-2.6105],[107.71,-2.599],[107.708,-2.5865],[107.698,-2.5705],[107.6995,-2.5675],[107.699,-2.562]]]},"properties":{"code":"19.02.04.2008","name":"Keciput"}},{"type":"Feature","geometry":{"type":"Polygon","coordinates":[[[107.8265,-2.607],[107.806,-2.599],[107.796,-2.6155],[107.7955,-2.615],[107.7955,-2.636],[107.8025,-2.65],[107.8,-2.6695],[107.8065,-2.6745],[107.807,-2.675],[107.808,-2.677],[107.808,-2.6825],[107.805,-2.6865],[107.802,-2.6925],[107.7995,-2.6965],[107.7965,-2.698],[107.7975,-2.7045],[107.7975,-2.706],[107.8,-2.7085],[107.803,-2.707],[107.8045,-2.707],[107.806,-2.706],[107.8135,-2.7005],[107.828,-2.6805],[107.844,-2.6845],[107.87,-2.6865],[107.88,-2.694],[107.879,-2.692],[107.8835,-2.6685],[107.896,-2.6475],[107.895,-2.633],[107.8715,-2.6245],[107.865,-2.6275],[107.839,-2.624],[107.8265,-2.607]]]},"properties":{"code":"19.02.04.2009","name":"Pelepak Pute"}},{"type":"Feature","geometry":{"type":"Polygon","coordinates":[[[107.7275,-2.555],[107.715,-2.551],[107.699,-2.562],[107.6995,-2.5675],[107.698,-2.5705],[107.708,-2.5865],[107.71,-2.599],[107.7215,-2.5935],[107.7365,-2.574],[107.7325,-2.5745],[107.729,-2.56],[107.7265,-2.5575],[107.726,-2.556],[107.7275,-2.555]]]},"properties":{"code":"19.02.04.2010","name":"Tanjong Tinggi"}},{"type":"Feature","geometry":{"type":"Polygon","coordinates":[[[107.8705,-2.801],[107.867,-2.8],[107.865,-2.7995],[107.862,-2.7975],[107.8575,-2.7955],[107.844,-2.7905],[107.831,-2.7945],[107.799,-2.786],[107.779,-2.791],[107.77,-2.7885],[107.761,-2.79],[107.753,-2.7965],[107.7555,-2.806],[107.7565,-2.808],[107.763,-2.816],[107.7615,-2.8195],[107.762,-2.82],[107.76,-2.8215],[107.7595,-2.822],[107.758,-2.8235],[107.756,-2.8255],[107.754,-2.825],[107.7525,-2.828],[107.74,-2.8365],[107.7395,-2.8375],[107.7395,-2.838],[107.7385,-2.838],[107.739,-2.839],[107.7395,-2.8385],[107.741,-2.841],[107.748,-2.859],[107.734,-2.881],[107.7415,-2.892],[107.7445,-2.892],[107.747,-2.888],[107.784,-2.862],[107.785,-2.8625],[107.778,-2.849],[107.797,-2.836],[107.799,-2.836],[107.8175,-2.845],[107.8395,-2.8465],[107.852,-2.8575],[107.864,-2.852],[107.853,-2.8305],[107.849,-2.824],[107.8495,-2.821],[107.854,-2.8175],[107.8575,-2.8165],[107.86,-2.812],[107.8695,-2.801],[107.8705,-2.801]]]},"properties":{"code":"19.02.05.2001","name":"Badau"}},{"type":"Feature","geometry":{"type":"Polygon","coordinates":[[[107.945,-2.7095],[107.9325,-2.713],[107.9115,-2.7105],[107.893,-2.7],[107.8925,-2.7],[107.869,-2.7105],[107.869,-2.732],[107.8735,-2.742],[107.868,-2.756],[107.8775,-2.772],[107.883,-2.799],[107.8855,-2.799],[107.9015,-2.7975],[107.9065,-2.7985],[107.9215,-2.8005],[107.9405,-2.7985],[107.9555,-2.7905],[107.984,-2.777],[107.9695,-2.7615],[107.9655,-2.736],[107.953,-2.739],[107.945,-2.7325],[107.9515,-2.72],[107.945,-2.7095]]]},"properties":{"code":"19.02.05.2002","name":"Air Batu Buding"}},{"type":"Feature","geometry":{"type":"Polygon","coordinates":[[[107.6015,-2.79],[107.6015,-2.789],[107.6015,-2.7885],[107.587,-2.792],[107.5985,-2.814],[107.5975,-2.8355],[107.5985,-2.8565],[107.58,-2.8795],[107.582,-2.881],[107.5845,-2.882],[107.5945,-2.881],[107.602,-2.883],[107.6035,-2.8845],[107.6145,-2.875],[107.624,-2.874],[107.624,-2.8715],[107.629,-2.8585],[107.642,-2.8485],[107.6475,-2.845],[107.6505,-2.8435],[107.6605,-2.835],[107.662,-2.8335],[107.6625,-2.832],[107.6615,-2.829],[107.661,-2.828],[107.663,-2.8195],[107.6625,-2.8175],[107.663,-2.816],[107.662,-2.8145],[107.661,-2.812],[107.66,-2.8015],[107.6585,-2.7995],[107.6575,-2.801],[107.648,-2.8],[107.6445,-2.799],[107.6425,-2.8],[107.6415,-2.8005],[107.6375,-2.7955],[107.638,-2.794],[107.6385,-2.793],[107.6385,-2.791],[107.6375,-2.7915],[107.634,-2.7925],[107.6285,-2.7925],[107.6235,-2.8],[107.609,-2.803],[107.606,-2.8025],[107.6025,-2.792],[107.6015,-2.79]]]},"properties":{"code":"19.02.05.2003","name":"Sungai Samak"}},{"type":"Feature","geometry":{"type":"Polygon","coordinates":[[[107.88,-2.694],[107.87,-2.6865],[107.844,-2.6845],[107.828,-2.6805],[107.8135,-2.7005],[107.806,-2.706],[107.8045,-2.707],[107.803,-2.707],[107.8,-2.7085],[107.7975,-2.706],[107.797,-2.7065],[107.7965,-2.707],[107.7835,-2.7075],[107.787,-2.7185],[107.7745,-2.736],[107.7715,-2.745],[107.7775,-2.7545],[107.767,-2.7885],[107.77,-2.7885],[107.779,-2.791],[107.799,-2.786],[107.831,-2.7945],[107.844,-2.7905],[107.8575,-2.7955],[107.862,-2.7975],[107.865,-2.7995],[107.867,-2.8],[107.8705,-2.801],[107.883,-2.799],[107.8775,-2.772],[107.868,-2.756],[107.8735,-2.742],[107.869,-2.732],[107.869,-2.7105],[107.8925,-2.7],[107.8915,-2.7],[107.882,-2.6985],[107.88,-2.694]]]},"properties":{"code":"19.02.05.2004","name":"Kacang Butor"}},{"type":"Feature","geometry":{"type":"Polygon","coordinates":[[[107.739,-2.839],[107.7385,-2.839],[107.738,-2.8375],[107.733,-2.824],[107.7145,-2.809],[107.699,-2.801],[107.709,-2.794],[107.703,-2.777],[107.7,-2.7775],[107.6935,-2.777],[107.6895,-2.78],[107.6745,-2.795],[107.669,-2.79],[107.665,-2.789],[107.6625,-2.79],[107.659,-2.798],[107.6585,-2.7995],[107.66,-2.8015],[107.661,-2.812],[107.662,-2.8145],[107.663,-2.816],[107.6625,-2.8175],[107.663,-2.8195],[107.661,-2.828],[107.6615,-2.829],[107.6625,-2.832],[107.662,-2.8335],[107.6605,-2.835],[107.6505,-2.8435],[107.6495,-2.844],[107.6565,-2.8485],[107.6625,-2.8505],[107.6735,-2.849],[107.6835,-2.863],[107.704,-2.851],[107.707,-2.857],[107.729,-2.869],[107.734,-2.881],[107.748,-2.859],[107.741,-2.841],[107.7395,-2.8385],[107.739,-2.839]]]},"properties":{"code":"19.02.05.2005","name":"Cerucuk"}},{"type":"Feature","geometry":{"type":"MultiPolygon","coordinates":[[[[107.5045,-2.974],[107.503,-2.9965],[107.5085,-2.9965],[107.5045,-2.974]]],[[[107.582,-2.881],[107.58,-2.8795],[107.5715,-2.887],[107.55,-2.897],[107.529,-2.921],[107.5315,-2.9315],[107.547,-2.9345],[107.5535,-2.927],[107.568,-2.9245],[107.5785,-2.916],[107.5915,-2.9115],[107.6035,-2.8845],[107.602,-2.883],[107.5945,-2.881],[107.5845,-2.882],[107.582,-2.881]]]]},"properties":{"code":"19.02.05.2006","name":"Pegantungan"}},{"type":"Feature","geometry":{"type":"Polygon","coordinates":[[[107.864,-2.852],[107.852,-2.8575],[107.8395,-2.8465],[107.8175,-2.845],[107.799,-2.836],[107.797,-2.836],[107.778,-2.849],[107.785,-2.8625],[107.8165,-2.878],[107.831,-2.8805],[107.8465,-2.875],[107.8715,-2.878],[107.8655,-2.8545],[107.864,-2.852]]]},"properties":{"code":"19.02.05.2007","name":"Ibul"}}]}