{"type":"FeatureCollection","features":[{"type":"Feature","geometry":{"type":"Polygon","coordinates":[[[103.6875,0.802],[103.6825,0.805],[103.6615,0.8295],[103.6775,0.7975],[103.6895,0.781],[103.702,0.7565],[103.71,0.7525],[103.71,0.755],[103.7005,0.769],[103.691,0.7895],[103.6865,0.796],[103.684,0.7985],[103.6875,0.802]]]},"properties":{"code":"21.02.01.1003","name":"Moro"}},{"type":"Feature","geometry":{"type":"Polygon","coordinates":[[[103.7175,0.7765],[103.7015,0.78],[103.691,0.798],[103.6875,0.802],[103.684,0.7985],[103.6865,0.796],[103.691,0.7895],[103.7005,0.769],[103.71,0.755],[103.71,0.7525],[103.727,0.759],[103.7285,0.766],[103.7175,0.7765]]]},"properties":{"code":"21.02.01.1010","name":"Moro Timur"}},{"type":"Feature","geometry":{"type":"Polygon","coordinates":[[[103.7175,0.7765],[103.707,0.791],[103.704,0.803],[103.68,0.8115],[103.6675,0.83],[103.6615,0.8295],[103.6825,0.805],[103.6875,0.802],[103.691,0.798],[103.7015,0.78],[103.7175,0.7765]]]},"properties":{"code":"21.02.01.2004","name":"Pauh"}},{"type":"Feature","geometry":{"type":"Polygon","coordinates":[[[103.701,0.726],[103.693,0.7105],[103.7055,0.6985],[103.742,0.6875],[103.7345,0.7],[103.732,0.7125],[103.7495,0.736],[103.7205,0.7315],[103.7115,0.7255],[103.701,0.727],[103.701,0.726]]]},"properties":{"code":"21.02.01.2009","name":"Jang"}},{"type":"Feature","geometry":{"type":"Polygon","coordinates":[[[103.6565,0.741],[103.674,0.7125],[103.6795,0.7235],[103.6755,0.736],[103.6565,0.741]]]},"properties":{"code":"21.02.01.2014","name":"Pulau Moro"}},{"type":"Feature","geometry":{"type":"Polygon","coordinates":[[[103.4675,0.6745],[103.447,0.684],[103.432,0.6945],[103.4265,0.721],[103.4245,0.7195],[103.419,0.716],[103.419,0.706],[103.417,0.7005],[103.4385,0.6685],[103.445,0.666],[103.45,0.667],[103.4675,0.6745]]]},"properties":{"code":"21.02.02.1001","name":"Tanjung Batu Barat"}},{"type":"Feature","geometry":{"type":"Polygon","coordinates":[[[103.4675,0.6745],[103.45,0.667],[103.449,0.657],[103.454,0.6545],[103.4645,0.6495],[103.4745,0.67],[103.4675,0.6745]]]},"properties":{"code":"21.02.02.1002","name":"Tanjung Batu Kota"}},{"type":"Feature","geometry":{"type":"Polygon","coordinates":[[[103.45,0.667],[103.445,0.666],[103.443,0.6665],[103.427,0.6545],[103.4205,0.645],[103.4365,0.636],[103.457,0.6375],[103.4645,0.6495],[103.454,0.6545],[103.449,0.657],[103.45,0.667]]]},"properties":{"code":"21.02.02.1009","name":"Gading Sari"}},{"type":"Feature","geometry":{"type":"Polygon","coordinates":[[[103.4885,0.6925],[103.4625,0.71],[103.44,0.721],[103.4365,0.728],[103.43,0.724],[103.4265,0.721],[103.432,0.6945],[103.447,0.684],[103.4675,0.6745],[103.4745,0.67],[103.4885,0.6925]]]},"properties":{"code":"21.02.02.2004","name":"Sungai Sebesi"}},{"type":"Feature","geometry":{"type":"Polygon","coordinates":[[[103.504,0.7185],[103.472,0.7285],[103.4575,0.74],[103.457,0.7475],[103.441,0.7435],[103.434,0.743],[103.414,0.721],[103.418,0.717],[103.419,0.716],[103.4245,0.7195],[103.43,0.724],[103.4365,0.728],[103.44,0.721],[103.4625,0.71],[103.4885,0.6925],[103.504,0.7185]]]},"properties":{"code":"21.02.02.2005","name":"Sungai Ungar"}},{"type":"Feature","geometry":{"type":"Polygon","coordinates":[[[103.443,0.6665],[103.4385,0.6685],[103.417,0.7005],[103.412,0.697],[103.3915,0.6855],[103.401,0.672],[103.3995,0.6495],[103.4205,0.645],[103.427,0.6545],[103.443,0.6665]]]},"properties":{"code":"21.02.02.2006","name":"Lubuk"}},{"type":"Feature","geometry":{"type":"Polygon","coordinates":[[[103.4335,0.9985],[103.4325,0.9995],[103.4325,1.001],[103.431,1.002],[103.425,1.005],[103.422,1.003],[103.4245,0.9975],[103.4315,0.993],[103.4325,0.995],[103.433,0.997],[103.4335,0.9985]]]},"properties":{"code":"21.02.03.1001","name":"Tanjung Balai"}},{"type":"Feature","geometry":{"type":"Polygon","coordinates":[[[103.4425,0.9915],[103.4415,1.003],[103.4365,0.9975],[103.435,0.998],[103.434,0.998],[103.4335,0.9985],[103.433,0.997],[103.4345,0.9965],[103.4355,0.997],[103.4395,0.99],[103.4425,0.9915]]]},"properties":{"code":"21.02.03.1002","name":"Teluk Air"}},{"type":"Feature","geometry":{"type":"Polygon","coordinates":[[[103.422,1.003],[103.4165,1.015],[103.4145,1.0145],[103.4145,1.013],[103.4125,1.0095],[103.4175,0.9985],[103.418,0.9935],[103.4265,0.993],[103.4275,0.9955],[103.4245,0.9975],[103.422,1.003]]]},"properties":{"code":"21.02.03.1003","name":"Sungai Lakam Timur"}},{"type":"Feature","geometry":{"type":"Polygon","coordinates":[[[103.4415,1.003],[103.4335,1.012],[103.425,1.005],[103.431,1.002],[103.4325,1.001],[103.4325,0.9995],[103.434,0.998],[103.435,0.998],[103.4365,0.9975],[103.4415,1.003]]]},"properties":{"code":"21.02.03.1006","name":"Lubuk Semut"}},{"type":"Feature","geometry":{"type":"Polygon","coordinates":[[[103.4425,0.9915],[103.4395,0.99],[103.4355,0.997],[103.4345,0.9965],[103.433,0.997],[103.4325,0.9955],[103.432,0.994],[103.4315,0.993],[103.4275,0.9955],[103.4265,0.9925],[103.437,0.988],[103.4425,0.9915]]]},"properties":{"code":"21.02.03.1007","name":"Tanjung Balai Kota"}},{"type":"Feature","geometry":{"type":"Polygon","coordinates":[[[103.4175,0.9985],[103.4125,1.0095],[103.4105,1.005],[103.4115,0.993],[103.4175,0.9985]]]},"properties":{"code":"21.02.03.1008","name":"Sungai Lakam Barat"}},{"type":"Feature","geometry":{"type":"Polygon","coordinates":[[[103.399,0.9925],[103.3985,0.993],[103.3975,0.9965],[103.398,1.0015],[103.398,1.0035],[103.398,1.004],[103.3955,1.002],[103.394,0.9995],[103.391,0.9995],[103.394,0.993],[103.399,0.9925]]]},"properties":{"code":"21.02.04.1001","name":"Meral Kota"}},{"type":"Feature","geometry":{"type":"Polygon","coordinates":[[[103.4035,1.0195],[103.403,1.02],[103.3965,1.0075],[103.398,1.005],[103.398,1.0045],[103.398,1.0035],[103.398,1.0015],[103.3975,0.9965],[103.3985,0.993],[103.399,0.9925],[103.406,0.992],[103.403,1.0015],[103.4045,1.003],[103.4035,1.0055],[103.4045,1.0065],[103.407,1.01],[103.4035,1.0195]]]},"properties":{"code":"21.02.04.1002","name":"Baran Barat"}},{"type":"Feature","geometry":{"type":"Polygon","coordinates":[[[103.388,1.029],[103.3865,1.0305],[103.3785,1.0375],[103.3755,1.0415],[103.373,1.038],[103.37,1.0305],[103.3665,1.0255],[103.3655,1.023],[103.3685,1.017],[103.37,1.0135],[103.373,1.011],[103.3835,1.008],[103.3875,1.017],[103.387,1.018],[103.3845,1.0195],[103.388,1.029]]]},"properties":{"code":"21.02.04.1003","name":"Sungai Raya"}},{"type":"Feature","geometry":{"type":"Polygon","coordinates":[[[103.4135,1.0115],[103.4085,1.017],[103.4035,1.0195],[103.407,1.01],[103.4045,1.0065],[103.4035,1.0055],[103.4045,1.003],[103.403,1.0015],[103.406,0.992],[103.4115,0.993],[103.4105,1.005],[103.4135,1.0115]]]},"properties":{"code":"21.02.04.1006","name":"Baran Timur"}},{"type":"Feature","geometry":{"type":"Polygon","coordinates":[[[103.393,1.0235],[103.3925,1.0265],[103.392,1.027],[103.389,1.028],[103.388,1.029],[103.3845,1.0195],[103.387,1.018],[103.3875,1.017],[103.3835,1.008],[103.391,0.9995],[103.394,0.9995],[103.3955,1.002],[103.398,1.004],[103.398,1.0045],[103.398,1.005],[103.3965,1.0075],[103.403,1.02],[103.402,1.0205],[103.401,1.022],[103.3975,1.0235],[103.395,1.0235],[103.393,1.0235]]]},"properties":{"code":"21.02.04.1007","name":"Sungai Pasir"}},{"type":"Feature","geometry":{"type":"Polygon","coordinates":[[[103.363,1.0455],[103.363,1.046],[103.362,1.0445],[103.3585,1.042],[103.3545,1.0415],[103.353,1.0385],[103.3425,1.0215],[103.343,1.016],[103.355,1.0045],[103.373,1.011],[103.37,1.0135],[103.3685,1.017],[103.3655,1.023],[103.3665,1.0255],[103.37,1.0305],[103.373,1.038],[103.3755,1.0415],[103.375,1.042],[103.3735,1.0425],[103.3725,1.0425],[103.363,1.0455]]]},"properties":{"code":"21.02.04.1008","name":"Parit Benut"}},{"type":"Feature","geometry":{"type":"Polygon","coordinates":[[[103.4305,1.018],[103.419,1.046],[103.4125,1.0455],[103.407,1.033],[103.406,1.031],[103.407,1.0305],[103.4145,1.0275],[103.4165,1.0285],[103.418,1.0265],[103.4175,1.02],[103.4205,1.0145],[103.4305,1.018]]]},"properties":{"code":"21.02.05.1001","name":"Tebing"}},{"type":"Feature","geometry":{"type":"Polygon","coordinates":[[[103.4125,1.0455],[103.4005,1.051],[103.398,1.0345],[103.3975,1.0325],[103.4015,1.0325],[103.403,1.032],[103.405,1.033],[103.4055,1.0325],[103.4065,1.0325],[103.407,1.033],[103.4125,1.0455]]]},"properties":{"code":"21.02.05.1002","name":"Teluk Uma"}},{"type":"Feature","geometry":{"type":"Polygon","coordinates":[[[103.4335,1.012],[103.4305,1.018],[103.4205,1.0145],[103.418,1.016],[103.415,1.015],[103.4165,1.015],[103.422,1.003],[103.425,1.005],[103.4335,1.012]]]},"properties":{"code":"21.02.05.1003","name":"Kapling"}},{"type":"Feature","geometry":{"type":"Polygon","coordinates":[[[103.3955,1.0555],[103.3825,1.0555],[103.378,1.0555],[103.3765,1.056],[103.3745,1.056],[103.3735,1.0545],[103.375,1.0445],[103.3735,1.0425],[103.3755,1.0415],[103.3785,1.0375],[103.3865,1.0305],[103.3885,1.0285],[103.391,1.027],[103.3915,1.0305],[103.392,1.032],[103.394,1.0345],[103.3965,1.034],[103.398,1.0345],[103.4005,1.051],[103.3955,1.0555]]]},"properties":{"code":"21.02.05.1004","name":"Pamak"}},{"type":"Feature","geometry":{"type":"Polygon","coordinates":[[[103.3975,1.0325],[103.3965,1.034],[103.394,1.0345],[103.392,1.032],[103.3915,1.0305],[103.391,1.027],[103.392,1.027],[103.3925,1.0265],[103.393,1.0235],[103.395,1.0235],[103.3975,1.0235],[103.401,1.022],[103.402,1.0205],[103.4085,1.017],[103.4135,1.0115],[103.4145,1.013],[103.4145,1.0145],[103.415,1.015],[103.418,1.016],[103.4175,1.02],[103.418,1.0265],[103.4165,1.0285],[103.4145,1.0275],[103.407,1.0305],[103.406,1.031],[103.4065,1.0325],[103.4055,1.0325],[103.405,1.033],[103.403,1.032],[103.4015,1.0325],[103.3975,1.0325]]]},"properties":{"code":"21.02.05.1008","name":"Harjosari"}},{"type":"Feature","geometry":{"type":"MultiPolygon","coordinates":[[[[103.3955,1.0555],[103.383,1.0805],[103.377,1.103],[103.3835,1.1165],[103.39,1.1195],[103.3805,1.1345],[103.3595,1.117],[103.357,1.0825],[103.372,1.0685],[103.3735,1.0545],[103.3745,1.056],[103.3765,1.056],[103.378,1.0555],[103.3825,1.0555],[103.3955,1.0555]]],[[[103.3895,1.166],[103.381,1.1615],[103.3795,1.15],[103.394,1.1295],[103.4085,1.129],[103.4105,1.139],[103.3895,1.166]]]]},"properties":{"code":"21.02.05.2007","name":"Pongkar"}},{"type":"Feature","geometry":{"type":"Polygon","coordinates":[[[103.501,0.9195],[103.4915,0.9265],[103.486,0.9135],[103.486,0.898],[103.495,0.874],[103.5025,0.861],[103.509,0.8625],[103.5105,0.877],[103.4985,0.911],[103.501,0.9195]]]},"properties":{"code":"21.02.06.1001","name":"Buru"}},{"type":"Feature","geometry":{"type":"Polygon","coordinates":[[[103.509,0.8625],[103.5285,0.8685],[103.528,0.878],[103.516,0.9025],[103.501,0.9195],[103.4985,0.911],[103.5105,0.877],[103.509,0.8625]]]},"properties":{"code":"21.02.06.1002","name":"Lubuk Puding"}},{"type":"Feature","geometry":{"type":"Polygon","coordinates":[[[103.464,0.882],[103.4575,0.886],[103.435,0.895],[103.411,0.891],[103.435,0.8695],[103.4535,0.859],[103.488,0.855],[103.4825,0.879],[103.472,0.878],[103.467,0.8795],[103.464,0.882]]]},"properties":{"code":"21.02.06.2003","name":"Tanjung Hutan"}},{"type":"Feature","geometry":{"type":"Polygon","coordinates":[[[103.4825,0.879],[103.479,0.9065],[103.475,0.914],[103.4595,0.922],[103.435,0.925],[103.422,0.9115],[103.4065,0.9095],[103.411,0.891],[103.435,0.895],[103.4575,0.886],[103.464,0.882],[103.467,0.8795],[103.472,0.878],[103.4825,0.879]]]},"properties":{"code":"21.02.06.2004","name":"Tanjung Batu Kecil"}},{"type":"Feature","geometry":{"type":"Polygon","coordinates":[[[103.507,0.765],[103.4865,0.794],[103.4725,0.81],[103.4605,0.815],[103.4595,0.8015],[103.4655,0.796],[103.466,0.769],[103.4565,0.766],[103.458,0.7565],[103.4575,0.754],[103.459,0.749],[103.4585,0.7475],[103.4625,0.7475],[103.472,0.7565],[103.472,0.7585],[103.482,0.7705],[103.4955,0.761],[103.5025,0.7595],[103.507,0.765]]]},"properties":{"code":"21.02.07.1012","name":"Tanjung Berlian Kota"}},{"type":"Feature","geometry":{"type":"Polygon","coordinates":[[[103.5025,0.7595],[103.4955,0.761],[103.482,0.7705],[103.472,0.7585],[103.472,0.7565],[103.4625,0.7475],[103.457,0.7475],[103.4575,0.74],[103.472,0.7285],[103.504,0.7185],[103.513,0.7475],[103.507,0.765],[103.5025,0.7595]]]},"properties":{"code":"21.02.07.2003","name":"Sungai Ungar Utara"}},{"type":"Feature","geometry":{"type":"Polygon","coordinates":[[[103.4075,0.856],[103.3965,0.851],[103.3915,0.836],[103.38,0.835],[103.3805,0.8335],[103.38,0.8215],[103.39,0.817],[103.411,0.817],[103.412,0.808],[103.4405,0.799],[103.4455,0.8205],[103.4305,0.829],[103.411,0.846],[103.4075,0.856]]]},"properties":{"code":"21.02.07.2004","name":"Teluk Radang"}},{"type":"Feature","geometry":{"type":"Polygon","coordinates":[[[103.4075,0.856],[103.408,0.8765],[103.399,0.886],[103.394,0.87],[103.3885,0.8615],[103.3785,0.842],[103.38,0.835],[103.3915,0.836],[103.3965,0.851],[103.4075,0.856]]]},"properties":{"code":"21.02.07.2010","name":"Perayun"}},{"type":"Feature","geometry":{"type":"Polygon","coordinates":[[[103.4605,0.815],[103.4455,0.8205],[103.4405,0.799],[103.412,0.808],[103.411,0.817],[103.39,0.817],[103.392,0.8015],[103.3925,0.799],[103.393,0.798],[103.392,0.793],[103.393,0.777],[103.403,0.774],[103.405,0.773],[103.4155,0.767],[103.418,0.7615],[103.418,0.743],[103.4275,0.7435],[103.441,0.7435],[103.457,0.7475],[103.4585,0.7475],[103.459,0.749],[103.4575,0.754],[103.458,0.7565],[103.4565,0.766],[103.466,0.769],[103.4655,0.796],[103.4595,0.8015],[103.4605,0.815]]]},"properties":{"code":"21.02.07.2013","name":"Tanjung Berlian Barat"}},{"type":"Feature","geometry":{"type":"Polygon","coordinates":[[[103.4155,0.767],[103.405,0.773],[103.403,0.774],[103.4025,0.773],[103.394,0.7685],[103.389,0.7685],[103.373,0.761],[103.3705,0.7605],[103.367,0.76],[103.364,0.7605],[103.3615,0.759],[103.3605,0.759],[103.3585,0.7575],[103.351,0.758],[103.351,0.7425],[103.367,0.7135],[103.3745,0.7175],[103.383,0.7315],[103.384,0.741],[103.4035,0.752],[103.4125,0.7575],[103.417,0.7595],[103.418,0.7605],[103.418,0.7615],[103.4155,0.767]]]},"properties":{"code":"21.02.08.1001","name":"Sawang"}},{"type":"Feature","geometry":{"type":"Polygon","coordinates":[[[103.4275,0.7435],[103.418,0.743],[103.418,0.7615],[103.418,0.7605],[103.417,0.7595],[103.4125,0.7575],[103.4035,0.752],[103.384,0.741],[103.383,0.7315],[103.3745,0.7175],[103.367,0.7135],[103.3915,0.6855],[103.412,0.697],[103.419,0.706],[103.419,0.716],[103.418,0.717],[103.414,0.721],[103.434,0.743],[103.4275,0.7435]]]},"properties":{"code":"21.02.08.2002","name":"Sawang Selatan"}},{"type":"Feature","geometry":{"type":"Polygon","coordinates":[[[103.379,0.8025],[103.3775,0.8035],[103.37,0.8005],[103.367,0.799],[103.3655,0.8],[103.364,0.7985],[103.362,0.797],[103.3555,0.796],[103.344,0.802],[103.349,0.786],[103.351,0.758],[103.3585,0.7575],[103.3605,0.759],[103.3615,0.759],[103.364,0.7605],[103.367,0.76],[103.3705,0.7605],[103.373,0.761],[103.389,0.7685],[103.394,0.7685],[103.4025,0.773],[103.403,0.774],[103.393,0.777],[103.392,0.793],[103.393,0.798],[103.3925,0.7995],[103.391,0.799],[103.389,0.799],[103.386,0.8015],[103.381,0.803],[103.379,0.8025]]]},"properties":{"code":"21.02.08.2003","name":"Sawang Laut"}},{"type":"Feature","geometry":{"type":"Polygon","coordinates":[[[103.3875,0.8615],[103.38,0.8575],[103.369,0.864],[103.3635,0.851],[103.352,0.844],[103.349,0.811],[103.344,0.802],[103.3555,0.796],[103.362,0.797],[103.364,0.7985],[103.3655,0.8],[103.367,0.799],[103.37,0.8005],[103.3775,0.8035],[103.379,0.8025],[103.381,0.803],[103.386,0.8015],[103.389,0.799],[103.391,0.799],[103.3925,0.7995],[103.392,0.8015],[103.39,0.817],[103.38,0.8215],[103.3805,0.8335],[103.38,0.835],[103.3785,0.842],[103.3885,0.8615],[103.3875,0.8615]]]},"properties":{"code":"21.02.08.2004","name":"Kundur"}},{"type":"Feature","geometry":{"type":"Polygon","coordinates":[[[103.399,0.886],[103.371,0.895],[103.372,0.878],[103.369,0.864],[103.38,0.8575],[103.3875,0.8615],[103.394,0.87],[103.399,0.886]]]},"properties":{"code":"21.02.08.2005","name":"Gemuruh"}},{"type":"Feature","geometry":{"type":"Polygon","coordinates":[[[103.675,0.6365],[103.673,0.6135],[103.688,0.607],[103.699,0.609],[103.7045,0.62],[103.675,0.6365]]]},"properties":{"code":"21.02.09.2002","name":"Sanglar"}},{"type":"Feature","geometry":{"type":"Polygon","coordinates":[[[103.611,0.5145],[103.6,0.5315],[103.59,0.5365],[103.579,0.5575],[103.5695,0.5515],[103.5765,0.536],[103.588,0.5285],[103.596,0.513],[103.5975,0.492],[103.6045,0.4915],[103.602,0.5075],[103.611,0.5145]]]},"properties":{"code":"21.02.09.2003","name":"Tanjung Kilang"}},{"type":"Feature","geometry":{"type":"Polygon","coordinates":[[[103.634,0.5355],[103.621,0.5305],[103.629,0.518],[103.6365,0.518],[103.634,0.5355]]]},"properties":{"code":"21.02.09.2004","name":"Semembang"}},{"type":"Feature","geometry":{"type":"Polygon","coordinates":[[[103.6045,0.4915],[103.619,0.4955],[103.6225,0.5085],[103.611,0.5145],[103.602,0.5075],[103.6045,0.4915]]]},"properties":{"code":"21.02.09.2005","name":"Telaga Tujuh"}},{"type":"Feature","geometry":{"type":"MultiPolygon","coordinates":[[[[103.3595,1.117],[103.3595,1.1315],[103.3505,1.135],[103.3395,1.117],[103.329,1.114],[103.326,1.0965],[103.3115,1.0875],[103.311,1.073],[103.327,1.066],[103.3295,1.0655],[103.3295,1.065],[103.332,1.0645],[103.34,1.0645],[103.343,1.0655],[103.3435,1.0665],[103.345,1.0675],[103.3445,1.067],[103.343,1.0685],[103.357,1.0825],[103.3595,1.117]]],[[[103.301,1.142],[103.295,1.127],[103.2975,1.114],[103.3065,1.115],[103.3105,1.131],[103.301,1.142]]]]},"properties":{"code":"21.02.10.1001","name":"Pasir Panjang"}},{"type":"Feature","geometry":{"type":"Polygon","coordinates":[[[103.3735,1.0545],[103.372,1.0685],[103.357,1.0825],[103.343,1.0685],[103.3445,1.067],[103.3455,1.0675],[103.346,1.0675],[103.347,1.0665],[103.346,1.061],[103.3485,1.0575],[103.353,1.0545],[103.363,1.047],[103.363,1.0455],[103.3725,1.0425],[103.375,1.0445],[103.3735,1.0545]]]},"properties":{"code":"21.02.10.1002","name":"Darussalam"}},{"type":"Feature","geometry":{"type":"Polygon","coordinates":[[[103.363,1.046],[103.363,1.047],[103.353,1.0545],[103.3485,1.0575],[103.347,1.0585],[103.34,1.0405],[103.3305,1.0325],[103.33,1.017],[103.343,1.016],[103.3425,1.0215],[103.353,1.0385],[103.3545,1.0415],[103.3585,1.042],[103.362,1.0445],[103.363,1.046]]]},"properties":{"code":"21.02.10.2003","name":"Pangke"}},{"type":"Feature","geometry":{"type":"Polygon","coordinates":[[[103.347,1.0665],[103.3455,1.0675],[103.345,1.0675],[103.3435,1.0665],[103.343,1.0655],[103.34,1.0645],[103.332,1.0645],[103.3295,1.065],[103.3295,1.0655],[103.327,1.066],[103.322,1.0665],[103.3105,1.0535],[103.319,1.0335],[103.3305,1.0325],[103.34,1.0405],[103.347,1.0585],[103.346,1.061],[103.347,1.0665]]]},"properties":{"code":"21.02.10.2004","name":"Pangke Barat"}},{"type":"Feature","geometry":{"type":"Polygon","coordinates":[[[103.4905,0.6245],[103.5125,0.658],[103.522,0.689],[103.502,0.6895],[103.489,0.682],[103.4735,0.651],[103.4805,0.6405],[103.4855,0.633],[103.485,0.631],[103.4905,0.6245]]]},"properties":{"code":"21.02.11.1001","name":"Alai"}},{"type":"Feature","geometry":{"type":"Polygon","coordinates":[[[103.485,0.631],[103.4855,0.633],[103.4805,0.6405],[103.4675,0.64],[103.4615,0.621],[103.4905,0.6245],[103.485,0.631]]]},"properties":{"code":"21.02.11.2002","name":"Batu Limau"}},{"type":"Feature","geometry":{"type":"MultiPolygon","coordinates":[[[[103.5845,0.698],[103.5775,0.6875],[103.589,0.678],[103.592,0.6885],[103.5845,0.698]]],[[[103.5035,0.706],[103.4965,0.692],[103.5165,0.694],[103.5125,0.703],[103.5035,0.706]]]]},"properties":{"code":"21.02.11.2003","name":"Ngal"}},{"type":"Feature","geometry":{"type":"Polygon","coordinates":[[[103.4805,0.6405],[103.4735,0.651],[103.4675,0.64],[103.4805,0.6405]]]},"properties":{"code":"21.02.11.2004","name":"Sungai Buluh"}},{"type":"Feature","geometry":{"type":"Polygon","coordinates":[[[103.5005,0.8345],[103.4895,0.848],[103.4695,0.8245],[103.4785,0.818],[103.4885,0.7985],[103.5095,0.781],[103.5145,0.799],[103.493,0.823],[103.5005,0.8345]]]},"properties":{"code":"21.02.12.2001","name":"Sebele"}},{"type":"Feature","geometry":{"type":"Polygon","coordinates":[[[103.5095,0.781],[103.526,0.766],[103.527,0.7785],[103.5325,0.7875],[103.529,0.804],[103.5145,0.799],[103.5095,0.781]]]},"properties":{"code":"21.02.12.2002","name":"Lebuh"}},{"type":"Feature","geometry":{"type":"Polygon","coordinates":[[[103.529,0.804],[103.519,0.817],[103.5115,0.8205],[103.5005,0.8345],[103.493,0.823],[103.5145,0.799],[103.529,0.804]]]},"properties":{"code":"21.02.12.2003","name":"Penarah"}},{"type":"Feature","geometry":{"type":"Polygon","coordinates":[[[103.4895,0.848],[103.472,0.857],[103.4535,0.856],[103.432,0.872],[103.4135,0.877],[103.4115,0.869],[103.42,0.857],[103.4245,0.856],[103.4285,0.8545],[103.4455,0.846],[103.451,0.84],[103.461,0.8335],[103.4695,0.8245],[103.4895,0.848]]]},"properties":{"code":"21.02.12.2004","name":"Sungai Asam"}},{"type":"Feature","geometry":{"type":"Polygon","coordinates":[[[103.463,0.8315],[103.451,0.8395],[103.4455,0.846],[103.436,0.8495],[103.4245,0.856],[103.4205,0.8565],[103.4215,0.8535],[103.42,0.8445],[103.432,0.833],[103.4505,0.83],[103.459,0.825],[103.463,0.8315]]]},"properties":{"code":"21.02.12.2005","name":"Tebias"}},{"type":"Feature","geometry":{"type":"Polygon","coordinates":[[[103.538,0.7955],[103.53,0.776],[103.531,0.7615],[103.5435,0.755],[103.5455,0.769],[103.5525,0.775],[103.5495,0.793],[103.538,0.7955]]]},"properties":{"code":"21.02.12.2006","name":"Degong"}},{"type":"Feature","geometry":{"type":"MultiPolygon","coordinates":[[[[103.457,0.934],[103.4385,0.938],[103.442,0.927],[103.457,0.934]]],[[[103.4715,0.9505],[103.4635,0.959],[103.444,0.9625],[103.427,0.9585],[103.438,0.9415],[103.4575,0.935],[103.4715,0.9505]]]]},"properties":{"code":"21.02.13.2001","name":"Parit"}},{"type":"Feature","geometry":{"type":"Polygon","coordinates":[[[103.4195,0.9485],[103.4105,0.937],[103.4115,0.921],[103.4185,0.9135],[103.429,0.92],[103.439,0.9325],[103.4285,0.9455],[103.4195,0.9485]]]},"properties":{"code":"21.02.13.2002","name":"Tulang"}},{"type":"Feature","geometry":{"type":"MultiPolygon","coordinates":[[[[103.442,0.927],[103.452,0.9235],[103.457,0.934],[103.442,0.927]]],[[[103.4575,0.935],[103.4635,0.925],[103.4785,0.9245],[103.4765,0.9445],[103.4715,0.9505],[103.4575,0.935]]]]},"properties":{"code":"21.02.13.2003","name":"Selat Mendaun"}},{"type":"Feature","geometry":{"type":"MultiPolygon","coordinates":[[[[103.821,0.752],[103.828,0.769],[103.8185,0.789],[103.814,0.809],[103.7965,0.813],[103.7955,0.8275],[103.786,0.8405],[103.7725,0.844],[103.7665,0.853],[103.7555,0.8575],[103.725,0.849],[103.7345,0.8375],[103.7375,0.8275],[103.7535,0.814],[103.758,0.803],[103.787,0.786],[103.82,0.772],[103.821,0.752]]],[[[103.6975,0.8595],[103.6935,0.854],[103.6955,0.8385],[103.7045,0.8405],[103.6975,0.8595]]]]},"properties":{"code":"21.02.14.2001","name":"Sugie"}},{"type":"Feature","geometry":{"type":"MultiPolygon","coordinates":[[[[103.7695,0.876],[103.749,0.8865],[103.731,0.8815],[103.7175,0.8735],[103.72,0.852],[103.725,0.849],[103.7555,0.8575],[103.7665,0.853],[103.767,0.8715],[103.766,0.8725],[103.767,0.8725],[103.7675,0.8735],[103.7695,0.876]]],[[[103.753,0.901],[103.744,0.8965],[103.753,0.8845],[103.7685,0.886],[103.753,0.901]]]]},"properties":{"code":"21.02.14.2002","name":"Niur Permai"}},{"type":"Feature","geometry":{"type":"MultiPolygon","coordinates":[[[[103.7665,0.853],[103.788,0.8665],[103.7695,0.876],[103.7675,0.8735],[103.767,0.8725],[103.766,0.8725],[103.767,0.8715],[103.7665,0.853]]],[[[103.8165,0.8855],[103.811,0.898],[103.811,0.9],[103.809,0.8905],[103.8145,0.883],[103.821,0.8615],[103.828,0.853],[103.829,0.8545],[103.827,0.857],[103.8165,0.8855]]]]},"properties":{"code":"21.02.14.2003","name":"Keban"}},{"type":"Feature","geometry":{"type":"Polygon","coordinates":[[[103.821,0.752],[103.83,0.7525],[103.834,0.764],[103.8345,0.7805],[103.831,0.7925],[103.8355,0.8045],[103.8085,0.847],[103.7955,0.8555],[103.788,0.8665],[103.7665,0.853],[103.7725,0.844],[103.786,0.8405],[103.7955,0.8275],[103.7965,0.813],[103.814,0.809],[103.8185,0.789],[103.828,0.769],[103.821,0.752]]]},"properties":{"code":"21.02.14.2004","name":"Rawa Jaya"}},{"type":"Feature","geometry":{"type":"Polygon","coordinates":[[[103.8955,0.856],[103.8645,0.8805],[103.8425,0.883],[103.823,0.891],[103.811,0.9],[103.811,0.898],[103.8165,0.8855],[103.827,0.857],[103.833,0.8515],[103.8435,0.8465],[103.871,0.8435],[103.8955,0.856]]]},"properties":{"code":"21.02.14.2005","name":"Tanjung Pelanduk"}},{"type":"Feature","geometry":{"type":"Polygon","coordinates":[[[103.8885,0.7925],[103.911,0.783],[103.9175,0.7645],[103.933,0.7675],[103.941,0.7875],[103.928,0.8125],[103.9145,0.8195],[103.909,0.8315],[103.909,0.8225],[103.903,0.808],[103.8885,0.7925]]]},"properties":{"code":"21.02.14.2006","name":"Buluh Patah"}},{"type":"Feature","geometry":{"type":"MultiPolygon","coordinates":[[[[103.909,0.8315],[103.9055,0.818],[103.8885,0.7925],[103.903,0.808],[103.909,0.8225],[103.909,0.8315]]],[[[103.828,0.853],[103.834,0.841],[103.8555,0.821],[103.866,0.8175],[103.884,0.798],[103.896,0.805],[103.904,0.8175],[103.9055,0.8445],[103.8955,0.856],[103.871,0.8435],[103.8435,0.8465],[103.833,0.8515],[103.829,0.8545],[103.828,0.853]]]]},"properties":{"code":"21.02.14.2007","name":"Selat Mie"}}]}