{"type":"FeatureCollection","features":[{"type":"Feature","geometry":{"type":"Polygon","coordinates":[[[106.8585,-6.2255],[106.856,-6.225],[106.8525,-6.227],[106.854,-6.243],[106.8585,-6.243],[106.8585,-6.2255]]]},"properties":{"code":"31.74.01.1001","name":"Tebet Timur"}},{"type":"Feature","geometry":{"type":"Polygon","coordinates":[[[106.8525,-6.227],[106.852,-6.224],[106.8475,-6.2245],[106.8435,-6.2435],[106.854,-6.243],[106.8525,-6.227]]]},"properties":{"code":"31.74.01.1002","name":"Tebet Barat"}},{"type":"Feature","geometry":{"type":"Polygon","coordinates":[[[106.8475,-6.2245],[106.8475,-6.2235],[106.846,-6.221],[106.835,-6.2255],[106.8345,-6.241],[106.8435,-6.2435],[106.8475,-6.2245]]]},"properties":{"code":"31.74.01.1003","name":"Menteng Dalam"}},{"type":"Feature","geometry":{"type":"Polygon","coordinates":[[[106.865,-6.227],[106.8635,-6.225],[106.8585,-6.2255],[106.8585,-6.243],[106.8625,-6.243],[106.866,-6.239],[106.867,-6.238],[106.8655,-6.2355],[106.8655,-6.235],[106.8655,-6.2325],[106.8635,-6.23],[106.865,-6.227]]]},"properties":{"code":"31.74.01.1004","name":"Kebon Baru"}},{"type":"Feature","geometry":{"type":"Polygon","coordinates":[[[106.8565,-6.2165],[106.8565,-6.215],[106.8525,-6.219],[106.8525,-6.221],[106.856,-6.225],[106.8635,-6.225],[106.8655,-6.2245],[106.8635,-6.2215],[106.8635,-6.2165],[106.8625,-6.216],[106.8565,-6.2165]]]},"properties":{"code":"31.74.01.1005","name":"Bukit Duri"}},{"type":"Feature","geometry":{"type":"Polygon","coordinates":[[[106.8525,-6.219],[106.8515,-6.219],[106.846,-6.2155],[106.844,-6.2155],[106.8475,-6.2235],[106.8475,-6.2245],[106.852,-6.224],[106.8525,-6.221],[106.8525,-6.219]]]},"properties":{"code":"31.74.01.1006","name":"Manggarai Selatan"}},{"type":"Feature","geometry":{"type":"Polygon","coordinates":[[[106.849,-6.2075],[106.8485,-6.2075],[106.848,-6.2085],[106.8475,-6.21],[106.846,-6.2155],[106.8515,-6.219],[106.8565,-6.215],[106.8575,-6.214],[106.8575,-6.2125],[106.849,-6.2075]]]},"properties":{"code":"31.74.01.1007","name":"Manggarai"}},{"type":"Feature","geometry":{"type":"Polygon","coordinates":[[[106.828,-6.204],[106.8225,-6.2025],[106.822,-6.208],[106.823,-6.2105],[106.8305,-6.2115],[106.83,-6.2085],[106.828,-6.204]]]},"properties":{"code":"31.74.02.1001","name":"Setia Budi"}},{"type":"Feature","geometry":{"type":"Polygon","coordinates":[[[106.8185,-6.2145],[106.8125,-6.2195],[106.821,-6.2315],[106.8215,-6.2305],[106.821,-6.222],[106.82,-6.2195],[106.8185,-6.2145]]]},"properties":{"code":"31.74.02.1002","name":"Karet Semanggi"}},{"type":"Feature","geometry":{"type":"Polygon","coordinates":[[[106.836,-6.2165],[106.827,-6.2155],[106.8255,-6.216],[106.822,-6.216],[106.821,-6.216],[106.819,-6.2165],[106.82,-6.2195],[106.821,-6.222],[106.8215,-6.2255],[106.835,-6.2255],[106.836,-6.218],[106.836,-6.2165]]]},"properties":{"code":"31.74.02.1003","name":"Karet Kuningan"}},{"type":"Feature","geometry":{"type":"Polygon","coordinates":[[[106.8305,-6.211],[106.8305,-6.2115],[106.823,-6.2105],[106.8185,-6.2145],[106.819,-6.2165],[106.821,-6.216],[106.822,-6.216],[106.8255,-6.216],[106.827,-6.2155],[106.836,-6.2165],[106.8365,-6.215],[106.831,-6.211],[106.8305,-6.211]]]},"properties":{"code":"31.74.02.1004","name":"Karet"}},{"type":"Feature","geometry":{"type":"Polygon","coordinates":[[[106.844,-6.215],[106.837,-6.21],[106.8345,-6.213],[106.8365,-6.215],[106.836,-6.218],[106.835,-6.2255],[106.846,-6.221],[106.844,-6.2155],[106.844,-6.215]]]},"properties":{"code":"31.74.02.1005","name":"Menteng Atas"}},{"type":"Feature","geometry":{"type":"Polygon","coordinates":[[[106.848,-6.2085],[106.847,-6.2085],[106.846,-6.2085],[106.8385,-6.206],[106.835,-6.211],[106.837,-6.21],[106.844,-6.215],[106.8475,-6.21],[106.848,-6.2085]]]},"properties":{"code":"31.74.02.1006","name":"Pasar Manggis"}},{"type":"Feature","geometry":{"type":"Polygon","coordinates":[[[106.8385,-6.206],[106.837,-6.2055],[106.8315,-6.2045],[106.828,-6.204],[106.83,-6.2085],[106.8305,-6.211],[106.831,-6.211],[106.8345,-6.213],[106.835,-6.211],[106.8385,-6.206]]]},"properties":{"code":"31.74.02.1007","name":"Guntur"}},{"type":"Feature","geometry":{"type":"Polygon","coordinates":[[[106.835,-6.2255],[106.8215,-6.2255],[106.8215,-6.2305],[106.821,-6.2315],[106.8345,-6.241],[106.835,-6.2255]]]},"properties":{"code":"31.74.02.1008","name":"Kuningan Timur"}},{"type":"Feature","geometry":{"type":"Polygon","coordinates":[[[106.8345,-6.241],[106.832,-6.2395],[106.8245,-6.24],[106.821,-6.2405],[106.8235,-6.243],[106.8235,-6.2445],[106.8225,-6.2445],[106.826,-6.2455],[106.8345,-6.245],[106.8355,-6.2455],[106.835,-6.2415],[106.8345,-6.241]]]},"properties":{"code":"31.74.03.1001","name":"Mampang Prapatan"}},{"type":"Feature","geometry":{"type":"Polygon","coordinates":[[[106.8235,-6.254],[106.8215,-6.2545],[106.811,-6.2545],[106.811,-6.254],[106.8085,-6.255],[106.8085,-6.2555],[106.809,-6.257],[106.8095,-6.2575],[106.8095,-6.258],[106.81,-6.2595],[106.811,-6.2605],[106.8115,-6.2615],[106.812,-6.262],[106.812,-6.263],[106.8135,-6.266],[106.813,-6.267],[106.814,-6.272],[106.8145,-6.273],[106.819,-6.2735],[106.821,-6.2745],[106.823,-6.2715],[106.8275,-6.2655],[106.827,-6.2655],[106.8265,-6.265],[106.8265,-6.2635],[106.825,-6.261],[106.825,-6.255],[106.824,-6.254],[106.8235,-6.254]]]},"properties":{"code":"31.74.03.1002","name":"Bangka"}},{"type":"Feature","geometry":{"type":"Polygon","coordinates":[[[106.821,-6.2405],[106.8165,-6.241],[106.8105,-6.248],[106.8095,-6.249],[106.81,-6.2505],[106.8105,-6.2505],[106.8095,-6.2515],[106.8085,-6.253],[106.8085,-6.255],[106.811,-6.254],[106.811,-6.2545],[106.8215,-6.2545],[106.8235,-6.2535],[106.823,-6.253],[106.8235,-6.2525],[106.8235,-6.2485],[106.8225,-6.2445],[106.8235,-6.2445],[106.8235,-6.243],[106.821,-6.2405]]]},"properties":{"code":"31.74.03.1003","name":"Pela Mampang"}},{"type":"Feature","geometry":{"type":"Polygon","coordinates":[[[106.8355,-6.2455],[106.8345,-6.245],[106.826,-6.2455],[106.8235,-6.2485],[106.8235,-6.2525],[106.8235,-6.253],[106.827,-6.2525],[106.8355,-6.252],[106.835,-6.2485],[106.8355,-6.2455]]]},"properties":{"code":"31.74.03.1004","name":"Tegal Parang"}},{"type":"Feature","geometry":{"type":"Polygon","coordinates":[[[106.821,-6.2315],[106.817,-6.2265],[106.817,-6.227],[106.8175,-6.232],[106.818,-6.233],[106.8175,-6.234],[106.818,-6.2385],[106.8245,-6.24],[106.832,-6.2395],[106.821,-6.2315]]]},"properties":{"code":"31.74.03.1005","name":"Kuningan Barat"}},{"type":"Feature","geometry":{"type":"Polygon","coordinates":[[[106.8455,-6.2785],[106.8415,-6.2765],[106.8395,-6.279],[106.833,-6.2995],[106.838,-6.3025],[106.84,-6.303],[106.8405,-6.296],[106.8415,-6.2935],[106.8435,-6.288],[106.8455,-6.2785]]]},"properties":{"code":"31.74.04.1001","name":"Pasar Minggu"}},{"type":"Feature","geometry":{"type":"Polygon","coordinates":[[[106.8395,-6.279],[106.8345,-6.28],[106.832,-6.2785],[106.829,-6.2795],[106.8225,-6.294],[106.825,-6.295],[106.831,-6.298],[106.833,-6.2995],[106.8395,-6.279]]]},"properties":{"code":"31.74.04.1002","name":"Jati Padang"}},{"type":"Feature","geometry":{"type":"Polygon","coordinates":[[[106.821,-6.2745],[106.819,-6.2735],[106.8145,-6.273],[106.814,-6.274],[106.8135,-6.276],[106.813,-6.277],[106.8125,-6.2785],[106.812,-6.279],[106.8085,-6.289],[106.8075,-6.29],[106.805,-6.2935],[106.8065,-6.295],[106.807,-6.296],[106.8055,-6.2975],[106.805,-6.2985],[106.806,-6.299],[106.806,-6.3],[106.806,-6.3005],[106.8065,-6.301],[106.8065,-6.3015],[106.807,-6.302],[106.807,-6.303],[106.8085,-6.311],[106.814,-6.3045],[106.8185,-6.2885],[106.8205,-6.277],[106.821,-6.2745]]]},"properties":{"code":"31.74.04.1003","name":"Cilandak Timur"}},{"type":"Feature","geometry":{"type":"Polygon","coordinates":[[[106.829,-6.2795],[106.8275,-6.2775],[106.8205,-6.276],[106.8185,-6.2885],[106.814,-6.3045],[106.815,-6.311],[106.8165,-6.315],[106.8235,-6.3175],[106.8265,-6.3115],[106.8275,-6.3075],[106.8275,-6.306],[106.8265,-6.297],[106.8275,-6.2965],[106.8245,-6.295],[106.8225,-6.294],[106.829,-6.2795]]]},"properties":{"code":"31.74.04.1004","name":"Ragunan"}},{"type":"Feature","geometry":{"type":"Polygon","coordinates":[[[106.852,-6.262],[106.843,-6.2625],[106.8465,-6.2735],[106.8435,-6.288],[106.841,-6.2955],[106.8435,-6.296],[106.849,-6.2975],[106.85,-6.2975],[106.851,-6.298],[106.852,-6.298],[106.8515,-6.2955],[106.854,-6.294],[106.8525,-6.294],[106.854,-6.2905],[106.848,-6.28],[106.8555,-6.2725],[106.857,-6.2725],[106.855,-6.27],[106.8555,-6.2705],[106.856,-6.2685],[106.8555,-6.2665],[106.85,-6.267],[106.852,-6.262]]]},"properties":{"code":"31.74.04.1005","name":"Pejaten Timur"}},{"type":"Feature","geometry":{"type":"Polygon","coordinates":[[[106.8455,-6.2785],[106.8425,-6.266],[106.8285,-6.268],[106.828,-6.266],[106.828,-6.2655],[106.8275,-6.2655],[106.823,-6.2715],[106.8215,-6.272],[106.8205,-6.276],[106.8275,-6.2775],[106.832,-6.2785],[106.8345,-6.28],[106.8415,-6.2765],[106.8455,-6.2785]]]},"properties":{"code":"31.74.04.1006","name":"Pejaten Barat"}},{"type":"Feature","geometry":{"type":"Polygon","coordinates":[[[106.833,-6.2995],[106.831,-6.298],[106.8275,-6.2965],[106.8265,-6.297],[106.8275,-6.306],[106.8275,-6.3075],[106.8265,-6.3115],[106.825,-6.318],[106.8255,-6.3215],[106.829,-6.322],[106.8295,-6.321],[106.8305,-6.321],[106.832,-6.3215],[106.834,-6.3185],[106.8355,-6.3175],[106.8365,-6.312],[106.837,-6.308],[106.8365,-6.3025],[106.8365,-6.302],[106.833,-6.2995]]]},"properties":{"code":"31.74.04.1007","name":"Kebagusan"}},{"type":"Feature","geometry":{"type":"Polygon","coordinates":[[[106.7855,-6.236],[106.7805,-6.2365],[106.7765,-6.243],[106.772,-6.2435],[106.768,-6.243],[106.7685,-6.2435],[106.768,-6.2445],[106.7685,-6.247],[106.7665,-6.249],[106.7665,-6.2515],[106.768,-6.253],[106.768,-6.2555],[106.7685,-6.2555],[106.7695,-6.2535],[106.7775,-6.2535],[106.7875,-6.247],[106.7875,-6.245],[106.787,-6.2445],[106.785,-6.243],[106.7845,-6.24],[106.785,-6.238],[106.7855,-6.236]]]},"properties":{"code":"31.74.05.1001","name":"Kebayoran Lama Utara"}},{"type":"Feature","geometry":{"type":"Polygon","coordinates":[[[106.7725,-6.2595],[106.7725,-6.2605],[106.7715,-6.263],[106.7715,-6.2655],[106.771,-6.2655],[106.7695,-6.267],[106.7715,-6.272],[106.771,-6.274],[106.77,-6.2785],[106.768,-6.28],[106.7695,-6.281],[106.7675,-6.282],[106.766,-6.2845],[106.7675,-6.285],[106.768,-6.2865],[106.767,-6.2875],[106.7665,-6.2895],[106.7665,-6.2905],[106.7675,-6.29],[106.7695,-6.2895],[106.7765,-6.2895],[106.7845,-6.2915],[106.785,-6.291],[106.7885,-6.284],[106.79,-6.281],[106.7905,-6.28],[106.79,-6.2795],[106.79,-6.279],[106.7895,-6.278],[106.7895,-6.276],[106.7915,-6.272],[106.7905,-6.2685],[106.788,-6.2685],[106.787,-6.267],[106.785,-6.264],[106.7845,-6.261],[106.7725,-6.2595]]]},"properties":{"code":"31.74.05.1002","name":"Pondok Pinang"}},{"type":"Feature","geometry":{"type":"Polygon","coordinates":[[[106.7805,-6.2365],[106.7665,-6.2335],[106.7665,-6.234],[106.767,-6.236],[106.767,-6.2365],[106.765,-6.2365],[106.7665,-6.24],[106.768,-6.243],[106.772,-6.2435],[106.7765,-6.243],[106.7805,-6.2365]]]},"properties":{"code":"31.74.05.1003","name":"Cipulir"}},{"type":"Feature","geometry":{"type":"Polygon","coordinates":[[[106.7925,-6.208],[106.789,-6.2085],[106.7875,-6.207],[106.7775,-6.214],[106.7785,-6.2175],[106.7785,-6.225],[106.788,-6.2255],[106.79,-6.223],[106.796,-6.223],[106.797,-6.2185],[106.7925,-6.2095],[106.7925,-6.208]]]},"properties":{"code":"31.74.05.1004","name":"Grogol Utara"}},{"type":"Feature","geometry":{"type":"Polygon","coordinates":[[[106.796,-6.2295],[106.796,-6.2235],[106.796,-6.223],[106.79,-6.223],[106.788,-6.2255],[106.7785,-6.225],[106.766,-6.2275],[106.765,-6.2285],[106.764,-6.2295],[106.7635,-6.2305],[106.7655,-6.2295],[106.766,-6.231],[106.7655,-6.2345],[106.7665,-6.2335],[106.7805,-6.2365],[106.7855,-6.236],[106.796,-6.2295]]]},"properties":{"code":"31.74.05.1005","name":"Grogol Selatan"}},{"type":"Feature","geometry":{"type":"Polygon","coordinates":[[[106.789,-6.251],[106.789,-6.2475],[106.7875,-6.247],[106.7775,-6.2535],[106.7695,-6.2535],[106.7695,-6.2545],[106.7705,-6.255],[106.772,-6.2555],[106.7705,-6.256],[106.7695,-6.257],[106.77,-6.2585],[106.772,-6.258],[106.7725,-6.2595],[106.7845,-6.261],[106.7855,-6.261],[106.789,-6.251]]]},"properties":{"code":"31.74.05.1006","name":"Kebayoran Lama Selatan"}},{"type":"Feature","geometry":{"type":"Polygon","coordinates":[[[106.8125,-6.2785],[106.808,-6.278],[106.8075,-6.2795],[106.797,-6.28],[106.795,-6.2795],[106.7945,-6.2795],[106.79,-6.2795],[106.7905,-6.28],[106.79,-6.281],[106.7885,-6.284],[106.785,-6.291],[106.784,-6.2935],[106.7835,-6.294],[106.7855,-6.2965],[106.785,-6.299],[106.7855,-6.2995],[106.786,-6.3005],[106.788,-6.301],[106.7885,-6.3005],[106.7895,-6.301],[106.7895,-6.302],[106.793,-6.302],[106.7945,-6.302],[106.8005,-6.3025],[106.807,-6.302],[106.806,-6.301],[106.806,-6.2995],[106.806,-6.299],[106.805,-6.2985],[106.8055,-6.2975],[106.807,-6.296],[106.8065,-6.295],[106.805,-6.2935],[106.8075,-6.29],[106.8085,-6.289],[106.812,-6.279],[106.8125,-6.2785]]]},"properties":{"code":"31.74.06.1001","name":"Cilandak Barat"}},{"type":"Feature","geometry":{"type":"Polygon","coordinates":[[[106.7845,-6.2915],[106.7765,-6.2895],[106.7695,-6.2895],[106.7675,-6.29],[106.7665,-6.2905],[106.767,-6.2915],[106.7675,-6.2925],[106.767,-6.295],[106.768,-6.296],[106.773,-6.298],[106.774,-6.299],[106.7735,-6.2995],[106.773,-6.301],[106.7715,-6.3015],[106.771,-6.303],[106.7745,-6.309],[106.7735,-6.31],[106.7765,-6.313],[106.779,-6.316],[106.7795,-6.316],[106.7815,-6.314],[106.7905,-6.303],[106.7895,-6.3025],[106.7895,-6.301],[106.7885,-6.3005],[106.788,-6.301],[106.786,-6.3005],[106.7855,-6.2995],[106.785,-6.299],[106.7855,-6.2965],[106.7835,-6.294],[106.784,-6.2935],[106.7845,-6.2915]]]},"properties":{"code":"31.74.06.1002","name":"Lebak Bulus"}},{"type":"Feature","geometry":{"type":"Polygon","coordinates":[[[106.807,-6.302],[106.8005,-6.3025],[106.7945,-6.302],[106.793,-6.302],[106.7895,-6.302],[106.7905,-6.303],[106.7815,-6.314],[106.783,-6.316],[106.796,-6.315],[106.801,-6.315],[106.804,-6.315],[106.809,-6.314],[106.8085,-6.3135],[106.808,-6.313],[106.808,-6.3115],[106.8085,-6.311],[106.807,-6.303],[106.807,-6.302]]]},"properties":{"code":"31.74.06.1003","name":"Pondok Labu"}},{"type":"Feature","geometry":{"type":"Polygon","coordinates":[[[106.797,-6.264],[106.7965,-6.264],[106.7945,-6.2635],[106.794,-6.2645],[106.7905,-6.264],[106.785,-6.264],[106.787,-6.267],[106.788,-6.2685],[106.7905,-6.2685],[106.7915,-6.272],[106.7895,-6.276],[106.7895,-6.2775],[106.79,-6.278],[106.79,-6.279],[106.79,-6.2795],[106.7945,-6.2795],[106.795,-6.2795],[106.797,-6.28],[106.7975,-6.2765],[106.7975,-6.268],[106.7975,-6.2645],[106.797,-6.264]]]},"properties":{"code":"31.74.06.1004","name":"Gandaria Selatan"}},{"type":"Feature","geometry":{"type":"Polygon","coordinates":[[[106.813,-6.267],[106.81,-6.2665],[106.81,-6.266],[106.802,-6.267],[106.7975,-6.2655],[106.7975,-6.268],[106.7975,-6.2765],[106.8075,-6.2795],[106.808,-6.278],[106.8125,-6.2785],[106.813,-6.277],[106.8135,-6.276],[106.814,-6.274],[106.814,-6.272],[106.813,-6.267]]]},"properties":{"code":"31.74.06.1005","name":"Cipete Selatan"}},{"type":"Feature","geometry":{"type":"Polygon","coordinates":[[[106.806,-6.2475],[106.8075,-6.239],[106.805,-6.24],[106.7985,-6.2425],[106.798,-6.2455],[106.7975,-6.253],[106.806,-6.2475]]]},"properties":{"code":"31.74.07.1001","name":"Melawai"}},{"type":"Feature","geometry":{"type":"Polygon","coordinates":[[[106.7995,-6.229],[106.796,-6.2295],[106.7855,-6.236],[106.785,-6.238],[106.7865,-6.2395],[106.7985,-6.24],[106.7985,-6.2315],[106.799,-6.2305],[106.7995,-6.229]]]},"properties":{"code":"31.74.07.1002","name":"Gunung"}},{"type":"Feature","geometry":{"type":"Polygon","coordinates":[[[106.7985,-6.24],[106.7865,-6.2395],[106.7845,-6.24],[106.785,-6.243],[106.787,-6.2445],[106.7875,-6.245],[106.789,-6.2475],[106.789,-6.251],[106.791,-6.249],[106.7975,-6.2495],[106.798,-6.2455],[106.7985,-6.2425],[106.7985,-6.24]]]},"properties":{"code":"31.74.07.1003","name":"Kramat Pela"}},{"type":"Feature","geometry":{"type":"Polygon","coordinates":[[[106.8145,-6.233],[106.8005,-6.2295],[106.799,-6.2305],[106.7985,-6.2315],[106.805,-6.24],[106.8075,-6.239],[106.8125,-6.233],[106.8145,-6.233]]]},"properties":{"code":"31.74.07.1004","name":"Selong"}},{"type":"Feature","geometry":{"type":"Polygon","coordinates":[[[106.8175,-6.2335],[106.816,-6.233],[106.8125,-6.233],[106.8075,-6.239],[106.818,-6.239],[106.818,-6.2385],[106.8175,-6.234],[106.8175,-6.2335]]]},"properties":{"code":"31.74.07.1005","name":"Rawa Barat"}},{"type":"Feature","geometry":{"type":"Polygon","coordinates":[[[106.817,-6.2265],[106.8125,-6.2195],[106.809,-6.2225],[106.7995,-6.229],[106.8005,-6.2295],[106.8145,-6.233],[106.816,-6.233],[106.8175,-6.2335],[106.818,-6.233],[106.8175,-6.232],[106.817,-6.227],[106.817,-6.2265]]]},"properties":{"code":"31.74.07.1006","name":"Senayan"}},{"type":"Feature","geometry":{"type":"Polygon","coordinates":[[[106.8095,-6.249],[106.809,-6.25],[106.806,-6.2475],[106.7975,-6.253],[106.7975,-6.2495],[106.794,-6.25],[106.797,-6.2565],[106.8005,-6.2575],[106.809,-6.257],[106.8085,-6.2555],[106.8085,-6.253],[106.8095,-6.2515],[106.8105,-6.2505],[106.81,-6.2505],[106.8095,-6.249]]]},"properties":{"code":"31.74.07.1007","name":"Pulo"}},{"type":"Feature","geometry":{"type":"Polygon","coordinates":[[[106.818,-6.239],[106.8075,-6.239],[106.806,-6.2475],[106.809,-6.25],[106.81,-6.249],[106.8105,-6.248],[106.8165,-6.241],[106.818,-6.239]]]},"properties":{"code":"31.74.07.1008","name":"Petogogan"}},{"type":"Feature","geometry":{"type":"Polygon","coordinates":[[[106.794,-6.25],[106.791,-6.249],[106.789,-6.251],[106.7855,-6.261],[106.7905,-6.264],[106.794,-6.2645],[106.7945,-6.2635],[106.7965,-6.264],[106.797,-6.264],[106.7965,-6.2625],[106.7965,-6.2615],[106.797,-6.2565],[106.794,-6.25]]]},"properties":{"code":"31.74.07.1009","name":"Gandaria Utara"}},{"type":"Feature","geometry":{"type":"Polygon","coordinates":[[[106.809,-6.257],[106.8005,-6.2575],[106.7965,-6.2615],[106.7965,-6.2625],[106.7975,-6.264],[106.7975,-6.2655],[106.802,-6.267],[106.81,-6.266],[106.81,-6.2665],[106.813,-6.267],[106.8135,-6.266],[106.812,-6.263],[106.812,-6.262],[106.8115,-6.2615],[106.811,-6.2605],[106.81,-6.2595],[106.8095,-6.258],[106.8095,-6.2575],[106.809,-6.257]]]},"properties":{"code":"31.74.07.1010","name":"Cipete Utara"}},{"type":"Feature","geometry":{"type":"Polygon","coordinates":[[[106.8435,-6.2435],[106.8345,-6.241],[106.835,-6.2415],[106.8355,-6.246],[106.835,-6.2485],[106.8355,-6.252],[106.8375,-6.252],[106.8375,-6.2535],[106.846,-6.2505],[106.847,-6.245],[106.847,-6.2435],[106.8435,-6.2435]]]},"properties":{"code":"31.74.08.1001","name":"Pancoran"}},{"type":"Feature","geometry":{"type":"Polygon","coordinates":[[[106.8495,-6.2555],[106.826,-6.262],[106.8265,-6.2635],[106.8265,-6.265],[106.827,-6.2655],[106.828,-6.2655],[106.828,-6.266],[106.8285,-6.268],[106.8425,-6.266],[106.843,-6.2625],[106.852,-6.262],[106.8525,-6.2615],[106.8515,-6.259],[106.8495,-6.257],[106.8495,-6.2555]]]},"properties":{"code":"31.74.08.1002","name":"Kalibata"}},{"type":"Feature","geometry":{"type":"Polygon","coordinates":[[[106.859,-6.2515],[106.857,-6.2515],[106.8565,-6.251],[106.85,-6.2515],[106.8495,-6.2555],[106.8495,-6.257],[106.8515,-6.259],[106.8525,-6.2615],[106.85,-6.267],[106.8555,-6.2665],[106.857,-6.264],[106.856,-6.2635],[106.8595,-6.257],[106.8605,-6.2545],[106.858,-6.2555],[106.859,-6.2515]]]},"properties":{"code":"31.74.08.1003","name":"Rawajati"}},{"type":"Feature","geometry":{"type":"Polygon","coordinates":[[[106.85,-6.2515],[106.848,-6.2505],[106.846,-6.2505],[106.8375,-6.2535],[106.8375,-6.252],[106.827,-6.2525],[106.8235,-6.253],[106.823,-6.253],[106.8235,-6.2535],[106.8235,-6.254],[106.824,-6.254],[106.825,-6.255],[106.825,-6.261],[106.826,-6.262],[106.8495,-6.2555],[106.85,-6.2515]]]},"properties":{"code":"31.74.08.1004","name":"Duren Tiga"}},{"type":"Feature","geometry":{"type":"Polygon","coordinates":[[[106.859,-6.2465],[106.847,-6.2475],[106.848,-6.2505],[106.8565,-6.251],[106.857,-6.2515],[106.8605,-6.251],[106.861,-6.254],[106.863,-6.253],[106.864,-6.2495],[106.8625,-6.247],[106.862,-6.2465],[106.859,-6.2465]]]},"properties":{"code":"31.74.08.1005","name":"Pengadegan"}},{"type":"Feature","geometry":{"type":"Polygon","coordinates":[[[106.862,-6.2465],[106.862,-6.2455],[106.8625,-6.243],[106.847,-6.2435],[106.847,-6.245],[106.847,-6.2475],[106.859,-6.2465],[106.862,-6.2465]]]},"properties":{"code":"31.74.08.1006","name":"Cikoko"}},{"type":"Feature","geometry":{"type":"Polygon","coordinates":[[[106.825,-6.318],[106.8235,-6.3175],[106.8165,-6.315],[106.815,-6.311],[106.808,-6.3115],[106.808,-6.313],[106.8085,-6.3135],[106.809,-6.314],[106.809,-6.316],[106.8075,-6.319],[106.8075,-6.32],[106.808,-6.321],[106.809,-6.3265],[106.8105,-6.3275],[106.824,-6.3375],[106.8255,-6.336],[106.8285,-6.3355],[106.831,-6.336],[106.835,-6.332],[106.8345,-6.331],[106.8335,-6.331],[106.83,-6.326],[106.8305,-6.323],[106.8315,-6.323],[106.832,-6.3215],[106.8305,-6.321],[106.8295,-6.321],[106.829,-6.322],[106.8255,-6.3215],[106.825,-6.318]]]},"properties":{"code":"31.74.09.1001","name":"Jagakarsa"}},{"type":"Feature","geometry":{"type":"Polygon","coordinates":[[[106.838,-6.3435],[106.8355,-6.3445],[106.835,-6.331],[106.8345,-6.331],[106.835,-6.332],[106.831,-6.336],[106.8285,-6.3355],[106.8255,-6.336],[106.819,-6.342],[106.814,-6.3475],[106.807,-6.3625],[106.807,-6.3635],[106.811,-6.363],[106.824,-6.3555],[106.829,-6.3555],[106.8365,-6.355],[106.836,-6.354],[106.836,-6.353],[106.8385,-6.352],[106.839,-6.352],[106.839,-6.3505],[106.839,-6.3465],[106.839,-6.3435],[106.838,-6.3435]]]},"properties":{"code":"31.74.09.1002","name":"Srengseng Sawah"}},{"type":"Feature","geometry":{"type":"Polygon","coordinates":[[[106.824,-6.3375],[106.8105,-6.3275],[106.809,-6.3265],[106.808,-6.321],[106.8075,-6.321],[106.802,-6.3335],[106.799,-6.3345],[106.799,-6.339],[106.8,-6.34],[106.7995,-6.3415],[106.799,-6.3435],[106.799,-6.344],[106.801,-6.344],[106.8155,-6.345],[106.819,-6.342],[106.824,-6.3375]]]},"properties":{"code":"31.74.09.1003","name":"Ciganjur"}},{"type":"Feature","geometry":{"type":"Polygon","coordinates":[[[106.84,-6.303],[106.838,-6.3025],[106.8365,-6.302],[106.8365,-6.3025],[106.837,-6.308],[106.8365,-6.312],[106.8355,-6.3175],[106.834,-6.3185],[106.8315,-6.322],[106.8305,-6.323],[106.83,-6.326],[106.8335,-6.331],[106.835,-6.331],[106.8355,-6.3445],[106.837,-6.342],[106.8385,-6.3415],[106.8395,-6.3405],[106.84,-6.337],[106.8395,-6.335],[106.84,-6.333],[106.84,-6.332],[106.8425,-6.332],[106.8435,-6.332],[106.843,-6.331],[106.842,-6.331],[106.8415,-6.327],[106.843,-6.327],[106.843,-6.3255],[106.84,-6.323],[106.84,-6.322],[106.8405,-6.3215],[106.84,-6.3185],[106.8425,-6.318],[106.844,-6.318],[106.844,-6.317],[106.8435,-6.316],[106.8385,-6.312],[106.84,-6.303]]]},"properties":{"code":"31.74.09.1004","name":"Lenteng Agung"}},{"type":"Feature","geometry":{"type":"Polygon","coordinates":[[[106.852,-6.298],[106.851,-6.298],[106.85,-6.2975],[106.849,-6.2975],[106.8435,-6.296],[106.841,-6.2955],[106.84,-6.303],[106.8385,-6.312],[106.8435,-6.316],[106.8445,-6.3165],[106.849,-6.316],[106.848,-6.3175],[106.8495,-6.318],[106.852,-6.316],[106.851,-6.315],[106.8515,-6.3135],[106.8545,-6.3135],[106.8555,-6.314],[106.858,-6.312],[106.858,-6.3105],[106.8585,-6.306],[106.858,-6.305],[106.855,-6.3035],[106.855,-6.3015],[106.8525,-6.3],[106.8515,-6.301],[106.8495,-6.299],[106.85,-6.2985],[106.852,-6.299],[106.852,-6.298]]]},"properties":{"code":"31.74.09.1005","name":"Tanjung Barat"}},{"type":"Feature","geometry":{"type":"Polygon","coordinates":[[[106.8155,-6.345],[106.801,-6.344],[106.799,-6.344],[106.7985,-6.3445],[106.796,-6.3465],[106.7945,-6.3465],[106.7925,-6.348],[106.793,-6.349],[106.793,-6.3495],[106.794,-6.351],[106.793,-6.363],[106.7935,-6.364],[106.7945,-6.3645],[106.807,-6.3635],[106.807,-6.3625],[106.814,-6.3475],[106.8155,-6.345]]]},"properties":{"code":"31.74.09.1006","name":"Cipedak"}},{"type":"Feature","geometry":{"type":"Polygon","coordinates":[[[106.7665,-6.249],[106.7605,-6.249],[106.7535,-6.25],[106.752,-6.251],[106.754,-6.2555],[106.7545,-6.2555],[106.755,-6.257],[106.754,-6.2595],[106.7515,-6.262],[106.7525,-6.268],[106.7595,-6.263],[106.761,-6.2615],[106.7655,-6.255],[106.768,-6.253],[106.7665,-6.2515],[106.7665,-6.249]]]},"properties":{"code":"31.74.10.1001","name":"Pesanggrahan"}},{"type":"Feature","geometry":{"type":"Polygon","coordinates":[[[106.7695,-6.2545],[106.7685,-6.2555],[106.768,-6.2555],[106.7655,-6.255],[106.761,-6.2615],[106.7595,-6.263],[106.7515,-6.272],[106.757,-6.275],[106.7585,-6.2775],[106.766,-6.289],[106.767,-6.2875],[106.768,-6.2865],[106.7675,-6.285],[106.766,-6.2845],[106.7675,-6.282],[106.7695,-6.281],[106.768,-6.28],[106.77,-6.2785],[106.771,-6.274],[106.7715,-6.272],[106.7695,-6.267],[106.771,-6.2655],[106.7715,-6.2655],[106.7715,-6.263],[106.7725,-6.2605],[106.772,-6.258],[106.77,-6.2585],[106.7695,-6.257],[106.7705,-6.256],[106.772,-6.2555],[106.7705,-6.255],[106.7695,-6.2545]]]},"properties":{"code":"31.74.10.1002","name":"Bintaro"}},{"type":"Feature","geometry":{"type":"Polygon","coordinates":[[[106.76,-6.2225],[106.7385,-6.2235],[106.7375,-6.224],[106.7445,-6.235],[106.753,-6.2365],[106.7545,-6.2365],[106.7575,-6.2365],[106.7585,-6.2375],[106.7605,-6.2375],[106.7605,-6.2355],[106.76,-6.2345],[106.7595,-6.231],[106.759,-6.231],[106.7585,-6.2315],[106.759,-6.2265],[106.7605,-6.223],[106.76,-6.2225]]]},"properties":{"code":"31.74.10.1003","name":"Petukangan Utara"}},{"type":"Feature","geometry":{"type":"Polygon","coordinates":[[[106.76,-6.238],[106.7585,-6.2375],[106.7575,-6.2365],[106.7545,-6.2365],[106.753,-6.2365],[106.7475,-6.239],[106.748,-6.24],[106.7485,-6.2415],[106.7475,-6.2425],[106.7465,-6.2475],[106.747,-6.2485],[106.748,-6.25],[106.7535,-6.25],[106.7605,-6.249],[106.76,-6.2475],[106.76,-6.238]]]},"properties":{"code":"31.74.10.1004","name":"Petukangan Selatan"}},{"type":"Feature","geometry":{"type":"Polygon","coordinates":[[[106.766,-6.2225],[106.764,-6.2225],[106.7605,-6.223],[106.759,-6.2265],[106.7585,-6.2315],[106.759,-6.231],[106.7595,-6.231],[106.76,-6.2345],[106.7605,-6.2355],[106.7605,-6.2375],[106.76,-6.238],[106.76,-6.2475],[106.7605,-6.249],[106.7665,-6.249],[106.7685,-6.247],[106.768,-6.2445],[106.7685,-6.2435],[106.7665,-6.24],[106.765,-6.2365],[106.767,-6.2365],[106.767,-6.236],[106.7665,-6.234],[106.7655,-6.2345],[106.766,-6.231],[106.7655,-6.2295],[106.7635,-6.2305],[106.764,-6.2295],[106.765,-6.2285],[106.766,-6.227],[106.766,-6.226],[106.7655,-6.223],[106.766,-6.2225]]]},"properties":{"code":"31.74.10.1005","name":"Ulujami"}}]}