{"type":"FeatureCollection","features":[{"type":"Feature","geometry":{"type":"Polygon","coordinates":[[[107.0095,-6.1425],[106.9975,-6.148],[106.9955,-6.148],[106.994,-6.1485],[106.991,-6.151],[106.991,-6.1725],[106.9915,-6.1725],[106.992,-6.1725],[106.994,-6.1725],[106.996,-6.1725],[107.0105,-6.1725],[107.011,-6.1725],[107.011,-6.1705],[107.0115,-6.1685],[107.0145,-6.153],[107.0145,-6.1515],[107.014,-6.1515],[107.0135,-6.1505],[107.0095,-6.1425]]]},"properties":{"code":"32.16.01.1007","name":"Setia Asih"}},{"type":"Feature","geometry":{"type":"Polygon","coordinates":[[[106.9835,-6.095],[106.9825,-6.085],[106.982,-6.085],[106.9805,-6.0855],[106.976,-6.0865],[106.974,-6.0865],[106.9715,-6.0875],[106.97,-6.0905],[106.97,-6.098],[106.97,-6.099],[106.97,-6.106],[106.9705,-6.1075],[106.97,-6.1085],[106.97,-6.1105],[106.9705,-6.126],[106.9705,-6.127],[106.9715,-6.1265],[106.9725,-6.1265],[106.977,-6.1255],[106.983,-6.1255],[106.9915,-6.125],[106.993,-6.12],[106.9835,-6.095]]]},"properties":{"code":"32.16.01.2001","name":"Sagara Makmur"}},{"type":"Feature","geometry":{"type":"Polygon","coordinates":[[[107.0145,-6.0785],[106.995,-6.082],[106.9985,-6.0985],[107.0055,-6.1065],[107.0055,-6.1105],[106.996,-6.123],[106.996,-6.1245],[106.996,-6.125],[107.011,-6.125],[107.0105,-6.1175],[107.0215,-6.1075],[107.0215,-6.106],[107.0235,-6.099],[107.024,-6.097],[107.0215,-6.0895],[107.0205,-6.0875],[107.0205,-6.0865],[107.0195,-6.0855],[107.0185,-6.0845],[107.0145,-6.0785]]]},"properties":{"code":"32.16.01.2002","name":"Segarajaya"}},{"type":"Feature","geometry":{"type":"Polygon","coordinates":[[[106.991,-6.151],[106.985,-6.1485],[106.9775,-6.1495],[106.978,-6.1385],[106.9765,-6.126],[106.9725,-6.1265],[106.9715,-6.1265],[106.9705,-6.127],[106.9705,-6.1275],[106.9705,-6.129],[106.9715,-6.1525],[106.9715,-6.154],[106.9715,-6.1555],[106.9715,-6.1605],[106.9725,-6.1735],[106.973,-6.1735],[106.9725,-6.174],[106.973,-6.175],[106.9775,-6.1755],[106.983,-6.173],[106.991,-6.1725],[106.991,-6.151]]]},"properties":{"code":"32.16.01.2003","name":"Pusaka Rakyat"}},{"type":"Feature","geometry":{"type":"Polygon","coordinates":[[[107.0215,-6.125],[107.011,-6.125],[106.996,-6.125],[106.9955,-6.125],[106.995,-6.128],[106.9955,-6.1305],[106.996,-6.1345],[106.9965,-6.147],[106.9975,-6.148],[107.0095,-6.1425],[107.0195,-6.134],[107.021,-6.1255],[107.0215,-6.125]]]},"properties":{"code":"32.16.01.2004","name":"Pahlawan Setia"}},{"type":"Feature","geometry":{"type":"Polygon","coordinates":[[[106.996,-6.1245],[106.9945,-6.1245],[106.9945,-6.125],[106.992,-6.125],[106.9915,-6.125],[106.983,-6.1255],[106.9765,-6.126],[106.978,-6.1385],[106.9775,-6.1495],[106.985,-6.1485],[106.994,-6.1485],[106.9955,-6.148],[106.9965,-6.147],[106.996,-6.1345],[106.9955,-6.1305],[106.995,-6.128],[106.9955,-6.125],[106.996,-6.1245]]]},"properties":{"code":"32.16.01.2005","name":"Setia Mulya"}},{"type":"Feature","geometry":{"type":"Polygon","coordinates":[[[107.0275,-6.08],[107.027,-6.079],[107.025,-6.0785],[107.0245,-6.0765],[107.022,-6.073],[107.017,-6.0695],[107.0145,-6.0695],[107.013,-6.0705],[107.0145,-6.0785],[107.0185,-6.0845],[107.0195,-6.0855],[107.0205,-6.0865],[107.0205,-6.0875],[107.0215,-6.0895],[107.024,-6.097],[107.0235,-6.099],[107.0215,-6.106],[107.0215,-6.1075],[107.0105,-6.1175],[107.011,-6.125],[107.0215,-6.125],[107.0325,-6.119],[107.0275,-6.08]]]},"properties":{"code":"32.16.01.2006","name":"Samudra Jaya"}},{"type":"Feature","geometry":{"type":"Polygon","coordinates":[[[106.995,-6.082],[106.9825,-6.085],[106.9835,-6.095],[106.993,-6.12],[106.992,-6.125],[106.9945,-6.125],[106.9945,-6.1245],[106.996,-6.1245],[106.996,-6.123],[107.0055,-6.1105],[107.0055,-6.1065],[106.9985,-6.0985],[106.995,-6.082]]]},"properties":{"code":"32.16.01.2008","name":"Pantai Makmur"}},{"type":"Feature","geometry":{"type":"Polygon","coordinates":[[[107.031,-6.1725],[107.03,-6.172],[107.027,-6.172],[107.0255,-6.173],[107.024,-6.1715],[107.022,-6.172],[107.02,-6.1705],[107.012,-6.1695],[107.0115,-6.169],[107.011,-6.1705],[107.011,-6.1725],[107.0105,-6.1725],[107.0075,-6.1895],[107.007,-6.1935],[107.012,-6.193],[107.0125,-6.1955],[107.0175,-6.199],[107.019,-6.1995],[107.0275,-6.1975],[107.028,-6.1965],[107.0305,-6.1875],[107.031,-6.1725]]]},"properties":{"code":"32.16.02.1006","name":"Bahagia"}},{"type":"Feature","geometry":{"type":"Polygon","coordinates":[[[107.0465,-6.1715],[107.031,-6.172],[107.0305,-6.1875],[107.028,-6.1965],[107.0275,-6.198],[107.029,-6.1985],[107.0325,-6.2055],[107.0345,-6.2055],[107.0385,-6.2065],[107.039,-6.206],[107.039,-6.204],[107.0405,-6.203],[107.041,-6.202],[107.041,-6.2],[107.0435,-6.199],[107.042,-6.1965],[107.042,-6.195],[107.0425,-6.192],[107.043,-6.191],[107.044,-6.1895],[107.0445,-6.189],[107.042,-6.1865],[107.0475,-6.1745],[107.0465,-6.1715]]]},"properties":{"code":"32.16.02.1007","name":"Kebalen"}},{"type":"Feature","geometry":{"type":"Polygon","coordinates":[[[107.04,-6.0905],[107.0335,-6.0825],[107.0295,-6.0795],[107.0285,-6.0795],[107.0275,-6.08],[107.0325,-6.119],[107.0215,-6.125],[107.021,-6.1255],[107.0215,-6.1255],[107.031,-6.131],[107.0345,-6.131],[107.0345,-6.1305],[107.039,-6.1305],[107.037,-6.1255],[107.037,-6.125],[107.0375,-6.122],[107.044,-6.1185],[107.044,-6.116],[107.047,-6.111],[107.0465,-6.1095],[107.04,-6.0905]]]},"properties":{"code":"32.16.02.2001","name":"Bunibakti"}},{"type":"Feature","geometry":{"type":"Polygon","coordinates":[[[107.052,-6.0895],[107.0505,-6.089],[107.0475,-6.09],[107.04,-6.0905],[107.0465,-6.1095],[107.047,-6.111],[107.044,-6.116],[107.044,-6.1175],[107.045,-6.118],[107.045,-6.1195],[107.0465,-6.121],[107.049,-6.125],[107.0505,-6.1265],[107.0515,-6.128],[107.0515,-6.129],[107.0565,-6.131],[107.0565,-6.1305],[107.064,-6.124],[107.068,-6.1125],[107.0685,-6.112],[107.0675,-6.1115],[107.055,-6.0995],[107.0535,-6.0965],[107.052,-6.09],[107.052,-6.0895]]]},"properties":{"code":"32.16.02.2002","name":"Muarabakti"}},{"type":"Feature","geometry":{"type":"Polygon","coordinates":[[[107.0565,-6.131],[107.0515,-6.129],[107.0515,-6.128],[107.0505,-6.1265],[107.049,-6.125],[107.0465,-6.121],[107.045,-6.1195],[107.045,-6.118],[107.044,-6.1175],[107.044,-6.1185],[107.0375,-6.122],[107.037,-6.125],[107.037,-6.1255],[107.039,-6.1305],[107.0345,-6.1305],[107.035,-6.135],[107.034,-6.15],[107.041,-6.16],[107.0465,-6.16],[107.0495,-6.14],[107.0575,-6.1345],[107.0565,-6.131]]]},"properties":{"code":"32.16.02.2003","name":"Kedung Pengawas"}},{"type":"Feature","geometry":{"type":"Polygon","coordinates":[[[107.048,-6.0605],[107.047,-6.0615],[107.0385,-6.0635],[107.014,-6.06],[106.988,-6.05],[106.976,-6.0485],[106.9745,-6.055],[106.995,-6.0545],[107.001,-6.069],[107.013,-6.0705],[107.0145,-6.0695],[107.017,-6.0695],[107.022,-6.073],[107.0245,-6.0765],[107.025,-6.0785],[107.027,-6.079],[107.0285,-6.0795],[107.0295,-6.0795],[107.0335,-6.0825],[107.0465,-6.09],[107.0455,-6.078],[107.048,-6.0605]]]},"properties":{"code":"32.16.02.2004","name":"Hurip Jaya"}},{"type":"Feature","geometry":{"type":"Polygon","coordinates":[[[107.0625,-6.068],[107.06,-6.068],[107.06,-6.066],[107.058,-6.065],[107.0585,-6.063],[107.0585,-6.0605],[107.0605,-6.058],[107.059,-6.0535],[107.057,-6.053],[107.0575,-6.0505],[107.058,-6.05],[107.06,-6.049],[107.0595,-6.0475],[107.0555,-6.0475],[107.055,-6.049],[107.0515,-6.056],[107.048,-6.0605],[107.0455,-6.078],[107.0465,-6.09],[107.0505,-6.089],[107.052,-6.0895],[107.054,-6.089],[107.0595,-6.078],[107.061,-6.0755],[107.0615,-6.072],[107.0625,-6.069],[107.0625,-6.068]]]},"properties":{"code":"32.16.02.2005","name":"Pantaihurip"}},{"type":"Feature","geometry":{"type":"Polygon","coordinates":[[[107.041,-6.16],[107.029,-6.1605],[107.0285,-6.15],[107.025,-6.151],[107.0245,-6.153],[107.02,-6.1535],[107.0175,-6.153],[107.0145,-6.153],[107.0115,-6.1685],[107.0115,-6.169],[107.012,-6.1695],[107.02,-6.1705],[107.022,-6.172],[107.024,-6.1715],[107.0255,-6.173],[107.027,-6.172],[107.03,-6.172],[107.031,-6.1725],[107.031,-6.172],[107.0465,-6.1715],[107.0465,-6.1695],[107.0495,-6.1655],[107.048,-6.163],[107.0465,-6.16],[107.041,-6.16]]]},"properties":{"code":"32.16.02.2008","name":"Babelankota"}},{"type":"Feature","geometry":{"type":"Polygon","coordinates":[[[107.0345,-6.131],[107.031,-6.131],[107.0215,-6.1255],[107.021,-6.1255],[107.0195,-6.134],[107.0095,-6.1425],[107.0135,-6.1505],[107.014,-6.1515],[107.0145,-6.1515],[107.0175,-6.153],[107.02,-6.1535],[107.0245,-6.153],[107.025,-6.151],[107.0285,-6.15],[107.029,-6.1605],[107.041,-6.16],[107.034,-6.15],[107.035,-6.135],[107.0345,-6.131]]]},"properties":{"code":"32.16.02.2009","name":"Kedungjaya"}},{"type":"Feature","geometry":{"type":"Polygon","coordinates":[[[107.089,-6.068],[107.0825,-6.065],[107.07,-6.07],[107.0685,-6.0815],[107.073,-6.098],[107.0795,-6.101],[107.0875,-6.116],[107.1,-6.119],[107.1015,-6.113],[107.1015,-6.1125],[107.0955,-6.098],[107.094,-6.0955],[107.096,-6.0945],[107.091,-6.089],[107.089,-6.068]]]},"properties":{"code":"32.16.03.2001","name":"Sukaringin"}},{"type":"Feature","geometry":{"type":"Polygon","coordinates":[[[107.1215,-6.126],[107.1205,-6.1255],[107.11,-6.123],[107.108,-6.123],[107.1035,-6.117],[107.1015,-6.113],[107.1,-6.119],[107.1035,-6.128],[107.1055,-6.131],[107.1115,-6.1515],[107.114,-6.1545],[107.115,-6.1435],[107.124,-6.1475],[107.126,-6.1485],[107.126,-6.1465],[107.1245,-6.145],[107.1235,-6.1435],[107.1225,-6.1415],[107.1205,-6.1395],[107.1195,-6.1365],[107.1195,-6.136],[107.1215,-6.126]]]},"properties":{"code":"32.16.03.2002","name":"Sukabudi"}},{"type":"Feature","geometry":{"type":"Polygon","coordinates":[[[107.1,-6.119],[107.0875,-6.116],[107.086,-6.122],[107.0895,-6.1305],[107.0895,-6.131],[107.0875,-6.143],[107.085,-6.1525],[107.0845,-6.156],[107.0845,-6.157],[107.0845,-6.1585],[107.099,-6.159],[107.104,-6.159],[107.106,-6.159],[107.113,-6.1595],[107.1135,-6.1545],[107.113,-6.1545],[107.1135,-6.154],[107.1115,-6.1515],[107.1055,-6.131],[107.1035,-6.128],[107.1,-6.119]]]},"properties":{"code":"32.16.03.2003","name":"Sukadaya"}},{"type":"Feature","geometry":{"type":"MultiPolygon","coordinates":[[[[107.1255,-6.1445],[107.124,-6.1425],[107.123,-6.143],[107.1245,-6.145],[107.126,-6.1465],[107.126,-6.1475],[107.1265,-6.1475],[107.1265,-6.1455],[107.1255,-6.1445]]],[[[107.1345,-6.12],[107.1335,-6.1185],[107.1355,-6.115],[107.124,-6.128],[107.1215,-6.126],[107.1195,-6.136],[107.1195,-6.137],[107.1225,-6.137],[107.124,-6.137],[107.126,-6.136],[107.1305,-6.1365],[107.139,-6.1355],[107.1395,-6.1335],[107.1345,-6.12]]]]},"properties":{"code":"32.16.03.2004","name":"Sukawangi"}},{"type":"Feature","geometry":{"type":"Polygon","coordinates":[[[107.1425,-6.099],[107.114,-6.0905],[107.111,-6.09],[107.1105,-6.0895],[107.1075,-6.0885],[107.105,-6.097],[107.096,-6.0945],[107.094,-6.0955],[107.0955,-6.098],[107.1015,-6.1125],[107.1035,-6.117],[107.108,-6.123],[107.11,-6.123],[107.1205,-6.1255],[107.124,-6.128],[107.1355,-6.115],[107.14,-6.107],[107.142,-6.1],[107.1425,-6.1],[107.1425,-6.099]]]},"properties":{"code":"32.16.03.2005","name":"Sukakerta"}},{"type":"Feature","geometry":{"type":"Polygon","coordinates":[[[107.07,-6.07],[107.0635,-6.068],[107.0625,-6.068],[107.0625,-6.069],[107.0615,-6.072],[107.061,-6.0755],[107.0595,-6.078],[107.054,-6.089],[107.052,-6.09],[107.0535,-6.0965],[107.055,-6.0995],[107.0675,-6.1115],[107.0685,-6.112],[107.068,-6.1125],[107.064,-6.124],[107.071,-6.1275],[107.0805,-6.1315],[107.085,-6.132],[107.087,-6.133],[107.089,-6.1335],[107.0895,-6.1305],[107.086,-6.122],[107.0875,-6.116],[107.0795,-6.101],[107.073,-6.098],[107.0685,-6.0815],[107.07,-6.07]]]},"properties":{"code":"32.16.03.2006","name":"Sukatenang"}},{"type":"Feature","geometry":{"type":"Polygon","coordinates":[[[107.064,-6.124],[107.0565,-6.1305],[107.0575,-6.1345],[107.0495,-6.14],[107.0465,-6.16],[107.054,-6.1595],[107.0565,-6.159],[107.0665,-6.1575],[107.08,-6.158],[107.0845,-6.1585],[107.0845,-6.157],[107.0845,-6.156],[107.085,-6.1525],[107.0875,-6.143],[107.089,-6.1335],[107.087,-6.133],[107.085,-6.132],[107.0805,-6.1315],[107.071,-6.1275],[107.064,-6.124]]]},"properties":{"code":"32.16.03.2007","name":"Sukamekar"}},{"type":"Feature","geometry":{"type":"Polygon","coordinates":[[[107.164,-6.1535],[107.1525,-6.147],[107.1295,-6.1425],[107.128,-6.141],[107.124,-6.1415],[107.1225,-6.142],[107.123,-6.143],[107.124,-6.1425],[107.1255,-6.1445],[107.1265,-6.1455],[107.1265,-6.1475],[107.126,-6.1475],[107.126,-6.1485],[107.16,-6.1635],[107.164,-6.1535]]]},"properties":{"code":"32.16.04.2001","name":"Sukawijaya"}},{"type":"Feature","geometry":{"type":"Polygon","coordinates":[[[107.1125,-6.1595],[107.0945,-6.1585],[107.094,-6.1605],[107.093,-6.1725],[107.0895,-6.177],[107.089,-6.182],[107.094,-6.183],[107.1035,-6.183],[107.104,-6.194],[107.106,-6.1945],[107.107,-6.195],[107.1115,-6.1945],[107.1145,-6.195],[107.115,-6.1925],[107.113,-6.1855],[107.1125,-6.182],[107.114,-6.171],[107.1145,-6.17],[107.1145,-6.1635],[107.113,-6.163],[107.112,-6.1615],[107.1125,-6.1595]]]},"properties":{"code":"32.16.04.2002","name":"Sukamaju"}},{"type":"Feature","geometry":{"type":"Polygon","coordinates":[[[107.1145,-6.195],[107.1115,-6.1945],[107.107,-6.195],[107.106,-6.1945],[107.104,-6.194],[107.1045,-6.1995],[107.106,-6.2005],[107.1055,-6.201],[107.1065,-6.2005],[107.109,-6.2005],[107.112,-6.2015],[107.1125,-6.2025],[107.116,-6.204],[107.1265,-6.218],[107.127,-6.2155],[107.1285,-6.2105],[107.1265,-6.1995],[107.1245,-6.198],[107.1175,-6.195],[107.1155,-6.195],[107.1145,-6.195]]]},"properties":{"code":"32.16.04.2003","name":"Sukaraja"}},{"type":"Feature","geometry":{"type":"Polygon","coordinates":[[[107.133,-6.1845],[107.1145,-6.1705],[107.114,-6.171],[107.1125,-6.182],[107.113,-6.1855],[107.115,-6.1925],[107.1145,-6.195],[107.1155,-6.195],[107.1175,-6.195],[107.1245,-6.198],[107.1265,-6.1995],[107.133,-6.1845]]]},"properties":{"code":"32.16.04.2004","name":"Sukarapih"}},{"type":"Feature","geometry":{"type":"Polygon","coordinates":[[[107.133,-6.1665],[107.1205,-6.1595],[107.1125,-6.1595],[107.112,-6.1615],[107.113,-6.163],[107.1145,-6.1635],[107.1145,-6.17],[107.1145,-6.1705],[107.133,-6.1845],[107.1345,-6.1815],[107.135,-6.1785],[107.135,-6.172],[107.133,-6.1665]]]},"properties":{"code":"32.16.04.2005","name":"Sukarahayu"}},{"type":"Feature","geometry":{"type":"Polygon","coordinates":[[[107.1605,-6.1375],[107.159,-6.137],[107.1475,-6.137],[107.1395,-6.135],[107.139,-6.1355],[107.1305,-6.1365],[107.126,-6.136],[107.124,-6.137],[107.1225,-6.137],[107.1195,-6.137],[107.1205,-6.1395],[107.1225,-6.1415],[107.1225,-6.142],[107.124,-6.1415],[107.128,-6.141],[107.1295,-6.1425],[107.1525,-6.147],[107.164,-6.1535],[107.169,-6.1525],[107.171,-6.149],[107.171,-6.1485],[107.167,-6.144],[107.163,-6.142],[107.161,-6.142],[107.16,-6.138],[107.1605,-6.1375]]]},"properties":{"code":"32.16.04.2006","name":"Sukamantri"}},{"type":"Feature","geometry":{"type":"Polygon","coordinates":[[[107.126,-6.1485],[107.124,-6.1475],[107.115,-6.1435],[107.114,-6.1545],[107.1135,-6.154],[107.113,-6.1545],[107.1135,-6.1545],[107.113,-6.1595],[107.1205,-6.1595],[107.133,-6.1665],[107.1575,-6.169],[107.1585,-6.163],[107.126,-6.1485]]]},"properties":{"code":"32.16.04.2007","name":"Sukabakti"}},{"type":"Feature","geometry":{"type":"Polygon","coordinates":[[[107.0415,-6.2],[107.041,-6.2],[107.041,-6.202],[107.0405,-6.203],[107.039,-6.204],[107.039,-6.206],[107.0385,-6.2065],[107.0365,-6.206],[107.05,-6.2145],[107.0535,-6.2215],[107.053,-6.223],[107.0525,-6.223],[107.0535,-6.224],[107.059,-6.2205],[107.062,-6.2185],[107.0645,-6.2155],[107.0635,-6.2085],[107.0425,-6.201],[107.0415,-6.2]]]},"properties":{"code":"32.16.05.2001","name":"Satriajaya"}},{"type":"Feature","geometry":{"type":"Polygon","coordinates":[[[107.0775,-6.1985],[107.079,-6.1965],[107.078,-6.1935],[107.077,-6.195],[107.0765,-6.195],[107.076,-6.1965],[107.075,-6.1995],[107.074,-6.201],[107.0725,-6.2015],[107.07,-6.2035],[107.069,-6.204],[107.0685,-6.2035],[107.0675,-6.204],[107.066,-6.2045],[107.0655,-6.2065],[107.0635,-6.2085],[107.0645,-6.2155],[107.0625,-6.2185],[107.0635,-6.222],[107.0625,-6.224],[107.0625,-6.2265],[107.063,-6.2425],[107.0645,-6.2435],[107.0645,-6.243],[107.065,-6.2435],[107.064,-6.243],[107.0655,-6.235],[107.067,-6.222],[107.075,-6.2145],[107.0775,-6.1985]]]},"properties":{"code":"32.16.05.2002","name":"Jejalenjaya"}},{"type":"Feature","geometry":{"type":"Polygon","coordinates":[[[107.056,-6.191],[107.056,-6.194],[107.047,-6.1925],[107.045,-6.191],[107.044,-6.191],[107.043,-6.1905],[107.0425,-6.192],[107.042,-6.195],[107.042,-6.1965],[107.0435,-6.199],[107.0415,-6.2],[107.0425,-6.201],[107.0635,-6.2085],[107.0655,-6.2065],[107.066,-6.2045],[107.0675,-6.204],[107.0685,-6.2035],[107.0685,-6.203],[107.067,-6.203],[107.063,-6.1925],[107.063,-6.192],[107.0605,-6.192],[107.056,-6.191]]]},"properties":{"code":"32.16.05.2003","name":"Satriamekar"}},{"type":"Feature","geometry":{"type":"Polygon","coordinates":[[[107.056,-6.191],[107.0565,-6.189],[107.0595,-6.1585],[107.054,-6.1595],[107.0465,-6.16],[107.048,-6.163],[107.0495,-6.1655],[107.0465,-6.1695],[107.0475,-6.1745],[107.042,-6.1865],[107.0445,-6.189],[107.044,-6.1895],[107.043,-6.1905],[107.044,-6.191],[107.045,-6.191],[107.047,-6.1925],[107.056,-6.194],[107.056,-6.191]]]},"properties":{"code":"32.16.05.2004","name":"Sriamur"}},{"type":"Feature","geometry":{"type":"Polygon","coordinates":[[[107.063,-6.192],[107.063,-6.191],[107.0655,-6.187],[107.0655,-6.184],[107.0655,-6.1775],[107.066,-6.1745],[107.065,-6.163],[107.0655,-6.161],[107.066,-6.1605],[107.0665,-6.1575],[107.0595,-6.1585],[107.0565,-6.189],[107.056,-6.191],[107.0605,-6.192],[107.063,-6.192]]]},"properties":{"code":"32.16.05.2005","name":"Srimukti"}},{"type":"Feature","geometry":{"type":"Polygon","coordinates":[[[107.0805,-6.158],[107.08,-6.158],[107.0665,-6.1575],[107.066,-6.1605],[107.0655,-6.161],[107.065,-6.163],[107.066,-6.1745],[107.0655,-6.1775],[107.0655,-6.184],[107.0655,-6.187],[107.063,-6.191],[107.063,-6.1925],[107.067,-6.203],[107.0685,-6.203],[107.0685,-6.2035],[107.0695,-6.199],[107.0705,-6.196],[107.071,-6.1955],[107.0715,-6.194],[107.0775,-6.1765],[107.0755,-6.17],[107.0765,-6.164],[107.0805,-6.158]]]},"properties":{"code":"32.16.05.2006","name":"Srijaya"}},{"type":"Feature","geometry":{"type":"Polygon","coordinates":[[[107.0845,-6.1585],[107.0805,-6.158],[107.0765,-6.164],[107.0755,-6.17],[107.0775,-6.1765],[107.0715,-6.194],[107.071,-6.1955],[107.0705,-6.196],[107.0695,-6.199],[107.0685,-6.2035],[107.07,-6.2035],[107.0725,-6.2015],[107.074,-6.201],[107.075,-6.1995],[107.076,-6.1965],[107.0765,-6.195],[107.077,-6.195],[107.078,-6.1935],[107.0785,-6.1935],[107.081,-6.188],[107.082,-6.1875],[107.088,-6.182],[107.0895,-6.177],[107.093,-6.1725],[107.094,-6.1605],[107.0845,-6.1585]]]},"properties":{"code":"32.16.05.2007","name":"Srimahi"}},{"type":"Feature","geometry":{"type":"Polygon","coordinates":[[[107.0365,-6.206],[107.0345,-6.2055],[107.0325,-6.209],[107.034,-6.212],[107.031,-6.2155],[107.033,-6.22],[107.0315,-6.2235],[107.031,-6.224],[107.0315,-6.227],[107.0345,-6.229],[107.035,-6.229],[107.0355,-6.229],[107.036,-6.229],[107.0375,-6.2295],[107.0385,-6.2305],[107.039,-6.2325],[107.0425,-6.234],[107.051,-6.2385],[107.052,-6.236],[107.052,-6.2315],[107.0525,-6.231],[107.0505,-6.2255],[107.0505,-6.2245],[107.053,-6.223],[107.0535,-6.2215],[107.05,-6.2145],[107.0365,-6.206]]]},"properties":{"code":"32.16.05.2008","name":"Karangsatria"}},{"type":"Feature","geometry":{"type":"Polygon","coordinates":[[[107.051,-6.259],[107.03,-6.2515],[107.029,-6.253],[107.024,-6.2565],[107.022,-6.2585],[107.02,-6.2635],[107.018,-6.263],[107.017,-6.268],[107.0165,-6.27],[107.0145,-6.2795],[107.0145,-6.2905],[107.016,-6.29],[107.0175,-6.2875],[107.0225,-6.2805],[107.0265,-6.279],[107.0275,-6.278],[107.028,-6.278],[107.028,-6.2775],[107.029,-6.277],[107.0295,-6.2765],[107.0335,-6.27],[107.034,-6.27],[107.036,-6.2685],[107.037,-6.267],[107.0375,-6.267],[107.038,-6.267],[107.0405,-6.266],[107.051,-6.259]]]},"properties":{"code":"32.16.06.1001","name":"Jatimulya"}},{"type":"Feature","geometry":{"type":"Polygon","coordinates":[[[107.0545,-6.2745],[107.049,-6.2725],[107.0365,-6.268],[107.036,-6.2685],[107.034,-6.27],[107.0335,-6.27],[107.0295,-6.2765],[107.029,-6.277],[107.028,-6.2775],[107.029,-6.2795],[107.0395,-6.2875],[107.04,-6.289],[107.0395,-6.3015],[107.0435,-6.3065],[107.046,-6.294],[107.043,-6.2845],[107.045,-6.2825],[107.0545,-6.2745]]]},"properties":{"code":"32.16.06.2002","name":"Lambangsari"}},{"type":"Feature","geometry":{"type":"Polygon","coordinates":[[[107.066,-6.2775],[107.0545,-6.2745],[107.045,-6.2825],[107.043,-6.2845],[107.046,-6.294],[107.0435,-6.3065],[107.0475,-6.3065],[107.0505,-6.3065],[107.0535,-6.306],[107.054,-6.3065],[107.0545,-6.3065],[107.059,-6.2995],[107.06,-6.2805],[107.066,-6.278],[107.066,-6.2775]]]},"properties":{"code":"32.16.06.2003","name":"Lambangjaya"}},{"type":"Feature","geometry":{"type":"Polygon","coordinates":[[[107.073,-6.263],[107.059,-6.2605],[107.0595,-6.2615],[107.0575,-6.265],[107.0555,-6.2665],[107.0545,-6.2745],[107.066,-6.2775],[107.0705,-6.268],[107.072,-6.2675],[107.077,-6.271],[107.0775,-6.271],[107.0775,-6.2685],[107.0785,-6.2685],[107.0785,-6.2675],[107.079,-6.268],[107.079,-6.267],[107.0755,-6.2665],[107.075,-6.2645],[107.075,-6.263],[107.073,-6.263]]]},"properties":{"code":"32.16.06.2004","name":"Tambun"}},{"type":"Feature","geometry":{"type":"Polygon","coordinates":[[[107.059,-6.2615],[107.051,-6.259],[107.0405,-6.266],[107.038,-6.267],[107.0375,-6.267],[107.037,-6.267],[107.0365,-6.2675],[107.0365,-6.268],[107.049,-6.2725],[107.0545,-6.2745],[107.0555,-6.2665],[107.0575,-6.265],[107.059,-6.2615]]]},"properties":{"code":"32.16.06.2005","name":"Setiadarma"}},{"type":"Feature","geometry":{"type":"Polygon","coordinates":[[[107.051,-6.2385],[107.0425,-6.234],[107.0415,-6.246],[107.0305,-6.251],[107.03,-6.2515],[107.051,-6.259],[107.054,-6.2565],[107.054,-6.255],[107.0535,-6.2535],[107.0525,-6.2525],[107.0525,-6.2515],[107.0525,-6.25],[107.053,-6.248],[107.053,-6.245],[107.0525,-6.2425],[107.0525,-6.2415],[107.0505,-6.241],[107.051,-6.2385]]]},"properties":{"code":"32.16.06.2006","name":"Setiamekar"}},{"type":"Feature","geometry":{"type":"Polygon","coordinates":[[[107.0645,-6.253],[107.0525,-6.2515],[107.0525,-6.2525],[107.0535,-6.2535],[107.054,-6.255],[107.054,-6.2565],[107.051,-6.259],[107.059,-6.2615],[107.0595,-6.261],[107.059,-6.2605],[107.073,-6.263],[107.0735,-6.261],[107.074,-6.2605],[107.0765,-6.2595],[107.0765,-6.258],[107.074,-6.2565],[107.074,-6.255],[107.0645,-6.253]]]},"properties":{"code":"32.16.06.2007","name":"Mekarsari"}},{"type":"Feature","geometry":{"type":"Polygon","coordinates":[[[107.0765,-6.258],[107.0775,-6.256],[107.079,-6.2535],[107.082,-6.2465],[107.082,-6.2455],[107.0815,-6.243],[107.081,-6.24],[107.079,-6.244],[107.077,-6.2435],[107.0765,-6.243],[107.0755,-6.243],[107.068,-6.244],[107.0655,-6.2435],[107.065,-6.2435],[107.065,-6.2505],[107.0645,-6.253],[107.074,-6.255],[107.074,-6.2565],[107.0765,-6.258]]]},"properties":{"code":"32.16.06.2008","name":"Tridaya Sakti"}},{"type":"Feature","geometry":{"type":"Polygon","coordinates":[[[107.065,-6.2435],[107.063,-6.2425],[107.0625,-6.2265],[107.0625,-6.224],[107.0635,-6.222],[107.0625,-6.2185],[107.062,-6.2185],[107.059,-6.2205],[107.0535,-6.224],[107.0525,-6.223],[107.0505,-6.2255],[107.0525,-6.231],[107.052,-6.2315],[107.052,-6.236],[107.0505,-6.241],[107.0525,-6.2415],[107.0525,-6.2425],[107.053,-6.245],[107.053,-6.248],[107.0525,-6.25],[107.0525,-6.2515],[107.0645,-6.253],[107.065,-6.2505],[107.065,-6.2435]]]},"properties":{"code":"32.16.06.2009","name":"Mangunjaya"}},{"type":"Feature","geometry":{"type":"Polygon","coordinates":[[[107.083,-6.2085],[107.0775,-6.1985],[107.075,-6.2145],[107.067,-6.222],[107.0655,-6.235],[107.064,-6.243],[107.065,-6.2435],[107.0655,-6.2435],[107.068,-6.244],[107.0755,-6.243],[107.0765,-6.243],[107.077,-6.2435],[107.079,-6.244],[107.081,-6.24],[107.082,-6.239],[107.082,-6.2375],[107.0835,-6.2365],[107.0855,-6.233],[107.0855,-6.231],[107.0875,-6.2305],[107.091,-6.23],[107.091,-6.226],[107.088,-6.2245],[107.0875,-6.2225],[107.083,-6.2085]]]},"properties":{"code":"32.16.06.2010","name":"Sumberjaya"}},{"type":"Feature","geometry":{"type":"Polygon","coordinates":[[[107.1035,-6.2315],[107.091,-6.226],[107.091,-6.23],[107.0875,-6.2305],[107.0855,-6.231],[107.0855,-6.233],[107.0835,-6.2365],[107.082,-6.2375],[107.082,-6.239],[107.081,-6.24],[107.0815,-6.243],[107.082,-6.2455],[107.082,-6.2465],[107.079,-6.2535],[107.0775,-6.256],[107.0765,-6.2595],[107.074,-6.2605],[107.0735,-6.261],[107.073,-6.263],[107.075,-6.263],[107.075,-6.2645],[107.0755,-6.2665],[107.0805,-6.2675],[107.083,-6.2685],[107.085,-6.2615],[107.092,-6.2605],[107.092,-6.2595],[107.094,-6.2575],[107.095,-6.2525],[107.0925,-6.242],[107.1025,-6.24],[107.1035,-6.2315]]]},"properties":{"code":"32.16.07.1001","name":"Wanasari"}},{"type":"Feature","geometry":{"type":"Polygon","coordinates":[[[107.1205,-6.239],[107.1035,-6.2315],[107.1025,-6.24],[107.0925,-6.242],[107.095,-6.2525],[107.094,-6.2575],[107.092,-6.2595],[107.092,-6.2605],[107.1055,-6.2585],[107.1055,-6.2545],[107.1065,-6.2515],[107.117,-6.2525],[107.129,-6.2475],[107.13,-6.243],[107.1205,-6.239]]]},"properties":{"code":"32.16.07.2002","name":"Wanajaya"}},{"type":"Feature","geometry":{"type":"Polygon","coordinates":[[[107.1265,-6.218],[107.116,-6.204],[107.114,-6.2035],[107.1135,-6.2035],[107.1135,-6.206],[107.1115,-6.2055],[107.1085,-6.2055],[107.106,-6.2045],[107.11,-6.2125],[107.1035,-6.2315],[107.1205,-6.239],[107.1255,-6.231],[107.1255,-6.23],[107.123,-6.2275],[107.1225,-6.225],[107.1235,-6.2225],[107.1255,-6.2225],[107.1265,-6.218]]]},"properties":{"code":"32.16.07.2003","name":"Kertamukti"}},{"type":"Feature","geometry":{"type":"Polygon","coordinates":[[[107.106,-6.2045],[107.1035,-6.2035],[107.101,-6.2035],[107.098,-6.204],[107.0965,-6.201],[107.089,-6.198],[107.083,-6.2085],[107.0875,-6.2225],[107.088,-6.2245],[107.1035,-6.2315],[107.11,-6.2125],[107.106,-6.2045]]]},"properties":{"code":"32.16.07.2004","name":"Muktiwari"}},{"type":"Feature","geometry":{"type":"Polygon","coordinates":[[[107.104,-6.194],[107.1035,-6.183],[107.094,-6.183],[107.089,-6.182],[107.088,-6.182],[107.082,-6.1875],[107.081,-6.188],[107.0785,-6.1935],[107.078,-6.1935],[107.083,-6.2085],[107.089,-6.198],[107.0965,-6.201],[107.098,-6.204],[107.101,-6.2035],[107.1035,-6.2035],[107.1085,-6.2055],[107.1115,-6.2055],[107.1135,-6.206],[107.1135,-6.2035],[107.114,-6.2035],[107.1125,-6.2025],[107.112,-6.2015],[107.109,-6.2005],[107.1065,-6.2005],[107.1055,-6.201],[107.106,-6.2005],[107.1045,-6.1995],[107.104,-6.194]]]},"properties":{"code":"32.16.07.2005","name":"Sarimukti"}},{"type":"Feature","geometry":{"type":"Polygon","coordinates":[[[107.1505,-6.2345],[107.1475,-6.232],[107.1375,-6.2315],[107.1375,-6.2265],[107.126,-6.22],[107.1255,-6.2225],[107.1235,-6.2225],[107.1225,-6.225],[107.123,-6.2275],[107.1255,-6.23],[107.1255,-6.231],[107.1205,-6.239],[107.1455,-6.2495],[107.1485,-6.2485],[107.1495,-6.2475],[107.152,-6.2455],[107.153,-6.2445],[107.15,-6.237],[107.1505,-6.2345]]]},"properties":{"code":"32.16.07.2006","name":"Sukajaya"}},{"type":"Feature","geometry":{"type":"Polygon","coordinates":[[[107.0825,-6.268],[107.0805,-6.2675],[107.079,-6.267],[107.079,-6.268],[107.0785,-6.2675],[107.0785,-6.2685],[107.0775,-6.2685],[107.0775,-6.271],[107.077,-6.271],[107.072,-6.2675],[107.0705,-6.268],[107.066,-6.2775],[107.066,-6.278],[107.06,-6.2805],[107.059,-6.2995],[107.0545,-6.3065],[107.059,-6.3065],[107.066,-6.3065],[107.069,-6.306],[107.069,-6.3055],[107.0695,-6.3035],[107.07,-6.3035],[107.0705,-6.3025],[107.07,-6.302],[107.069,-6.3015],[107.068,-6.3005],[107.07,-6.2975],[107.069,-6.294],[107.0705,-6.287],[107.0795,-6.2845],[107.083,-6.275],[107.083,-6.2735],[107.0815,-6.2725],[107.0805,-6.272],[107.081,-6.27],[107.083,-6.269],[107.0825,-6.268]]]},"properties":{"code":"32.16.07.2007","name":"Cibuntu"}},{"type":"Feature","geometry":{"type":"Polygon","coordinates":[[[107.1055,-6.2585],[107.085,-6.2615],[107.083,-6.2685],[107.1065,-6.273],[107.1085,-6.2715],[107.1055,-6.2585]]]},"properties":{"code":"32.16.08.1008","name":"Telaga Asih"}},{"type":"Feature","geometry":{"type":"Polygon","coordinates":[[[107.129,-6.2475],[107.117,-6.2525],[107.1065,-6.2515],[107.1055,-6.2545],[107.1055,-6.2585],[107.1085,-6.2715],[107.112,-6.271],[107.1195,-6.2695],[107.12,-6.269],[107.1215,-6.2675],[107.1265,-6.2665],[107.129,-6.256],[107.1285,-6.254],[107.129,-6.2515],[107.129,-6.2475]]]},"properties":{"code":"32.16.08.2001","name":"Telagamurni"}},{"type":"Feature","geometry":{"type":"Polygon","coordinates":[[[107.095,-6.31],[107.094,-6.3085],[107.0695,-6.307],[107.066,-6.3065],[107.059,-6.3065],[107.0565,-6.307],[107.0575,-6.3075],[107.0565,-6.31],[107.0565,-6.312],[107.0565,-6.314],[107.062,-6.316],[107.076,-6.3205],[107.079,-6.3175],[107.081,-6.3165],[107.095,-6.31]]]},"properties":{"code":"32.16.08.2002","name":"Mekarwangi"}},{"type":"Feature","geometry":{"type":"Polygon","coordinates":[[[107.1145,-6.3145],[107.1065,-6.312],[107.097,-6.305],[107.095,-6.3055],[107.096,-6.3075],[107.095,-6.31],[107.081,-6.3165],[107.079,-6.3175],[107.076,-6.3205],[107.076,-6.3215],[107.077,-6.326],[107.079,-6.3265],[107.084,-6.323],[107.102,-6.3295],[107.1045,-6.327],[107.106,-6.3255],[107.1055,-6.324],[107.109,-6.3235],[107.1095,-6.3245],[107.11,-6.3235],[107.109,-6.3215],[107.1075,-6.32],[107.109,-6.319],[107.1115,-6.3185],[107.116,-6.317],[107.1145,-6.3145]]]},"properties":{"code":"32.16.08.2003","name":"Jatiwangi"}},{"type":"Feature","geometry":{"type":"Polygon","coordinates":[[[107.115,-6.3005],[107.1045,-6.2945],[107.1,-6.292],[107.0995,-6.293],[107.0985,-6.2935],[107.098,-6.2945],[107.097,-6.2955],[107.0945,-6.2995],[107.0945,-6.3035],[107.095,-6.3055],[107.097,-6.305],[107.1065,-6.312],[107.116,-6.314],[107.1175,-6.315],[107.1175,-6.3145],[107.1175,-6.3075],[107.116,-6.3065],[107.117,-6.306],[107.1155,-6.3035],[107.1145,-6.303],[107.114,-6.301],[107.115,-6.3005]]]},"properties":{"code":"32.16.08.2004","name":"Danau Indah"}},{"type":"Feature","geometry":{"type":"Polygon","coordinates":[[[107.092,-6.2815],[107.0725,-6.2995],[107.072,-6.301],[107.0705,-6.302],[107.0705,-6.303],[107.07,-6.3035],[107.0695,-6.3035],[107.069,-6.3055],[107.069,-6.306],[107.0695,-6.307],[107.094,-6.3085],[107.096,-6.3075],[107.095,-6.3055],[107.0945,-6.3035],[107.0945,-6.2995],[107.097,-6.2955],[107.098,-6.2945],[107.0985,-6.2935],[107.0995,-6.293],[107.1,-6.292],[107.0965,-6.2905],[107.092,-6.2815]]]},"properties":{"code":"32.16.08.2005","name":"Gandamekar"}},{"type":"Feature","geometry":{"type":"Polygon","coordinates":[[[107.083,-6.2685],[107.0825,-6.268],[107.083,-6.269],[107.081,-6.27],[107.0805,-6.272],[107.0815,-6.2725],[107.083,-6.2735],[107.083,-6.275],[107.0795,-6.2845],[107.0705,-6.287],[107.069,-6.294],[107.07,-6.2975],[107.068,-6.3005],[107.069,-6.3015],[107.07,-6.302],[107.0705,-6.3025],[107.0705,-6.302],[107.072,-6.301],[107.0725,-6.2995],[107.092,-6.2815],[107.094,-6.275],[107.091,-6.274],[107.091,-6.271],[107.083,-6.2685]]]},"properties":{"code":"32.16.08.2006","name":"Gandasari"}},{"type":"Feature","geometry":{"type":"Polygon","coordinates":[[[107.1195,-6.2745],[107.1185,-6.274],[107.119,-6.274],[107.119,-6.2715],[107.1205,-6.2695],[107.112,-6.271],[107.1065,-6.273],[107.091,-6.271],[107.091,-6.274],[107.094,-6.275],[107.092,-6.2815],[107.0965,-6.2905],[107.1025,-6.2935],[107.115,-6.3005],[107.115,-6.3],[107.1145,-6.2985],[107.1155,-6.2975],[107.119,-6.2905],[107.1195,-6.2845],[107.117,-6.278],[107.1175,-6.276],[107.1195,-6.2745]]]},"properties":{"code":"32.16.08.2007","name":"Sukadanau"}},{"type":"Feature","geometry":{"type":"Polygon","coordinates":[[[107.1455,-6.2495],[107.13,-6.243],[107.129,-6.2515],[107.1285,-6.254],[107.129,-6.256],[107.1265,-6.2665],[107.1215,-6.2675],[107.12,-6.269],[107.1195,-6.2695],[107.1205,-6.2695],[107.119,-6.2715],[107.119,-6.274],[107.1185,-6.274],[107.12,-6.2745],[107.137,-6.268],[107.137,-6.2665],[107.1385,-6.2645],[107.1415,-6.26],[107.142,-6.259],[107.141,-6.2565],[107.1415,-6.2545],[107.1425,-6.2535],[107.143,-6.252],[107.1435,-6.252],[107.145,-6.25],[107.1455,-6.2495]]]},"properties":{"code":"32.16.08.2009","name":"Kalijaya"}},{"type":"Feature","geometry":{"type":"Polygon","coordinates":[[[107.076,-6.3205],[107.062,-6.316],[107.0615,-6.316],[107.061,-6.317],[107.06,-6.3185],[107.0535,-6.3265],[107.0445,-6.3365],[107.0415,-6.337],[107.0415,-6.3375],[107.0415,-6.3385],[107.042,-6.3385],[107.0425,-6.337],[107.044,-6.3365],[107.044,-6.3375],[107.044,-6.338],[107.042,-6.34],[107.043,-6.3395],[107.045,-6.3395],[107.053,-6.3425],[107.053,-6.341],[107.054,-6.3415],[107.0675,-6.3345],[107.068,-6.3345],[107.0775,-6.329],[107.078,-6.328],[107.0785,-6.326],[107.077,-6.326],[107.076,-6.3215],[107.076,-6.3205]]]},"properties":{"code":"32.16.08.2010","name":"Telajung"}},{"type":"Feature","geometry":{"type":"Polygon","coordinates":[[[107.102,-6.3295],[107.084,-6.323],[107.079,-6.3265],[107.0785,-6.326],[107.078,-6.328],[107.0775,-6.329],[107.068,-6.3345],[107.0675,-6.335],[107.077,-6.347],[107.079,-6.347],[107.085,-6.343],[107.0855,-6.345],[107.086,-6.344],[107.102,-6.333],[107.1025,-6.3315],[107.102,-6.3295]]]},"properties":{"code":"32.16.08.2011","name":"Cikedokan"}},{"type":"Feature","geometry":{"type":"Polygon","coordinates":[[[107.159,-6.258],[107.149,-6.2565],[107.1485,-6.2565],[107.144,-6.256],[107.1435,-6.2585],[107.143,-6.2615],[107.147,-6.263],[107.1485,-6.27],[107.1505,-6.2685],[107.1505,-6.2675],[107.159,-6.258]]]},"properties":{"code":"32.16.09.2001","name":"Cikarangkota"}},{"type":"Feature","geometry":{"type":"Polygon","coordinates":[[[107.144,-6.256],[107.1415,-6.256],[107.141,-6.2565],[107.142,-6.259],[107.1415,-6.26],[107.1385,-6.2645],[107.137,-6.2665],[107.1375,-6.269],[107.1425,-6.272],[107.1425,-6.2695],[107.148,-6.269],[107.147,-6.263],[107.143,-6.2615],[107.1435,-6.2585],[107.144,-6.256]]]},"properties":{"code":"32.16.09.2002","name":"Karangbaru"}},{"type":"Feature","geometry":{"type":"Polygon","coordinates":[[[107.1585,-6.245],[107.1575,-6.246],[107.1545,-6.245],[107.152,-6.2455],[107.1495,-6.2475],[107.1485,-6.2485],[107.1455,-6.2495],[107.145,-6.25],[107.1435,-6.252],[107.143,-6.252],[107.1425,-6.2535],[107.1415,-6.2545],[107.1415,-6.256],[107.1485,-6.2565],[107.149,-6.2565],[107.1625,-6.2585],[107.165,-6.249],[107.165,-6.2455],[107.1645,-6.2455],[107.1615,-6.246],[107.1585,-6.245]]]},"properties":{"code":"32.16.09.2003","name":"Karangasih"}},{"type":"Feature","geometry":{"type":"Polygon","coordinates":[[[107.198,-6.248],[107.191,-6.245],[107.1825,-6.2655],[107.1725,-6.26],[107.1735,-6.2605],[107.178,-6.2675],[107.181,-6.2705],[107.184,-6.271],[107.1855,-6.2725],[107.1965,-6.2655],[107.198,-6.248]]]},"properties":{"code":"32.16.09.2004","name":"Waluya"}},{"type":"Feature","geometry":{"type":"Polygon","coordinates":[[[107.191,-6.245],[107.181,-6.244],[107.1785,-6.246],[107.165,-6.246],[107.165,-6.249],[107.1625,-6.2585],[107.169,-6.2595],[107.1725,-6.26],[107.1825,-6.2655],[107.191,-6.245]]]},"properties":{"code":"32.16.09.2005","name":"Karangraharja"}},{"type":"Feature","geometry":{"type":"Polygon","coordinates":[[[107.1635,-6.2775],[107.1505,-6.268],[107.1505,-6.2685],[107.1485,-6.27],[107.148,-6.269],[107.1425,-6.2695],[107.1425,-6.2815],[107.1405,-6.2905],[107.1395,-6.292],[107.1435,-6.2955],[107.147,-6.296],[107.1475,-6.296],[107.1485,-6.294],[107.154,-6.2885],[107.1625,-6.283],[107.164,-6.282],[107.163,-6.2815],[107.1635,-6.2775]]]},"properties":{"code":"32.16.09.2006","name":"Pasirgombong"}},{"type":"Feature","geometry":{"type":"Polygon","coordinates":[[[107.179,-6.27],[107.1685,-6.266],[107.1635,-6.2775],[107.163,-6.2815],[107.166,-6.2825],[107.1665,-6.283],[107.166,-6.284],[107.167,-6.2845],[107.168,-6.284],[107.1715,-6.286],[107.1735,-6.287],[107.176,-6.2885],[107.1765,-6.289],[107.178,-6.2895],[107.1785,-6.2875],[107.179,-6.285],[107.181,-6.284],[107.1815,-6.2845],[107.185,-6.2775],[107.186,-6.273],[107.184,-6.271],[107.181,-6.2705],[107.179,-6.27]]]},"properties":{"code":"32.16.09.2007","name":"Simpangan"}},{"type":"Feature","geometry":{"type":"Polygon","coordinates":[[[107.1625,-6.2585],[107.159,-6.258],[107.1505,-6.2675],[107.1505,-6.268],[107.1635,-6.2775],[107.1685,-6.266],[107.179,-6.27],[107.178,-6.2675],[107.1735,-6.2605],[107.169,-6.2595],[107.1625,-6.2585]]]},"properties":{"code":"32.16.09.2008","name":"Tanjungsari"}},{"type":"Feature","geometry":{"type":"Polygon","coordinates":[[[107.137,-6.268],[107.12,-6.2745],[107.1195,-6.2745],[107.1175,-6.276],[107.117,-6.278],[107.1195,-6.2845],[107.1195,-6.287],[107.141,-6.29],[107.1425,-6.2815],[107.1425,-6.272],[107.1375,-6.269],[107.137,-6.268]]]},"properties":{"code":"32.16.09.2009","name":"Harjamekar"}},{"type":"Feature","geometry":{"type":"Polygon","coordinates":[[[107.1725,-6.287],[107.1715,-6.286],[107.168,-6.284],[107.167,-6.2845],[107.166,-6.284],[107.1665,-6.283],[107.166,-6.2825],[107.164,-6.282],[107.1625,-6.283],[107.154,-6.2885],[107.1485,-6.294],[107.1465,-6.297],[107.164,-6.304],[107.1655,-6.304],[107.1695,-6.307],[107.1705,-6.3045],[107.1725,-6.287]]]},"properties":{"code":"32.16.09.2010","name":"Mekarmukti"}},{"type":"Feature","geometry":{"type":"Polygon","coordinates":[[[107.141,-6.29],[107.1195,-6.287],[107.119,-6.2905],[107.1155,-6.2975],[107.1145,-6.2985],[107.115,-6.3],[107.115,-6.3005],[107.114,-6.301],[107.1145,-6.303],[107.1155,-6.3035],[107.117,-6.306],[107.1165,-6.3065],[107.1175,-6.307],[107.1205,-6.307],[107.125,-6.3065],[107.1345,-6.3115],[107.1345,-6.3075],[107.1415,-6.307],[107.142,-6.3],[107.1405,-6.298],[107.1405,-6.296],[107.142,-6.294],[107.1395,-6.292],[107.1405,-6.2905],[107.141,-6.29]]]},"properties":{"code":"32.16.09.2011","name":"Wangunharja"}},{"type":"Feature","geometry":{"type":"Polygon","coordinates":[[[107.1765,-6.2215],[107.167,-6.2155],[107.1665,-6.2155],[107.16,-6.2175],[107.1555,-6.229],[107.1555,-6.23],[107.159,-6.2425],[107.1575,-6.243],[107.158,-6.2435],[107.1585,-6.245],[107.1615,-6.246],[107.1645,-6.2455],[107.165,-6.2455],[107.165,-6.246],[107.1785,-6.246],[107.1775,-6.243],[107.176,-6.233],[107.17,-6.226],[107.1765,-6.2215]]]},"properties":{"code":"32.16.10.2001","name":"Sukaraya"}},{"type":"Feature","geometry":{"type":"Polygon","coordinates":[[[107.2005,-6.223],[107.198,-6.2215],[107.193,-6.2335],[107.175,-6.227],[107.174,-6.227],[107.176,-6.225],[107.1765,-6.2215],[107.17,-6.226],[107.176,-6.233],[107.1775,-6.243],[107.181,-6.244],[107.191,-6.245],[107.198,-6.248],[107.2005,-6.238],[107.203,-6.224],[107.2005,-6.2235],[107.2005,-6.223]]]},"properties":{"code":"32.16.10.2002","name":"Karangrahayu"}},{"type":"Feature","geometry":{"type":"Polygon","coordinates":[[[107.198,-6.2215],[107.1955,-6.2195],[107.173,-6.205],[107.168,-6.2125],[107.1675,-6.2135],[107.167,-6.2155],[107.1765,-6.2215],[107.176,-6.225],[107.174,-6.227],[107.175,-6.227],[107.193,-6.2335],[107.198,-6.2215]]]},"properties":{"code":"32.16.10.2003","name":"Karangsetia"}},{"type":"Feature","geometry":{"type":"Polygon","coordinates":[[[107.1885,-6.2],[107.179,-6.197],[107.1785,-6.1975],[107.174,-6.1975],[107.1735,-6.201],[107.173,-6.2045],[107.173,-6.205],[107.1955,-6.2195],[107.2005,-6.223],[107.205,-6.213],[107.205,-6.2115],[107.205,-6.21],[107.203,-6.211],[107.2035,-6.208],[107.2,-6.206],[107.1975,-6.2065],[107.1885,-6.2]]]},"properties":{"code":"32.16.10.2004","name":"Karanganyar"}},{"type":"Feature","geometry":{"type":"Polygon","coordinates":[[[107.2135,-6.197],[107.1915,-6.181],[107.1885,-6.2],[107.1975,-6.2065],[107.2,-6.206],[107.2035,-6.208],[107.203,-6.211],[107.205,-6.21],[107.205,-6.2095],[107.2125,-6.198],[107.2135,-6.197]]]},"properties":{"code":"32.16.10.2005","name":"Karangbahagia"}},{"type":"Feature","geometry":{"type":"Polygon","coordinates":[[[107.184,-6.176],[107.18,-6.173],[107.1795,-6.173],[107.1775,-6.1725],[107.178,-6.1735],[107.1775,-6.176],[107.174,-6.1975],[107.1785,-6.1975],[107.179,-6.197],[107.1885,-6.2],[107.1915,-6.181],[107.184,-6.176]]]},"properties":{"code":"32.16.10.2006","name":"Karangsentosa"}},{"type":"Feature","geometry":{"type":"Polygon","coordinates":[[[107.22,-6.1995],[107.2125,-6.198],[107.205,-6.2095],[107.205,-6.2115],[107.205,-6.213],[107.2005,-6.2235],[107.203,-6.224],[107.202,-6.2315],[107.216,-6.2385],[107.2155,-6.242],[107.2195,-6.2445],[107.22,-6.2435],[107.2215,-6.244],[107.227,-6.232],[107.2245,-6.2305],[107.224,-6.23],[107.2225,-6.2275],[107.219,-6.208],[107.22,-6.1995]]]},"properties":{"code":"32.16.10.2007","name":"Karangsatu"}},{"type":"Feature","geometry":{"type":"Polygon","coordinates":[[[107.229,-6.2025],[107.22,-6.1995],[107.219,-6.208],[107.2225,-6.2275],[107.224,-6.23],[107.2245,-6.2305],[107.227,-6.232],[107.227,-6.2325],[107.228,-6.232],[107.231,-6.2325],[107.2405,-6.24],[107.241,-6.2395],[107.2435,-6.2175],[107.2425,-6.212],[107.229,-6.2025]]]},"properties":{"code":"32.16.10.2008","name":"Karangmukti"}},{"type":"Feature","geometry":{"type":"Polygon","coordinates":[[[107.176,-6.289],[107.176,-6.2885],[107.1735,-6.287],[107.1725,-6.287],[107.1705,-6.3045],[107.169,-6.3085],[107.1745,-6.3185],[107.184,-6.323],[107.1865,-6.3175],[107.195,-6.3125],[107.1955,-6.301],[107.1955,-6.3],[107.196,-6.3],[107.195,-6.2985],[107.1755,-6.2905],[107.176,-6.289]]]},"properties":{"code":"32.16.11.1007","name":"Sertajaya"}},{"type":"Feature","geometry":{"type":"Polygon","coordinates":[[[107.238,-6.2685],[107.236,-6.2695],[107.216,-6.266],[107.213,-6.266],[107.209,-6.267],[107.205,-6.2695],[107.2075,-6.2705],[107.2075,-6.272],[107.2065,-6.273],[107.206,-6.2765],[107.22,-6.2815],[107.219,-6.293],[107.223,-6.2935],[107.2325,-6.2885],[107.2335,-6.284],[107.2355,-6.28],[107.2365,-6.2745],[107.2385,-6.2745],[107.2465,-6.2665],[107.2425,-6.266],[107.238,-6.2685]]]},"properties":{"code":"32.16.11.2001","name":"Tanjungbaru"}},{"type":"Feature","geometry":{"type":"Polygon","coordinates":[[[107.2325,-6.2885],[107.223,-6.2935],[107.218,-6.2925],[107.2165,-6.291],[107.216,-6.2905],[107.214,-6.291],[107.214,-6.2935],[107.2135,-6.2935],[107.2135,-6.294],[107.2125,-6.2955],[107.212,-6.2955],[107.2115,-6.3],[107.2085,-6.2995],[107.2085,-6.301],[107.2095,-6.302],[107.2085,-6.324],[107.209,-6.3245],[107.2185,-6.3215],[107.219,-6.321],[107.224,-6.3215],[107.2245,-6.3205],[107.223,-6.3185],[107.222,-6.318],[107.219,-6.3185],[107.2175,-6.316],[107.2175,-6.315],[107.218,-6.314],[107.22,-6.313],[107.2335,-6.302],[107.2325,-6.3],[107.2325,-6.299],[107.2335,-6.299],[107.237,-6.307],[107.2395,-6.305],[107.2475,-6.299],[107.248,-6.2975],[107.2475,-6.296],[107.2325,-6.2895],[107.2325,-6.2885]]]},"properties":{"code":"32.16.11.2002","name":"Cipayung"}},{"type":"Feature","geometry":{"type":"Polygon","coordinates":[[[107.2085,-6.2995],[107.2075,-6.2995],[107.196,-6.3],[107.1955,-6.3],[107.1955,-6.301],[107.195,-6.3125],[107.1865,-6.3175],[107.1855,-6.3195],[107.2005,-6.331],[107.2065,-6.3315],[107.208,-6.326],[107.2085,-6.324],[107.2095,-6.302],[107.2085,-6.301],[107.2085,-6.2995]]]},"properties":{"code":"32.16.11.2003","name":"Hegarmanah"}},{"type":"Feature","geometry":{"type":"Polygon","coordinates":[[[107.1915,-6.275],[107.188,-6.2745],[107.1855,-6.2725],[107.186,-6.273],[107.185,-6.2775],[107.1815,-6.2845],[107.181,-6.284],[107.179,-6.285],[107.1785,-6.2875],[107.178,-6.2895],[107.1765,-6.289],[107.176,-6.289],[107.1755,-6.2905],[107.195,-6.2985],[107.2075,-6.2995],[107.2115,-6.3],[107.212,-6.2955],[107.2125,-6.2955],[107.2135,-6.294],[107.2135,-6.2935],[107.2135,-6.2925],[107.205,-6.2845],[107.191,-6.283],[107.1915,-6.275]]]},"properties":{"code":"32.16.11.2004","name":"Jatireja"}},{"type":"Feature","geometry":{"type":"Polygon","coordinates":[[[107.219,-6.293],[107.22,-6.2815],[107.206,-6.2765],[107.2065,-6.273],[107.2075,-6.272],[107.2075,-6.2705],[107.205,-6.2695],[107.2025,-6.2705],[107.197,-6.2725],[107.1915,-6.275],[107.191,-6.283],[107.205,-6.2845],[107.2135,-6.2925],[107.2135,-6.2935],[107.214,-6.2935],[107.214,-6.291],[107.216,-6.2905],[107.2165,-6.291],[107.218,-6.2925],[107.219,-6.293]]]},"properties":{"code":"32.16.11.2005","name":"Jatibaru"}},{"type":"Feature","geometry":{"type":"Polygon","coordinates":[[[107.266,-6.2745],[107.247,-6.2835],[107.241,-6.282],[107.2355,-6.278],[107.2355,-6.28],[107.2335,-6.284],[107.2325,-6.2895],[107.2475,-6.296],[107.2475,-6.2955],[107.2485,-6.2935],[107.251,-6.293],[107.252,-6.2935],[107.2645,-6.2805],[107.266,-6.285],[107.268,-6.28],[107.2655,-6.279],[107.2655,-6.2775],[107.266,-6.275],[107.266,-6.2745]]]},"properties":{"code":"32.16.11.2006","name":"Labansari"}},{"type":"Feature","geometry":{"type":"Polygon","coordinates":[[[107.2215,-6.244],[107.22,-6.2435],[107.2195,-6.2445],[107.2155,-6.242],[107.216,-6.2385],[107.202,-6.2315],[107.2005,-6.238],[107.198,-6.248],[107.1965,-6.2655],[107.1855,-6.2725],[107.188,-6.2745],[107.197,-6.2725],[107.2025,-6.2705],[107.209,-6.267],[107.213,-6.266],[107.214,-6.266],[107.2145,-6.2655],[107.2115,-6.265],[107.215,-6.2615],[107.215,-6.259],[107.2195,-6.2495],[107.2215,-6.244]]]},"properties":{"code":"32.16.11.2008","name":"Karangsari"}},{"type":"Feature","geometry":{"type":"Polygon","coordinates":[[[107.2335,-6.255],[107.2325,-6.2485],[107.221,-6.245],[107.2195,-6.2495],[107.215,-6.259],[107.215,-6.2615],[107.2115,-6.265],[107.2145,-6.2655],[107.214,-6.266],[107.216,-6.266],[107.236,-6.2695],[107.238,-6.2685],[107.2335,-6.256],[107.2335,-6.255]]]},"properties":{"code":"32.16.12.2001","name":"Karangsambung"}},{"type":"Feature","geometry":{"type":"Polygon","coordinates":[[[107.2515,-6.254],[107.243,-6.25],[107.2405,-6.2485],[107.2385,-6.2465],[107.2375,-6.2475],[107.2365,-6.249],[107.2345,-6.253],[107.2335,-6.256],[107.238,-6.2685],[107.2425,-6.266],[107.256,-6.2685],[107.2575,-6.269],[107.26,-6.27],[107.2635,-6.262],[107.263,-6.2595],[107.255,-6.256],[107.252,-6.2545],[107.2515,-6.254]]]},"properties":{"code":"32.16.12.2002","name":"Waringinjaya"}},{"type":"Feature","geometry":{"type":"Polygon","coordinates":[[[107.253,-6.22],[107.2505,-6.219],[107.2505,-6.221],[107.2515,-6.223],[107.255,-6.2245],[107.255,-6.2255],[107.255,-6.226],[107.255,-6.2285],[107.254,-6.2295],[107.254,-6.231],[107.256,-6.2365],[107.256,-6.2375],[107.2555,-6.2405],[107.2545,-6.2455],[107.254,-6.2535],[107.2525,-6.2535],[107.2515,-6.254],[107.252,-6.2545],[107.255,-6.256],[107.263,-6.2595],[107.2625,-6.2585],[107.262,-6.247],[107.2655,-6.247],[107.275,-6.2495],[107.276,-6.249],[107.2755,-6.247],[107.275,-6.244],[107.2745,-6.241],[107.2695,-6.233],[107.253,-6.22]]]},"properties":{"code":"32.16.12.2003","name":"Karangmekar"}},{"type":"Feature","geometry":{"type":"Polygon","coordinates":[[[107.2505,-6.219],[107.25,-6.2185],[107.2435,-6.2175],[107.241,-6.2395],[107.2405,-6.2405],[107.24,-6.2435],[107.2395,-6.2455],[107.239,-6.246],[107.2385,-6.2465],[107.2405,-6.2485],[107.243,-6.25],[107.2525,-6.2535],[107.254,-6.2535],[107.2545,-6.2455],[107.2555,-6.2405],[107.256,-6.2375],[107.256,-6.2365],[107.254,-6.231],[107.254,-6.2295],[107.255,-6.2285],[107.255,-6.226],[107.255,-6.2255],[107.255,-6.2245],[107.2515,-6.223],[107.2505,-6.221],[107.2505,-6.219]]]},"properties":{"code":"32.16.12.2004","name":"Mekarjaya"}},{"type":"Feature","geometry":{"type":"Polygon","coordinates":[[[107.2405,-6.24],[107.231,-6.2325],[107.228,-6.232],[107.227,-6.2325],[107.221,-6.245],[107.2325,-6.2485],[107.2335,-6.255],[107.2345,-6.253],[107.2365,-6.249],[107.2375,-6.2475],[107.239,-6.246],[107.2395,-6.2455],[107.24,-6.2435],[107.2405,-6.2405],[107.2405,-6.24]]]},"properties":{"code":"32.16.12.2005","name":"Karangharum"}},{"type":"Feature","geometry":{"type":"Polygon","coordinates":[[[107.26,-6.27],[107.2575,-6.269],[107.256,-6.2685],[107.2465,-6.2665],[107.2385,-6.2745],[107.2355,-6.278],[107.241,-6.282],[107.247,-6.2835],[107.266,-6.2745],[107.2675,-6.2735],[107.26,-6.27]]]},"properties":{"code":"32.16.12.2006","name":"Bojongsari"}},{"type":"Feature","geometry":{"type":"Polygon","coordinates":[[[107.276,-6.249],[107.275,-6.2495],[107.2655,-6.247],[107.262,-6.247],[107.2625,-6.2585],[107.2635,-6.262],[107.26,-6.27],[107.2675,-6.2735],[107.2695,-6.2715],[107.2765,-6.2665],[107.276,-6.263],[107.278,-6.2535],[107.276,-6.249]]]},"properties":{"code":"32.16.12.2007","name":"Kedungwaringin"}},{"type":"Feature","geometry":{"type":"Polygon","coordinates":[[[107.291,-6.2005],[107.2745,-6.199],[107.267,-6.1895],[107.263,-6.197],[107.279,-6.2155],[107.284,-6.216],[107.2905,-6.2175],[107.292,-6.216],[107.2935,-6.2085],[107.2945,-6.206],[107.2965,-6.203],[107.2965,-6.2015],[107.291,-6.2005]]]},"properties":{"code":"32.16.13.1011","name":"Kertasari"}},{"type":"Feature","geometry":{"type":"Polygon","coordinates":[[[107.216,-6.1015],[107.1995,-6.0925],[107.1955,-6.0915],[107.192,-6.1025],[107.1905,-6.105],[107.19,-6.114],[107.2045,-6.1205],[107.2185,-6.1245],[107.219,-6.118],[107.24,-6.109],[107.248,-6.1085],[107.248,-6.1035],[107.247,-6.101],[107.2445,-6.1005],[107.2425,-6.1015],[107.24,-6.1035],[107.2375,-6.1045],[107.216,-6.1015]]]},"properties":{"code":"32.16.13.2001","name":"Karangharja"}},{"type":"Feature","geometry":{"type":"Polygon","coordinates":[[[107.2505,-6.1165],[107.25,-6.1165],[107.248,-6.115],[107.2485,-6.111],[107.248,-6.1085],[107.24,-6.109],[107.219,-6.118],[107.2185,-6.1245],[107.2055,-6.121],[107.2055,-6.1235],[107.206,-6.1335],[107.209,-6.139],[107.2175,-6.1415],[107.224,-6.1425],[107.2295,-6.144],[107.2345,-6.145],[107.241,-6.146],[107.2415,-6.146],[107.2445,-6.1425],[107.247,-6.139],[107.2485,-6.137],[107.2485,-6.1365],[107.249,-6.1355],[107.2505,-6.1165]]]},"properties":{"code":"32.16.13.2002","name":"Karangsegar"}},{"type":"Feature","geometry":{"type":"Polygon","coordinates":[[[107.2665,-6.112],[107.2625,-6.111],[107.2515,-6.116],[107.2505,-6.1165],[107.249,-6.1355],[107.256,-6.134],[107.2555,-6.129],[107.2595,-6.128],[107.266,-6.1275],[107.27,-6.1275],[107.2705,-6.124],[107.2665,-6.112]]]},"properties":{"code":"32.16.13.2003","name":"Sumberurip"}},{"type":"Feature","geometry":{"type":"Polygon","coordinates":[[[107.28,-6.127],[107.277,-6.1275],[107.2735,-6.1305],[107.27,-6.129],[107.27,-6.1275],[107.266,-6.1275],[107.2595,-6.128],[107.2555,-6.129],[107.256,-6.134],[107.249,-6.136],[107.2485,-6.1365],[107.2555,-6.155],[107.2685,-6.147],[107.281,-6.145],[107.282,-6.1405],[107.28,-6.127]]]},"properties":{"code":"32.16.13.2004","name":"Sumbereja"}},{"type":"Feature","geometry":{"type":"Polygon","coordinates":[[[107.234,-6.145],[107.2295,-6.144],[107.224,-6.1425],[107.2175,-6.1415],[107.209,-6.139],[107.2245,-6.1685],[107.225,-6.171],[107.2465,-6.17],[107.2455,-6.167],[107.242,-6.1645],[107.234,-6.145]]]},"properties":{"code":"32.16.13.2005","name":"Karangreja"}},{"type":"Feature","geometry":{"type":"Polygon","coordinates":[[[107.2555,-6.155],[107.2485,-6.1365],[107.2485,-6.137],[107.2455,-6.1415],[107.2415,-6.146],[107.241,-6.146],[107.234,-6.145],[107.242,-6.1645],[107.2455,-6.167],[107.2465,-6.17],[107.261,-6.169],[107.2555,-6.155]]]},"properties":{"code":"32.16.13.2006","name":"Karangjaya"}},{"type":"Feature","geometry":{"type":"Polygon","coordinates":[[[107.2895,-6.1535],[107.2895,-6.148],[107.2925,-6.1415],[107.292,-6.1405],[107.2895,-6.141],[107.285,-6.149],[107.283,-6.1485],[107.2815,-6.147],[107.281,-6.145],[107.2685,-6.147],[107.2555,-6.155],[107.261,-6.169],[107.272,-6.1685],[107.2735,-6.167],[107.278,-6.166],[107.2795,-6.165],[107.279,-6.163],[107.281,-6.1575],[107.283,-6.157],[107.288,-6.1565],[107.2895,-6.1535]]]},"properties":{"code":"32.16.13.2007","name":"Sumbersari"}},{"type":"Feature","geometry":{"type":"Polygon","coordinates":[[[107.266,-6.1835],[107.2565,-6.1695],[107.225,-6.171],[107.228,-6.197],[107.263,-6.197],[107.267,-6.1895],[107.266,-6.1835]]]},"properties":{"code":"32.16.13.2008","name":"Karangpatri"}},{"type":"Feature","geometry":{"type":"Polygon","coordinates":[[[107.2795,-6.168],[107.28,-6.166],[107.2795,-6.165],[107.278,-6.166],[107.2735,-6.167],[107.272,-6.1685],[107.2565,-6.1695],[107.266,-6.1835],[107.283,-6.1735],[107.2795,-6.171],[107.279,-6.1695],[107.2795,-6.168]]]},"properties":{"code":"32.16.13.2009","name":"Karanghaur"}},{"type":"Feature","geometry":{"type":"Polygon","coordinates":[[[107.2925,-6.192],[107.287,-6.1795],[107.286,-6.1755],[107.285,-6.1745],[107.283,-6.1735],[107.266,-6.1835],[107.267,-6.1895],[107.2745,-6.199],[107.291,-6.2005],[107.2925,-6.192]]]},"properties":{"code":"32.16.13.2010","name":"Kertajaya"}},{"type":"Feature","geometry":{"type":"Polygon","coordinates":[[[107.263,-6.197],[107.228,-6.197],[107.229,-6.2025],[107.2425,-6.212],[107.25,-6.2185],[107.253,-6.22],[107.257,-6.2105],[107.263,-6.197]]]},"properties":{"code":"32.16.13.2012","name":"Bantarsari"}},{"type":"Feature","geometry":{"type":"Polygon","coordinates":[[[107.279,-6.2155],[107.263,-6.197],[107.257,-6.2105],[107.253,-6.22],[107.2695,-6.233],[107.269,-6.232],[107.283,-6.2285],[107.2835,-6.2265],[107.2835,-6.2255],[107.275,-6.2225],[107.2735,-6.221],[107.2725,-6.219],[107.272,-6.2185],[107.2725,-6.2165],[107.2755,-6.2155],[107.279,-6.2155]]]},"properties":{"code":"32.16.13.2013","name":"Bantarjaya"}},{"type":"Feature","geometry":{"type":"Polygon","coordinates":[[[107.14,-6.107],[107.1355,-6.115],[107.1335,-6.1185],[107.1345,-6.12],[107.1395,-6.1335],[107.1395,-6.135],[107.1475,-6.137],[107.159,-6.137],[107.1605,-6.1375],[107.163,-6.128],[107.163,-6.1265],[107.159,-6.1225],[107.158,-6.1215],[107.1515,-6.116],[107.1465,-6.1115],[107.14,-6.107]]]},"properties":{"code":"32.16.14.2001","name":"Sukamurni"}},{"type":"Feature","geometry":{"type":"Polygon","coordinates":[[[107.17,-6.112],[107.1615,-6.105],[107.1425,-6.099],[107.1425,-6.1],[107.142,-6.1],[107.14,-6.107],[107.1465,-6.1115],[107.1515,-6.116],[107.158,-6.1215],[107.159,-6.1225],[107.163,-6.1265],[107.163,-6.1285],[107.1605,-6.1375],[107.16,-6.138],[107.161,-6.142],[107.163,-6.142],[107.165,-6.1425],[107.1705,-6.1405],[107.173,-6.116],[107.17,-6.112]]]},"properties":{"code":"32.16.14.2002","name":"Sukaindah"}},{"type":"Feature","geometry":{"type":"Polygon","coordinates":[[[107.177,-6.1145],[107.17,-6.112],[107.173,-6.116],[107.1705,-6.1405],[107.165,-6.1425],[107.167,-6.144],[107.171,-6.1485],[107.171,-6.149],[107.171,-6.153],[107.1805,-6.147],[107.1835,-6.1465],[107.187,-6.1455],[107.1865,-6.145],[107.192,-6.14],[107.1885,-6.1315],[107.182,-6.122],[107.177,-6.1145]]]},"properties":{"code":"32.16.14.2003","name":"Sukakarya"}},{"type":"Feature","geometry":{"type":"Polygon","coordinates":[[[107.2085,-6.139],[107.1915,-6.1385],[107.1945,-6.145],[107.2055,-6.1725],[107.207,-6.172],[107.225,-6.171],[107.2245,-6.1685],[107.2085,-6.139]]]},"properties":{"code":"32.16.14.2004","name":"Sukalaksana"}},{"type":"Feature","geometry":{"type":"Polygon","coordinates":[[[107.2055,-6.1725],[107.1945,-6.145],[107.192,-6.14],[107.1865,-6.145],[107.1935,-6.1605],[107.1865,-6.1615],[107.184,-6.176],[107.1915,-6.181],[107.2135,-6.197],[107.2135,-6.192],[107.2055,-6.1725]]]},"properties":{"code":"32.16.14.2005","name":"Sukajadi"}},{"type":"Feature","geometry":{"type":"Polygon","coordinates":[[[107.19,-6.114],[107.1825,-6.114],[107.182,-6.1135],[107.1785,-6.115],[107.1775,-6.1155],[107.182,-6.122],[107.1885,-6.1315],[107.1915,-6.1385],[107.2085,-6.139],[107.206,-6.1335],[107.2055,-6.1235],[107.2055,-6.121],[107.2045,-6.1205],[107.19,-6.114]]]},"properties":{"code":"32.16.14.2006","name":"Sukakarsa"}},{"type":"Feature","geometry":{"type":"Polygon","coordinates":[[[107.228,-6.197],[107.225,-6.171],[107.207,-6.172],[107.2055,-6.1725],[107.2135,-6.192],[107.2135,-6.197],[107.229,-6.2025],[107.228,-6.197]]]},"properties":{"code":"32.16.14.2007","name":"Sukamakmur"}},{"type":"Feature","geometry":{"type":"Polygon","coordinates":[[[107.1805,-6.147],[107.171,-6.153],[107.169,-6.1525],[107.164,-6.1535],[107.16,-6.1635],[107.1585,-6.163],[107.1575,-6.169],[107.173,-6.171],[107.1775,-6.171],[107.1775,-6.1705],[107.183,-6.1645],[107.1805,-6.147]]]},"properties":{"code":"32.16.15.2001","name":"Sukamulya"}},{"type":"Feature","geometry":{"type":"Polygon","coordinates":[[[107.1775,-6.171],[107.173,-6.171],[107.1665,-6.17],[107.161,-6.194],[107.1665,-6.1945],[107.162,-6.208],[107.154,-6.216],[107.1665,-6.2155],[107.1675,-6.2135],[107.168,-6.2125],[107.173,-6.2045],[107.1735,-6.201],[107.174,-6.196],[107.1775,-6.176],[107.178,-6.1735],[107.1775,-6.1715],[107.1775,-6.171]]]},"properties":{"code":"32.16.15.2002","name":"Sukamanah"}},{"type":"Feature","geometry":{"type":"Polygon","coordinates":[[[107.1575,-6.169],[107.1475,-6.168],[107.1445,-6.187],[107.1465,-6.1915],[107.151,-6.194],[107.1475,-6.2135],[107.153,-6.2155],[107.154,-6.216],[107.162,-6.208],[107.1665,-6.1945],[107.161,-6.194],[107.1665,-6.17],[107.1575,-6.169]]]},"properties":{"code":"32.16.15.2003","name":"Sukahurip"}},{"type":"Feature","geometry":{"type":"Polygon","coordinates":[[[107.1455,-6.212],[107.1265,-6.1995],[107.1285,-6.2105],[107.127,-6.2155],[107.1265,-6.218],[107.126,-6.22],[107.1375,-6.2265],[107.1375,-6.2315],[107.1475,-6.232],[107.1505,-6.2345],[107.1515,-6.2245],[107.153,-6.2155],[107.1475,-6.2135],[107.1455,-6.212]]]},"properties":{"code":"32.16.15.2004","name":"Sukaasih"}},{"type":"Feature","geometry":{"type":"Polygon","coordinates":[[[107.1665,-6.2155],[107.154,-6.216],[107.153,-6.2155],[107.1515,-6.2245],[107.1505,-6.235],[107.15,-6.237],[107.153,-6.2445],[107.1545,-6.245],[107.1575,-6.246],[107.1585,-6.245],[107.158,-6.2435],[107.1575,-6.243],[107.159,-6.2425],[107.1555,-6.23],[107.1555,-6.229],[107.16,-6.2175],[107.1665,-6.2155]]]},"properties":{"code":"32.16.15.2005","name":"Sukarukun"}},{"type":"Feature","geometry":{"type":"Polygon","coordinates":[[[107.1475,-6.168],[107.133,-6.1665],[107.135,-6.172],[107.135,-6.1785],[107.1345,-6.1815],[107.133,-6.1845],[107.1265,-6.1995],[107.1455,-6.212],[107.151,-6.194],[107.1465,-6.1915],[107.1445,-6.187],[107.1475,-6.168]]]},"properties":{"code":"32.16.15.2006","name":"Banjarsari"}},{"type":"Feature","geometry":{"type":"Polygon","coordinates":[[[107.184,-6.176],[107.1865,-6.1615],[107.1935,-6.1605],[107.187,-6.1455],[107.1835,-6.1465],[107.1805,-6.147],[107.183,-6.1645],[107.1775,-6.1705],[107.1775,-6.171],[107.1775,-6.1715],[107.1775,-6.1725],[107.1795,-6.173],[107.18,-6.173],[107.184,-6.176]]]},"properties":{"code":"32.16.15.2007","name":"Sukadarma"}},{"type":"Feature","geometry":{"type":"Polygon","coordinates":[[[107.119,-6.074],[107.107,-6.066],[107.1075,-6.066],[107.1055,-6.067],[107.089,-6.068],[107.091,-6.089],[107.105,-6.097],[107.109,-6.0825],[107.119,-6.083],[107.1185,-6.08],[107.119,-6.074]]]},"properties":{"code":"32.16.16.2001","name":"Jayabakti"}},{"type":"Feature","geometry":{"type":"Polygon","coordinates":[[[107.1875,-6.0875],[107.184,-6.0765],[107.182,-6.0775],[107.179,-6.081],[107.178,-6.0815],[107.181,-6.089],[107.183,-6.092],[107.169,-6.0985],[107.168,-6.0985],[107.1675,-6.099],[107.169,-6.1],[107.171,-6.105],[107.1775,-6.1155],[107.1785,-6.115],[107.182,-6.1135],[107.1825,-6.114],[107.19,-6.114],[107.1905,-6.105],[107.192,-6.1025],[107.1955,-6.0915],[107.1905,-6.09],[107.1875,-6.0875]]]},"properties":{"code":"32.16.16.2002","name":"Jayalaksana"}},{"type":"Feature","geometry":{"type":"Polygon","coordinates":[[[107.16,-6.092],[107.154,-6.0905],[107.142,-6.085],[107.1425,-6.0885],[107.1435,-6.0895],[107.1425,-6.099],[107.1615,-6.105],[107.17,-6.112],[107.177,-6.1145],[107.171,-6.105],[107.169,-6.1],[107.166,-6.098],[107.16,-6.092]]]},"properties":{"code":"32.16.16.2003","name":"Sindangsari"}},{"type":"Feature","geometry":{"type":"Polygon","coordinates":[[[107.137,-6.0825],[107.119,-6.074],[107.1185,-6.08],[107.119,-6.083],[107.109,-6.0825],[107.1075,-6.0885],[107.1105,-6.0895],[107.111,-6.09],[107.114,-6.0905],[107.1425,-6.099],[107.1435,-6.0895],[107.1425,-6.0885],[107.142,-6.085],[107.137,-6.0825]]]},"properties":{"code":"32.16.16.2004","name":"Sindangjaya"}},{"type":"Feature","geometry":{"type":"Polygon","coordinates":[[[107.178,-6.0815],[107.177,-6.0815],[107.172,-6.076],[107.1665,-6.073],[107.166,-6.0745],[107.1655,-6.075],[107.165,-6.076],[107.165,-6.0805],[107.16,-6.092],[107.166,-6.098],[107.1675,-6.099],[107.168,-6.0985],[107.169,-6.0985],[107.183,-6.092],[107.181,-6.089],[107.178,-6.0815]]]},"properties":{"code":"32.16.16.2005","name":"Setialaksana"}},{"type":"Feature","geometry":{"type":"Polygon","coordinates":[[[107.131,-6.0595],[107.13,-6.059],[107.1285,-6.0595],[107.128,-6.0585],[107.125,-6.058],[107.12,-6.0595],[107.1145,-6.0565],[107.107,-6.066],[107.119,-6.074],[107.137,-6.0825],[107.1445,-6.077],[107.1405,-6.067],[107.1415,-6.066],[107.1405,-6.0635],[107.1305,-6.0605],[107.131,-6.0595]]]},"properties":{"code":"32.16.16.2006","name":"Setiajaya"}},{"type":"Feature","geometry":{"type":"Polygon","coordinates":[[[107.143,-6.0695],[107.142,-6.0675],[107.1415,-6.066],[107.1405,-6.067],[107.1445,-6.077],[107.137,-6.0825],[107.154,-6.0905],[107.16,-6.092],[107.165,-6.0805],[107.165,-6.076],[107.1655,-6.075],[107.166,-6.0745],[107.1665,-6.073],[107.1655,-6.072],[107.1625,-6.069],[107.1515,-6.073],[107.143,-6.0695]]]},"properties":{"code":"32.16.16.2007","name":"Lenggahjaya"}},{"type":"Feature","geometry":{"type":"Polygon","coordinates":[[[107.118,-6.0395],[107.116,-6.0395],[107.114,-6.0395],[107.1135,-6.039],[107.1125,-6.0355],[107.111,-6.0355],[107.0955,-6.0415],[107.0855,-6.039],[107.0875,-6.0405],[107.0855,-6.048],[107.107,-6.066],[107.1145,-6.0565],[107.12,-6.0595],[107.125,-6.058],[107.128,-6.0585],[107.1285,-6.0595],[107.13,-6.059],[107.131,-6.0595],[107.132,-6.0565],[107.136,-6.0495],[107.1335,-6.0505],[107.125,-6.053],[107.125,-6.0495],[107.1225,-6.0475],[107.12,-6.0445],[107.118,-6.0395]]]},"properties":{"code":"32.16.16.2008","name":"Lenggahsari"}},{"type":"Feature","geometry":{"type":"Polygon","coordinates":[[[107.044,-5.9845],[107.04,-5.9845],[107.0395,-5.9845],[107.041,-5.9865],[107.041,-5.9875],[107.0335,-5.986],[107.0325,-5.9865],[107.031,-5.9905],[107.0295,-5.9915],[107.026,-5.9935],[107.027,-5.9935],[107.025,-5.998],[107.0245,-6.0025],[107.02,-6.0095],[107.0105,-6.013],[107.006,-6.0155],[107.006,-6.016],[107.004,-6.018],[107.002,-6.0185],[106.996,-6.0235],[107.0145,-6.0265],[107.024,-6.021],[107.026,-6.0175],[107.028,-6.0175],[107.046,-6.0275],[107.0475,-6.029],[107.047,-6.0295],[107.049,-6.0315],[107.0485,-6.0295],[107.05,-6.031],[107.05,-6.0305],[107.0505,-6.0275],[107.051,-6.0265],[107.052,-6.024],[107.052,-6.0235],[107.0525,-6.0225],[107.0525,-6.0215],[107.054,-6.0205],[107.0535,-6.0165],[107.0585,-6.011],[107.086,-5.9915],[107.083,-5.9905],[107.0665,-5.9885],[107.0525,-5.9915],[107.044,-5.9845]]]},"properties":{"code":"32.16.17.2001","name":"Pantai Mekar"}},{"type":"Feature","geometry":{"type":"Polygon","coordinates":[[[107.052,-5.964],[107.0325,-5.9565],[107.036,-5.9365],[107.022,-5.9315],[107.008,-5.9205],[107.001,-5.931],[107.012,-5.9495],[107.018,-5.9705],[107.014,-5.9815],[107.0245,-5.9855],[107.026,-5.9685],[107.036,-5.9675],[107.037,-5.979],[107.0375,-5.9825],[107.039,-5.9845],[107.04,-5.9845],[107.044,-5.9845],[107.052,-5.964]]]},"properties":{"code":"32.16.17.2002","name":"Pantai Bahagia"}},{"type":"Feature","geometry":{"type":"Polygon","coordinates":[[[107.098,-5.94],[107.0955,-5.937],[107.064,-5.935],[107.065,-5.943],[107.0745,-5.95],[107.076,-5.9685],[107.052,-5.964],[107.044,-5.9845],[107.0525,-5.9915],[107.0665,-5.9885],[107.083,-5.9905],[107.0855,-5.9905],[107.0885,-5.98],[107.086,-5.9795],[107.0865,-5.979],[107.0885,-5.9775],[107.09,-5.976],[107.0885,-5.976],[107.0885,-5.975],[107.09,-5.974],[107.091,-5.9725],[107.091,-5.972],[107.091,-5.968],[107.097,-5.961],[107.098,-5.94]]]},"properties":{"code":"32.16.17.2003","name":"Pantai Bakti"}},{"type":"Feature","geometry":{"type":"Polygon","coordinates":[[[107.05,-6.031],[107.0485,-6.0295],[107.049,-6.0315],[107.047,-6.0295],[107.0475,-6.029],[107.046,-6.0275],[107.028,-6.0175],[107.026,-6.0175],[107.024,-6.021],[107.0145,-6.0265],[107.016,-6.0345],[107,-6.0495],[106.976,-6.0485],[106.988,-6.05],[107.014,-6.06],[107.0385,-6.0635],[107.047,-6.0615],[107.0515,-6.056],[107.055,-6.049],[107.0555,-6.0475],[107.0595,-6.0475],[107.06,-6.049],[107.058,-6.05],[107.0575,-6.0505],[107.057,-6.053],[107.059,-6.0535],[107.0605,-6.058],[107.0585,-6.0605],[107.0585,-6.063],[107.058,-6.065],[107.06,-6.066],[107.06,-6.068],[107.0625,-6.068],[107.0635,-6.068],[107.07,-6.07],[107.0825,-6.065],[107.089,-6.068],[107.1055,-6.067],[107.1075,-6.066],[107.107,-6.066],[107.0855,-6.048],[107.0875,-6.0405],[107.0845,-6.039],[107.071,-6.0325],[107.0605,-6.0365],[107.0595,-6.036],[107.058,-6.035],[107.0565,-6.0335],[107.0535,-6.033],[107.05,-6.0325],[107.05,-6.031]]]},"properties":{"code":"32.16.17.2004","name":"Pantai Harapanjaya"}},{"type":"Feature","geometry":{"type":"Polygon","coordinates":[[[107.0395,-5.9845],[107.039,-5.9845],[107.0375,-5.9825],[107.037,-5.979],[107.036,-5.9675],[107.026,-5.9685],[107.0245,-5.9855],[107.014,-5.9815],[107.0055,-6.001],[106.995,-6.0075],[107.0015,-6.0125],[107.005,-6.0135],[107.006,-6.016],[107.001,-6.018],[106.996,-6.0235],[107.002,-6.0185],[107.004,-6.018],[107.006,-6.016],[107.006,-6.0155],[107.0105,-6.013],[107.02,-6.0095],[107.0245,-6.0025],[107.025,-5.998],[107.027,-5.9935],[107.026,-5.9935],[107.0295,-5.9915],[107.031,-5.9905],[107.0325,-5.9865],[107.0335,-5.986],[107.041,-5.9875],[107.041,-5.9865],[107.0395,-5.9845]]]},"properties":{"code":"32.16.17.2005","name":"Pantai Sederhana"}},{"type":"Feature","geometry":{"type":"Polygon","coordinates":[[[107.0875,-5.9975],[107.0865,-5.992],[107.086,-5.9915],[107.0585,-6.011],[107.0535,-6.0165],[107.054,-6.0205],[107.0525,-6.0215],[107.0525,-6.0225],[107.052,-6.0235],[107.052,-6.024],[107.051,-6.0265],[107.0505,-6.0275],[107.05,-6.0305],[107.0505,-6.031],[107.05,-6.0325],[107.0535,-6.033],[107.0565,-6.0335],[107.058,-6.035],[107.0595,-6.036],[107.0605,-6.0365],[107.071,-6.0325],[107.0845,-6.039],[107.0855,-6.039],[107.0955,-6.0415],[107.111,-6.0355],[107.1125,-6.0355],[107.1125,-6.032],[107.1005,-6.0255],[107.0995,-6.025],[107.1015,-6.016],[107.1005,-6.0145],[107.0995,-6.0145],[107.0925,-6.0065],[107.09,-6.0045],[107.085,-6.0025],[107.0845,-6.0025],[107.0845,-6.0005],[107.0875,-5.9975]]]},"properties":{"code":"32.16.17.2006","name":"Jayasakti"}},{"type":"Feature","geometry":{"type":"Polygon","coordinates":[[[107.0535,-6.306],[107.053,-6.306],[107.0505,-6.3065],[107.0475,-6.3065],[107.04,-6.307],[107.0375,-6.3215],[107.0295,-6.3295],[107.029,-6.33],[107.037,-6.334],[107.0375,-6.335],[107.038,-6.335],[107.0405,-6.3375],[107.041,-6.337],[107.042,-6.337],[107.0425,-6.333],[107.0465,-6.33],[107.0445,-6.327],[107.0425,-6.3265],[107.0425,-6.326],[107.047,-6.3135],[107.0505,-6.3115],[107.052,-6.3105],[107.0525,-6.3085],[107.0535,-6.306]]]},"properties":{"code":"32.16.18.2001","name":"Cijengkol"}},{"type":"Feature","geometry":{"type":"Polygon","coordinates":[[[107.0545,-6.3065],[107.054,-6.3065],[107.0535,-6.306],[107.0525,-6.3085],[107.052,-6.3105],[107.0505,-6.3115],[107.047,-6.3135],[107.0425,-6.326],[107.0425,-6.3265],[107.0445,-6.327],[107.0465,-6.33],[107.0425,-6.333],[107.042,-6.337],[107.0445,-6.3365],[107.0535,-6.3265],[107.06,-6.3185],[107.061,-6.317],[107.0615,-6.316],[107.0565,-6.314],[107.0565,-6.312],[107.0565,-6.31],[107.0575,-6.3075],[107.0565,-6.307],[107.0545,-6.3065]]]},"properties":{"code":"32.16.18.2002","name":"Lubangbuaya"}},{"type":"Feature","geometry":{"type":"Polygon","coordinates":[[[107.029,-6.33],[107.0265,-6.33],[107.0145,-6.336],[107.014,-6.3375],[107.0135,-6.3375],[107.0135,-6.338],[107.015,-6.3575],[107.0145,-6.3585],[107.016,-6.359],[107.02,-6.357],[107.0245,-6.3555],[107.0255,-6.3545],[107.0295,-6.3515],[107.035,-6.347],[107.0405,-6.3375],[107.038,-6.335],[107.0375,-6.335],[107.037,-6.334],[107.029,-6.33]]]},"properties":{"code":"32.16.18.2003","name":"Burangkeng"}},{"type":"Feature","geometry":{"type":"Polygon","coordinates":[[[107.054,-6.3415],[107.053,-6.341],[107.053,-6.3425],[107.045,-6.3395],[107.043,-6.3395],[107.042,-6.34],[107.044,-6.338],[107.044,-6.3375],[107.044,-6.3365],[107.0425,-6.337],[107.042,-6.3385],[107.0415,-6.3385],[107.0415,-6.3375],[107.0415,-6.337],[107.041,-6.337],[107.035,-6.347],[107.025,-6.355],[107.0265,-6.3565],[107.0285,-6.3555],[107.029,-6.3555],[107.0295,-6.3555],[107.0325,-6.356],[107.0335,-6.3545],[107.036,-6.354],[107.037,-6.354],[107.0505,-6.3615],[107.0515,-6.3635],[107.052,-6.366],[107.0525,-6.3645],[107.0525,-6.363],[107.0525,-6.3615],[107.054,-6.3415]]]},"properties":{"code":"32.16.18.2004","name":"Ciledug"}},{"type":"Feature","geometry":{"type":"Polygon","coordinates":[[[107.0675,-6.335],[107.0675,-6.3345],[107.054,-6.3415],[107.0525,-6.3615],[107.0525,-6.363],[107.0525,-6.3645],[107.054,-6.364],[107.0555,-6.3645],[107.0695,-6.366],[107.0705,-6.364],[107.073,-6.3635],[107.07,-6.3635],[107.0705,-6.3605],[107.0685,-6.3605],[107.069,-6.358],[107.073,-6.352],[107.0755,-6.3505],[107.077,-6.347],[107.0675,-6.335]]]},"properties":{"code":"32.16.18.2005","name":"Cibening"}},{"type":"Feature","geometry":{"type":"Polygon","coordinates":[[[107.052,-6.366],[107.0515,-6.3635],[107.0505,-6.3615],[107.037,-6.354],[107.036,-6.354],[107.0335,-6.3545],[107.0325,-6.356],[107.0295,-6.3555],[107.029,-6.3555],[107.0285,-6.3555],[107.0265,-6.3565],[107.025,-6.355],[107.0245,-6.3555],[107.02,-6.357],[107.016,-6.359],[107.0145,-6.3585],[107.013,-6.358],[107.0125,-6.358],[107.012,-6.3585],[107.0075,-6.362],[107.007,-6.364],[107.015,-6.37],[107.015,-6.371],[107.0185,-6.375],[107.02,-6.3755],[107.025,-6.3765],[107.0265,-6.3765],[107.028,-6.375],[107.0295,-6.374],[107.0315,-6.3715],[107.032,-6.3705],[107.0325,-6.369],[107.0355,-6.3675],[107.0485,-6.3665],[107.051,-6.367],[107.052,-6.367],[107.052,-6.366]]]},"properties":{"code":"32.16.18.2006","name":"Taman Sari"}},{"type":"Feature","geometry":{"type":"Polygon","coordinates":[[[107.012,-6.3585],[107.0095,-6.3585],[107.002,-6.354],[107,-6.3555],[107,-6.3585],[106.991,-6.362],[106.991,-6.3635],[106.9975,-6.3785],[106.9985,-6.379],[107.003,-6.3765],[107.0035,-6.376],[107.0045,-6.376],[107.007,-6.3755],[107.0085,-6.3745],[107.0075,-6.3745],[107.01,-6.373],[107.015,-6.3715],[107.015,-6.37],[107.007,-6.364],[107.0075,-6.362],[107.012,-6.3585]]]},"properties":{"code":"32.16.18.2007","name":"Taman Rahayu"}},{"type":"Feature","geometry":{"type":"Polygon","coordinates":[[[107.051,-6.367],[107.0485,-6.3665],[107.0355,-6.3675],[107.0325,-6.369],[107.032,-6.3705],[107.0315,-6.3715],[107.0295,-6.374],[107.028,-6.375],[107.0265,-6.3765],[107.025,-6.3765],[107.02,-6.3755],[107.0185,-6.375],[107.015,-6.371],[107.015,-6.3715],[107.01,-6.373],[107.0075,-6.3745],[107.0085,-6.3745],[107.007,-6.3755],[107.0045,-6.376],[107.0035,-6.376],[107.0045,-6.3765],[107.0055,-6.3805],[107.009,-6.381],[107.0105,-6.3805],[107.012,-6.3805],[107.0175,-6.38],[107.021,-6.381],[107.031,-6.392],[107.039,-6.386],[107.0415,-6.383],[107.0495,-6.3735],[107.0495,-6.3705],[107.051,-6.367]]]},"properties":{"code":"32.16.18.2008","name":"Cikarageman"}},{"type":"Feature","geometry":{"type":"Polygon","coordinates":[[[107.033,-6.3915],[107.031,-6.392],[107.021,-6.381],[107.0175,-6.38],[107.012,-6.3805],[107.0105,-6.3805],[107.009,-6.381],[107.0055,-6.3805],[107.005,-6.387],[107.0065,-6.388],[107.008,-6.391],[107.0095,-6.3915],[107.009,-6.395],[107.0085,-6.397],[107.01,-6.4025],[107.0105,-6.402],[107.018,-6.4005],[107.0205,-6.401],[107.0225,-6.404],[107.024,-6.404],[107.0255,-6.403],[107.033,-6.3915]]]},"properties":{"code":"32.16.18.2009","name":"Ragemanunggal"}},{"type":"Feature","geometry":{"type":"Polygon","coordinates":[[[107.0525,-6.395],[107.0555,-6.3915],[107.055,-6.391],[107.0415,-6.383],[107.039,-6.386],[107.033,-6.3915],[107.0255,-6.403],[107.024,-6.404],[107.0225,-6.404],[107.0245,-6.4055],[107.023,-6.407],[107.0215,-6.4075],[107.022,-6.408],[107.0235,-6.4095],[107.0245,-6.409],[107.0295,-6.41],[107.0315,-6.4105],[107.032,-6.41],[107.0345,-6.4075],[107.0365,-6.4055],[107.046,-6.403],[107.0465,-6.402],[107.0525,-6.395]]]},"properties":{"code":"32.16.18.2010","name":"Muktijaya"}},{"type":"Feature","geometry":{"type":"Polygon","coordinates":[[[107.076,-6.365],[107.075,-6.3635],[107.0735,-6.365],[107.0715,-6.367],[107.07,-6.3655],[107.0695,-6.366],[107.0555,-6.3645],[107.054,-6.364],[107.0525,-6.3645],[107.0525,-6.365],[107.052,-6.367],[107.051,-6.367],[107.0495,-6.3705],[107.0495,-6.3735],[107.0415,-6.383],[107.055,-6.391],[107.0555,-6.3915],[107.0525,-6.395],[107.062,-6.3985],[107.0625,-6.399],[107.0645,-6.3985],[107.066,-6.3975],[107.0665,-6.397],[107.068,-6.397],[107.0695,-6.3975],[107.07,-6.3975],[107.0705,-6.3965],[107.071,-6.3955],[107.0655,-6.3835],[107.073,-6.3705],[107.0735,-6.367],[107.074,-6.3665],[107.076,-6.365]]]},"properties":{"code":"32.16.18.2011","name":"Kertarahayu"}},{"type":"Feature","geometry":{"type":"Polygon","coordinates":[[[107.1675,-6.3565],[107.175,-6.342],[107.1725,-6.326],[107.1665,-6.3215],[107.1645,-6.322],[107.1565,-6.3165],[107.156,-6.3175],[107.154,-6.319],[107.1495,-6.3285],[107.149,-6.329],[107.144,-6.327],[107.1395,-6.326],[107.131,-6.3295],[107.1275,-6.341],[107.141,-6.346],[107.1415,-6.346],[107.144,-6.349],[107.1435,-6.349],[107.1675,-6.3565]]]},"properties":{"code":"32.16.19.2001","name":"Cibatu"}},{"type":"Feature","geometry":{"type":"Polygon","coordinates":[[[107.102,-6.333],[107.086,-6.344],[107.0855,-6.345],[107.085,-6.343],[107.079,-6.347],[107.0755,-6.3505],[107.073,-6.352],[107.069,-6.358],[107.0685,-6.3605],[107.0705,-6.3605],[107.07,-6.3635],[107.073,-6.3635],[107.07,-6.3655],[107.0715,-6.367],[107.0735,-6.365],[107.075,-6.3635],[107.076,-6.3645],[107.0805,-6.364],[107.085,-6.365],[107.0895,-6.365],[107.0895,-6.3635],[107.09,-6.3635],[107.09,-6.362],[107.0875,-6.351],[107.0995,-6.3395],[107.098,-6.3375],[107.0995,-6.3365],[107.1,-6.336],[107.101,-6.336],[107.101,-6.3355],[107.1015,-6.335],[107.102,-6.3345],[107.102,-6.334],[107.102,-6.333]]]},"properties":{"code":"32.16.19.2002","name":"Sukasejati"}},{"type":"Feature","geometry":{"type":"Polygon","coordinates":[[[107.12,-6.34],[107.118,-6.3385],[107.107,-6.338],[107.1065,-6.3385],[107.1055,-6.337],[107.104,-6.3375],[107.103,-6.336],[107.1015,-6.3355],[107.101,-6.336],[107.1,-6.336],[107.0995,-6.3365],[107.098,-6.3375],[107.0995,-6.3395],[107.0875,-6.351],[107.09,-6.362],[107.091,-6.3635],[107.0935,-6.3615],[107.096,-6.3625],[107.0965,-6.3615],[107.0985,-6.362],[107.0995,-6.359],[107.104,-6.3535],[107.1195,-6.345],[107.12,-6.34]]]},"properties":{"code":"32.16.19.2003","name":"Ciantra"}},{"type":"Feature","geometry":{"type":"Polygon","coordinates":[[[107.131,-6.368],[107.1335,-6.364],[107.1295,-6.3645],[107.124,-6.3615],[107.1175,-6.363],[107.1205,-6.344],[107.12,-6.34],[107.1195,-6.345],[107.104,-6.3535],[107.0995,-6.359],[107.0945,-6.3715],[107.0945,-6.3735],[107.097,-6.374],[107.106,-6.368],[107.119,-6.3715],[107.128,-6.368],[107.1295,-6.3685],[107.13,-6.3685],[107.131,-6.368]]]},"properties":{"code":"32.16.19.2004","name":"Sukadami"}},{"type":"Feature","geometry":{"type":"Polygon","coordinates":[[[107.1345,-6.3115],[107.125,-6.3065],[107.1205,-6.307],[107.1175,-6.307],[107.1165,-6.3065],[107.116,-6.3065],[107.1175,-6.3075],[107.1175,-6.3145],[107.1175,-6.315],[107.116,-6.314],[107.1145,-6.3145],[107.116,-6.317],[107.1115,-6.3185],[107.109,-6.319],[107.1075,-6.32],[107.109,-6.3215],[107.11,-6.3235],[107.1095,-6.3245],[107.109,-6.3235],[107.1055,-6.324],[107.106,-6.3255],[107.1045,-6.327],[107.102,-6.3295],[107.1025,-6.3315],[107.102,-6.333],[107.102,-6.334],[107.102,-6.3345],[107.1015,-6.335],[107.1015,-6.3355],[107.103,-6.336],[107.104,-6.3375],[107.1055,-6.337],[107.1065,-6.3385],[107.107,-6.338],[107.118,-6.3385],[107.12,-6.34],[107.12,-6.3395],[107.1275,-6.341],[107.131,-6.3295],[107.1395,-6.326],[107.139,-6.323],[107.134,-6.316],[107.134,-6.3145],[107.1345,-6.312],[107.1345,-6.3115]]]},"properties":{"code":"32.16.19.2005","name":"Sukaresmi"}},{"type":"Feature","geometry":{"type":"Polygon","coordinates":[[[107.1275,-6.341],[107.12,-6.3395],[107.1205,-6.344],[107.1175,-6.363],[107.124,-6.3615],[107.1295,-6.3645],[107.1335,-6.364],[107.134,-6.3615],[107.1405,-6.353],[107.142,-6.35],[107.144,-6.349],[107.1415,-6.346],[107.141,-6.346],[107.1275,-6.341]]]},"properties":{"code":"32.16.19.2006","name":"Serang"}},{"type":"Feature","geometry":{"type":"Polygon","coordinates":[[[107.1475,-6.296],[107.147,-6.296],[107.1435,-6.2955],[107.142,-6.294],[107.1405,-6.296],[107.1405,-6.298],[107.142,-6.3],[107.1415,-6.307],[107.1345,-6.3075],[107.1345,-6.312],[107.134,-6.3145],[107.134,-6.316],[107.139,-6.323],[107.144,-6.327],[107.149,-6.329],[107.1495,-6.3285],[107.154,-6.319],[107.156,-6.3175],[107.158,-6.315],[107.1605,-6.311],[107.164,-6.3105],[107.1655,-6.309],[107.1655,-6.304],[107.164,-6.304],[107.1465,-6.297],[107.1475,-6.296]]]},"properties":{"code":"32.16.19.2007","name":"Pasirsari"}},{"type":"Feature","geometry":{"type":"Polygon","coordinates":[[[107.1675,-6.3565],[107.1435,-6.349],[107.142,-6.35],[107.1405,-6.353],[107.134,-6.3615],[107.1345,-6.366],[107.131,-6.368],[107.13,-6.3685],[107.1295,-6.37],[107.128,-6.3745],[107.1405,-6.3775],[107.143,-6.379],[107.155,-6.388],[107.158,-6.3835],[107.16,-6.38],[107.161,-6.38],[107.168,-6.3625],[107.168,-6.358],[107.168,-6.357],[107.1675,-6.3565]]]},"properties":{"code":"32.16.20.2001","name":"Cicau"}},{"type":"Feature","geometry":{"type":"Polygon","coordinates":[[[107.181,-6.3585],[107.168,-6.357],[107.168,-6.358],[107.168,-6.3625],[107.161,-6.38],[107.1625,-6.38],[107.1715,-6.392],[107.1775,-6.3925],[107.182,-6.3885],[107.183,-6.39],[107.184,-6.3905],[107.184,-6.39],[107.195,-6.3865],[107.196,-6.387],[107.208,-6.384],[107.207,-6.3825],[107.203,-6.3805],[107.2015,-6.3785],[107.193,-6.3775],[107.1925,-6.3745],[107.188,-6.3595],[107.181,-6.3585]]]},"properties":{"code":"32.16.20.2002","name":"Sukamahi"}},{"type":"Feature","geometry":{"type":"Polygon","coordinates":[[[107.2155,-6.3495],[107.214,-6.349],[107.2105,-6.35],[107.197,-6.351],[107.187,-6.359],[107.188,-6.3595],[107.1925,-6.3745],[107.193,-6.3775],[107.2015,-6.3785],[107.203,-6.3805],[107.207,-6.3825],[107.208,-6.384],[107.196,-6.387],[107.195,-6.3865],[107.184,-6.39],[107.184,-6.3915],[107.1815,-6.3925],[107.1815,-6.393],[107.186,-6.3975],[107.194,-6.397],[107.1965,-6.395],[107.199,-6.396],[107.2,-6.3975],[107.201,-6.3985],[107.202,-6.3975],[107.208,-6.397],[107.211,-6.3955],[107.213,-6.396],[107.2145,-6.3945],[107.2175,-6.3935],[107.2185,-6.392],[107.219,-6.3925],[107.221,-6.392],[107.221,-6.3895],[107.221,-6.384],[107.2185,-6.3835],[107.2195,-6.3815],[107.209,-6.3795],[107.205,-6.371],[107.213,-6.3585],[107.2135,-6.3545],[107.2135,-6.3535],[107.215,-6.3505],[107.2155,-6.3495]]]},"properties":{"code":"32.16.20.2003","name":"Pasiranji"}},{"type":"Feature","geometry":{"type":"Polygon","coordinates":[[[107.2025,-6.3315],[107.2005,-6.331],[107.1855,-6.3195],[107.1825,-6.3295],[107.1785,-6.349],[107.18,-6.351],[107.181,-6.3585],[107.187,-6.359],[107.197,-6.351],[107.197,-6.3495],[107.198,-6.3475],[107.1975,-6.347],[107.1965,-6.346],[107.1995,-6.338],[107.2015,-6.336],[107.202,-6.332],[107.2025,-6.332],[107.2025,-6.3315]]]},"properties":{"code":"32.16.20.2004","name":"Hegarmukti"}},{"type":"Feature","geometry":{"type":"Polygon","coordinates":[[[107.1695,-6.307],[107.1655,-6.304],[107.1655,-6.309],[107.164,-6.3105],[107.161,-6.3105],[107.1605,-6.311],[107.1565,-6.3165],[107.1645,-6.322],[107.1665,-6.3215],[107.1725,-6.326],[107.175,-6.342],[107.1675,-6.3565],[107.168,-6.357],[107.181,-6.3585],[107.18,-6.351],[107.1785,-6.349],[107.1825,-6.3295],[107.184,-6.323],[107.1745,-6.3185],[107.169,-6.3085],[107.1695,-6.307]]]},"properties":{"code":"32.16.20.2005","name":"Jayamukti"}},{"type":"Feature","geometry":{"type":"Polygon","coordinates":[[[107.2185,-6.3215],[107.209,-6.3245],[107.208,-6.326],[107.2065,-6.3315],[107.2025,-6.3315],[107.2025,-6.332],[107.202,-6.332],[107.2015,-6.336],[107.1995,-6.338],[107.1965,-6.346],[107.1975,-6.347],[107.198,-6.3475],[107.197,-6.3495],[107.197,-6.351],[107.2105,-6.35],[107.214,-6.349],[107.2155,-6.3495],[107.216,-6.3495],[107.2265,-6.3485],[107.226,-6.3455],[107.2195,-6.332],[107.216,-6.331],[107.215,-6.331],[107.2145,-6.33],[107.219,-6.326],[107.218,-6.3225],[107.218,-6.322],[107.2185,-6.3215]]]},"properties":{"code":"32.16.20.2006","name":"Pasirtanjung"}},{"type":"Feature","geometry":{"type":"Polygon","coordinates":[[[107.128,-6.3745],[107.1185,-6.3795],[107.117,-6.383],[107.115,-6.385],[107.1125,-6.3865],[107.0915,-6.393],[107.0915,-6.3975],[107.091,-6.398],[107.0855,-6.401],[107.085,-6.4015],[107.085,-6.4025],[107.102,-6.407],[107.102,-6.406],[107.102,-6.405],[107.1025,-6.4045],[107.104,-6.405],[107.104,-6.4055],[107.1125,-6.399],[107.113,-6.398],[107.115,-6.397],[107.116,-6.397],[107.1185,-6.3955],[107.119,-6.3945],[107.124,-6.3895],[107.1235,-6.388],[107.1235,-6.387],[107.124,-6.3865],[107.125,-6.386],[107.1265,-6.3795],[107.127,-6.3785],[107.128,-6.375],[107.128,-6.3745]]]},"properties":{"code":"32.16.21.2001","name":"Sukaragam"}},{"type":"Feature","geometry":{"type":"Polygon","coordinates":[[[107.1245,-6.3875],[107.124,-6.3865],[107.1235,-6.387],[107.1235,-6.388],[107.124,-6.3895],[107.119,-6.3945],[107.1185,-6.3955],[107.116,-6.397],[107.115,-6.397],[107.113,-6.398],[107.113,-6.399],[107.1155,-6.4035],[107.1155,-6.405],[107.112,-6.4195],[107.113,-6.4215],[107.118,-6.423],[107.12,-6.4235],[107.123,-6.4175],[107.1235,-6.4165],[107.13,-6.4135],[107.132,-6.4125],[107.1405,-6.403],[107.1415,-6.401],[107.142,-6.3995],[107.1425,-6.3985],[107.142,-6.3985],[107.137,-6.398],[107.125,-6.3885],[107.1245,-6.3875]]]},"properties":{"code":"32.16.21.2002","name":"Sirnajaya"}},{"type":"Feature","geometry":{"type":"Polygon","coordinates":[[[107.13,-6.3685],[107.1295,-6.3685],[107.128,-6.368],[107.119,-6.3715],[107.106,-6.368],[107.097,-6.374],[107.094,-6.3735],[107.092,-6.387],[107.0845,-6.391],[107.086,-6.394],[107.085,-6.3965],[107.0845,-6.4],[107.085,-6.4],[107.085,-6.401],[107.0855,-6.401],[107.091,-6.398],[107.0915,-6.3975],[107.0915,-6.393],[107.1125,-6.3865],[107.115,-6.385],[107.117,-6.383],[107.1185,-6.3795],[107.128,-6.3745],[107.1295,-6.37],[107.13,-6.3685]]]},"properties":{"code":"32.16.21.2003","name":"Sukasari"}},{"type":"Feature","geometry":{"type":"Polygon","coordinates":[[[107.0855,-6.401],[107.085,-6.401],[107.085,-6.4],[107.0845,-6.4],[107.085,-6.3965],[107.086,-6.394],[107.085,-6.3925],[107.082,-6.395],[107.0745,-6.399],[107.057,-6.4035],[107.057,-6.404],[107.055,-6.405],[107.0545,-6.407],[107.058,-6.41],[107.058,-6.411],[107.0545,-6.4125],[107.0545,-6.4135],[107.0575,-6.415],[107.0565,-6.4165],[107.051,-6.417],[107.0525,-6.418],[107.0555,-6.4175],[107.0565,-6.419],[107.058,-6.4225],[107.0595,-6.423],[107.0775,-6.422],[107.0785,-6.4205],[107.085,-6.4035],[107.085,-6.4015],[107.0855,-6.401]]]},"properties":{"code":"32.16.21.2004","name":"Jayamulya"}},{"type":"Feature","geometry":{"type":"Polygon","coordinates":[[[107.1405,-6.403],[107.132,-6.4125],[107.13,-6.4135],[107.1235,-6.4165],[107.123,-6.4175],[107.12,-6.4235],[107.121,-6.4265],[107.123,-6.4265],[107.1255,-6.428],[107.1265,-6.428],[107.145,-6.4245],[107.146,-6.4245],[107.147,-6.4225],[107.148,-6.421],[107.1485,-6.4205],[107.148,-6.4185],[107.152,-6.409],[107.1405,-6.403]]]},"properties":{"code":"32.16.21.2005","name":"Nagacipta"}},{"type":"Feature","geometry":{"type":"Polygon","coordinates":[[[107.184,-6.3905],[107.183,-6.39],[107.182,-6.3885],[107.1775,-6.3925],[107.1715,-6.392],[107.1625,-6.38],[107.16,-6.38],[107.158,-6.3835],[107.155,-6.388],[107.146,-6.3985],[107.145,-6.4],[107.143,-6.399],[107.1425,-6.3985],[107.142,-6.3995],[107.1415,-6.401],[107.1405,-6.403],[107.152,-6.409],[107.148,-6.4185],[107.1485,-6.4205],[107.1545,-6.42],[107.155,-6.419],[107.157,-6.419],[107.1575,-6.4185],[107.1575,-6.418],[107.1575,-6.416],[107.158,-6.415],[107.159,-6.415],[107.16,-6.415],[107.1615,-6.412],[107.1645,-6.4065],[107.1665,-6.407],[107.166,-6.4055],[107.1695,-6.4045],[107.172,-6.4035],[107.1715,-6.405],[107.173,-6.405],[107.1725,-6.402],[107.1725,-6.401],[107.1745,-6.4025],[107.181,-6.396],[107.1815,-6.3925],[107.184,-6.3915],[107.184,-6.3905]]]},"properties":{"code":"32.16.21.2006","name":"Nagasari"}},{"type":"Feature","geometry":{"type":"Polygon","coordinates":[[[107.155,-6.388],[107.143,-6.379],[107.1405,-6.3775],[107.128,-6.3745],[107.128,-6.375],[107.127,-6.3785],[107.1265,-6.3795],[107.125,-6.386],[107.1245,-6.3875],[107.125,-6.3885],[107.137,-6.398],[107.142,-6.3985],[107.1425,-6.399],[107.143,-6.399],[107.145,-6.4],[107.146,-6.3985],[107.155,-6.388]]]},"properties":{"code":"32.16.21.2007","name":"Cilangkara"}},{"type":"Feature","geometry":{"type":"Polygon","coordinates":[[[107.0985,-6.362],[107.0965,-6.3615],[107.096,-6.3625],[107.0935,-6.3615],[107.091,-6.3635],[107.09,-6.3635],[107.0895,-6.3635],[107.0895,-6.365],[107.085,-6.365],[107.0805,-6.364],[107.076,-6.3645],[107.076,-6.365],[107.074,-6.3665],[107.0735,-6.367],[107.073,-6.3705],[107.0655,-6.3835],[107.071,-6.3955],[107.0705,-6.3965],[107.07,-6.3975],[107.0695,-6.3975],[107.068,-6.397],[107.0665,-6.397],[107.066,-6.3975],[107.0645,-6.3985],[107.0625,-6.399],[107.0605,-6.4015],[107.057,-6.4035],[107.0745,-6.399],[107.082,-6.395],[107.085,-6.3925],[107.0845,-6.391],[107.092,-6.387],[107.094,-6.3735],[107.0945,-6.3735],[107.0945,-6.3715],[107.0985,-6.362]]]},"properties":{"code":"32.16.21.2008","name":"Jayasampurna"}},{"type":"Feature","geometry":{"type":"Polygon","coordinates":[[[107.1,-6.431],[107.09,-6.4355],[107.0865,-6.439],[107.0845,-6.4445],[107.085,-6.448],[107.1045,-6.4565],[107.1115,-6.463],[107.113,-6.4625],[107.1185,-6.4585],[107.1195,-6.4575],[107.1195,-6.457],[107.1195,-6.456],[107.12,-6.455],[107.1185,-6.4495],[107.117,-6.4495],[107.1135,-6.45],[107.1135,-6.4505],[107.109,-6.4495],[107.1095,-6.4465],[107.108,-6.4375],[107.108,-6.436],[107.109,-6.436],[107.1085,-6.434],[107.1085,-6.4335],[107.1065,-6.435],[107.1,-6.431]]]},"properties":{"code":"32.16.22.2001","name":"Sirnajati"}},{"type":"Feature","geometry":{"type":"Polygon","coordinates":[[[107.121,-6.4265],[107.116,-6.425],[107.114,-6.426],[107.1145,-6.43],[107.113,-6.431],[107.1085,-6.433],[107.1085,-6.434],[107.109,-6.436],[107.108,-6.436],[107.108,-6.4375],[107.1095,-6.4465],[107.109,-6.4495],[107.1135,-6.4505],[107.1135,-6.45],[107.117,-6.4495],[107.1185,-6.4495],[107.12,-6.455],[107.1205,-6.4555],[107.1375,-6.456],[107.156,-6.453],[107.1575,-6.453],[107.1585,-6.4525],[107.1595,-6.451],[107.164,-6.4485],[107.166,-6.449],[107.169,-6.449],[107.1705,-6.4495],[107.1715,-6.4505],[107.172,-6.45],[107.167,-6.443],[107.165,-6.4415],[107.164,-6.4415],[107.1625,-6.4415],[107.161,-6.4425],[107.1615,-6.4425],[107.162,-6.4435],[107.161,-6.4435],[107.1585,-6.444],[107.1535,-6.446],[107.126,-6.437],[107.1245,-6.436],[107.1265,-6.429],[107.1255,-6.428],[107.123,-6.4265],[107.121,-6.4265]]]},"properties":{"code":"32.16.22.2002","name":"Ridogalih"}},{"type":"Feature","geometry":{"type":"Polygon","coordinates":[[[107.1545,-6.42],[107.1485,-6.4205],[107.148,-6.421],[107.147,-6.4225],[107.146,-6.4245],[107.145,-6.4245],[107.1265,-6.428],[107.1265,-6.429],[107.1245,-6.436],[107.126,-6.437],[107.1535,-6.446],[107.1585,-6.444],[107.161,-6.4435],[107.162,-6.4435],[107.1615,-6.4425],[107.1605,-6.442],[107.158,-6.441],[107.156,-6.4405],[107.1555,-6.44],[107.15,-6.436],[107.1495,-6.4355],[107.149,-6.4345],[107.154,-6.424],[107.1535,-6.421],[107.155,-6.4205],[107.1545,-6.42]]]},"properties":{"code":"32.16.22.2003","name":"Ridomanah"}},{"type":"Feature","geometry":{"type":"Polygon","coordinates":[[[107.12,-6.4235],[107.118,-6.423],[107.113,-6.4215],[107.112,-6.4195],[107.1155,-6.405],[107.1155,-6.4035],[107.113,-6.399],[107.1125,-6.399],[107.104,-6.4055],[107.104,-6.405],[107.1025,-6.4045],[107.102,-6.405],[107.102,-6.406],[107.1,-6.4155],[107.1,-6.431],[107.1065,-6.435],[107.1085,-6.4335],[107.1085,-6.433],[107.113,-6.431],[107.1145,-6.43],[107.114,-6.426],[107.116,-6.425],[107.121,-6.4265],[107.12,-6.4235]]]},"properties":{"code":"32.16.22.2004","name":"Wibawamulya"}},{"type":"Feature","geometry":{"type":"Polygon","coordinates":[[[107.09,-6.4355],[107.078,-6.421],[107.0775,-6.422],[107.0735,-6.439],[107.0745,-6.441],[107.0825,-6.4455],[107.0845,-6.4445],[107.0865,-6.439],[107.09,-6.4355]]]},"properties":{"code":"32.16.22.2005","name":"Cibarusah Kota"}},{"type":"Feature","geometry":{"type":"Polygon","coordinates":[[[107.0775,-6.422],[107.0595,-6.423],[107.057,-6.424],[107.0585,-6.427],[107.0545,-6.4295],[107.057,-6.43],[107.0575,-6.4295],[107.0585,-6.431],[107.055,-6.435],[107.0565,-6.4355],[107.073,-6.44],[107.0735,-6.439],[107.0775,-6.422]]]},"properties":{"code":"32.16.22.2006","name":"Cibarusah Jaya"}},{"type":"Feature","geometry":{"type":"Polygon","coordinates":[[[107.102,-6.407],[107.085,-6.4025],[107.085,-6.4035],[107.0785,-6.4205],[107.078,-6.421],[107.09,-6.4355],[107.1,-6.431],[107.1,-6.4155],[107.102,-6.407]]]},"properties":{"code":"32.16.22.2007","name":"Sindangmulya"}},{"type":"Feature","geometry":{"type":"Polygon","coordinates":[[[107.201,-6.461],[107.187,-6.4475],[107.1715,-6.451],[107.1715,-6.4505],[107.1705,-6.4495],[107.169,-6.449],[107.166,-6.449],[107.1645,-6.4485],[107.1665,-6.4615],[107.156,-6.476],[107.158,-6.4775],[107.167,-6.4835],[107.1705,-6.4845],[107.171,-6.484],[107.173,-6.485],[107.1735,-6.485],[107.174,-6.486],[107.174,-6.4845],[107.1735,-6.483],[107.173,-6.4825],[107.1815,-6.469],[107.1845,-6.467],[107.1855,-6.467],[107.186,-6.469],[107.201,-6.461]]]},"properties":{"code":"32.16.23.2001","name":"Karangmulya"}},{"type":"Feature","geometry":{"type":"Polygon","coordinates":[[[107.1645,-6.4485],[107.164,-6.4485],[107.1595,-6.451],[107.1585,-6.4525],[107.1575,-6.453],[107.156,-6.453],[107.1375,-6.456],[107.1205,-6.4555],[107.1195,-6.456],[107.1195,-6.457],[107.1195,-6.4575],[107.1185,-6.4585],[107.113,-6.4625],[107.1135,-6.4635],[107.1145,-6.465],[107.115,-6.465],[107.117,-6.4655],[107.121,-6.4685],[107.127,-6.471],[107.129,-6.4715],[107.13,-6.471],[107.131,-6.471],[107.156,-6.476],[107.1665,-6.4615],[107.1645,-6.4485]]]},"properties":{"code":"32.16.23.2002","name":"Karangindah"}},{"type":"Feature","geometry":{"type":"Polygon","coordinates":[[[107.185,-6.424],[107.176,-6.424],[107.1755,-6.426],[107.175,-6.428],[107.1695,-6.438],[107.168,-6.439],[107.1675,-6.439],[107.167,-6.441],[107.1675,-6.442],[107.167,-6.443],[107.172,-6.45],[107.1715,-6.451],[107.187,-6.4475],[107.201,-6.461],[107.2085,-6.468],[107.2095,-6.467],[107.213,-6.4645],[107.215,-6.464],[107.2155,-6.4625],[107.2155,-6.458],[107.206,-6.4525],[107.2115,-6.4515],[107.2105,-6.4465],[107.203,-6.4255],[107.1975,-6.425],[107.1965,-6.424],[107.185,-6.424]]]},"properties":{"code":"32.16.23.2003","name":"Bojongmangu"}},{"type":"Feature","geometry":{"type":"Polygon","coordinates":[[[107.222,-6.4025],[107.22,-6.396],[107.2205,-6.394],[107.221,-6.392],[107.219,-6.3925],[107.2185,-6.392],[107.2175,-6.3935],[107.2145,-6.3945],[107.213,-6.396],[107.211,-6.3955],[107.208,-6.397],[107.202,-6.3975],[107.2,-6.399],[107.185,-6.424],[107.1965,-6.424],[107.1965,-6.4235],[107.2035,-6.42],[107.202,-6.414],[107.209,-6.4165],[107.212,-6.417],[107.2125,-6.4095],[107.222,-6.4025]]]},"properties":{"code":"32.16.23.2004","name":"Sukabungah"}},{"type":"Feature","geometry":{"type":"Polygon","coordinates":[[[107.201,-6.3985],[107.2,-6.3975],[107.199,-6.396],[107.1965,-6.395],[107.194,-6.397],[107.186,-6.3975],[107.1815,-6.393],[107.181,-6.396],[107.1745,-6.4025],[107.1725,-6.401],[107.1725,-6.402],[107.173,-6.405],[107.1715,-6.405],[107.172,-6.4035],[107.1695,-6.4045],[107.166,-6.4055],[107.1665,-6.407],[107.1645,-6.4065],[107.1615,-6.412],[107.16,-6.415],[107.159,-6.415],[107.158,-6.415],[107.1575,-6.416],[107.1575,-6.418],[107.1595,-6.4175],[107.1755,-6.4245],[107.176,-6.424],[107.185,-6.424],[107.2,-6.399],[107.201,-6.3985]]]},"properties":{"code":"32.16.23.2005","name":"Sukamukti"}},{"type":"Feature","geometry":{"type":"Polygon","coordinates":[[[107.1755,-6.4245],[107.1595,-6.4175],[107.1575,-6.418],[107.1575,-6.4185],[107.157,-6.419],[107.155,-6.419],[107.1545,-6.42],[107.155,-6.4205],[107.1535,-6.421],[107.154,-6.424],[107.149,-6.4345],[107.1495,-6.4355],[107.15,-6.436],[107.1555,-6.44],[107.156,-6.4405],[107.158,-6.441],[107.1605,-6.442],[107.161,-6.4425],[107.1625,-6.4415],[107.164,-6.4415],[107.165,-6.4415],[107.167,-6.443],[107.1675,-6.442],[107.167,-6.441],[107.1675,-6.439],[107.168,-6.439],[107.1695,-6.438],[107.175,-6.428],[107.1755,-6.426],[107.1755,-6.4245]]]},"properties":{"code":"32.16.23.2006","name":"Medalkrisna"}}]}