{"type":"FeatureCollection","features":[{"type":"Feature","geometry":{"type":"Polygon","coordinates":[[[110.7275,-7.7835],[110.7295,-7.7725],[110.7295,-7.7715],[110.728,-7.7715],[110.7265,-7.771],[110.7255,-7.776],[110.724,-7.777],[110.7215,-7.7765],[110.721,-7.777],[110.7205,-7.777],[110.7195,-7.778],[110.72,-7.7785],[110.7205,-7.7795],[110.7195,-7.78],[110.719,-7.779],[110.719,-7.7795],[110.7185,-7.7825],[110.719,-7.7835],[110.719,-7.784],[110.718,-7.7845],[110.718,-7.7855],[110.7175,-7.7855],[110.7155,-7.7885],[110.715,-7.789],[110.715,-7.7915],[110.724,-7.794],[110.728,-7.7965],[110.7275,-7.796],[110.727,-7.793],[110.7275,-7.7835]]]},"properties":{"code":"33.11.01.2001","name":"Grogol"}},{"type":"Feature","geometry":{"type":"Polygon","coordinates":[[[110.7345,-7.7835],[110.7275,-7.7835],[110.727,-7.793],[110.7275,-7.796],[110.728,-7.7965],[110.7315,-7.799],[110.7365,-7.8025],[110.7365,-7.802],[110.737,-7.802],[110.7375,-7.8],[110.7395,-7.799],[110.7425,-7.8],[110.7415,-7.7975],[110.7415,-7.7855],[110.7345,-7.7845],[110.7345,-7.7835]]]},"properties":{"code":"33.11.01.2002","name":"Karangtengah"}},{"type":"Feature","geometry":{"type":"Polygon","coordinates":[[[110.7565,-7.7925],[110.7545,-7.793],[110.7535,-7.794],[110.7515,-7.7935],[110.7505,-7.7955],[110.7475,-7.7945],[110.743,-7.7975],[110.7425,-7.8],[110.7395,-7.799],[110.7375,-7.8],[110.737,-7.802],[110.7365,-7.802],[110.7365,-7.8025],[110.74,-7.8045],[110.7425,-7.806],[110.755,-7.809],[110.755,-7.8075],[110.7545,-7.807],[110.755,-7.805],[110.7575,-7.7955],[110.7565,-7.795],[110.756,-7.794],[110.7565,-7.7925]]]},"properties":{"code":"33.11.01.2003","name":"Karangwuni"}},{"type":"Feature","geometry":{"type":"Polygon","coordinates":[[[110.755,-7.808],[110.755,-7.809],[110.7425,-7.806],[110.744,-7.8185],[110.7495,-7.82],[110.7585,-7.8255],[110.762,-7.8235],[110.763,-7.8205],[110.764,-7.8125],[110.7645,-7.81],[110.761,-7.81],[110.7555,-7.809],[110.7555,-7.8085],[110.755,-7.808]]]},"properties":{"code":"33.11.01.2004","name":"Krajan"}},{"type":"Feature","geometry":{"type":"Polygon","coordinates":[[[110.7825,-7.804],[110.782,-7.8045],[110.771,-7.8025],[110.7675,-7.801],[110.7595,-7.7965],[110.7575,-7.7955],[110.755,-7.805],[110.7545,-7.807],[110.755,-7.8075],[110.755,-7.808],[110.7555,-7.8085],[110.7555,-7.809],[110.761,-7.81],[110.7645,-7.81],[110.7645,-7.8095],[110.774,-7.8095],[110.7855,-7.8165],[110.7835,-7.8115],[110.783,-7.8095],[110.783,-7.805],[110.7825,-7.804]]]},"properties":{"code":"33.11.01.2005","name":"Jatingarang"}},{"type":"Feature","geometry":{"type":"Polygon","coordinates":[[[110.775,-7.7855],[110.7745,-7.7855],[110.7735,-7.7855],[110.77,-7.785],[110.7695,-7.7855],[110.7675,-7.786],[110.764,-7.7855],[110.7565,-7.788],[110.7565,-7.792],[110.7565,-7.793],[110.756,-7.794],[110.7565,-7.795],[110.7595,-7.7965],[110.7675,-7.801],[110.771,-7.8025],[110.782,-7.8045],[110.783,-7.804],[110.7835,-7.8035],[110.7835,-7.803],[110.779,-7.795],[110.777,-7.7945],[110.776,-7.792],[110.7745,-7.7875],[110.775,-7.7855]]]},"properties":{"code":"33.11.01.2006","name":"Karanganyar"}},{"type":"Feature","geometry":{"type":"Polygon","coordinates":[[[110.7875,-7.777],[110.7855,-7.7765],[110.78,-7.778],[110.777,-7.78],[110.775,-7.7835],[110.775,-7.7855],[110.7745,-7.7875],[110.776,-7.792],[110.777,-7.7945],[110.779,-7.795],[110.7835,-7.803],[110.7835,-7.8025],[110.7935,-7.795],[110.797,-7.796],[110.799,-7.7945],[110.8015,-7.7945],[110.801,-7.793],[110.8025,-7.7925],[110.803,-7.7915],[110.8015,-7.7915],[110.7875,-7.777]]]},"properties":{"code":"33.11.01.2007","name":"Alasombo"}},{"type":"Feature","geometry":{"type":"Polygon","coordinates":[[[110.793,-7.7715],[110.7925,-7.77],[110.7885,-7.7665],[110.788,-7.7655],[110.7875,-7.767],[110.787,-7.769],[110.786,-7.7695],[110.7845,-7.7685],[110.784,-7.77],[110.7825,-7.769],[110.7625,-7.7715],[110.763,-7.7725],[110.7625,-7.7745],[110.763,-7.7815],[110.7685,-7.782],[110.768,-7.786],[110.7695,-7.7855],[110.77,-7.785],[110.7735,-7.7855],[110.7745,-7.7855],[110.775,-7.7855],[110.775,-7.7835],[110.777,-7.78],[110.78,-7.778],[110.7855,-7.7765],[110.7885,-7.7765],[110.7905,-7.773],[110.791,-7.7725],[110.793,-7.7715]]]},"properties":{"code":"33.11.01.2008","name":"Karangmojo"}},{"type":"Feature","geometry":{"type":"Polygon","coordinates":[[[110.763,-7.7725],[110.759,-7.7715],[110.756,-7.77],[110.748,-7.7705],[110.748,-7.7735],[110.747,-7.7735],[110.7465,-7.774],[110.7465,-7.775],[110.747,-7.778],[110.753,-7.7865],[110.7565,-7.788],[110.764,-7.7855],[110.768,-7.786],[110.7685,-7.782],[110.763,-7.7815],[110.7625,-7.7745],[110.763,-7.7725]]]},"properties":{"code":"33.11.01.2009","name":"Weru"}},{"type":"Feature","geometry":{"type":"Polygon","coordinates":[[[110.747,-7.778],[110.7435,-7.7805],[110.7355,-7.78],[110.735,-7.78],[110.7345,-7.7845],[110.7415,-7.7855],[110.7415,-7.7975],[110.743,-7.7975],[110.7475,-7.7945],[110.7505,-7.7955],[110.7515,-7.7935],[110.7535,-7.794],[110.7545,-7.793],[110.7565,-7.7925],[110.7565,-7.792],[110.7565,-7.788],[110.753,-7.7865],[110.747,-7.778]]]},"properties":{"code":"33.11.01.2010","name":"Karakan"}},{"type":"Feature","geometry":{"type":"Polygon","coordinates":[[[110.747,-7.7735],[110.737,-7.762],[110.737,-7.761],[110.7365,-7.7605],[110.7355,-7.761],[110.735,-7.7625],[110.731,-7.7625],[110.73,-7.7635],[110.7295,-7.765],[110.729,-7.7665],[110.729,-7.7705],[110.727,-7.77],[110.7265,-7.7705],[110.7265,-7.771],[110.728,-7.7715],[110.7295,-7.7715],[110.7295,-7.7725],[110.7275,-7.7835],[110.7345,-7.7835],[110.735,-7.78],[110.7355,-7.78],[110.7435,-7.7805],[110.747,-7.778],[110.7465,-7.775],[110.7465,-7.774],[110.747,-7.7735]]]},"properties":{"code":"33.11.01.2011","name":"Tegalsari"}},{"type":"Feature","geometry":{"type":"Polygon","coordinates":[[[110.751,-7.7445],[110.7505,-7.744],[110.7495,-7.7445],[110.747,-7.749],[110.7455,-7.7495],[110.745,-7.752],[110.7445,-7.752],[110.7435,-7.7535],[110.742,-7.7545],[110.7415,-7.755],[110.741,-7.756],[110.7415,-7.756],[110.743,-7.7565],[110.7435,-7.757],[110.7415,-7.7575],[110.738,-7.762],[110.7375,-7.7605],[110.7365,-7.7605],[110.737,-7.761],[110.737,-7.762],[110.747,-7.7735],[110.748,-7.7735],[110.748,-7.7705],[110.75,-7.758],[110.7665,-7.758],[110.767,-7.7565],[110.7635,-7.754],[110.751,-7.7445]]]},"properties":{"code":"33.11.01.2012","name":"Tawang"}},{"type":"Feature","geometry":{"type":"Polygon","coordinates":[[[110.7825,-7.7615],[110.768,-7.7555],[110.767,-7.7565],[110.7665,-7.758],[110.75,-7.758],[110.748,-7.7705],[110.756,-7.77],[110.759,-7.7715],[110.763,-7.7725],[110.7625,-7.7715],[110.7825,-7.769],[110.784,-7.77],[110.7845,-7.7685],[110.786,-7.7695],[110.787,-7.769],[110.7875,-7.767],[110.7875,-7.7655],[110.789,-7.764],[110.787,-7.7635],[110.7825,-7.7615]]]},"properties":{"code":"33.11.01.2013","name":"Ngreco"}},{"type":"Feature","geometry":{"type":"Polygon","coordinates":[[[110.808,-7.7755],[110.7935,-7.7715],[110.793,-7.7715],[110.791,-7.7725],[110.7905,-7.773],[110.7885,-7.7765],[110.7875,-7.777],[110.8015,-7.7915],[110.8025,-7.791],[110.8035,-7.7915],[110.827,-7.797],[110.8315,-7.796],[110.832,-7.794],[110.8345,-7.791],[110.8355,-7.79],[110.8315,-7.789],[110.828,-7.7845],[110.827,-7.783],[110.8255,-7.7825],[110.808,-7.7755]]]},"properties":{"code":"33.11.02.2001","name":"Sanggang"}},{"type":"Feature","geometry":{"type":"Polygon","coordinates":[[[110.829,-7.768],[110.809,-7.7655],[110.807,-7.765],[110.808,-7.7755],[110.8255,-7.7825],[110.828,-7.7835],[110.831,-7.778],[110.8315,-7.7765],[110.8315,-7.775],[110.832,-7.7735],[110.8315,-7.7725],[110.829,-7.768]]]},"properties":{"code":"33.11.02.2002","name":"Kamal"}},{"type":"Feature","geometry":{"type":"Polygon","coordinates":[[[110.851,-7.783],[110.85,-7.7825],[110.8435,-7.773],[110.836,-7.767],[110.8335,-7.77],[110.8315,-7.7765],[110.831,-7.778],[110.828,-7.7835],[110.827,-7.783],[110.828,-7.7845],[110.8315,-7.789],[110.8355,-7.79],[110.8345,-7.791],[110.832,-7.794],[110.833,-7.7955],[110.8415,-7.8005],[110.8415,-7.797],[110.8415,-7.795],[110.848,-7.7845],[110.849,-7.783],[110.85,-7.7835],[110.851,-7.783]]]},"properties":{"code":"33.11.02.2003","name":"Gentan"}},{"type":"Feature","geometry":{"type":"Polygon","coordinates":[[[110.856,-7.7865],[110.855,-7.7865],[110.851,-7.783],[110.85,-7.7835],[110.849,-7.783],[110.848,-7.7845],[110.8415,-7.795],[110.8415,-7.797],[110.8415,-7.8005],[110.846,-7.8125],[110.8525,-7.818],[110.853,-7.815],[110.8595,-7.797],[110.86,-7.796],[110.859,-7.7945],[110.859,-7.7935],[110.8585,-7.7925],[110.8575,-7.7905],[110.856,-7.787],[110.856,-7.7865]]]},"properties":{"code":"33.11.02.2004","name":"Kedungsono"}},{"type":"Feature","geometry":{"type":"Polygon","coordinates":[[[110.8585,-7.7675],[110.845,-7.76],[110.844,-7.7595],[110.8365,-7.7635],[110.835,-7.7645],[110.8355,-7.767],[110.8435,-7.773],[110.85,-7.7825],[110.855,-7.7865],[110.8555,-7.7865],[110.856,-7.7865],[110.8545,-7.7845],[110.8555,-7.7835],[110.8565,-7.782],[110.857,-7.781],[110.8575,-7.779],[110.8575,-7.7745],[110.8585,-7.7735],[110.859,-7.7705],[110.859,-7.7695],[110.8585,-7.769],[110.8585,-7.7675]]]},"properties":{"code":"33.11.02.2005","name":"Tiyaran"}},{"type":"Feature","geometry":{"type":"Polygon","coordinates":[[[110.8635,-7.752],[110.8525,-7.7555],[110.851,-7.7555],[110.849,-7.7535],[110.849,-7.752],[110.8505,-7.747],[110.8375,-7.7525],[110.843,-7.758],[110.845,-7.76],[110.8585,-7.7675],[110.86,-7.7665],[110.863,-7.7575],[110.8635,-7.7565],[110.864,-7.756],[110.8635,-7.7535],[110.864,-7.753],[110.8635,-7.752]]]},"properties":{"code":"33.11.02.2006","name":"Karangasem"}},{"type":"Feature","geometry":{"type":"Polygon","coordinates":[[[110.8375,-7.7525],[110.8325,-7.752],[110.8275,-7.756],[110.827,-7.759],[110.827,-7.7615],[110.829,-7.768],[110.8315,-7.7725],[110.832,-7.7735],[110.8315,-7.775],[110.8315,-7.7765],[110.8335,-7.77],[110.836,-7.767],[110.8355,-7.767],[110.835,-7.7645],[110.8365,-7.7635],[110.844,-7.7595],[110.843,-7.758],[110.8375,-7.7525]]]},"properties":{"code":"33.11.02.2007","name":"Bulu"}},{"type":"Feature","geometry":{"type":"Polygon","coordinates":[[[110.829,-7.7515],[110.818,-7.7475],[110.8175,-7.75],[110.805,-7.759],[110.8055,-7.761],[110.808,-7.763],[110.809,-7.7655],[110.829,-7.768],[110.827,-7.7615],[110.827,-7.759],[110.8275,-7.756],[110.829,-7.7515]]]},"properties":{"code":"33.11.02.2008","name":"Kunden"}},{"type":"Feature","geometry":{"type":"Polygon","coordinates":[[[110.818,-7.743],[110.8175,-7.7445],[110.817,-7.7445],[110.814,-7.7435],[110.811,-7.7445],[110.806,-7.744],[110.8005,-7.7475],[110.8,-7.751],[110.8005,-7.752],[110.8035,-7.76],[110.8035,-7.758],[110.805,-7.759],[110.8175,-7.75],[110.8185,-7.746],[110.818,-7.743]]]},"properties":{"code":"33.11.02.2009","name":"Puron"}},{"type":"Feature","geometry":{"type":"Polygon","coordinates":[[[110.806,-7.731],[110.8055,-7.7305],[110.8015,-7.7295],[110.8015,-7.7305],[110.8015,-7.731],[110.8005,-7.732],[110.8,-7.7325],[110.7995,-7.734],[110.801,-7.738],[110.8,-7.739],[110.7995,-7.7395],[110.799,-7.7415],[110.8,-7.742],[110.7995,-7.7435],[110.8005,-7.7465],[110.8005,-7.7475],[110.806,-7.744],[110.811,-7.7445],[110.814,-7.7435],[110.817,-7.7445],[110.8175,-7.7445],[110.818,-7.743],[110.8165,-7.742],[110.806,-7.731]]]},"properties":{"code":"33.11.02.2010","name":"Malangan"}},{"type":"Feature","geometry":{"type":"Polygon","coordinates":[[[110.832,-7.7275],[110.8255,-7.728],[110.825,-7.728],[110.806,-7.731],[110.8165,-7.742],[110.818,-7.743],[110.8315,-7.73],[110.832,-7.7275]]]},"properties":{"code":"33.11.02.2011","name":"Lengking"}},{"type":"Feature","geometry":{"type":"Polygon","coordinates":[[[110.8315,-7.73],[110.818,-7.743],[110.8185,-7.746],[110.818,-7.7475],[110.829,-7.7515],[110.8325,-7.752],[110.8375,-7.7525],[110.8505,-7.747],[110.851,-7.7455],[110.8515,-7.7445],[110.851,-7.743],[110.847,-7.7415],[110.837,-7.741],[110.8315,-7.73]]]},"properties":{"code":"33.11.02.2012","name":"Ngasinan"}},{"type":"Feature","geometry":{"type":"Polygon","coordinates":[[[110.8005,-7.752],[110.7845,-7.752],[110.784,-7.756],[110.7825,-7.7615],[110.787,-7.7635],[110.789,-7.764],[110.788,-7.7655],[110.788,-7.7665],[110.7885,-7.7665],[110.7925,-7.77],[110.7935,-7.7715],[110.808,-7.7755],[110.807,-7.765],[110.808,-7.763],[110.8055,-7.761],[110.805,-7.759],[110.8035,-7.758],[110.8035,-7.76],[110.8005,-7.752]]]},"properties":{"code":"33.11.03.2001","name":"Pundungrejo"}},{"type":"Feature","geometry":{"type":"Polygon","coordinates":[[[110.766,-7.748],[110.7555,-7.7435],[110.7525,-7.741],[110.7535,-7.7395],[110.7515,-7.741],[110.7505,-7.74],[110.7505,-7.7415],[110.7515,-7.7435],[110.751,-7.7445],[110.7635,-7.754],[110.768,-7.7555],[110.7825,-7.7615],[110.784,-7.756],[110.7845,-7.7525],[110.7845,-7.752],[110.7845,-7.75],[110.7845,-7.748],[110.7835,-7.746],[110.779,-7.7425],[110.7785,-7.743],[110.778,-7.743],[110.7765,-7.7425],[110.766,-7.748]]]},"properties":{"code":"33.11.03.2002","name":"Watubonang"}},{"type":"Feature","geometry":{"type":"Polygon","coordinates":[[[110.7705,-7.7235],[110.766,-7.7215],[110.7655,-7.7215],[110.762,-7.7265],[110.7605,-7.727],[110.76,-7.7265],[110.76,-7.729],[110.7595,-7.729],[110.759,-7.7295],[110.7595,-7.731],[110.757,-7.7335],[110.7565,-7.7365],[110.756,-7.736],[110.7535,-7.7395],[110.7525,-7.741],[110.7555,-7.7435],[110.766,-7.748],[110.766,-7.7385],[110.7675,-7.732],[110.77,-7.728],[110.7705,-7.7235]]]},"properties":{"code":"33.11.03.2003","name":"Kedungjambal"}},{"type":"Feature","geometry":{"type":"Polygon","coordinates":[[[110.784,-7.729],[110.7705,-7.7235],[110.77,-7.728],[110.7675,-7.732],[110.766,-7.7385],[110.766,-7.748],[110.7765,-7.7425],[110.778,-7.743],[110.7785,-7.743],[110.7805,-7.738],[110.7815,-7.736],[110.782,-7.732],[110.784,-7.729]]]},"properties":{"code":"33.11.03.2004","name":"Grajegan"}},{"type":"Feature","geometry":{"type":"Polygon","coordinates":[[[110.7995,-7.7395],[110.798,-7.7395],[110.7965,-7.7365],[110.792,-7.7355],[110.783,-7.7355],[110.7815,-7.735],[110.7815,-7.736],[110.7805,-7.738],[110.779,-7.7425],[110.7835,-7.746],[110.7845,-7.748],[110.7845,-7.75],[110.7845,-7.752],[110.7845,-7.7525],[110.7845,-7.752],[110.8005,-7.752],[110.8,-7.751],[110.8005,-7.7465],[110.7995,-7.7435],[110.8,-7.742],[110.799,-7.7415],[110.7995,-7.7395]]]},"properties":{"code":"33.11.03.2005","name":"Lorog"}},{"type":"Feature","geometry":{"type":"Polygon","coordinates":[[[110.792,-7.723],[110.784,-7.729],[110.782,-7.732],[110.7815,-7.735],[110.783,-7.7355],[110.792,-7.7355],[110.7965,-7.7365],[110.798,-7.7395],[110.8,-7.739],[110.801,-7.738],[110.7995,-7.734],[110.8,-7.7325],[110.8005,-7.732],[110.8015,-7.7315],[110.8015,-7.731],[110.8015,-7.7295],[110.7995,-7.729],[110.7975,-7.725],[110.795,-7.724],[110.7935,-7.724],[110.792,-7.723]]]},"properties":{"code":"33.11.03.2006","name":"Kateguhan"}},{"type":"Feature","geometry":{"type":"Polygon","coordinates":[[[110.825,-7.728],[110.8235,-7.727],[110.8245,-7.7215],[110.817,-7.718],[110.816,-7.713],[110.815,-7.7135],[110.8135,-7.715],[110.8115,-7.7165],[110.8095,-7.717],[110.8065,-7.716],[110.7995,-7.729],[110.8055,-7.7305],[110.806,-7.731],[110.825,-7.728]]]},"properties":{"code":"33.11.03.2007","name":"Dalangan"}},{"type":"Feature","geometry":{"type":"Polygon","coordinates":[[[110.801,-7.709],[110.791,-7.719],[110.791,-7.7225],[110.7935,-7.724],[110.795,-7.724],[110.7975,-7.725],[110.7995,-7.729],[110.8065,-7.716],[110.806,-7.716],[110.801,-7.709]]]},"properties":{"code":"33.11.03.2008","name":"Pojok"}},{"type":"Feature","geometry":{"type":"Polygon","coordinates":[[[110.801,-7.6965],[110.791,-7.701],[110.789,-7.699],[110.785,-7.7095],[110.7865,-7.71],[110.7835,-7.7195],[110.791,-7.719],[110.801,-7.709],[110.8015,-7.7075],[110.8045,-7.708],[110.806,-7.7075],[110.808,-7.705],[110.8055,-7.7035],[110.802,-7.7025],[110.801,-7.6965]]]},"properties":{"code":"33.11.03.2009","name":"Tangkisan"}},{"type":"Feature","geometry":{"type":"Polygon","coordinates":[[[110.786,-7.711],[110.785,-7.7105],[110.7845,-7.71],[110.7765,-7.709],[110.771,-7.7115],[110.7715,-7.714],[110.7705,-7.7125],[110.77,-7.712],[110.7665,-7.7155],[110.7655,-7.7165],[110.7645,-7.718],[110.7635,-7.72],[110.764,-7.72],[110.766,-7.7215],[110.7705,-7.7235],[110.784,-7.729],[110.792,-7.723],[110.791,-7.7225],[110.7835,-7.7195],[110.786,-7.711]]]},"properties":{"code":"33.11.03.2010","name":"Ponowaren"}},{"type":"Feature","geometry":{"type":"Polygon","coordinates":[[[110.789,-7.699],[110.7855,-7.6975],[110.781,-7.6905],[110.77,-7.6905],[110.7695,-7.6915],[110.772,-7.6915],[110.7735,-7.6925],[110.774,-7.6945],[110.7705,-7.6965],[110.7685,-7.698],[110.7695,-7.7],[110.768,-7.7],[110.769,-7.703],[110.7685,-7.7045],[110.7675,-7.705],[110.77,-7.7085],[110.77,-7.711],[110.771,-7.711],[110.771,-7.7115],[110.7765,-7.709],[110.7845,-7.71],[110.785,-7.7105],[110.786,-7.711],[110.7865,-7.71],[110.785,-7.7095],[110.789,-7.699]]]},"properties":{"code":"33.11.03.2011","name":"Majasto"}},{"type":"Feature","geometry":{"type":"Polygon","coordinates":[[[110.782,-7.6805],[110.781,-7.682],[110.777,-7.6815],[110.7745,-7.6835],[110.7695,-7.6845],[110.77,-7.685],[110.7705,-7.6855],[110.7695,-7.6895],[110.77,-7.6905],[110.781,-7.6905],[110.7855,-7.6975],[110.7885,-7.6985],[110.791,-7.701],[110.7945,-7.6895],[110.796,-7.684],[110.796,-7.6825],[110.7945,-7.6815],[110.7935,-7.6815],[110.7905,-7.692],[110.782,-7.686],[110.7835,-7.6845],[110.7845,-7.684],[110.7905,-7.6825],[110.79,-7.6815],[110.787,-7.68],[110.7845,-7.68],[110.782,-7.6805]]]},"properties":{"code":"33.11.03.2012","name":"Tambakboyo"}},{"type":"Feature","geometry":{"type":"Polygon","coordinates":[[[110.8185,-7.699],[110.814,-7.6895],[110.806,-7.6905],[110.805,-7.6905],[110.805,-7.6895],[110.8045,-7.6895],[110.803,-7.696],[110.801,-7.6965],[110.802,-7.7025],[110.8055,-7.7035],[110.808,-7.705],[110.806,-7.7075],[110.8045,-7.708],[110.8015,-7.7075],[110.801,-7.709],[110.806,-7.716],[110.808,-7.714],[110.818,-7.702],[110.8185,-7.7005],[110.8185,-7.699]]]},"properties":{"code":"33.11.04.1001","name":"Kenep"}},{"type":"Feature","geometry":{"type":"Polygon","coordinates":[[[110.8285,-7.694],[110.824,-7.6915],[110.8185,-7.6985],[110.8185,-7.7005],[110.818,-7.702],[110.808,-7.714],[110.806,-7.716],[110.8095,-7.717],[110.8115,-7.7165],[110.8135,-7.715],[110.815,-7.7135],[110.815,-7.713],[110.824,-7.706],[110.832,-7.694],[110.8285,-7.694]]]},"properties":{"code":"33.11.04.1002","name":"Banmati"}},{"type":"Feature","geometry":{"type":"Polygon","coordinates":[[[110.8455,-7.697],[110.832,-7.694],[110.824,-7.706],[110.826,-7.7115],[110.8435,-7.711],[110.848,-7.709],[110.8475,-7.706],[110.8455,-7.697]]]},"properties":{"code":"33.11.04.1003","name":"Mandan"}},{"type":"Feature","geometry":{"type":"Polygon","coordinates":[[[110.8565,-7.6965],[110.85,-7.6965],[110.85,-7.697],[110.8455,-7.6965],[110.8475,-7.706],[110.848,-7.709],[110.847,-7.71],[110.849,-7.7095],[110.8515,-7.7085],[110.8685,-7.707],[110.8695,-7.707],[110.875,-7.702],[110.876,-7.701],[110.875,-7.701],[110.8565,-7.6965]]]},"properties":{"code":"33.11.04.1004","name":"Begajah"}},{"type":"Feature","geometry":{"type":"Polygon","coordinates":[[[110.847,-7.6785],[110.8395,-7.673],[110.839,-7.6725],[110.842,-7.6805],[110.8415,-7.681],[110.8425,-7.6815],[110.8455,-7.689],[110.85,-7.6965],[110.8565,-7.6965],[110.8575,-7.6865],[110.858,-7.685],[110.8575,-7.684],[110.8565,-7.684],[110.847,-7.6795],[110.847,-7.6785]]]},"properties":{"code":"33.11.04.1005","name":"Gayam"}},{"type":"Feature","geometry":{"type":"Polygon","coordinates":[[[110.843,-7.6825],[110.8285,-7.694],[110.832,-7.694],[110.8455,-7.697],[110.8455,-7.6965],[110.85,-7.697],[110.8455,-7.689],[110.843,-7.6825]]]},"properties":{"code":"33.11.04.1006","name":"Joho"}},{"type":"Feature","geometry":{"type":"Polygon","coordinates":[[[110.8415,-7.681],[110.841,-7.6805],[110.821,-7.682],[110.82,-7.687],[110.821,-7.689],[110.8205,-7.69],[110.8285,-7.694],[110.843,-7.6825],[110.8425,-7.6815],[110.8415,-7.681]]]},"properties":{"code":"33.11.04.1007","name":"Jetis"}},{"type":"Feature","geometry":{"type":"Polygon","coordinates":[[[110.821,-7.682],[110.817,-7.679],[110.8165,-7.678],[110.816,-7.6765],[110.8065,-7.6775],[110.8065,-7.6795],[110.8065,-7.681],[110.8065,-7.6815],[110.807,-7.6815],[110.8065,-7.682],[110.8045,-7.6895],[110.805,-7.6895],[110.805,-7.6905],[110.806,-7.6905],[110.814,-7.6895],[110.8185,-7.699],[110.8185,-7.6985],[110.824,-7.6915],[110.8205,-7.69],[110.821,-7.689],[110.82,-7.687],[110.821,-7.682]]]},"properties":{"code":"33.11.04.1008","name":"Combongan"}},{"type":"Feature","geometry":{"type":"Polygon","coordinates":[[[110.802,-7.6795],[110.797,-7.677],[110.795,-7.6815],[110.794,-7.6815],[110.793,-7.682],[110.79,-7.6815],[110.79,-7.682],[110.7905,-7.6825],[110.7845,-7.684],[110.7835,-7.6845],[110.782,-7.686],[110.7905,-7.692],[110.7935,-7.6815],[110.7945,-7.6815],[110.796,-7.6825],[110.796,-7.684],[110.7945,-7.6895],[110.791,-7.701],[110.801,-7.6965],[110.803,-7.696],[110.8065,-7.682],[110.807,-7.6815],[110.806,-7.6815],[110.802,-7.6795]]]},"properties":{"code":"33.11.04.1009","name":"Kriwen"}},{"type":"Feature","geometry":{"type":"Polygon","coordinates":[[[110.79,-7.6625],[110.782,-7.662],[110.781,-7.662],[110.78,-7.663],[110.779,-7.6635],[110.778,-7.6655],[110.7805,-7.673],[110.7805,-7.674],[110.7805,-7.6745],[110.78,-7.6745],[110.779,-7.6745],[110.778,-7.674],[110.78,-7.6805],[110.782,-7.6805],[110.7845,-7.68],[110.787,-7.68],[110.79,-7.6815],[110.79,-7.682],[110.79,-7.6815],[110.793,-7.682],[110.794,-7.6815],[110.795,-7.6815],[110.797,-7.677],[110.803,-7.6785],[110.791,-7.6715],[110.79,-7.6625]]]},"properties":{"code":"33.11.04.1010","name":"Bulakan"}},{"type":"Feature","geometry":{"type":"Polygon","coordinates":[[[110.811,-7.6615],[110.79,-7.6605],[110.79,-7.6625],[110.791,-7.6715],[110.803,-7.6785],[110.802,-7.6795],[110.8065,-7.6815],[110.8065,-7.681],[110.8065,-7.6795],[110.8065,-7.6775],[110.8165,-7.676],[110.811,-7.6615]]]},"properties":{"code":"33.11.04.1011","name":"Dukuh"}},{"type":"Feature","geometry":{"type":"Polygon","coordinates":[[[110.816,-7.6585],[110.8155,-7.6585],[110.811,-7.6615],[110.8165,-7.676],[110.816,-7.6765],[110.8165,-7.678],[110.817,-7.679],[110.821,-7.682],[110.841,-7.6805],[110.842,-7.6805],[110.839,-7.6725],[110.8295,-7.666],[110.8265,-7.6615],[110.8175,-7.659],[110.816,-7.659],[110.816,-7.6585]]]},"properties":{"code":"33.11.04.1012","name":"Sukoharjo"}},{"type":"Feature","geometry":{"type":"Polygon","coordinates":[[[110.821,-7.633],[110.815,-7.648],[110.8185,-7.649],[110.8195,-7.6495],[110.8165,-7.6585],[110.816,-7.6585],[110.816,-7.659],[110.8175,-7.659],[110.8265,-7.6615],[110.832,-7.6585],[110.833,-7.658],[110.8335,-7.6555],[110.8335,-7.6545],[110.8325,-7.654],[110.8325,-7.652],[110.831,-7.6465],[110.8315,-7.6455],[110.83,-7.6425],[110.8275,-7.635],[110.821,-7.633]]]},"properties":{"code":"33.11.04.1013","name":"Bulakrejo"}},{"type":"Feature","geometry":{"type":"Polygon","coordinates":[[[110.815,-7.648],[110.814,-7.6475],[110.8,-7.643],[110.7995,-7.6425],[110.794,-7.657],[110.7865,-7.6555],[110.7865,-7.657],[110.786,-7.6575],[110.79,-7.6605],[110.811,-7.6615],[110.8155,-7.6585],[110.816,-7.6585],[110.8165,-7.6585],[110.8195,-7.6495],[110.8185,-7.649],[110.815,-7.648]]]},"properties":{"code":"33.11.04.1014","name":"Sonorejo"}},{"type":"Feature","geometry":{"type":"Polygon","coordinates":[[[110.941,-7.7535],[110.938,-7.7535],[110.9325,-7.7565],[110.927,-7.7595],[110.923,-7.7625],[110.922,-7.762],[110.917,-7.762],[110.9175,-7.764],[110.9185,-7.765],[110.921,-7.7675],[110.9355,-7.78],[110.9375,-7.779],[110.939,-7.774],[110.941,-7.7655],[110.941,-7.7565],[110.941,-7.7535]]]},"properties":{"code":"33.11.05.2001","name":"Tanjungrejo"}},{"type":"Feature","geometry":{"type":"Polygon","coordinates":[[[110.9405,-7.749],[110.9225,-7.7445],[110.9205,-7.7455],[110.92,-7.746],[110.916,-7.7475],[110.906,-7.7555],[110.911,-7.756],[110.9125,-7.759],[110.9165,-7.7605],[110.917,-7.762],[110.922,-7.762],[110.923,-7.7625],[110.927,-7.7595],[110.9325,-7.7565],[110.938,-7.7535],[110.941,-7.7535],[110.9405,-7.749]]]},"properties":{"code":"33.11.05.2002","name":"Jangglengan"}},{"type":"Feature","geometry":{"type":"Polygon","coordinates":[[[110.943,-7.7285],[110.942,-7.729],[110.94,-7.7295],[110.93,-7.7295],[110.929,-7.7285],[110.9265,-7.729],[110.925,-7.7295],[110.9255,-7.73],[110.9245,-7.7365],[110.9225,-7.7445],[110.9405,-7.749],[110.9405,-7.7485],[110.941,-7.748],[110.9415,-7.7405],[110.9415,-7.7395],[110.942,-7.7355],[110.943,-7.7285]]]},"properties":{"code":"33.11.05.2003","name":"Serut"}},{"type":"Feature","geometry":{"type":"Polygon","coordinates":[[[110.9445,-7.72],[110.941,-7.72],[110.9345,-7.72],[110.924,-7.7165],[110.9215,-7.7165],[110.923,-7.7175],[110.923,-7.718],[110.9225,-7.718],[110.9205,-7.719],[110.919,-7.721],[110.919,-7.725],[110.9245,-7.7305],[110.925,-7.7295],[110.925,-7.729],[110.926,-7.729],[110.9265,-7.729],[110.929,-7.7285],[110.93,-7.7295],[110.94,-7.7295],[110.942,-7.729],[110.943,-7.7285],[110.9445,-7.72]]]},"properties":{"code":"33.11.05.2004","name":"Juron"}},{"type":"Feature","geometry":{"type":"Polygon","coordinates":[[[110.919,-7.723],[110.9175,-7.723],[110.918,-7.723],[110.9135,-7.7225],[110.913,-7.724],[110.9055,-7.727],[110.9065,-7.7275],[110.906,-7.73],[110.9065,-7.7305],[110.917,-7.7475],[110.92,-7.746],[110.9205,-7.7455],[110.9225,-7.7445],[110.9245,-7.7365],[110.9255,-7.73],[110.925,-7.7295],[110.9245,-7.7305],[110.919,-7.725],[110.919,-7.723]]]},"properties":{"code":"33.11.05.2005","name":"Celep"}},{"type":"Feature","geometry":{"type":"Polygon","coordinates":[[[110.917,-7.7475],[110.9065,-7.7305],[110.906,-7.73],[110.906,-7.7295],[110.899,-7.7355],[110.8985,-7.742],[110.895,-7.746],[110.894,-7.749],[110.8925,-7.7515],[110.894,-7.751],[110.9015,-7.752],[110.904,-7.7525],[110.906,-7.7555],[110.916,-7.7475],[110.917,-7.7475]]]},"properties":{"code":"33.11.05.2006","name":"Pengkol"}},{"type":"Feature","geometry":{"type":"Polygon","coordinates":[[[110.906,-7.7295],[110.885,-7.73],[110.883,-7.7335],[110.8825,-7.736],[110.8815,-7.7395],[110.8855,-7.744],[110.8805,-7.7465],[110.88,-7.7475],[110.883,-7.7535],[110.883,-7.7545],[110.886,-7.7535],[110.8875,-7.752],[110.889,-7.7515],[110.8925,-7.7515],[110.894,-7.749],[110.895,-7.746],[110.8985,-7.742],[110.899,-7.7355],[110.906,-7.7295]]]},"properties":{"code":"33.11.05.2007","name":"Gupit"}},{"type":"Feature","geometry":{"type":"Polygon","coordinates":[[[110.9085,-7.7255],[110.9085,-7.725],[110.909,-7.723],[110.91,-7.7185],[110.9025,-7.717],[110.897,-7.711],[110.8955,-7.712],[110.8945,-7.712],[110.8925,-7.7125],[110.884,-7.7135],[110.8825,-7.713],[110.885,-7.73],[110.906,-7.7295],[110.9065,-7.7275],[110.9055,-7.727],[110.9085,-7.7255]]]},"properties":{"code":"33.11.05.2008","name":"Plesan"}},{"type":"Feature","geometry":{"type":"Polygon","coordinates":[[[110.8825,-7.713],[110.8775,-7.7125],[110.87,-7.711],[110.8695,-7.7165],[110.8685,-7.7175],[110.869,-7.718],[110.866,-7.724],[110.8695,-7.731],[110.871,-7.7315],[110.883,-7.7335],[110.885,-7.73],[110.8825,-7.713]]]},"properties":{"code":"33.11.05.2009","name":"Kedungwinong"}},{"type":"Feature","geometry":{"type":"Polygon","coordinates":[[[110.883,-7.7335],[110.871,-7.7315],[110.869,-7.731],[110.8685,-7.733],[110.8685,-7.7345],[110.8635,-7.752],[110.864,-7.753],[110.8655,-7.754],[110.868,-7.7515],[110.874,-7.75],[110.8745,-7.751],[110.8765,-7.7525],[110.8785,-7.752],[110.8785,-7.7465],[110.8805,-7.7465],[110.8855,-7.744],[110.8815,-7.7395],[110.8825,-7.736],[110.883,-7.7335]]]},"properties":{"code":"33.11.05.2010","name":"Nguter"}},{"type":"Feature","geometry":{"type":"Polygon","coordinates":[[[110.8685,-7.7335],[110.857,-7.7365],[110.8535,-7.7435],[110.8515,-7.742],[110.851,-7.742],[110.8505,-7.7425],[110.851,-7.743],[110.8515,-7.7445],[110.851,-7.7455],[110.849,-7.752],[110.849,-7.7535],[110.851,-7.7555],[110.8525,-7.7555],[110.8635,-7.752],[110.8685,-7.7345],[110.8685,-7.7335]]]},"properties":{"code":"33.11.05.2011","name":"Baran"}},{"type":"Feature","geometry":{"type":"Polygon","coordinates":[[[110.866,-7.724],[110.847,-7.72],[110.848,-7.7245],[110.8495,-7.725],[110.85,-7.726],[110.852,-7.7275],[110.857,-7.7365],[110.8685,-7.7335],[110.8685,-7.733],[110.869,-7.731],[110.8695,-7.731],[110.866,-7.724]]]},"properties":{"code":"33.11.05.2012","name":"Daleman"}},{"type":"Feature","geometry":{"type":"Polygon","coordinates":[[[110.847,-7.723],[110.838,-7.72],[110.8375,-7.7195],[110.8365,-7.719],[110.832,-7.7275],[110.8315,-7.73],[110.837,-7.741],[110.847,-7.7415],[110.8505,-7.7425],[110.851,-7.742],[110.8515,-7.742],[110.8535,-7.7435],[110.857,-7.7365],[110.852,-7.7275],[110.85,-7.726],[110.8495,-7.725],[110.848,-7.7245],[110.847,-7.723]]]},"properties":{"code":"33.11.05.2013","name":"Lawu"}},{"type":"Feature","geometry":{"type":"Polygon","coordinates":[[[110.824,-7.706],[110.815,-7.713],[110.815,-7.7135],[110.816,-7.713],[110.817,-7.718],[110.8245,-7.7215],[110.8235,-7.727],[110.8255,-7.728],[110.832,-7.7275],[110.8365,-7.719],[110.8355,-7.7185],[110.835,-7.718],[110.826,-7.7125],[110.826,-7.7115],[110.824,-7.706]]]},"properties":{"code":"33.11.05.2014","name":"Tanjung"}},{"type":"Feature","geometry":{"type":"Polygon","coordinates":[[[110.847,-7.71],[110.8435,-7.711],[110.826,-7.7115],[110.826,-7.7125],[110.835,-7.718],[110.8355,-7.7185],[110.8365,-7.719],[110.8375,-7.7195],[110.838,-7.72],[110.847,-7.723],[110.847,-7.72],[110.8515,-7.7125],[110.8515,-7.711],[110.8505,-7.709],[110.849,-7.7095],[110.847,-7.71]]]},"properties":{"code":"33.11.05.2015","name":"Pondok"}},{"type":"Feature","geometry":{"type":"Polygon","coordinates":[[[110.869,-7.7075],[110.8685,-7.707],[110.8515,-7.7085],[110.8505,-7.709],[110.8515,-7.711],[110.8515,-7.7125],[110.847,-7.72],[110.866,-7.724],[110.869,-7.718],[110.8685,-7.7175],[110.8695,-7.7165],[110.87,-7.711],[110.8685,-7.711],[110.869,-7.7075]]]},"properties":{"code":"33.11.05.2016","name":"Kepuh"}},{"type":"Feature","geometry":{"type":"Polygon","coordinates":[[[110.8495,-7.6685],[110.849,-7.668],[110.8425,-7.665],[110.8415,-7.6645],[110.834,-7.655],[110.833,-7.658],[110.832,-7.6585],[110.8295,-7.666],[110.839,-7.6725],[110.8395,-7.673],[110.847,-7.6785],[110.8485,-7.675],[110.85,-7.671],[110.8495,-7.67],[110.8495,-7.6685]]]},"properties":{"code":"33.11.06.1001","name":"Jombor"}},{"type":"Feature","geometry":{"type":"Polygon","coordinates":[[[110.8535,-7.671],[110.85,-7.6695],[110.8495,-7.6685],[110.8495,-7.67],[110.85,-7.671],[110.8485,-7.675],[110.847,-7.6795],[110.8565,-7.684],[110.8575,-7.684],[110.858,-7.685],[110.8585,-7.685],[110.864,-7.6875],[110.866,-7.685],[110.87,-7.681],[110.859,-7.677],[110.8595,-7.6735],[110.858,-7.672],[110.8535,-7.671]]]},"properties":{"code":"33.11.06.2002","name":"Toriyo"}},{"type":"Feature","geometry":{"type":"Polygon","coordinates":[[[110.8775,-7.684],[110.87,-7.681],[110.866,-7.685],[110.864,-7.6875],[110.8585,-7.685],[110.858,-7.685],[110.8575,-7.6865],[110.8565,-7.6965],[110.875,-7.701],[110.8755,-7.701],[110.876,-7.701],[110.876,-7.7005],[110.882,-7.6985],[110.8835,-7.6975],[110.8875,-7.6995],[110.8775,-7.684]]]},"properties":{"code":"33.11.06.2003","name":"Mulur"}},{"type":"Feature","geometry":{"type":"Polygon","coordinates":[[[110.8875,-7.6995],[110.8835,-7.6975],[110.882,-7.6985],[110.876,-7.7005],[110.8755,-7.7015],[110.875,-7.702],[110.8695,-7.707],[110.869,-7.7075],[110.8685,-7.711],[110.8775,-7.7125],[110.884,-7.7135],[110.8925,-7.7125],[110.8945,-7.712],[110.8955,-7.712],[110.896,-7.7115],[110.8975,-7.703],[110.8895,-7.7005],[110.8885,-7.701],[110.8875,-7.6995]]]},"properties":{"code":"33.11.06.2004","name":"Jagan"}},{"type":"Feature","geometry":{"type":"Polygon","coordinates":[[[110.919,-7.704],[110.9155,-7.7035],[110.9135,-7.704],[110.9005,-7.7045],[110.9005,-7.703],[110.9005,-7.702],[110.898,-7.703],[110.8975,-7.703],[110.896,-7.7115],[110.897,-7.711],[110.9025,-7.717],[110.91,-7.7185],[110.909,-7.723],[110.9085,-7.725],[110.9085,-7.7255],[110.913,-7.724],[110.9135,-7.7225],[110.918,-7.723],[110.9175,-7.723],[110.919,-7.723],[110.919,-7.721],[110.9205,-7.719],[110.9225,-7.718],[110.923,-7.718],[110.923,-7.7175],[110.9215,-7.7165],[110.9195,-7.717],[110.92,-7.7135],[110.9215,-7.7075],[110.9205,-7.705],[110.919,-7.704]]]},"properties":{"code":"33.11.06.2005","name":"Manisharjo"}},{"type":"Feature","geometry":{"type":"Polygon","coordinates":[[[110.9475,-7.7095],[110.939,-7.7085],[110.938,-7.708],[110.939,-7.707],[110.938,-7.706],[110.9215,-7.705],[110.9215,-7.7075],[110.92,-7.7135],[110.9195,-7.717],[110.924,-7.7165],[110.9345,-7.72],[110.941,-7.72],[110.9445,-7.72],[110.9455,-7.7125],[110.9465,-7.7105],[110.9475,-7.7095]]]},"properties":{"code":"33.11.06.2006","name":"Cabeyan"}},{"type":"Feature","geometry":{"type":"Polygon","coordinates":[[[110.9495,-7.6955],[110.949,-7.696],[110.9485,-7.6955],[110.947,-7.6955],[110.9315,-7.6955],[110.9255,-7.6935],[110.9245,-7.694],[110.924,-7.695],[110.919,-7.704],[110.9205,-7.705],[110.9215,-7.705],[110.938,-7.706],[110.939,-7.707],[110.938,-7.708],[110.939,-7.7085],[110.9475,-7.7095],[110.949,-7.6985],[110.9495,-7.6955]]]},"properties":{"code":"33.11.06.2007","name":"Puhgogor"}},{"type":"Feature","geometry":{"type":"Polygon","coordinates":[[[110.954,-7.6835],[110.954,-7.683],[110.9535,-7.6835],[110.9515,-7.683],[110.9315,-7.68],[110.931,-7.681],[110.9265,-7.6875],[110.925,-7.6905],[110.9265,-7.6915],[110.9265,-7.692],[110.926,-7.6935],[110.9315,-7.6955],[110.947,-7.6955],[110.9485,-7.6955],[110.949,-7.696],[110.9495,-7.6955],[110.952,-7.689],[110.954,-7.6835]]]},"properties":{"code":"33.11.06.2008","name":"Paluhombo"}},{"type":"Feature","geometry":{"type":"Polygon","coordinates":[[[110.923,-7.673],[110.9205,-7.6765],[110.9185,-7.6765],[110.918,-7.674],[110.9165,-7.675],[110.909,-7.673],[110.9045,-7.6885],[110.909,-7.6885],[110.9115,-7.6895],[110.9125,-7.69],[110.915,-7.691],[110.919,-7.694],[110.9215,-7.693],[110.9235,-7.694],[110.924,-7.6945],[110.9245,-7.6945],[110.9245,-7.694],[110.9255,-7.6935],[110.926,-7.6935],[110.9265,-7.6925],[110.9265,-7.692],[110.9265,-7.6915],[110.925,-7.6905],[110.9265,-7.6875],[110.931,-7.681],[110.9315,-7.68],[110.9295,-7.6785],[110.925,-7.676],[110.9235,-7.6765],[110.923,-7.673]]]},"properties":{"code":"33.11.06.2009","name":"Bendosari"}},{"type":"Feature","geometry":{"type":"Polygon","coordinates":[[[110.9245,-7.6945],[110.924,-7.6945],[110.9235,-7.694],[110.9215,-7.693],[110.919,-7.694],[110.915,-7.691],[110.9125,-7.69],[110.9115,-7.6895],[110.909,-7.6885],[110.9045,-7.6885],[110.9,-7.7015],[110.9005,-7.702],[110.9005,-7.703],[110.9005,-7.7045],[110.9135,-7.704],[110.9155,-7.7035],[110.919,-7.704],[110.924,-7.695],[110.9245,-7.6945]]]},"properties":{"code":"33.11.06.2010","name":"Mojorejo"}},{"type":"Feature","geometry":{"type":"Polygon","coordinates":[[[110.8995,-7.674],[110.8955,-7.673],[110.894,-7.673],[110.89,-7.674],[110.889,-7.674],[110.885,-7.6765],[110.884,-7.6775],[110.8845,-7.6775],[110.884,-7.678],[110.8835,-7.6785],[110.8805,-7.6835],[110.8775,-7.684],[110.8875,-7.6995],[110.8885,-7.701],[110.8895,-7.7005],[110.8975,-7.703],[110.898,-7.703],[110.9,-7.7015],[110.9045,-7.6885],[110.909,-7.673],[110.8995,-7.674]]]},"properties":{"code":"33.11.06.2011","name":"Mertan"}},{"type":"Feature","geometry":{"type":"Polygon","coordinates":[[[110.865,-7.664],[110.8565,-7.6595],[110.8535,-7.671],[110.858,-7.672],[110.8595,-7.6735],[110.859,-7.677],[110.8805,-7.6835],[110.8835,-7.6785],[110.884,-7.6785],[110.8725,-7.6645],[110.865,-7.664]]]},"properties":{"code":"33.11.06.2012","name":"Sugihan"}},{"type":"Feature","geometry":{"type":"Polygon","coordinates":[[[110.8435,-7.651],[110.831,-7.646],[110.831,-7.6465],[110.8325,-7.652],[110.8325,-7.654],[110.8335,-7.6545],[110.8335,-7.6555],[110.834,-7.655],[110.8415,-7.6645],[110.8425,-7.665],[110.849,-7.668],[110.85,-7.6685],[110.85,-7.6695],[110.8535,-7.671],[110.8565,-7.6595],[110.8555,-7.659],[110.8435,-7.651]]]},"properties":{"code":"33.11.06.2013","name":"Sidorejo"}},{"type":"Feature","geometry":{"type":"Polygon","coordinates":[[[110.8665,-7.6495],[110.8655,-7.6485],[110.858,-7.643],[110.857,-7.641],[110.8555,-7.641],[110.8535,-7.6415],[110.854,-7.64],[110.8475,-7.6425],[110.8435,-7.651],[110.8555,-7.659],[110.865,-7.664],[110.8655,-7.6625],[110.8655,-7.661],[110.866,-7.6605],[110.867,-7.6605],[110.8665,-7.6495]]]},"properties":{"code":"33.11.06.2014","name":"Gentan"}},{"type":"Feature","geometry":{"type":"Polygon","coordinates":[[[110.8435,-7.6185],[110.832,-7.617],[110.8315,-7.6225],[110.8315,-7.623],[110.832,-7.6275],[110.8325,-7.6285],[110.8335,-7.6305],[110.8345,-7.631],[110.8345,-7.632],[110.836,-7.633],[110.8365,-7.6295],[110.8395,-7.629],[110.842,-7.6295],[110.8425,-7.6265],[110.843,-7.62],[110.8435,-7.6185]]]},"properties":{"code":"33.11.07.2001","name":"Pranan"}},{"type":"Feature","geometry":{"type":"Polygon","coordinates":[[[110.855,-7.61],[110.8545,-7.61],[110.854,-7.61],[110.8515,-7.61],[110.8495,-7.614],[110.852,-7.6155],[110.8505,-7.616],[110.849,-7.616],[110.8465,-7.624],[110.8535,-7.63],[110.854,-7.631],[110.8565,-7.632],[110.8575,-7.631],[110.8545,-7.6265],[110.857,-7.615],[110.8535,-7.614],[110.8545,-7.6115],[110.855,-7.6115],[110.855,-7.61]]]},"properties":{"code":"33.11.07.2002","name":"Karangwuni"}},{"type":"Feature","geometry":{"type":"Polygon","coordinates":[[[110.848,-7.6185],[110.844,-7.618],[110.843,-7.62],[110.8425,-7.6265],[110.842,-7.6295],[110.8395,-7.629],[110.8395,-7.6295],[110.839,-7.6295],[110.8375,-7.6305],[110.839,-7.632],[110.8485,-7.633],[110.8505,-7.63],[110.8525,-7.6325],[110.8515,-7.6355],[110.85,-7.6355],[110.852,-7.639],[110.85,-7.639],[110.849,-7.6415],[110.856,-7.6375],[110.8575,-7.6315],[110.8565,-7.632],[110.854,-7.631],[110.8535,-7.63],[110.8465,-7.624],[110.848,-7.6185]]]},"properties":{"code":"33.11.07.2003","name":"Bugel"}},{"type":"Feature","geometry":{"type":"Polygon","coordinates":[[[110.8655,-7.6215],[110.8545,-7.6265],[110.8575,-7.631],[110.8575,-7.6315],[110.856,-7.6375],[110.857,-7.6385],[110.858,-7.6395],[110.8695,-7.63],[110.8715,-7.6265],[110.8705,-7.624],[110.8655,-7.6215]]]},"properties":{"code":"33.11.07.2004","name":"Ngombakan"}},{"type":"Feature","geometry":{"type":"Polygon","coordinates":[[[110.879,-7.6265],[110.8745,-7.6235],[110.871,-7.623],[110.8705,-7.624],[110.8715,-7.6265],[110.8695,-7.63],[110.858,-7.6395],[110.857,-7.6385],[110.854,-7.64],[110.8535,-7.6415],[110.8555,-7.641],[110.857,-7.641],[110.858,-7.643],[110.8655,-7.6485],[110.867,-7.649],[110.8665,-7.649],[110.869,-7.6435],[110.8715,-7.64],[110.874,-7.6335],[110.879,-7.6265]]]},"properties":{"code":"33.11.07.2005","name":"Bakalan"}},{"type":"Feature","geometry":{"type":"Polygon","coordinates":[[[110.893,-7.6475],[110.8905,-7.6475],[110.887,-7.6425],[110.883,-7.6405],[110.8805,-7.636],[110.8735,-7.635],[110.8715,-7.64],[110.869,-7.6435],[110.8675,-7.6475],[110.893,-7.653],[110.893,-7.649],[110.893,-7.6475]]]},"properties":{"code":"33.11.07.2006","name":"Godog"}},{"type":"Feature","geometry":{"type":"Polygon","coordinates":[[[110.893,-7.653],[110.8675,-7.6475],[110.8665,-7.649],[110.867,-7.649],[110.8665,-7.6495],[110.867,-7.6605],[110.8655,-7.661],[110.865,-7.6615],[110.8655,-7.6615],[110.866,-7.6615],[110.8665,-7.662],[110.8715,-7.662],[110.8775,-7.6635],[110.89,-7.66],[110.891,-7.66],[110.8945,-7.662],[110.895,-7.6625],[110.895,-7.6635],[110.896,-7.6615],[110.893,-7.6595],[110.893,-7.653]]]},"properties":{"code":"33.11.07.2007","name":"Kemasan"}},{"type":"Feature","geometry":{"type":"Polygon","coordinates":[[[110.895,-7.6635],[110.895,-7.6625],[110.8945,-7.662],[110.891,-7.66],[110.89,-7.66],[110.8775,-7.6635],[110.8715,-7.662],[110.8665,-7.662],[110.866,-7.6615],[110.8655,-7.6615],[110.865,-7.6615],[110.8655,-7.6625],[110.865,-7.664],[110.8725,-7.6645],[110.884,-7.6785],[110.884,-7.678],[110.8845,-7.6775],[110.884,-7.6775],[110.885,-7.6765],[110.889,-7.674],[110.89,-7.674],[110.894,-7.673],[110.8955,-7.673],[110.8995,-7.674],[110.8945,-7.6655],[110.895,-7.6635]]]},"properties":{"code":"33.11.07.2008","name":"Kenokorejo"}},{"type":"Feature","geometry":{"type":"Polygon","coordinates":[[[110.931,-7.6605],[110.915,-7.661],[110.897,-7.6495],[110.8965,-7.6495],[110.8945,-7.649],[110.893,-7.6595],[110.896,-7.6615],[110.8945,-7.6655],[110.8995,-7.674],[110.909,-7.673],[110.9165,-7.675],[110.918,-7.674],[110.9185,-7.6765],[110.9205,-7.6765],[110.923,-7.673],[110.931,-7.6605]]]},"properties":{"code":"33.11.07.2009","name":"Tepisari"}},{"type":"Feature","geometry":{"type":"Polygon","coordinates":[[[110.9475,-7.6615],[110.9455,-7.661],[110.944,-7.661],[110.931,-7.6605],[110.923,-7.673],[110.9235,-7.6765],[110.925,-7.676],[110.9295,-7.6785],[110.9315,-7.68],[110.9515,-7.683],[110.9535,-7.6835],[110.954,-7.683],[110.954,-7.6835],[110.9545,-7.684],[110.955,-7.684],[110.955,-7.6835],[110.957,-7.6845],[110.9575,-7.684],[110.9605,-7.6845],[110.9605,-7.684],[110.9595,-7.683],[110.948,-7.6685],[110.9475,-7.6615]]]},"properties":{"code":"33.11.07.2010","name":"Bulu"}},{"type":"Feature","geometry":{"type":"Polygon","coordinates":[[[110.9475,-7.6575],[110.945,-7.6565],[110.9435,-7.6565],[110.93,-7.6515],[110.909,-7.6475],[110.907,-7.645],[110.902,-7.638],[110.9005,-7.637],[110.893,-7.6465],[110.893,-7.6485],[110.893,-7.649],[110.8945,-7.649],[110.8965,-7.6495],[110.897,-7.6495],[110.915,-7.661],[110.931,-7.6605],[110.944,-7.661],[110.9455,-7.661],[110.9475,-7.6615],[110.947,-7.659],[110.9475,-7.6575]]]},"properties":{"code":"33.11.07.2011","name":"Rejosari"}},{"type":"Feature","geometry":{"type":"Polygon","coordinates":[[[110.9265,-7.639],[110.914,-7.6295],[110.9185,-7.6185],[110.917,-7.618],[110.9155,-7.6185],[110.915,-7.6185],[110.9135,-7.6185],[110.911,-7.6195],[110.9105,-7.6215],[110.9095,-7.6255],[110.907,-7.6285],[110.9055,-7.6295],[110.904,-7.627],[110.9025,-7.627],[110.901,-7.627],[110.9015,-7.6275],[110.901,-7.6285],[110.903,-7.631],[110.902,-7.6345],[110.9015,-7.6365],[110.9005,-7.637],[110.902,-7.638],[110.907,-7.645],[110.909,-7.6475],[110.93,-7.6515],[110.9435,-7.6565],[110.945,-7.6565],[110.9475,-7.6575],[110.9475,-7.656],[110.9465,-7.653],[110.946,-7.6475],[110.9435,-7.6465],[110.9265,-7.639]]]},"properties":{"code":"33.11.07.2012","name":"Polokarto"}},{"type":"Feature","geometry":{"type":"Polygon","coordinates":[[[110.884,-7.625],[110.8815,-7.624],[110.8805,-7.6245],[110.879,-7.6265],[110.874,-7.6335],[110.8735,-7.635],[110.8805,-7.636],[110.883,-7.6405],[110.887,-7.6425],[110.8905,-7.6475],[110.893,-7.6475],[110.893,-7.6465],[110.9005,-7.637],[110.9015,-7.6365],[110.902,-7.6345],[110.903,-7.631],[110.901,-7.6285],[110.9015,-7.627],[110.901,-7.627],[110.897,-7.6265],[110.8945,-7.625],[110.892,-7.625],[110.891,-7.626],[110.8905,-7.626],[110.8885,-7.6265],[110.8865,-7.6275],[110.884,-7.625]]]},"properties":{"code":"33.11.07.2013","name":"Mranggen"}},{"type":"Feature","geometry":{"type":"Polygon","coordinates":[[[110.896,-7.6145],[110.886,-7.6115],[110.8815,-7.611],[110.881,-7.6115],[110.881,-7.6125],[110.8845,-7.6245],[110.884,-7.625],[110.8865,-7.6275],[110.8885,-7.6265],[110.8905,-7.626],[110.891,-7.626],[110.892,-7.625],[110.894,-7.625],[110.899,-7.615],[110.896,-7.6145]]]},"properties":{"code":"33.11.07.2014","name":"Wonorejo"}},{"type":"Feature","geometry":{"type":"Polygon","coordinates":[[[110.915,-7.6185],[110.9155,-7.6185],[110.915,-7.6175],[110.915,-7.613],[110.9065,-7.614],[110.9025,-7.6145],[110.899,-7.615],[110.894,-7.625],[110.8945,-7.625],[110.897,-7.6265],[110.901,-7.627],[110.9015,-7.6265],[110.9025,-7.627],[110.904,-7.627],[110.9055,-7.6295],[110.907,-7.6285],[110.9095,-7.6255],[110.9105,-7.6215],[110.911,-7.6195],[110.9135,-7.6185],[110.915,-7.6185]]]},"properties":{"code":"33.11.07.2015","name":"Jatisobo"}},{"type":"Feature","geometry":{"type":"Polygon","coordinates":[[[110.9235,-7.614],[110.915,-7.613],[110.915,-7.6175],[110.9155,-7.6185],[110.917,-7.618],[110.9185,-7.6185],[110.914,-7.6295],[110.9265,-7.639],[110.9355,-7.6205],[110.9305,-7.618],[110.9315,-7.616],[110.9315,-7.6155],[110.9235,-7.614]]]},"properties":{"code":"33.11.07.2016","name":"Kayuapak"}},{"type":"Feature","geometry":{"type":"Polygon","coordinates":[[[110.946,-7.6205],[110.9455,-7.62],[110.947,-7.6185],[110.9415,-7.618],[110.9315,-7.616],[110.9305,-7.618],[110.9355,-7.6205],[110.9265,-7.639],[110.9435,-7.6465],[110.946,-7.6475],[110.945,-7.641],[110.944,-7.637],[110.946,-7.634],[110.947,-7.6255],[110.948,-7.6225],[110.946,-7.6205]]]},"properties":{"code":"33.11.07.2017","name":"Genengsari"}},{"type":"Feature","geometry":{"type":"Polygon","coordinates":[[[110.844,-7.5915],[110.841,-7.5895],[110.8375,-7.594],[110.834,-7.5965],[110.8325,-7.598],[110.8345,-7.603],[110.8335,-7.6045],[110.8345,-7.605],[110.835,-7.605],[110.8355,-7.6055],[110.8355,-7.6065],[110.846,-7.61],[110.8495,-7.607],[110.8515,-7.6025],[110.844,-7.5915]]]},"properties":{"code":"33.11.08.2001","name":"Laban"}},{"type":"Feature","geometry":{"type":"Polygon","coordinates":[[[110.85,-7.606],[110.8495,-7.607],[110.846,-7.61],[110.8355,-7.6065],[110.8355,-7.6055],[110.835,-7.605],[110.8345,-7.605],[110.8335,-7.6045],[110.833,-7.6055],[110.8325,-7.606],[110.833,-7.6085],[110.8325,-7.6115],[110.831,-7.614],[110.832,-7.615],[110.832,-7.617],[110.8435,-7.6185],[110.844,-7.618],[110.848,-7.6185],[110.849,-7.616],[110.8505,-7.616],[110.852,-7.6155],[110.8495,-7.614],[110.8525,-7.608],[110.8505,-7.607],[110.851,-7.6065],[110.85,-7.606]]]},"properties":{"code":"33.11.08.2002","name":"Tegalmade"}},{"type":"Feature","geometry":{"type":"Polygon","coordinates":[[[110.8575,-7.599],[110.844,-7.5915],[110.8515,-7.6025],[110.85,-7.606],[110.851,-7.6065],[110.8505,-7.607],[110.8525,-7.608],[110.8515,-7.61],[110.854,-7.61],[110.8545,-7.61],[110.856,-7.6105],[110.8705,-7.607],[110.8725,-7.601],[110.8575,-7.599]]]},"properties":{"code":"33.11.08.2003","name":"Wirun"}},{"type":"Feature","geometry":{"type":"Polygon","coordinates":[[[110.876,-7.6065],[110.875,-7.606],[110.875,-7.604],[110.8735,-7.6015],[110.873,-7.6005],[110.8705,-7.607],[110.856,-7.6105],[110.855,-7.61],[110.855,-7.6115],[110.8545,-7.6115],[110.8535,-7.614],[110.857,-7.615],[110.8655,-7.6215],[110.875,-7.6075],[110.8755,-7.607],[110.876,-7.6065]]]},"properties":{"code":"33.11.08.2004","name":"Bekonang"}},{"type":"Feature","geometry":{"type":"Polygon","coordinates":[[[110.8815,-7.607],[110.8785,-7.608],[110.877,-7.6075],[110.876,-7.6065],[110.8755,-7.6065],[110.875,-7.6075],[110.8655,-7.6215],[110.8705,-7.624],[110.871,-7.623],[110.8745,-7.6235],[110.879,-7.6265],[110.8805,-7.6245],[110.8815,-7.624],[110.8845,-7.6245],[110.881,-7.6125],[110.881,-7.6115],[110.8815,-7.611],[110.8805,-7.611],[110.8815,-7.607]]]},"properties":{"code":"33.11.08.2005","name":"Cangkol"}},{"type":"Feature","geometry":{"type":"Polygon","coordinates":[[[110.896,-7.599],[110.893,-7.5985],[110.887,-7.6],[110.8835,-7.6],[110.8825,-7.6],[110.8825,-7.604],[110.8805,-7.611],[110.886,-7.6115],[110.896,-7.6145],[110.897,-7.6025],[110.896,-7.599]]]},"properties":{"code":"33.11.08.2006","name":"Klumprit"}},{"type":"Feature","geometry":{"type":"Polygon","coordinates":[[[110.908,-7.6005],[110.8995,-7.6],[110.897,-7.6025],[110.896,-7.6145],[110.9025,-7.6145],[110.9065,-7.614],[110.9065,-7.612],[110.906,-7.6125],[110.906,-7.612],[110.907,-7.606],[110.908,-7.6005]]]},"properties":{"code":"33.11.08.2007","name":"Kragilan"}},{"type":"Feature","geometry":{"type":"Polygon","coordinates":[[[110.9125,-7.5845],[110.901,-7.58],[110.9,-7.585],[110.902,-7.586],[110.901,-7.5905],[110.8995,-7.5905],[110.8995,-7.5915],[110.899,-7.5915],[110.898,-7.5925],[110.896,-7.599],[110.8995,-7.6],[110.908,-7.6005],[110.9085,-7.5955],[110.9095,-7.594],[110.911,-7.5915],[110.9125,-7.5845]]]},"properties":{"code":"33.11.08.2008","name":"Sapen"}},{"type":"Feature","geometry":{"type":"Polygon","coordinates":[[[110.899,-7.592],[110.8985,-7.5915],[110.8985,-7.591],[110.898,-7.5905],[110.898,-7.589],[110.8965,-7.589],[110.896,-7.5875],[110.8855,-7.582],[110.8845,-7.5805],[110.883,-7.58],[110.883,-7.5805],[110.883,-7.581],[110.8815,-7.581],[110.8815,-7.5805],[110.877,-7.5965],[110.883,-7.5975],[110.8825,-7.6],[110.8835,-7.6],[110.887,-7.6],[110.893,-7.5985],[110.898,-7.5925],[110.899,-7.592]]]},"properties":{"code":"33.11.08.2009","name":"Joho"}},{"type":"Feature","geometry":{"type":"Polygon","coordinates":[[[110.88,-7.5865],[110.8745,-7.5845],[110.872,-7.5875],[110.8715,-7.587],[110.873,-7.6005],[110.873,-7.601],[110.8735,-7.6015],[110.875,-7.604],[110.875,-7.606],[110.876,-7.606],[110.876,-7.6065],[110.877,-7.6075],[110.8785,-7.608],[110.8815,-7.607],[110.8825,-7.604],[110.8825,-7.6025],[110.883,-7.5975],[110.877,-7.5965],[110.88,-7.5865]]]},"properties":{"code":"33.11.08.2010","name":"Demakan"}},{"type":"Feature","geometry":{"type":"Polygon","coordinates":[[[110.8715,-7.587],[110.865,-7.5815],[110.8605,-7.592],[110.8575,-7.599],[110.8725,-7.601],[110.873,-7.6005],[110.8715,-7.587]]]},"properties":{"code":"33.11.08.2011","name":"Dukuh"}},{"type":"Feature","geometry":{"type":"Polygon","coordinates":[[[110.8635,-7.585],[110.8555,-7.583],[110.85,-7.587],[110.842,-7.586],[110.842,-7.5865],[110.841,-7.5865],[110.841,-7.5895],[110.8575,-7.599],[110.8605,-7.592],[110.8635,-7.585]]]},"properties":{"code":"33.11.08.2012","name":"Plumbon"}},{"type":"Feature","geometry":{"type":"Polygon","coordinates":[[[110.855,-7.574],[110.8525,-7.574],[110.8485,-7.5725],[110.847,-7.573],[110.8465,-7.5765],[110.8455,-7.577],[110.8435,-7.5775],[110.843,-7.5805],[110.8425,-7.581],[110.8415,-7.582],[110.8415,-7.5825],[110.8415,-7.585],[110.841,-7.5865],[110.842,-7.5865],[110.842,-7.586],[110.85,-7.587],[110.8555,-7.583],[110.8635,-7.585],[110.8645,-7.582],[110.8605,-7.581],[110.8555,-7.576],[110.855,-7.574]]]},"properties":{"code":"33.11.08.2013","name":"Gadingan"}},{"type":"Feature","geometry":{"type":"Polygon","coordinates":[[[110.873,-7.5685],[110.868,-7.5665],[110.8635,-7.5685],[110.863,-7.5675],[110.862,-7.568],[110.861,-7.567],[110.8605,-7.5685],[110.8605,-7.5695],[110.859,-7.5705],[110.8555,-7.57],[110.855,-7.574],[110.8555,-7.576],[110.8605,-7.581],[110.8645,-7.582],[110.865,-7.5815],[110.872,-7.5875],[110.8745,-7.5845],[110.88,-7.5865],[110.8815,-7.5805],[110.885,-7.574],[110.8795,-7.5715],[110.873,-7.5685]]]},"properties":{"code":"33.11.08.2014","name":"Palur"}},{"type":"Feature","geometry":{"type":"Polygon","coordinates":[[[110.889,-7.5755],[110.885,-7.574],[110.8815,-7.5805],[110.8815,-7.581],[110.883,-7.581],[110.883,-7.5805],[110.883,-7.58],[110.8845,-7.5805],[110.8855,-7.582],[110.896,-7.5875],[110.8965,-7.589],[110.898,-7.589],[110.898,-7.5905],[110.8985,-7.591],[110.8985,-7.5915],[110.899,-7.592],[110.8995,-7.5915],[110.8995,-7.5905],[110.901,-7.5905],[110.902,-7.586],[110.9,-7.585],[110.901,-7.58],[110.889,-7.5755]]]},"properties":{"code":"33.11.08.2015","name":"Triyagan"}},{"type":"Feature","geometry":{"type":"Polygon","coordinates":[[[110.8395,-7.629],[110.8365,-7.6295],[110.836,-7.633],[110.8345,-7.632],[110.8345,-7.631],[110.8335,-7.6305],[110.8325,-7.6285],[110.832,-7.6275],[110.831,-7.6275],[110.831,-7.628],[110.8295,-7.63],[110.828,-7.634],[110.8275,-7.635],[110.83,-7.6425],[110.8315,-7.6455],[110.831,-7.646],[110.8435,-7.651],[110.8475,-7.6425],[110.849,-7.6415],[110.85,-7.639],[110.852,-7.639],[110.85,-7.6355],[110.8515,-7.6355],[110.8525,-7.6325],[110.8505,-7.63],[110.8485,-7.633],[110.839,-7.632],[110.8375,-7.6305],[110.839,-7.6295],[110.8395,-7.6295],[110.8395,-7.629]]]},"properties":{"code":"33.11.09.2001","name":"Pandeyan"}},{"type":"Feature","geometry":{"type":"Polygon","coordinates":[[[110.832,-7.6115],[110.826,-7.6085],[110.827,-7.6105],[110.828,-7.612],[110.8245,-7.615],[110.825,-7.612],[110.8245,-7.611],[110.8225,-7.6095],[110.82,-7.613],[110.817,-7.615],[110.814,-7.617],[110.8105,-7.62],[110.8165,-7.6235],[110.8155,-7.625],[110.821,-7.633],[110.8275,-7.635],[110.828,-7.634],[110.8295,-7.63],[110.831,-7.628],[110.831,-7.6275],[110.8315,-7.623],[110.8315,-7.6225],[110.832,-7.615],[110.831,-7.614],[110.832,-7.6115]]]},"properties":{"code":"33.11.09.2002","name":"Telukan"}},{"type":"Feature","geometry":{"type":"Polygon","coordinates":[[[110.821,-7.633],[110.8155,-7.625],[110.8145,-7.6255],[110.806,-7.6265],[110.8015,-7.6315],[110.7995,-7.6355],[110.7915,-7.6425],[110.795,-7.644],[110.7995,-7.6425],[110.8,-7.643],[110.814,-7.6475],[110.815,-7.648],[110.821,-7.633]]]},"properties":{"code":"33.11.09.2003","name":"Parangjoro"}},{"type":"Feature","geometry":{"type":"Polygon","coordinates":[[[110.8105,-7.62],[110.8025,-7.6165],[110.802,-7.6155],[110.8015,-7.6155],[110.8005,-7.615],[110.8,-7.616],[110.799,-7.6165],[110.799,-7.6175],[110.7915,-7.6225],[110.798,-7.6315],[110.799,-7.632],[110.801,-7.6325],[110.8015,-7.6315],[110.806,-7.6265],[110.8145,-7.6255],[110.8165,-7.6235],[110.8105,-7.62]]]},"properties":{"code":"33.11.09.2004","name":"Pondok"}},{"type":"Feature","geometry":{"type":"Polygon","coordinates":[[[110.8075,-7.604],[110.807,-7.6035],[110.8065,-7.605],[110.803,-7.614],[110.802,-7.6135],[110.8,-7.615],[110.801,-7.615],[110.8015,-7.6155],[110.802,-7.6155],[110.8025,-7.6165],[110.8105,-7.62],[110.814,-7.617],[110.819,-7.614],[110.8185,-7.6115],[110.819,-7.608],[110.8185,-7.608],[110.818,-7.6085],[110.811,-7.606],[110.8075,-7.604]]]},"properties":{"code":"33.11.09.2005","name":"Langenharjo"}},{"type":"Feature","geometry":{"type":"Polygon","coordinates":[[[110.801,-7.6],[110.7985,-7.6],[110.795,-7.5995],[110.7945,-7.5995],[110.7955,-7.6045],[110.7915,-7.606],[110.8,-7.609],[110.8025,-7.612],[110.802,-7.6135],[110.803,-7.614],[110.8065,-7.605],[110.807,-7.6035],[110.8075,-7.604],[110.8075,-7.6005],[110.806,-7.6005],[110.803,-7.6],[110.801,-7.6]]]},"properties":{"code":"33.11.09.2006","name":"Gedangan"}},{"type":"Feature","geometry":{"type":"Polygon","coordinates":[[[110.8215,-7.595],[110.821,-7.595],[110.8195,-7.595],[110.819,-7.5945],[110.8165,-7.596],[110.8155,-7.5955],[110.8105,-7.5955],[110.807,-7.598],[110.806,-7.6005],[110.8075,-7.6005],[110.8075,-7.604],[110.811,-7.606],[110.818,-7.6085],[110.8185,-7.608],[110.819,-7.608],[110.819,-7.602],[110.8215,-7.595]]]},"properties":{"code":"33.11.09.2007","name":"Madegondo"}},{"type":"Feature","geometry":{"type":"Polygon","coordinates":[[[110.8275,-7.5935],[110.827,-7.5935],[110.825,-7.594],[110.8245,-7.594],[110.8225,-7.5945],[110.8215,-7.595],[110.819,-7.602],[110.8185,-7.6115],[110.819,-7.614],[110.82,-7.613],[110.8215,-7.611],[110.824,-7.6075],[110.825,-7.5995],[110.826,-7.597],[110.8275,-7.5935]]]},"properties":{"code":"33.11.09.2008","name":"Grogol"}},{"type":"Feature","geometry":{"type":"Polygon","coordinates":[[[110.8375,-7.594],[110.838,-7.5905],[110.836,-7.592],[110.834,-7.5945],[110.8325,-7.595],[110.8295,-7.593],[110.828,-7.593],[110.828,-7.5935],[110.8275,-7.5935],[110.826,-7.597],[110.825,-7.5995],[110.824,-7.6075],[110.8225,-7.6095],[110.8245,-7.611],[110.825,-7.612],[110.8245,-7.615],[110.828,-7.612],[110.827,-7.6105],[110.826,-7.6085],[110.832,-7.6115],[110.8325,-7.6115],[110.833,-7.6085],[110.833,-7.6055],[110.833,-7.6045],[110.8345,-7.603],[110.8325,-7.598],[110.834,-7.5965],[110.8375,-7.594]]]},"properties":{"code":"33.11.09.2009","name":"Kadokan"}},{"type":"Feature","geometry":{"type":"Polygon","coordinates":[[[110.8175,-7.59],[110.8115,-7.5895],[110.8105,-7.59],[110.8095,-7.59],[110.8045,-7.592],[110.803,-7.595],[110.801,-7.6],[110.803,-7.6],[110.806,-7.6005],[110.807,-7.598],[110.8105,-7.5955],[110.8155,-7.5955],[110.8165,-7.596],[110.819,-7.5945],[110.8185,-7.5945],[110.817,-7.592],[110.8175,-7.59]]]},"properties":{"code":"33.11.09.2010","name":"Kwarasan"}},{"type":"Feature","geometry":{"type":"Polygon","coordinates":[[[110.797,-7.583],[110.7965,-7.5835],[110.7945,-7.584],[110.7925,-7.582],[110.791,-7.582],[110.7905,-7.582],[110.79,-7.582],[110.79,-7.5835],[110.797,-7.588],[110.7935,-7.599],[110.794,-7.5995],[110.795,-7.5995],[110.7985,-7.6],[110.801,-7.6],[110.803,-7.595],[110.8045,-7.592],[110.8095,-7.59],[110.8105,-7.59],[110.811,-7.5895],[110.797,-7.583]]]},"properties":{"code":"33.11.09.2011","name":"Sanggrahan"}},{"type":"Feature","geometry":{"type":"Polygon","coordinates":[[[110.79,-7.5835],[110.7835,-7.5855],[110.784,-7.5865],[110.784,-7.5895],[110.7855,-7.5905],[110.785,-7.5925],[110.79,-7.596],[110.791,-7.5965],[110.7935,-7.599],[110.797,-7.588],[110.79,-7.5835]]]},"properties":{"code":"33.11.09.2012","name":"Manang"}},{"type":"Feature","geometry":{"type":"Polygon","coordinates":[[[110.7975,-7.572],[110.793,-7.571],[110.7925,-7.573],[110.789,-7.577],[110.7885,-7.5795],[110.79,-7.581],[110.79,-7.582],[110.7905,-7.582],[110.791,-7.582],[110.7925,-7.582],[110.7945,-7.584],[110.7965,-7.5835],[110.797,-7.5815],[110.7975,-7.5805],[110.7985,-7.579],[110.8005,-7.5785],[110.8015,-7.573],[110.8,-7.573],[110.8,-7.5715],[110.7985,-7.5725],[110.7975,-7.572]]]},"properties":{"code":"33.11.09.2013","name":"Banaran"}},{"type":"Feature","geometry":{"type":"Polygon","coordinates":[[[110.804,-7.5735],[110.8025,-7.5725],[110.801,-7.5715],[110.8,-7.5715],[110.8,-7.573],[110.8015,-7.573],[110.8005,-7.5785],[110.7985,-7.579],[110.7975,-7.5805],[110.797,-7.5815],[110.797,-7.583],[110.811,-7.5895],[110.8115,-7.5895],[110.8175,-7.59],[110.811,-7.5835],[110.81,-7.583],[110.8085,-7.5805],[110.807,-7.58],[110.806,-7.5785],[110.805,-7.5765],[110.805,-7.575],[110.804,-7.5735]]]},"properties":{"code":"33.11.09.2014","name":"Cemani"}},{"type":"Feature","geometry":{"type":"Polygon","coordinates":[[[110.8,-7.6345],[110.799,-7.634],[110.798,-7.6345],[110.796,-7.6335],[110.795,-7.633],[110.783,-7.635],[110.7815,-7.635],[110.781,-7.6345],[110.78,-7.634],[110.7795,-7.6355],[110.78,-7.6355],[110.7805,-7.635],[110.7815,-7.6365],[110.7895,-7.6415],[110.7915,-7.6425],[110.7995,-7.6355],[110.8,-7.6345]]]},"properties":{"code":"33.11.10.2001","name":"Ngrombo"}},{"type":"Feature","geometry":{"type":"Polygon","coordinates":[[[110.801,-7.6325],[110.799,-7.632],[110.798,-7.6315],[110.7915,-7.6225],[110.777,-7.625],[110.7685,-7.639],[110.769,-7.639],[110.771,-7.639],[110.7725,-7.6405],[110.776,-7.634],[110.7775,-7.635],[110.779,-7.6355],[110.7795,-7.6355],[110.78,-7.634],[110.781,-7.6345],[110.7815,-7.635],[110.783,-7.635],[110.795,-7.633],[110.796,-7.6335],[110.798,-7.6345],[110.799,-7.634],[110.8,-7.6345],[110.801,-7.6325]]]},"properties":{"code":"33.11.10.2002","name":"Mancasan"}},{"type":"Feature","geometry":{"type":"Polygon","coordinates":[[[110.777,-7.625],[110.778,-7.624],[110.7745,-7.621],[110.7725,-7.625],[110.7685,-7.6225],[110.7675,-7.6235],[110.7665,-7.6235],[110.7685,-7.6265],[110.7635,-7.636],[110.7685,-7.639],[110.777,-7.625]]]},"properties":{"code":"33.11.10.2003","name":"Gedongan"}},{"type":"Feature","geometry":{"type":"Polygon","coordinates":[[[110.7765,-7.618],[110.765,-7.6105],[110.7615,-7.613],[110.7615,-7.614],[110.761,-7.6145],[110.761,-7.6175],[110.7605,-7.6195],[110.763,-7.6195],[110.766,-7.621],[110.7675,-7.6235],[110.7685,-7.6225],[110.7725,-7.625],[110.7745,-7.621],[110.7725,-7.6195],[110.7765,-7.618]]]},"properties":{"code":"33.11.10.2004","name":"Jetis"}},{"type":"Feature","geometry":{"type":"Polygon","coordinates":[[[110.7915,-7.6225],[110.7825,-7.615],[110.7815,-7.6165],[110.7795,-7.618],[110.7725,-7.6195],[110.778,-7.624],[110.777,-7.625],[110.7915,-7.6225]]]},"properties":{"code":"33.11.10.2005","name":"Bentakan"}},{"type":"Feature","geometry":{"type":"Polygon","coordinates":[[[110.802,-7.6135],[110.8025,-7.612],[110.8,-7.609],[110.7915,-7.606],[110.789,-7.6065],[110.7855,-7.612],[110.782,-7.6145],[110.7825,-7.615],[110.7915,-7.6225],[110.799,-7.6175],[110.799,-7.6165],[110.8,-7.616],[110.8005,-7.615],[110.8,-7.615],[110.802,-7.6135]]]},"properties":{"code":"33.11.10.2006","name":"Kudu"}},{"type":"Feature","geometry":{"type":"Polygon","coordinates":[[[110.7935,-7.599],[110.791,-7.5965],[110.7905,-7.5965],[110.7825,-7.611],[110.7855,-7.612],[110.789,-7.6065],[110.7955,-7.6045],[110.7945,-7.5995],[110.794,-7.5995],[110.7935,-7.599]]]},"properties":{"code":"33.11.10.2007","name":"Kadilangu"}},{"type":"Feature","geometry":{"type":"Polygon","coordinates":[[[110.7905,-7.5965],[110.79,-7.596],[110.785,-7.5925],[110.7845,-7.594],[110.783,-7.5975],[110.7805,-7.597],[110.7785,-7.6025],[110.782,-7.6145],[110.7825,-7.611],[110.7905,-7.5965]]]},"properties":{"code":"33.11.10.2008","name":"Bakipandeyan"}},{"type":"Feature","geometry":{"type":"Polygon","coordinates":[[[110.7785,-7.6025],[110.776,-7.603],[110.766,-7.603],[110.764,-7.6025],[110.7635,-7.6035],[110.765,-7.6105],[110.7765,-7.618],[110.7795,-7.618],[110.7815,-7.6165],[110.782,-7.6145],[110.7785,-7.6025]]]},"properties":{"code":"33.11.10.2009","name":"Menuran"}},{"type":"Feature","geometry":{"type":"Polygon","coordinates":[[[110.7805,-7.597],[110.767,-7.5925],[110.7665,-7.594],[110.765,-7.6025],[110.766,-7.603],[110.776,-7.603],[110.7785,-7.6025],[110.7805,-7.597]]]},"properties":{"code":"33.11.10.2010","name":"Duwet"}},{"type":"Feature","geometry":{"type":"Polygon","coordinates":[[[110.784,-7.586],[110.7815,-7.5855],[110.78,-7.585],[110.7785,-7.585],[110.7775,-7.586],[110.7765,-7.5865],[110.7755,-7.586],[110.7735,-7.5855],[110.772,-7.586],[110.7735,-7.587],[110.7715,-7.587],[110.77,-7.592],[110.7695,-7.592],[110.766,-7.5915],[110.7675,-7.592],[110.767,-7.5925],[110.783,-7.5975],[110.7845,-7.594],[110.7855,-7.5905],[110.784,-7.5895],[110.784,-7.5875],[110.784,-7.586]]]},"properties":{"code":"33.11.10.2011","name":"Siwal"}},{"type":"Feature","geometry":{"type":"Polygon","coordinates":[[[110.7775,-7.5825],[110.7695,-7.5805],[110.7685,-7.585],[110.7615,-7.5855],[110.756,-7.5815],[110.75,-7.5855],[110.75,-7.586],[110.7515,-7.586],[110.755,-7.5865],[110.758,-7.5885],[110.766,-7.5915],[110.7695,-7.592],[110.77,-7.592],[110.7715,-7.587],[110.7735,-7.587],[110.772,-7.586],[110.7735,-7.5855],[110.7755,-7.586],[110.7765,-7.5865],[110.7775,-7.586],[110.7775,-7.5845],[110.7785,-7.583],[110.7775,-7.5825]]]},"properties":{"code":"33.11.10.2012","name":"Waru"}},{"type":"Feature","geometry":{"type":"Polygon","coordinates":[[[110.7825,-7.576],[110.778,-7.574],[110.7765,-7.575],[110.7775,-7.5825],[110.7785,-7.583],[110.7775,-7.5845],[110.7775,-7.586],[110.7785,-7.585],[110.78,-7.585],[110.7815,-7.5855],[110.784,-7.586],[110.7835,-7.5855],[110.79,-7.5835],[110.79,-7.583],[110.79,-7.581],[110.7885,-7.5795],[110.788,-7.5775],[110.7825,-7.576]]]},"properties":{"code":"33.11.10.2013","name":"Gentan"}},{"type":"Feature","geometry":{"type":"Polygon","coordinates":[[[110.7765,-7.575],[110.778,-7.5735],[110.7735,-7.5705],[110.7725,-7.5695],[110.772,-7.5695],[110.769,-7.5715],[110.767,-7.573],[110.7655,-7.5795],[110.7775,-7.5825],[110.7765,-7.575]]]},"properties":{"code":"33.11.10.2014","name":"Purbayan"}},{"type":"Feature","geometry":{"type":"Polygon","coordinates":[[[110.717,-7.5885],[110.711,-7.587],[110.7025,-7.5935],[110.7125,-7.5955],[110.7145,-7.596],[110.717,-7.5885]]]},"properties":{"code":"33.11.11.2001","name":"Sanggung"}},{"type":"Feature","geometry":{"type":"Polygon","coordinates":[[[110.72,-7.5895],[110.7175,-7.5885],[110.717,-7.5885],[110.7145,-7.596],[110.718,-7.5975],[110.7215,-7.595],[110.7265,-7.597],[110.728,-7.5965],[110.728,-7.5955],[110.729,-7.5925],[110.72,-7.5895]]]},"properties":{"code":"33.11.11.2002","name":"Kagokan"}},{"type":"Feature","geometry":{"type":"Polygon","coordinates":[[[110.7465,-7.59],[110.7465,-7.5905],[110.7305,-7.589],[110.7295,-7.591],[110.729,-7.592],[110.728,-7.5955],[110.728,-7.5965],[110.733,-7.599],[110.737,-7.599],[110.739,-7.598],[110.7405,-7.598],[110.7415,-7.6],[110.743,-7.599],[110.747,-7.6015],[110.749,-7.603],[110.75,-7.603],[110.753,-7.602],[110.7535,-7.6015],[110.7535,-7.5995],[110.7535,-7.5985],[110.7545,-7.5965],[110.7465,-7.59]]]},"properties":{"code":"33.11.11.2003","name":"Blimbing"}},{"type":"Feature","geometry":{"type":"Polygon","coordinates":[[[110.75,-7.603],[110.749,-7.603],[110.747,-7.6015],[110.7455,-7.602],[110.7475,-7.6165],[110.748,-7.617],[110.75,-7.6165],[110.7505,-7.617],[110.7525,-7.6175],[110.7605,-7.6195],[110.761,-7.6175],[110.761,-7.6145],[110.7615,-7.614],[110.7615,-7.613],[110.7595,-7.611],[110.758,-7.613],[110.7545,-7.61],[110.7555,-7.6085],[110.75,-7.603]]]},"properties":{"code":"33.11.11.2004","name":"Krajan"}},{"type":"Feature","geometry":{"type":"Polygon","coordinates":[[[110.7635,-7.6035],[110.762,-7.603],[110.761,-7.603],[110.761,-7.6025],[110.7585,-7.6015],[110.7565,-7.5995],[110.7535,-7.599],[110.7535,-7.5995],[110.7535,-7.6015],[110.753,-7.602],[110.75,-7.603],[110.7555,-7.6085],[110.7545,-7.61],[110.758,-7.613],[110.7595,-7.611],[110.7615,-7.613],[110.765,-7.6105],[110.7635,-7.6035]]]},"properties":{"code":"33.11.11.2005","name":"Geneng"}},{"type":"Feature","geometry":{"type":"Polygon","coordinates":[[[110.766,-7.5915],[110.7605,-7.59],[110.7545,-7.5965],[110.7535,-7.599],[110.7565,-7.5995],[110.7585,-7.6015],[110.761,-7.6025],[110.761,-7.603],[110.762,-7.603],[110.764,-7.6025],[110.765,-7.6025],[110.7665,-7.594],[110.7675,-7.592],[110.766,-7.5915]]]},"properties":{"code":"33.11.11.2006","name":"Jati"}},{"type":"Feature","geometry":{"type":"Polygon","coordinates":[[[110.7605,-7.59],[110.758,-7.5885],[110.755,-7.5865],[110.7515,-7.586],[110.75,-7.586],[110.75,-7.5855],[110.747,-7.5875],[110.7465,-7.59],[110.7545,-7.5965],[110.7605,-7.59]]]},"properties":{"code":"33.11.11.2007","name":"Trosemi"}},{"type":"Feature","geometry":{"type":"Polygon","coordinates":[[[110.73,-7.5835],[110.7305,-7.5875],[110.7305,-7.589],[110.7465,-7.5905],[110.7465,-7.59],[110.747,-7.5875],[110.748,-7.587],[110.746,-7.587],[110.7455,-7.587],[110.7445,-7.586],[110.7445,-7.584],[110.7305,-7.5835],[110.73,-7.5835]]]},"properties":{"code":"33.11.11.2008","name":"Luwang"}},{"type":"Feature","geometry":{"type":"Polygon","coordinates":[[[110.725,-7.5805],[110.7225,-7.581],[110.7215,-7.5845],[110.723,-7.585],[110.722,-7.586],[110.721,-7.586],[110.72,-7.5895],[110.729,-7.5925],[110.729,-7.592],[110.7295,-7.591],[110.7305,-7.5875],[110.73,-7.5835],[110.7295,-7.5825],[110.728,-7.582],[110.725,-7.5805]]]},"properties":{"code":"33.11.11.2009","name":"Klaseman"}},{"type":"Feature","geometry":{"type":"Polygon","coordinates":[[[110.716,-7.577],[110.7145,-7.577],[110.713,-7.585],[110.711,-7.587],[110.717,-7.5885],[110.7175,-7.5885],[110.72,-7.5895],[110.721,-7.586],[110.722,-7.586],[110.723,-7.585],[110.7215,-7.5845],[110.7225,-7.581],[110.72,-7.581],[110.7165,-7.577],[110.716,-7.577]]]},"properties":{"code":"33.11.11.2010","name":"Tempel"}},{"type":"Feature","geometry":{"type":"Polygon","coordinates":[[[110.724,-7.569],[110.7235,-7.569],[110.7225,-7.569],[110.7215,-7.5685],[110.718,-7.574],[110.716,-7.577],[110.7165,-7.577],[110.72,-7.581],[110.7215,-7.581],[110.7225,-7.581],[110.725,-7.5805],[110.7245,-7.5745],[110.724,-7.5725],[110.724,-7.569]]]},"properties":{"code":"33.11.11.2011","name":"Sraten"}},{"type":"Feature","geometry":{"type":"Polygon","coordinates":[[[110.736,-7.5685],[110.7315,-7.5675],[110.725,-7.569],[110.724,-7.569],[110.724,-7.5725],[110.7245,-7.5745],[110.725,-7.5805],[110.728,-7.582],[110.7285,-7.5815],[110.732,-7.578],[110.733,-7.5785],[110.734,-7.5755],[110.7345,-7.575],[110.7345,-7.5745],[110.735,-7.5715],[110.735,-7.5695],[110.736,-7.5685]]]},"properties":{"code":"33.11.11.2012","name":"Wironanggan"}},{"type":"Feature","geometry":{"type":"Polygon","coordinates":[[[110.75,-7.571],[110.749,-7.571],[110.7475,-7.5705],[110.747,-7.5715],[110.741,-7.581],[110.7335,-7.5785],[110.732,-7.578],[110.7285,-7.5815],[110.7295,-7.5825],[110.7305,-7.5835],[110.7445,-7.584],[110.7445,-7.586],[110.7455,-7.587],[110.746,-7.587],[110.748,-7.587],[110.76,-7.5785],[110.7495,-7.5715],[110.75,-7.571]]]},"properties":{"code":"33.11.11.2013","name":"Trangsan"}},{"type":"Feature","geometry":{"type":"Polygon","coordinates":[[[110.767,-7.573],[110.7565,-7.5715],[110.756,-7.5705],[110.7545,-7.571],[110.753,-7.571],[110.75,-7.571],[110.7495,-7.5715],[110.76,-7.5785],[110.756,-7.5815],[110.7615,-7.5855],[110.7685,-7.585],[110.7695,-7.5805],[110.7655,-7.5795],[110.767,-7.573]]]},"properties":{"code":"33.11.11.2014","name":"Mayang"}},{"type":"Feature","geometry":{"type":"Polygon","coordinates":[[[110.742,-7.551],[110.741,-7.55],[110.7395,-7.5495],[110.7345,-7.5495],[110.7335,-7.5515],[110.733,-7.552],[110.742,-7.562],[110.7445,-7.5625],[110.7455,-7.5605],[110.747,-7.554],[110.747,-7.5535],[110.746,-7.553],[110.745,-7.553],[110.7445,-7.553],[110.742,-7.551]]]},"properties":{"code":"33.11.12.1002","name":"Kartasura"}},{"type":"Feature","geometry":{"type":"Polygon","coordinates":[[[110.754,-7.557],[110.7485,-7.5545],[110.7455,-7.5605],[110.7445,-7.5625],[110.741,-7.5635],[110.7405,-7.5645],[110.7415,-7.5655],[110.744,-7.5655],[110.7455,-7.5665],[110.7475,-7.5665],[110.7505,-7.5645],[110.7545,-7.5655],[110.7545,-7.565],[110.7555,-7.564],[110.756,-7.5635],[110.756,-7.5625],[110.7575,-7.562],[110.754,-7.557]]]},"properties":{"code":"33.11.12.1004","name":"Ngadirejo"}},{"type":"Feature","geometry":{"type":"Polygon","coordinates":[[[110.733,-7.552],[110.732,-7.552],[110.73,-7.5505],[110.728,-7.551],[110.7245,-7.5525],[110.7215,-7.558],[110.7195,-7.56],[110.719,-7.5615],[110.7205,-7.562],[110.7195,-7.5665],[110.721,-7.5665],[110.7215,-7.5675],[110.7215,-7.5685],[110.7225,-7.569],[110.7235,-7.569],[110.725,-7.569],[110.7315,-7.5675],[110.7365,-7.5685],[110.7385,-7.569],[110.7395,-7.5685],[110.74,-7.5655],[110.7405,-7.564],[110.741,-7.5635],[110.742,-7.562],[110.733,-7.552]]]},"properties":{"code":"33.11.12.2001","name":"Pucangan"}},{"type":"Feature","geometry":{"type":"Polygon","coordinates":[[[110.7465,-7.569],[110.7455,-7.5665],[110.744,-7.5655],[110.7415,-7.5655],[110.7405,-7.5645],[110.7395,-7.5685],[110.7385,-7.569],[110.7365,-7.5685],[110.736,-7.5685],[110.735,-7.5695],[110.735,-7.5715],[110.7345,-7.5745],[110.7345,-7.575],[110.734,-7.5755],[110.733,-7.5785],[110.7335,-7.5785],[110.741,-7.581],[110.747,-7.5715],[110.747,-7.57],[110.7465,-7.569]]]},"properties":{"code":"33.11.12.2003","name":"Ngemplak"}},{"type":"Feature","geometry":{"type":"Polygon","coordinates":[[[110.7575,-7.562],[110.756,-7.5625],[110.756,-7.5635],[110.7555,-7.564],[110.7545,-7.565],[110.7545,-7.5655],[110.7505,-7.5645],[110.7475,-7.5665],[110.7465,-7.569],[110.747,-7.57],[110.7475,-7.5705],[110.749,-7.571],[110.75,-7.571],[110.753,-7.571],[110.7545,-7.571],[110.756,-7.5705],[110.7565,-7.5715],[110.767,-7.573],[110.769,-7.5715],[110.7715,-7.5695],[110.771,-7.566],[110.768,-7.5655],[110.7575,-7.562]]]},"properties":{"code":"33.11.12.2005","name":"Gumpang"}},{"type":"Feature","geometry":{"type":"Polygon","coordinates":[[[110.779,-7.5575],[110.776,-7.558],[110.772,-7.559],[110.7675,-7.565],[110.771,-7.566],[110.7715,-7.5695],[110.772,-7.5695],[110.7725,-7.5695],[110.7735,-7.5705],[110.778,-7.5735],[110.778,-7.574],[110.7825,-7.576],[110.784,-7.5645],[110.7795,-7.561],[110.7785,-7.5605],[110.779,-7.5575]]]},"properties":{"code":"33.11.12.2006","name":"Makamhaji"}},{"type":"Feature","geometry":{"type":"Polygon","coordinates":[[[110.759,-7.5515],[110.7575,-7.5485],[110.7565,-7.549],[110.756,-7.548],[110.7555,-7.547],[110.754,-7.557],[110.7575,-7.562],[110.7675,-7.565],[110.772,-7.559],[110.776,-7.558],[110.779,-7.5575],[110.779,-7.557],[110.779,-7.5555],[110.7785,-7.5545],[110.7705,-7.552],[110.764,-7.5565],[110.7635,-7.5555],[110.7625,-7.5555],[110.7625,-7.5545],[110.759,-7.5515]]]},"properties":{"code":"33.11.12.2007","name":"Pabelan"}},{"type":"Feature","geometry":{"type":"Polygon","coordinates":[[[110.771,-7.5455],[110.7705,-7.545],[110.763,-7.542],[110.763,-7.5415],[110.7625,-7.5425],[110.7635,-7.543],[110.7635,-7.5435],[110.762,-7.5435],[110.7615,-7.545],[110.7625,-7.5455],[110.761,-7.548],[110.76,-7.5475],[110.759,-7.5515],[110.7625,-7.5545],[110.7625,-7.5555],[110.7635,-7.5555],[110.764,-7.5565],[110.7705,-7.552],[110.769,-7.5515],[110.771,-7.5455]]]},"properties":{"code":"33.11.12.2008","name":"Gonilan"}},{"type":"Feature","geometry":{"type":"Polygon","coordinates":[[[110.7485,-7.542],[110.748,-7.5415],[110.745,-7.5415],[110.7435,-7.5485],[110.743,-7.551],[110.742,-7.551],[110.7445,-7.553],[110.745,-7.553],[110.746,-7.553],[110.747,-7.5535],[110.747,-7.554],[110.7485,-7.5545],[110.754,-7.557],[110.7555,-7.547],[110.754,-7.5465],[110.749,-7.544],[110.7485,-7.543],[110.7485,-7.542]]]},"properties":{"code":"33.11.12.2009","name":"Singopuran"}},{"type":"Feature","geometry":{"type":"Polygon","coordinates":[[[110.7375,-7.5385],[110.7325,-7.538],[110.732,-7.5385],[110.7315,-7.541],[110.7335,-7.541],[110.7355,-7.5425],[110.7345,-7.5495],[110.7395,-7.5495],[110.741,-7.55],[110.742,-7.551],[110.743,-7.551],[110.7435,-7.5485],[110.745,-7.5415],[110.7375,-7.5385]]]},"properties":{"code":"33.11.12.2010","name":"Ngabeyan"}},{"type":"Feature","geometry":{"type":"Polygon","coordinates":[[[110.732,-7.5385],[110.7315,-7.5395],[110.7255,-7.538],[110.7245,-7.5385],[110.7195,-7.5405],[110.717,-7.543],[110.7345,-7.5495],[110.7355,-7.5425],[110.7335,-7.541],[110.7315,-7.541],[110.732,-7.5385]]]},"properties":{"code":"33.11.12.2011","name":"Wirogunan"}},{"type":"Feature","geometry":{"type":"Polygon","coordinates":[[[110.717,-7.543],[110.713,-7.5415],[110.7115,-7.5485],[110.713,-7.549],[110.7245,-7.5525],[110.728,-7.551],[110.73,-7.5505],[110.732,-7.552],[110.7335,-7.5515],[110.7345,-7.5495],[110.717,-7.543]]]},"properties":{"code":"33.11.12.2012","name":"Kertonatan"}}]}