{"type":"FeatureCollection","features":[{"type":"Feature","geometry":{"type":"Polygon","coordinates":[[[110.8365,-6.79],[110.837,-6.785],[110.834,-6.784],[110.827,-6.791],[110.826,-6.7935],[110.825,-6.7935],[110.8245,-6.794],[110.824,-6.794],[110.824,-6.7945],[110.827,-6.798],[110.827,-6.799],[110.826,-6.8015],[110.828,-6.8005],[110.829,-6.8],[110.8315,-6.8005],[110.834,-6.801],[110.835,-6.7985],[110.833,-6.798],[110.8315,-6.794],[110.832,-6.792],[110.8365,-6.796],[110.8375,-6.797],[110.839,-6.7955],[110.8395,-6.7935],[110.84,-6.792],[110.8395,-6.792],[110.837,-6.791],[110.8365,-6.79]]]},"properties":{"code":"33.19.01.2001","name":"Bakalankrapyak","latitude":-6.793318288372937,"longitude":110.83200011835925}},{"type":"Feature","geometry":{"type":"Polygon","coordinates":[[[110.826,-6.8015],[110.827,-6.799],[110.827,-6.798],[110.824,-6.7945],[110.824,-6.794],[110.823,-6.794],[110.821,-6.8005],[110.8085,-6.813],[110.808,-6.8135],[110.803,-6.8145],[110.801,-6.815],[110.8,-6.8165],[110.7975,-6.8185],[110.798,-6.82],[110.798,-6.821],[110.798,-6.8215],[110.799,-6.822],[110.815,-6.8175],[110.817,-6.817],[110.8195,-6.819],[110.822,-6.815],[110.82,-6.8135],[110.82,-6.8125],[110.821,-6.813],[110.8235,-6.805],[110.8245,-6.802],[110.8255,-6.802],[110.826,-6.8015]]]},"properties":{"code":"33.19.01.2002","name":"Prambatan Kidul","latitude":-6.812334841094318,"longitude":110.81360630315746}},{"type":"Feature","geometry":{"type":"MultiPolygon","coordinates":[[[[110.798,-6.8215],[110.798,-6.821],[110.798,-6.82],[110.7975,-6.8185],[110.796,-6.8205],[110.798,-6.8215]]],[[[110.821,-6.8005],[110.823,-6.794],[110.8225,-6.794],[110.8185,-6.794],[110.8155,-6.801],[110.813,-6.8025],[110.811,-6.801],[110.808,-6.8005],[110.805,-6.8075],[110.8045,-6.8085],[110.8095,-6.811],[110.8085,-6.813],[110.821,-6.8005]]]]},"properties":{"code":"33.19.01.2003","name":"Prambatan Lor","latitude":-6.80494961064773,"longitude":110.81350649056283}},{"type":"Feature","geometry":{"type":"Polygon","coordinates":[[[110.8045,-6.808],[110.8005,-6.801],[110.798,-6.8],[110.797,-6.8025],[110.7935,-6.8065],[110.793,-6.8075],[110.796,-6.82],[110.7965,-6.8195],[110.7995,-6.816],[110.8,-6.8165],[110.801,-6.815],[110.803,-6.8145],[110.808,-6.8135],[110.8095,-6.811],[110.8045,-6.8085],[110.8045,-6.808]]]},"properties":{"code":"33.19.01.2004","name":"Garung Kidul","latitude":-6.810626684176822,"longitude":110.7984261860973}},{"type":"Feature","geometry":{"type":"Polygon","coordinates":[[[110.785,-6.8055],[110.7835,-6.805],[110.7825,-6.8025],[110.7815,-6.8015],[110.78,-6.803],[110.7785,-6.805],[110.78,-6.8065],[110.7815,-6.81],[110.782,-6.8115],[110.784,-6.8165],[110.7975,-6.8345],[110.7955,-6.822],[110.796,-6.821],[110.796,-6.8205],[110.796,-6.82],[110.793,-6.8075],[110.7915,-6.8045],[110.785,-6.8055]]]},"properties":{"code":"33.19.01.2005","name":"Setrokalangan","latitude":-6.8156660125282285,"longitude":110.78921276671032}},{"type":"Feature","geometry":{"type":"Polygon","coordinates":[[[110.78,-6.792],[110.772,-6.79],[110.7715,-6.791],[110.77,-6.791],[110.7675,-6.792],[110.7645,-6.7945],[110.7635,-6.7955],[110.7625,-6.797],[110.762,-6.7975],[110.764,-6.798],[110.7765,-6.803],[110.7785,-6.805],[110.78,-6.803],[110.7815,-6.8015],[110.779,-6.7995],[110.7795,-6.7935],[110.7795,-6.793],[110.78,-6.792]]]},"properties":{"code":"33.19.01.2006","name":"Banget","latitude":-6.797336303529446,"longitude":110.7725614228994}},{"type":"Feature","geometry":{"type":"Polygon","coordinates":[[[110.771,-6.7875],[110.769,-6.787],[110.7675,-6.784],[110.7655,-6.782],[110.765,-6.7825],[110.759,-6.7925],[110.761,-6.795],[110.7615,-6.7975],[110.762,-6.7975],[110.7625,-6.797],[110.7635,-6.7955],[110.7645,-6.7945],[110.7675,-6.792],[110.7705,-6.7895],[110.771,-6.7875]]]},"properties":{"code":"33.19.01.2007","name":"Blimbing Kidul","latitude":-6.789701066071421,"longitude":110.76450323823309}},{"type":"Feature","geometry":{"type":"Polygon","coordinates":[[[110.7845,-6.773],[110.771,-6.768],[110.7685,-6.7695],[110.768,-6.772],[110.7655,-6.782],[110.7675,-6.784],[110.769,-6.787],[110.7715,-6.7865],[110.772,-6.7815],[110.7725,-6.781],[110.777,-6.778],[110.79,-6.784],[110.7905,-6.783],[110.7845,-6.773]]]},"properties":{"code":"33.19.01.2008","name":"Sidorekso","latitude":-6.7767748141639945,"longitude":110.77654545794049}},{"type":"Feature","geometry":{"type":"Polygon","coordinates":[[[110.785,-6.782],[110.777,-6.778],[110.7725,-6.781],[110.772,-6.7815],[110.7715,-6.7865],[110.771,-6.7875],[110.7705,-6.7895],[110.77,-6.791],[110.7715,-6.791],[110.772,-6.79],[110.78,-6.792],[110.78,-6.7915],[110.781,-6.7885],[110.785,-6.782]]]},"properties":{"code":"33.19.01.2009","name":"Gamong","latitude":-6.784777536524228,"longitude":110.77710864655246}},{"type":"Feature","geometry":{"type":"Polygon","coordinates":[[[110.7895,-6.7845],[110.785,-6.782],[110.781,-6.7885],[110.78,-6.7915],[110.7795,-6.793],[110.7795,-6.7935],[110.779,-6.7995],[110.781,-6.801],[110.782,-6.8015],[110.7825,-6.8025],[110.7835,-6.805],[110.785,-6.8055],[110.7915,-6.8045],[110.7935,-6.8065],[110.797,-6.8025],[110.798,-6.8],[110.7975,-6.8],[110.805,-6.7975],[110.805,-6.796],[110.805,-6.7955],[110.8055,-6.7945],[110.805,-6.7945],[110.8055,-6.794],[110.804,-6.7945],[110.803,-6.7955],[110.801,-6.795],[110.792,-6.793],[110.788,-6.7925],[110.7895,-6.7845]]]},"properties":{"code":"33.19.01.2010","name":"Kedungdowo","latitude":-6.795822841601519,"longitude":110.78864776471956}},{"type":"Feature","geometry":{"type":"Polygon","coordinates":[[[110.8185,-6.794],[110.8165,-6.793],[110.815,-6.7925],[110.814,-6.7925],[110.8135,-6.793],[110.812,-6.794],[110.811,-6.7935],[110.8105,-6.793],[110.808,-6.793],[110.806,-6.7945],[110.8055,-6.794],[110.805,-6.7945],[110.8055,-6.7945],[110.805,-6.7955],[110.805,-6.796],[110.805,-6.7975],[110.7975,-6.8],[110.8005,-6.801],[110.8045,-6.808],[110.805,-6.8075],[110.808,-6.8005],[110.811,-6.801],[110.813,-6.8025],[110.8155,-6.801],[110.8185,-6.794]]]},"properties":{"code":"33.19.01.2011","name":"Garung Lor","latitude":-6.798712042740605,"longitude":110.80891103839662}},{"type":"Feature","geometry":{"type":"Polygon","coordinates":[[[110.818,-6.7825],[110.8175,-6.7825],[110.8175,-6.782],[110.817,-6.782],[110.8165,-6.7815],[110.816,-6.7815],[110.8145,-6.7805],[110.813,-6.781],[110.813,-6.7805],[110.8125,-6.781],[110.808,-6.78],[110.8075,-6.78],[110.8045,-6.7925],[110.804,-6.794],[110.8045,-6.794],[110.8055,-6.794],[110.806,-6.7945],[110.808,-6.793],[110.8105,-6.793],[110.811,-6.7935],[110.812,-6.794],[110.8135,-6.793],[110.814,-6.7925],[110.8145,-6.7925],[110.8175,-6.7865],[110.818,-6.786],[110.8185,-6.784],[110.818,-6.7825]]]},"properties":{"code":"33.19.01.2012","name":"Karangampel","latitude":-6.786898891855486,"longitude":110.81103169833594}},{"type":"Feature","geometry":{"type":"Polygon","coordinates":[[[110.8075,-6.78],[110.807,-6.7795],[110.8025,-6.777],[110.79,-6.785],[110.79,-6.784],[110.7895,-6.7845],[110.788,-6.7925],[110.792,-6.793],[110.801,-6.795],[110.8045,-6.794],[110.804,-6.794],[110.8045,-6.7925],[110.8075,-6.78]]]},"properties":{"code":"33.19.01.2013","name":"Mijen","latitude":-6.787568510088033,"longitude":110.79886265238514}},{"type":"Feature","geometry":{"type":"Polygon","coordinates":[[[110.8025,-6.777],[110.7965,-6.763],[110.796,-6.762],[110.795,-6.762],[110.7945,-6.763],[110.7945,-6.7635],[110.7935,-6.764],[110.7925,-6.764],[110.792,-6.764],[110.7865,-6.7685],[110.7855,-6.77],[110.7845,-6.773],[110.7905,-6.783],[110.79,-6.785],[110.8025,-6.777]]]},"properties":{"code":"33.19.01.2014","name":"Kaliwungu","latitude":-6.77346748261684,"longitude":110.79443300772822}},{"type":"Feature","geometry":{"type":"Polygon","coordinates":[[[110.799,-6.758],[110.798,-6.7585],[110.7935,-6.754],[110.7915,-6.755],[110.7915,-6.756],[110.7755,-6.7655],[110.771,-6.768],[110.7845,-6.773],[110.7855,-6.77],[110.7865,-6.7685],[110.792,-6.764],[110.7925,-6.764],[110.7935,-6.764],[110.7945,-6.7635],[110.7945,-6.763],[110.795,-6.762],[110.7965,-6.7605],[110.799,-6.758]]]},"properties":{"code":"33.19.01.2015","name":"Papringan","latitude":-6.764102390667509,"longitude":110.7858691208933}},{"type":"Feature","geometry":{"type":"Polygon","coordinates":[[[110.829,-6.8],[110.828,-6.8005],[110.8255,-6.802],[110.8245,-6.802],[110.8235,-6.805],[110.821,-6.813],[110.8245,-6.815],[110.8265,-6.816],[110.827,-6.8155],[110.8275,-6.815],[110.829,-6.814],[110.8295,-6.8125],[110.831,-6.812],[110.829,-6.8075],[110.829,-6.8055],[110.8295,-6.8045],[110.829,-6.8]]]},"properties":{"code":"33.19.02.1001","name":"Purwosari","latitude":-6.809154614557282,"longitude":110.82631605591605}},{"type":"Feature","geometry":{"type":"Polygon","coordinates":[[[110.837,-6.81],[110.835,-6.8095],[110.834,-6.81],[110.831,-6.812],[110.8295,-6.8125],[110.829,-6.8135],[110.832,-6.8145],[110.833,-6.814],[110.8365,-6.815],[110.837,-6.814],[110.837,-6.8125],[110.8375,-6.811],[110.837,-6.811],[110.837,-6.81]]]},"properties":{"code":"33.19.02.1004","name":"Sunggingan","latitude":-6.812251263185005,"longitude":110.83372150361714}},{"type":"Feature","geometry":{"type":"Polygon","coordinates":[[[110.8425,-6.8085],[110.838,-6.8095],[110.837,-6.8125],[110.837,-6.814],[110.836,-6.816],[110.8405,-6.818],[110.8445,-6.8095],[110.8425,-6.8085]]]},"properties":{"code":"33.19.02.1005","name":"Panjunan","latitude":-6.812836383544515,"longitude":110.8400284596934}},{"type":"Feature","geometry":{"type":"Polygon","coordinates":[[[110.8495,-6.811],[110.8475,-6.8105],[110.8465,-6.8125],[110.844,-6.8155],[110.8415,-6.8175],[110.844,-6.819],[110.845,-6.8195],[110.849,-6.8185],[110.8515,-6.8185],[110.852,-6.819],[110.8525,-6.817],[110.853,-6.8165],[110.8525,-6.816],[110.85,-6.814],[110.8495,-6.8125],[110.85,-6.811],[110.8495,-6.811]]]},"properties":{"code":"33.19.02.1006","name":"Wergu Wetan","latitude":-6.815933572903204,"longitude":110.847474670555}},{"type":"Feature","geometry":{"type":"Polygon","coordinates":[[[110.8475,-6.8105],[110.8445,-6.8095],[110.8405,-6.818],[110.844,-6.8155],[110.8465,-6.8125],[110.8475,-6.8105]]]},"properties":{"code":"33.19.02.1007","name":"Wergu Kulon","latitude":-6.813218965973139,"longitude":110.84390646769153}},{"type":"Feature","geometry":{"type":"Polygon","coordinates":[[[110.8535,-6.8125],[110.85,-6.811],[110.8495,-6.8125],[110.85,-6.814],[110.8525,-6.816],[110.8525,-6.8165],[110.853,-6.8165],[110.853,-6.816],[110.863,-6.8185],[110.8635,-6.816],[110.8645,-6.8165],[110.865,-6.8155],[110.861,-6.8145],[110.858,-6.8145],[110.8575,-6.814],[110.8535,-6.8125]]]},"properties":{"code":"33.19.02.1008","name":"Mlati Kidul","latitude":-6.814794772382909,"longitude":110.85640146251893}},{"type":"Feature","geometry":{"type":"Polygon","coordinates":[[[110.8615,-6.807],[110.8595,-6.806],[110.8585,-6.806],[110.858,-6.8055],[110.8575,-6.8135],[110.86,-6.814],[110.865,-6.8155],[110.866,-6.812],[110.8615,-6.8075],[110.8615,-6.807]]]},"properties":{"code":"33.19.02.1009","name":"Mlatinorowito","latitude":-6.810516195380295,"longitude":110.85988357070993}},{"type":"Feature","geometry":{"type":"Polygon","coordinates":[[[110.833,-6.8025],[110.834,-6.801],[110.8315,-6.8005],[110.8315,-6.8015],[110.8315,-6.803],[110.832,-6.803],[110.8315,-6.8035],[110.833,-6.8035],[110.833,-6.8025]]]},"properties":{"code":"33.19.02.1017","name":"Kerjasan","latitude":-6.802420934160183,"longitude":110.83248033392954}},{"type":"Feature","geometry":{"type":"Polygon","coordinates":[[[110.8395,-6.7985],[110.839,-6.7985],[110.8385,-6.799],[110.8385,-6.7985],[110.8375,-6.7985],[110.8345,-6.798],[110.835,-6.7985],[110.834,-6.801],[110.8365,-6.8025],[110.837,-6.804],[110.8375,-6.8045],[110.8385,-6.803],[110.8405,-6.8005],[110.8395,-6.7985]]]},"properties":{"code":"33.19.02.1018","name":"Kajeksan","latitude":-6.800516905627696,"longitude":110.83740256277277}},{"type":"Feature","geometry":{"type":"Polygon","coordinates":[[[110.8295,-6.8045],[110.829,-6.8055],[110.829,-6.8075],[110.831,-6.808],[110.8295,-6.8045]]]},"properties":{"code":"33.19.02.2002","name":"Janggalan","latitude":-6.806365536737235,"longitude":110.83011516669251}},{"type":"Feature","geometry":{"type":"Polygon","coordinates":[[[110.836,-6.806],[110.834,-6.8055],[110.8335,-6.806],[110.8325,-6.806],[110.831,-6.808],[110.834,-6.81],[110.835,-6.8095],[110.837,-6.81],[110.8365,-6.8095],[110.836,-6.8065],[110.836,-6.806]]]},"properties":{"code":"33.19.02.2003","name":"Demangan","latitude":-6.808034127117872,"longitude":110.83398399652826}},{"type":"Feature","geometry":{"type":"MultiPolygon","coordinates":[[[[110.86,-6.814],[110.8575,-6.8135],[110.8575,-6.814],[110.858,-6.8145],[110.861,-6.8145],[110.86,-6.814]]],[[[110.8535,-6.8125],[110.855,-6.8045],[110.8545,-6.805],[110.854,-6.8075],[110.851,-6.8095],[110.8495,-6.8095],[110.849,-6.809],[110.848,-6.809],[110.8495,-6.811],[110.8535,-6.8125]]]]},"properties":{"code":"33.19.02.2010","name":"Mlati Lor","latitude":-6.809786468751249,"longitude":110.85419069308705}},{"type":"Feature","geometry":{"type":"Polygon","coordinates":[[[110.8525,-6.8045],[110.851,-6.804],[110.848,-6.8025],[110.8495,-6.808],[110.85,-6.8085],[110.8495,-6.8095],[110.851,-6.8095],[110.854,-6.8075],[110.8545,-6.8055],[110.853,-6.8055],[110.8525,-6.8045]]]},"properties":{"code":"33.19.02.2011","name":"Nganguk","latitude":-6.80598623665815,"longitude":110.85048735889744}},{"type":"Feature","geometry":{"type":"Polygon","coordinates":[[[110.848,-6.8025],[110.8465,-6.8025],[110.8455,-6.8055],[110.8445,-6.8095],[110.8495,-6.811],[110.848,-6.809],[110.849,-6.809],[110.8495,-6.8095],[110.85,-6.8085],[110.8495,-6.808],[110.848,-6.8025]]]},"properties":{"code":"33.19.02.2012","name":"Kramat","latitude":-6.807137544170739,"longitude":110.84725639370036}},{"type":"Feature","geometry":{"type":"Polygon","coordinates":[[[110.8415,-6.8025],[110.841,-6.8025],[110.8365,-6.806],[110.8365,-6.8095],[110.837,-6.811],[110.8375,-6.811],[110.838,-6.8095],[110.8425,-6.8085],[110.843,-6.8065],[110.8435,-6.805],[110.8415,-6.8045],[110.8415,-6.8025]]]},"properties":{"code":"33.19.02.2013","name":"Demaan","latitude":-6.806859013284853,"longitude":110.83938407667176}},{"type":"Feature","geometry":{"type":"Polygon","coordinates":[[[110.8375,-6.8045],[110.837,-6.804],[110.8365,-6.8025],[110.834,-6.801],[110.833,-6.8025],[110.833,-6.8035],[110.833,-6.8045],[110.834,-6.8055],[110.836,-6.806],[110.8365,-6.8055],[110.8375,-6.805],[110.8375,-6.8045]]]},"properties":{"code":"33.19.02.2014","name":"Langgardalem","latitude":-6.8033973013004365,"longitude":110.83514007814064}},{"type":"Feature","geometry":{"type":"Polygon","coordinates":[[[110.833,-6.8035],[110.8315,-6.8035],[110.8315,-6.805],[110.831,-6.8045],[110.833,-6.805],[110.833,-6.8045],[110.833,-6.8035]]]},"properties":{"code":"33.19.02.2015","name":"Kauman","latitude":-6.804284578456654,"longitude":110.83227142234468}},{"type":"Feature","geometry":{"type":"Polygon","coordinates":[[[110.8315,-6.8005],[110.829,-6.8],[110.8295,-6.8045],[110.831,-6.8045],[110.8315,-6.805],[110.832,-6.803],[110.8315,-6.803],[110.8315,-6.8015],[110.8315,-6.8005]]]},"properties":{"code":"33.19.02.2016","name":"Damaran","latitude":-6.8016642112480445,"longitude":110.83015347216376}},{"type":"Feature","geometry":{"type":"Polygon","coordinates":[[[110.84,-6.792],[110.8395,-6.7935],[110.839,-6.7955],[110.8375,-6.797],[110.8365,-6.796],[110.832,-6.792],[110.8315,-6.794],[110.833,-6.798],[110.8345,-6.798],[110.8375,-6.7985],[110.8385,-6.7985],[110.8385,-6.799],[110.839,-6.7985],[110.8395,-6.7985],[110.842,-6.7975],[110.842,-6.7965],[110.8405,-6.7945],[110.841,-6.7925],[110.84,-6.792]]]},"properties":{"code":"33.19.02.2019","name":"Krandon","latitude":-6.795717204720624,"longitude":110.8367654910569}},{"type":"Feature","geometry":{"type":"Polygon","coordinates":[[[110.8445,-6.7825],[110.838,-6.7855],[110.837,-6.7875],[110.839,-6.79],[110.8365,-6.79],[110.837,-6.791],[110.8395,-6.792],[110.841,-6.7925],[110.8405,-6.7945],[110.842,-6.7965],[110.842,-6.7975],[110.8395,-6.7985],[110.8405,-6.8005],[110.8385,-6.803],[110.8375,-6.805],[110.836,-6.806],[110.836,-6.8065],[110.8365,-6.806],[110.841,-6.8025],[110.8425,-6.8015],[110.8435,-6.8005],[110.8455,-6.8005],[110.846,-6.7995],[110.846,-6.799],[110.8465,-6.7985],[110.8465,-6.7975],[110.846,-6.7975],[110.846,-6.7955],[110.8465,-6.7935],[110.848,-6.7915],[110.8485,-6.7885],[110.846,-6.7845],[110.845,-6.7845],[110.845,-6.783],[110.8445,-6.7825]]]},"properties":{"code":"33.19.02.2020","name":"Singocandi","latitude":-6.790993373194979,"longitude":110.84285272499935}},{"type":"Feature","geometry":{"type":"Polygon","coordinates":[[[110.8455,-6.8005],[110.8435,-6.8005],[110.8425,-6.8015],[110.8415,-6.8025],[110.8415,-6.8045],[110.8435,-6.805],[110.8445,-6.803],[110.8455,-6.8005]]]},"properties":{"code":"33.19.02.2021","name":"Glantengan","latitude":-6.80259523956237,"longitude":110.84330183574473}},{"type":"Feature","geometry":{"type":"Polygon","coordinates":[[[110.8505,-6.791],[110.8495,-6.7895],[110.8485,-6.7895],[110.848,-6.7915],[110.8465,-6.7935],[110.846,-6.7955],[110.846,-6.7975],[110.8505,-6.7955],[110.8525,-6.796],[110.8545,-6.7965],[110.855,-6.7935],[110.853,-6.792],[110.8505,-6.791]]]},"properties":{"code":"33.19.02.2022","name":"Kaliputu","latitude":-6.794343330517592,"longitude":110.84995215232962}},{"type":"Feature","geometry":{"type":"Polygon","coordinates":[[[110.8475,-6.798],[110.8465,-6.7975],[110.8465,-6.7985],[110.846,-6.799],[110.846,-6.7995],[110.8455,-6.8005],[110.8445,-6.803],[110.843,-6.8065],[110.8425,-6.8085],[110.8445,-6.8095],[110.8455,-6.8055],[110.8465,-6.8025],[110.848,-6.799],[110.8475,-6.798]]]},"properties":{"code":"33.19.02.2023","name":"Barongan","latitude":-6.803669240186132,"longitude":110.84543789305013}},{"type":"Feature","geometry":{"type":"Polygon","coordinates":[[[110.8545,-6.7965],[110.8525,-6.796],[110.8505,-6.7955],[110.8475,-6.798],[110.848,-6.799],[110.848,-6.8025],[110.851,-6.804],[110.8525,-6.8045],[110.8545,-6.799],[110.8545,-6.7975],[110.8545,-6.797],[110.8545,-6.7965]]]},"properties":{"code":"33.19.02.2024","name":"Burikan","latitude":-6.799904057605071,"longitude":110.85115053318123}},{"type":"Feature","geometry":{"type":"Polygon","coordinates":[[[110.857,-6.7975],[110.855,-6.797],[110.8545,-6.799],[110.8525,-6.8045],[110.853,-6.8055],[110.8545,-6.8055],[110.8545,-6.805],[110.855,-6.8045],[110.858,-6.8055],[110.8585,-6.806],[110.8595,-6.806],[110.8615,-6.807],[110.862,-6.805],[110.863,-6.802],[110.8625,-6.8015],[110.8625,-6.801],[110.861,-6.798],[110.86,-6.7995],[110.8595,-6.7995],[110.8595,-6.7985],[110.857,-6.7975]]]},"properties":{"code":"33.19.02.2025","name":"Rendeng","latitude":-6.802051871880404,"longitude":110.85776770582893}},{"type":"Feature","geometry":{"type":"Polygon","coordinates":[[[110.8475,-6.8455],[110.836,-6.8485],[110.8355,-6.8485],[110.835,-6.849],[110.834,-6.853],[110.8505,-6.859],[110.854,-6.86],[110.855,-6.8575],[110.851,-6.856],[110.8505,-6.848],[110.8475,-6.8455]]]},"properties":{"code":"33.19.03.2001","name":"Jetiskapuan","latitude":-6.851602099470152,"longitude":110.84441158722662}},{"type":"Feature","geometry":{"type":"Polygon","coordinates":[[[110.835,-6.8355],[110.832,-6.8355],[110.8245,-6.8485],[110.8265,-6.847],[110.8275,-6.8465],[110.8285,-6.8475],[110.83,-6.851],[110.8305,-6.851],[110.8335,-6.8505],[110.8325,-6.8525],[110.834,-6.853],[110.835,-6.849],[110.8355,-6.8485],[110.836,-6.8485],[110.838,-6.8405],[110.839,-6.8365],[110.8385,-6.8365],[110.8385,-6.836],[110.8375,-6.8355],[110.837,-6.8365],[110.835,-6.8355]]]},"properties":{"code":"33.19.03.2002","name":"Tanjungkarang","latitude":-6.843260675497442,"longitude":110.83255176338815}},{"type":"Feature","geometry":{"type":"Polygon","coordinates":[[[110.832,-6.8355],[110.824,-6.8305],[110.8155,-6.8395],[110.81,-6.8375],[110.812,-6.842],[110.8155,-6.845],[110.818,-6.8495],[110.8195,-6.8505],[110.8245,-6.8485],[110.832,-6.8355]]]},"properties":{"code":"33.19.03.2003","name":"Jati Wetan","latitude":-6.8396547193609845,"longitude":110.82263254491211}},{"type":"Feature","geometry":{"type":"Polygon","coordinates":[[[110.8195,-6.819],[110.817,-6.817],[110.815,-6.8175],[110.799,-6.822],[110.796,-6.821],[110.7955,-6.822],[110.8125,-6.833],[110.816,-6.827],[110.8165,-6.827],[110.8175,-6.8205],[110.8195,-6.819]]]},"properties":{"code":"33.19.03.2004","name":"Pasuruhan Kidul","latitude":-6.8242389513181845,"longitude":110.8095905600961}},{"type":"Feature","geometry":{"type":"Polygon","coordinates":[[[110.821,-6.813],[110.82,-6.8125],[110.82,-6.8135],[110.822,-6.815],[110.8195,-6.819],[110.8175,-6.8205],[110.8165,-6.827],[110.816,-6.827],[110.8125,-6.833],[110.7955,-6.822],[110.7975,-6.8345],[110.797,-6.837],[110.7975,-6.8385],[110.809,-6.8375],[110.8125,-6.8375],[110.8225,-6.823],[110.822,-6.8225],[110.8245,-6.8205],[110.8305,-6.8185],[110.8305,-6.8175],[110.831,-6.817],[110.8265,-6.816],[110.8245,-6.815],[110.821,-6.813]]]},"properties":{"code":"33.19.03.2005","name":"Pasuruhan Lor","latitude":-6.8286774374216765,"longitude":110.81110877110574}},{"type":"Feature","geometry":{"type":"Polygon","coordinates":[[[110.8365,-6.815],[110.833,-6.814],[110.832,-6.8145],[110.829,-6.8135],[110.829,-6.814],[110.8275,-6.815],[110.827,-6.8155],[110.831,-6.817],[110.8305,-6.8175],[110.8305,-6.8185],[110.8245,-6.8205],[110.822,-6.8225],[110.8225,-6.823],[110.8285,-6.8205],[110.8335,-6.8215],[110.835,-6.822],[110.835,-6.8225],[110.838,-6.8165],[110.836,-6.816],[110.8365,-6.815]]]},"properties":{"code":"33.19.03.2006","name":"Ploso","latitude":-6.818425953441671,"longitude":110.83122006884894}},{"type":"Feature","geometry":{"type":"Polygon","coordinates":[[[110.835,-6.8225],[110.835,-6.822],[110.8335,-6.8215],[110.8285,-6.8205],[110.8225,-6.823],[110.8125,-6.8375],[110.8155,-6.8395],[110.824,-6.8305],[110.832,-6.8355],[110.835,-6.8355],[110.8355,-6.8345],[110.8335,-6.8255],[110.835,-6.8225]]]},"properties":{"code":"33.19.03.2007","name":"Jati Kulon","latitude":-6.8287677910177536,"longitude":110.82624520285545}},{"type":"Feature","geometry":{"type":"Polygon","coordinates":[[[110.8405,-6.818],[110.838,-6.8165],[110.836,-6.8215],[110.8345,-6.8245],[110.8335,-6.8255],[110.8355,-6.8345],[110.837,-6.8365],[110.8375,-6.8355],[110.8385,-6.836],[110.8385,-6.8365],[110.839,-6.8365],[110.842,-6.826],[110.845,-6.8255],[110.845,-6.8225],[110.844,-6.819],[110.8415,-6.8175],[110.8405,-6.818]]]},"properties":{"code":"33.19.03.2008","name":"Getaspejaten","latitude":-6.825829231411966,"longitude":110.83921959722892}},{"type":"Feature","geometry":{"type":"Polygon","coordinates":[[[110.8475,-6.8455],[110.8485,-6.8405],[110.846,-6.836],[110.848,-6.832],[110.8455,-6.821],[110.845,-6.8225],[110.845,-6.8255],[110.842,-6.826],[110.839,-6.8365],[110.838,-6.8405],[110.836,-6.8485],[110.8475,-6.8455]]]},"properties":{"code":"33.19.03.2009","name":"Loram Kulon","latitude":-6.836455233051641,"longitude":110.84338292197447}},{"type":"Feature","geometry":{"type":"Polygon","coordinates":[[[110.852,-6.819],[110.8515,-6.8185],[110.849,-6.8185],[110.845,-6.8195],[110.8455,-6.821],[110.848,-6.832],[110.846,-6.836],[110.8485,-6.8405],[110.8475,-6.8455],[110.8505,-6.848],[110.8515,-6.8485],[110.8545,-6.8365],[110.856,-6.83],[110.8565,-6.828],[110.857,-6.8265],[110.8565,-6.825],[110.8515,-6.82],[110.852,-6.819]]]},"properties":{"code":"33.19.03.2010","name":"Loram Wetan","latitude":-6.832056530484468,"longitude":110.85090570431042}},{"type":"Feature","geometry":{"type":"Polygon","coordinates":[[[110.863,-6.8185],[110.853,-6.816],[110.8525,-6.817],[110.8515,-6.82],[110.8565,-6.825],[110.857,-6.8265],[110.8565,-6.828],[110.856,-6.83],[110.8555,-6.8325],[110.863,-6.8345],[110.8635,-6.8295],[110.8645,-6.8215],[110.863,-6.821],[110.863,-6.8185]]]},"properties":{"code":"33.19.03.2011","name":"Jepangpakis","latitude":-6.824553166966208,"longitude":110.8587812870424}},{"type":"Feature","geometry":{"type":"Polygon","coordinates":[[[110.878,-6.8155],[110.868,-6.8145],[110.867,-6.814],[110.866,-6.8125],[110.8645,-6.8165],[110.8635,-6.816],[110.863,-6.8185],[110.863,-6.821],[110.8645,-6.8215],[110.865,-6.819],[110.8725,-6.8205],[110.875,-6.8205],[110.882,-6.821],[110.883,-6.821],[110.884,-6.819],[110.882,-6.818],[110.8785,-6.8155],[110.878,-6.8155]]]},"properties":{"code":"33.19.03.2012","name":"Megawon","latitude":-6.817246357882454,"longitude":110.87288358327973}},{"type":"Feature","geometry":{"type":"Polygon","coordinates":[[[110.8735,-6.805],[110.871,-6.807],[110.8715,-6.807],[110.878,-6.81],[110.879,-6.8125],[110.8785,-6.8155],[110.882,-6.818],[110.885,-6.8195],[110.887,-6.818],[110.888,-6.8155],[110.889,-6.813],[110.888,-6.813],[110.8875,-6.8125],[110.887,-6.812],[110.8865,-6.811],[110.8735,-6.805]]]},"properties":{"code":"33.19.03.2013","name":"Ngembal Kulon","latitude":-6.811125086431538,"longitude":110.88113981703773}},{"type":"Feature","geometry":{"type":"Polygon","coordinates":[[[110.864,-6.8],[110.8625,-6.8005],[110.8625,-6.8],[110.8625,-6.8015],[110.863,-6.802],[110.862,-6.805],[110.8615,-6.8075],[110.866,-6.812],[110.866,-6.8125],[110.867,-6.814],[110.868,-6.8145],[110.878,-6.8155],[110.879,-6.8125],[110.878,-6.81],[110.8715,-6.807],[110.869,-6.807],[110.8655,-6.801],[110.864,-6.8]]]},"properties":{"code":"33.19.03.2014","name":"Tumpangkrasak","latitude":-6.8088012439921135,"longitude":110.86879225373252}},{"type":"Feature","geometry":{"type":"Polygon","coordinates":[[[110.788,-6.948],[110.7875,-6.9475],[110.784,-6.9505],[110.785,-6.9515],[110.7925,-6.957],[110.7995,-6.9715],[110.802,-6.975],[110.8025,-6.977],[110.8035,-6.979],[110.807,-6.98],[110.812,-6.976],[110.811,-6.9615],[110.8105,-6.951],[110.802,-6.9535],[110.7975,-6.953],[110.7965,-6.952],[110.7925,-6.949],[110.788,-6.948]]]},"properties":{"code":"33.19.04.2001","name":"Wonosoco","latitude":-6.962292001801211,"longitude":110.8018687716418}},{"type":"Feature","geometry":{"type":"Polygon","coordinates":[[[110.7845,-6.935],[110.784,-6.9345],[110.7835,-6.934],[110.7835,-6.933],[110.784,-6.932],[110.7845,-6.9305],[110.784,-6.93],[110.7835,-6.93],[110.777,-6.934],[110.7845,-6.9355],[110.7835,-6.9375],[110.775,-6.9435],[110.773,-6.944],[110.7725,-6.945],[110.779,-6.9475],[110.7825,-6.9495],[110.784,-6.9505],[110.7875,-6.9475],[110.788,-6.948],[110.7925,-6.949],[110.7965,-6.952],[110.7975,-6.953],[110.802,-6.9535],[110.796,-6.949],[110.796,-6.9465],[110.7955,-6.943],[110.7985,-6.941],[110.799,-6.9395],[110.7945,-6.938],[110.7845,-6.935]]]},"properties":{"code":"33.19.04.2002","name":"Lambangan","latitude":-6.942794575485964,"longitude":110.78679744665892}},{"type":"Feature","geometry":{"type":"Polygon","coordinates":[[[110.8075,-6.9235],[110.791,-6.923],[110.7895,-6.9235],[110.7905,-6.925],[110.7865,-6.932],[110.7845,-6.9305],[110.7835,-6.933],[110.7835,-6.934],[110.7845,-6.935],[110.7945,-6.938],[110.798,-6.939],[110.802,-6.9405],[110.804,-6.939],[110.8065,-6.9275],[110.807,-6.925],[110.8075,-6.9235]]]},"properties":{"code":"33.19.04.2003","name":"Kalirejo","latitude":-6.930976689897455,"longitude":110.7966007798046}},{"type":"Feature","geometry":{"type":"Polygon","coordinates":[[[110.8115,-6.9125],[110.805,-6.9105],[110.7925,-6.9075],[110.7915,-6.9085],[110.791,-6.909],[110.7835,-6.9205],[110.785,-6.922],[110.7885,-6.923],[110.7895,-6.9235],[110.791,-6.923],[110.8075,-6.9235],[110.81,-6.916],[110.811,-6.9165],[110.8115,-6.9125]]]},"properties":{"code":"33.19.04.2004","name":"Medini","latitude":-6.916402577590127,"longitude":110.79732486231168}},{"type":"Feature","geometry":{"type":"Polygon","coordinates":[[[110.822,-6.9145],[110.8015,-6.8985],[110.796,-6.899],[110.7945,-6.9005],[110.7935,-6.905],[110.7925,-6.9075],[110.805,-6.9105],[110.8115,-6.9125],[110.816,-6.9145],[110.822,-6.9145]]]},"properties":{"code":"33.19.04.2005","name":"Sambung","latitude":-6.906772616358414,"longitude":110.8046818504966}},{"type":"Feature","geometry":{"type":"Polygon","coordinates":[[[110.8205,-6.9225],[110.819,-6.922],[110.8085,-6.9205],[110.807,-6.925],[110.8065,-6.9275],[110.805,-6.937],[110.809,-6.939],[110.8115,-6.945],[110.8165,-6.938],[110.817,-6.9385],[110.8205,-6.9225]]]},"properties":{"code":"33.19.04.2006","name":"Glagahwaru","latitude":-6.930791996514137,"longitude":110.81244710609548}},{"type":"Feature","geometry":{"type":"Polygon","coordinates":[[[110.8475,-6.931],[110.8415,-6.917],[110.8315,-6.914],[110.83,-6.915],[110.8295,-6.9165],[110.83,-6.9165],[110.8245,-6.9215],[110.8205,-6.9225],[110.817,-6.9385],[110.8205,-6.939],[110.837,-6.9375],[110.8425,-6.9365],[110.8475,-6.931]]]},"properties":{"code":"33.19.04.2007","name":"Kutuk","latitude":-6.928285965998254,"longitude":110.83286925555635}},{"type":"Feature","geometry":{"type":"Polygon","coordinates":[[[110.8495,-6.9115],[110.847,-6.911],[110.836,-6.905],[110.8245,-6.898],[110.81,-6.8915],[110.808,-6.892],[110.806,-6.891],[110.8055,-6.892],[110.803,-6.895],[110.802,-6.898],[110.8015,-6.8985],[110.822,-6.9145],[110.829,-6.916],[110.8295,-6.9165],[110.83,-6.915],[110.8315,-6.914],[110.8415,-6.917],[110.8495,-6.9115]]]},"properties":{"code":"33.19.04.2008","name":"Undaan Kidul","latitude":-6.905784471574531,"longitude":110.82409199831551}},{"type":"Feature","geometry":{"type":"Polygon","coordinates":[[[110.857,-6.902],[110.8125,-6.8805],[110.811,-6.8815],[110.809,-6.8805],[110.8085,-6.8805],[110.8065,-6.89],[110.806,-6.891],[110.808,-6.892],[110.81,-6.8915],[110.8245,-6.898],[110.836,-6.905],[110.847,-6.911],[110.8495,-6.9115],[110.854,-6.906],[110.857,-6.902]]]},"properties":{"code":"33.19.04.2009","name":"Undaan Tengah","latitude":-6.896010184851937,"longitude":110.83085329326119}},{"type":"Feature","geometry":{"type":"Polygon","coordinates":[[[110.8635,-6.863],[110.8635,-6.8635],[110.862,-6.8625],[110.8615,-6.8645],[110.863,-6.8655],[110.86,-6.8665],[110.8575,-6.882],[110.8635,-6.8875],[110.863,-6.8935],[110.8615,-6.894],[110.8535,-6.8965],[110.855,-6.8985],[110.856,-6.899],[110.8725,-6.9055],[110.8815,-6.9055],[110.883,-6.905],[110.883,-6.8795],[110.881,-6.8715],[110.882,-6.868],[110.8835,-6.8675],[110.8775,-6.867],[110.8735,-6.8665],[110.8635,-6.863]]]},"properties":{"code":"33.19.04.2010","name":"Karangrowo","latitude":-6.885874302057641,"longitude":110.87100295982727}},{"type":"Feature","geometry":{"type":"Polygon","coordinates":[[[110.8575,-6.882],[110.857,-6.8825],[110.8555,-6.882],[110.852,-6.8875],[110.8485,-6.8865],[110.8455,-6.8855],[110.842,-6.8835],[110.8505,-6.895],[110.856,-6.8995],[110.856,-6.899],[110.855,-6.8985],[110.8535,-6.8965],[110.8615,-6.894],[110.863,-6.8935],[110.8635,-6.8875],[110.8575,-6.882]]]},"properties":{"code":"33.19.04.2011","name":"Larikrejo","latitude":-6.889688266660167,"longitude":110.85235343858666}},{"type":"Feature","geometry":{"type":"Polygon","coordinates":[[[110.8435,-6.8845],[110.8295,-6.8755],[110.826,-6.8685],[110.8255,-6.865],[110.8235,-6.864],[110.8225,-6.862],[110.822,-6.8625],[110.822,-6.8645],[110.8225,-6.8685],[110.819,-6.8685],[110.815,-6.8725],[110.809,-6.88],[110.809,-6.8805],[110.811,-6.8815],[110.8125,-6.8805],[110.857,-6.902],[110.856,-6.8995],[110.8505,-6.895],[110.842,-6.8835],[110.8435,-6.8845]]]},"properties":{"code":"33.19.04.2012","name":"Undaan Lor","latitude":-6.8824351936691865,"longitude":110.82981012959858}},{"type":"Feature","geometry":{"type":"Polygon","coordinates":[[[110.856,-6.882],[110.8465,-6.867],[110.8295,-6.861],[110.8285,-6.861],[110.8255,-6.8615],[110.8245,-6.8615],[110.8225,-6.862],[110.8235,-6.864],[110.8255,-6.865],[110.826,-6.8685],[110.8295,-6.8755],[110.8435,-6.8845],[110.8455,-6.8855],[110.8485,-6.8865],[110.852,-6.8875],[110.8555,-6.882],[110.856,-6.882]]]},"properties":{"code":"33.19.04.2013","name":"Wates","latitude":-6.873699133943939,"longitude":110.83976579405028}},{"type":"Feature","geometry":{"type":"Polygon","coordinates":[[[110.834,-6.853],[110.8325,-6.8525],[110.832,-6.8535],[110.8295,-6.8595],[110.8295,-6.861],[110.8465,-6.867],[110.856,-6.882],[110.857,-6.8825],[110.8575,-6.882],[110.86,-6.8665],[110.863,-6.8655],[110.8615,-6.8645],[110.862,-6.8625],[110.857,-6.861],[110.8535,-6.86],[110.8505,-6.859],[110.834,-6.853]]]},"properties":{"code":"33.19.04.2014","name":"Ngemplak","latitude":-6.865825262998811,"longitude":110.84870782463852}},{"type":"Feature","geometry":{"type":"Polygon","coordinates":[[[110.822,-6.9145],[110.816,-6.9145],[110.8115,-6.9125],[110.811,-6.9165],[110.81,-6.916],[110.8085,-6.9205],[110.819,-6.922],[110.8245,-6.9215],[110.83,-6.9165],[110.829,-6.916],[110.822,-6.9145]]]},"properties":{"code":"33.19.04.2015","name":"Terangmas","latitude":-6.918327867889525,"longitude":110.81817131607943}},{"type":"Feature","geometry":{"type":"Polygon","coordinates":[[[110.809,-6.939],[110.805,-6.937],[110.804,-6.939],[110.802,-6.9405],[110.799,-6.9395],[110.7985,-6.941],[110.7955,-6.943],[110.796,-6.9465],[110.802,-6.9535],[110.8105,-6.951],[110.8105,-6.9505],[110.811,-6.947],[110.8115,-6.945],[110.809,-6.939]]]},"properties":{"code":"33.19.04.2016","name":"Berugenjang","latitude":-6.945517148112682,"longitude":110.80363905463417}},{"type":"Feature","geometry":{"type":"Polygon","coordinates":[[[110.8635,-6.8325],[110.863,-6.8345],[110.8555,-6.8325],[110.8545,-6.8365],[110.8515,-6.8485],[110.851,-6.856],[110.855,-6.8575],[110.854,-6.86],[110.862,-6.8625],[110.8635,-6.8635],[110.864,-6.8595],[110.8665,-6.8365],[110.866,-6.834],[110.868,-6.834],[110.8635,-6.8325]]]},"properties":{"code":"33.19.05.2001","name":"Gulang","latitude":-6.847265990884611,"longitude":110.85972335632273}},{"type":"Feature","geometry":{"type":"Polygon","coordinates":[[[110.8775,-6.8205],[110.8725,-6.8205],[110.865,-6.819],[110.8635,-6.8295],[110.8635,-6.8325],[110.868,-6.834],[110.8815,-6.838],[110.8845,-6.838],[110.885,-6.836],[110.885,-6.833],[110.885,-6.8305],[110.8845,-6.828],[110.883,-6.8245],[110.881,-6.824],[110.8785,-6.823],[110.878,-6.8225],[110.878,-6.823],[110.877,-6.8225],[110.8775,-6.8205]]]},"properties":{"code":"33.19.05.2002","name":"Jepang","latitude":-6.828860281673675,"longitude":110.87451788892999}},{"type":"Feature","geometry":{"type":"Polygon","coordinates":[[[110.868,-6.834],[110.866,-6.834],[110.8665,-6.8365],[110.864,-6.8595],[110.8635,-6.863],[110.871,-6.866],[110.8765,-6.8445],[110.8815,-6.8455],[110.883,-6.838],[110.8815,-6.838],[110.868,-6.834]]]},"properties":{"code":"33.19.05.2003","name":"Payaman","latitude":-6.848455064884125,"longitude":110.8715897545787}},{"type":"Feature","geometry":{"type":"Polygon","coordinates":[[[110.895,-6.8375],[110.8915,-6.8355],[110.885,-6.8335],[110.885,-6.836],[110.8845,-6.838],[110.883,-6.838],[110.8815,-6.8455],[110.8765,-6.8445],[110.871,-6.866],[110.8775,-6.867],[110.8835,-6.8675],[110.8885,-6.8675],[110.893,-6.843],[110.894,-6.8415],[110.894,-6.839],[110.895,-6.8375]]]},"properties":{"code":"33.19.05.2004","name":"Kirig","latitude":-6.852209652833632,"longitude":110.88359393353889}},{"type":"Feature","geometry":{"type":"Polygon","coordinates":[[[110.9065,-6.8675],[110.9,-6.8415],[110.897,-6.8395],[110.8965,-6.836],[110.895,-6.8375],[110.894,-6.839],[110.894,-6.8415],[110.893,-6.843],[110.8885,-6.8675],[110.8905,-6.8675],[110.9065,-6.8675]]]},"properties":{"code":"33.19.05.2005","name":"Temulus","latitude":-6.855582230034714,"longitude":110.89727337403079}},{"type":"Feature","geometry":{"type":"Polygon","coordinates":[[[110.908,-6.8345],[110.908,-6.834],[110.906,-6.8335],[110.9,-6.8305],[110.9,-6.83],[110.899,-6.829],[110.8965,-6.836],[110.897,-6.8395],[110.9,-6.8415],[110.9065,-6.8675],[110.9135,-6.867],[110.9135,-6.8635],[110.907,-6.8435],[110.907,-6.839],[110.908,-6.8345]]]},"properties":{"code":"33.19.05.2006","name":"Kesambi","latitude":-6.848538343693338,"longitude":110.90558081610291}},{"type":"Feature","geometry":{"type":"Polygon","coordinates":[[[110.911,-6.833],[110.9095,-6.833],[110.9085,-6.8345],[110.908,-6.8345],[110.907,-6.839],[110.907,-6.8435],[110.9135,-6.8635],[110.9135,-6.867],[110.916,-6.867],[110.92,-6.867],[110.9215,-6.867],[110.9235,-6.8665],[110.9235,-6.866],[110.923,-6.866],[110.923,-6.8655],[110.923,-6.866],[110.922,-6.864],[110.9215,-6.8615],[110.9175,-6.862],[110.913,-6.846],[110.9155,-6.8355],[110.915,-6.8335],[110.911,-6.833]]]},"properties":{"code":"33.19.05.2007","name":"Jojo","latitude":-6.850324155292816,"longitude":110.91333602902723}},{"type":"Feature","geometry":{"type":"Polygon","coordinates":[[[110.913,-6.8085],[110.9105,-6.811],[110.907,-6.814],[110.909,-6.816],[110.9065,-6.8175],[110.903,-6.818],[110.902,-6.822],[110.9005,-6.823],[110.897,-6.8265],[110.896,-6.8275],[110.8965,-6.8275],[110.8975,-6.828],[110.899,-6.829],[110.9,-6.83],[110.9,-6.8305],[110.906,-6.8335],[110.908,-6.834],[110.9085,-6.8345],[110.9095,-6.833],[110.911,-6.833],[110.9105,-6.823],[110.911,-6.8215],[110.9155,-6.8215],[110.913,-6.8085]]]},"properties":{"code":"33.19.05.2008","name":"Hadiwarno","latitude":-6.823401592831526,"longitude":110.90720393287738}},{"type":"Feature","geometry":{"type":"Polygon","coordinates":[[[110.887,-6.818],[110.885,-6.8195],[110.884,-6.819],[110.883,-6.821],[110.882,-6.821],[110.8775,-6.8205],[110.877,-6.8225],[110.878,-6.823],[110.878,-6.8225],[110.8785,-6.823],[110.881,-6.824],[110.883,-6.8245],[110.8845,-6.828],[110.885,-6.8305],[110.885,-6.833],[110.885,-6.8335],[110.8915,-6.8355],[110.8975,-6.828],[110.8965,-6.8275],[110.896,-6.8275],[110.8955,-6.8275],[110.8915,-6.827],[110.891,-6.8265],[110.8885,-6.819],[110.887,-6.818]]]},"properties":{"code":"33.19.05.2009","name":"Mejobo","latitude":-6.828038760482048,"longitude":110.88930307012394}},{"type":"Feature","geometry":{"type":"Polygon","coordinates":[[[110.903,-6.818],[110.895,-6.8105],[110.892,-6.812],[110.8905,-6.8065],[110.8885,-6.8065],[110.8885,-6.811],[110.8885,-6.8125],[110.889,-6.813],[110.888,-6.8155],[110.8885,-6.819],[110.891,-6.8265],[110.8915,-6.827],[110.8955,-6.8275],[110.896,-6.8265],[110.897,-6.8265],[110.9005,-6.823],[110.902,-6.822],[110.903,-6.818]]]},"properties":{"code":"33.19.05.2010","name":"Golantepus","latitude":-6.8182925571737005,"longitude":110.89521945310278}},{"type":"Feature","geometry":{"type":"Polygon","coordinates":[[[110.9105,-6.809],[110.9015,-6.8025],[110.893,-6.805],[110.8905,-6.8065],[110.892,-6.812],[110.895,-6.8105],[110.903,-6.818],[110.9065,-6.8175],[110.909,-6.816],[110.907,-6.814],[110.9105,-6.811],[110.9105,-6.809]]]},"properties":{"code":"33.19.05.2011","name":"Tenggeles","latitude":-6.809263860146437,"longitude":110.90090051625833}},{"type":"Feature","geometry":{"type":"Polygon","coordinates":[[[110.9155,-6.8215],[110.911,-6.8215],[110.9105,-6.823],[110.911,-6.833],[110.915,-6.8335],[110.9155,-6.8355],[110.913,-6.846],[110.9175,-6.862],[110.9215,-6.8615],[110.922,-6.864],[110.923,-6.866],[110.923,-6.8655],[110.923,-6.866],[110.9235,-6.866],[110.9235,-6.8665],[110.9245,-6.866],[110.923,-6.8625],[110.922,-6.8575],[110.9205,-6.8575],[110.919,-6.8225],[110.9155,-6.8215]]]},"properties":{"code":"33.19.06.2001","name":"Sadang","latitude":-6.840969148164453,"longitude":110.9162518328588}},{"type":"Feature","geometry":{"type":"Polygon","coordinates":[[[110.9395,-6.8615],[110.938,-6.8555],[110.9375,-6.8495],[110.9365,-6.8495],[110.937,-6.832],[110.9295,-6.823],[110.9275,-6.8215],[110.9265,-6.819],[110.9255,-6.8135],[110.924,-6.8135],[110.921,-6.815],[110.92,-6.818],[110.9205,-6.8225],[110.919,-6.8225],[110.9205,-6.8575],[110.922,-6.8575],[110.923,-6.8625],[110.9245,-6.866],[110.9285,-6.865],[110.9395,-6.8615]]]},"properties":{"code":"33.19.06.2002","name":"Bulungcangkring","latitude":-6.8419641687036545,"longitude":110.92743468743794}},{"type":"Feature","geometry":{"type":"Polygon","coordinates":[[[110.945,-6.8185],[110.9425,-6.8185],[110.942,-6.8205],[110.9325,-6.815],[110.931,-6.8145],[110.9305,-6.814],[110.929,-6.8125],[110.9285,-6.813],[110.926,-6.813],[110.926,-6.8135],[110.9255,-6.8135],[110.9265,-6.819],[110.9275,-6.8215],[110.9295,-6.823],[110.937,-6.832],[110.9365,-6.8495],[110.9375,-6.8495],[110.938,-6.8555],[110.9395,-6.8615],[110.948,-6.8585],[110.9495,-6.858],[110.951,-6.857],[110.9545,-6.8535],[110.9565,-6.8515],[110.958,-6.849],[110.961,-6.8465],[110.9615,-6.8455],[110.9625,-6.842],[110.9605,-6.8225],[110.947,-6.8265],[110.9445,-6.8265],[110.9455,-6.8215],[110.9455,-6.8185],[110.945,-6.8185]]]},"properties":{"code":"33.19.06.2003","name":"Bulung Kulon","latitude":-6.837117913884313,"longitude":110.9458785190392}},{"type":"Feature","geometry":{"type":"Polygon","coordinates":[[[110.952,-6.8055],[110.951,-6.8055],[110.947,-6.8055],[110.947,-6.8065],[110.9475,-6.8065],[110.948,-6.8075],[110.948,-6.8115],[110.947,-6.8135],[110.9455,-6.815],[110.9445,-6.8165],[110.945,-6.8175],[110.9455,-6.8185],[110.9455,-6.8215],[110.9445,-6.8265],[110.947,-6.8265],[110.9605,-6.8225],[110.9625,-6.842],[110.9665,-6.839],[110.969,-6.837],[110.9695,-6.837],[110.967,-6.831],[110.9665,-6.829],[110.9645,-6.8185],[110.961,-6.8165],[110.952,-6.8055]]]},"properties":{"code":"33.19.06.2004","name":"Sidomulyo","latitude":-6.82063284006282,"longitude":110.95652634395745}},{"type":"Feature","geometry":{"type":"Polygon","coordinates":[[[110.963,-6.756],[110.9555,-6.755],[110.95,-6.756],[110.947,-6.756],[110.948,-6.764],[110.9485,-6.7675],[110.95,-6.77],[110.952,-6.7745],[110.9535,-6.7775],[110.9575,-6.7805],[110.9595,-6.7835],[110.959,-6.7875],[110.958,-6.7885],[110.958,-6.79],[110.9565,-6.7905],[110.956,-6.7925],[110.954,-6.806],[110.952,-6.8055],[110.961,-6.8165],[110.9645,-6.8185],[110.9665,-6.829],[110.967,-6.831],[110.9695,-6.837],[110.972,-6.837],[110.9725,-6.837],[110.9765,-6.834],[110.977,-6.8335],[110.9765,-6.8295],[110.9755,-6.825],[110.9745,-6.8165],[110.9745,-6.8135],[110.9755,-6.8075],[110.9755,-6.8045],[110.971,-6.803],[110.9705,-6.8015],[110.971,-6.7925],[110.965,-6.7785],[110.9645,-6.776],[110.9645,-6.7755],[110.9645,-6.775],[110.965,-6.774],[110.964,-6.7685],[110.963,-6.763],[110.963,-6.756]]]},"properties":{"code":"33.19.06.2005","name":"Gondoharum","latitude":-6.793908706256777,"longitude":110.96303243010038}},{"type":"Feature","geometry":{"type":"Polygon","coordinates":[[[110.947,-6.756],[110.945,-6.7555],[110.9445,-6.7565],[110.943,-6.766],[110.9425,-6.7675],[110.93,-6.78],[110.9305,-6.7805],[110.928,-6.7835],[110.931,-6.796],[110.9305,-6.7955],[110.937,-6.795],[110.9375,-6.796],[110.947,-6.807],[110.947,-6.8065],[110.947,-6.8055],[110.951,-6.8055],[110.954,-6.806],[110.956,-6.7925],[110.9565,-6.7905],[110.958,-6.79],[110.958,-6.7885],[110.959,-6.7875],[110.9595,-6.7835],[110.9575,-6.7805],[110.9535,-6.7775],[110.952,-6.7745],[110.95,-6.77],[110.9485,-6.7675],[110.948,-6.764],[110.947,-6.756]]]},"properties":{"code":"33.19.06.2006","name":"Terban","latitude":-6.786128787450338,"longitude":110.94378141286386}},{"type":"Feature","geometry":{"type":"Polygon","coordinates":[[[110.9475,-6.8065],[110.947,-6.807],[110.9375,-6.796],[110.937,-6.795],[110.9305,-6.7955],[110.931,-6.796],[110.931,-6.797],[110.931,-6.7975],[110.9305,-6.7985],[110.9305,-6.804],[110.9305,-6.8045],[110.931,-6.805],[110.929,-6.807],[110.9285,-6.8075],[110.929,-6.81],[110.929,-6.8125],[110.9305,-6.814],[110.931,-6.8145],[110.9325,-6.815],[110.942,-6.8205],[110.9425,-6.8185],[110.945,-6.8185],[110.945,-6.8175],[110.9445,-6.8165],[110.9455,-6.815],[110.947,-6.8135],[110.948,-6.8115],[110.948,-6.8075],[110.9475,-6.8065]]]},"properties":{"code":"33.19.06.2007","name":"Pladen","latitude":-6.808631831368826,"longitude":110.93712791929521}},{"type":"Feature","geometry":{"type":"Polygon","coordinates":[[[110.943,-6.752],[110.9235,-6.7715],[110.915,-6.786],[110.9155,-6.79],[110.9185,-6.793],[110.9195,-6.796],[110.918,-6.8],[110.9225,-6.8065],[110.9235,-6.8075],[110.926,-6.812],[110.926,-6.813],[110.9285,-6.813],[110.929,-6.81],[110.9285,-6.8075],[110.929,-6.807],[110.931,-6.805],[110.9305,-6.8045],[110.9305,-6.804],[110.9305,-6.7985],[110.931,-6.7975],[110.931,-6.797],[110.931,-6.796],[110.928,-6.7835],[110.9305,-6.7805],[110.93,-6.78],[110.9425,-6.7675],[110.943,-6.766],[110.9445,-6.7565],[110.945,-6.7555],[110.943,-6.752]]]},"properties":{"code":"33.19.06.2008","name":"Klaling","latitude":-6.780579491806677,"longitude":110.9289543654935}},{"type":"Feature","geometry":{"type":"Polygon","coordinates":[[[110.918,-6.8],[110.914,-6.7975],[110.912,-6.797],[110.913,-6.8085],[110.9155,-6.8215],[110.9205,-6.8225],[110.92,-6.818],[110.921,-6.815],[110.924,-6.8135],[110.926,-6.8135],[110.926,-6.812],[110.9235,-6.8075],[110.9225,-6.8065],[110.918,-6.8]]]},"properties":{"code":"33.19.06.2009","name":"Jekulo","latitude":-6.809907031948669,"longitude":110.91819295692902}},{"type":"Feature","geometry":{"type":"Polygon","coordinates":[[[110.9025,-6.78],[110.899,-6.786],[110.897,-6.7885],[110.897,-6.791],[110.893,-6.7905],[110.8915,-6.79],[110.8895,-6.788],[110.889,-6.788],[110.8895,-6.79],[110.891,-6.7925],[110.8875,-6.795],[110.8865,-6.796],[110.8865,-6.798],[110.888,-6.7995],[110.891,-6.8055],[110.893,-6.805],[110.9015,-6.8025],[110.9105,-6.809],[110.913,-6.8085],[110.912,-6.797],[110.909,-6.7965],[110.903,-6.7815],[110.9025,-6.78]]]},"properties":{"code":"33.19.06.2010","name":"Hadipolo","latitude":-6.796762946871419,"longitude":110.90052009212431}},{"type":"Feature","geometry":{"type":"Polygon","coordinates":[[[110.9005,-6.761],[110.8875,-6.768],[110.888,-6.7685],[110.888,-6.7695],[110.887,-6.7695],[110.8865,-6.7705],[110.886,-6.772],[110.887,-6.772],[110.887,-6.773],[110.888,-6.7875],[110.8895,-6.7875],[110.8895,-6.788],[110.8915,-6.79],[110.893,-6.7905],[110.897,-6.791],[110.897,-6.7885],[110.899,-6.786],[110.9025,-6.78],[110.9035,-6.779],[110.907,-6.772],[110.909,-6.771],[110.9085,-6.7705],[110.908,-6.7695],[110.9005,-6.761]]]},"properties":{"code":"33.19.06.2011","name":"Honggosoco","latitude":-6.774324387415297,"longitude":110.8967614878826}},{"type":"Feature","geometry":{"type":"Polygon","coordinates":[[[110.941,-6.7355],[110.929,-6.738],[110.926,-6.7375],[110.925,-6.738],[110.9245,-6.7545],[110.917,-6.756],[110.912,-6.7555],[110.912,-6.7605],[110.913,-6.7695],[110.913,-6.7705],[110.913,-6.772],[110.91,-6.772],[110.907,-6.772],[110.9035,-6.779],[110.903,-6.7815],[110.909,-6.7965],[110.914,-6.7975],[110.918,-6.8],[110.9195,-6.796],[110.9185,-6.793],[110.9155,-6.79],[110.915,-6.786],[110.9235,-6.7715],[110.943,-6.752],[110.9435,-6.746],[110.9435,-6.7395],[110.941,-6.7355]]]},"properties":{"code":"33.19.06.2012","name":"Tanjungrejo","latitude":-6.764448554737849,"longitude":110.92247426592533}},{"type":"Feature","geometry":{"type":"Polygon","coordinates":[[[110.8735,-6.7905],[110.868,-6.7905],[110.868,-6.79],[110.8665,-6.791],[110.8655,-6.792],[110.8645,-6.7925],[110.865,-6.7935],[110.8645,-6.794],[110.864,-6.795],[110.864,-6.797],[110.8645,-6.7975],[110.8655,-6.801],[110.869,-6.807],[110.871,-6.807],[110.8735,-6.805],[110.8735,-6.7905]]]},"properties":{"code":"33.19.07.2001","name":"Dersalam","latitude":-6.798088303878678,"longitude":110.86916426947137}},{"type":"Feature","geometry":{"type":"Polygon","coordinates":[[[110.8865,-6.796],[110.883,-6.792],[110.8815,-6.7915],[110.8805,-6.789],[110.8795,-6.7885],[110.8755,-6.7895],[110.875,-6.79],[110.874,-6.7905],[110.8735,-6.7905],[110.8735,-6.805],[110.8865,-6.811],[110.887,-6.812],[110.8875,-6.8125],[110.8885,-6.8125],[110.8885,-6.811],[110.8885,-6.8065],[110.8905,-6.8065],[110.891,-6.8055],[110.888,-6.7995],[110.8865,-6.798],[110.8865,-6.796]]]},"properties":{"code":"33.19.07.2002","name":"Ngembalrejo","latitude":-6.7992429141575785,"longitude":110.88076527460075}},{"type":"Feature","geometry":{"type":"Polygon","coordinates":[[[110.8875,-6.768],[110.879,-6.763],[110.8765,-6.7635],[110.877,-6.7665],[110.879,-6.7695],[110.882,-6.77],[110.8825,-6.7705],[110.8835,-6.7725],[110.8835,-6.7755],[110.8835,-6.7765],[110.8825,-6.7785],[110.8795,-6.78],[110.8735,-6.7795],[110.87,-6.78],[110.8675,-6.7885],[110.868,-6.79],[110.868,-6.7905],[110.874,-6.7905],[110.875,-6.79],[110.8755,-6.7895],[110.8795,-6.7885],[110.8805,-6.789],[110.8815,-6.7915],[110.883,-6.792],[110.8865,-6.796],[110.8875,-6.795],[110.891,-6.7925],[110.8895,-6.79],[110.889,-6.788],[110.888,-6.7875],[110.887,-6.773],[110.887,-6.772],[110.886,-6.772],[110.8865,-6.7705],[110.887,-6.7695],[110.888,-6.7695],[110.888,-6.7685],[110.8875,-6.768]]]},"properties":{"code":"33.19.07.2003","name":"Karangbener","latitude":-6.780811236380765,"longitude":110.88096453504197}},{"type":"Feature","geometry":{"type":"Polygon","coordinates":[[[110.873,-6.756],[110.8705,-6.755],[110.864,-6.759],[110.859,-6.766],[110.859,-6.768],[110.859,-6.7695],[110.8585,-6.77],[110.859,-6.7715],[110.8615,-6.776],[110.8625,-6.778],[110.863,-6.7825],[110.8625,-6.7875],[110.863,-6.791],[110.8645,-6.793],[110.865,-6.7935],[110.8645,-6.7925],[110.8655,-6.792],[110.8665,-6.791],[110.8675,-6.7885],[110.87,-6.78],[110.8735,-6.7795],[110.8795,-6.78],[110.8825,-6.7785],[110.8835,-6.7765],[110.8835,-6.7755],[110.8835,-6.7725],[110.8825,-6.7705],[110.882,-6.77],[110.879,-6.7695],[110.877,-6.7665],[110.8765,-6.7635],[110.876,-6.762],[110.873,-6.756]]]},"properties":{"code":"33.19.07.2004","name":"Gondangmanis","latitude":-6.77147571520436,"longitude":110.86982384672778}},{"type":"Feature","geometry":{"type":"Polygon","coordinates":[[[110.8645,-6.793],[110.863,-6.791],[110.8625,-6.7875],[110.863,-6.7825],[110.862,-6.78],[110.857,-6.7975],[110.8595,-6.7985],[110.8595,-6.7995],[110.86,-6.7995],[110.861,-6.798],[110.8625,-6.801],[110.8625,-6.8],[110.8625,-6.8005],[110.864,-6.8],[110.8645,-6.7975],[110.864,-6.797],[110.864,-6.795],[110.8645,-6.794],[110.8645,-6.793]]]},"properties":{"code":"33.19.07.2005","name":"Pedawang","latitude":-6.792156662570892,"longitude":110.8612091927132}},{"type":"Feature","geometry":{"type":"Polygon","coordinates":[[[110.862,-6.78],[110.8625,-6.778],[110.8615,-6.776],[110.859,-6.7715],[110.8585,-6.77],[110.8585,-6.7705],[110.859,-6.771],[110.858,-6.773],[110.8575,-6.7735],[110.8575,-6.7755],[110.855,-6.7835],[110.8535,-6.7845],[110.853,-6.7855],[110.8525,-6.788],[110.8505,-6.791],[110.853,-6.792],[110.855,-6.7935],[110.8545,-6.797],[110.8545,-6.7975],[110.855,-6.797],[110.857,-6.7975],[110.862,-6.78]]]},"properties":{"code":"33.19.07.2006","name":"Bacin","latitude":-6.784848985441369,"longitude":110.8572213128453}},{"type":"Feature","geometry":{"type":"Polygon","coordinates":[[[110.8535,-6.7845],[110.853,-6.784],[110.8535,-6.7835],[110.851,-6.7835],[110.852,-6.779],[110.8515,-6.779],[110.8505,-6.7775],[110.849,-6.778],[110.847,-6.7775],[110.847,-6.779],[110.8445,-6.781],[110.8445,-6.7825],[110.845,-6.783],[110.845,-6.7845],[110.846,-6.7845],[110.8485,-6.7885],[110.8485,-6.7895],[110.8495,-6.7895],[110.8505,-6.791],[110.8525,-6.788],[110.853,-6.7855],[110.8535,-6.7845]]]},"properties":{"code":"33.19.07.2007","name":"Panjang","latitude":-6.783091804087382,"longitude":110.84913997410322}},{"type":"Feature","geometry":{"type":"Polygon","coordinates":[[[110.8425,-6.771],[110.8415,-6.773],[110.8335,-6.7745],[110.8315,-6.7755],[110.83,-6.778],[110.8305,-6.779],[110.834,-6.7825],[110.834,-6.784],[110.837,-6.785],[110.8365,-6.79],[110.839,-6.79],[110.837,-6.7875],[110.838,-6.7855],[110.8445,-6.7825],[110.8445,-6.781],[110.847,-6.779],[110.8465,-6.7745],[110.848,-6.7725],[110.844,-6.771],[110.8425,-6.771]]]},"properties":{"code":"33.19.07.2008","name":"Peganjaran","latitude":-6.777932687734454,"longitude":110.8389271001511}},{"type":"Feature","geometry":{"type":"Polygon","coordinates":[[[110.8575,-6.7735],[110.857,-6.773],[110.8485,-6.772],[110.847,-6.7775],[110.849,-6.778],[110.8505,-6.7775],[110.8515,-6.779],[110.852,-6.779],[110.851,-6.7835],[110.8535,-6.7835],[110.853,-6.784],[110.855,-6.7835],[110.8575,-6.7755],[110.8575,-6.7735]]]},"properties":{"code":"33.19.07.2009","name":"Purworejo","latitude":-6.776627890397839,"longitude":110.85253355791274}},{"type":"Feature","geometry":{"type":"Polygon","coordinates":[[[110.864,-6.759],[110.8615,-6.7585],[110.8605,-6.7575],[110.8605,-6.757],[110.8595,-6.7565],[110.8595,-6.7505],[110.859,-6.7505],[110.853,-6.7565],[110.8515,-6.7585],[110.851,-6.7585],[110.8505,-6.7595],[110.849,-6.763],[110.843,-6.7675],[110.8425,-6.771],[110.844,-6.771],[110.848,-6.7725],[110.8485,-6.772],[110.857,-6.773],[110.858,-6.773],[110.859,-6.771],[110.8585,-6.77],[110.859,-6.7695],[110.859,-6.768],[110.859,-6.766],[110.864,-6.759]]]},"properties":{"code":"33.19.07.2010","name":"Bae","latitude":-6.7637922755591555,"longitude":110.85431853747434}},{"type":"Feature","geometry":{"type":"Polygon","coordinates":[[[110.8305,-6.779],[110.8295,-6.778],[110.8285,-6.777],[110.8275,-6.7765],[110.82,-6.7825],[110.819,-6.7825],[110.8185,-6.783],[110.818,-6.7825],[110.8185,-6.784],[110.818,-6.786],[110.8175,-6.7865],[110.8145,-6.7925],[110.814,-6.7925],[110.815,-6.7925],[110.8165,-6.793],[110.8185,-6.794],[110.8225,-6.794],[110.824,-6.794],[110.8245,-6.794],[110.825,-6.7935],[110.826,-6.7935],[110.827,-6.791],[110.834,-6.784],[110.834,-6.7825],[110.8305,-6.779]]]},"properties":{"code":"33.19.08.2001","name":"Gribig","latitude":-6.7864916613092525,"longitude":110.82486943528156}},{"type":"Feature","geometry":{"type":"Polygon","coordinates":[[[110.8225,-6.7605],[110.8215,-6.7595],[110.8175,-6.7605],[110.817,-6.761],[110.808,-6.78],[110.8125,-6.781],[110.813,-6.7805],[110.813,-6.781],[110.8145,-6.7805],[110.816,-6.7815],[110.8165,-6.7815],[110.817,-6.782],[110.8175,-6.782],[110.8175,-6.7825],[110.8185,-6.783],[110.819,-6.7825],[110.82,-6.7825],[110.8275,-6.7765],[110.827,-6.7765],[110.8225,-6.7605]]]},"properties":{"code":"33.19.08.2002","name":"Klumpit","latitude":-6.772803203700661,"longitude":110.81929656329316}},{"type":"Feature","geometry":{"type":"Polygon","coordinates":[[[110.813,-6.7505],[110.8005,-6.757],[110.799,-6.758],[110.7965,-6.7605],[110.796,-6.762],[110.7965,-6.763],[110.8025,-6.777],[110.807,-6.7795],[110.808,-6.78],[110.817,-6.761],[110.817,-6.7605],[110.814,-6.7595],[110.811,-6.758],[110.809,-6.7575],[110.8115,-6.7535],[110.8125,-6.752],[110.813,-6.7505]]]},"properties":{"code":"33.19.08.2003","name":"Getassrabi","latitude":-6.76415592420029,"longitude":110.80707128231063}},{"type":"Feature","geometry":{"type":"Polygon","coordinates":[[[110.829,-6.7565],[110.8195,-6.75],[110.8175,-6.748],[110.8135,-6.7495],[110.813,-6.7505],[110.8125,-6.752],[110.8115,-6.7535],[110.809,-6.7575],[110.811,-6.758],[110.814,-6.7595],[110.817,-6.7605],[110.8175,-6.7605],[110.8215,-6.7595],[110.8265,-6.761],[110.829,-6.7565]]]},"properties":{"code":"33.19.08.2004","name":"Padurenan","latitude":-6.755495375099948,"longitude":110.81854638815729}},{"type":"Feature","geometry":{"type":"Polygon","coordinates":[[[110.8425,-6.768],[110.8395,-6.762],[110.8395,-6.761],[110.8375,-6.76],[110.829,-6.7565],[110.8265,-6.761],[110.8225,-6.7605],[110.827,-6.7765],[110.8285,-6.777],[110.8295,-6.778],[110.83,-6.778],[110.8315,-6.7755],[110.8335,-6.7745],[110.8415,-6.773],[110.8425,-6.768]]]},"properties":{"code":"33.19.08.2005","name":"Karangmalang","latitude":-6.766329740604882,"longitude":110.83283220620221}},{"type":"Feature","geometry":{"type":"Polygon","coordinates":[[[110.8495,-6.7535],[110.838,-6.7485],[110.8345,-6.748],[110.832,-6.75],[110.8315,-6.752],[110.831,-6.7525],[110.831,-6.753],[110.8305,-6.753],[110.83,-6.7545],[110.829,-6.7565],[110.8375,-6.76],[110.8395,-6.761],[110.8395,-6.762],[110.8425,-6.768],[110.843,-6.7675],[110.849,-6.763],[110.8505,-6.7595],[110.8505,-6.759],[110.8495,-6.7535]]]},"properties":{"code":"33.19.08.2006","name":"Besito","latitude":-6.756542517146562,"longitude":110.8411341360279}},{"type":"Feature","geometry":{"type":"Polygon","coordinates":[[[110.8545,-6.715],[110.8535,-6.715],[110.852,-6.718],[110.853,-6.721],[110.8535,-6.7215],[110.851,-6.727],[110.838,-6.747],[110.838,-6.7485],[110.8495,-6.7535],[110.8495,-6.7525],[110.8495,-6.752],[110.85,-6.7495],[110.8515,-6.746],[110.8505,-6.746],[110.8505,-6.7435],[110.851,-6.74],[110.8515,-6.738],[110.858,-6.7235],[110.8585,-6.7205],[110.8585,-6.7195],[110.8545,-6.715]]]},"properties":{"code":"33.19.08.2007","name":"Jurang","latitude":-6.736087338518204,"longitude":110.8491832641932}},{"type":"Feature","geometry":{"type":"Polygon","coordinates":[[[110.8535,-6.715],[110.8495,-6.711],[110.844,-6.7075],[110.8385,-6.714],[110.8405,-6.7315],[110.836,-6.74],[110.8315,-6.7485],[110.8305,-6.7525],[110.8305,-6.753],[110.831,-6.753],[110.831,-6.7525],[110.8315,-6.752],[110.832,-6.75],[110.8345,-6.748],[110.838,-6.7485],[110.838,-6.747],[110.851,-6.727],[110.8535,-6.7215],[110.853,-6.721],[110.852,-6.718],[110.8535,-6.715]]]},"properties":{"code":"33.19.08.2008","name":"Gondosari","latitude":-6.726963795074524,"longitude":110.8437591302001}},{"type":"Feature","geometry":{"type":"Polygon","coordinates":[[[110.838,-6.7035],[110.8355,-6.7035],[110.822,-6.7065],[110.8205,-6.7075],[110.8205,-6.71],[110.826,-6.7185],[110.827,-6.722],[110.8255,-6.7265],[110.825,-6.729],[110.8225,-6.7325],[110.8225,-6.733],[110.835,-6.7375],[110.8405,-6.7315],[110.8385,-6.714],[110.844,-6.7075],[110.8385,-6.7055],[110.839,-6.7045],[110.838,-6.7035]]]},"properties":{"code":"33.19.08.2009","name":"Kedungsari","latitude":-6.7195951817806865,"longitude":110.83227196024369}},{"type":"Feature","geometry":{"type":"Polygon","coordinates":[[[110.8545,-6.6805],[110.854,-6.68],[110.8535,-6.6785],[110.8535,-6.6745],[110.851,-6.6645],[110.8505,-6.665],[110.845,-6.6675],[110.8435,-6.6675],[110.842,-6.6705],[110.834,-6.69],[110.839,-6.702],[110.839,-6.703],[110.838,-6.7035],[110.839,-6.7045],[110.8385,-6.7055],[110.844,-6.7075],[110.8495,-6.711],[110.8545,-6.715],[110.8555,-6.712],[110.856,-6.709],[110.86,-6.7035],[110.8525,-6.693],[110.8545,-6.6805]]]},"properties":{"code":"33.19.08.2010","name":"Menawan","latitude":-6.690420367068751,"longitude":110.84711534030282}},{"type":"Feature","geometry":{"type":"Polygon","coordinates":[[[110.9025,-6.6265],[110.883,-6.6195],[110.8675,-6.619],[110.8645,-6.6225],[110.862,-6.624],[110.8595,-6.6365],[110.85,-6.6545],[110.853,-6.663],[110.851,-6.6635],[110.851,-6.6645],[110.8535,-6.6745],[110.8535,-6.6785],[110.854,-6.68],[110.855,-6.6805],[110.856,-6.6795],[110.856,-6.679],[110.856,-6.6785],[110.8565,-6.6765],[110.8575,-6.677],[110.8575,-6.6775],[110.8585,-6.676],[110.8595,-6.6745],[110.8615,-6.6755],[110.8645,-6.669],[110.8665,-6.667],[110.8665,-6.6655],[110.8665,-6.664],[110.868,-6.6625],[110.8685,-6.662],[110.892,-6.6435],[110.8935,-6.64],[110.8945,-6.64],[110.898,-6.6385],[110.8975,-6.6365],[110.903,-6.632],[110.904,-6.63],[110.9025,-6.6265]]]},"properties":{"code":"33.19.08.2011","name":"Rahtawu","latitude":-6.642183215917461,"longitude":110.87286258935339}},{"type":"Feature","geometry":{"type":"Polygon","coordinates":[[[110.866,-6.7245],[110.8645,-6.722],[110.859,-6.7205],[110.8585,-6.72],[110.8585,-6.7205],[110.858,-6.7235],[110.8515,-6.738],[110.851,-6.74],[110.8505,-6.7435],[110.8505,-6.746],[110.8515,-6.746],[110.8515,-6.7455],[110.857,-6.732],[110.866,-6.7245]]]},"properties":{"code":"33.19.09.2001","name":"Samirejo","latitude":-6.73154304399386,"longitude":110.85748182559628}},{"type":"Feature","geometry":{"type":"Polygon","coordinates":[[[110.866,-6.7245],[110.857,-6.732],[110.8515,-6.7455],[110.85,-6.7495],[110.8495,-6.752],[110.8495,-6.7525],[110.8495,-6.7535],[110.8505,-6.759],[110.851,-6.7585],[110.8515,-6.7585],[110.853,-6.7565],[110.859,-6.7505],[110.8595,-6.7505],[110.8595,-6.7565],[110.8605,-6.757],[110.8605,-6.7575],[110.8615,-6.7585],[110.864,-6.759],[110.8705,-6.755],[110.8715,-6.7515],[110.87,-6.7465],[110.8695,-6.746],[110.867,-6.7455],[110.8675,-6.743],[110.8655,-6.742],[110.8655,-6.7415],[110.868,-6.735],[110.866,-6.733],[110.865,-6.7295],[110.8645,-6.7285],[110.866,-6.7245]]]},"properties":{"code":"33.19.09.2002","name":"Cendono","latitude":-6.745031329123597,"longitude":110.86050549432224}},{"type":"Feature","geometry":{"type":"Polygon","coordinates":[[[110.891,-6.7395],[110.89,-6.739],[110.876,-6.746],[110.8745,-6.7455],[110.8705,-6.7455],[110.8695,-6.7455],[110.87,-6.7465],[110.8715,-6.7515],[110.873,-6.756],[110.876,-6.762],[110.879,-6.763],[110.8875,-6.768],[110.9005,-6.761],[110.9,-6.7555],[110.8935,-6.746],[110.89,-6.7435],[110.891,-6.7395]]]},"properties":{"code":"33.19.09.2003","name":"Margorejo","latitude":-6.753423710128177,"longitude":110.88549567766948}},{"type":"Feature","geometry":{"type":"Polygon","coordinates":[[[110.912,-6.7555],[110.9125,-6.7545],[110.903,-6.746],[110.9005,-6.7345],[110.8995,-6.7325],[110.895,-6.7315],[110.8945,-6.7325],[110.894,-6.7335],[110.8935,-6.7395],[110.891,-6.7395],[110.89,-6.7435],[110.8935,-6.746],[110.9,-6.7555],[110.9005,-6.761],[110.908,-6.7695],[110.9085,-6.7705],[110.909,-6.771],[110.91,-6.772],[110.913,-6.772],[110.913,-6.7705],[110.913,-6.7695],[110.912,-6.7605],[110.912,-6.7555]]]},"properties":{"code":"33.19.09.2004","name":"Rejosari","latitude":-6.750870847382075,"longitude":110.9028369991702}},{"type":"Feature","geometry":{"type":"Polygon","coordinates":[[[110.9155,-6.714],[110.915,-6.716],[110.9025,-6.7135],[110.8995,-6.715],[110.8925,-6.719],[110.8935,-6.722],[110.8955,-6.7275],[110.8955,-6.7295],[110.895,-6.7315],[110.8995,-6.7325],[110.9005,-6.7345],[110.903,-6.746],[110.9125,-6.7545],[110.917,-6.756],[110.9245,-6.7545],[110.925,-6.738],[110.926,-6.737],[110.927,-6.7365],[110.9275,-6.7375],[110.928,-6.7365],[110.926,-6.734],[110.9235,-6.732],[110.9235,-6.731],[110.925,-6.717],[110.9255,-6.716],[110.9155,-6.714]]]},"properties":{"code":"33.19.09.2005","name":"Kandangmas","latitude":-6.731964240546606,"longitude":110.91189641021923}},{"type":"Feature","geometry":{"type":"Polygon","coordinates":[[[110.935,-6.699],[110.9325,-6.697],[110.9315,-6.696],[110.9315,-6.6965],[110.9305,-6.697],[110.9315,-6.6985],[110.929,-6.6985],[110.927,-6.698],[110.928,-6.6995],[110.9285,-6.707],[110.9295,-6.71],[110.9275,-6.713],[110.928,-6.715],[110.929,-6.716],[110.931,-6.7205],[110.9345,-6.719],[110.937,-6.7115],[110.938,-6.71],[110.936,-6.709],[110.9345,-6.7085],[110.935,-6.699]]]},"properties":{"code":"33.19.09.2006","name":"Glagah Kulon","latitude":-6.708525179617901,"longitude":110.93195957803326}},{"type":"Feature","geometry":{"type":"Polygon","coordinates":[[[110.927,-6.698],[110.9245,-6.6955],[110.923,-6.694],[110.922,-6.6925],[110.921,-6.6915],[110.916,-6.691],[110.9155,-6.694],[110.915,-6.697],[110.915,-6.6985],[110.9155,-6.7005],[110.917,-6.7065],[110.9175,-6.709],[110.9155,-6.7135],[110.9155,-6.714],[110.9255,-6.716],[110.9265,-6.715],[110.928,-6.715],[110.9275,-6.713],[110.9295,-6.71],[110.9285,-6.707],[110.928,-6.6995],[110.927,-6.698]]]},"properties":{"code":"33.19.09.2007","name":"Tergo","latitude":-6.703705158574263,"longitude":110.9218804113199}},{"type":"Feature","geometry":{"type":"Polygon","coordinates":[[[110.9085,-6.693],[110.898,-6.6925],[110.895,-6.6925],[110.895,-6.693],[110.8955,-6.6945],[110.896,-6.6945],[110.896,-6.697],[110.8955,-6.698],[110.895,-6.699],[110.89,-6.7135],[110.8895,-6.714],[110.8915,-6.7165],[110.8925,-6.719],[110.8995,-6.715],[110.9025,-6.7135],[110.915,-6.716],[110.9155,-6.7135],[110.9175,-6.709],[110.917,-6.7065],[110.9155,-6.7005],[110.915,-6.6985],[110.915,-6.697],[110.9155,-6.694],[110.9135,-6.694],[110.909,-6.696],[110.908,-6.6955],[110.908,-6.693],[110.9085,-6.693]]]},"properties":{"code":"33.19.09.2008","name":"Cranggang","latitude":-6.705129561929025,"longitude":110.90400590924499}},{"type":"Feature","geometry":{"type":"Polygon","coordinates":[[[110.8895,-6.714],[110.888,-6.713],[110.882,-6.7095],[110.8815,-6.709],[110.8815,-6.71],[110.873,-6.7275],[110.874,-6.73],[110.8735,-6.731],[110.874,-6.7335],[110.8745,-6.7355],[110.874,-6.737],[110.874,-6.738],[110.8735,-6.739],[110.8745,-6.741],[110.874,-6.743],[110.8745,-6.7455],[110.876,-6.746],[110.89,-6.739],[110.8935,-6.7395],[110.894,-6.7335],[110.8945,-6.7325],[110.8955,-6.7295],[110.8955,-6.7275],[110.8935,-6.722],[110.8915,-6.7165],[110.8895,-6.714]]]},"properties":{"code":"33.19.09.2009","name":"Lau","latitude":-6.7281213789844525,"longitude":110.88348841129778}},{"type":"Feature","geometry":{"type":"Polygon","coordinates":[[[110.885,-6.689],[110.884,-6.684],[110.8795,-6.685],[110.8735,-6.689],[110.878,-6.695],[110.8765,-6.7075],[110.867,-6.7235],[110.8665,-6.724],[110.866,-6.7245],[110.8645,-6.7285],[110.865,-6.7295],[110.866,-6.733],[110.868,-6.735],[110.8655,-6.7415],[110.8655,-6.742],[110.8675,-6.743],[110.867,-6.7455],[110.8695,-6.746],[110.8695,-6.7455],[110.8705,-6.7455],[110.8745,-6.7455],[110.874,-6.743],[110.8745,-6.741],[110.8735,-6.739],[110.874,-6.738],[110.874,-6.737],[110.8745,-6.7355],[110.874,-6.7335],[110.8735,-6.731],[110.874,-6.73],[110.873,-6.7275],[110.8815,-6.71],[110.8815,-6.708],[110.884,-6.6975],[110.885,-6.6955],[110.884,-6.695],[110.884,-6.6935],[110.8835,-6.6935],[110.8835,-6.6925],[110.8845,-6.691],[110.885,-6.689]]]},"properties":{"code":"33.19.09.2010","name":"Piji","latitude":-6.715434386641613,"longitude":110.87474052239719}},{"type":"Feature","geometry":{"type":"Polygon","coordinates":[[[110.866,-6.7245],[110.8665,-6.724],[110.867,-6.7235],[110.8765,-6.7075],[110.878,-6.695],[110.8735,-6.689],[110.865,-6.702],[110.8635,-6.704],[110.86,-6.7035],[110.856,-6.709],[110.8555,-6.712],[110.8545,-6.715],[110.8585,-6.7195],[110.8585,-6.72],[110.859,-6.7205],[110.8645,-6.722],[110.866,-6.7245]]]},"properties":{"code":"33.19.09.2011","name":"Puyoh","latitude":-6.7076584700545885,"longitude":110.86720731345436}},{"type":"Feature","geometry":{"type":"Polygon","coordinates":[[[110.8735,-6.689],[110.87,-6.6865],[110.8715,-6.6735],[110.869,-6.664],[110.8675,-6.6635],[110.8665,-6.6655],[110.8665,-6.667],[110.8645,-6.669],[110.8615,-6.6755],[110.8595,-6.6745],[110.8585,-6.676],[110.8575,-6.6775],[110.8575,-6.677],[110.8565,-6.6765],[110.856,-6.6785],[110.856,-6.679],[110.856,-6.6795],[110.855,-6.6805],[110.8545,-6.6805],[110.8525,-6.693],[110.86,-6.7035],[110.8635,-6.704],[110.865,-6.702],[110.8735,-6.689]]]},"properties":{"code":"33.19.09.2012","name":"Soco","latitude":-6.685496462747394,"longitude":110.86297452240709}},{"type":"Feature","geometry":{"type":"Polygon","coordinates":[[[110.8955,-6.645],[110.8945,-6.643],[110.894,-6.6405],[110.892,-6.6435],[110.8685,-6.662],[110.868,-6.6625],[110.8675,-6.6635],[110.869,-6.664],[110.8715,-6.6735],[110.87,-6.6865],[110.8735,-6.689],[110.8795,-6.685],[110.884,-6.684],[110.885,-6.689],[110.8855,-6.688],[110.889,-6.6825],[110.8895,-6.6815],[110.8885,-6.6815],[110.8885,-6.678],[110.892,-6.674],[110.8925,-6.673],[110.893,-6.6725],[110.8935,-6.6725],[110.8935,-6.672],[110.889,-6.6685],[110.889,-6.668],[110.89,-6.6655],[110.894,-6.66],[110.8945,-6.658],[110.8955,-6.645]]]},"properties":{"code":"33.19.09.2013","name":"Ternadi","latitude":-6.667225458832784,"longitude":110.88184851445193}},{"type":"Feature","geometry":{"type":"Polygon","coordinates":[[[110.8935,-6.6725],[110.893,-6.6725],[110.8925,-6.673],[110.892,-6.674],[110.8885,-6.678],[110.8885,-6.6815],[110.8895,-6.6815],[110.889,-6.6825],[110.8855,-6.688],[110.8845,-6.691],[110.8835,-6.6925],[110.8835,-6.6935],[110.884,-6.6935],[110.884,-6.695],[110.885,-6.6955],[110.884,-6.6975],[110.8815,-6.708],[110.8815,-6.709],[110.882,-6.7095],[110.888,-6.713],[110.8895,-6.714],[110.89,-6.7135],[110.895,-6.699],[110.8955,-6.698],[110.896,-6.697],[110.896,-6.6945],[110.8955,-6.6945],[110.895,-6.693],[110.895,-6.6925],[110.8955,-6.6905],[110.8945,-6.689],[110.8965,-6.6825],[110.897,-6.6815],[110.897,-6.6805],[110.8975,-6.68],[110.8975,-6.679],[110.897,-6.6775],[110.8925,-6.676],[110.8935,-6.673],[110.8935,-6.6725]]]},"properties":{"code":"33.19.09.2014","name":"Kajar","latitude":-6.694872883225282,"longitude":110.88963628522089}},{"type":"Feature","geometry":{"type":"Polygon","coordinates":[[[110.9055,-6.675],[110.9005,-6.6795],[110.898,-6.68],[110.8975,-6.68],[110.897,-6.6805],[110.897,-6.6815],[110.8965,-6.6825],[110.8945,-6.689],[110.8955,-6.6905],[110.898,-6.6925],[110.9085,-6.693],[110.909,-6.6925],[110.909,-6.6845],[110.9095,-6.682],[110.9075,-6.679],[110.906,-6.677],[110.9055,-6.676],[110.9055,-6.675]]]},"properties":{"code":"33.19.09.2015","name":"Kuwukan","latitude":-6.685874241590928,"longitude":110.90267419638043}},{"type":"Feature","geometry":{"type":"Polygon","coordinates":[[[110.9255,-6.6885],[110.916,-6.6805],[110.913,-6.68],[110.911,-6.6765],[110.9075,-6.673],[110.9055,-6.676],[110.906,-6.677],[110.9075,-6.679],[110.9095,-6.682],[110.909,-6.6845],[110.909,-6.6925],[110.908,-6.693],[110.908,-6.6955],[110.909,-6.696],[110.9135,-6.694],[110.9155,-6.694],[110.916,-6.691],[110.921,-6.6915],[110.922,-6.6925],[110.923,-6.694],[110.9245,-6.6955],[110.927,-6.698],[110.929,-6.6985],[110.9315,-6.6985],[110.9305,-6.697],[110.9315,-6.6965],[110.9315,-6.696],[110.931,-6.695],[110.9255,-6.6885]]]},"properties":{"code":"33.19.09.2016","name":"Dukuhwaringin","latitude":-6.687231951365971,"longitude":110.91641288742072}},{"type":"Feature","geometry":{"type":"Polygon","coordinates":[[[110.9095,-6.6495],[110.9045,-6.643],[110.898,-6.64],[110.898,-6.6385],[110.8945,-6.64],[110.894,-6.6405],[110.8945,-6.643],[110.8965,-6.6465],[110.9065,-6.662],[110.9075,-6.673],[110.911,-6.6765],[110.913,-6.68],[110.916,-6.6805],[110.9255,-6.6885],[110.923,-6.677],[110.913,-6.6655],[110.9105,-6.6535],[110.91,-6.651],[110.9095,-6.6495]]]},"properties":{"code":"33.19.09.2017","name":"Japan","latitude":-6.662203935472309,"longitude":110.90941085847314}},{"type":"Feature","geometry":{"type":"Polygon","coordinates":[[[110.9075,-6.673],[110.9065,-6.662],[110.8965,-6.6465],[110.8955,-6.645],[110.8945,-6.658],[110.894,-6.66],[110.89,-6.6655],[110.889,-6.668],[110.889,-6.6685],[110.8935,-6.672],[110.8935,-6.673],[110.8925,-6.676],[110.897,-6.6775],[110.8975,-6.679],[110.8975,-6.68],[110.898,-6.68],[110.9005,-6.6795],[110.9055,-6.675],[110.9075,-6.673]]]},"properties":{"code":"33.19.09.2018","name":"Colo","latitude":-6.664986765420756,"longitude":110.89852063973169}}]}