{"type":"FeatureCollection","features":[{"type":"Feature","geometry":{"type":"Polygon","coordinates":[[[110.7825,-7.558],[110.7805,-7.5575],[110.779,-7.5575],[110.7785,-7.5605],[110.7795,-7.561],[110.784,-7.5645],[110.7825,-7.576],[110.788,-7.5775],[110.789,-7.577],[110.7925,-7.573],[110.792,-7.5705],[110.791,-7.569],[110.7905,-7.5685],[110.79,-7.5675],[110.788,-7.5665],[110.787,-7.566],[110.7865,-7.5635],[110.7945,-7.562],[110.7825,-7.558]]]},"properties":{"code":"33.72.01.1001","name":"Pajang","latitude":-7.567135137633109,"longitude":110.78625988956074}},{"type":"Feature","geometry":{"type":"Polygon","coordinates":[[[110.7975,-7.57],[110.792,-7.568],[110.791,-7.568],[110.7905,-7.5685],[110.791,-7.569],[110.792,-7.5705],[110.793,-7.571],[110.7975,-7.572],[110.7975,-7.57]]]},"properties":{"code":"33.72.01.1002","name":"Laweyan","latitude":-7.570233025609744,"longitude":110.79426424459169}},{"type":"Feature","geometry":{"type":"Polygon","coordinates":[[[110.805,-7.5695],[110.8025,-7.5685],[110.802,-7.568],[110.798,-7.567],[110.7975,-7.57],[110.7975,-7.572],[110.7985,-7.5725],[110.7995,-7.5715],[110.801,-7.5715],[110.8025,-7.5725],[110.804,-7.5735],[110.8045,-7.5715],[110.805,-7.57],[110.805,-7.5695]]]},"properties":{"code":"33.72.01.1003","name":"Bumi","latitude":-7.569949236522879,"longitude":110.80101769653858}},{"type":"Feature","geometry":{"type":"Polygon","coordinates":[[[110.8045,-7.5715],[110.804,-7.5735],[110.805,-7.575],[110.8055,-7.576],[110.8095,-7.575],[110.8155,-7.576],[110.8165,-7.573],[110.8045,-7.5715]]]},"properties":{"code":"33.72.01.1004","name":"Panularan","latitude":-7.573657166452821,"longitude":110.80996032916961}},{"type":"Feature","geometry":{"type":"Polygon","coordinates":[[[110.81,-7.5635],[110.809,-7.563],[110.807,-7.5625],[110.8055,-7.5685],[110.805,-7.57],[110.8045,-7.5715],[110.81,-7.5715],[110.81,-7.5635]]]},"properties":{"code":"33.72.01.1005","name":"Penumping","latitude":-7.567578716174497,"longitude":110.80793434686959}},{"type":"Feature","geometry":{"type":"Polygon","coordinates":[[[110.8145,-7.565],[110.811,-7.564],[110.81,-7.5635],[110.81,-7.5715],[110.8165,-7.573],[110.8175,-7.569],[110.8165,-7.5685],[110.8145,-7.566],[110.8145,-7.565]]]},"properties":{"code":"33.72.01.1006","name":"Sriwedari","latitude":-7.568561778394107,"longitude":110.81342891254265}},{"type":"Feature","geometry":{"type":"Polygon","coordinates":[[[110.807,-7.5625],[110.8075,-7.559],[110.801,-7.5605],[110.7955,-7.5615],[110.794,-7.5615],[110.7995,-7.5635],[110.798,-7.567],[110.802,-7.568],[110.8025,-7.5685],[110.805,-7.5695],[110.8055,-7.5685],[110.807,-7.5625]]]},"properties":{"code":"33.72.01.1007","name":"Purwosari","latitude":-7.563743458197484,"longitude":110.80233134646033}},{"type":"Feature","geometry":{"type":"Polygon","coordinates":[[[110.798,-7.567],[110.7995,-7.5635],[110.7945,-7.562],[110.7865,-7.5635],[110.787,-7.566],[110.788,-7.5665],[110.79,-7.5675],[110.7905,-7.5685],[110.791,-7.568],[110.792,-7.568],[110.7975,-7.57],[110.798,-7.567]]]},"properties":{"code":"33.72.01.1008","name":"Sondakan","latitude":-7.565434079527614,"longitude":110.79339220247108}},{"type":"Feature","geometry":{"type":"Polygon","coordinates":[[[110.796,-7.549],[110.795,-7.5485],[110.794,-7.548],[110.793,-7.5515],[110.792,-7.5515],[110.7895,-7.5575],[110.7875,-7.5575],[110.787,-7.5595],[110.794,-7.5615],[110.7955,-7.5615],[110.801,-7.5525],[110.802,-7.552],[110.801,-7.5515],[110.7995,-7.5525],[110.799,-7.552],[110.7985,-7.552],[110.7985,-7.5515],[110.7975,-7.551],[110.797,-7.5505],[110.796,-7.549]]]},"properties":{"code":"33.72.01.1009","name":"Kerten","latitude":-7.555644297062449,"longitude":110.7944083101471}},{"type":"Feature","geometry":{"type":"Polygon","coordinates":[[[110.794,-7.548],[110.7935,-7.5475],[110.788,-7.548],[110.785,-7.547],[110.7835,-7.55],[110.7825,-7.558],[110.787,-7.5595],[110.7875,-7.5575],[110.7895,-7.5575],[110.792,-7.5515],[110.793,-7.5515],[110.794,-7.548]]]},"properties":{"code":"33.72.01.1010","name":"Jajar","latitude":-7.552599578534469,"longitude":110.78742134933987}},{"type":"Feature","geometry":{"type":"Polygon","coordinates":[[[110.781,-7.5455],[110.7765,-7.5465],[110.771,-7.5455],[110.769,-7.5515],[110.7785,-7.5545],[110.779,-7.5555],[110.779,-7.5575],[110.7805,-7.5575],[110.7825,-7.558],[110.7835,-7.55],[110.785,-7.547],[110.7835,-7.5465],[110.781,-7.5455]]]},"properties":{"code":"33.72.01.1011","name":"Karangasem","latitude":-7.55028739911977,"longitude":110.77756113840888}},{"type":"Feature","geometry":{"type":"Polygon","coordinates":[[[110.823,-7.5915],[110.818,-7.589],[110.817,-7.592],[110.8185,-7.5945],[110.8195,-7.595],[110.821,-7.595],[110.8225,-7.5945],[110.8245,-7.594],[110.825,-7.594],[110.827,-7.5935],[110.828,-7.5935],[110.828,-7.593],[110.8275,-7.593],[110.823,-7.5915]]]},"properties":{"code":"33.72.02.1001","name":"Joyotakan","latitude":-7.592593292157681,"longitude":110.82145448937298}},{"type":"Feature","geometry":{"type":"Polygon","coordinates":[[[110.826,-7.5835],[110.8205,-7.582],[110.8195,-7.5855],[110.818,-7.589],[110.823,-7.5915],[110.826,-7.5835]]]},"properties":{"code":"33.72.02.1002","name":"Danukusuman","latitude":-7.5866215643231545,"longitude":110.8217827575863}},{"type":"Feature","geometry":{"type":"Polygon","coordinates":[[[110.8205,-7.582],[110.8145,-7.5805],[110.8145,-7.581],[110.8135,-7.581],[110.8115,-7.5835],[110.8195,-7.5855],[110.8205,-7.582]]]},"properties":{"code":"33.72.02.1003","name":"Serengan","latitude":-7.584059240498828,"longitude":110.81626416002511}},{"type":"Feature","geometry":{"type":"Polygon","coordinates":[[[110.8155,-7.576],[110.8095,-7.575],[110.8055,-7.576],[110.805,-7.5765],[110.806,-7.5785],[110.807,-7.58],[110.8085,-7.5805],[110.81,-7.583],[110.811,-7.5835],[110.8115,-7.5835],[110.8135,-7.581],[110.8145,-7.581],[110.8145,-7.5805],[110.8155,-7.576]]]},"properties":{"code":"33.72.02.1004","name":"Tipes","latitude":-7.578565986138111,"longitude":110.81081352070603}},{"type":"Feature","geometry":{"type":"Polygon","coordinates":[[[110.822,-7.578],[110.8155,-7.576],[110.8145,-7.5805],[110.8205,-7.582],[110.822,-7.578]]]},"properties":{"code":"33.72.02.1005","name":"Kratonan","latitude":-7.579124978845959,"longitude":110.81804296582118}},{"type":"Feature","geometry":{"type":"Polygon","coordinates":[[[110.823,-7.5745],[110.8165,-7.573],[110.8155,-7.576],[110.822,-7.578],[110.823,-7.5745]]]},"properties":{"code":"33.72.02.1006","name":"Jayengan","latitude":-7.575339295301583,"longitude":110.81936147090688}},{"type":"Feature","geometry":{"type":"Polygon","coordinates":[[[110.822,-7.57],[110.8175,-7.569],[110.8165,-7.573],[110.823,-7.5745],[110.8245,-7.571],[110.822,-7.57]]]},"properties":{"code":"33.72.02.1007","name":"Kemlayan","latitude":-7.571654541669395,"longitude":110.82026377944213}},{"type":"Feature","geometry":{"type":"Polygon","coordinates":[[[110.8315,-7.585],[110.826,-7.5835],[110.823,-7.5915],[110.8275,-7.593],[110.8285,-7.5895],[110.8315,-7.585]]]},"properties":{"code":"33.72.03.1001","name":"Joyosuran","latitude":-7.58806688039157,"longitude":110.82690244395052}},{"type":"Feature","geometry":{"type":"Polygon","coordinates":[[[110.843,-7.581],[110.838,-7.5795],[110.8375,-7.579],[110.8325,-7.5805],[110.8315,-7.5845],[110.8315,-7.585],[110.833,-7.5855],[110.841,-7.5895],[110.8415,-7.585],[110.8415,-7.5825],[110.843,-7.581]]]},"properties":{"code":"33.72.03.1002","name":"Semanggi","latitude":-7.583771547895384,"longitude":110.8369751508661}},{"type":"Feature","geometry":{"type":"Polygon","coordinates":[[[110.8375,-7.579],[110.836,-7.578],[110.831,-7.577],[110.8275,-7.5815],[110.826,-7.583],[110.826,-7.5835],[110.8315,-7.585],[110.8315,-7.5845],[110.8325,-7.5805],[110.8375,-7.579]]]},"properties":{"code":"33.72.03.1003","name":"Pasarkliwon","latitude":-7.580826725034851,"longitude":110.83150733950033}},{"type":"Feature","geometry":{"type":"Polygon","coordinates":[[[110.8275,-7.5755],[110.823,-7.5745],[110.8205,-7.582],[110.826,-7.5835],[110.826,-7.583],[110.825,-7.583],[110.8275,-7.5755]]]},"properties":{"code":"33.72.03.1004","name":"Gajahan","latitude":-7.579402051399465,"longitude":110.82343233974304}},{"type":"Feature","geometry":{"type":"Polygon","coordinates":[[[110.829,-7.574],[110.8275,-7.5755],[110.825,-7.583],[110.8275,-7.5815],[110.831,-7.577],[110.8295,-7.5765],[110.829,-7.574]]]},"properties":{"code":"33.72.03.1005","name":"Baluwarti","latitude":-7.578447103885292,"longitude":110.82728893081325}},{"type":"Feature","geometry":{"type":"Polygon","coordinates":[[[110.8285,-7.5655],[110.8265,-7.565],[110.826,-7.565],[110.8255,-7.5715],[110.8295,-7.5725],[110.8305,-7.5695],[110.8305,-7.5675],[110.8285,-7.5655]]]},"properties":{"code":"33.72.03.1006","name":"Kampungbaru","latitude":-7.568746137297543,"longitude":110.82821298432597}},{"type":"Feature","geometry":{"type":"Polygon","coordinates":[[[110.836,-7.571],[110.8355,-7.5705],[110.8305,-7.5695],[110.829,-7.574],[110.8295,-7.5765],[110.836,-7.578],[110.8375,-7.579],[110.8375,-7.578],[110.837,-7.577],[110.835,-7.5755],[110.8335,-7.5735],[110.836,-7.573],[110.8365,-7.572],[110.836,-7.571]]]},"properties":{"code":"33.72.03.1007","name":"Kedunglumbu","latitude":-7.574178498791428,"longitude":110.83291868483172}},{"type":"Feature","geometry":{"type":"Polygon","coordinates":[[[110.836,-7.573],[110.8335,-7.5735],[110.835,-7.5755],[110.837,-7.577],[110.8375,-7.578],[110.8375,-7.579],[110.838,-7.5795],[110.843,-7.581],[110.843,-7.5805],[110.8435,-7.5775],[110.844,-7.5775],[110.8365,-7.574],[110.836,-7.573]]]},"properties":{"code":"33.72.03.1008","name":"Sangkrah","latitude":-7.57708731694602,"longitude":110.83947162453798}},{"type":"Feature","geometry":{"type":"Polygon","coordinates":[[[110.8255,-7.5715],[110.8245,-7.571],[110.823,-7.5745],[110.8275,-7.5755],[110.829,-7.574],[110.8295,-7.5725],[110.8255,-7.5715]]]},"properties":{"code":"33.72.03.1009","name":"Kauman","latitude":-7.573204195093489,"longitude":110.82609982913593}},{"type":"Feature","geometry":{"type":"Polygon","coordinates":[[[110.841,-7.5895],[110.833,-7.5855],[110.8315,-7.585],[110.8285,-7.5895],[110.8275,-7.593],[110.8295,-7.593],[110.8325,-7.595],[110.834,-7.5945],[110.836,-7.592],[110.838,-7.5905],[110.84,-7.5905],[110.841,-7.5895]]]},"properties":{"code":"33.72.03.1010","name":"Mojo","latitude":-7.590079844434162,"longitude":110.83315022282864}},{"type":"Feature","geometry":{"type":"Polygon","coordinates":[[[110.8315,-7.559],[110.83,-7.5585],[110.8285,-7.5645],[110.83,-7.5665],[110.831,-7.5655],[110.8315,-7.559]]]},"properties":{"code":"33.72.04.1001","name":"Kepatihan Kulon","latitude":-7.5626658435259495,"longitude":110.83008899247943}},{"type":"Feature","geometry":{"type":"Polygon","coordinates":[[[110.8355,-7.563],[110.834,-7.5625],[110.831,-7.562],[110.831,-7.5655],[110.83,-7.5665],[110.8305,-7.5675],[110.8305,-7.5695],[110.8315,-7.569],[110.8355,-7.563]]]},"properties":{"code":"33.72.04.1002","name":"Kepatihan Wetan","latitude":-7.565193370833707,"longitude":110.83231009043304}},{"type":"Feature","geometry":{"type":"Polygon","coordinates":[[[110.837,-7.5675],[110.833,-7.5665],[110.8315,-7.569],[110.8305,-7.5695],[110.8355,-7.5705],[110.836,-7.571],[110.837,-7.5675]]]},"properties":{"code":"33.72.04.1003","name":"Sudiroprajan","latitude":-7.569000124617076,"longitude":110.83396741401373}},{"type":"Feature","geometry":{"type":"Polygon","coordinates":[[[110.838,-7.568],[110.837,-7.5675],[110.836,-7.571],[110.8365,-7.572],[110.84,-7.5755],[110.8405,-7.569],[110.838,-7.568]]]},"properties":{"code":"33.72.04.1004","name":"Gandekan","latitude":-7.57169256501208,"longitude":110.83847690085}},{"type":"Feature","geometry":{"type":"Polygon","coordinates":[[[110.8465,-7.5705],[110.8455,-7.5705],[110.8405,-7.569],[110.84,-7.5755],[110.844,-7.5775],[110.847,-7.573],[110.8475,-7.5725],[110.8465,-7.5705]]]},"properties":{"code":"33.72.04.1005","name":"Sewu","latitude":-7.573089290877074,"longitude":110.84364643345043}},{"type":"Feature","geometry":{"type":"Polygon","coordinates":[[[110.8615,-7.566],[110.8595,-7.566],[110.8545,-7.564],[110.849,-7.563],[110.8465,-7.569],[110.847,-7.5705],[110.8465,-7.5705],[110.8475,-7.5725],[110.8485,-7.5725],[110.8525,-7.574],[110.8555,-7.57],[110.859,-7.5705],[110.8605,-7.5695],[110.8605,-7.5685],[110.8615,-7.566]]]},"properties":{"code":"33.72.04.1006","name":"Pucangsawit","latitude":-7.56843506027874,"longitude":110.85301556601544}},{"type":"Feature","geometry":{"type":"Polygon","coordinates":[[[110.8465,-7.569],[110.8415,-7.5625],[110.838,-7.568],[110.8455,-7.5705],[110.847,-7.5705],[110.8465,-7.569]]]},"properties":{"code":"33.72.04.1007","name":"Jagalan","latitude":-7.566690033336338,"longitude":110.84361677558911}},{"type":"Feature","geometry":{"type":"Polygon","coordinates":[[[110.8415,-7.5625],[110.8365,-7.561],[110.833,-7.5665],[110.838,-7.568],[110.8415,-7.5625]]]},"properties":{"code":"33.72.04.1008","name":"Purwodiningratan","latitude":-7.564529640362092,"longitude":110.83740924877283}},{"type":"Feature","geometry":{"type":"Polygon","coordinates":[[[110.8365,-7.561],[110.839,-7.5555],[110.839,-7.5545],[110.8375,-7.555],[110.8355,-7.557],[110.8325,-7.557],[110.832,-7.559],[110.8315,-7.559],[110.831,-7.562],[110.834,-7.5625],[110.8355,-7.563],[110.8365,-7.561]]]},"properties":{"code":"33.72.04.1009","name":"Tegalharjo","latitude":-7.559328699356294,"longitude":110.8348322249947}},{"type":"Feature","geometry":{"type":"Polygon","coordinates":[[[110.869,-7.5475],[110.8585,-7.55],[110.856,-7.55],[110.8445,-7.5545],[110.842,-7.5545],[110.839,-7.554],[110.839,-7.5555],[110.8365,-7.561],[110.849,-7.563],[110.8545,-7.564],[110.8595,-7.566],[110.8615,-7.566],[110.862,-7.5645],[110.8685,-7.5485],[110.869,-7.5475]]]},"properties":{"code":"33.72.04.1010","name":"Jebres","latitude":-7.556817456615271,"longitude":110.85447707086064}},{"type":"Feature","geometry":{"type":"Polygon","coordinates":[[[110.8375,-7.531],[110.8365,-7.532],[110.8315,-7.5415],[110.8325,-7.5415],[110.8355,-7.545],[110.835,-7.5465],[110.8365,-7.554],[110.8395,-7.554],[110.843,-7.5545],[110.8445,-7.5545],[110.856,-7.55],[110.858,-7.55],[110.857,-7.536],[110.8375,-7.531]]]},"properties":{"code":"33.72.04.1011","name":"Mojosongo","latitude":-7.542962537826911,"longitude":110.84524224693293}},{"type":"Feature","geometry":{"type":"Polygon","coordinates":[[[110.8155,-7.5225],[110.811,-7.529],[110.8105,-7.53],[110.8085,-7.533],[110.808,-7.534],[110.8115,-7.5435],[110.811,-7.544],[110.813,-7.5445],[110.815,-7.5445],[110.814,-7.5425],[110.817,-7.5415],[110.821,-7.541],[110.8155,-7.5225]]]},"properties":{"code":"33.72.05.1001","name":"Kadipiro","latitude":-7.533605244029176,"longitude":110.81415770506761}},{"type":"Feature","geometry":{"type":"Polygon","coordinates":[[[110.821,-7.541],[110.817,-7.5415],[110.814,-7.5425],[110.815,-7.5445],[110.813,-7.5445],[110.811,-7.544],[110.8105,-7.5445],[110.8145,-7.549],[110.8175,-7.5495],[110.8265,-7.5525],[110.8365,-7.554],[110.835,-7.5465],[110.834,-7.546],[110.8255,-7.5475],[110.8215,-7.5425],[110.821,-7.541]]]},"properties":{"code":"33.72.05.1002","name":"Nusukan","latitude":-7.547918434742957,"longitude":110.82378115814558}},{"type":"Feature","geometry":{"type":"Polygon","coordinates":[[[110.8365,-7.554],[110.8265,-7.5525],[110.8195,-7.5505],[110.8185,-7.552],[110.8175,-7.555],[110.818,-7.556],[110.818,-7.5575],[110.8245,-7.558],[110.832,-7.559],[110.8325,-7.557],[110.8355,-7.557],[110.8375,-7.555],[110.839,-7.5545],[110.839,-7.554],[110.8365,-7.554]]]},"properties":{"code":"33.72.05.1003","name":"Gilingan","latitude":-7.554951955730532,"longitude":110.82586828256106}},{"type":"Feature","geometry":{"type":"Polygon","coordinates":[[[110.83,-7.5585],[110.8245,-7.558],[110.823,-7.5645],[110.8245,-7.5655],[110.8265,-7.565],[110.8285,-7.5655],[110.8285,-7.5645],[110.83,-7.5585]]]},"properties":{"code":"33.72.05.1004","name":"Setabelan","latitude":-7.561667754132699,"longitude":110.82649684469607}},{"type":"Feature","geometry":{"type":"Polygon","coordinates":[[[110.8245,-7.558],[110.818,-7.5575],[110.8195,-7.5575],[110.8205,-7.558],[110.821,-7.559],[110.823,-7.5645],[110.8245,-7.558]]]},"properties":{"code":"33.72.05.1005","name":"Kestalan","latitude":-7.559437625795624,"longitude":110.82257833876449}},{"type":"Feature","geometry":{"type":"Polygon","coordinates":[[[110.823,-7.5645],[110.822,-7.5645],[110.821,-7.5675],[110.822,-7.57],[110.8255,-7.5715],[110.826,-7.565],[110.8245,-7.5655],[110.823,-7.5645]]]},"properties":{"code":"33.72.05.1006","name":"Keprabon","latitude":-7.567818201569487,"longitude":110.8240319892613}},{"type":"Feature","geometry":{"type":"Polygon","coordinates":[[[110.8185,-7.565],[110.8145,-7.5635],[110.8145,-7.566],[110.8165,-7.5685],[110.822,-7.57],[110.821,-7.5675],[110.8215,-7.566],[110.8185,-7.565]]]},"properties":{"code":"33.72.05.1007","name":"Timuran","latitude":-7.5668591110049,"longitude":110.81839650297627}},{"type":"Feature","geometry":{"type":"Polygon","coordinates":[[[110.823,-7.5645],[110.821,-7.559],[110.821,-7.5585],[110.82,-7.5585],[110.8185,-7.565],[110.8215,-7.566],[110.822,-7.5645],[110.823,-7.5645]]]},"properties":{"code":"33.72.05.1008","name":"Ketelan","latitude":-7.562752498021821,"longitude":110.82073170243838}},{"type":"Feature","geometry":{"type":"Polygon","coordinates":[[[110.818,-7.5575],[110.816,-7.558],[110.8155,-7.5595],[110.8145,-7.5635],[110.8185,-7.565],[110.82,-7.5585],[110.821,-7.5585],[110.8205,-7.558],[110.8195,-7.5575],[110.818,-7.5575]]]},"properties":{"code":"33.72.05.1009","name":"Punggawan","latitude":-7.560865425744964,"longitude":110.81749001260623}},{"type":"Feature","geometry":{"type":"Polygon","coordinates":[[[110.815,-7.553],[110.81,-7.5585],[110.8075,-7.559],[110.807,-7.5625],[110.809,-7.563],[110.811,-7.564],[110.8145,-7.565],[110.8155,-7.5595],[110.816,-7.558],[110.818,-7.556],[110.8175,-7.555],[110.815,-7.553]]]},"properties":{"code":"33.72.05.1010","name":"Mangkubumen","latitude":-7.559266153746121,"longitude":110.81258587728325}},{"type":"Feature","geometry":{"type":"Polygon","coordinates":[[[110.8195,-7.5505],[110.8175,-7.5495],[110.8145,-7.549],[110.806,-7.551],[110.805,-7.5515],[110.804,-7.5505],[110.803,-7.551],[110.802,-7.552],[110.801,-7.5525],[110.801,-7.5605],[110.81,-7.5585],[110.815,-7.553],[110.8185,-7.552],[110.8195,-7.5505]]]},"properties":{"code":"33.72.05.1011","name":"Manahan","latitude":-7.554980200098088,"longitude":110.80662959563361}},{"type":"Feature","geometry":{"type":"Polygon","coordinates":[[[110.811,-7.545],[110.798,-7.542],[110.796,-7.549],[110.797,-7.5505],[110.7975,-7.551],[110.7985,-7.5515],[110.7985,-7.552],[110.799,-7.552],[110.7995,-7.5525],[110.801,-7.5515],[110.8015,-7.5515],[110.802,-7.552],[110.803,-7.551],[110.804,-7.5505],[110.805,-7.5515],[110.806,-7.551],[110.8145,-7.549],[110.811,-7.545]]]},"properties":{"code":"33.72.05.1012","name":"Sumber","latitude":-7.547525812539529,"longitude":110.80400741760909}},{"type":"Feature","geometry":{"type":"Polygon","coordinates":[[[110.808,-7.534],[110.808,-7.5345],[110.802,-7.533],[110.798,-7.542],[110.811,-7.545],[110.8105,-7.5445],[110.8105,-7.544],[110.8115,-7.5435],[110.808,-7.534]]]},"properties":{"code":"33.72.05.1013","name":"Banyuanyar","latitude":-7.538728803262344,"longitude":110.80530956347273}},{"type":"Feature","geometry":{"type":"Polygon","coordinates":[[[110.8365,-7.532],[110.836,-7.5305],[110.821,-7.528],[110.817,-7.529],[110.8205,-7.5405],[110.8245,-7.54],[110.832,-7.5415],[110.8315,-7.5415],[110.8365,-7.532]]]},"properties":{"code":"33.72.05.1014","name":"Banjarsari","latitude":-7.534232735235732,"longitude":110.82642117066813}},{"type":"Feature","geometry":{"type":"Polygon","coordinates":[[[110.832,-7.5415],[110.8245,-7.54],[110.8205,-7.5405],[110.8215,-7.5425],[110.8255,-7.5475],[110.834,-7.546],[110.8355,-7.545],[110.8325,-7.5415],[110.832,-7.5415]]]},"properties":{"code":"33.72.05.1015","name":"Joglo","latitude":-7.544047877296776,"longitude":110.82762613752597}}]}