{"type":"FeatureCollection","features":[{"type":"Feature","geometry":{"type":"Polygon","coordinates":[[[110.4865,-7.287],[110.4685,-7.2965],[110.4675,-7.2965],[110.4675,-7.296],[110.467,-7.297],[110.473,-7.3015],[110.4745,-7.303],[110.4785,-7.3105],[110.4805,-7.3105],[110.487,-7.311],[110.4875,-7.305],[110.4955,-7.301],[110.4895,-7.2935],[110.4905,-7.293],[110.494,-7.289],[110.492,-7.2905],[110.489,-7.292],[110.4865,-7.287]]]},"properties":{"code":"33.73.01.1001","name":"Blotongan"}},{"type":"Feature","geometry":{"type":"Polygon","coordinates":[[[110.497,-7.312],[110.4955,-7.301],[110.4875,-7.305],[110.487,-7.311],[110.488,-7.3115],[110.488,-7.313],[110.4875,-7.319],[110.485,-7.319],[110.482,-7.3215],[110.4825,-7.322],[110.4845,-7.3225],[110.485,-7.3225],[110.486,-7.3225],[110.486,-7.322],[110.4885,-7.3215],[110.495,-7.3265],[110.497,-7.312]]]},"properties":{"code":"33.73.01.1002","name":"Sidorejo Lor"}},{"type":"Feature","geometry":{"type":"Polygon","coordinates":[[[110.508,-7.315],[110.498,-7.313],[110.497,-7.312],[110.495,-7.3265],[110.499,-7.327],[110.5045,-7.3275],[110.505,-7.3265],[110.5075,-7.326],[110.5085,-7.3255],[110.509,-7.325],[110.508,-7.3235],[110.508,-7.315]]]},"properties":{"code":"33.73.01.1003","name":"Salatiga"}},{"type":"Feature","geometry":{"type":"Polygon","coordinates":[[[110.509,-7.3015],[110.5085,-7.3015],[110.5025,-7.302],[110.494,-7.289],[110.4905,-7.293],[110.4895,-7.2935],[110.4955,-7.301],[110.497,-7.312],[110.498,-7.313],[110.508,-7.315],[110.5095,-7.309],[110.509,-7.3015]]]},"properties":{"code":"33.73.01.1004","name":"Bugel"}},{"type":"Feature","geometry":{"type":"Polygon","coordinates":[[[110.5215,-7.291],[110.5195,-7.29],[110.5175,-7.289],[110.518,-7.293],[110.5105,-7.302],[110.509,-7.3015],[110.5095,-7.309],[110.51,-7.3095],[110.512,-7.3105],[110.5155,-7.311],[110.517,-7.3115],[110.517,-7.3105],[110.5175,-7.3075],[110.5195,-7.3025],[110.5205,-7.2995],[110.521,-7.2985],[110.521,-7.2955],[110.5205,-7.294],[110.5225,-7.2925],[110.5215,-7.291]]]},"properties":{"code":"33.73.01.1005","name":"Kauman Kidul"}},{"type":"Feature","geometry":{"type":"Polygon","coordinates":[[[110.487,-7.311],[110.4805,-7.3105],[110.4785,-7.3105],[110.4745,-7.303],[110.4725,-7.3035],[110.472,-7.3035],[110.471,-7.3045],[110.47,-7.3045],[110.4695,-7.3055],[110.473,-7.3105],[110.476,-7.313],[110.476,-7.315],[110.4755,-7.316],[110.478,-7.3175],[110.486,-7.319],[110.4875,-7.319],[110.488,-7.313],[110.488,-7.3115],[110.487,-7.311]]]},"properties":{"code":"33.73.01.1006","name":"Pulutan"}},{"type":"Feature","geometry":{"type":"Polygon","coordinates":[[[110.5175,-7.3265],[110.5165,-7.326],[110.5165,-7.327],[110.516,-7.3285],[110.5085,-7.328],[110.5055,-7.3295],[110.5045,-7.3295],[110.5055,-7.334],[110.5085,-7.3345],[110.5095,-7.3325],[110.5135,-7.3365],[110.514,-7.3365],[110.5155,-7.3365],[110.519,-7.3275],[110.5175,-7.3265]]]},"properties":{"code":"33.73.02.1001","name":"Kutowinangun Kidul"}},{"type":"Feature","geometry":{"type":"Polygon","coordinates":[[[110.514,-7.3365],[110.5135,-7.3365],[110.5095,-7.3325],[110.5085,-7.3345],[110.5055,-7.334],[110.506,-7.3355],[110.505,-7.337],[110.505,-7.341],[110.5115,-7.3395],[110.513,-7.3385],[110.514,-7.3365]]]},"properties":{"code":"33.73.02.1002","name":"Gendongan"}},{"type":"Feature","geometry":{"type":"Polygon","coordinates":[[[110.5295,-7.335],[110.5295,-7.3335],[110.528,-7.332],[110.5255,-7.3275],[110.519,-7.321],[110.5175,-7.321],[110.5175,-7.326],[110.519,-7.3275],[110.5155,-7.3365],[110.514,-7.3365],[110.513,-7.3385],[110.5125,-7.3395],[110.5165,-7.34],[110.5165,-7.3415],[110.5225,-7.3405],[110.5235,-7.3425],[110.5255,-7.3445],[110.526,-7.3455],[110.5275,-7.3535],[110.53,-7.3495],[110.5295,-7.347],[110.53,-7.345],[110.5275,-7.347],[110.5295,-7.3445],[110.529,-7.344],[110.529,-7.3435],[110.5295,-7.343],[110.531,-7.3415],[110.53,-7.338],[110.5285,-7.3365],[110.5295,-7.335]]]},"properties":{"code":"33.73.02.1003","name":"Sidorejo Kidul"}},{"type":"Feature","geometry":{"type":"Polygon","coordinates":[[[110.5275,-7.3535],[110.526,-7.3455],[110.5255,-7.3445],[110.5235,-7.3425],[110.5225,-7.3405],[110.5165,-7.3415],[110.5165,-7.343],[110.5195,-7.3445],[110.5185,-7.3475],[110.5155,-7.3505],[110.515,-7.3525],[110.5155,-7.353],[110.5155,-7.354],[110.516,-7.353],[110.5165,-7.3525],[110.5195,-7.354],[110.5225,-7.3525],[110.5275,-7.3535]]]},"properties":{"code":"33.73.02.1004","name":"Kalibening"}},{"type":"Feature","geometry":{"type":"Polygon","coordinates":[[[110.5325,-7.355],[110.533,-7.354],[110.5345,-7.3505],[110.533,-7.3485],[110.5325,-7.3495],[110.532,-7.35],[110.5295,-7.35],[110.53,-7.3495],[110.5275,-7.3535],[110.5225,-7.3525],[110.5195,-7.354],[110.5165,-7.3525],[110.516,-7.353],[110.5155,-7.354],[110.5155,-7.3545],[110.515,-7.3555],[110.5165,-7.357],[110.5325,-7.355]]]},"properties":{"code":"33.73.02.1005","name":"Tingkir Lor"}},{"type":"Feature","geometry":{"type":"Polygon","coordinates":[[[110.5345,-7.359],[110.5345,-7.3585],[110.5345,-7.3575],[110.535,-7.356],[110.535,-7.3555],[110.5345,-7.3535],[110.533,-7.354],[110.5325,-7.355],[110.5165,-7.357],[110.516,-7.3565],[110.515,-7.357],[110.514,-7.363],[110.5165,-7.363],[110.5295,-7.364],[110.5305,-7.363],[110.532,-7.362],[110.534,-7.362],[110.5345,-7.3615],[110.5345,-7.359]]]},"properties":{"code":"33.73.02.1006","name":"Tingkir Tengah"}},{"type":"Feature","geometry":{"type":"Polygon","coordinates":[[[110.517,-7.312],[110.517,-7.3115],[110.5155,-7.311],[110.512,-7.3105],[110.51,-7.3095],[110.5095,-7.309],[110.508,-7.315],[110.508,-7.3235],[110.509,-7.325],[110.5085,-7.3255],[110.5075,-7.326],[110.505,-7.3265],[110.5045,-7.3285],[110.5045,-7.3295],[110.5055,-7.3295],[110.5085,-7.328],[110.516,-7.3285],[110.5165,-7.327],[110.5165,-7.326],[110.5175,-7.3265],[110.5175,-7.326],[110.5175,-7.321],[110.5175,-7.3205],[110.5175,-7.319],[110.517,-7.312]]]},"properties":{"code":"33.73.02.1007","name":"Kutowinangun Lor"}},{"type":"Feature","geometry":{"type":"Polygon","coordinates":[[[110.515,-7.371],[110.512,-7.371],[110.511,-7.3665],[110.5105,-7.3655],[110.5105,-7.366],[110.5095,-7.3665],[110.509,-7.3655],[110.5085,-7.365],[110.504,-7.3665],[110.5035,-7.369],[110.497,-7.3885],[110.4995,-7.388],[110.5005,-7.3895],[110.5025,-7.389],[110.51,-7.3865],[110.5125,-7.3855],[110.5145,-7.386],[110.515,-7.3835],[110.509,-7.3785],[110.51,-7.3775],[110.515,-7.373],[110.515,-7.371]]]},"properties":{"code":"33.73.03.1001","name":"Noborejo"}},{"type":"Feature","geometry":{"type":"Polygon","coordinates":[[[110.5125,-7.3395],[110.5115,-7.3395],[110.505,-7.341],[110.5095,-7.3465],[110.5055,-7.3505],[110.504,-7.351],[110.5035,-7.352],[110.505,-7.352],[110.5045,-7.353],[110.5065,-7.353],[110.507,-7.3555],[110.5065,-7.359],[110.5065,-7.36],[110.5075,-7.36],[110.509,-7.359],[110.515,-7.351],[110.5155,-7.3505],[110.5185,-7.3475],[110.5195,-7.3445],[110.5165,-7.343],[110.5165,-7.34],[110.5125,-7.3395]]]},"properties":{"code":"33.73.03.1002","name":"Ledok"}},{"type":"Feature","geometry":{"type":"Polygon","coordinates":[[[110.505,-7.337],[110.5005,-7.336],[110.4955,-7.3505],[110.496,-7.3515],[110.4945,-7.354],[110.493,-7.358],[110.4935,-7.358],[110.4945,-7.3585],[110.498,-7.3585],[110.4985,-7.355],[110.503,-7.353],[110.504,-7.351],[110.5055,-7.3505],[110.5095,-7.3465],[110.505,-7.341],[110.505,-7.337]]]},"properties":{"code":"33.73.03.1003","name":"Tegalrejo"}},{"type":"Feature","geometry":{"type":"Polygon","coordinates":[[[110.4955,-7.3505],[110.489,-7.352],[110.486,-7.3525],[110.4805,-7.3555],[110.479,-7.3555],[110.474,-7.354],[110.477,-7.372],[110.482,-7.3795],[110.482,-7.3805],[110.486,-7.3785],[110.487,-7.378],[110.495,-7.366],[110.496,-7.364],[110.497,-7.362],[110.498,-7.3585],[110.494,-7.3585],[110.493,-7.358],[110.4945,-7.354],[110.496,-7.3515],[110.4955,-7.3505]]]},"properties":{"code":"33.73.03.1004","name":"Kumpulrejo"}},{"type":"Feature","geometry":{"type":"Polygon","coordinates":[[[110.5075,-7.36],[110.5065,-7.36],[110.5065,-7.359],[110.507,-7.3555],[110.5065,-7.353],[110.5045,-7.353],[110.505,-7.352],[110.5035,-7.352],[110.503,-7.353],[110.4985,-7.355],[110.497,-7.362],[110.497,-7.3625],[110.496,-7.364],[110.495,-7.366],[110.487,-7.378],[110.489,-7.377],[110.4905,-7.386],[110.492,-7.387],[110.4925,-7.3905],[110.496,-7.3895],[110.497,-7.3885],[110.5035,-7.369],[110.5035,-7.365],[110.507,-7.361],[110.5075,-7.36]]]},"properties":{"code":"33.73.03.1005","name":"Randuacir"}},{"type":"Feature","geometry":{"type":"Polygon","coordinates":[[[110.515,-7.351],[110.509,-7.359],[110.507,-7.361],[110.5035,-7.365],[110.504,-7.3665],[110.5085,-7.365],[110.509,-7.3655],[110.5095,-7.3665],[110.5105,-7.366],[110.5105,-7.3655],[110.511,-7.3665],[110.512,-7.371],[110.515,-7.371],[110.514,-7.3665],[110.515,-7.365],[110.514,-7.363],[110.515,-7.357],[110.516,-7.3565],[110.515,-7.3555],[110.5155,-7.3545],[110.5155,-7.3535],[110.5155,-7.353],[110.515,-7.3525],[110.515,-7.351]]]},"properties":{"code":"33.73.03.1006","name":"Cebongan"}},{"type":"Feature","geometry":{"type":"Polygon","coordinates":[[[110.476,-7.315],[110.476,-7.314],[110.475,-7.315],[110.473,-7.313],[110.4725,-7.3145],[110.4735,-7.3155],[110.474,-7.317],[110.4695,-7.34],[110.4695,-7.3415],[110.471,-7.347],[110.47,-7.3485],[110.4715,-7.3505],[110.4745,-7.35],[110.4755,-7.3495],[110.476,-7.3475],[110.476,-7.346],[110.478,-7.3345],[110.4775,-7.3325],[110.4835,-7.323],[110.4825,-7.322],[110.482,-7.3215],[110.485,-7.319],[110.486,-7.319],[110.478,-7.3175],[110.4755,-7.316],[110.476,-7.315]]]},"properties":{"code":"33.73.04.1001","name":"Kecandran"}},{"type":"Feature","geometry":{"type":"Polygon","coordinates":[[[110.486,-7.3225],[110.485,-7.3225],[110.4845,-7.3225],[110.4835,-7.323],[110.4775,-7.3325],[110.478,-7.3345],[110.476,-7.346],[110.476,-7.3475],[110.4755,-7.3495],[110.475,-7.351],[110.474,-7.354],[110.479,-7.3555],[110.4805,-7.3555],[110.486,-7.3525],[110.4875,-7.352],[110.4925,-7.338],[110.492,-7.3365],[110.4915,-7.334],[110.4885,-7.331],[110.487,-7.3285],[110.485,-7.3275],[110.486,-7.3255],[110.486,-7.3225]]]},"properties":{"code":"33.73.04.1002","name":"Dukuh"}},{"type":"Feature","geometry":{"type":"Polygon","coordinates":[[[110.495,-7.3265],[110.4885,-7.3215],[110.486,-7.322],[110.486,-7.3255],[110.485,-7.3275],[110.487,-7.3285],[110.4885,-7.331],[110.4915,-7.334],[110.492,-7.3365],[110.4925,-7.338],[110.4875,-7.352],[110.489,-7.352],[110.4955,-7.3505],[110.5005,-7.336],[110.5005,-7.3355],[110.498,-7.336],[110.499,-7.327],[110.495,-7.3265]]]},"properties":{"code":"33.73.04.1003","name":"Mangunsari"}},{"type":"Feature","geometry":{"type":"Polygon","coordinates":[[[110.5045,-7.3275],[110.499,-7.327],[110.498,-7.336],[110.5005,-7.3355],[110.5005,-7.336],[110.505,-7.337],[110.506,-7.3355],[110.5045,-7.3295],[110.5045,-7.3285],[110.5045,-7.3275]]]},"properties":{"code":"33.73.04.1004","name":"Kalicacing"}}]}