{"type":"FeatureCollection","features":[{"type":"Feature","geometry":{"type":"Polygon","coordinates":[[[110.0415,-7.8845],[110.0375,-7.8835],[110.036,-7.884],[110.0335,-7.8865],[110.0335,-7.8875],[110.026,-7.8895],[110.0245,-7.89],[110.018,-7.8905],[110.015,-7.89],[110.01,-7.8875],[110.005,-7.885],[110.0035,-7.8885],[110.04,-7.9025],[110.0415,-7.8845]]]},"properties":{"code":"34.01.01.2001","name":"Jangkaran","latitude":-7.892453159106781,"longitude":110.03010699053038}},{"type":"Feature","geometry":{"type":"Polygon","coordinates":[[[110.0465,-7.87],[110.0465,-7.8695],[110.045,-7.869],[110.0415,-7.8815],[110.0415,-7.8845],[110.04,-7.9025],[110.044,-7.904],[110.0545,-7.8805],[110.055,-7.8785],[110.0465,-7.87]]]},"properties":{"code":"34.01.01.2002","name":"Sindutan","latitude":-7.885713139868196,"longitude":110.04686301651567}},{"type":"Feature","geometry":{"type":"Polygon","coordinates":[[[110.059,-7.8815],[110.0545,-7.8805],[110.044,-7.904],[110.056,-7.9085],[110.063,-7.8915],[110.065,-7.885],[110.059,-7.8815]]]},"properties":{"code":"34.01.01.2003","name":"Palihan","latitude":-7.8944068693577325,"longitude":110.05467758148538}},{"type":"Feature","geometry":{"type":"Polygon","coordinates":[[[110.063,-7.8915],[110.056,-7.9085],[110.0785,-7.918],[110.087,-7.9015],[110.0865,-7.9015],[110.0755,-7.8965],[110.0725,-7.8945],[110.0715,-7.8935],[110.063,-7.8915]]]},"properties":{"code":"34.01.01.2004","name":"Glagah","latitude":-7.904248005125765,"longitude":110.07130091056027}},{"type":"Feature","geometry":{"type":"Polygon","coordinates":[[[110.092,-7.888],[110.088,-7.8875],[110.084,-7.887],[110.084,-7.889],[110.0805,-7.8925],[110.0765,-7.893],[110.0755,-7.8965],[110.0865,-7.9015],[110.087,-7.9015],[110.0925,-7.888],[110.092,-7.888]]]},"properties":{"code":"34.01.01.2005","name":"Kalidengen","latitude":-7.893625156806615,"longitude":110.0848564716432}},{"type":"Feature","geometry":{"type":"Polygon","coordinates":[[[110.11,-7.8975],[110.1095,-7.8975],[110.11,-7.8985],[110.109,-7.8995],[110.1065,-7.8975],[110.108,-7.8925],[110.1075,-7.8915],[110.1035,-7.891],[110.1035,-7.8925],[110.1005,-7.896],[110.091,-7.8925],[110.087,-7.9015],[110.0885,-7.902],[110.098,-7.9095],[110.1035,-7.908],[110.1085,-7.9055],[110.109,-7.903],[110.1095,-7.9015],[110.11,-7.8975]]]},"properties":{"code":"34.01.01.2006","name":"Plumbon","latitude":-7.900469579879023,"longitude":110.09920501782986}},{"type":"Feature","geometry":{"type":"Polygon","coordinates":[[[110.104,-7.88],[110.099,-7.878],[110.099,-7.8815],[110.099,-7.889],[110.097,-7.89],[110.0975,-7.8915],[110.0965,-7.8945],[110.1005,-7.896],[110.1035,-7.8925],[110.1035,-7.89],[110.108,-7.886],[110.1075,-7.8835],[110.1035,-7.88],[110.104,-7.88]]]},"properties":{"code":"34.01.01.2007","name":"Kedundang","latitude":-7.886770124457658,"longitude":110.10219791493434}},{"type":"Feature","geometry":{"type":"Polygon","coordinates":[[[110.099,-7.8815],[110.0975,-7.881],[110.0955,-7.881],[110.092,-7.888],[110.0925,-7.888],[110.091,-7.8925],[110.0965,-7.8945],[110.0975,-7.8915],[110.097,-7.89],[110.099,-7.889],[110.099,-7.8815]]]},"properties":{"code":"34.01.01.2008","name":"Demen","latitude":-7.887372204348908,"longitude":110.09594196689459}},{"type":"Feature","geometry":{"type":"Polygon","coordinates":[[[110.1015,-7.8655],[110.095,-7.8635],[110.093,-7.8635],[110.093,-7.8645],[110.0935,-7.865],[110.093,-7.866],[110.093,-7.8685],[110.095,-7.8745],[110.096,-7.875],[110.096,-7.88],[110.099,-7.8815],[110.099,-7.878],[110.104,-7.88],[110.105,-7.88],[110.1075,-7.879],[110.111,-7.8805],[110.112,-7.8805],[110.1125,-7.877],[110.11,-7.8685],[110.1015,-7.8655]]]},"properties":{"code":"34.01.01.2009","name":"Kulur","latitude":-7.872205040863347,"longitude":110.10214992208391}},{"type":"Feature","geometry":{"type":"Polygon","coordinates":[[[110.093,-7.8635],[110.092,-7.8635],[110.0865,-7.8645],[110.0865,-7.8675],[110.0855,-7.871],[110.086,-7.8775],[110.0845,-7.879],[110.0845,-7.882],[110.084,-7.887],[110.088,-7.8875],[110.092,-7.888],[110.0955,-7.881],[110.0975,-7.881],[110.096,-7.88],[110.096,-7.875],[110.095,-7.8745],[110.093,-7.8685],[110.093,-7.866],[110.0935,-7.865],[110.093,-7.8645],[110.093,-7.8635]]]},"properties":{"code":"34.01.01.2010","name":"Kaligintung","latitude":-7.87650951513098,"longitude":110.08996146090894}},{"type":"Feature","geometry":{"type":"Polygon","coordinates":[[[110.0855,-7.871],[110.077,-7.869],[110.0765,-7.8715],[110.076,-7.8715],[110.076,-7.8725],[110.0755,-7.8725],[110.0755,-7.876],[110.0775,-7.8845],[110.0785,-7.8865],[110.084,-7.889],[110.0845,-7.882],[110.0845,-7.879],[110.086,-7.8775],[110.0855,-7.871]]]},"properties":{"code":"34.01.01.2011","name":"Temon Wetan","latitude":-7.876061144229924,"longitude":110.08138548758347}},{"type":"Feature","geometry":{"type":"Polygon","coordinates":[[[110.076,-7.8715],[110.075,-7.8715],[110.0715,-7.8935],[110.0725,-7.8945],[110.0755,-7.8965],[110.0765,-7.893],[110.0805,-7.8925],[110.084,-7.889],[110.0785,-7.8865],[110.0775,-7.8845],[110.0755,-7.876],[110.0755,-7.8725],[110.076,-7.8725],[110.076,-7.8715]]]},"properties":{"code":"34.01.01.2012","name":"Temon Kulon","latitude":-7.8864081876195575,"longitude":110.07599260419322}},{"type":"Feature","geometry":{"type":"Polygon","coordinates":[[[110.0765,-7.8705],[110.0695,-7.872],[110.0695,-7.873],[110.0665,-7.882],[110.0645,-7.885],[110.065,-7.885],[110.063,-7.8915],[110.0715,-7.8935],[110.075,-7.8715],[110.0765,-7.8715],[110.0765,-7.8705]]]},"properties":{"code":"34.01.01.2013","name":"Kebonrejo","latitude":-7.88307298153676,"longitude":110.0695166227975}},{"type":"Feature","geometry":{"type":"Polygon","coordinates":[[[110.0695,-7.873],[110.069,-7.874],[110.066,-7.8735],[110.062,-7.8705],[110.06,-7.87],[110.06,-7.8705],[110.0605,-7.8715],[110.0595,-7.8755],[110.061,-7.877],[110.059,-7.8815],[110.0645,-7.885],[110.0665,-7.882],[110.0695,-7.873]]]},"properties":{"code":"34.01.01.2014","name":"Janten","latitude":-7.877260147645458,"longitude":110.0640322559108}},{"type":"Feature","geometry":{"type":"Polygon","coordinates":[[[110.06,-7.87],[110.049,-7.8705],[110.0465,-7.87],[110.055,-7.8785],[110.0545,-7.8805],[110.059,-7.8815],[110.061,-7.877],[110.0595,-7.8755],[110.0605,-7.8715],[110.06,-7.8705],[110.06,-7.87]]]},"properties":{"code":"34.01.01.2015","name":"Karangwuluh","latitude":-7.873748910016269,"longitude":110.05485082684176}},{"type":"Feature","geometry":{"type":"Polygon","coordinates":[[[110.163,-7.857],[110.1625,-7.8575],[110.161,-7.856],[110.1595,-7.853],[110.151,-7.853],[110.15,-7.8465],[110.1445,-7.842],[110.1445,-7.84],[110.144,-7.8395],[110.1425,-7.839],[110.1415,-7.839],[110.1415,-7.8405],[110.1465,-7.856],[110.1465,-7.858],[110.143,-7.8625],[110.1415,-7.863],[110.139,-7.8665],[110.148,-7.8725],[110.1485,-7.8735],[110.15,-7.8725],[110.164,-7.8645],[110.1665,-7.8645],[110.1665,-7.864],[110.166,-7.8625],[110.1655,-7.862],[110.163,-7.8615],[110.1625,-7.86],[110.163,-7.8585],[110.163,-7.857]]]},"properties":{"code":"34.01.02.1008","name":"Wates","latitude":-7.859654260580633,"longitude":110.15189379131617}},{"type":"Feature","geometry":{"type":"Polygon","coordinates":[[[110.098,-7.9095],[110.0885,-7.902],[110.087,-7.9015],[110.0785,-7.918],[110.108,-7.931],[110.115,-7.9175],[110.1165,-7.9145],[110.1165,-7.912],[110.117,-7.9105],[110.1095,-7.91],[110.098,-7.9095]]]},"properties":{"code":"34.01.02.2001","name":"Karangwuni","latitude":-7.916475326610847,"longitude":110.09789100589002}},{"type":"Feature","geometry":{"type":"Polygon","coordinates":[[[110.12,-7.8875],[110.1195,-7.8885],[110.119,-7.8885],[110.1185,-7.8895],[110.118,-7.8895],[110.1175,-7.888],[110.115,-7.8865],[110.1115,-7.886],[110.111,-7.8895],[110.11,-7.8965],[110.1095,-7.9015],[110.109,-7.903],[110.1085,-7.9055],[110.1035,-7.908],[110.098,-7.9095],[110.1095,-7.91],[110.114,-7.9105],[110.115,-7.908],[110.1165,-7.903],[110.1185,-7.901],[110.118,-7.898],[110.118,-7.897],[110.1195,-7.8885],[110.12,-7.8885],[110.12,-7.8875]]]},"properties":{"code":"34.01.02.2002","name":"Sogan","latitude":-7.899477446879158,"longitude":110.11244737961869}},{"type":"Feature","geometry":{"type":"Polygon","coordinates":[[[110.1295,-7.8965],[110.1255,-7.896],[110.124,-7.8915],[110.119,-7.891],[110.118,-7.8975],[110.118,-7.898],[110.1185,-7.901],[110.1165,-7.903],[110.115,-7.908],[110.114,-7.9105],[110.1205,-7.911],[110.1285,-7.9105],[110.128,-7.905],[110.1295,-7.8965]]]},"properties":{"code":"34.01.02.2003","name":"Kulwaru","latitude":-7.902225145005741,"longitude":110.12243796185591}},{"type":"Feature","geometry":{"type":"Polygon","coordinates":[[[110.141,-7.8935],[110.13,-7.8925],[110.1295,-7.898],[110.128,-7.905],[110.1285,-7.9105],[110.13,-7.911],[110.139,-7.907],[110.1405,-7.904],[110.142,-7.902],[110.142,-7.8975],[110.141,-7.894],[110.141,-7.8935]]]},"properties":{"code":"34.01.02.2004","name":"Ngestiharjo","latitude":-7.901326952631751,"longitude":110.13480401395587}},{"type":"Feature","geometry":{"type":"Polygon","coordinates":[[[110.1535,-7.882],[110.15,-7.8775],[110.146,-7.8755],[110.1435,-7.8755],[110.142,-7.876],[110.143,-7.877],[110.141,-7.8935],[110.141,-7.894],[110.142,-7.8975],[110.142,-7.902],[110.1415,-7.9035],[110.143,-7.9045],[110.145,-7.9045],[110.1455,-7.905],[110.152,-7.905],[110.1535,-7.882]]]},"properties":{"code":"34.01.02.2005","name":"Bendungan","latitude":-7.891504848493439,"longitude":110.14739614212947}},{"type":"Feature","geometry":{"type":"Polygon","coordinates":[[[110.148,-7.8725],[110.139,-7.8665],[110.138,-7.868],[110.1355,-7.869],[110.1355,-7.8695],[110.135,-7.8705],[110.1325,-7.872],[110.1295,-7.875],[110.129,-7.8745],[110.128,-7.8755],[110.1285,-7.877],[110.1295,-7.8775],[110.1205,-7.887],[110.12,-7.8885],[110.1195,-7.8885],[110.119,-7.891],[110.124,-7.8915],[110.1255,-7.896],[110.128,-7.8965],[110.1295,-7.8965],[110.13,-7.8925],[110.141,-7.8935],[110.143,-7.877],[110.142,-7.8765],[110.1415,-7.875],[110.1415,-7.874],[110.1465,-7.8745],[110.148,-7.8725]]]},"properties":{"code":"34.01.02.2006","name":"Triharjo","latitude":-7.882514497568773,"longitude":110.13471811357513}},{"type":"Feature","geometry":{"type":"Polygon","coordinates":[[[110.1745,-7.8625],[110.1715,-7.862],[110.1675,-7.8605],[110.166,-7.8615],[110.1655,-7.862],[110.166,-7.8625],[110.1665,-7.864],[110.1665,-7.8645],[110.164,-7.8645],[110.15,-7.8725],[110.1485,-7.8735],[110.1465,-7.8745],[110.1415,-7.874],[110.1415,-7.875],[110.142,-7.876],[110.1435,-7.8755],[110.146,-7.8755],[110.15,-7.8775],[110.1535,-7.882],[110.173,-7.8845],[110.1745,-7.8795],[110.1755,-7.877],[110.176,-7.8745],[110.1735,-7.8695],[110.1745,-7.8625]]]},"properties":{"code":"34.01.02.2007","name":"Giripeni","latitude":-7.87374855874069,"longitude":110.16237359738331}},{"type":"Feature","geometry":{"type":"Polygon","coordinates":[[[110.1405,-7.923],[110.139,-7.9225],[110.1155,-7.9165],[110.115,-7.9175],[110.108,-7.931],[110.128,-7.94],[110.133,-7.9285],[110.1405,-7.9255],[110.1405,-7.923]]]},"properties":{"code":"34.01.03.2001","name":"Garongan","latitude":-7.9268412351862,"longitude":110.12570883830605}},{"type":"Feature","geometry":{"type":"Polygon","coordinates":[[[110.1475,-7.9195],[110.142,-7.925],[110.141,-7.923],[110.1405,-7.923],[110.1405,-7.9255],[110.133,-7.9285],[110.128,-7.94],[110.1495,-7.95],[110.157,-7.9345],[110.157,-7.926],[110.157,-7.9195],[110.1475,-7.9195]]]},"properties":{"code":"34.01.03.2002","name":"Pleret","latitude":-7.934735041348168,"longitude":110.14593890507608}},{"type":"Feature","geometry":{"type":"Polygon","coordinates":[[[110.164,-7.922],[110.1575,-7.9235],[110.157,-7.926],[110.157,-7.9345],[110.1495,-7.95],[110.1655,-7.9575],[110.1705,-7.949],[110.1755,-7.937],[110.17,-7.934],[110.17,-7.9325],[110.17,-7.93],[110.172,-7.93],[110.164,-7.922]]]},"properties":{"code":"34.01.03.2003","name":"Bugel","latitude":-7.9397565128773655,"longitude":110.16327175523702}},{"type":"Feature","geometry":{"type":"Polygon","coordinates":[[[110.178,-7.9205],[110.175,-7.92],[110.1735,-7.9115],[110.165,-7.9105],[110.1645,-7.9125],[110.164,-7.922],[110.172,-7.93],[110.17,-7.93],[110.174,-7.9315],[110.1775,-7.933],[110.179,-7.9285],[110.178,-7.922],[110.178,-7.9205]]]},"properties":{"code":"34.01.03.2004","name":"Kanoman","latitude":-7.920450798088057,"longitude":110.17180075409433}},{"type":"Feature","geometry":{"type":"Polygon","coordinates":[[[110.165,-7.911],[110.1615,-7.9105],[110.1585,-7.908],[110.155,-7.9075],[110.153,-7.91],[110.152,-7.9105],[110.1515,-7.9105],[110.1495,-7.91],[110.149,-7.91],[110.146,-7.91],[110.1465,-7.911],[110.1475,-7.9115],[110.1475,-7.914],[110.1475,-7.9195],[110.157,-7.9195],[110.1575,-7.9235],[110.164,-7.922],[110.1645,-7.9125],[110.165,-7.911]]]},"properties":{"code":"34.01.03.2005","name":"Depok","latitude":-7.9152621826182665,"longitude":110.15635634423815}},{"type":"Feature","geometry":{"type":"Polygon","coordinates":[[[110.1445,-7.9045],[110.143,-7.9045],[110.1415,-7.9035],[110.1405,-7.904],[110.139,-7.907],[110.13,-7.911],[110.1285,-7.9105],[110.117,-7.9105],[110.1165,-7.9115],[110.1165,-7.9125],[110.1165,-7.9145],[110.1155,-7.9165],[110.139,-7.9225],[110.141,-7.923],[110.142,-7.925],[110.1475,-7.9195],[110.1475,-7.914],[110.1475,-7.9115],[110.1465,-7.911],[110.146,-7.911],[110.146,-7.91],[110.146,-7.909],[110.1455,-7.908],[110.1455,-7.907],[110.1445,-7.9045]]]},"properties":{"code":"34.01.03.2006","name":"Bojong","latitude":-7.914417047086273,"longitude":110.13463859369746}},{"type":"Feature","geometry":{"type":"Polygon","coordinates":[[[110.1665,-7.901],[110.1635,-7.8975],[110.1525,-7.8955],[110.152,-7.905],[110.1455,-7.905],[110.1445,-7.9045],[110.1455,-7.907],[110.1455,-7.908],[110.146,-7.909],[110.146,-7.91],[110.1485,-7.9095],[110.149,-7.91],[110.1495,-7.91],[110.1515,-7.9105],[110.152,-7.9105],[110.153,-7.91],[110.155,-7.9075],[110.158,-7.9075],[110.166,-7.906],[110.1665,-7.902],[110.1665,-7.9015],[110.1665,-7.901]]]},"properties":{"code":"34.01.03.2007","name":"Tayuban","latitude":-7.90309620757907,"longitude":110.15664735620214}},{"type":"Feature","geometry":{"type":"Polygon","coordinates":[[[110.173,-7.8845],[110.1535,-7.882],[110.1525,-7.8955],[110.1635,-7.8975],[110.1705,-7.9055],[110.1725,-7.9055],[110.1725,-7.904],[110.173,-7.8845]]]},"properties":{"code":"34.01.03.2008","name":"Gotakan","latitude":-7.890627523766826,"longitude":110.16277349367995}},{"type":"Feature","geometry":{"type":"Polygon","coordinates":[[[110.1725,-7.9055],[110.1705,-7.9055],[110.1665,-7.901],[110.1665,-7.9015],[110.1665,-7.902],[110.166,-7.906],[110.158,-7.9075],[110.1585,-7.908],[110.1615,-7.9105],[110.165,-7.911],[110.165,-7.9105],[110.1735,-7.9115],[110.175,-7.92],[110.178,-7.9205],[110.178,-7.9145],[110.172,-7.907],[110.1725,-7.9065],[110.1725,-7.9055]]]},"properties":{"code":"34.01.03.2009","name":"Panjatan","latitude":-7.909726858149255,"longitude":110.1694804497501}},{"type":"Feature","geometry":{"type":"Polygon","coordinates":[[[110.1805,-7.8775],[110.1795,-7.8775],[110.1795,-7.878],[110.1785,-7.8785],[110.1785,-7.8795],[110.1755,-7.8805],[110.176,-7.877],[110.178,-7.8775],[110.177,-7.876],[110.175,-7.877],[110.1745,-7.8795],[110.173,-7.8845],[110.1725,-7.904],[110.1725,-7.9065],[110.172,-7.907],[110.1795,-7.909],[110.18,-7.879],[110.1805,-7.8775]]]},"properties":{"code":"34.01.03.2010","name":"Cerme","latitude":-7.895125777860873,"longitude":110.17509468349812}},{"type":"Feature","geometry":{"type":"Polygon","coordinates":[[[110.195,-7.8765],[110.19,-7.876],[110.1885,-7.8755],[110.18,-7.875],[110.1805,-7.877],[110.18,-7.879],[110.1795,-7.909],[110.178,-7.9145],[110.178,-7.9205],[110.1815,-7.9205],[110.1835,-7.92],[110.186,-7.9085],[110.188,-7.903],[110.1925,-7.896],[110.1935,-7.895],[110.194,-7.895],[110.1945,-7.8925],[110.195,-7.8765]]]},"properties":{"code":"34.01.03.2011","name":"Krembangan","latitude":-7.892248925843304,"longitude":110.1858243131774}},{"type":"Feature","geometry":{"type":"Polygon","coordinates":[[[110.2345,-7.9545],[110.2285,-7.9525],[110.2245,-7.9535],[110.2235,-7.9545],[110.222,-7.9535],[110.2195,-7.9535],[110.2125,-7.967],[110.208,-7.965],[110.202,-7.9645],[110.1995,-7.9635],[110.1965,-7.9615],[110.1855,-7.969],[110.2115,-7.9855],[110.228,-7.964],[110.2345,-7.9545]]]},"properties":{"code":"34.01.04.2001","name":"Banaran","latitude":-7.96840122514831,"longitude":110.20933483285451}},{"type":"Feature","geometry":{"type":"Polygon","coordinates":[[[110.238,-7.9485],[110.2235,-7.946],[110.222,-7.9455],[110.214,-7.9605],[110.203,-7.9615],[110.202,-7.9605],[110.199,-7.963],[110.1995,-7.9635],[110.202,-7.9645],[110.208,-7.965],[110.2125,-7.967],[110.2195,-7.9535],[110.222,-7.9535],[110.2235,-7.9545],[110.2245,-7.9535],[110.2285,-7.9525],[110.2345,-7.9545],[110.238,-7.9485]]]},"properties":{"code":"34.01.04.2002","name":"Kranggan","latitude":-7.954919186885086,"longitude":110.22015325572217}},{"type":"Feature","geometry":{"type":"Polygon","coordinates":[[[110.22,-7.9455],[110.217,-7.945],[110.216,-7.9455],[110.216,-7.947],[110.2165,-7.948],[110.217,-7.949],[110.217,-7.9495],[110.201,-7.959],[110.203,-7.9615],[110.214,-7.9605],[110.222,-7.9455],[110.22,-7.9455]]]},"properties":{"code":"34.01.04.2003","name":"Nomporejo","latitude":-7.954556182491566,"longitude":110.21104172044583}},{"type":"Feature","geometry":{"type":"Polygon","coordinates":[[[110.206,-7.946],[110.1835,-7.944],[110.175,-7.938],[110.1705,-7.949],[110.1655,-7.9575],[110.1855,-7.969],[110.1965,-7.9615],[110.199,-7.963],[110.202,-7.9605],[110.201,-7.959],[110.217,-7.9495],[110.217,-7.949],[110.2165,-7.948],[110.216,-7.947],[110.216,-7.9455],[110.217,-7.945],[110.218,-7.9425],[110.216,-7.9425],[110.2135,-7.9425],[110.213,-7.9405],[110.211,-7.9415],[110.209,-7.946],[110.2085,-7.946],[110.206,-7.946]]]},"properties":{"code":"34.01.04.2004","name":"Karangsewu","latitude":-7.952398981187648,"longitude":110.18838978664859}},{"type":"Feature","geometry":{"type":"Polygon","coordinates":[[[110.1835,-7.92],[110.1815,-7.9205],[110.178,-7.9205],[110.178,-7.922],[110.179,-7.9285],[110.1775,-7.933],[110.174,-7.9315],[110.17,-7.93],[110.1695,-7.932],[110.17,-7.934],[110.1755,-7.937],[110.175,-7.938],[110.1835,-7.944],[110.206,-7.946],[110.202,-7.9435],[110.201,-7.9435],[110.2045,-7.9405],[110.2055,-7.94],[110.2055,-7.939],[110.206,-7.9385],[110.206,-7.938],[110.208,-7.9375],[110.209,-7.9365],[110.206,-7.9335],[110.206,-7.9355],[110.205,-7.9365],[110.2045,-7.9355],[110.2045,-7.9335],[110.208,-7.93],[110.198,-7.9295],[110.1935,-7.9305],[110.183,-7.923],[110.183,-7.922],[110.1835,-7.92]]]},"properties":{"code":"34.01.04.2005","name":"Tirtorahayu","latitude":-7.9360570599288796,"longitude":110.18989561199808}},{"type":"Feature","geometry":{"type":"Polygon","coordinates":[[[110.2115,-7.9315],[110.208,-7.93],[110.2045,-7.9335],[110.2045,-7.9355],[110.205,-7.9365],[110.206,-7.9355],[110.206,-7.9335],[110.209,-7.9365],[110.208,-7.9375],[110.206,-7.938],[110.206,-7.9385],[110.2055,-7.939],[110.2055,-7.94],[110.2045,-7.9405],[110.201,-7.9435],[110.202,-7.9435],[110.206,-7.946],[110.2085,-7.946],[110.209,-7.946],[110.211,-7.9415],[110.213,-7.9405],[110.2135,-7.9425],[110.216,-7.9425],[110.218,-7.9425],[110.217,-7.945],[110.22,-7.9455],[110.2205,-7.9395],[110.2125,-7.9385],[110.2115,-7.938],[110.211,-7.936],[110.2115,-7.934],[110.2125,-7.9335],[110.213,-7.932],[110.2115,-7.9315]]]},"properties":{"code":"34.01.04.2006","name":"Pandowan","latitude":-7.938902262775958,"longitude":110.2104941877349}},{"type":"Feature","geometry":{"type":"Polygon","coordinates":[[[110.2445,-7.934],[110.2395,-7.936],[110.2335,-7.94],[110.217,-7.934],[110.213,-7.932],[110.2125,-7.9335],[110.2115,-7.934],[110.211,-7.936],[110.2115,-7.938],[110.2125,-7.9385],[110.2205,-7.9395],[110.22,-7.9455],[110.2235,-7.946],[110.238,-7.9485],[110.241,-7.9435],[110.2435,-7.938],[110.2445,-7.934]]]},"properties":{"code":"34.01.04.2007","name":"Brosot","latitude":-7.940740790067566,"longitude":110.22959910729095}},{"type":"Feature","geometry":{"type":"Polygon","coordinates":[[[110.1945,-7.93],[110.1955,-7.923],[110.184,-7.9175],[110.1835,-7.92],[110.183,-7.922],[110.183,-7.923],[110.1935,-7.9305],[110.1945,-7.93]]]},"properties":{"code":"34.01.05.2001","name":"Wahyuharjo","latitude":-7.926414234656749,"longitude":110.18865787399854}},{"type":"Feature","geometry":{"type":"Polygon","coordinates":[[[110.218,-7.904],[110.2085,-7.896],[110.2045,-7.895],[110.204,-7.8945],[110.203,-7.899],[110.203,-7.9],[110.194,-7.9],[110.194,-7.8985],[110.193,-7.8985],[110.192,-7.9015],[110.192,-7.9025],[110.1885,-7.9025],[110.188,-7.903],[110.186,-7.9085],[110.184,-7.9175],[110.1955,-7.923],[110.1945,-7.93],[110.198,-7.9295],[110.2075,-7.93],[110.2115,-7.9315],[110.2075,-7.915],[110.218,-7.904]]]},"properties":{"code":"34.01.05.2002","name":"Bumirejo","latitude":-7.912854251019211,"longitude":110.20051320196569}},{"type":"Feature","geometry":{"type":"Polygon","coordinates":[[[110.2235,-7.9065],[110.218,-7.904],[110.2075,-7.915],[110.2115,-7.9315],[110.217,-7.934],[110.2335,-7.94],[110.2395,-7.936],[110.2445,-7.934],[110.2455,-7.9315],[110.2385,-7.9325],[110.2255,-7.9245],[110.2205,-7.921],[110.221,-7.9145],[110.2235,-7.9065]]]},"properties":{"code":"34.01.05.2003","name":"Jatirejo","latitude":-7.925022136479949,"longitude":110.22186842184153}},{"type":"Feature","geometry":{"type":"Polygon","coordinates":[[[110.236,-7.9035],[110.224,-7.906],[110.221,-7.9145],[110.2205,-7.921],[110.2255,-7.9245],[110.2385,-7.9325],[110.2455,-7.9315],[110.2465,-7.93],[110.256,-7.923],[110.255,-7.9125],[110.236,-7.9035]]]},"properties":{"code":"34.01.05.2004","name":"Sidorejo","latitude":-7.917070295239475,"longitude":110.23762619981913}},{"type":"Feature","geometry":{"type":"Polygon","coordinates":[[[110.2385,-7.894],[110.236,-7.9035],[110.255,-7.9125],[110.256,-7.923],[110.2685,-7.928],[110.271,-7.924],[110.2715,-7.9155],[110.273,-7.9125],[110.269,-7.9115],[110.2635,-7.9115],[110.2615,-7.9015],[110.2585,-7.9005],[110.2505,-7.9035],[110.249,-7.902],[110.2395,-7.895],[110.2385,-7.894]]]},"properties":{"code":"34.01.05.2005","name":"Gulurejo","latitude":-7.911512274512951,"longitude":110.25686405331294}},{"type":"Feature","geometry":{"type":"Polygon","coordinates":[[[110.2735,-7.9095],[110.272,-7.889],[110.269,-7.8855],[110.2685,-7.8855],[110.268,-7.886],[110.2625,-7.887],[110.2385,-7.894],[110.2395,-7.895],[110.249,-7.902],[110.2505,-7.9035],[110.2585,-7.9005],[110.2615,-7.9015],[110.2635,-7.9115],[110.269,-7.9115],[110.273,-7.9125],[110.2735,-7.9105],[110.2735,-7.9095]]]},"properties":{"code":"34.01.05.2006","name":"Ngentakrejo","latitude":-7.896942342748782,"longitude":110.26089896640953}},{"type":"Feature","geometry":{"type":"Polygon","coordinates":[[[110.206,-7.8755],[110.2055,-7.876],[110.206,-7.8765],[110.201,-7.8735],[110.195,-7.8765],[110.1945,-7.8925],[110.194,-7.895],[110.1935,-7.895],[110.1885,-7.9025],[110.192,-7.9025],[110.192,-7.9015],[110.193,-7.8985],[110.194,-7.8985],[110.194,-7.9],[110.203,-7.9],[110.203,-7.899],[110.2065,-7.8805],[110.2145,-7.8815],[110.2145,-7.8805],[110.214,-7.88],[110.207,-7.8765],[110.2065,-7.8755],[110.206,-7.8755]]]},"properties":{"code":"34.01.06.2001","name":"Demangrejo","latitude":-7.887647274108072,"longitude":110.20019118567973}},{"type":"Feature","geometry":{"type":"Polygon","coordinates":[[[110.2145,-7.8805],[110.2145,-7.8815],[110.2065,-7.8805],[110.204,-7.8945],[110.2045,-7.895],[110.2085,-7.896],[110.218,-7.904],[110.2235,-7.9065],[110.224,-7.906],[110.236,-7.9035],[110.2385,-7.894],[110.2375,-7.8915],[110.2275,-7.8855],[110.225,-7.885],[110.2235,-7.884],[110.224,-7.8825],[110.2185,-7.8815],[110.2145,-7.8805]]]},"properties":{"code":"34.01.06.2002","name":"Srikayangan","latitude":-7.8930182586828534,"longitude":110.22099388892903}},{"type":"Feature","geometry":{"type":"Polygon","coordinates":[[[110.2565,-7.8655],[110.244,-7.8575],[110.2425,-7.8565],[110.2345,-7.871],[110.2275,-7.8745],[110.2255,-7.8745],[110.2235,-7.884],[110.225,-7.885],[110.2275,-7.8855],[110.2375,-7.8915],[110.2385,-7.894],[110.2625,-7.887],[110.268,-7.886],[110.2685,-7.8855],[110.269,-7.8855],[110.268,-7.884],[110.2655,-7.879],[110.2565,-7.8655]]]},"properties":{"code":"34.01.06.2003","name":"Tuksono","latitude":-7.877237865703396,"longitude":110.24577987729882}},{"type":"Feature","geometry":{"type":"Polygon","coordinates":[[[110.2425,-7.8565],[110.2375,-7.853],[110.235,-7.8505],[110.224,-7.8405],[110.2225,-7.839],[110.2175,-7.846],[110.2165,-7.848],[110.2175,-7.85],[110.2215,-7.853],[110.2255,-7.855],[110.2315,-7.859],[110.2275,-7.8745],[110.2345,-7.871],[110.2425,-7.8565]]]},"properties":{"code":"34.01.06.2004","name":"Salamrejo","latitude":-7.854696399610696,"longitude":110.22924690144167}},{"type":"Feature","geometry":{"type":"Polygon","coordinates":[[[110.2165,-7.848],[110.206,-7.8405],[110.2055,-7.8405],[110.2055,-7.8415],[110.204,-7.8435],[110.204,-7.844],[110.208,-7.8545],[110.2065,-7.8565],[110.1985,-7.855],[110.1965,-7.8555],[110.196,-7.858],[110.2025,-7.872],[110.2045,-7.874],[110.2055,-7.875],[110.206,-7.8755],[110.2065,-7.8755],[110.207,-7.8765],[110.214,-7.88],[110.215,-7.8805],[110.2185,-7.8815],[110.224,-7.8825],[110.2255,-7.8745],[110.2275,-7.8745],[110.2315,-7.859],[110.2255,-7.855],[110.2215,-7.853],[110.2175,-7.85],[110.2165,-7.848]]]},"properties":{"code":"34.01.06.2005","name":"Sukoreno","latitude":-7.86364718553184,"longitude":110.21456982614461}},{"type":"Feature","geometry":{"type":"Polygon","coordinates":[[[110.2055,-7.8245],[110.2015,-7.8215],[110.1995,-7.8235],[110.183,-7.8235],[110.182,-7.8255],[110.1835,-7.84],[110.186,-7.8395],[110.192,-7.847],[110.1935,-7.848],[110.1945,-7.8505],[110.1945,-7.855],[110.1955,-7.857],[110.1965,-7.8555],[110.1985,-7.855],[110.2065,-7.8565],[110.208,-7.8545],[110.204,-7.844],[110.204,-7.8435],[110.2055,-7.8415],[110.2045,-7.8395],[110.2055,-7.8265],[110.2055,-7.8245]]]},"properties":{"code":"34.01.06.2006","name":"Kaliagung","latitude":-7.836961061051173,"longitude":110.19584231209188}},{"type":"Feature","geometry":{"type":"Polygon","coordinates":[[[110.234,-7.8225],[110.2325,-7.8225],[110.231,-7.8225],[110.2305,-7.822],[110.2245,-7.8215],[110.2235,-7.8205],[110.217,-7.8205],[110.216,-7.822],[110.2155,-7.823],[110.21,-7.8215],[110.209,-7.8215],[110.209,-7.8225],[110.207,-7.8235],[110.2065,-7.8235],[110.2055,-7.8265],[110.2045,-7.8395],[110.2055,-7.8405],[110.206,-7.8405],[110.2165,-7.848],[110.2175,-7.846],[110.2225,-7.839],[110.2215,-7.838],[110.222,-7.8355],[110.2275,-7.833],[110.2285,-7.8325],[110.232,-7.828],[110.234,-7.8235],[110.234,-7.8225]]]},"properties":{"code":"34.01.06.2007","name":"Sentolo","latitude":-7.831585963167841,"longitude":110.2170047909738}},{"type":"Feature","geometry":{"type":"Polygon","coordinates":[[[110.2245,-7.805],[110.206,-7.8115],[110.206,-7.8235],[110.2065,-7.8235],[110.207,-7.8235],[110.209,-7.8225],[110.209,-7.8215],[110.21,-7.8215],[110.2155,-7.823],[110.216,-7.822],[110.217,-7.8205],[110.2235,-7.8205],[110.2245,-7.8215],[110.2305,-7.822],[110.231,-7.8225],[110.2325,-7.8225],[110.234,-7.8225],[110.2335,-7.8195],[110.234,-7.816],[110.233,-7.8145],[110.2325,-7.8135],[110.2285,-7.806],[110.2285,-7.8055],[110.2255,-7.8055],[110.2245,-7.805]]]},"properties":{"code":"34.01.06.2008","name":"Banguncipto","latitude":-7.81466931725188,"longitude":110.21994439370083}},{"type":"Feature","geometry":{"type":"Polygon","coordinates":[[[110.1255,-7.8735],[110.112,-7.881],[110.111,-7.8805],[110.1075,-7.879],[110.105,-7.88],[110.1035,-7.88],[110.1075,-7.8835],[110.108,-7.886],[110.1035,-7.89],[110.1035,-7.891],[110.1075,-7.8915],[110.108,-7.8925],[110.1065,-7.8975],[110.109,-7.8995],[110.11,-7.8985],[110.1095,-7.8975],[110.11,-7.8975],[110.111,-7.8895],[110.1115,-7.886],[110.115,-7.8865],[110.1175,-7.888],[110.118,-7.8895],[110.1185,-7.8895],[110.119,-7.8885],[110.1195,-7.8885],[110.12,-7.8875],[110.1205,-7.887],[110.1295,-7.8775],[110.1285,-7.877],[110.128,-7.8755],[110.129,-7.8745],[110.129,-7.8735],[110.1255,-7.8735]]]},"properties":{"code":"34.01.07.2001","name":"Tawangsari","latitude":-7.883496962062782,"longitude":110.11725162315656}},{"type":"Feature","geometry":{"type":"Polygon","coordinates":[[[110.134,-7.8085],[110.1325,-7.81],[110.1315,-7.808],[110.13,-7.808],[110.127,-7.8065],[110.1255,-7.812],[110.125,-7.814],[110.125,-7.8155],[110.125,-7.816],[110.1245,-7.8175],[110.1255,-7.827],[110.125,-7.828],[110.1255,-7.829],[110.127,-7.834],[110.1275,-7.8345],[110.127,-7.837],[110.127,-7.838],[110.1265,-7.8395],[110.131,-7.8455],[110.131,-7.8505],[110.1255,-7.8695],[110.129,-7.8735],[110.129,-7.8745],[110.1295,-7.875],[110.1325,-7.872],[110.135,-7.8705],[110.1355,-7.8695],[110.1355,-7.869],[110.138,-7.868],[110.139,-7.8665],[110.1415,-7.863],[110.143,-7.8625],[110.1465,-7.858],[110.1465,-7.856],[110.1415,-7.8405],[110.1415,-7.839],[110.142,-7.839],[110.1425,-7.8385],[110.143,-7.838],[110.1435,-7.8375],[110.146,-7.8335],[110.149,-7.8295],[110.146,-7.823],[110.145,-7.8235],[110.144,-7.824],[110.1435,-7.823],[110.1415,-7.8165],[110.1415,-7.815],[110.14,-7.814],[110.1395,-7.813],[110.1365,-7.812],[110.135,-7.81],[110.135,-7.8095],[110.134,-7.8085]]]},"properties":{"code":"34.01.07.2002","name":"Karangsari","latitude":-7.839601418377864,"longitude":110.13548688495935}},{"type":"Feature","geometry":{"type":"Polygon","coordinates":[[[110.1955,-7.857],[110.1945,-7.855],[110.1945,-7.8505],[110.1935,-7.848],[110.1915,-7.848],[110.1785,-7.864],[110.1775,-7.863],[110.1775,-7.862],[110.1755,-7.862],[110.1745,-7.8625],[110.1735,-7.8695],[110.176,-7.8745],[110.1755,-7.877],[110.175,-7.877],[110.177,-7.876],[110.178,-7.8775],[110.176,-7.877],[110.1755,-7.8805],[110.1785,-7.8795],[110.1785,-7.8785],[110.1795,-7.878],[110.1795,-7.8775],[110.1805,-7.8775],[110.18,-7.875],[110.1885,-7.8755],[110.19,-7.876],[110.195,-7.8765],[110.201,-7.8735],[110.206,-7.8765],[110.2055,-7.876],[110.206,-7.8755],[110.2055,-7.875],[110.2045,-7.874],[110.2025,-7.872],[110.196,-7.858],[110.1955,-7.857]]]},"properties":{"code":"34.01.07.2003","name":"Kedungsari","latitude":-7.866750471933609,"longitude":110.18928720390211}},{"type":"Feature","geometry":{"type":"Polygon","coordinates":[[[110.1915,-7.848],[110.192,-7.847],[110.186,-7.8395],[110.1845,-7.84],[110.167,-7.854],[110.163,-7.857],[110.163,-7.8585],[110.1625,-7.86],[110.163,-7.8615],[110.1655,-7.862],[110.166,-7.8615],[110.1675,-7.8605],[110.1715,-7.862],[110.1745,-7.8625],[110.1755,-7.862],[110.1775,-7.862],[110.1775,-7.863],[110.1785,-7.864],[110.1915,-7.848]]]},"properties":{"code":"34.01.07.2004","name":"Margosari","latitude":-7.854049618737002,"longitude":110.1791280647543}},{"type":"Feature","geometry":{"type":"Polygon","coordinates":[[[110.1845,-7.84],[110.1835,-7.84],[110.182,-7.8255],[110.182,-7.825],[110.1735,-7.8305],[110.1725,-7.8305],[110.165,-7.8405],[110.164,-7.843],[110.159,-7.8445],[110.1565,-7.8445],[110.149,-7.839],[110.145,-7.839],[110.143,-7.838],[110.1425,-7.8385],[110.142,-7.839],[110.1415,-7.839],[110.1425,-7.839],[110.144,-7.8395],[110.1445,-7.84],[110.1445,-7.842],[110.15,-7.8465],[110.151,-7.853],[110.1595,-7.853],[110.161,-7.856],[110.1625,-7.8575],[110.167,-7.854],[110.1845,-7.84]]]},"properties":{"code":"34.01.07.2005","name":"Pengasih","latitude":-7.843226972097637,"longitude":110.16643858535352}},{"type":"Feature","geometry":{"type":"Polygon","coordinates":[[[110.1685,-7.8135],[110.163,-7.8155],[110.163,-7.815],[110.1435,-7.802],[110.1435,-7.801],[110.143,-7.7985],[110.142,-7.799],[110.139,-7.8],[110.1315,-7.8035],[110.133,-7.807],[110.134,-7.8085],[110.135,-7.8095],[110.135,-7.81],[110.1365,-7.812],[110.1395,-7.813],[110.14,-7.814],[110.1415,-7.815],[110.1415,-7.8165],[110.1435,-7.823],[110.144,-7.824],[110.145,-7.8235],[110.146,-7.823],[110.149,-7.8295],[110.146,-7.8335],[110.1435,-7.8375],[110.143,-7.838],[110.145,-7.839],[110.149,-7.839],[110.1565,-7.8445],[110.159,-7.8445],[110.164,-7.843],[110.165,-7.8405],[110.1725,-7.8305],[110.1735,-7.8305],[110.182,-7.825],[110.1815,-7.8205],[110.1685,-7.8185],[110.1685,-7.8175],[110.1685,-7.8155],[110.1685,-7.8135]]]},"properties":{"code":"34.01.07.2006","name":"Sendangsari","latitude":-7.82253956522998,"longitude":110.15576237342476}},{"type":"Feature","geometry":{"type":"Polygon","coordinates":[[[110.154,-7.7705],[110.1425,-7.761],[110.141,-7.762],[110.1375,-7.7665],[110.1385,-7.77],[110.1405,-7.779],[110.1385,-7.7805],[110.13,-7.784],[110.141,-7.7935],[110.1435,-7.7975],[110.1435,-7.798],[110.143,-7.7985],[110.1435,-7.801],[110.1435,-7.802],[110.163,-7.815],[110.163,-7.8155],[110.1685,-7.8135],[110.1685,-7.8115],[110.169,-7.8015],[110.1695,-7.8005],[110.169,-7.7895],[110.1705,-7.7885],[110.159,-7.783],[110.156,-7.772],[110.1535,-7.771],[110.154,-7.7705]]]},"properties":{"code":"34.01.07.2007","name":"Sidomulyo","latitude":-7.788579333426567,"longitude":110.15227938878857}},{"type":"Feature","geometry":{"type":"Polygon","coordinates":[[[110.1015,-7.8655],[110.0915,-7.8415],[110.0915,-7.8395],[110.0905,-7.838],[110.0895,-7.8375],[110.0885,-7.8375],[110.0875,-7.8375],[110.088,-7.839],[110.0725,-7.847],[110.0695,-7.8475],[110.059,-7.8405],[110.0565,-7.839],[110.0525,-7.8395],[110.05,-7.8415],[110.051,-7.843],[110.0515,-7.8435],[110.043,-7.8675],[110.0425,-7.868],[110.043,-7.868],[110.0465,-7.8695],[110.0465,-7.87],[110.049,-7.8705],[110.06,-7.87],[110.0605,-7.87],[110.062,-7.8705],[110.066,-7.8735],[110.069,-7.874],[110.0695,-7.872],[110.0765,-7.8705],[110.077,-7.869],[110.0855,-7.871],[110.0865,-7.8675],[110.0865,-7.8645],[110.092,-7.8635],[110.095,-7.8635],[110.1015,-7.8655]]]},"properties":{"code":"34.01.08.2001","name":"Hargomulyo","latitude":-7.856629985815405,"longitude":110.07055769977336}},{"type":"Feature","geometry":{"type":"Polygon","coordinates":[[[110.1265,-7.8395],[110.126,-7.8395],[110.115,-7.8425],[110.109,-7.8305],[110.101,-7.8285],[110.0995,-7.828],[110.0845,-7.834],[110.0845,-7.835],[110.0845,-7.8355],[110.087,-7.838],[110.088,-7.839],[110.0875,-7.8375],[110.0885,-7.8375],[110.0895,-7.8375],[110.0905,-7.838],[110.0915,-7.8395],[110.0915,-7.8415],[110.1015,-7.8655],[110.11,-7.8685],[110.1125,-7.877],[110.112,-7.8805],[110.112,-7.881],[110.1255,-7.8735],[110.1255,-7.8695],[110.131,-7.8505],[110.131,-7.8455],[110.1265,-7.8395]]]},"properties":{"code":"34.01.08.2002","name":"Hargorejo","latitude":-7.85137738718957,"longitude":110.11013841705719}},{"type":"Feature","geometry":{"type":"Polygon","coordinates":[[[110.13,-7.784],[110.1195,-7.7845],[110.1195,-7.7855],[110.1255,-7.795],[110.114,-7.807],[110.1105,-7.8095],[110.1085,-7.8105],[110.1005,-7.8195],[110.1,-7.8205],[110.099,-7.822],[110.0985,-7.823],[110.097,-7.8235],[110.0955,-7.824],[110.0975,-7.827],[110.101,-7.8285],[110.109,-7.8305],[110.115,-7.8425],[110.126,-7.8395],[110.127,-7.838],[110.127,-7.837],[110.1275,-7.8345],[110.127,-7.834],[110.1255,-7.829],[110.125,-7.828],[110.1255,-7.827],[110.1245,-7.8175],[110.125,-7.816],[110.125,-7.8155],[110.125,-7.814],[110.1255,-7.812],[110.127,-7.8065],[110.13,-7.808],[110.1315,-7.808],[110.1325,-7.81],[110.134,-7.8085],[110.133,-7.807],[110.1315,-7.8035],[110.139,-7.8],[110.142,-7.799],[110.1435,-7.798],[110.1435,-7.7975],[110.141,-7.7935],[110.13,-7.784]]]},"properties":{"code":"34.01.08.2003","name":"Hargowilis","latitude":-7.814723921285117,"longitude":110.11961368244363}},{"type":"Feature","geometry":{"type":"Polygon","coordinates":[[[110.0995,-7.8205],[110.086,-7.8125],[110.084,-7.8105],[110.0825,-7.8055],[110.081,-7.805],[110.073,-7.811],[110.072,-7.8105],[110.066,-7.8115],[110.064,-7.812],[110.0635,-7.812],[110.063,-7.8125],[110.063,-7.813],[110.062,-7.8155],[110.062,-7.819],[110.0615,-7.8215],[110.0605,-7.8215],[110.0605,-7.8225],[110.059,-7.8255],[110.0585,-7.8355],[110.0595,-7.8365],[110.0595,-7.8385],[110.059,-7.8385],[110.059,-7.8405],[110.0695,-7.8475],[110.0725,-7.847],[110.088,-7.839],[110.087,-7.838],[110.0845,-7.8355],[110.0845,-7.835],[110.0845,-7.834],[110.0995,-7.828],[110.0975,-7.827],[110.0955,-7.824],[110.097,-7.8235],[110.0985,-7.823],[110.099,-7.822],[110.1,-7.8205],[110.0995,-7.8205]]]},"properties":{"code":"34.01.08.2004","name":"Kalirejo","latitude":-7.827710613465059,"longitude":110.07530213166461}},{"type":"Feature","geometry":{"type":"Polygon","coordinates":[[[110.1105,-7.778],[110.1025,-7.7785],[110.0905,-7.79],[110.0895,-7.794],[110.0845,-7.801],[110.0835,-7.802],[110.082,-7.804],[110.0815,-7.804],[110.0825,-7.8055],[110.084,-7.8105],[110.086,-7.8125],[110.0995,-7.8205],[110.1005,-7.8195],[110.1085,-7.8105],[110.1105,-7.8095],[110.114,-7.807],[110.1255,-7.795],[110.1195,-7.7855],[110.119,-7.784],[110.118,-7.7815],[110.1115,-7.779],[110.1105,-7.778]]]},"properties":{"code":"34.01.08.2005","name":"Hargotirto","latitude":-7.797472465609345,"longitude":110.10326850266254}},{"type":"Feature","geometry":{"type":"Polygon","coordinates":[[[110.1555,-7.7355],[110.142,-7.729],[110.14,-7.731],[110.1365,-7.7365],[110.136,-7.741],[110.1305,-7.745],[110.1305,-7.747],[110.13,-7.748],[110.1215,-7.755],[110.12,-7.7565],[110.1195,-7.7575],[110.119,-7.7575],[110.1175,-7.759],[110.1105,-7.7775],[110.1115,-7.779],[110.118,-7.7815],[110.119,-7.784],[110.1195,-7.7845],[110.13,-7.784],[110.1385,-7.7805],[110.1405,-7.779],[110.1385,-7.77],[110.1375,-7.7665],[110.141,-7.762],[110.1425,-7.761],[110.154,-7.7705],[110.155,-7.7695],[110.162,-7.761],[110.154,-7.754],[110.154,-7.752],[110.1535,-7.7515],[110.1545,-7.749],[110.156,-7.7475],[110.155,-7.7465],[110.155,-7.7455],[110.1535,-7.7445],[110.1555,-7.7355]]]},"properties":{"code":"34.01.09.2001","name":"Jatimulyo","latitude":-7.758788690767841,"longitude":110.13567627636505}},{"type":"Feature","geometry":{"type":"Polygon","coordinates":[[[110.1625,-7.7375],[110.1615,-7.737],[110.1575,-7.7365],[110.156,-7.736],[110.1555,-7.7355],[110.1535,-7.7445],[110.155,-7.7455],[110.155,-7.7465],[110.156,-7.7475],[110.1545,-7.749],[110.1535,-7.7515],[110.154,-7.752],[110.154,-7.754],[110.162,-7.761],[110.155,-7.7695],[110.1535,-7.771],[110.156,-7.772],[110.159,-7.783],[110.1705,-7.7885],[110.171,-7.7885],[110.171,-7.789],[110.173,-7.7885],[110.174,-7.7885],[110.176,-7.787],[110.1885,-7.7825],[110.1885,-7.782],[110.188,-7.78],[110.192,-7.768],[110.193,-7.768],[110.193,-7.767],[110.19,-7.763],[110.1855,-7.76],[110.1775,-7.75],[110.1715,-7.7455],[110.169,-7.7445],[110.1615,-7.7395],[110.1625,-7.7375]]]},"properties":{"code":"34.01.09.2002","name":"Giripurwo","latitude":-7.7649826435215745,"longitude":110.17100921249721}},{"type":"Feature","geometry":{"type":"Polygon","coordinates":[[[110.2,-7.736],[110.1995,-7.7325],[110.1895,-7.7275],[110.1875,-7.725],[110.187,-7.7235],[110.1865,-7.7235],[110.185,-7.726],[110.17,-7.7375],[110.1635,-7.737],[110.1625,-7.7375],[110.1615,-7.7395],[110.169,-7.7445],[110.1715,-7.7455],[110.1775,-7.75],[110.1855,-7.76],[110.19,-7.763],[110.193,-7.767],[110.193,-7.768],[110.1975,-7.768],[110.199,-7.7645],[110.2,-7.7615],[110.1995,-7.757],[110.2005,-7.751],[110.197,-7.7505],[110.2005,-7.7365],[110.2,-7.736]]]},"properties":{"code":"34.01.09.2003","name":"Pendoworejo","latitude":-7.745269827174719,"longitude":110.18683125738067}},{"type":"Feature","geometry":{"type":"Polygon","coordinates":[[[110.168,-7.712],[110.1635,-7.7195],[110.1635,-7.7215],[110.1615,-7.721],[110.1475,-7.7155],[110.146,-7.715],[110.145,-7.715],[110.1435,-7.7165],[110.1405,-7.716],[110.1395,-7.716],[110.14,-7.7155],[110.14,-7.7125],[110.1365,-7.7105],[110.134,-7.7115],[110.133,-7.71],[110.1305,-7.7105],[110.13,-7.711],[110.1275,-7.7165],[110.1285,-7.716],[110.134,-7.7195],[110.132,-7.723],[110.124,-7.7295],[110.124,-7.7305],[110.1245,-7.731],[110.126,-7.7315],[110.128,-7.733],[110.131,-7.7385],[110.1305,-7.7395],[110.13,-7.7405],[110.129,-7.744],[110.1305,-7.745],[110.136,-7.741],[110.1365,-7.7365],[110.14,-7.731],[110.142,-7.729],[110.1555,-7.7355],[110.156,-7.736],[110.1575,-7.7365],[110.1615,-7.737],[110.1635,-7.737],[110.17,-7.7375],[110.185,-7.726],[110.1865,-7.7235],[110.187,-7.7235],[110.188,-7.7235],[110.1885,-7.723],[110.1905,-7.7225],[110.1915,-7.7215],[110.1865,-7.7195],[110.186,-7.72],[110.1855,-7.7205],[110.1835,-7.72],[110.1835,-7.719],[110.1765,-7.718],[110.1745,-7.718],[110.168,-7.712]]]},"properties":{"code":"34.01.09.2004","name":"Purwosari","latitude":-7.725685452523285,"longitude":110.15516487257632}},{"type":"Feature","geometry":{"type":"Polygon","coordinates":[[[110.1885,-7.7825],[110.176,-7.787],[110.174,-7.7885],[110.173,-7.7885],[110.171,-7.789],[110.171,-7.7885],[110.169,-7.7895],[110.1695,-7.8005],[110.169,-7.8015],[110.1685,-7.8115],[110.1685,-7.8155],[110.1685,-7.8175],[110.1685,-7.8185],[110.1815,-7.8205],[110.1875,-7.808],[110.1885,-7.807],[110.191,-7.8025],[110.191,-7.801],[110.1905,-7.799],[110.1855,-7.7915],[110.1875,-7.792],[110.1875,-7.791],[110.1885,-7.79],[110.189,-7.789],[110.1885,-7.7825]]]},"properties":{"code":"34.01.10.2001","name":"Banyuroto","latitude":-7.803459277222015,"longitude":110.17788979491358}},{"type":"Feature","geometry":{"type":"Polygon","coordinates":[[[110.2245,-7.805],[110.2235,-7.803],[110.225,-7.801],[110.2225,-7.7995],[110.221,-7.798],[110.207,-7.7905],[110.205,-7.7905],[110.1925,-7.7955],[110.191,-7.801],[110.191,-7.8025],[110.1885,-7.807],[110.1875,-7.808],[110.1815,-7.8205],[110.182,-7.825],[110.183,-7.8235],[110.1995,-7.8235],[110.2015,-7.8215],[110.2055,-7.8245],[110.206,-7.8235],[110.206,-7.8115],[110.2245,-7.805]]]},"properties":{"code":"34.01.10.2002","name":"Donomulyo","latitude":-7.8073893851337814,"longitude":110.20104335355038}},{"type":"Feature","geometry":{"type":"Polygon","coordinates":[[[110.22,-7.775],[110.2175,-7.77],[110.217,-7.77],[110.2125,-7.7735],[110.2115,-7.776],[110.2085,-7.7735],[110.203,-7.7895],[110.207,-7.7905],[110.221,-7.798],[110.2225,-7.7995],[110.225,-7.801],[110.2235,-7.803],[110.2255,-7.8055],[110.2285,-7.8055],[110.229,-7.804],[110.233,-7.802],[110.2355,-7.7995],[110.236,-7.798],[110.2335,-7.7935],[110.233,-7.7915],[110.232,-7.79],[110.229,-7.789],[110.229,-7.7885],[110.2285,-7.7855],[110.22,-7.777],[110.22,-7.775]]]},"properties":{"code":"34.01.10.2003","name":"Wijimulyo","latitude":-7.787891166461065,"longitude":110.2196989784755}},{"type":"Feature","geometry":{"type":"Polygon","coordinates":[[[110.2085,-7.7735],[110.203,-7.7675],[110.199,-7.7645],[110.1975,-7.768],[110.1955,-7.768],[110.192,-7.768],[110.188,-7.78],[110.1885,-7.782],[110.1885,-7.7825],[110.189,-7.789],[110.1885,-7.79],[110.1875,-7.791],[110.1875,-7.792],[110.1855,-7.7915],[110.1905,-7.799],[110.1925,-7.7955],[110.205,-7.7905],[110.203,-7.7895],[110.2085,-7.7735]]]},"properties":{"code":"34.01.10.2004","name":"Tanjungharjo","latitude":-7.7818457845595015,"longitude":110.19710956866614}},{"type":"Feature","geometry":{"type":"Polygon","coordinates":[[[110.219,-7.7565],[110.2055,-7.7525],[110.202,-7.7515],[110.2005,-7.751],[110.1995,-7.757],[110.2,-7.7615],[110.199,-7.7645],[110.203,-7.7675],[110.2085,-7.7735],[110.2115,-7.776],[110.2125,-7.7735],[110.217,-7.77],[110.2175,-7.77],[110.22,-7.775],[110.2205,-7.774],[110.219,-7.757],[110.219,-7.7565]]]},"properties":{"code":"34.01.10.2005","name":"Jatisarono","latitude":-7.762937902432689,"longitude":110.21059713646835}},{"type":"Feature","geometry":{"type":"Polygon","coordinates":[[[110.22,-7.7355],[110.2015,-7.736],[110.2005,-7.7365],[110.197,-7.7505],[110.2015,-7.7515],[110.2055,-7.7525],[110.219,-7.7565],[110.22,-7.755],[110.22,-7.754],[110.2185,-7.753],[110.219,-7.747],[110.2165,-7.7435],[110.216,-7.742],[110.217,-7.7375],[110.22,-7.7355]]]},"properties":{"code":"34.01.10.2006","name":"Kembang","latitude":-7.744427193755346,"longitude":110.20887652391254}},{"type":"Feature","geometry":{"type":"Polygon","coordinates":[[[110.168,-7.712],[110.168,-7.7075],[110.1695,-7.707],[110.169,-7.706],[110.1675,-7.705],[110.164,-7.703],[110.163,-7.7015],[110.156,-7.6995],[110.1535,-7.699],[110.1375,-7.6955],[110.134,-7.697],[110.133,-7.698],[110.133,-7.6995],[110.1315,-7.7015],[110.131,-7.71],[110.1305,-7.7105],[110.133,-7.71],[110.134,-7.7115],[110.1365,-7.7105],[110.14,-7.7125],[110.14,-7.7155],[110.1395,-7.716],[110.1405,-7.716],[110.1435,-7.7165],[110.145,-7.715],[110.146,-7.715],[110.1475,-7.7155],[110.1615,-7.721],[110.1635,-7.7215],[110.1635,-7.7195],[110.168,-7.712]]]},"properties":{"code":"34.01.11.2001","name":"Kebonharjo","latitude":-7.707641195772427,"longitude":110.15025933823091}},{"type":"Feature","geometry":{"type":"Polygon","coordinates":[[[110.1565,-7.6805],[110.152,-7.6775],[110.152,-7.678],[110.1515,-7.679],[110.1505,-7.681],[110.15,-7.683],[110.1385,-7.6945],[110.1375,-7.6955],[110.1535,-7.699],[110.156,-7.6995],[110.163,-7.7015],[110.164,-7.703],[110.1675,-7.705],[110.169,-7.706],[110.1695,-7.707],[110.168,-7.7075],[110.168,-7.712],[110.1745,-7.718],[110.1765,-7.718],[110.1835,-7.719],[110.1855,-7.72],[110.1855,-7.7195],[110.186,-7.7185],[110.186,-7.7175],[110.187,-7.7155],[110.181,-7.7],[110.17,-7.6955],[110.166,-7.6925],[110.1625,-7.6895],[110.1615,-7.688],[110.16,-7.6875],[110.156,-7.687],[110.1555,-7.6865],[110.1565,-7.6805]]]},"properties":{"code":"34.01.11.2002","name":"Banjarsari","latitude":-7.700443794373067,"longitude":110.166173511029}},{"type":"Feature","geometry":{"type":"Polygon","coordinates":[[[110.206,-7.684],[110.2055,-7.684],[110.1995,-7.6825],[110.197,-7.6825],[110.189,-7.6835],[110.188,-7.6845],[110.188,-7.6855],[110.1865,-7.6865],[110.187,-7.6865],[110.1865,-7.687],[110.181,-7.693],[110.168,-7.694],[110.17,-7.6955],[110.181,-7.7],[110.187,-7.7155],[110.207,-7.7155],[110.2045,-7.703],[110.206,-7.7],[110.2055,-7.7],[110.2065,-7.699],[110.207,-7.6975],[110.2075,-7.6975],[110.2075,-7.697],[110.2055,-7.6965],[110.207,-7.6945],[110.2055,-7.691],[110.2055,-7.6865],[110.206,-7.684]]]},"properties":{"code":"34.01.11.2003","name":"Purwoharjo","latitude":-7.698851722528454,"longitude":110.19413172714624}},{"type":"Feature","geometry":{"type":"Polygon","coordinates":[[[110.2095,-7.6505],[110.1995,-7.653],[110.1915,-7.647],[110.184,-7.6465],[110.1875,-7.6675],[110.1775,-7.679],[110.1865,-7.6865],[110.188,-7.6855],[110.188,-7.6845],[110.189,-7.6835],[110.197,-7.6825],[110.1995,-7.6825],[110.2055,-7.684],[110.206,-7.684],[110.2075,-7.685],[110.22,-7.6755],[110.22,-7.675],[110.212,-7.666],[110.2095,-7.6505]]]},"properties":{"code":"34.01.11.2004","name":"Sidoharjo","latitude":-7.668215953498462,"longitude":110.19745926472095}},{"type":"Feature","geometry":{"type":"Polygon","coordinates":[[[110.1865,-7.6865],[110.1775,-7.679],[110.1875,-7.6675],[110.184,-7.6465],[110.1705,-7.6485],[110.169,-7.6485],[110.169,-7.65],[110.1675,-7.6565],[110.1635,-7.67],[110.163,-7.671],[110.1565,-7.6805],[110.1555,-7.6865],[110.156,-7.687],[110.16,-7.6875],[110.1615,-7.688],[110.1625,-7.6895],[110.166,-7.6925],[110.168,-7.694],[110.181,-7.693],[110.1865,-7.687],[110.187,-7.6865],[110.1865,-7.6865]]]},"properties":{"code":"34.01.11.2005","name":"Gerbosari","latitude":-7.671590758504975,"longitude":110.17329243794939}},{"type":"Feature","geometry":{"type":"Polygon","coordinates":[[[110.158,-7.647],[110.154,-7.6465],[110.1495,-7.6475],[110.149,-7.6485],[110.145,-7.6505],[110.144,-7.65],[110.1445,-7.6605],[110.1445,-7.6615],[110.147,-7.6675],[110.1505,-7.6725],[110.1515,-7.673],[110.153,-7.674],[110.1535,-7.675],[110.152,-7.677],[110.152,-7.6775],[110.1565,-7.6805],[110.163,-7.671],[110.1635,-7.67],[110.1675,-7.6565],[110.169,-7.65],[110.169,-7.6485],[110.158,-7.647]]]},"properties":{"code":"34.01.11.2006","name":"Ngargosari","latitude":-7.660339004079138,"longitude":110.15646779450307}},{"type":"Feature","geometry":{"type":"Polygon","coordinates":[[[110.144,-7.65],[110.142,-7.645],[110.1415,-7.645],[110.141,-7.6455],[110.141,-7.6485],[110.14,-7.6515],[110.14,-7.6525],[110.1385,-7.654],[110.1365,-7.654],[110.1335,-7.654],[110.1155,-7.6735],[110.116,-7.6755],[110.1275,-7.683],[110.1285,-7.683],[110.1385,-7.6945],[110.15,-7.683],[110.1505,-7.681],[110.1515,-7.679],[110.152,-7.678],[110.152,-7.677],[110.1535,-7.675],[110.153,-7.674],[110.1515,-7.673],[110.1505,-7.6725],[110.147,-7.6675],[110.1445,-7.6615],[110.1445,-7.6605],[110.144,-7.65]]]},"properties":{"code":"34.01.11.2007","name":"Pagerharjo","latitude":-7.6719640368843445,"longitude":110.13596093722938}},{"type":"Feature","geometry":{"type":"Polygon","coordinates":[[[110.232,-7.715],[110.223,-7.701],[110.2105,-7.6995],[110.2085,-7.697],[110.2075,-7.697],[110.2075,-7.6975],[110.207,-7.6975],[110.2065,-7.699],[110.2055,-7.7],[110.206,-7.7],[110.2045,-7.703],[110.207,-7.7155],[110.187,-7.7155],[110.186,-7.7175],[110.186,-7.7185],[110.1855,-7.7195],[110.1855,-7.72],[110.1865,-7.7195],[110.1915,-7.7215],[110.1905,-7.7225],[110.1885,-7.723],[110.188,-7.7235],[110.187,-7.7235],[110.1875,-7.725],[110.1895,-7.7275],[110.1995,-7.7325],[110.2,-7.736],[110.2015,-7.736],[110.22,-7.7355],[110.2205,-7.7355],[110.2315,-7.717],[110.232,-7.715]]]},"properties":{"code":"34.01.12.2001","name":"Banjararum","latitude":-7.718910796968733,"longitude":110.21146865194086}},{"type":"Feature","geometry":{"type":"Polygon","coordinates":[[[110.228,-7.6745],[110.227,-7.675],[110.2255,-7.674],[110.2205,-7.6755],[110.22,-7.675],[110.22,-7.6755],[110.2075,-7.685],[110.206,-7.684],[110.2055,-7.6865],[110.2055,-7.691],[110.207,-7.6945],[110.2055,-7.6965],[110.2085,-7.697],[110.2105,-7.6995],[110.223,-7.701],[110.232,-7.715],[110.2325,-7.7135],[110.2395,-7.712],[110.2445,-7.71],[110.2455,-7.71],[110.2455,-7.7085],[110.2455,-7.708],[110.243,-7.7055],[110.2405,-7.69],[110.229,-7.6825],[110.228,-7.6745]]]},"properties":{"code":"34.01.12.2002","name":"Banjarasri","latitude":-7.693345374181897,"longitude":110.22550880403334}},{"type":"Feature","geometry":{"type":"Polygon","coordinates":[[[110.2645,-7.6815],[110.2635,-7.6775],[110.262,-7.678],[110.2615,-7.6775],[110.248,-7.6675],[110.2455,-7.6675],[110.233,-7.6725],[110.232,-7.6725],[110.2295,-7.6715],[110.228,-7.6725],[110.2285,-7.674],[110.228,-7.6745],[110.229,-7.6825],[110.2405,-7.69],[110.243,-7.7055],[110.2455,-7.708],[110.2455,-7.7085],[110.2455,-7.71],[110.2475,-7.71],[110.2525,-7.7085],[110.2545,-7.7075],[110.263,-7.7055],[110.2675,-7.707],[110.2685,-7.707],[110.27,-7.706],[110.27,-7.7055],[110.266,-7.6935],[110.2635,-7.688],[110.261,-7.686],[110.2645,-7.6815]]]},"properties":{"code":"34.01.12.2003","name":"Banjarharjo","latitude":-7.688086477007434,"longitude":110.25000677662277}},{"type":"Feature","geometry":{"type":"Polygon","coordinates":[[[110.2515,-7.642],[110.2505,-7.643],[110.2485,-7.646],[110.2455,-7.6495],[110.238,-7.653],[110.2355,-7.652],[110.226,-7.6495],[110.2185,-7.647],[110.2105,-7.6495],[110.2095,-7.6505],[110.212,-7.666],[110.22,-7.675],[110.22,-7.6755],[110.2205,-7.6755],[110.2255,-7.674],[110.227,-7.675],[110.228,-7.6745],[110.2285,-7.674],[110.228,-7.6725],[110.2295,-7.6715],[110.232,-7.6725],[110.233,-7.6725],[110.2455,-7.6675],[110.248,-7.6675],[110.2615,-7.6775],[110.262,-7.678],[110.2635,-7.6775],[110.2635,-7.661],[110.263,-7.661],[110.2635,-7.6575],[110.264,-7.6525],[110.254,-7.642],[110.2515,-7.642]]]},"properties":{"code":"34.01.12.2004","name":"Banjaroyo","latitude":-7.6598574481663935,"longitude":110.23934414714986}}]}