{"type":"FeatureCollection","features":[{"type":"Feature","geometry":{"type":"Polygon","coordinates":[[[110.308,-7.7895],[110.3045,-7.7915],[110.3025,-7.7925],[110.296,-7.7915],[110.294,-7.7915],[110.2895,-7.795],[110.2825,-7.8075],[110.2885,-7.824],[110.287,-7.8335],[110.2915,-7.835],[110.3025,-7.826],[110.3035,-7.826],[110.309,-7.816],[110.3095,-7.815],[110.308,-7.805],[110.3065,-7.805],[110.3065,-7.8045],[110.3135,-7.8005],[110.3135,-7.799],[110.31,-7.7935],[110.3125,-7.793],[110.3125,-7.7925],[110.31,-7.7915],[110.308,-7.7915],[110.3085,-7.79],[110.308,-7.7895]]]},"properties":{"code":"34.04.01.2001","name":"Balecatur"}},{"type":"Feature","geometry":{"type":"Polygon","coordinates":[[[110.326,-7.7825],[110.314,-7.793],[110.31,-7.7935],[110.3135,-7.799],[110.3135,-7.8005],[110.3065,-7.8045],[110.3065,-7.805],[110.308,-7.805],[110.3095,-7.815],[110.309,-7.816],[110.3035,-7.826],[110.3035,-7.8265],[110.3095,-7.8185],[110.3115,-7.818],[110.3165,-7.8235],[110.3165,-7.823],[110.314,-7.8195],[110.3145,-7.8185],[110.3145,-7.815],[110.3145,-7.811],[110.316,-7.811],[110.315,-7.81],[110.3145,-7.8095],[110.316,-7.805],[110.3165,-7.806],[110.3185,-7.807],[110.319,-7.8065],[110.3305,-7.8065],[110.331,-7.806],[110.332,-7.803],[110.33,-7.8015],[110.328,-7.7995],[110.328,-7.797],[110.328,-7.7855],[110.3275,-7.784],[110.326,-7.783],[110.326,-7.7825]]]},"properties":{"code":"34.04.01.2002","name":"Ambarketawang"}},{"type":"Feature","geometry":{"type":"Polygon","coordinates":[[[110.3465,-7.7835],[110.3475,-7.782],[110.3475,-7.7805],[110.347,-7.7815],[110.347,-7.782],[110.3455,-7.782],[110.344,-7.78],[110.334,-7.7775],[110.3305,-7.7785],[110.3285,-7.7775],[110.327,-7.781],[110.326,-7.7815],[110.326,-7.783],[110.3275,-7.784],[110.328,-7.7855],[110.328,-7.797],[110.328,-7.7995],[110.33,-7.8015],[110.331,-7.8],[110.3435,-7.792],[110.344,-7.7905],[110.3465,-7.7835]]]},"properties":{"code":"34.04.01.2003","name":"Banyuraden"}},{"type":"Feature","geometry":{"type":"Polygon","coordinates":[[[110.3325,-7.757],[110.3315,-7.757],[110.331,-7.757],[110.3305,-7.7575],[110.3295,-7.7605],[110.329,-7.765],[110.328,-7.7685],[110.329,-7.7775],[110.3285,-7.7775],[110.3305,-7.7785],[110.334,-7.7775],[110.344,-7.78],[110.3455,-7.782],[110.347,-7.782],[110.347,-7.7815],[110.3475,-7.7805],[110.348,-7.78],[110.35,-7.7685],[110.3505,-7.768],[110.35,-7.768],[110.349,-7.7675],[110.3465,-7.77],[110.3405,-7.7685],[110.341,-7.7635],[110.3325,-7.757]]]},"properties":{"code":"34.04.01.2004","name":"Nogotirto"}},{"type":"Feature","geometry":{"type":"Polygon","coordinates":[[[110.353,-7.747],[110.349,-7.7355],[110.347,-7.737],[110.338,-7.7465],[110.337,-7.7505],[110.3335,-7.7525],[110.334,-7.7545],[110.3325,-7.756],[110.3325,-7.7565],[110.3325,-7.757],[110.341,-7.7635],[110.3405,-7.7685],[110.3465,-7.77],[110.349,-7.7675],[110.35,-7.768],[110.3505,-7.768],[110.3505,-7.7675],[110.351,-7.768],[110.3515,-7.768],[110.3515,-7.77],[110.353,-7.772],[110.353,-7.767],[110.352,-7.766],[110.351,-7.7645],[110.352,-7.7505],[110.353,-7.7505],[110.353,-7.75],[110.354,-7.749],[110.3525,-7.748],[110.353,-7.747]]]},"properties":{"code":"34.04.01.2005","name":"Trihanggo"}},{"type":"Feature","geometry":{"type":"Polygon","coordinates":[[[110.2755,-7.738],[110.275,-7.738],[110.27,-7.735],[110.264,-7.735],[110.2635,-7.7365],[110.265,-7.7405],[110.264,-7.742],[110.2645,-7.7425],[110.2645,-7.744],[110.2705,-7.7465],[110.2685,-7.7465],[110.2625,-7.767],[110.2625,-7.7695],[110.2665,-7.775],[110.267,-7.7735],[110.27,-7.7665],[110.2705,-7.763],[110.288,-7.7565],[110.2885,-7.757],[110.2895,-7.7565],[110.29,-7.7565],[110.288,-7.752],[110.288,-7.751],[110.287,-7.751],[110.287,-7.752],[110.2825,-7.7505],[110.2815,-7.749],[110.278,-7.743],[110.2775,-7.7405],[110.2755,-7.738]]]},"properties":{"code":"34.04.02.2001","name":"Sidorejo"}},{"type":"Feature","geometry":{"type":"Polygon","coordinates":[[[110.2895,-7.7565],[110.2885,-7.757],[110.288,-7.7565],[110.2705,-7.763],[110.27,-7.7675],[110.2705,-7.7705],[110.27,-7.7715],[110.2695,-7.7725],[110.282,-7.782],[110.2835,-7.7815],[110.285,-7.78],[110.2855,-7.78],[110.287,-7.781],[110.287,-7.7805],[110.2915,-7.775],[110.292,-7.773],[110.29,-7.7595],[110.29,-7.758],[110.29,-7.757],[110.2895,-7.7565]]]},"properties":{"code":"34.04.02.2002","name":"Sidoluhur"}},{"type":"Feature","geometry":{"type":"Polygon","coordinates":[[[110.2965,-7.7765],[110.295,-7.7765],[110.295,-7.7755],[110.292,-7.774],[110.2915,-7.775],[110.287,-7.7805],[110.287,-7.781],[110.2875,-7.782],[110.2845,-7.783],[110.283,-7.7865],[110.289,-7.7905],[110.287,-7.791],[110.2855,-7.7925],[110.2905,-7.793],[110.2895,-7.795],[110.294,-7.7915],[110.296,-7.7915],[110.3025,-7.7925],[110.3015,-7.791],[110.296,-7.777],[110.2965,-7.7765]]]},"properties":{"code":"34.04.02.2003","name":"Sidomulyo"}},{"type":"Feature","geometry":{"type":"Polygon","coordinates":[[[110.307,-7.767],[110.3075,-7.7655],[110.306,-7.7645],[110.3065,-7.758],[110.29,-7.758],[110.29,-7.7595],[110.292,-7.773],[110.292,-7.774],[110.295,-7.7755],[110.295,-7.7765],[110.2965,-7.7765],[110.297,-7.775],[110.307,-7.767]]]},"properties":{"code":"34.04.02.2004","name":"Sidoagung"}},{"type":"Feature","geometry":{"type":"Polygon","coordinates":[[[110.313,-7.762],[110.309,-7.763],[110.3075,-7.7665],[110.307,-7.767],[110.297,-7.775],[110.2965,-7.7765],[110.296,-7.777],[110.3015,-7.791],[110.3045,-7.7915],[110.308,-7.7895],[110.308,-7.788],[110.3095,-7.7855],[110.3115,-7.7815],[110.3095,-7.781],[110.308,-7.7805],[110.309,-7.7795],[110.3105,-7.7795],[110.314,-7.7765],[110.314,-7.7735],[110.3135,-7.77],[110.3135,-7.763],[110.313,-7.762]]]},"properties":{"code":"34.04.02.2005","name":"Sidokarto"}},{"type":"Feature","geometry":{"type":"Polygon","coordinates":[[[110.329,-7.7645],[110.3275,-7.762],[110.3245,-7.7625],[110.324,-7.7625],[110.3165,-7.7745],[110.314,-7.7765],[110.3105,-7.7795],[110.309,-7.7795],[110.308,-7.7805],[110.3095,-7.781],[110.3115,-7.7815],[110.3095,-7.7855],[110.308,-7.788],[110.3085,-7.79],[110.308,-7.7915],[110.31,-7.7915],[110.3125,-7.7925],[110.3125,-7.793],[110.314,-7.793],[110.326,-7.7825],[110.326,-7.7815],[110.327,-7.781],[110.3275,-7.7775],[110.329,-7.7775],[110.328,-7.7685],[110.329,-7.765],[110.329,-7.7645]]]},"properties":{"code":"34.04.02.2006","name":"Sidoarum"}},{"type":"Feature","geometry":{"type":"Polygon","coordinates":[[[110.324,-7.7625],[110.3225,-7.7585],[110.3225,-7.7455],[110.3155,-7.745],[110.315,-7.7465],[110.315,-7.747],[110.3145,-7.749],[110.313,-7.759],[110.3135,-7.76],[110.3135,-7.763],[110.3135,-7.77],[110.314,-7.7735],[110.3165,-7.7745],[110.324,-7.7625]]]},"properties":{"code":"34.04.02.2007","name":"Sidomoyo"}},{"type":"Feature","geometry":{"type":"Polygon","coordinates":[[[110.2575,-7.7855],[110.24,-7.7815],[110.2365,-7.781],[110.2325,-7.7905],[110.233,-7.7915],[110.2335,-7.7935],[110.236,-7.798],[110.2355,-7.7995],[110.233,-7.802],[110.229,-7.804],[110.2285,-7.806],[110.2325,-7.8135],[110.2335,-7.815],[110.2345,-7.8145],[110.234,-7.814],[110.2345,-7.812],[110.237,-7.8095],[110.2375,-7.809],[110.256,-7.7995],[110.2565,-7.801],[110.259,-7.799],[110.259,-7.7955],[110.2575,-7.7855]]]},"properties":{"code":"34.04.03.2001","name":"Sumberrahayu"}},{"type":"Feature","geometry":{"type":"Polygon","coordinates":[[[110.27,-7.7665],[110.267,-7.7735],[110.2665,-7.775],[110.2625,-7.7695],[110.2625,-7.7685],[110.2615,-7.7685],[110.26,-7.768],[110.2575,-7.7855],[110.259,-7.7955],[110.2605,-7.7975],[110.2625,-7.7965],[110.263,-7.7955],[110.2645,-7.7945],[110.2655,-7.7945],[110.267,-7.795],[110.2685,-7.7955],[110.27,-7.794],[110.2825,-7.785],[110.2845,-7.783],[110.2875,-7.782],[110.287,-7.781],[110.2855,-7.78],[110.285,-7.78],[110.2835,-7.7815],[110.282,-7.782],[110.2695,-7.7725],[110.27,-7.7715],[110.2705,-7.7705],[110.27,-7.7675],[110.27,-7.7665]]]},"properties":{"code":"34.04.03.2002","name":"Sumbersari"}},{"type":"Feature","geometry":{"type":"Polygon","coordinates":[[[110.2645,-7.741],[110.263,-7.739],[110.257,-7.7595],[110.25,-7.7575],[110.243,-7.756],[110.2395,-7.7725],[110.2395,-7.7735],[110.237,-7.78],[110.2365,-7.7805],[110.24,-7.7815],[110.2575,-7.7855],[110.26,-7.768],[110.2615,-7.7685],[110.2625,-7.7685],[110.2625,-7.767],[110.2685,-7.7465],[110.2705,-7.7465],[110.2645,-7.744],[110.2645,-7.7425],[110.264,-7.742],[110.2645,-7.741]]]},"properties":{"code":"34.04.03.2003","name":"Sumberagung"}},{"type":"Feature","geometry":{"type":"Polygon","coordinates":[[[110.243,-7.756],[110.23,-7.7535],[110.2195,-7.7535],[110.22,-7.754],[110.22,-7.755],[110.219,-7.757],[110.2205,-7.774],[110.22,-7.775],[110.22,-7.777],[110.2285,-7.7855],[110.229,-7.7885],[110.229,-7.789],[110.232,-7.79],[110.2325,-7.7905],[110.2365,-7.781],[110.2365,-7.7805],[110.237,-7.78],[110.2395,-7.7735],[110.2395,-7.7725],[110.243,-7.756]]]},"properties":{"code":"34.04.03.2004","name":"Sumberarum"}},{"type":"Feature","geometry":{"type":"Polygon","coordinates":[[[110.258,-7.7345],[110.2575,-7.7345],[110.2515,-7.7355],[110.2505,-7.7375],[110.245,-7.7565],[110.25,-7.7575],[110.257,-7.7595],[110.2615,-7.744],[110.26,-7.7435],[110.2595,-7.7455],[110.2585,-7.7455],[110.2595,-7.7445],[110.2585,-7.7435],[110.261,-7.737],[110.26,-7.7375],[110.26,-7.738],[110.259,-7.738],[110.259,-7.737],[110.2595,-7.7365],[110.258,-7.7345]]]},"properties":{"code":"34.04.04.2001","name":"Sendangarum"}},{"type":"Feature","geometry":{"type":"Polygon","coordinates":[[[110.2505,-7.7365],[110.2495,-7.7285],[110.2485,-7.728],[110.246,-7.7295],[110.238,-7.7305],[110.218,-7.7455],[110.219,-7.747],[110.2185,-7.753],[110.2195,-7.7535],[110.23,-7.7535],[110.245,-7.7565],[110.2505,-7.7375],[110.2505,-7.7365]]]},"properties":{"code":"34.04.04.2002","name":"Sendangmulyo"}},{"type":"Feature","geometry":{"type":"Polygon","coordinates":[[[110.246,-7.7295],[110.2505,-7.713],[110.2515,-7.714],[110.2545,-7.708],[110.2525,-7.7085],[110.2475,-7.71],[110.2445,-7.71],[110.2395,-7.712],[110.2325,-7.7135],[110.2315,-7.717],[110.2205,-7.7355],[110.217,-7.7375],[110.216,-7.742],[110.2165,-7.7435],[110.218,-7.7455],[110.238,-7.7305],[110.246,-7.7295]]]},"properties":{"code":"34.04.04.2003","name":"Sendangagung"}},{"type":"Feature","geometry":{"type":"Polygon","coordinates":[[[110.2685,-7.707],[110.2675,-7.707],[110.263,-7.7055],[110.2545,-7.7075],[110.2545,-7.708],[110.2515,-7.714],[110.2505,-7.713],[110.246,-7.7295],[110.2485,-7.728],[110.2495,-7.7285],[110.2505,-7.7365],[110.2515,-7.7355],[110.2575,-7.7345],[110.2585,-7.7345],[110.259,-7.733],[110.2595,-7.7305],[110.2605,-7.7285],[110.26,-7.728],[110.268,-7.7095],[110.268,-7.7075],[110.2685,-7.707]]]},"properties":{"code":"34.04.04.2004","name":"Sendangsari"}},{"type":"Feature","geometry":{"type":"Polygon","coordinates":[[[110.275,-7.7095],[110.274,-7.709],[110.2705,-7.7095],[110.268,-7.7075],[110.268,-7.7095],[110.26,-7.728],[110.2605,-7.7285],[110.2595,-7.7305],[110.259,-7.733],[110.2585,-7.7345],[110.258,-7.7345],[110.2595,-7.7365],[110.259,-7.737],[110.259,-7.7375],[110.2595,-7.738],[110.26,-7.738],[110.26,-7.7375],[110.261,-7.737],[110.2585,-7.7435],[110.2595,-7.7445],[110.2585,-7.7455],[110.2595,-7.7455],[110.26,-7.7435],[110.2615,-7.744],[110.263,-7.739],[110.2645,-7.741],[110.265,-7.7405],[110.2635,-7.7365],[110.264,-7.735],[110.27,-7.735],[110.275,-7.738],[110.2755,-7.738],[110.2795,-7.7345],[110.2795,-7.7255],[110.2715,-7.7165],[110.2715,-7.7155],[110.273,-7.715],[110.2735,-7.715],[110.275,-7.7095]]]},"properties":{"code":"34.04.04.2005","name":"Sendangrejo"}},{"type":"Feature","geometry":{"type":"Polygon","coordinates":[[[110.305,-7.741],[110.3045,-7.7415],[110.302,-7.7445],[110.302,-7.7435],[110.2915,-7.7395],[110.29,-7.741],[110.2885,-7.751],[110.288,-7.752],[110.29,-7.7565],[110.2895,-7.7565],[110.29,-7.757],[110.29,-7.758],[110.3065,-7.758],[110.306,-7.7645],[110.3075,-7.7655],[110.307,-7.767],[110.3075,-7.7665],[110.309,-7.763],[110.313,-7.762],[110.3135,-7.76],[110.313,-7.759],[110.3145,-7.749],[110.315,-7.747],[110.315,-7.7465],[110.315,-7.7455],[110.313,-7.7445],[110.31,-7.7465],[110.309,-7.7465],[110.3085,-7.7465],[110.305,-7.741]]]},"properties":{"code":"34.04.05.2001","name":"Margoluwih"}},{"type":"Feature","geometry":{"type":"Polygon","coordinates":[[[110.308,-7.7165],[110.3055,-7.7155],[110.303,-7.719],[110.294,-7.7295],[110.284,-7.7315],[110.2755,-7.738],[110.2775,-7.7405],[110.278,-7.743],[110.2815,-7.749],[110.2825,-7.7505],[110.287,-7.752],[110.287,-7.751],[110.288,-7.751],[110.2885,-7.751],[110.29,-7.741],[110.2915,-7.7395],[110.302,-7.7435],[110.302,-7.7445],[110.3045,-7.7415],[110.3045,-7.7395],[110.3045,-7.739],[110.3045,-7.7375],[110.3065,-7.721],[110.3055,-7.72],[110.308,-7.7165]]]},"properties":{"code":"34.04.05.2002","name":"Margodadi"}},{"type":"Feature","geometry":{"type":"Polygon","coordinates":[[[110.2905,-7.7085],[110.2895,-7.708],[110.2835,-7.7095],[110.2825,-7.71],[110.2805,-7.71],[110.278,-7.709],[110.276,-7.7095],[110.275,-7.7095],[110.2735,-7.715],[110.273,-7.715],[110.2715,-7.7155],[110.2715,-7.7165],[110.2795,-7.7255],[110.2795,-7.7345],[110.284,-7.7315],[110.294,-7.7295],[110.303,-7.719],[110.305,-7.716],[110.2915,-7.7155],[110.291,-7.715],[110.2895,-7.7125],[110.2895,-7.7115],[110.29,-7.7105],[110.291,-7.709],[110.2905,-7.7085]]]},"properties":{"code":"34.04.05.2003","name":"Margokaton"}},{"type":"Feature","geometry":{"type":"Polygon","coordinates":[[[110.3255,-7.701],[110.321,-7.698],[110.3205,-7.6995],[110.3205,-7.7005],[110.3195,-7.703],[110.308,-7.7165],[110.3055,-7.72],[110.3065,-7.721],[110.3045,-7.7375],[110.305,-7.738],[110.305,-7.737],[110.3055,-7.736],[110.318,-7.7305],[110.319,-7.729],[110.32,-7.7235],[110.322,-7.7245],[110.323,-7.722],[110.3235,-7.7195],[110.3235,-7.712],[110.324,-7.7105],[110.325,-7.702],[110.3255,-7.701]]]},"properties":{"code":"34.04.05.2004","name":"Margomulyo"}},{"type":"Feature","geometry":{"type":"Polygon","coordinates":[[[110.3065,-7.695],[110.306,-7.6955],[110.3035,-7.695],[110.302,-7.6965],[110.299,-7.6985],[110.2965,-7.6995],[110.291,-7.7075],[110.2905,-7.7085],[110.291,-7.709],[110.29,-7.7105],[110.2895,-7.7115],[110.2895,-7.7125],[110.291,-7.715],[110.2915,-7.7155],[110.305,-7.716],[110.3055,-7.7155],[110.308,-7.7165],[110.3195,-7.703],[110.3205,-7.7005],[110.3205,-7.6995],[110.3175,-7.698],[110.312,-7.699],[110.3095,-7.699],[110.3065,-7.695]]]},"properties":{"code":"34.04.05.2005","name":"Margoagung"}},{"type":"Feature","geometry":{"type":"Polygon","coordinates":[[[110.3675,-7.743],[110.353,-7.747],[110.3525,-7.748],[110.354,-7.749],[110.353,-7.75],[110.353,-7.7505],[110.352,-7.7505],[110.351,-7.7645],[110.352,-7.766],[110.3535,-7.767],[110.361,-7.7705],[110.3615,-7.7695],[110.369,-7.772],[110.3695,-7.774],[110.37,-7.774],[110.3705,-7.7735],[110.3755,-7.7725],[110.378,-7.7695],[110.3785,-7.753],[110.3855,-7.7515],[110.384,-7.7505],[110.381,-7.744],[110.3805,-7.7445],[110.381,-7.7445],[110.379,-7.751],[110.3725,-7.7555],[110.3705,-7.7545],[110.3675,-7.7435],[110.3675,-7.743]]]},"properties":{"code":"34.04.06.2001","name":"Sinduadi"}},{"type":"Feature","geometry":{"type":"Polygon","coordinates":[[[110.3695,-7.7215],[110.368,-7.7205],[110.3675,-7.7195],[110.366,-7.72],[110.352,-7.722],[110.35,-7.722],[110.3495,-7.722],[110.352,-7.7255],[110.3515,-7.7265],[110.3495,-7.735],[110.349,-7.7355],[110.353,-7.747],[110.3675,-7.743],[110.3675,-7.7425],[110.3675,-7.739],[110.369,-7.738],[110.3705,-7.727],[110.371,-7.7265],[110.3715,-7.7265],[110.3725,-7.7245],[110.3725,-7.724],[110.373,-7.723],[110.3715,-7.723],[110.37,-7.7245],[110.3695,-7.7225],[110.3695,-7.7215]]]},"properties":{"code":"34.04.06.2002","name":"Sendangadi"}},{"type":"Feature","geometry":{"type":"Polygon","coordinates":[[[110.35,-7.7215],[110.3455,-7.722],[110.3445,-7.7215],[110.344,-7.7165],[110.3445,-7.7155],[110.3435,-7.714],[110.338,-7.729],[110.337,-7.7315],[110.3295,-7.7315],[110.3285,-7.733],[110.3285,-7.7335],[110.3275,-7.7345],[110.327,-7.735],[110.333,-7.741],[110.3335,-7.7415],[110.3315,-7.7455],[110.3325,-7.747],[110.334,-7.7485],[110.337,-7.7495],[110.338,-7.7465],[110.347,-7.737],[110.3495,-7.735],[110.3515,-7.7265],[110.352,-7.7255],[110.3495,-7.722],[110.35,-7.7215]]]},"properties":{"code":"34.04.06.2003","name":"Tlogoadi"}},{"type":"Feature","geometry":{"type":"Polygon","coordinates":[[[110.318,-7.7305],[110.3055,-7.736],[110.305,-7.737],[110.305,-7.738],[110.3045,-7.739],[110.3045,-7.7395],[110.305,-7.741],[110.3085,-7.7465],[110.309,-7.7465],[110.31,-7.7465],[110.313,-7.7445],[110.315,-7.7455],[110.3155,-7.745],[110.3225,-7.7455],[110.3225,-7.7585],[110.3245,-7.7625],[110.3275,-7.762],[110.329,-7.7645],[110.3295,-7.7605],[110.3305,-7.7575],[110.331,-7.757],[110.3315,-7.757],[110.3325,-7.7565],[110.3325,-7.756],[110.334,-7.7545],[110.3335,-7.7525],[110.337,-7.7505],[110.337,-7.7495],[110.334,-7.7485],[110.3325,-7.747],[110.3315,-7.7455],[110.3335,-7.7415],[110.333,-7.741],[110.327,-7.735],[110.3265,-7.735],[110.3185,-7.7305],[110.318,-7.7305]]]},"properties":{"code":"34.04.06.2004","name":"Tirtoadi"}},{"type":"Feature","geometry":{"type":"Polygon","coordinates":[[[110.34,-7.709],[110.339,-7.707],[110.3335,-7.7125],[110.3325,-7.713],[110.331,-7.712],[110.3345,-7.701],[110.3315,-7.7005],[110.3315,-7.701],[110.3305,-7.7015],[110.3305,-7.702],[110.3295,-7.705],[110.3255,-7.7015],[110.325,-7.702],[110.324,-7.7105],[110.3235,-7.712],[110.3235,-7.7195],[110.323,-7.722],[110.322,-7.7245],[110.32,-7.7235],[110.319,-7.729],[110.3185,-7.7305],[110.3265,-7.735],[110.3275,-7.7345],[110.3285,-7.7335],[110.3285,-7.733],[110.3295,-7.7315],[110.337,-7.7315],[110.338,-7.729],[110.3435,-7.714],[110.34,-7.709]]]},"properties":{"code":"34.04.06.2005","name":"Sumberadi"}},{"type":"Feature","geometry":{"type":"Polygon","coordinates":[[[110.3855,-7.7515],[110.3785,-7.753],[110.378,-7.7695],[110.3755,-7.7725],[110.3705,-7.7735],[110.37,-7.774],[110.3695,-7.774],[110.3695,-7.7745],[110.3755,-7.7745],[110.38,-7.78],[110.382,-7.7805],[110.382,-7.78],[110.391,-7.7805],[110.395,-7.7875],[110.395,-7.7885],[110.397,-7.786],[110.413,-7.783],[110.419,-7.7835],[110.4155,-7.7685],[110.4155,-7.766],[110.416,-7.7645],[110.417,-7.7625],[110.4165,-7.761],[110.416,-7.761],[110.416,-7.763],[110.406,-7.7635],[110.4045,-7.773],[110.393,-7.7695],[110.3865,-7.7515],[110.3855,-7.7515]]]},"properties":{"code":"34.04.07.2001","name":"Caturtunggal"}},{"type":"Feature","geometry":{"type":"Polygon","coordinates":[[[110.447,-7.7465],[110.438,-7.745],[110.432,-7.746],[110.432,-7.7505],[110.4155,-7.7545],[110.415,-7.7565],[110.4155,-7.7575],[110.4165,-7.76],[110.417,-7.7625],[110.416,-7.7645],[110.4155,-7.766],[110.4155,-7.7685],[110.419,-7.7835],[110.4165,-7.7835],[110.423,-7.7975],[110.423,-7.7995],[110.4345,-7.7945],[110.4355,-7.7905],[110.435,-7.79],[110.4355,-7.7885],[110.439,-7.785],[110.439,-7.7725],[110.4475,-7.7485],[110.447,-7.7465]]]},"properties":{"code":"34.04.07.2002","name":"Maguwoharjo"}},{"type":"Feature","geometry":{"type":"Polygon","coordinates":[[[110.4015,-7.7315],[110.3905,-7.7445],[110.386,-7.735],[110.3815,-7.742],[110.381,-7.743],[110.381,-7.7435],[110.381,-7.744],[110.384,-7.7505],[110.3865,-7.7515],[110.393,-7.7695],[110.4045,-7.773],[110.406,-7.7635],[110.416,-7.763],[110.416,-7.761],[110.4165,-7.761],[110.4165,-7.76],[110.4155,-7.7575],[110.415,-7.7565],[110.415,-7.756],[110.414,-7.755],[110.413,-7.756],[110.414,-7.7535],[110.413,-7.7525],[110.4125,-7.7525],[110.4105,-7.749],[110.4075,-7.747],[110.4015,-7.7315]]]},"properties":{"code":"34.04.07.2003","name":"Condongcatur"}},{"type":"Feature","geometry":{"type":"Polygon","coordinates":[[[110.4405,-7.786],[110.44,-7.786],[110.439,-7.785],[110.4355,-7.7885],[110.435,-7.79],[110.4355,-7.7905],[110.4345,-7.7945],[110.423,-7.7995],[110.4225,-7.802],[110.422,-7.806],[110.4215,-7.8085],[110.4225,-7.8175],[110.4225,-7.819],[110.422,-7.8225],[110.423,-7.822],[110.4305,-7.834],[110.432,-7.836],[110.4325,-7.8365],[110.434,-7.8365],[110.4405,-7.8275],[110.441,-7.8275],[110.441,-7.827],[110.438,-7.8265],[110.438,-7.825],[110.4385,-7.8235],[110.438,-7.8215],[110.4395,-7.819],[110.4385,-7.819],[110.439,-7.8175],[110.4395,-7.81],[110.439,-7.8045],[110.4385,-7.805],[110.4385,-7.803],[110.44,-7.789],[110.4395,-7.788],[110.4395,-7.7875],[110.4405,-7.7865],[110.4405,-7.786]]]},"properties":{"code":"34.04.08.2001","name":"Sendangtirto"}},{"type":"Feature","geometry":{"type":"Polygon","coordinates":[[[110.4605,-7.8115],[110.448,-7.8095],[110.4475,-7.808],[110.446,-7.8015],[110.446,-7.8],[110.449,-7.7825],[110.445,-7.7835],[110.441,-7.786],[110.4405,-7.786],[110.4405,-7.7865],[110.4395,-7.7875],[110.4395,-7.788],[110.44,-7.789],[110.4385,-7.803],[110.4385,-7.805],[110.439,-7.8045],[110.4395,-7.81],[110.439,-7.8175],[110.4385,-7.819],[110.4395,-7.819],[110.438,-7.8215],[110.4385,-7.8235],[110.438,-7.825],[110.438,-7.8265],[110.441,-7.827],[110.441,-7.8275],[110.4415,-7.828],[110.4515,-7.8245],[110.4535,-7.821],[110.454,-7.8205],[110.4545,-7.821],[110.4585,-7.8215],[110.459,-7.82],[110.46,-7.818],[110.4605,-7.817],[110.461,-7.8145],[110.4605,-7.812],[110.4605,-7.8115]]]},"properties":{"code":"34.04.08.2002","name":"Tegaltirto"}},{"type":"Feature","geometry":{"type":"Polygon","coordinates":[[[110.468,-7.785],[110.458,-7.779],[110.458,-7.778],[110.4585,-7.7775],[110.449,-7.7825],[110.446,-7.8],[110.446,-7.8015],[110.4475,-7.808],[110.448,-7.8095],[110.4605,-7.8115],[110.4595,-7.808],[110.461,-7.796],[110.4615,-7.7955],[110.4625,-7.7955],[110.4635,-7.796],[110.4665,-7.799],[110.4675,-7.7975],[110.4675,-7.787],[110.468,-7.785]]]},"properties":{"code":"34.04.08.2003","name":"Kalitirto"}},{"type":"Feature","geometry":{"type":"Polygon","coordinates":[[[110.462,-7.7955],[110.461,-7.796],[110.4595,-7.808],[110.4605,-7.812],[110.461,-7.8145],[110.4605,-7.817],[110.46,-7.818],[110.459,-7.82],[110.4585,-7.8215],[110.4605,-7.824],[110.461,-7.8245],[110.468,-7.827],[110.4695,-7.8255],[110.4855,-7.8185],[110.4855,-7.814],[110.484,-7.814],[110.4785,-7.8075],[110.4665,-7.801],[110.4625,-7.798],[110.4625,-7.797],[110.462,-7.7965],[110.462,-7.7955]]]},"properties":{"code":"34.04.08.2004","name":"Jogotirto"}},{"type":"Feature","geometry":{"type":"Polygon","coordinates":[[[110.5205,-7.7975],[110.5115,-7.798],[110.51,-7.7995],[110.501,-7.7975],[110.4995,-7.7965],[110.498,-7.7965],[110.482,-7.8005],[110.4785,-7.8075],[110.484,-7.814],[110.4855,-7.814],[110.4855,-7.8185],[110.485,-7.8215],[110.4865,-7.821],[110.513,-7.826],[110.515,-7.827],[110.513,-7.8245],[110.5145,-7.823],[110.512,-7.816],[110.513,-7.812],[110.5135,-7.81],[110.5145,-7.803],[110.5155,-7.801],[110.519,-7.799],[110.5205,-7.7975]]]},"properties":{"code":"34.04.09.2001","name":"Sumberharjo"}},{"type":"Feature","geometry":{"type":"Polygon","coordinates":[[[110.5315,-7.8235],[110.532,-7.823],[110.521,-7.8005],[110.5205,-7.799],[110.5215,-7.797],[110.519,-7.799],[110.5155,-7.801],[110.5145,-7.803],[110.5135,-7.81],[110.513,-7.812],[110.512,-7.816],[110.5145,-7.823],[110.513,-7.8245],[110.515,-7.827],[110.5165,-7.827],[110.5175,-7.8305],[110.521,-7.83],[110.53,-7.8245],[110.5305,-7.824],[110.5315,-7.8235]]]},"properties":{"code":"34.04.09.2002","name":"Wukirharjo"}},{"type":"Feature","geometry":{"type":"Polygon","coordinates":[[[110.544,-7.795],[110.5435,-7.7935],[110.543,-7.794],[110.5415,-7.794],[110.5405,-7.7955],[110.54,-7.797],[110.538,-7.7975],[110.535,-7.794],[110.5345,-7.7955],[110.5315,-7.798],[110.5305,-7.798],[110.53,-7.794],[110.5305,-7.7935],[110.5305,-7.793],[110.5295,-7.793],[110.528,-7.793],[110.527,-7.793],[110.5235,-7.796],[110.5215,-7.797],[110.5205,-7.799],[110.521,-7.8005],[110.532,-7.823],[110.5325,-7.8235],[110.533,-7.8245],[110.533,-7.823],[110.5355,-7.8235],[110.5405,-7.8235],[110.5425,-7.8235],[110.5435,-7.8215],[110.5445,-7.8195],[110.545,-7.808],[110.5445,-7.8055],[110.545,-7.804],[110.5465,-7.801],[110.545,-7.797],[110.544,-7.795]]]},"properties":{"code":"34.04.09.2003","name":"Gayamharjo"}},{"type":"Feature","geometry":{"type":"Polygon","coordinates":[[[110.511,-7.7705],[110.4995,-7.768],[110.497,-7.7675],[110.4965,-7.7675],[110.491,-7.7685],[110.491,-7.77],[110.491,-7.772],[110.491,-7.7735],[110.4955,-7.7775],[110.497,-7.7775],[110.498,-7.777],[110.499,-7.7775],[110.491,-7.784],[110.5005,-7.7965],[110.4995,-7.7965],[110.501,-7.7975],[110.51,-7.7995],[110.5115,-7.798],[110.5205,-7.7975],[110.5235,-7.796],[110.527,-7.793],[110.528,-7.793],[110.5295,-7.793],[110.5305,-7.793],[110.53,-7.792],[110.524,-7.7865],[110.5195,-7.78],[110.5175,-7.78],[110.5165,-7.7795],[110.512,-7.7745],[110.512,-7.7715],[110.511,-7.7705]]]},"properties":{"code":"34.04.09.2004","name":"Sambirejo"}},{"type":"Feature","geometry":{"type":"Polygon","coordinates":[[[110.491,-7.784],[110.469,-7.7835],[110.468,-7.785],[110.4675,-7.787],[110.4675,-7.7975],[110.4665,-7.799],[110.4635,-7.796],[110.462,-7.7955],[110.462,-7.7965],[110.4625,-7.797],[110.4625,-7.798],[110.4665,-7.801],[110.4785,-7.8075],[110.482,-7.8005],[110.498,-7.7965],[110.5005,-7.7965],[110.491,-7.784]]]},"properties":{"code":"34.04.09.2005","name":"Madurejo"}},{"type":"Feature","geometry":{"type":"Polygon","coordinates":[[[110.4915,-7.74],[110.491,-7.7395],[110.487,-7.7645],[110.48,-7.771],[110.478,-7.77],[110.4775,-7.77],[110.477,-7.7705],[110.475,-7.776],[110.472,-7.778],[110.472,-7.7795],[110.4695,-7.7795],[110.4695,-7.78],[110.47,-7.7805],[110.469,-7.7835],[110.491,-7.784],[110.499,-7.7775],[110.498,-7.777],[110.497,-7.7775],[110.4955,-7.7775],[110.491,-7.7735],[110.491,-7.772],[110.491,-7.77],[110.491,-7.7685],[110.4965,-7.7675],[110.494,-7.767],[110.492,-7.767],[110.4915,-7.7535],[110.492,-7.742],[110.4915,-7.74]]]},"properties":{"code":"34.04.09.2006","name":"Bokoharjo"}},{"type":"Feature","geometry":{"type":"Polygon","coordinates":[[[110.462,-7.7385],[110.4525,-7.731],[110.453,-7.7315],[110.4455,-7.73],[110.4455,-7.7305],[110.444,-7.735],[110.4465,-7.7455],[110.4475,-7.747],[110.4475,-7.7485],[110.439,-7.7725],[110.439,-7.785],[110.44,-7.786],[110.441,-7.786],[110.445,-7.7835],[110.4585,-7.7775],[110.465,-7.761],[110.465,-7.76],[110.4635,-7.74],[110.462,-7.7385]]]},"properties":{"code":"34.04.10.2001","name":"Purwomartani"}},{"type":"Feature","geometry":{"type":"Polygon","coordinates":[[[110.4715,-7.7345],[110.462,-7.7385],[110.4635,-7.74],[110.465,-7.76],[110.465,-7.761],[110.4585,-7.7775],[110.458,-7.778],[110.458,-7.779],[110.468,-7.785],[110.47,-7.7805],[110.4695,-7.78],[110.4695,-7.7795],[110.472,-7.7795],[110.472,-7.778],[110.475,-7.776],[110.477,-7.7705],[110.4775,-7.77],[110.4755,-7.7675],[110.475,-7.7665],[110.4755,-7.7655],[110.4755,-7.763],[110.478,-7.7555],[110.4715,-7.736],[110.4715,-7.7345]]]},"properties":{"code":"34.04.10.2002","name":"Tirtomartani"}},{"type":"Feature","geometry":{"type":"Polygon","coordinates":[[[110.4825,-7.7015],[110.4825,-7.7],[110.482,-7.701],[110.482,-7.7015],[110.483,-7.703],[110.4815,-7.707],[110.482,-7.71],[110.481,-7.7155],[110.482,-7.7165],[110.482,-7.7175],[110.482,-7.719],[110.482,-7.721],[110.4835,-7.7245],[110.4825,-7.727],[110.4835,-7.7285],[110.4835,-7.7305],[110.484,-7.7305],[110.483,-7.732],[110.472,-7.734],[110.4715,-7.7345],[110.4715,-7.736],[110.478,-7.7555],[110.4755,-7.763],[110.4755,-7.7655],[110.475,-7.7665],[110.4755,-7.7675],[110.4775,-7.77],[110.478,-7.77],[110.48,-7.771],[110.487,-7.7645],[110.491,-7.7395],[110.4835,-7.705],[110.4825,-7.7015]]]},"properties":{"code":"34.04.10.2003","name":"Tamanmartani"}},{"type":"Feature","geometry":{"type":"Polygon","coordinates":[[[110.482,-7.7185],[110.481,-7.7185],[110.4805,-7.7195],[110.4795,-7.721],[110.4675,-7.7095],[110.4625,-7.7105],[110.461,-7.7115],[110.4615,-7.713],[110.4515,-7.7135],[110.4515,-7.7145],[110.448,-7.7165],[110.447,-7.718],[110.442,-7.7195],[110.44,-7.7195],[110.44,-7.7205],[110.444,-7.735],[110.4455,-7.7305],[110.4455,-7.73],[110.453,-7.7315],[110.4525,-7.731],[110.462,-7.7385],[110.4715,-7.7345],[110.472,-7.734],[110.483,-7.732],[110.484,-7.7305],[110.4835,-7.7305],[110.4835,-7.7285],[110.4825,-7.727],[110.4835,-7.7245],[110.482,-7.721],[110.482,-7.7185]]]},"properties":{"code":"34.04.10.2004","name":"Selomartani"}},{"type":"Feature","geometry":{"type":"Polygon","coordinates":[[[110.4775,-7.678],[110.4675,-7.6745],[110.4675,-7.6755],[110.468,-7.685],[110.4675,-7.6855],[110.467,-7.6875],[110.471,-7.693],[110.471,-7.6955],[110.468,-7.696],[110.47,-7.7045],[110.4715,-7.7065],[110.4725,-7.708],[110.473,-7.709],[110.4745,-7.71],[110.4775,-7.712],[110.48,-7.7165],[110.482,-7.7185],[110.482,-7.7175],[110.482,-7.7165],[110.481,-7.7155],[110.482,-7.71],[110.4815,-7.707],[110.483,-7.703],[110.482,-7.7015],[110.482,-7.701],[110.4825,-7.7],[110.4775,-7.678]]]},"properties":{"code":"34.04.11.2001","name":"Sindumartani"}},{"type":"Feature","geometry":{"type":"Polygon","coordinates":[[[110.467,-7.6875],[110.4665,-7.69],[110.4645,-7.689],[110.4645,-7.6885],[110.463,-7.682],[110.462,-7.681],[110.448,-7.6825],[110.4475,-7.683],[110.4545,-7.6985],[110.455,-7.7],[110.46,-7.71],[110.4605,-7.711],[110.461,-7.7115],[110.4625,-7.7105],[110.4675,-7.7095],[110.4795,-7.721],[110.4805,-7.7195],[110.481,-7.7185],[110.482,-7.7185],[110.48,-7.7165],[110.4775,-7.712],[110.4745,-7.71],[110.473,-7.709],[110.4725,-7.708],[110.4715,-7.7065],[110.47,-7.7045],[110.468,-7.696],[110.471,-7.6955],[110.471,-7.693],[110.467,-7.6875]]]},"properties":{"code":"34.04.11.2002","name":"Bimomartani"}},{"type":"Feature","geometry":{"type":"Polygon","coordinates":[[[110.447,-7.6745],[110.443,-7.6745],[110.442,-7.6745],[110.439,-7.6855],[110.4425,-7.701],[110.4425,-7.703],[110.4425,-7.704],[110.4425,-7.706],[110.4435,-7.7095],[110.442,-7.711],[110.441,-7.7135],[110.4405,-7.713],[110.4405,-7.7185],[110.44,-7.7195],[110.442,-7.7195],[110.447,-7.718],[110.448,-7.7165],[110.4515,-7.7145],[110.4515,-7.7135],[110.4615,-7.713],[110.4605,-7.711],[110.46,-7.71],[110.455,-7.7],[110.4545,-7.6985],[110.4475,-7.683],[110.4475,-7.682],[110.447,-7.6745]]]},"properties":{"code":"34.04.11.2003","name":"Widodomartani"}},{"type":"Feature","geometry":{"type":"Polygon","coordinates":[[[110.4405,-7.713],[110.4405,-7.7105],[110.436,-7.7075],[110.4345,-7.7075],[110.434,-7.7085],[110.4195,-7.7225],[110.418,-7.7215],[110.4125,-7.72],[110.4125,-7.721],[110.413,-7.725],[110.413,-7.726],[110.4125,-7.7265],[110.4115,-7.7285],[110.4085,-7.746],[110.4105,-7.749],[110.4125,-7.7525],[110.413,-7.7525],[110.414,-7.7535],[110.413,-7.756],[110.414,-7.755],[110.415,-7.756],[110.415,-7.7565],[110.4155,-7.7555],[110.4155,-7.7545],[110.432,-7.7505],[110.432,-7.746],[110.438,-7.745],[110.447,-7.7465],[110.4465,-7.7455],[110.444,-7.735],[110.44,-7.7205],[110.4405,-7.7185],[110.4405,-7.713]]]},"properties":{"code":"34.04.11.2004","name":"Wedomartani"}},{"type":"Feature","geometry":{"type":"Polygon","coordinates":[[[110.4305,-7.668],[110.427,-7.67],[110.4275,-7.67],[110.4175,-7.669],[110.417,-7.669],[110.4165,-7.6685],[110.416,-7.67],[110.417,-7.6705],[110.4165,-7.673],[110.415,-7.677],[110.409,-7.686],[110.409,-7.687],[110.4145,-7.69],[110.415,-7.6905],[110.416,-7.693],[110.416,-7.6925],[110.4245,-7.6855],[110.4345,-7.6865],[110.4355,-7.6875],[110.4425,-7.704],[110.4425,-7.703],[110.4425,-7.701],[110.439,-7.6855],[110.442,-7.6745],[110.4375,-7.6745],[110.43,-7.671],[110.431,-7.6685],[110.4305,-7.668]]]},"properties":{"code":"34.04.11.2005","name":"Umbulmartani"}},{"type":"Feature","geometry":{"type":"Polygon","coordinates":[[[110.3905,-7.7035],[110.3875,-7.7025],[110.3865,-7.7035],[110.381,-7.713],[110.3775,-7.711],[110.3765,-7.7115],[110.373,-7.723],[110.373,-7.7235],[110.3725,-7.724],[110.3725,-7.7245],[110.3715,-7.7265],[110.371,-7.7265],[110.3705,-7.727],[110.369,-7.738],[110.3675,-7.739],[110.3675,-7.7425],[110.3675,-7.7435],[110.3705,-7.7545],[110.3725,-7.7555],[110.379,-7.751],[110.381,-7.7445],[110.3805,-7.7445],[110.381,-7.7435],[110.381,-7.743],[110.3815,-7.742],[110.386,-7.735],[110.382,-7.7265],[110.389,-7.715],[110.3895,-7.715],[110.3895,-7.714],[110.3905,-7.707],[110.391,-7.7055],[110.3905,-7.7035]]]},"properties":{"code":"34.04.12.2001","name":"Sariharjo"}},{"type":"Feature","geometry":{"type":"Polygon","coordinates":[[[110.412,-7.7275],[110.4115,-7.727],[110.412,-7.727],[110.4095,-7.728],[110.408,-7.7275],[110.4075,-7.73],[110.4025,-7.729],[110.4015,-7.7315],[110.4075,-7.747],[110.4085,-7.746],[110.4115,-7.7285],[110.412,-7.7275]]]},"properties":{"code":"34.04.12.2002","name":"Minomartani"}},{"type":"Feature","geometry":{"type":"Polygon","coordinates":[[[110.414,-7.7105],[110.413,-7.711],[110.4125,-7.71],[110.412,-7.71],[110.4035,-7.712],[110.3975,-7.7305],[110.397,-7.731],[110.389,-7.7225],[110.389,-7.719],[110.3895,-7.7155],[110.389,-7.715],[110.382,-7.7265],[110.386,-7.735],[110.3905,-7.7445],[110.4015,-7.7315],[110.4025,-7.729],[110.4075,-7.73],[110.408,-7.7275],[110.4095,-7.728],[110.412,-7.727],[110.4115,-7.727],[110.412,-7.7275],[110.413,-7.7265],[110.413,-7.726],[110.413,-7.725],[110.4125,-7.721],[110.4125,-7.72],[110.418,-7.7215],[110.419,-7.722],[110.4195,-7.7165],[110.419,-7.716],[110.414,-7.711],[110.414,-7.7105]]]},"properties":{"code":"34.04.12.2003","name":"Sinduharjo"}},{"type":"Feature","geometry":{"type":"Polygon","coordinates":[[[110.4425,-7.704],[110.4355,-7.6875],[110.4345,-7.6865],[110.4245,-7.6855],[110.416,-7.6925],[110.4155,-7.6945],[110.4155,-7.6955],[110.416,-7.698],[110.414,-7.7095],[110.414,-7.711],[110.419,-7.716],[110.4195,-7.7165],[110.419,-7.722],[110.4195,-7.7225],[110.434,-7.7085],[110.4345,-7.7075],[110.436,-7.7075],[110.4405,-7.7105],[110.441,-7.7135],[110.442,-7.711],[110.4435,-7.7095],[110.4425,-7.706],[110.4425,-7.704]]]},"properties":{"code":"34.04.12.2004","name":"Sukoharjo"}},{"type":"Feature","geometry":{"type":"Polygon","coordinates":[[[110.404,-7.687],[110.4025,-7.686],[110.402,-7.6875],[110.397,-7.6865],[110.394,-7.682],[110.3935,-7.683],[110.39,-7.703],[110.3905,-7.704],[110.391,-7.7055],[110.3905,-7.707],[110.3895,-7.714],[110.3895,-7.715],[110.3895,-7.7155],[110.389,-7.719],[110.389,-7.7225],[110.397,-7.731],[110.3975,-7.7305],[110.4035,-7.712],[110.412,-7.71],[110.4125,-7.71],[110.413,-7.711],[110.414,-7.7105],[110.414,-7.7095],[110.416,-7.698],[110.4155,-7.6955],[110.4155,-7.6945],[110.416,-7.693],[110.415,-7.6905],[110.4145,-7.69],[110.409,-7.687],[110.4075,-7.6875],[110.4035,-7.689],[110.404,-7.687]]]},"properties":{"code":"34.04.12.2005","name":"Sardonoharjo"}},{"type":"Feature","geometry":{"type":"Polygon","coordinates":[[[110.3945,-7.675],[110.382,-7.674],[110.38,-7.673],[110.3785,-7.6725],[110.377,-7.672],[110.377,-7.6725],[110.3745,-7.683],[110.38,-7.691],[110.3725,-7.7145],[110.3715,-7.7165],[110.371,-7.719],[110.3705,-7.72],[110.3705,-7.7205],[110.3695,-7.7225],[110.37,-7.7245],[110.3715,-7.723],[110.373,-7.723],[110.3765,-7.7115],[110.3775,-7.711],[110.381,-7.713],[110.3865,-7.7035],[110.3875,-7.7025],[110.3905,-7.7035],[110.39,-7.703],[110.3935,-7.683],[110.394,-7.68],[110.3945,-7.678],[110.3945,-7.675]]]},"properties":{"code":"34.04.12.2006","name":"Donoharjo"}},{"type":"Feature","geometry":{"type":"Polygon","coordinates":[[[110.3395,-7.6745],[110.3345,-7.6715],[110.3345,-7.6725],[110.334,-7.673],[110.333,-7.675],[110.3315,-7.676],[110.3295,-7.6795],[110.327,-7.678],[110.3165,-7.679],[110.316,-7.68],[110.315,-7.681],[110.315,-7.6815],[110.314,-7.6825],[110.309,-7.6905],[110.3085,-7.6915],[110.3075,-7.6935],[110.3065,-7.695],[110.3095,-7.699],[110.312,-7.699],[110.3175,-7.698],[110.321,-7.698],[110.3255,-7.701],[110.3255,-7.7015],[110.3295,-7.705],[110.3305,-7.702],[110.3305,-7.7015],[110.3315,-7.7005],[110.332,-7.7],[110.3325,-7.7],[110.333,-7.6995],[110.335,-7.698],[110.342,-7.6875],[110.342,-7.677],[110.3425,-7.6765],[110.34,-7.676],[110.3395,-7.677],[110.339,-7.677],[110.3395,-7.6745]]]},"properties":{"code":"34.04.13.2001","name":"Caturharjo"}},{"type":"Feature","geometry":{"type":"Polygon","coordinates":[[[110.3525,-7.697],[110.3545,-7.6795],[110.341,-7.6725],[110.34,-7.676],[110.3425,-7.6765],[110.342,-7.677],[110.342,-7.6875],[110.335,-7.698],[110.333,-7.6995],[110.333,-7.7],[110.332,-7.7],[110.3315,-7.7],[110.3315,-7.7005],[110.3345,-7.701],[110.331,-7.712],[110.3325,-7.713],[110.3335,-7.7125],[110.339,-7.707],[110.341,-7.7075],[110.348,-7.699],[110.352,-7.6985],[110.3525,-7.697]]]},"properties":{"code":"34.04.13.2002","name":"Triharjo"}},{"type":"Feature","geometry":{"type":"Polygon","coordinates":[[[110.357,-7.699],[110.3575,-7.698],[110.3525,-7.697],[110.352,-7.6985],[110.348,-7.699],[110.341,-7.7075],[110.34,-7.709],[110.3435,-7.714],[110.3445,-7.7155],[110.344,-7.7165],[110.3445,-7.7215],[110.3455,-7.722],[110.35,-7.7215],[110.35,-7.722],[110.352,-7.722],[110.366,-7.72],[110.366,-7.7195],[110.3665,-7.719],[110.362,-7.7195],[110.3615,-7.717],[110.3625,-7.7145],[110.3625,-7.7135],[110.3575,-7.701],[110.3565,-7.7005],[110.357,-7.699]]]},"properties":{"code":"34.04.13.2003","name":"Tridadi"}},{"type":"Feature","geometry":{"type":"Polygon","coordinates":[[[110.3745,-7.683],[110.3675,-7.6765],[110.367,-7.6765],[110.363,-7.684],[110.3625,-7.687],[110.362,-7.693],[110.3615,-7.696],[110.3575,-7.699],[110.357,-7.699],[110.3565,-7.7005],[110.3575,-7.701],[110.3625,-7.7135],[110.3625,-7.7145],[110.3615,-7.717],[110.362,-7.7195],[110.3665,-7.719],[110.366,-7.7195],[110.366,-7.72],[110.3675,-7.7195],[110.368,-7.7205],[110.3695,-7.7215],[110.3705,-7.7205],[110.3705,-7.72],[110.371,-7.719],[110.3715,-7.7165],[110.3725,-7.7145],[110.38,-7.691],[110.3745,-7.683]]]},"properties":{"code":"34.04.13.2004","name":"Pandowoharjo"}},{"type":"Feature","geometry":{"type":"Polygon","coordinates":[[[110.358,-7.6625],[110.3565,-7.6625],[110.355,-7.663],[110.353,-7.6685],[110.3435,-7.664],[110.3395,-7.674],[110.339,-7.677],[110.3395,-7.677],[110.341,-7.6725],[110.3545,-7.6795],[110.3525,-7.697],[110.3575,-7.698],[110.3575,-7.699],[110.3615,-7.696],[110.362,-7.693],[110.3625,-7.687],[110.363,-7.684],[110.367,-7.6765],[110.3685,-7.675],[110.369,-7.675],[110.37,-7.674],[110.3715,-7.6725],[110.3715,-7.671],[110.3565,-7.6665],[110.3575,-7.6635],[110.358,-7.6625]]]},"properties":{"code":"34.04.13.2005","name":"Trimulyo"}},{"type":"Feature","geometry":{"type":"Polygon","coordinates":[[[110.2915,-7.6875],[110.287,-7.687],[110.286,-7.6875],[110.285,-7.6885],[110.2805,-7.6925],[110.273,-7.704],[110.27,-7.706],[110.268,-7.7075],[110.2705,-7.7095],[110.274,-7.709],[110.276,-7.7095],[110.278,-7.709],[110.2805,-7.71],[110.2825,-7.71],[110.2835,-7.7095],[110.2895,-7.708],[110.291,-7.7075],[110.2965,-7.6995],[110.299,-7.6985],[110.302,-7.6965],[110.303,-7.695],[110.2895,-7.692],[110.2895,-7.6925],[110.29,-7.691],[110.289,-7.69],[110.2915,-7.6875]]]},"properties":{"code":"34.04.14.2001","name":"Banyurejo"}},{"type":"Feature","geometry":{"type":"Polygon","coordinates":[[[110.316,-7.6795],[110.3145,-7.6795],[110.3115,-7.6775],[110.306,-7.679],[110.304,-7.681],[110.304,-7.6815],[110.2995,-7.6835],[110.299,-7.684],[110.2945,-7.6855],[110.293,-7.687],[110.2935,-7.686],[110.2925,-7.6865],[110.2915,-7.6875],[110.289,-7.69],[110.29,-7.691],[110.2895,-7.6925],[110.2895,-7.692],[110.303,-7.695],[110.3035,-7.695],[110.306,-7.6955],[110.3075,-7.6935],[110.3085,-7.6915],[110.309,-7.6905],[110.314,-7.6825],[110.315,-7.6815],[110.315,-7.681],[110.316,-7.6795]]]},"properties":{"code":"34.04.14.2002","name":"Tambakrejo"}},{"type":"Feature","geometry":{"type":"Polygon","coordinates":[[[110.3065,-7.6755],[110.3035,-7.674],[110.301,-7.67],[110.296,-7.6665],[110.2955,-7.6675],[110.295,-7.6685],[110.2945,-7.6695],[110.2945,-7.67],[110.2905,-7.6755],[110.286,-7.685],[110.285,-7.6885],[110.286,-7.6875],[110.287,-7.687],[110.2915,-7.6875],[110.2925,-7.6865],[110.2935,-7.686],[110.293,-7.687],[110.2945,-7.6855],[110.299,-7.684],[110.2995,-7.6835],[110.304,-7.6815],[110.304,-7.681],[110.3055,-7.6795],[110.306,-7.677],[110.3065,-7.6755]]]},"properties":{"code":"34.04.14.2003","name":"Sumberrejo"}},{"type":"Feature","geometry":{"type":"Polygon","coordinates":[[[110.3145,-7.6575],[110.311,-7.6525],[110.31,-7.6515],[110.309,-7.652],[110.308,-7.6535],[110.3015,-7.66],[110.296,-7.6665],[110.301,-7.67],[110.3035,-7.674],[110.3065,-7.6755],[110.3175,-7.667],[110.3135,-7.6585],[110.3145,-7.6575]]]},"properties":{"code":"34.04.14.2004","name":"Pondokrejo"}},{"type":"Feature","geometry":{"type":"Polygon","coordinates":[[[110.3325,-7.675],[110.3335,-7.6735],[110.3325,-7.673],[110.331,-7.673],[110.33,-7.6735],[110.3285,-7.6735],[110.328,-7.672],[110.3215,-7.657],[110.3195,-7.6575],[110.319,-7.6575],[110.3185,-7.6575],[110.315,-7.657],[110.3135,-7.6585],[110.3175,-7.667],[110.3065,-7.6755],[110.306,-7.677],[110.3055,-7.6795],[110.306,-7.679],[110.3115,-7.6775],[110.3145,-7.6795],[110.316,-7.6795],[110.3165,-7.679],[110.327,-7.678],[110.3295,-7.6795],[110.3315,-7.676],[110.3325,-7.675]]]},"properties":{"code":"34.04.14.2005","name":"Mororejo"}},{"type":"Feature","geometry":{"type":"Polygon","coordinates":[[[110.3455,-7.654],[110.343,-7.654],[110.342,-7.6515],[110.335,-7.648],[110.3345,-7.649],[110.3245,-7.6515],[110.3205,-7.656],[110.3215,-7.657],[110.328,-7.672],[110.3285,-7.6735],[110.33,-7.6735],[110.331,-7.673],[110.3325,-7.673],[110.3335,-7.6735],[110.3325,-7.675],[110.333,-7.6745],[110.334,-7.673],[110.3345,-7.6725],[110.3345,-7.6715],[110.3395,-7.6745],[110.3395,-7.674],[110.3435,-7.664],[110.345,-7.6545],[110.3455,-7.654]]]},"properties":{"code":"34.04.14.2006","name":"Margorejo"}},{"type":"Feature","geometry":{"type":"Polygon","coordinates":[[[110.3345,-7.6485],[110.332,-7.6475],[110.3315,-7.647],[110.3315,-7.6455],[110.334,-7.6445],[110.335,-7.6335],[110.3335,-7.635],[110.332,-7.637],[110.327,-7.64],[110.3235,-7.643],[110.319,-7.647],[110.31,-7.6515],[110.311,-7.6525],[110.3145,-7.6575],[110.315,-7.657],[110.3185,-7.6575],[110.319,-7.6575],[110.3195,-7.6575],[110.3205,-7.656],[110.3245,-7.6515],[110.3345,-7.649],[110.3345,-7.6485]]]},"properties":{"code":"34.04.14.2007","name":"Lumbungrejo"}},{"type":"Feature","geometry":{"type":"Polygon","coordinates":[[[110.3685,-7.62],[110.371,-7.617],[110.37,-7.6155],[110.3675,-7.6125],[110.3665,-7.6135],[110.366,-7.615],[110.365,-7.616],[110.361,-7.6185],[110.358,-7.6195],[110.354,-7.6225],[110.3475,-7.626],[110.344,-7.627],[110.3375,-7.6295],[110.335,-7.6335],[110.334,-7.6445],[110.3315,-7.6455],[110.3315,-7.647],[110.332,-7.6475],[110.3345,-7.6485],[110.335,-7.648],[110.342,-7.6515],[110.343,-7.654],[110.3455,-7.654],[110.346,-7.6525],[110.3465,-7.652],[110.3485,-7.6505],[110.3495,-7.648],[110.3515,-7.647],[110.3515,-7.6465],[110.352,-7.6445],[110.352,-7.643],[110.3515,-7.642],[110.3565,-7.6305],[110.3575,-7.628],[110.361,-7.6245],[110.362,-7.6245],[110.362,-7.6235],[110.363,-7.623],[110.364,-7.6225],[110.3645,-7.622],[110.3685,-7.62]]]},"properties":{"code":"34.04.14.2008","name":"Merdikorejo"}},{"type":"Feature","geometry":{"type":"Polygon","coordinates":[[[110.367,-7.6485],[110.3665,-7.6485],[110.367,-7.648],[110.3665,-7.6475],[110.367,-7.6455],[110.3625,-7.645],[110.3635,-7.6435],[110.3665,-7.6295],[110.372,-7.6245],[110.3725,-7.623],[110.3685,-7.62],[110.3645,-7.622],[110.364,-7.6225],[110.363,-7.623],[110.362,-7.6235],[110.362,-7.6245],[110.361,-7.6245],[110.3575,-7.628],[110.3565,-7.6305],[110.3515,-7.642],[110.352,-7.643],[110.352,-7.6445],[110.3515,-7.6465],[110.3515,-7.647],[110.3495,-7.648],[110.3485,-7.6505],[110.3465,-7.652],[110.346,-7.6525],[110.345,-7.6545],[110.3435,-7.664],[110.353,-7.6685],[110.355,-7.663],[110.3565,-7.6625],[110.358,-7.6625],[110.3585,-7.661],[110.3585,-7.66],[110.362,-7.655],[110.3635,-7.654],[110.3655,-7.6505],[110.367,-7.6485]]]},"properties":{"code":"34.04.15.2001","name":"Bangunkerto"}},{"type":"Feature","geometry":{"type":"Polygon","coordinates":[[[110.38,-7.6455],[110.3795,-7.646],[110.378,-7.646],[110.378,-7.647],[110.377,-7.6465],[110.3755,-7.6495],[110.3735,-7.6485],[110.3705,-7.6545],[110.37,-7.655],[110.367,-7.6525],[110.3685,-7.65],[110.3685,-7.6495],[110.3715,-7.643],[110.3715,-7.642],[110.371,-7.6405],[110.37,-7.642],[110.3675,-7.6475],[110.3655,-7.6505],[110.3635,-7.654],[110.362,-7.655],[110.3585,-7.66],[110.3585,-7.661],[110.3575,-7.6635],[110.3565,-7.6665],[110.3715,-7.671],[110.3715,-7.6725],[110.37,-7.674],[110.369,-7.675],[110.3685,-7.675],[110.3675,-7.6765],[110.3745,-7.683],[110.377,-7.6725],[110.377,-7.671],[110.391,-7.6485],[110.391,-7.6475],[110.391,-7.647],[110.3795,-7.6465],[110.38,-7.6455]]]},"properties":{"code":"34.04.15.2002","name":"Donokerto"}},{"type":"Feature","geometry":{"type":"Polygon","coordinates":[[[110.391,-7.647],[110.3915,-7.646],[110.3985,-7.636],[110.415,-7.5965],[110.414,-7.572],[110.4025,-7.5775],[110.4005,-7.5805],[110.3975,-7.587],[110.3985,-7.5865],[110.401,-7.5875],[110.403,-7.586],[110.4055,-7.585],[110.408,-7.589],[110.4045,-7.5925],[110.393,-7.6035],[110.386,-7.632],[110.3805,-7.6445],[110.3795,-7.6465],[110.391,-7.647]]]},"properties":{"code":"34.04.15.2003","name":"Girikerto"}},{"type":"Feature","geometry":{"type":"Polygon","coordinates":[[[110.38,-7.6455],[110.3805,-7.6445],[110.386,-7.632],[110.393,-7.6035],[110.4045,-7.5925],[110.408,-7.589],[110.4055,-7.585],[110.403,-7.586],[110.401,-7.5875],[110.3985,-7.5865],[110.3935,-7.591],[110.387,-7.598],[110.3805,-7.6015],[110.371,-7.61],[110.3695,-7.6115],[110.3675,-7.6125],[110.37,-7.6155],[110.371,-7.617],[110.3685,-7.62],[110.3725,-7.623],[110.372,-7.6245],[110.3665,-7.6295],[110.3635,-7.6435],[110.3625,-7.645],[110.367,-7.6455],[110.3665,-7.6475],[110.367,-7.648],[110.3665,-7.6485],[110.367,-7.6485],[110.3675,-7.6475],[110.37,-7.642],[110.371,-7.6405],[110.3715,-7.642],[110.3715,-7.643],[110.3685,-7.6495],[110.3685,-7.65],[110.367,-7.6525],[110.37,-7.655],[110.3705,-7.6545],[110.3735,-7.6485],[110.3755,-7.6495],[110.377,-7.6465],[110.378,-7.647],[110.378,-7.646],[110.3795,-7.646],[110.38,-7.6455]]]},"properties":{"code":"34.04.15.2004","name":"Wonokerto"}},{"type":"Feature","geometry":{"type":"Polygon","coordinates":[[[110.4415,-7.562],[110.445,-7.541],[110.4445,-7.542],[110.443,-7.5435],[110.4425,-7.5445],[110.4415,-7.546],[110.4395,-7.547],[110.414,-7.572],[110.415,-7.5965],[110.3985,-7.636],[110.3915,-7.646],[110.391,-7.6475],[110.391,-7.6485],[110.377,-7.671],[110.377,-7.672],[110.3785,-7.6725],[110.38,-7.673],[110.382,-7.674],[110.3945,-7.675],[110.395,-7.6735],[110.396,-7.6605],[110.3965,-7.658],[110.3975,-7.656],[110.399,-7.654],[110.4015,-7.6415],[110.403,-7.639],[110.4065,-7.6305],[110.4075,-7.6285],[110.409,-7.6275],[110.4095,-7.6265],[110.415,-7.6225],[110.419,-7.5995],[110.4265,-7.5785],[110.4285,-7.5695],[110.4415,-7.562]]]},"properties":{"code":"34.04.16.2001","name":"Purwobinangun"}},{"type":"Feature","geometry":{"type":"Polygon","coordinates":[[[110.409,-7.645],[110.409,-7.6275],[110.4075,-7.6285],[110.4065,-7.6305],[110.403,-7.639],[110.4015,-7.6415],[110.399,-7.654],[110.3975,-7.656],[110.3965,-7.658],[110.396,-7.6605],[110.395,-7.6735],[110.3945,-7.678],[110.394,-7.68],[110.394,-7.682],[110.397,-7.6865],[110.402,-7.6875],[110.4025,-7.686],[110.404,-7.687],[110.404,-7.686],[110.4035,-7.6785],[110.4035,-7.6775],[110.4035,-7.6725],[110.4035,-7.67],[110.409,-7.645]]]},"properties":{"code":"34.04.16.2002","name":"Candibinangun"}},{"type":"Feature","geometry":{"type":"Polygon","coordinates":[[[110.4175,-7.6495],[110.417,-7.649],[110.409,-7.645],[110.4035,-7.67],[110.4035,-7.6725],[110.4035,-7.6775],[110.4035,-7.6785],[110.404,-7.686],[110.404,-7.687],[110.4035,-7.689],[110.4075,-7.6875],[110.409,-7.686],[110.415,-7.677],[110.4165,-7.673],[110.417,-7.6705],[110.416,-7.67],[110.4165,-7.6685],[110.4165,-7.6675],[110.4175,-7.667],[110.4155,-7.6645],[110.4135,-7.664],[110.414,-7.662],[110.4145,-7.6595],[110.415,-7.658],[110.4175,-7.6495]]]},"properties":{"code":"34.04.16.2003","name":"Harjobinangun"}},{"type":"Feature","geometry":{"type":"Polygon","coordinates":[[[110.4285,-7.643],[110.4235,-7.645],[110.423,-7.65],[110.4185,-7.65],[110.4175,-7.6495],[110.415,-7.658],[110.4145,-7.6595],[110.414,-7.662],[110.4135,-7.664],[110.4155,-7.6645],[110.4175,-7.667],[110.4165,-7.6675],[110.4165,-7.6685],[110.417,-7.669],[110.4175,-7.669],[110.4275,-7.67],[110.427,-7.67],[110.4305,-7.668],[110.431,-7.667],[110.4305,-7.6665],[110.4325,-7.664],[110.43,-7.659],[110.43,-7.658],[110.429,-7.646],[110.4285,-7.6455],[110.4285,-7.643]]]},"properties":{"code":"34.04.16.2004","name":"Pakembinangun"}},{"type":"Feature","geometry":{"type":"Polygon","coordinates":[[[110.4285,-7.643],[110.428,-7.642],[110.429,-7.6125],[110.4415,-7.5905],[110.435,-7.5755],[110.4355,-7.574],[110.4415,-7.562],[110.4285,-7.5695],[110.4265,-7.5785],[110.419,-7.5995],[110.415,-7.6225],[110.4095,-7.6265],[110.409,-7.6275],[110.409,-7.645],[110.417,-7.649],[110.4185,-7.65],[110.423,-7.65],[110.4235,-7.645],[110.4285,-7.643]]]},"properties":{"code":"34.04.16.2005","name":"Hargobinangun"}},{"type":"Feature","geometry":{"type":"Polygon","coordinates":[[[110.4635,-7.651],[110.4555,-7.661],[110.4545,-7.662],[110.447,-7.6745],[110.4475,-7.682],[110.448,-7.6825],[110.462,-7.681],[110.463,-7.682],[110.4645,-7.6885],[110.4645,-7.689],[110.4665,-7.69],[110.4675,-7.6855],[110.468,-7.685],[110.4675,-7.6755],[110.4675,-7.6745],[110.4775,-7.678],[110.477,-7.6745],[110.476,-7.6725],[110.4715,-7.651],[110.4695,-7.651],[110.4675,-7.6535],[110.464,-7.6545],[110.4635,-7.651]]]},"properties":{"code":"34.04.17.2001","name":"Argomulyo"}},{"type":"Feature","geometry":{"type":"Polygon","coordinates":[[[110.4455,-7.6305],[110.4455,-7.631],[110.4465,-7.6375],[110.446,-7.6395],[110.4365,-7.631],[110.4355,-7.6335],[110.429,-7.6455],[110.429,-7.646],[110.43,-7.658],[110.43,-7.659],[110.4325,-7.664],[110.4305,-7.6665],[110.431,-7.667],[110.431,-7.6685],[110.43,-7.671],[110.4375,-7.6745],[110.443,-7.6745],[110.447,-7.6745],[110.4545,-7.662],[110.4555,-7.661],[110.4635,-7.651],[110.464,-7.6495],[110.4605,-7.632],[110.4555,-7.6325],[110.4515,-7.631],[110.45,-7.631],[110.4455,-7.6305]]]},"properties":{"code":"34.04.17.2002","name":"Wukirsari"}},{"type":"Feature","geometry":{"type":"Polygon","coordinates":[[[110.467,-7.6135],[110.46,-7.5875],[110.4535,-7.568],[110.455,-7.555],[110.445,-7.541],[110.4415,-7.562],[110.445,-7.569],[110.4625,-7.6195],[110.4605,-7.632],[110.464,-7.6495],[110.4635,-7.651],[110.464,-7.6545],[110.4675,-7.6535],[110.4695,-7.651],[110.4715,-7.651],[110.471,-7.648],[110.4705,-7.648],[110.4705,-7.6475],[110.4685,-7.637],[110.4685,-7.618],[110.467,-7.6135]]]},"properties":{"code":"34.04.17.2003","name":"Glagaharjo"}},{"type":"Feature","geometry":{"type":"Polygon","coordinates":[[[110.4605,-7.632],[110.4625,-7.6195],[110.445,-7.569],[110.443,-7.5935],[110.4455,-7.63],[110.4455,-7.6305],[110.45,-7.631],[110.4515,-7.631],[110.4555,-7.6325],[110.4605,-7.632]]]},"properties":{"code":"34.04.17.2004","name":"Kepuharjo"}},{"type":"Feature","geometry":{"type":"Polygon","coordinates":[[[110.445,-7.569],[110.4415,-7.562],[110.4355,-7.574],[110.435,-7.5755],[110.4415,-7.5905],[110.429,-7.6125],[110.428,-7.642],[110.4285,-7.643],[110.4285,-7.6455],[110.429,-7.6455],[110.4355,-7.6335],[110.4365,-7.631],[110.446,-7.6395],[110.4465,-7.6375],[110.4455,-7.631],[110.4455,-7.63],[110.443,-7.5935],[110.445,-7.569]]]},"properties":{"code":"34.04.17.2005","name":"Umbulharjo"}}]}