{"type":"FeatureCollection","features":[{"type":"Feature","geometry":{"type":"Polygon","coordinates":[[[110.9255,-8.191],[110.922,-8.19],[110.91,-8.1865],[110.9075,-8.184],[110.9095,-8.17],[110.9085,-8.167],[110.9075,-8.167],[110.9025,-8.17],[110.8975,-8.17],[110.8975,-8.1715],[110.9,-8.2115],[110.916,-8.2135],[110.9235,-8.2115],[110.93,-8.199],[110.922,-8.193],[110.9255,-8.191]]]},"properties":{"code":"35.01.01.2001","name":"Widoro"}},{"type":"Feature","geometry":{"type":"Polygon","coordinates":[[[110.9265,-8.1705],[110.9155,-8.164],[110.908,-8.164],[110.908,-8.1665],[110.9095,-8.168],[110.9095,-8.17],[110.9075,-8.184],[110.91,-8.1865],[110.922,-8.19],[110.9285,-8.1915],[110.929,-8.1915],[110.929,-8.1895],[110.9265,-8.1705]]]},"properties":{"code":"35.01.01.2002","name":"Sawahan"}},{"type":"Feature","geometry":{"type":"Polygon","coordinates":[[[110.9475,-8.171],[110.944,-8.1665],[110.9265,-8.1705],[110.929,-8.1895],[110.929,-8.1915],[110.9285,-8.1915],[110.9255,-8.191],[110.922,-8.193],[110.93,-8.199],[110.9235,-8.2115],[110.916,-8.2135],[110.927,-8.2225],[110.941,-8.2245],[110.941,-8.203],[110.937,-8.2005],[110.9375,-8.1995],[110.9375,-8.1945],[110.9375,-8.193],[110.941,-8.1855],[110.9425,-8.1815],[110.9475,-8.171]]]},"properties":{"code":"35.01.01.2003","name":"Kalak"}},{"type":"Feature","geometry":{"type":"Polygon","coordinates":[[[110.9515,-8.1665],[110.9495,-8.1675],[110.949,-8.167],[110.9475,-8.171],[110.9425,-8.1815],[110.941,-8.1855],[110.9375,-8.193],[110.9375,-8.1945],[110.9375,-8.1995],[110.937,-8.2005],[110.941,-8.203],[110.941,-8.2245],[110.961,-8.229],[110.962,-8.2275],[110.9615,-8.2225],[110.9495,-8.2025],[110.9545,-8.193],[110.9545,-8.191],[110.9575,-8.189],[110.952,-8.176],[110.9535,-8.172],[110.9515,-8.1685],[110.9515,-8.1665]]]},"properties":{"code":"35.01.01.2004","name":"Sendang"}},{"type":"Feature","geometry":{"type":"Polygon","coordinates":[[[110.9465,-8.1365],[110.9405,-8.135],[110.938,-8.1335],[110.9355,-8.134],[110.9265,-8.142],[110.918,-8.157],[110.8975,-8.159],[110.8965,-8.1625],[110.8955,-8.164],[110.8955,-8.1675],[110.896,-8.1685],[110.8975,-8.1685],[110.8975,-8.17],[110.9025,-8.17],[110.9075,-8.167],[110.9085,-8.167],[110.908,-8.1665],[110.908,-8.164],[110.9155,-8.164],[110.9265,-8.1705],[110.944,-8.1665],[110.949,-8.167],[110.9495,-8.1675],[110.9505,-8.1665],[110.952,-8.1665],[110.961,-8.1625],[110.9605,-8.161],[110.9585,-8.1585],[110.958,-8.1555],[110.955,-8.146],[110.9545,-8.1455],[110.953,-8.145],[110.951,-8.142],[110.9465,-8.1365]]]},"properties":{"code":"35.01.01.2005","name":"Klepu"}},{"type":"Feature","geometry":{"type":"Polygon","coordinates":[[[110.9415,-8.126],[110.939,-8.1265],[110.9335,-8.127],[110.9325,-8.127],[110.917,-8.116],[110.9155,-8.1155],[110.9155,-8.116],[110.9135,-8.116],[110.908,-8.1165],[110.9065,-8.1365],[110.898,-8.1575],[110.8975,-8.159],[110.918,-8.157],[110.9265,-8.142],[110.9355,-8.134],[110.938,-8.1335],[110.9405,-8.135],[110.9465,-8.1365],[110.9475,-8.133],[110.943,-8.128],[110.942,-8.126],[110.9415,-8.126]]]},"properties":{"code":"35.01.01.2006","name":"Gedompol"}},{"type":"Feature","geometry":{"type":"Polygon","coordinates":[[[110.9545,-8.0875],[110.9525,-8.085],[110.9515,-8.0845],[110.9485,-8.085],[110.939,-8.087],[110.938,-8.0875],[110.935,-8.0895],[110.9325,-8.0905],[110.9315,-8.092],[110.9195,-8.105],[110.916,-8.114],[110.9155,-8.1155],[110.917,-8.116],[110.9325,-8.127],[110.9335,-8.127],[110.939,-8.1265],[110.9415,-8.126],[110.9415,-8.1245],[110.945,-8.12],[110.9455,-8.1165],[110.9545,-8.097],[110.9545,-8.0875]]]},"properties":{"code":"35.01.01.2007","name":"Cemeng"}},{"type":"Feature","geometry":{"type":"Polygon","coordinates":[[[110.9675,-8.093],[110.965,-8.09],[110.964,-8.09],[110.9605,-8.0905],[110.9575,-8.0885],[110.9545,-8.0875],[110.9545,-8.097],[110.9455,-8.1165],[110.945,-8.12],[110.9415,-8.1245],[110.942,-8.126],[110.943,-8.128],[110.9475,-8.133],[110.954,-8.1155],[110.964,-8.098],[110.965,-8.097],[110.9675,-8.093]]]},"properties":{"code":"35.01.01.2008","name":"Gendaran"}},{"type":"Feature","geometry":{"type":"Polygon","coordinates":[[[110.9815,-8.099],[110.9705,-8.0945],[110.9675,-8.093],[110.965,-8.097],[110.964,-8.098],[110.954,-8.1155],[110.9475,-8.133],[110.9465,-8.1365],[110.951,-8.142],[110.953,-8.145],[110.9545,-8.1455],[110.9545,-8.1445],[110.9565,-8.1405],[110.961,-8.137],[110.9705,-8.126],[110.973,-8.1095],[110.974,-8.1085],[110.9765,-8.1075],[110.977,-8.1055],[110.98,-8.1025],[110.9805,-8.101],[110.9815,-8.099]]]},"properties":{"code":"35.01.01.2009","name":"Sukodono"}},{"type":"Feature","geometry":{"type":"Polygon","coordinates":[[[110.9835,-8.1115],[110.9835,-8.11],[110.9835,-8.109],[110.9785,-8.1065],[110.977,-8.106],[110.9765,-8.1075],[110.974,-8.1085],[110.973,-8.1095],[110.9705,-8.126],[110.961,-8.137],[110.9565,-8.1405],[110.9545,-8.1445],[110.955,-8.146],[110.958,-8.1555],[110.959,-8.1585],[110.9625,-8.157],[110.965,-8.153],[110.9675,-8.152],[110.9735,-8.154],[110.973,-8.1535],[110.974,-8.153],[110.978,-8.146],[110.9785,-8.143],[110.9775,-8.1395],[110.9775,-8.1365],[110.976,-8.1305],[110.978,-8.128],[110.9805,-8.1225],[110.98,-8.121],[110.981,-8.114],[110.9815,-8.113],[110.982,-8.1125],[110.9835,-8.1115]]]},"properties":{"code":"35.01.01.2010","name":"Sekar"}},{"type":"Feature","geometry":{"type":"Polygon","coordinates":[[[111.0095,-8.075],[111.0045,-8.073],[111.0015,-8.074],[110.9955,-8.0795],[110.9935,-8.079],[110.9815,-8.099],[110.9805,-8.101],[110.98,-8.1025],[110.977,-8.1055],[110.977,-8.106],[110.9785,-8.1065],[110.9835,-8.109],[110.9835,-8.11],[110.9835,-8.1115],[110.9845,-8.111],[110.996,-8.1115],[110.999,-8.1125],[111.0085,-8.099],[111.021,-8.0915],[111.02,-8.086],[111.0195,-8.0855],[111.0205,-8.085],[111.0205,-8.0845],[111.02,-8.084],[111.0175,-8.079],[111.017,-8.078],[111.017,-8.077],[111.0095,-8.075]]]},"properties":{"code":"35.01.01.2011","name":"Donorojo"}},{"type":"Feature","geometry":{"type":"Polygon","coordinates":[[[110.9545,-8.0625],[110.9405,-8.0835],[110.9395,-8.0845],[110.939,-8.087],[110.9485,-8.085],[110.9515,-8.0845],[110.9525,-8.085],[110.9575,-8.0885],[110.9605,-8.0905],[110.964,-8.09],[110.965,-8.09],[110.9705,-8.0945],[110.9815,-8.099],[110.9935,-8.079],[110.993,-8.079],[110.98,-8.075],[110.978,-8.0725],[110.9735,-8.0715],[110.9705,-8.0695],[110.9675,-8.068],[110.9545,-8.0625]]]},"properties":{"code":"35.01.01.2012","name":"Belah"}},{"type":"Feature","geometry":{"type":"Polygon","coordinates":[[[110.988,-8.1775],[110.984,-8.1775],[110.9815,-8.178],[110.9805,-8.1775],[110.9785,-8.1795],[110.9735,-8.1805],[110.971,-8.182],[110.9695,-8.186],[110.9655,-8.1885],[110.964,-8.19],[110.961,-8.1915],[110.9575,-8.189],[110.9545,-8.191],[110.9545,-8.193],[110.9495,-8.2025],[110.9615,-8.2225],[110.962,-8.2235],[110.9655,-8.222],[110.972,-8.222],[110.974,-8.219],[110.9745,-8.219],[110.9755,-8.218],[110.985,-8.212],[110.9855,-8.211],[110.9855,-8.21],[110.986,-8.207],[110.9855,-8.2035],[110.986,-8.1975],[110.9895,-8.1845],[110.988,-8.1775]]]},"properties":{"code":"35.01.02.2001","name":"Dersono"}},{"type":"Feature","geometry":{"type":"Polygon","coordinates":[[[111.0105,-8.172],[111.0095,-8.172],[111.0035,-8.1755],[111.0025,-8.1765],[111.001,-8.1765],[110.9975,-8.1775],[110.995,-8.176],[110.9935,-8.176],[110.992,-8.1775],[110.9895,-8.1775],[110.9885,-8.177],[110.988,-8.1775],[110.9895,-8.1845],[110.986,-8.1975],[110.9855,-8.2035],[110.986,-8.207],[110.9855,-8.21],[110.9855,-8.211],[110.986,-8.2105],[110.9865,-8.2095],[110.9895,-8.208],[110.995,-8.202],[110.998,-8.201],[111.0015,-8.195],[111.0035,-8.1925],[111.004,-8.1925],[111.006,-8.19],[111.0075,-8.189],[111.008,-8.189],[111.008,-8.188],[111.0095,-8.187],[111.0105,-8.1855],[111.013,-8.1845],[111.013,-8.1835],[111.0105,-8.1755],[111.011,-8.1725],[111.0105,-8.172]]]},"properties":{"code":"35.01.02.2002","name":"Sugihwaras"}},{"type":"Feature","geometry":{"type":"Polygon","coordinates":[[[110.9845,-8.2325],[110.993,-8.218],[110.988,-8.214],[110.987,-8.2115],[110.9875,-8.2105],[110.9865,-8.21],[110.985,-8.212],[110.9755,-8.218],[110.9745,-8.219],[110.974,-8.219],[110.972,-8.222],[110.9655,-8.222],[110.962,-8.2235],[110.962,-8.2275],[110.961,-8.229],[110.96,-8.2335],[110.9825,-8.24],[110.983,-8.2395],[110.984,-8.239],[110.9845,-8.236],[110.9845,-8.2325]]]},"properties":{"code":"35.01.02.2003","name":"Watukarung"}},{"type":"Feature","geometry":{"type":"Polygon","coordinates":[[[111.018,-8.189],[111.0095,-8.1875],[111.008,-8.1885],[111.008,-8.189],[111.0075,-8.189],[111.006,-8.19],[111.004,-8.1925],[111.0035,-8.1925],[111.0015,-8.195],[110.998,-8.201],[110.995,-8.202],[110.9895,-8.208],[110.9865,-8.21],[110.9875,-8.2105],[110.987,-8.2115],[110.988,-8.214],[110.993,-8.218],[110.9845,-8.2325],[110.9845,-8.236],[110.984,-8.239],[110.983,-8.2395],[110.9825,-8.24],[110.9885,-8.2425],[111.0025,-8.2295],[111.0115,-8.2125],[111.0145,-8.21],[111.017,-8.2015],[111.019,-8.1995],[111.0235,-8.1975],[111.024,-8.196],[111.022,-8.196],[111.018,-8.189]]]},"properties":{"code":"35.01.02.2004","name":"Jlubang"}},{"type":"Feature","geometry":{"type":"Polygon","coordinates":[[[111.041,-8.212],[111.039,-8.2095],[111.0325,-8.2075],[111.0255,-8.2105],[111.0205,-8.211],[111.0195,-8.2115],[111.015,-8.2115],[111.014,-8.2125],[111.0135,-8.212],[111.0125,-8.2115],[111.0115,-8.2125],[111.0025,-8.2295],[110.9885,-8.2425],[110.996,-8.2515],[111.003,-8.249],[111.0275,-8.25],[111.0275,-8.249],[111.0285,-8.244],[111.029,-8.242],[111.029,-8.241],[111.0375,-8.227],[111.038,-8.2265],[111.0385,-8.221],[111.041,-8.215],[111.041,-8.2125],[111.041,-8.212]]]},"properties":{"code":"35.01.02.2005","name":"Candi"}},{"type":"Feature","geometry":{"type":"Polygon","coordinates":[[[111.056,-8.251],[111.0535,-8.2445],[111.0525,-8.242],[111.0505,-8.2345],[111.0515,-8.229],[111.0555,-8.219],[111.049,-8.21],[111.049,-8.2085],[111.0505,-8.2025],[111.0385,-8.2085],[111.039,-8.2095],[111.041,-8.212],[111.041,-8.2125],[111.041,-8.215],[111.0385,-8.221],[111.038,-8.2265],[111.0375,-8.227],[111.029,-8.241],[111.029,-8.242],[111.0285,-8.244],[111.0275,-8.249],[111.0275,-8.25],[111.033,-8.254],[111.056,-8.251]]]},"properties":{"code":"35.01.02.2006","name":"Poko"}},{"type":"Feature","geometry":{"type":"Polygon","coordinates":[[[111.0645,-8.201],[111.0505,-8.2025],[111.049,-8.2085],[111.049,-8.21],[111.0555,-8.219],[111.0515,-8.229],[111.0505,-8.2345],[111.0525,-8.242],[111.0535,-8.2445],[111.056,-8.251],[111.0765,-8.2445],[111.075,-8.2385],[111.066,-8.224],[111.0625,-8.209],[111.0625,-8.206],[111.063,-8.2045],[111.064,-8.2025],[111.0645,-8.201]]]},"properties":{"code":"35.01.02.2007","name":"Dadapan"}},{"type":"Feature","geometry":{"type":"Polygon","coordinates":[[[111.0315,-8.1655],[111.031,-8.1835],[111.03,-8.184],[111.0235,-8.1855],[111.024,-8.1865],[111.0235,-8.1875],[111.0225,-8.1885],[111.018,-8.189],[111.022,-8.196],[111.024,-8.196],[111.0235,-8.1975],[111.019,-8.1995],[111.017,-8.2015],[111.0145,-8.21],[111.0125,-8.2115],[111.0135,-8.212],[111.014,-8.2125],[111.015,-8.2115],[111.0195,-8.2115],[111.0205,-8.211],[111.0255,-8.2105],[111.0325,-8.2075],[111.0385,-8.2085],[111.0505,-8.2025],[111.0485,-8.193],[111.047,-8.191],[111.052,-8.1855],[111.042,-8.1725],[111.0395,-8.1715],[111.0315,-8.1655]]]},"properties":{"code":"35.01.02.2008","name":"Pringkuku"}},{"type":"Feature","geometry":{"type":"Polygon","coordinates":[[[111.0315,-8.1655],[111.029,-8.164],[111.012,-8.17],[111.0115,-8.1705],[111.0105,-8.172],[111.011,-8.1725],[111.0105,-8.1755],[111.013,-8.1835],[111.013,-8.1845],[111.0105,-8.1855],[111.0095,-8.187],[111.008,-8.188],[111.008,-8.189],[111.008,-8.1885],[111.0095,-8.1875],[111.018,-8.189],[111.0225,-8.1885],[111.0235,-8.1875],[111.024,-8.1865],[111.0235,-8.1855],[111.03,-8.184],[111.031,-8.1835],[111.0315,-8.1655]]]},"properties":{"code":"35.01.02.2009","name":"Sobo"}},{"type":"Feature","geometry":{"type":"Polygon","coordinates":[[[111.0675,-8.1665],[111.055,-8.1645],[111.0445,-8.151],[111.0435,-8.1515],[111.037,-8.1575],[111.0315,-8.1655],[111.0395,-8.1715],[111.042,-8.1725],[111.052,-8.1855],[111.047,-8.191],[111.0485,-8.193],[111.0505,-8.2025],[111.0645,-8.201],[111.065,-8.1985],[111.066,-8.195],[111.064,-8.192],[111.063,-8.1875],[111.064,-8.183],[111.059,-8.179],[111.059,-8.1775],[111.0595,-8.1755],[111.0645,-8.1715],[111.0675,-8.1665]]]},"properties":{"code":"35.01.02.2010","name":"Ngadirejan"}},{"type":"Feature","geometry":{"type":"Polygon","coordinates":[[[111.075,-8.1485],[111.074,-8.15],[111.054,-8.1485],[111.053,-8.1485],[111.05,-8.1475],[111.0485,-8.1485],[111.046,-8.1485],[111.045,-8.149],[111.0445,-8.1495],[111.045,-8.1505],[111.0445,-8.151],[111.055,-8.1645],[111.0675,-8.1665],[111.0725,-8.1665],[111.074,-8.1665],[111.0785,-8.169],[111.0785,-8.17],[111.0805,-8.174],[111.0815,-8.172],[111.083,-8.1715],[111.083,-8.171],[111.0835,-8.171],[111.086,-8.169],[111.088,-8.166],[111.0855,-8.1525],[111.0855,-8.151],[111.0835,-8.149],[111.082,-8.1485],[111.082,-8.148],[111.077,-8.149],[111.075,-8.1485]]]},"properties":{"code":"35.01.02.2011","name":"Glinggangan"}},{"type":"Feature","geometry":{"type":"Polygon","coordinates":[[[111.062,-8.0935],[111.0615,-8.0935],[111.061,-8.093],[111.0605,-8.0935],[111.06,-8.094],[111.058,-8.0955],[111.052,-8.098],[111.051,-8.0985],[111.051,-8.1],[111.0475,-8.1215],[111.0495,-8.127],[111.049,-8.1275],[111.044,-8.127],[111.043,-8.127],[111.0445,-8.147],[111.045,-8.149],[111.046,-8.1485],[111.0485,-8.1485],[111.05,-8.1475],[111.053,-8.1485],[111.054,-8.1485],[111.074,-8.15],[111.075,-8.1485],[111.0745,-8.148],[111.0735,-8.1475],[111.074,-8.1465],[111.0745,-8.145],[111.075,-8.131],[111.074,-8.1275],[111.071,-8.117],[111.0695,-8.1145],[111.0685,-8.113],[111.069,-8.1085],[111.0685,-8.1065],[111.062,-8.0935]]]},"properties":{"code":"35.01.02.2012","name":"Pelem"}},{"type":"Feature","geometry":{"type":"Polygon","coordinates":[[[111.1035,-8.105],[111.0975,-8.1055],[111.0935,-8.1065],[111.091,-8.105],[111.0905,-8.106],[111.0895,-8.108],[111.0885,-8.1095],[111.0865,-8.115],[111.084,-8.1165],[111.0815,-8.1145],[111.0735,-8.1145],[111.071,-8.117],[111.074,-8.1275],[111.075,-8.131],[111.0745,-8.145],[111.074,-8.1465],[111.0735,-8.1475],[111.0745,-8.148],[111.077,-8.149],[111.082,-8.148],[111.083,-8.14],[111.084,-8.139],[111.094,-8.14],[111.098,-8.136],[111.0985,-8.1355],[111.099,-8.135],[111.1015,-8.1335],[111.11,-8.1325],[111.111,-8.132],[111.114,-8.131],[111.113,-8.13],[111.1125,-8.1275],[111.1195,-8.125],[111.105,-8.1205],[111.0995,-8.1165],[111.096,-8.11],[111.0975,-8.1085],[111.1035,-8.105]]]},"properties":{"code":"35.01.02.2013","name":"Tamanasri"}},{"type":"Feature","geometry":{"type":"Polygon","coordinates":[[[110.9735,-8.154],[110.9675,-8.152],[110.965,-8.153],[110.9625,-8.157],[110.959,-8.1585],[110.9605,-8.161],[110.961,-8.1625],[110.952,-8.1665],[110.9515,-8.1665],[110.9515,-8.1685],[110.9535,-8.172],[110.952,-8.176],[110.9575,-8.189],[110.961,-8.1915],[110.964,-8.19],[110.9655,-8.1885],[110.9695,-8.186],[110.971,-8.182],[110.9735,-8.1805],[110.9785,-8.1795],[110.9805,-8.1775],[110.9815,-8.178],[110.984,-8.1775],[110.988,-8.1775],[110.9885,-8.177],[110.9895,-8.1775],[110.992,-8.1775],[110.9935,-8.1745],[110.9895,-8.164],[110.9735,-8.154]]]},"properties":{"code":"35.01.03.2001","name":"Bomo"}},{"type":"Feature","geometry":{"type":"Polygon","coordinates":[[[111.029,-8.164],[111.03,-8.1585],[111.029,-8.1575],[111.018,-8.1425],[111.0155,-8.1415],[111.015,-8.1405],[111.01,-8.147],[111.007,-8.1505],[111.0075,-8.1505],[111.0075,-8.153],[111.006,-8.1555],[111.0055,-8.1575],[111.0025,-8.163],[111.0005,-8.1655],[110.999,-8.168],[110.9975,-8.172],[110.9985,-8.174],[110.996,-8.1745],[110.9935,-8.1755],[110.9935,-8.176],[110.995,-8.176],[110.9975,-8.1775],[111.001,-8.1765],[111.0025,-8.1765],[111.0035,-8.1755],[111.0095,-8.172],[111.0115,-8.1705],[111.012,-8.17],[111.029,-8.164]]]},"properties":{"code":"35.01.03.2002","name":"Sooka"}},{"type":"Feature","geometry":{"type":"Polygon","coordinates":[[[111.0275,-8.101],[111.0255,-8.101],[111.0245,-8.1015],[111.0205,-8.1045],[111.017,-8.1095],[111.014,-8.113],[111.01,-8.1285],[111.003,-8.1275],[111,-8.1295],[111.0015,-8.131],[111.002,-8.131],[111.004,-8.1305],[111.0045,-8.131],[111.0035,-8.1325],[111.014,-8.139],[111.015,-8.1395],[111.015,-8.1405],[111.0155,-8.1415],[111.018,-8.1425],[111.029,-8.1575],[111.03,-8.1585],[111.029,-8.164],[111.0315,-8.1655],[111.037,-8.1575],[111.028,-8.1455],[111.031,-8.136],[111.03,-8.1335],[111.021,-8.1315],[111.021,-8.1285],[111.025,-8.109],[111.0245,-8.1065],[111.027,-8.1015],[111.027,-8.102],[111.0275,-8.101]]]},"properties":{"code":"35.01.03.2003","name":"Punung"}},{"type":"Feature","geometry":{"type":"Polygon","coordinates":[[[111.043,-8.127],[111.042,-8.1265],[111.0355,-8.119],[111.032,-8.1185],[111.0255,-8.1275],[111.0235,-8.1275],[111.0215,-8.128],[111.021,-8.1315],[111.03,-8.1335],[111.031,-8.136],[111.028,-8.1455],[111.037,-8.1575],[111.0435,-8.1515],[111.045,-8.1505],[111.0445,-8.1495],[111.0445,-8.147],[111.043,-8.127]]]},"properties":{"code":"35.01.03.2004","name":"Mendolo Kidul"}},{"type":"Feature","geometry":{"type":"Polygon","coordinates":[[[110.9905,-8.1355],[110.99,-8.1355],[110.9895,-8.1355],[110.9875,-8.1355],[110.9865,-8.138],[110.983,-8.138],[110.9815,-8.138],[110.981,-8.138],[110.978,-8.139],[110.9775,-8.1395],[110.9785,-8.143],[110.978,-8.146],[110.974,-8.153],[110.973,-8.1535],[110.9735,-8.154],[110.9895,-8.164],[110.9935,-8.1745],[110.9935,-8.1755],[110.996,-8.1745],[110.9985,-8.174],[110.9975,-8.172],[110.999,-8.168],[111.0005,-8.1655],[111.0025,-8.163],[111.0055,-8.1575],[111.006,-8.1555],[111.0075,-8.153],[111.0075,-8.1505],[111.007,-8.1505],[111.0075,-8.1495],[111.007,-8.1495],[111.005,-8.1495],[111.003,-8.1485],[110.996,-8.148],[110.9945,-8.1485],[110.993,-8.148],[110.993,-8.1445],[110.9915,-8.137],[110.991,-8.1365],[110.99,-8.136],[110.9905,-8.1355]]]},"properties":{"code":"35.01.03.2005","name":"Piton"}},{"type":"Feature","geometry":{"type":"Polygon","coordinates":[[[111.015,-8.1405],[111.015,-8.1395],[111.014,-8.139],[111.0035,-8.1325],[111.0045,-8.131],[111.004,-8.1305],[111.002,-8.131],[111.0015,-8.131],[111,-8.1295],[110.9995,-8.128],[110.9985,-8.129],[110.996,-8.129],[110.9955,-8.1305],[110.9945,-8.132],[110.9905,-8.1345],[110.99,-8.136],[110.991,-8.1365],[110.9915,-8.137],[110.993,-8.1445],[110.993,-8.148],[110.9945,-8.1485],[110.996,-8.148],[111.003,-8.1485],[111.005,-8.1495],[111.007,-8.1495],[111.0075,-8.1495],[111.01,-8.147],[111.015,-8.1405]]]},"properties":{"code":"35.01.03.2006","name":"Kendal"}},{"type":"Feature","geometry":{"type":"Polygon","coordinates":[[[110.9965,-8.112],[110.996,-8.1115],[110.9845,-8.111],[110.982,-8.1125],[110.9815,-8.113],[110.981,-8.114],[110.98,-8.121],[110.9805,-8.1225],[110.978,-8.128],[110.976,-8.1305],[110.9775,-8.1365],[110.978,-8.139],[110.981,-8.138],[110.9815,-8.138],[110.983,-8.138],[110.9865,-8.138],[110.9875,-8.1355],[110.9895,-8.1355],[110.99,-8.1355],[110.9905,-8.1355],[110.9905,-8.1345],[110.9945,-8.132],[110.9945,-8.129],[110.9965,-8.112]]]},"properties":{"code":"35.01.03.2007","name":"Wareng"}},{"type":"Feature","geometry":{"type":"Polygon","coordinates":[[[111.0275,-8.0985],[111.0275,-8.0975],[111.0265,-8.098],[111.0255,-8.0985],[111.024,-8.0885],[111.0215,-8.0875],[111.0205,-8.086],[111.0195,-8.0855],[111.02,-8.086],[111.021,-8.0915],[111.0085,-8.099],[110.999,-8.1125],[110.9965,-8.112],[110.9945,-8.129],[110.9945,-8.132],[110.9955,-8.1305],[110.996,-8.129],[110.9985,-8.129],[110.9995,-8.128],[111.003,-8.1275],[111.01,-8.1285],[111.014,-8.113],[111.017,-8.1095],[111.0205,-8.1045],[111.0245,-8.1015],[111.0255,-8.101],[111.0275,-8.101],[111.0275,-8.1],[111.027,-8.0995],[111.0275,-8.0985]]]},"properties":{"code":"35.01.03.2008","name":"Mantren"}},{"type":"Feature","geometry":{"type":"Polygon","coordinates":[[[111.051,-8.099],[111.047,-8.1005],[111.046,-8.1005],[111.0275,-8.0995],[111.0275,-8.0985],[111.027,-8.0995],[111.0275,-8.1],[111.0275,-8.102],[111.027,-8.102],[111.027,-8.1015],[111.0245,-8.1065],[111.025,-8.109],[111.021,-8.1285],[111.0215,-8.128],[111.0235,-8.1275],[111.0255,-8.1275],[111.032,-8.1185],[111.0355,-8.119],[111.042,-8.1265],[111.044,-8.127],[111.049,-8.1275],[111.0495,-8.127],[111.0475,-8.1215],[111.051,-8.1],[111.051,-8.099]]]},"properties":{"code":"35.01.03.2009","name":"Mendolo Lor"}},{"type":"Feature","geometry":{"type":"Polygon","coordinates":[[[111.0815,-8.0805],[111.071,-8.0615],[111.0705,-8.0615],[111.0695,-8.061],[111.07,-8.0595],[111.069,-8.0585],[111.068,-8.0575],[111.0675,-8.059],[111.064,-8.0625],[111.055,-8.064],[111.0475,-8.0735],[111.034,-8.0795],[111.018,-8.077],[111.017,-8.077],[111.017,-8.078],[111.0175,-8.0785],[111.0175,-8.079],[111.02,-8.084],[111.0205,-8.0845],[111.0195,-8.0855],[111.0205,-8.086],[111.0215,-8.0875],[111.024,-8.0885],[111.0255,-8.0985],[111.0265,-8.098],[111.0275,-8.0975],[111.0275,-8.0985],[111.0275,-8.0995],[111.046,-8.1005],[111.047,-8.1005],[111.051,-8.099],[111.051,-8.0985],[111.052,-8.098],[111.058,-8.0955],[111.06,-8.094],[111.0605,-8.0935],[111.061,-8.093],[111.0615,-8.0935],[111.0625,-8.0925],[111.064,-8.092],[111.065,-8.09],[111.0725,-8.081],[111.0815,-8.0805]]]},"properties":{"code":"35.01.03.2010","name":"Ploso"}},{"type":"Feature","geometry":{"type":"Polygon","coordinates":[[[111.0815,-8.0805],[111.0725,-8.081],[111.065,-8.09],[111.064,-8.092],[111.0625,-8.0925],[111.062,-8.0935],[111.0685,-8.1065],[111.069,-8.1085],[111.0685,-8.113],[111.0695,-8.1145],[111.071,-8.117],[111.0735,-8.1145],[111.0815,-8.1145],[111.084,-8.1165],[111.0865,-8.115],[111.0885,-8.1095],[111.0895,-8.108],[111.0905,-8.106],[111.092,-8.103],[111.0925,-8.0935],[111.0955,-8.09],[111.094,-8.0875],[111.0915,-8.086],[111.09,-8.0845],[111.0815,-8.0805]]]},"properties":{"code":"35.01.03.2011","name":"Gondosari"}},{"type":"Feature","geometry":{"type":"Polygon","coordinates":[[[111.0945,-8.0635],[111.087,-8.058],[111.0875,-8.0475],[111.075,-8.0485],[111.0705,-8.0495],[111.069,-8.0525],[111.0675,-8.056],[111.068,-8.0575],[111.069,-8.0585],[111.07,-8.0595],[111.0695,-8.061],[111.0705,-8.0615],[111.071,-8.0615],[111.0815,-8.0805],[111.09,-8.0845],[111.091,-8.0835],[111.092,-8.0825],[111.0905,-8.082],[111.089,-8.0735],[111.09,-8.0715],[111.092,-8.0665],[111.0925,-8.066],[111.0945,-8.0635]]]},"properties":{"code":"35.01.03.2012","name":"Kebonsari"}},{"type":"Feature","geometry":{"type":"Polygon","coordinates":[[[111.118,-8.078],[111.125,-8.065],[111.1175,-8.0595],[111.1155,-8.061],[111.107,-8.063],[111.1035,-8.0645],[111.0945,-8.0635],[111.0925,-8.066],[111.092,-8.0665],[111.09,-8.0715],[111.089,-8.0735],[111.0905,-8.082],[111.092,-8.0825],[111.091,-8.0835],[111.09,-8.0845],[111.0915,-8.086],[111.094,-8.0875],[111.0955,-8.09],[111.0925,-8.0935],[111.092,-8.103],[111.091,-8.105],[111.0935,-8.1065],[111.0975,-8.1055],[111.1035,-8.105],[111.1035,-8.0985],[111.103,-8.096],[111.103,-8.095],[111.104,-8.094],[111.1045,-8.092],[111.105,-8.0905],[111.1045,-8.09],[111.102,-8.0895],[111.1025,-8.085],[111.1055,-8.0765],[111.108,-8.0735],[111.111,-8.074],[111.1145,-8.0745],[111.1155,-8.075],[111.1165,-8.0755],[111.117,-8.0765],[111.118,-8.078]]]},"properties":{"code":"35.01.03.2013","name":"Tinatar"}},{"type":"Feature","geometry":{"type":"Polygon","coordinates":[[[111.095,-8.1925],[111.082,-8.2005],[111.073,-8.2005],[111.0665,-8.2055],[111.065,-8.206],[111.0625,-8.207],[111.0625,-8.209],[111.066,-8.224],[111.075,-8.2385],[111.0765,-8.2225],[111.093,-8.221],[111.0905,-8.208],[111.093,-8.203],[111.0965,-8.2025],[111.0965,-8.201],[111.097,-8.1955],[111.0985,-8.195],[111.0985,-8.1935],[111.095,-8.1925]]]},"properties":{"code":"35.01.04.1001","name":"Sidoharjo"}},{"type":"Feature","geometry":{"type":"Polygon","coordinates":[[[111.0975,-8.1995],[111.0965,-8.199],[111.0965,-8.201],[111.0965,-8.2025],[111.093,-8.203],[111.0905,-8.208],[111.093,-8.221],[111.1045,-8.2305],[111.1085,-8.2105],[111.1095,-8.208],[111.11,-8.2075],[111.1065,-8.206],[111.106,-8.205],[111.107,-8.2035],[111.0975,-8.1995]]]},"properties":{"code":"35.01.04.1002","name":"Ploso"}},{"type":"Feature","geometry":{"type":"Polygon","coordinates":[[[111.1125,-8.2],[111.1105,-8.199],[111.1095,-8.198],[111.109,-8.194],[111.107,-8.1935],[111.1075,-8.1945],[111.108,-8.195],[111.098,-8.1955],[111.0975,-8.1995],[111.107,-8.2035],[111.1075,-8.2045],[111.1065,-8.204],[111.1075,-8.2045],[111.1075,-8.205],[111.1065,-8.2045],[111.106,-8.205],[111.107,-8.206],[111.11,-8.202],[111.111,-8.2015],[111.1125,-8.2]]]},"properties":{"code":"35.01.04.1008","name":"Baleharjo"}},{"type":"Feature","geometry":{"type":"Polygon","coordinates":[[[111.099,-8.1785],[111.087,-8.175],[111.0955,-8.187],[111.095,-8.191],[111.095,-8.1925],[111.0985,-8.1935],[111.099,-8.1925],[111.1005,-8.193],[111.1005,-8.192],[111.101,-8.185],[111.1005,-8.1825],[111.0985,-8.1795],[111.099,-8.1785]]]},"properties":{"code":"35.01.04.1012","name":"Pucangsewu"}},{"type":"Feature","geometry":{"type":"Polygon","coordinates":[[[111.1035,-8.176],[111.1,-8.175],[111.1005,-8.177],[111.1,-8.1785],[111.0985,-8.1795],[111.1005,-8.1825],[111.101,-8.185],[111.1005,-8.192],[111.1005,-8.193],[111.099,-8.1925],[111.0985,-8.195],[111.097,-8.1955],[111.0965,-8.199],[111.097,-8.1995],[111.0975,-8.1995],[111.098,-8.1955],[111.108,-8.195],[111.1075,-8.1945],[111.107,-8.1935],[111.1075,-8.192],[111.108,-8.1915],[111.107,-8.1845],[111.1105,-8.1835],[111.1105,-8.1825],[111.1105,-8.181],[111.1045,-8.1755],[111.1035,-8.176]]]},"properties":{"code":"35.01.04.1013","name":"Pacitan"}},{"type":"Feature","geometry":{"type":"Polygon","coordinates":[[[111.1235,-8.214],[111.1225,-8.2135],[111.121,-8.2135],[111.1145,-8.211],[111.114,-8.2135],[111.1115,-8.2105],[111.11,-8.209],[111.1095,-8.208],[111.1085,-8.2105],[111.1045,-8.2305],[111.102,-8.241],[111.11,-8.238],[111.117,-8.2325],[111.124,-8.2295],[111.1255,-8.2275],[111.1275,-8.2265],[111.126,-8.2245],[111.124,-8.2145],[111.1235,-8.214]]]},"properties":{"code":"35.01.04.2003","name":"Kembang"}},{"type":"Feature","geometry":{"type":"Polygon","coordinates":[[[111.138,-8.2145],[111.127,-8.2085],[111.123,-8.2135],[111.124,-8.214],[111.124,-8.2145],[111.126,-8.2245],[111.1305,-8.227],[111.1305,-8.2275],[111.134,-8.2245],[111.1345,-8.2225],[111.1355,-8.2205],[111.1375,-8.219],[111.138,-8.2145]]]},"properties":{"code":"35.01.04.2004","name":"Sukoharjo"}},{"type":"Feature","geometry":{"type":"Polygon","coordinates":[[[111.1565,-8.199],[111.152,-8.2],[111.146,-8.1995],[111.142,-8.1975],[111.1375,-8.1975],[111.1295,-8.203],[111.1265,-8.204],[111.126,-8.2055],[111.1265,-8.208],[111.127,-8.2085],[111.138,-8.2145],[111.139,-8.213],[111.1395,-8.213],[111.141,-8.212],[111.141,-8.211],[111.142,-8.21],[111.1525,-8.2065],[111.1535,-8.2065],[111.1545,-8.205],[111.154,-8.204],[111.1555,-8.202],[111.1565,-8.2005],[111.1565,-8.199]]]},"properties":{"code":"35.01.04.2005","name":"Kayen"}},{"type":"Feature","geometry":{"type":"Polygon","coordinates":[[[111.124,-8.2045],[111.1155,-8.201],[111.114,-8.2025],[111.112,-8.2005],[111.11,-8.202],[111.107,-8.206],[111.1065,-8.206],[111.11,-8.2075],[111.1095,-8.208],[111.11,-8.209],[111.1115,-8.2105],[111.114,-8.2135],[111.1145,-8.211],[111.121,-8.2135],[111.1225,-8.2135],[111.1235,-8.214],[111.123,-8.2135],[111.127,-8.2085],[111.1265,-8.208],[111.126,-8.2055],[111.1265,-8.204],[111.127,-8.204],[111.1245,-8.2025],[111.124,-8.2045]]]},"properties":{"code":"35.01.04.2006","name":"Sirnoboyo"}},{"type":"Feature","geometry":{"type":"Polygon","coordinates":[[[111.119,-8.1965],[111.1175,-8.196],[111.116,-8.1945],[111.1155,-8.194],[111.1145,-8.194],[111.1145,-8.196],[111.114,-8.1975],[111.112,-8.2005],[111.114,-8.2025],[111.1155,-8.201],[111.124,-8.2045],[111.1205,-8.202],[111.122,-8.198],[111.1215,-8.198],[111.1185,-8.1975],[111.119,-8.1965]]]},"properties":{"code":"35.01.04.2007","name":"Arjowinangun"}},{"type":"Feature","geometry":{"type":"Polygon","coordinates":[[[111.095,-8.1925],[111.081,-8.186],[111.079,-8.1895],[111.066,-8.195],[111.065,-8.1985],[111.0645,-8.201],[111.064,-8.2025],[111.0625,-8.2055],[111.0625,-8.207],[111.065,-8.206],[111.0665,-8.2055],[111.073,-8.2005],[111.082,-8.2005],[111.095,-8.1925]]]},"properties":{"code":"35.01.04.2009","name":"Bangunsari"}},{"type":"Feature","geometry":{"type":"Polygon","coordinates":[[[111.0805,-8.174],[111.0785,-8.17],[111.0785,-8.169],[111.074,-8.1665],[111.0725,-8.1665],[111.0675,-8.1665],[111.0645,-8.1715],[111.0595,-8.1755],[111.059,-8.1775],[111.059,-8.179],[111.064,-8.183],[111.063,-8.1875],[111.064,-8.192],[111.066,-8.195],[111.079,-8.1895],[111.08,-8.188],[111.08,-8.1875],[111.08,-8.185],[111.0805,-8.18],[111.08,-8.177],[111.0805,-8.174]]]},"properties":{"code":"35.01.04.2010","name":"Sedeng"}},{"type":"Feature","geometry":{"type":"Polygon","coordinates":[[[111.087,-8.175],[111.0835,-8.1715],[111.0835,-8.171],[111.083,-8.1715],[111.0815,-8.172],[111.0805,-8.174],[111.08,-8.177],[111.0805,-8.18],[111.08,-8.185],[111.08,-8.1875],[111.08,-8.188],[111.081,-8.186],[111.095,-8.1925],[111.095,-8.191],[111.0955,-8.187],[111.087,-8.175]]]},"properties":{"code":"35.01.04.2011","name":"Sumberharjo"}},{"type":"Feature","geometry":{"type":"MultiPolygon","coordinates":[[[[111.1065,-8.2045],[111.1075,-8.205],[111.1075,-8.2045],[111.1065,-8.204],[111.1065,-8.2045]]],[[[111.113,-8.1855],[111.107,-8.1845],[111.108,-8.1915],[111.1075,-8.1925],[111.107,-8.1935],[111.109,-8.194],[111.1095,-8.198],[111.1105,-8.199],[111.1125,-8.2],[111.114,-8.1975],[111.1145,-8.196],[111.1145,-8.193],[111.1175,-8.193],[111.1145,-8.192],[111.1145,-8.191],[111.115,-8.1905],[111.113,-8.1855]]]]},"properties":{"code":"35.01.04.2014","name":"Tanjungsari"}},{"type":"Feature","geometry":{"type":"MultiPolygon","coordinates":[[[[111.124,-8.2045],[111.124,-8.2015],[111.122,-8.199],[111.1205,-8.202],[111.124,-8.2045]]],[[[111.121,-8.1945],[111.1215,-8.192],[111.122,-8.1905],[111.121,-8.19],[111.116,-8.19],[111.1145,-8.191],[111.1145,-8.192],[111.1175,-8.193],[111.1145,-8.193],[111.1145,-8.194],[111.1155,-8.194],[111.116,-8.1945],[111.1175,-8.196],[111.119,-8.1965],[111.1185,-8.1975],[111.1215,-8.198],[111.122,-8.198],[111.123,-8.196],[111.121,-8.1945]]]]},"properties":{"code":"35.01.04.2015","name":"Menadi"}},{"type":"Feature","geometry":{"type":"Polygon","coordinates":[[[111.14,-8.19],[111.132,-8.193],[111.1315,-8.1935],[111.132,-8.188],[111.1305,-8.188],[111.129,-8.1885],[111.1295,-8.1895],[111.1295,-8.1905],[111.128,-8.1915],[111.125,-8.1915],[111.122,-8.1905],[111.1215,-8.192],[111.121,-8.1945],[111.123,-8.196],[111.122,-8.198],[111.122,-8.199],[111.124,-8.2015],[111.1245,-8.2025],[111.127,-8.204],[111.1295,-8.203],[111.1375,-8.1975],[111.142,-8.1975],[111.14,-8.1925],[111.14,-8.19]]]},"properties":{"code":"35.01.04.2016","name":"Mentoro"}},{"type":"Feature","geometry":{"type":"Polygon","coordinates":[[[111.142,-8.1815],[111.1365,-8.166],[111.131,-8.17],[111.1295,-8.1705],[111.1265,-8.171],[111.124,-8.1715],[111.123,-8.1735],[111.1235,-8.1755],[111.127,-8.18],[111.128,-8.184],[111.129,-8.1885],[111.1305,-8.188],[111.132,-8.188],[111.1315,-8.1935],[111.132,-8.193],[111.14,-8.19],[111.142,-8.1815]]]},"properties":{"code":"35.01.04.2017","name":"Purworejo"}},{"type":"Feature","geometry":{"type":"Polygon","coordinates":[[[111.128,-8.184],[111.1115,-8.18],[111.1105,-8.1825],[111.1105,-8.1835],[111.113,-8.1855],[111.115,-8.1905],[111.116,-8.19],[111.121,-8.19],[111.125,-8.1915],[111.128,-8.1915],[111.1295,-8.1905],[111.1295,-8.1895],[111.129,-8.1885],[111.128,-8.184]]]},"properties":{"code":"35.01.04.2018","name":"Nanggungan"}},{"type":"Feature","geometry":{"type":"Polygon","coordinates":[[[111.1235,-8.1755],[111.117,-8.175],[111.115,-8.175],[111.112,-8.1715],[111.1045,-8.1755],[111.1105,-8.181],[111.1115,-8.18],[111.128,-8.184],[111.127,-8.18],[111.1235,-8.1755]]]},"properties":{"code":"35.01.04.2019","name":"Widoro"}},{"type":"Feature","geometry":{"type":"Polygon","coordinates":[[[111.126,-8.157],[111.1245,-8.1575],[111.1195,-8.1545],[111.118,-8.1535],[111.112,-8.1715],[111.115,-8.175],[111.117,-8.175],[111.1235,-8.1755],[111.123,-8.1735],[111.122,-8.1695],[111.1255,-8.1705],[111.128,-8.1685],[111.127,-8.1635],[111.126,-8.158],[111.126,-8.157]]]},"properties":{"code":"35.01.04.2020","name":"Semanten"}},{"type":"Feature","geometry":{"type":"Polygon","coordinates":[[[111.1,-8.1345],[111.0985,-8.1355],[111.098,-8.136],[111.094,-8.14],[111.084,-8.139],[111.083,-8.14],[111.082,-8.148],[111.082,-8.1485],[111.0835,-8.149],[111.0855,-8.151],[111.0855,-8.1525],[111.088,-8.166],[111.086,-8.169],[111.0835,-8.171],[111.0835,-8.1715],[111.087,-8.175],[111.099,-8.1785],[111.1,-8.1785],[111.1005,-8.177],[111.1,-8.175],[111.1035,-8.176],[111.1045,-8.1755],[111.112,-8.1715],[111.099,-8.1645],[111.0985,-8.1625],[111.1,-8.1475],[111.1005,-8.1475],[111.101,-8.1455],[111.1015,-8.1455],[111.1015,-8.1445],[111.0995,-8.143],[111.099,-8.1425],[111.0985,-8.1415],[111.0985,-8.1405],[111.099,-8.139],[111.099,-8.137],[111.1,-8.1345]]]},"properties":{"code":"35.01.04.2021","name":"Sambong"}},{"type":"Feature","geometry":{"type":"Polygon","coordinates":[[[111.138,-8.157],[111.1265,-8.1505],[111.126,-8.154],[111.126,-8.157],[111.126,-8.158],[111.127,-8.1635],[111.128,-8.1685],[111.1255,-8.1705],[111.122,-8.1695],[111.123,-8.1735],[111.124,-8.1715],[111.1265,-8.171],[111.1295,-8.1705],[111.131,-8.17],[111.1365,-8.166],[111.1375,-8.159],[111.138,-8.157]]]},"properties":{"code":"35.01.04.2022","name":"Banjarsari"}},{"type":"Feature","geometry":{"type":"Polygon","coordinates":[[[111.12,-8.1365],[111.1165,-8.134],[111.116,-8.133],[111.1145,-8.131],[111.114,-8.131],[111.111,-8.132],[111.11,-8.1325],[111.11,-8.1375],[111.1115,-8.141],[111.1155,-8.1455],[111.1165,-8.147],[111.118,-8.1535],[111.1195,-8.1545],[111.1245,-8.1575],[111.126,-8.157],[111.126,-8.154],[111.1265,-8.1505],[111.1225,-8.144],[111.122,-8.143],[111.12,-8.1365]]]},"properties":{"code":"35.01.04.2023","name":"Bolosingo"}},{"type":"Feature","geometry":{"type":"Polygon","coordinates":[[[111.11,-8.1325],[111.1015,-8.1335],[111.1,-8.1345],[111.099,-8.137],[111.099,-8.139],[111.0985,-8.1405],[111.0985,-8.1415],[111.099,-8.1425],[111.0995,-8.143],[111.1015,-8.1445],[111.1015,-8.1455],[111.101,-8.1455],[111.1005,-8.1475],[111.1,-8.1475],[111.0985,-8.1625],[111.099,-8.1645],[111.112,-8.1715],[111.118,-8.1535],[111.1165,-8.147],[111.1155,-8.1455],[111.1115,-8.141],[111.11,-8.1375],[111.11,-8.1325]]]},"properties":{"code":"35.01.04.2024","name":"Ponggok"}},{"type":"Feature","geometry":{"type":"Polygon","coordinates":[[[111.128,-8.135],[111.1275,-8.135],[111.12,-8.1365],[111.122,-8.143],[111.1225,-8.144],[111.1265,-8.1505],[111.138,-8.157],[111.1385,-8.156],[111.1425,-8.156],[111.145,-8.1545],[111.1465,-8.1515],[111.146,-8.1505],[111.145,-8.149],[111.144,-8.149],[111.128,-8.135]]]},"properties":{"code":"35.01.04.2025","name":"Tambakrejo"}},{"type":"Feature","geometry":{"type":"Polygon","coordinates":[[[111.102,-8.241],[111.1105,-8.2565],[111.1255,-8.254],[111.1285,-8.2405],[111.1315,-8.235],[111.133,-8.231],[111.1325,-8.226],[111.1305,-8.2275],[111.1305,-8.227],[111.1275,-8.2265],[111.1255,-8.2275],[111.124,-8.2295],[111.117,-8.2325],[111.11,-8.238],[111.102,-8.241]]]},"properties":{"code":"35.01.05.2001","name":"Plumbungan"}},{"type":"Feature","geometry":{"type":"Polygon","coordinates":[[[111.143,-8.224],[111.142,-8.224],[111.141,-8.2235],[111.1385,-8.2225],[111.1355,-8.221],[111.1345,-8.2225],[111.134,-8.2245],[111.1325,-8.226],[111.133,-8.231],[111.1315,-8.235],[111.1285,-8.2405],[111.1255,-8.254],[111.1375,-8.262],[111.138,-8.262],[111.139,-8.26],[111.146,-8.2365],[111.1455,-8.236],[111.1455,-8.235],[111.1445,-8.2285],[111.144,-8.227],[111.1435,-8.225],[111.1435,-8.224],[111.143,-8.224]]]},"properties":{"code":"35.01.05.2002","name":"Karangnongko"}},{"type":"Feature","geometry":{"type":"Polygon","coordinates":[[[111.1525,-8.24],[111.1515,-8.238],[111.148,-8.236],[111.1465,-8.2355],[111.146,-8.2355],[111.1455,-8.2355],[111.146,-8.2365],[111.139,-8.26],[111.138,-8.262],[111.1375,-8.262],[111.1385,-8.277],[111.1525,-8.278],[111.1525,-8.276],[111.156,-8.273],[111.1525,-8.24]]]},"properties":{"code":"35.01.05.2003","name":"Kalipelus"}},{"type":"Feature","geometry":{"type":"Polygon","coordinates":[[[111.1525,-8.221],[111.1435,-8.2225],[111.1435,-8.225],[111.144,-8.227],[111.1445,-8.2285],[111.1455,-8.235],[111.1455,-8.2355],[111.146,-8.2355],[111.1465,-8.2355],[111.148,-8.236],[111.1515,-8.238],[111.1525,-8.24],[111.166,-8.247],[111.1685,-8.24],[111.1665,-8.236],[111.1675,-8.234],[111.167,-8.232],[111.168,-8.2315],[111.1675,-8.231],[111.165,-8.23],[111.1645,-8.2295],[111.162,-8.228],[111.161,-8.2275],[111.1605,-8.2275],[111.153,-8.225],[111.1515,-8.2225],[111.1525,-8.221]]]},"properties":{"code":"35.01.05.2004","name":"Karanganyar"}},{"type":"Feature","geometry":{"type":"Polygon","coordinates":[[[111.166,-8.247],[111.1525,-8.24],[111.156,-8.273],[111.1525,-8.276],[111.1525,-8.278],[111.159,-8.273],[111.166,-8.2635],[111.1685,-8.262],[111.168,-8.254],[111.168,-8.2525],[111.1705,-8.2505],[111.17,-8.2475],[111.166,-8.247]]]},"properties":{"code":"35.01.05.2005","name":"Katipugal"}},{"type":"Feature","geometry":{"type":"Polygon","coordinates":[[[111.1735,-8.2445],[111.1685,-8.233],[111.168,-8.2315],[111.167,-8.232],[111.1675,-8.234],[111.1665,-8.236],[111.1685,-8.24],[111.166,-8.247],[111.17,-8.2475],[111.1705,-8.2505],[111.168,-8.2525],[111.168,-8.254],[111.1685,-8.262],[111.166,-8.2635],[111.159,-8.273],[111.172,-8.279],[111.177,-8.2725],[111.1905,-8.278],[111.189,-8.264],[111.1735,-8.2445]]]},"properties":{"code":"35.01.05.2006","name":"Klesem"}},{"type":"Feature","geometry":{"type":"Polygon","coordinates":[[[111.1935,-8.235],[111.1905,-8.2325],[111.1885,-8.2315],[111.186,-8.2295],[111.18,-8.2305],[111.178,-8.233],[111.1735,-8.2445],[111.189,-8.264],[111.1905,-8.278],[111.2015,-8.265],[111.2135,-8.2635],[111.209,-8.253],[111.21,-8.248],[111.208,-8.2435],[111.2075,-8.241],[111.1955,-8.2365],[111.1935,-8.235]]]},"properties":{"code":"35.01.05.2007","name":"Sidomulyo"}},{"type":"Feature","geometry":{"type":"Polygon","coordinates":[[[111.219,-8.2205],[111.2145,-8.219],[111.209,-8.217],[111.207,-8.218],[111.2125,-8.2365],[111.2115,-8.2385],[111.208,-8.2385],[111.208,-8.2435],[111.21,-8.248],[111.209,-8.253],[111.2135,-8.2635],[111.2275,-8.267],[111.2315,-8.2565],[111.231,-8.252],[111.2295,-8.247],[111.229,-8.2455],[111.2285,-8.243],[111.228,-8.2405],[111.2275,-8.2405],[111.227,-8.2395],[111.219,-8.2205]]]},"properties":{"code":"35.01.05.2008","name":"Worawari"}},{"type":"Feature","geometry":{"type":"Polygon","coordinates":[[[111.207,-8.218],[111.1985,-8.2185],[111.1975,-8.2155],[111.1945,-8.215],[111.19,-8.2155],[111.187,-8.215],[111.184,-8.2155],[111.186,-8.2295],[111.1885,-8.2315],[111.1905,-8.2325],[111.1935,-8.235],[111.1955,-8.2365],[111.2075,-8.241],[111.208,-8.2385],[111.2115,-8.2385],[111.2125,-8.2365],[111.207,-8.218]]]},"properties":{"code":"35.01.05.2009","name":"Mantren"}},{"type":"Feature","geometry":{"type":"Polygon","coordinates":[[[111.184,-8.2155],[111.1805,-8.218],[111.179,-8.2205],[111.1785,-8.2205],[111.1695,-8.2145],[111.1685,-8.2135],[111.168,-8.2145],[111.167,-8.215],[111.1625,-8.2185],[111.162,-8.2185],[111.162,-8.2255],[111.161,-8.2275],[111.162,-8.228],[111.1645,-8.2295],[111.165,-8.23],[111.1675,-8.231],[111.168,-8.231],[111.1685,-8.233],[111.1735,-8.2445],[111.178,-8.233],[111.18,-8.2305],[111.186,-8.2295],[111.184,-8.2155]]]},"properties":{"code":"35.01.05.2010","name":"Gawang"}},{"type":"Feature","geometry":{"type":"Polygon","coordinates":[[[111.162,-8.2185],[111.1605,-8.217],[111.1595,-8.2165],[111.1575,-8.2165],[111.157,-8.216],[111.156,-8.216],[111.1545,-8.216],[111.1545,-8.2165],[111.155,-8.2185],[111.1515,-8.2225],[111.153,-8.225],[111.1605,-8.2275],[111.162,-8.2255],[111.162,-8.2185]]]},"properties":{"code":"35.01.05.2011","name":"Kebonagung"}},{"type":"Feature","geometry":{"type":"Polygon","coordinates":[[[111.1525,-8.207],[111.1525,-8.2065],[111.142,-8.21],[111.141,-8.211],[111.141,-8.212],[111.1395,-8.213],[111.139,-8.213],[111.138,-8.2145],[111.1375,-8.219],[111.1365,-8.22],[111.1355,-8.221],[111.1385,-8.2225],[111.141,-8.2235],[111.142,-8.224],[111.143,-8.224],[111.1435,-8.224],[111.1435,-8.2225],[111.1525,-8.221],[111.155,-8.2185],[111.1545,-8.2165],[111.1545,-8.2155],[111.151,-8.2115],[111.1515,-8.209],[111.1525,-8.207]]]},"properties":{"code":"35.01.05.2012","name":"Purwoasri"}},{"type":"Feature","geometry":{"type":"Polygon","coordinates":[[[111.173,-8.2085],[111.173,-8.208],[111.17,-8.205],[111.1625,-8.2085],[111.162,-8.208],[111.155,-8.206],[111.1545,-8.205],[111.1535,-8.2065],[111.1525,-8.207],[111.1515,-8.209],[111.151,-8.2115],[111.1545,-8.2155],[111.1545,-8.216],[111.156,-8.216],[111.157,-8.216],[111.1575,-8.2165],[111.1595,-8.2165],[111.1605,-8.217],[111.1625,-8.2185],[111.167,-8.215],[111.168,-8.2145],[111.1685,-8.2135],[111.1675,-8.213],[111.169,-8.21],[111.1695,-8.2095],[111.172,-8.2085],[111.173,-8.2085]]]},"properties":{"code":"35.01.05.2013","name":"Banjarjo"}},{"type":"Feature","geometry":{"type":"Polygon","coordinates":[[[111.2145,-8.2055],[111.2135,-8.2035],[111.211,-8.198],[111.211,-8.1975],[111.1985,-8.2015],[111.1905,-8.199],[111.18,-8.2015],[111.1755,-8.208],[111.1745,-8.209],[111.1735,-8.209],[111.172,-8.2085],[111.1695,-8.2095],[111.169,-8.21],[111.1675,-8.213],[111.1695,-8.2145],[111.1785,-8.2205],[111.179,-8.2205],[111.1805,-8.218],[111.184,-8.2155],[111.187,-8.215],[111.19,-8.2155],[111.1945,-8.215],[111.1975,-8.2155],[111.1985,-8.2185],[111.209,-8.217],[111.2145,-8.219],[111.219,-8.2205],[111.2145,-8.2055]]]},"properties":{"code":"35.01.05.2014","name":"Gembuk"}},{"type":"Feature","geometry":{"type":"Polygon","coordinates":[[[111.2045,-8.179],[111.177,-8.1775],[111.1755,-8.179],[111.176,-8.181],[111.175,-8.1855],[111.1745,-8.1865],[111.176,-8.186],[111.178,-8.186],[111.1795,-8.187],[111.179,-8.189],[111.1805,-8.192],[111.181,-8.1955],[111.18,-8.2015],[111.1905,-8.199],[111.1985,-8.2015],[111.211,-8.1975],[111.2105,-8.196],[111.2045,-8.179]]]},"properties":{"code":"35.01.05.2015","name":"Sanggrahan"}},{"type":"Feature","geometry":{"type":"Polygon","coordinates":[[[111.18,-8.2015],[111.181,-8.1955],[111.1805,-8.192],[111.179,-8.189],[111.1795,-8.187],[111.178,-8.186],[111.1755,-8.1865],[111.1745,-8.1865],[111.1745,-8.1875],[111.168,-8.1885],[111.1635,-8.1865],[111.1625,-8.1865],[111.1625,-8.187],[111.1605,-8.1905],[111.158,-8.197],[111.1565,-8.2005],[111.1555,-8.202],[111.154,-8.204],[111.155,-8.206],[111.162,-8.208],[111.1625,-8.2085],[111.17,-8.205],[111.173,-8.208],[111.173,-8.2085],[111.1755,-8.208],[111.18,-8.2015]]]},"properties":{"code":"35.01.05.2016","name":"Punjung"}},{"type":"Feature","geometry":{"type":"Polygon","coordinates":[[[111.1725,-8.1795],[111.142,-8.1815],[111.14,-8.19],[111.14,-8.1925],[111.142,-8.1975],[111.146,-8.1995],[111.152,-8.2],[111.1565,-8.199],[111.158,-8.197],[111.1605,-8.1905],[111.1625,-8.187],[111.1625,-8.1865],[111.1635,-8.1865],[111.168,-8.1885],[111.1745,-8.1875],[111.175,-8.1855],[111.176,-8.181],[111.1755,-8.179],[111.1725,-8.1795]]]},"properties":{"code":"35.01.05.2017","name":"Wonogondo"}},{"type":"Feature","geometry":{"type":"Polygon","coordinates":[[[111.167,-8.16],[111.1455,-8.149],[111.145,-8.149],[111.1455,-8.1495],[111.1465,-8.1515],[111.145,-8.1545],[111.1425,-8.156],[111.1385,-8.156],[111.1375,-8.159],[111.1365,-8.166],[111.142,-8.1815],[111.1725,-8.1795],[111.1755,-8.1625],[111.1745,-8.1625],[111.167,-8.16]]]},"properties":{"code":"35.01.05.2018","name":"Ketepung"}},{"type":"Feature","geometry":{"type":"Polygon","coordinates":[[[111.2215,-8.1585],[111.2065,-8.1615],[111.1855,-8.16],[111.184,-8.1595],[111.1825,-8.158],[111.1815,-8.1585],[111.1805,-8.1585],[111.179,-8.16],[111.1785,-8.1605],[111.1775,-8.161],[111.1765,-8.1615],[111.1755,-8.1625],[111.1725,-8.1795],[111.1755,-8.179],[111.177,-8.1775],[111.2045,-8.179],[111.22,-8.176],[111.2215,-8.176],[111.2225,-8.175],[111.2245,-8.1725],[111.2245,-8.1685],[111.2225,-8.167],[111.223,-8.166],[111.2215,-8.1585]]]},"properties":{"code":"35.01.05.2019","name":"Ketro"}},{"type":"Feature","geometry":{"type":"Polygon","coordinates":[[[111.117,-8.1265],[111.1225,-8.1295],[111.125,-8.13],[111.1265,-8.1255],[111.126,-8.109],[111.1125,-8.107],[111.11,-8.107],[111.1085,-8.1055],[111.104,-8.098],[111.1035,-8.0985],[111.1035,-8.105],[111.0975,-8.1085],[111.096,-8.11],[111.0995,-8.1165],[111.105,-8.1205],[111.1195,-8.125],[111.117,-8.1265]]]},"properties":{"code":"35.01.06.2001","name":"Mlati"}},{"type":"Feature","geometry":{"type":"Polygon","coordinates":[[[111.118,-8.078],[111.117,-8.0765],[111.1165,-8.0755],[111.1155,-8.075],[111.1145,-8.0745],[111.111,-8.074],[111.108,-8.0735],[111.1055,-8.0765],[111.1025,-8.085],[111.102,-8.0895],[111.1045,-8.09],[111.105,-8.0905],[111.1045,-8.092],[111.104,-8.094],[111.103,-8.095],[111.103,-8.096],[111.104,-8.098],[111.1085,-8.1055],[111.11,-8.107],[111.1125,-8.107],[111.126,-8.109],[111.1265,-8.1255],[111.125,-8.13],[111.1225,-8.1295],[111.117,-8.1265],[111.1125,-8.1275],[111.113,-8.13],[111.1145,-8.131],[111.116,-8.133],[111.1165,-8.134],[111.12,-8.1365],[111.1275,-8.135],[111.136,-8.1115],[111.1365,-8.111],[111.1315,-8.1065],[111.13,-8.104],[111.128,-8.0975],[111.125,-8.0835],[111.118,-8.078]]]},"properties":{"code":"35.01.06.2002","name":"Sedayu"}},{"type":"Feature","geometry":{"type":"Polygon","coordinates":[[[111.146,-8.1105],[111.1455,-8.1105],[111.145,-8.1115],[111.1445,-8.1125],[111.142,-8.111],[111.138,-8.11],[111.136,-8.1115],[111.1275,-8.135],[111.128,-8.135],[111.13,-8.1335],[111.1335,-8.1325],[111.1355,-8.1325],[111.138,-8.129],[111.139,-8.127],[111.1415,-8.125],[111.1415,-8.123],[111.149,-8.119],[111.1495,-8.114],[111.149,-8.1135],[111.1465,-8.1105],[111.146,-8.1105]]]},"properties":{"code":"35.01.06.2003","name":"Tremas"}},{"type":"Feature","geometry":{"type":"Polygon","coordinates":[[[111.157,-8.1185],[111.15,-8.1155],[111.1495,-8.114],[111.149,-8.119],[111.1415,-8.123],[111.1415,-8.125],[111.139,-8.127],[111.138,-8.129],[111.1355,-8.1325],[111.139,-8.1325],[111.141,-8.132],[111.156,-8.128],[111.157,-8.126],[111.157,-8.1185]]]},"properties":{"code":"35.01.06.2004","name":"Arjosari"}},{"type":"Feature","geometry":{"type":"Polygon","coordinates":[[[111.167,-8.16],[111.147,-8.133],[111.1435,-8.133],[111.1425,-8.133],[111.141,-8.132],[111.139,-8.1325],[111.1345,-8.1325],[111.1335,-8.1325],[111.13,-8.1335],[111.128,-8.135],[111.144,-8.149],[111.1455,-8.149],[111.167,-8.16]]]},"properties":{"code":"35.01.06.2005","name":"Gunungsari"}},{"type":"Feature","geometry":{"type":"Polygon","coordinates":[[[111.156,-8.128],[111.141,-8.132],[111.1425,-8.133],[111.1435,-8.133],[111.147,-8.133],[111.167,-8.16],[111.1745,-8.1625],[111.1765,-8.1615],[111.1775,-8.161],[111.1785,-8.1605],[111.179,-8.158],[111.1785,-8.1565],[111.177,-8.1535],[111.1555,-8.129],[111.156,-8.128]]]},"properties":{"code":"35.01.06.2006","name":"Pagutan"}},{"type":"Feature","geometry":{"type":"Polygon","coordinates":[[[111.1655,-8.104],[111.164,-8.105],[111.1655,-8.1085],[111.163,-8.114],[111.1605,-8.1175],[111.157,-8.1185],[111.157,-8.126],[111.1555,-8.129],[111.177,-8.1535],[111.1785,-8.1565],[111.179,-8.158],[111.1785,-8.1605],[111.179,-8.16],[111.1805,-8.1585],[111.1815,-8.1585],[111.181,-8.1565],[111.1815,-8.1555],[111.1845,-8.1515],[111.1845,-8.144],[111.185,-8.1415],[111.184,-8.14],[111.178,-8.136],[111.162,-8.134],[111.162,-8.1305],[111.172,-8.118],[111.1725,-8.106],[111.1655,-8.104]]]},"properties":{"code":"35.01.06.2007","name":"Gembong"}},{"type":"Feature","geometry":{"type":"Polygon","coordinates":[[[111.1975,-8.118],[111.186,-8.1285],[111.185,-8.128],[111.172,-8.118],[111.162,-8.1305],[111.162,-8.134],[111.178,-8.136],[111.184,-8.14],[111.185,-8.1415],[111.1845,-8.144],[111.1855,-8.1515],[111.196,-8.149],[111.201,-8.1345],[111.199,-8.123],[111.199,-8.1225],[111.1975,-8.118]]]},"properties":{"code":"35.01.06.2008","name":"Borang"}},{"type":"Feature","geometry":{"type":"Polygon","coordinates":[[[111.183,-8.103],[111.1785,-8.1025],[111.177,-8.103],[111.176,-8.1045],[111.1745,-8.1055],[111.1725,-8.106],[111.172,-8.118],[111.185,-8.128],[111.186,-8.1285],[111.1975,-8.118],[111.1965,-8.117],[111.1945,-8.1165],[111.183,-8.103]]]},"properties":{"code":"35.01.06.2009","name":"Gegeran"}},{"type":"Feature","geometry":{"type":"Polygon","coordinates":[[[111.2185,-8.116],[111.212,-8.115],[111.209,-8.109],[111.21,-8.1005],[111.202,-8.091],[111.203,-8.0705],[111.1985,-8.0715],[111.195,-8.0715],[111.1945,-8.0725],[111.195,-8.0725],[111.196,-8.0775],[111.1955,-8.0805],[111.1955,-8.081],[111.1955,-8.0825],[111.1945,-8.085],[111.195,-8.087],[111.1945,-8.089],[111.1965,-8.0915],[111.1965,-8.093],[111.196,-8.1],[111.1935,-8.1005],[111.1915,-8.1005],[111.191,-8.1005],[111.1895,-8.1],[111.186,-8.102],[111.183,-8.103],[111.1945,-8.1165],[111.1965,-8.117],[111.1975,-8.118],[111.199,-8.1225],[111.1995,-8.122],[111.218,-8.117],[111.2185,-8.116]]]},"properties":{"code":"35.01.06.2010","name":"Kedungbendo"}},{"type":"Feature","geometry":{"type":"Polygon","coordinates":[[[111.215,-8.084],[111.214,-8.0765],[111.203,-8.0705],[111.202,-8.091],[111.21,-8.1005],[111.209,-8.109],[111.212,-8.115],[111.2185,-8.116],[111.2195,-8.115],[111.222,-8.109],[111.2225,-8.106],[111.215,-8.088],[111.215,-8.084]]]},"properties":{"code":"35.01.06.2011","name":"Mangunharjo"}},{"type":"Feature","geometry":{"type":"Polygon","coordinates":[[[111.19,-8.0685],[111.189,-8.0685],[111.1875,-8.067],[111.1845,-8.0675],[111.184,-8.068],[111.1825,-8.0695],[111.183,-8.0715],[111.1835,-8.074],[111.1835,-8.081],[111.185,-8.0845],[111.187,-8.0935],[111.1895,-8.097],[111.1905,-8.0985],[111.1905,-8.1005],[111.1915,-8.1005],[111.1935,-8.1005],[111.196,-8.1],[111.1965,-8.093],[111.1965,-8.0915],[111.1945,-8.089],[111.195,-8.087],[111.1945,-8.085],[111.1955,-8.0825],[111.1955,-8.081],[111.1955,-8.0805],[111.196,-8.0775],[111.195,-8.0725],[111.1945,-8.0725],[111.194,-8.0715],[111.194,-8.071],[111.1905,-8.07],[111.19,-8.0695],[111.19,-8.0685]]]},"properties":{"code":"35.01.06.2012","name":"Jetiskidul"}},{"type":"Feature","geometry":{"type":"Polygon","coordinates":[[[111.184,-8.059],[111.1835,-8.0585],[111.1845,-8.0565],[111.184,-8.0555],[111.183,-8.054],[111.1785,-8.05],[111.178,-8.049],[111.177,-8.049],[111.1705,-8.05],[111.1695,-8.0515],[111.1575,-8.0685],[111.15,-8.0675],[111.157,-8.0795],[111.157,-8.086],[111.156,-8.096],[111.1505,-8.0975],[111.1495,-8.102],[111.152,-8.098],[111.153,-8.0975],[111.161,-8.101],[111.1635,-8.102],[111.1655,-8.104],[111.1725,-8.106],[111.1745,-8.1055],[111.176,-8.1045],[111.177,-8.103],[111.1785,-8.1025],[111.183,-8.103],[111.186,-8.102],[111.1895,-8.1],[111.1905,-8.1005],[111.1905,-8.0985],[111.1895,-8.097],[111.187,-8.0935],[111.185,-8.0845],[111.1835,-8.081],[111.1835,-8.074],[111.183,-8.0715],[111.1825,-8.0695],[111.184,-8.068],[111.1845,-8.0675],[111.1875,-8.067],[111.189,-8.0685],[111.19,-8.0685],[111.1895,-8.067],[111.184,-8.059]]]},"properties":{"code":"35.01.06.2013","name":"Temon"}},{"type":"Feature","geometry":{"type":"Polygon","coordinates":[[[111.16,-8.0325],[111.1595,-8.0415],[111.1585,-8.0405],[111.1325,-8.0235],[111.1165,-8.042],[111.121,-8.0535],[111.1205,-8.055],[111.1245,-8.0555],[111.1265,-8.0575],[111.1355,-8.069],[111.15,-8.0675],[111.1575,-8.0685],[111.1695,-8.0515],[111.169,-8.0505],[111.17,-8.047],[111.174,-8.044],[111.174,-8.0435],[111.1735,-8.0385],[111.1735,-8.0345],[111.1725,-8.0345],[111.1705,-8.033],[111.169,-8.0325],[111.16,-8.0325]]]},"properties":{"code":"35.01.06.2014","name":"Karanggede"}},{"type":"Feature","geometry":{"type":"Polygon","coordinates":[[[111.1495,-8.102],[111.1505,-8.0975],[111.156,-8.096],[111.157,-8.086],[111.157,-8.0795],[111.154,-8.081],[111.129,-8.0995],[111.13,-8.104],[111.1315,-8.1065],[111.1365,-8.111],[111.138,-8.11],[111.142,-8.111],[111.1445,-8.1125],[111.145,-8.1115],[111.1455,-8.1105],[111.146,-8.1105],[111.147,-8.108],[111.1495,-8.102]]]},"properties":{"code":"35.01.06.2015","name":"Gayuhan"}},{"type":"Feature","geometry":{"type":"Polygon","coordinates":[[[111.15,-8.0675],[111.1355,-8.069],[111.1265,-8.0575],[111.1245,-8.0555],[111.1205,-8.055],[111.1175,-8.0565],[111.118,-8.059],[111.1175,-8.0595],[111.125,-8.065],[111.118,-8.078],[111.125,-8.0835],[111.128,-8.0975],[111.129,-8.0995],[111.154,-8.081],[111.157,-8.0795],[111.15,-8.0675]]]},"properties":{"code":"35.01.06.2016","name":"Karangrejo"}},{"type":"Feature","geometry":{"type":"Polygon","coordinates":[[[111.1655,-8.104],[111.1635,-8.102],[111.161,-8.101],[111.153,-8.0975],[111.152,-8.098],[111.1495,-8.102],[111.147,-8.108],[111.1465,-8.1105],[111.149,-8.1135],[111.15,-8.1155],[111.157,-8.1185],[111.1605,-8.1175],[111.163,-8.114],[111.1655,-8.1085],[111.164,-8.105],[111.1655,-8.104]]]},"properties":{"code":"35.01.06.2017","name":"Jatimalang"}},{"type":"Feature","geometry":{"type":"Polygon","coordinates":[[[111.1915,-8.021],[111.19,-8.021],[111.189,-8.0205],[111.1885,-8.0205],[111.184,-8.0205],[111.1785,-8.0225],[111.1715,-8.0265],[111.174,-8.0345],[111.1735,-8.0345],[111.1735,-8.0385],[111.174,-8.0435],[111.174,-8.044],[111.17,-8.047],[111.169,-8.0505],[111.1705,-8.05],[111.177,-8.049],[111.178,-8.049],[111.1785,-8.05],[111.183,-8.054],[111.184,-8.0555],[111.1845,-8.0565],[111.1835,-8.0585],[111.184,-8.059],[111.2065,-8.064],[111.208,-8.064],[111.2085,-8.062],[111.208,-8.06],[111.2085,-8.055],[111.208,-8.054],[111.2045,-8.0485],[111.2045,-8.047],[111.2035,-8.0455],[111.202,-8.042],[111.202,-8.041],[111.201,-8.0395],[111.1975,-8.037],[111.196,-8.031],[111.1955,-8.0305],[111.1925,-8.024],[111.1915,-8.022],[111.1915,-8.0215],[111.1915,-8.021]]]},"properties":{"code":"35.01.07.2001","name":"Gondang"}},{"type":"Feature","geometry":{"type":"Polygon","coordinates":[[[111.1945,-8.008],[111.188,-7.998],[111.1875,-7.999],[111.186,-8.0005],[111.185,-8.0035],[111.183,-8.0065],[111.183,-8.0085],[111.1905,-8.0205],[111.1915,-8.021],[111.1915,-8.0215],[111.1915,-8.022],[111.1925,-8.024],[111.1955,-8.0305],[111.196,-8.031],[111.1975,-8.037],[111.201,-8.0395],[111.202,-8.041],[111.202,-8.042],[111.2035,-8.0455],[111.2045,-8.047],[111.2045,-8.0485],[111.208,-8.054],[111.2085,-8.055],[111.208,-8.06],[111.2085,-8.062],[111.2095,-8.0605],[111.2245,-8.0475],[111.2285,-8.046],[111.223,-8.0405],[111.221,-8.0405],[111.219,-8.0385],[111.2195,-8.0365],[111.218,-8.037],[111.2155,-8.0345],[111.214,-8.034],[111.214,-8.0215],[111.222,-8.0195],[111.225,-8.02],[111.2255,-8.02],[111.2245,-8.014],[111.224,-8.013],[111.208,-8.006],[111.201,-8.0045],[111.1995,-8.006],[111.1955,-8.008],[111.1945,-8.008]]]},"properties":{"code":"35.01.07.2002","name":"Mujing"}},{"type":"Feature","geometry":{"type":"Polygon","coordinates":[[[111.2395,-7.9965],[111.231,-7.986],[111.2145,-7.9825],[111.212,-7.982],[111.2115,-7.9825],[111.2045,-7.9825],[111.2035,-7.983],[111.195,-7.9925],[111.194,-7.9935],[111.1935,-7.9945],[111.1945,-8.0045],[111.1955,-8.008],[111.1995,-8.006],[111.201,-8.0045],[111.208,-8.006],[111.224,-8.013],[111.2245,-8.014],[111.2255,-8.02],[111.226,-8.0195],[111.228,-8.0185],[111.229,-8.0175],[111.2395,-7.9965]]]},"properties":{"code":"35.01.07.2003","name":"Sempu"}},{"type":"Feature","geometry":{"type":"Polygon","coordinates":[[[111.1935,-7.9945],[111.1885,-7.9975],[111.168,-7.9975],[111.1675,-7.9965],[111.166,-7.9955],[111.159,-7.9905],[111.158,-7.9905],[111.149,-8.003],[111.1495,-8.0035],[111.1525,-8.0215],[111.158,-8.032],[111.158,-8.031],[111.1595,-8.0315],[111.16,-8.0325],[111.169,-8.0325],[111.1705,-8.033],[111.1725,-8.0345],[111.174,-8.0345],[111.1715,-8.0265],[111.1785,-8.0225],[111.184,-8.0205],[111.1885,-8.0205],[111.189,-8.0205],[111.19,-8.021],[111.1915,-8.021],[111.1905,-8.0205],[111.183,-8.0085],[111.183,-8.0065],[111.185,-8.0035],[111.186,-8.0005],[111.1875,-7.999],[111.188,-7.998],[111.1945,-8.008],[111.1945,-8.0045],[111.1935,-7.9945]]]},"properties":{"code":"35.01.07.2004","name":"Nawangan"}},{"type":"Feature","geometry":{"type":"Polygon","coordinates":[[[111.1575,-7.964],[111.157,-7.963],[111.157,-7.958],[111.157,-7.9565],[111.146,-7.965],[111.1465,-7.9665],[111.1465,-7.967],[111.1455,-7.967],[111.1425,-7.969],[111.141,-7.969],[111.1335,-7.973],[111.1325,-7.974],[111.1305,-7.973],[111.1285,-7.972],[111.1265,-7.972],[111.1265,-7.9715],[111.1265,-7.9725],[111.1275,-7.9755],[111.125,-7.977],[111.124,-7.9785],[111.1285,-7.99],[111.131,-7.993],[111.129,-8.001],[111.129,-8.003],[111.131,-8.0085],[111.1335,-8.01],[111.133,-8.015],[111.133,-8.016],[111.1325,-8.0235],[111.1585,-8.0405],[111.1595,-8.0415],[111.16,-8.0325],[111.1595,-8.0315],[111.158,-8.031],[111.158,-8.032],[111.1525,-8.0215],[111.1495,-8.0035],[111.149,-8.003],[111.158,-7.9905],[111.159,-7.9905],[111.166,-7.9955],[111.166,-7.994],[111.172,-7.977],[111.1705,-7.974],[111.1555,-7.9735],[111.155,-7.972],[111.1575,-7.964]]]},"properties":{"code":"35.01.07.2005","name":"Tokawi"}},{"type":"Feature","geometry":{"type":"Polygon","coordinates":[[[111.181,-7.963],[111.167,-7.9685],[111.1665,-7.9685],[111.1625,-7.9665],[111.1615,-7.966],[111.161,-7.965],[111.159,-7.9645],[111.158,-7.9645],[111.1575,-7.964],[111.155,-7.972],[111.1555,-7.9735],[111.1705,-7.974],[111.172,-7.977],[111.166,-7.994],[111.1675,-7.9965],[111.168,-7.9975],[111.1885,-7.9975],[111.1935,-7.9945],[111.194,-7.9935],[111.195,-7.9925],[111.2035,-7.983],[111.2045,-7.9825],[111.2115,-7.9825],[111.212,-7.982],[111.2105,-7.9815],[111.1995,-7.976],[111.1975,-7.975],[111.1815,-7.9635],[111.181,-7.963]]]},"properties":{"code":"35.01.07.2006","name":"Jetis Lor"}},{"type":"Feature","geometry":{"type":"Polygon","coordinates":[[[111.181,-7.963],[111.1815,-7.9625],[111.1835,-7.956],[111.1825,-7.9545],[111.167,-7.9275],[111.1665,-7.9205],[111.163,-7.922],[111.1605,-7.9215],[111.16,-7.9215],[111.1485,-7.93],[111.146,-7.9315],[111.143,-7.933],[111.144,-7.9465],[111.1455,-7.9495],[111.1445,-7.9525],[111.132,-7.9615],[111.1295,-7.963],[111.13,-7.967],[111.1255,-7.97],[111.1265,-7.9715],[111.1265,-7.972],[111.1285,-7.972],[111.1305,-7.973],[111.1325,-7.974],[111.1335,-7.973],[111.141,-7.969],[111.1425,-7.969],[111.1455,-7.967],[111.1465,-7.967],[111.1465,-7.9665],[111.146,-7.965],[111.157,-7.9565],[111.157,-7.958],[111.157,-7.963],[111.158,-7.9645],[111.159,-7.9645],[111.161,-7.965],[111.1615,-7.966],[111.1625,-7.9665],[111.1665,-7.9685],[111.167,-7.9685],[111.181,-7.963]]]},"properties":{"code":"35.01.07.2007","name":"Penggung"}},{"type":"Feature","geometry":{"type":"Polygon","coordinates":[[[111.1835,-7.916],[111.1785,-7.919],[111.176,-7.919],[111.167,-7.92],[111.1665,-7.9205],[111.167,-7.9275],[111.1825,-7.9545],[111.1835,-7.956],[111.1815,-7.9625],[111.1815,-7.9635],[111.1975,-7.975],[111.1995,-7.976],[111.2105,-7.9815],[111.212,-7.982],[111.214,-7.974],[111.214,-7.9725],[111.2125,-7.9715],[111.211,-7.9715],[111.21,-7.9705],[111.2105,-7.97],[111.2065,-7.968],[111.205,-7.967],[111.2045,-7.9655],[111.2035,-7.966],[111.202,-7.9655],[111.201,-7.965],[111.199,-7.964],[111.198,-7.963],[111.197,-7.962],[111.1965,-7.9615],[111.1955,-7.9595],[111.188,-7.9445],[111.1905,-7.9335],[111.1915,-7.9315],[111.1935,-7.929],[111.194,-7.927],[111.1925,-7.9225],[111.1835,-7.916]]]},"properties":{"code":"35.01.07.2008","name":"Pakis Baru"}},{"type":"Feature","geometry":{"type":"Polygon","coordinates":[[[111.2255,-7.933],[111.2245,-7.9325],[111.222,-7.9305],[111.215,-7.9315],[111.2,-7.935],[111.195,-7.935],[111.1915,-7.9345],[111.191,-7.9335],[111.1905,-7.9335],[111.188,-7.9445],[111.1955,-7.9595],[111.1965,-7.9615],[111.197,-7.962],[111.198,-7.963],[111.199,-7.964],[111.201,-7.965],[111.202,-7.9655],[111.2035,-7.966],[111.2045,-7.9655],[111.205,-7.967],[111.2065,-7.968],[111.2105,-7.97],[111.21,-7.9705],[111.211,-7.9715],[111.2125,-7.9715],[111.214,-7.9725],[111.2145,-7.973],[111.2145,-7.97],[111.2225,-7.946],[111.2245,-7.941],[111.2245,-7.9355],[111.2255,-7.933]]]},"properties":{"code":"35.01.07.2009","name":"Ngromo"}},{"type":"Feature","geometry":{"type":"Polygon","coordinates":[[[111.2555,-8.056],[111.2595,-8.0475],[111.246,-8.0405],[111.245,-8.041],[111.232,-8.0455],[111.2305,-8.048],[111.23,-8.0475],[111.2245,-8.0475],[111.2095,-8.0605],[111.208,-8.064],[111.2065,-8.064],[111.184,-8.059],[111.1895,-8.067],[111.19,-8.069],[111.19,-8.0695],[111.1905,-8.07],[111.194,-8.071],[111.194,-8.0715],[111.1945,-8.0725],[111.195,-8.0715],[111.1985,-8.0715],[111.203,-8.0705],[111.214,-8.0765],[111.215,-8.084],[111.216,-8.083],[111.218,-8.082],[111.2215,-8.082],[111.2285,-8.0845],[111.2385,-8.077],[111.24,-8.0775],[111.242,-8.0775],[111.2425,-8.0775],[111.2505,-8.0715],[111.2555,-8.056]]]},"properties":{"code":"35.01.08.2001","name":"Petungsinarang"}},{"type":"Feature","geometry":{"type":"Polygon","coordinates":[[[111.2585,-8.015],[111.258,-8.015],[111.257,-8.0135],[111.2545,-8.012],[111.252,-8.011],[111.2495,-8.01],[111.248,-7.9935],[111.2465,-7.994],[111.2455,-7.994],[111.244,-7.9945],[111.2425,-7.995],[111.242,-7.995],[111.241,-7.9955],[111.2405,-7.996],[111.2395,-7.9965],[111.229,-8.0175],[111.228,-8.0185],[111.226,-8.0195],[111.2255,-8.02],[111.225,-8.02],[111.222,-8.0195],[111.214,-8.0215],[111.214,-8.034],[111.2155,-8.0345],[111.218,-8.037],[111.2195,-8.0365],[111.219,-8.0385],[111.221,-8.0405],[111.223,-8.0405],[111.2285,-8.046],[111.23,-8.0475],[111.2305,-8.048],[111.232,-8.0455],[111.245,-8.041],[111.247,-8.0395],[111.247,-8.0385],[111.247,-8.037],[111.2515,-8.023],[111.253,-8.022],[111.258,-8.0155],[111.2585,-8.015]]]},"properties":{"code":"35.01.08.2002","name":"Ngunut"}},{"type":"Feature","geometry":{"type":"Polygon","coordinates":[[[111.2735,-7.976],[111.266,-7.9725],[111.265,-7.9715],[111.2635,-7.9685],[111.2605,-7.9695],[111.259,-7.9695],[111.2575,-7.969],[111.255,-7.9735],[111.254,-7.9765],[111.251,-7.9825],[111.2535,-7.985],[111.243,-7.994],[111.243,-7.9945],[111.243,-7.995],[111.244,-7.9945],[111.2455,-7.994],[111.2465,-7.994],[111.248,-7.9935],[111.2495,-8.01],[111.252,-8.011],[111.2545,-8.012],[111.257,-8.0135],[111.258,-8.015],[111.2585,-8.015],[111.265,-8.0225],[111.264,-8.0075],[111.2795,-7.9905],[111.286,-7.988],[111.2855,-7.9875],[111.286,-7.9865],[111.284,-7.9855],[111.2825,-7.9855],[111.2805,-7.9855],[111.2795,-7.9855],[111.271,-7.982],[111.2705,-7.98],[111.2705,-7.9795],[111.2715,-7.9785],[111.2735,-7.976]]]},"properties":{"code":"35.01.08.2003","name":"Bandar"}},{"type":"Feature","geometry":{"type":"Polygon","coordinates":[[[111.299,-7.9975],[111.2945,-7.997],[111.294,-7.997],[111.289,-7.989],[111.287,-7.9885],[111.287,-7.988],[111.286,-7.988],[111.2795,-7.9905],[111.264,-8.0075],[111.265,-8.0225],[111.28,-8.0355],[111.2835,-8.038],[111.2975,-8.04],[111.2985,-8.0395],[111.3005,-8.0365],[111.3075,-8.027],[111.3095,-8.0135],[111.298,-8.005],[111.299,-7.999],[111.299,-7.9975]]]},"properties":{"code":"35.01.08.2004","name":"Kledung"}},{"type":"Feature","geometry":{"type":"Polygon","coordinates":[[[111.2945,-7.9405],[111.291,-7.9395],[111.2865,-7.921],[111.286,-7.9205],[111.281,-7.9385],[111.279,-7.958],[111.283,-7.968],[111.282,-7.971],[111.275,-7.9745],[111.274,-7.976],[111.2735,-7.976],[111.2715,-7.9785],[111.2705,-7.9795],[111.2705,-7.98],[111.271,-7.982],[111.2795,-7.9855],[111.2805,-7.9855],[111.2825,-7.9855],[111.284,-7.9855],[111.286,-7.9865],[111.2855,-7.9875],[111.287,-7.988],[111.287,-7.9885],[111.289,-7.989],[111.294,-7.997],[111.2945,-7.997],[111.299,-7.9975],[111.299,-7.997],[111.299,-7.9965],[111.299,-7.994],[111.3,-7.994],[111.303,-7.991],[111.304,-7.9865],[111.3045,-7.986],[111.305,-7.9855],[111.3055,-7.983],[111.2985,-7.974],[111.2975,-7.973],[111.2985,-7.959],[111.2945,-7.9405]]]},"properties":{"code":"35.01.08.2005","name":"Tumpuk"}},{"type":"Feature","geometry":{"type":"Polygon","coordinates":[[[111.3165,-7.9365],[111.314,-7.935],[111.301,-7.939],[111.2965,-7.9405],[111.2945,-7.9405],[111.2985,-7.959],[111.2975,-7.973],[111.2985,-7.974],[111.3055,-7.983],[111.3065,-7.9835],[111.313,-7.9875],[111.3135,-7.985],[111.314,-7.9845],[111.313,-7.9805],[111.315,-7.9765],[111.317,-7.9715],[111.3195,-7.9675],[111.3215,-7.966],[111.326,-7.966],[111.3255,-7.9605],[111.3265,-7.9555],[111.3165,-7.9365]]]},"properties":{"code":"35.01.08.2006","name":"Watupatok"}},{"type":"Feature","geometry":{"type":"Polygon","coordinates":[[[111.286,-7.9205],[111.285,-7.921],[111.2835,-7.92],[111.281,-7.9185],[111.28,-7.9185],[111.2795,-7.9195],[111.2725,-7.9235],[111.272,-7.9245],[111.2725,-7.9275],[111.272,-7.9305],[111.2715,-7.931],[111.2735,-7.937],[111.258,-7.968],[111.2575,-7.969],[111.259,-7.9695],[111.2605,-7.9695],[111.2635,-7.9685],[111.265,-7.9715],[111.266,-7.9725],[111.2735,-7.976],[111.274,-7.976],[111.275,-7.9745],[111.282,-7.971],[111.283,-7.968],[111.279,-7.958],[111.281,-7.9385],[111.286,-7.9205]]]},"properties":{"code":"35.01.08.2007","name":"Bangunsari"}},{"type":"Feature","geometry":{"type":"Polygon","coordinates":[[[111.2715,-7.931],[111.27,-7.9295],[111.269,-7.9315],[111.2505,-7.946],[111.2395,-7.9465],[111.2355,-7.9475],[111.2345,-7.948],[111.232,-7.9485],[111.228,-7.94],[111.228,-7.935],[111.226,-7.9335],[111.2255,-7.933],[111.2245,-7.9355],[111.2245,-7.941],[111.2225,-7.946],[111.2145,-7.97],[111.2145,-7.973],[111.214,-7.974],[111.212,-7.982],[111.2145,-7.9825],[111.231,-7.986],[111.2395,-7.9965],[111.2405,-7.996],[111.241,-7.9955],[111.242,-7.995],[111.2425,-7.995],[111.243,-7.995],[111.243,-7.9945],[111.243,-7.994],[111.2535,-7.985],[111.251,-7.9825],[111.254,-7.9765],[111.2545,-7.974],[111.2565,-7.97],[111.258,-7.968],[111.2735,-7.937],[111.2715,-7.931]]]},"properties":{"code":"35.01.08.2008","name":"Jeruk"}},{"type":"Feature","geometry":{"type":"Polygon","coordinates":[[[111.2285,-8.0845],[111.2215,-8.082],[111.218,-8.082],[111.216,-8.083],[111.215,-8.088],[111.2225,-8.106],[111.222,-8.109],[111.2195,-8.115],[111.219,-8.116],[111.225,-8.1195],[111.243,-8.1205],[111.246,-8.1165],[111.2455,-8.116],[111.245,-8.115],[111.2285,-8.0845]]]},"properties":{"code":"35.01.09.2001","name":"Kebondalem"}},{"type":"Feature","geometry":{"type":"Polygon","coordinates":[[[111.24,-8.0775],[111.2385,-8.077],[111.2285,-8.0845],[111.245,-8.115],[111.2455,-8.116],[111.246,-8.1165],[111.255,-8.113],[111.2455,-8.094],[111.241,-8.0935],[111.241,-8.092],[111.24,-8.0775]]]},"properties":{"code":"35.01.09.2002","name":"Gedangan"}},{"type":"Feature","geometry":{"type":"Polygon","coordinates":[[[111.2815,-8.082],[111.279,-8.0745],[111.2655,-8.06],[111.2555,-8.056],[111.2505,-8.0715],[111.2425,-8.0775],[111.242,-8.0775],[111.24,-8.0775],[111.241,-8.092],[111.241,-8.0935],[111.2455,-8.094],[111.255,-8.113],[111.262,-8.114],[111.2665,-8.1105],[111.2805,-8.097],[111.2815,-8.082]]]},"properties":{"code":"35.01.09.2003","name":"Ngreco"}},{"type":"Feature","geometry":{"type":"Polygon","coordinates":[[[111.312,-8.11],[111.312,-8.106],[111.3125,-8.105],[111.3125,-8.1025],[111.3075,-8.1015],[111.3045,-8.1005],[111.304,-8.1],[111.3045,-8.0965],[111.3025,-8.0815],[111.307,-8.076],[111.3095,-8.0745],[111.3125,-8.0705],[111.311,-8.0705],[111.293,-8.0755],[111.2905,-8.076],[111.288,-8.0765],[111.2855,-8.077],[111.284,-8.079],[111.2815,-8.082],[111.2805,-8.097],[111.2665,-8.1105],[111.2715,-8.121],[111.2975,-8.126],[111.2985,-8.1255],[111.3005,-8.123],[111.3005,-8.118],[111.3025,-8.117],[111.309,-8.1115],[111.3105,-8.112],[111.3115,-8.1115],[111.312,-8.11]]]},"properties":{"code":"35.01.09.2004","name":"Kasihan"}},{"type":"Feature","geometry":{"type":"Polygon","coordinates":[[[111.3285,-8.065],[111.328,-8.0655],[111.325,-8.063],[111.3195,-8.058],[111.3195,-8.0595],[111.3145,-8.0705],[111.3125,-8.0705],[111.3095,-8.0745],[111.307,-8.076],[111.3025,-8.0815],[111.3045,-8.0965],[111.304,-8.1],[111.3045,-8.1005],[111.3075,-8.1015],[111.3125,-8.1025],[111.3125,-8.105],[111.312,-8.106],[111.312,-8.11],[111.312,-8.1095],[111.313,-8.1095],[111.3165,-8.1075],[111.323,-8.106],[111.3325,-8.092],[111.344,-8.0915],[111.3465,-8.0895],[111.351,-8.0855],[111.3535,-8.081],[111.3545,-8.079],[111.354,-8.078],[111.353,-8.077],[111.351,-8.0775],[111.347,-8.0675],[111.3465,-8.0665],[111.329,-8.0725],[111.3285,-8.0725],[111.3285,-8.067],[111.3285,-8.065]]]},"properties":{"code":"35.01.09.2005","name":"Pucangombo"}},{"type":"Feature","geometry":{"type":"Polygon","coordinates":[[[111.36,-8.0145],[111.3595,-8.0145],[111.357,-8.0155],[111.3565,-8.0175],[111.344,-8.021],[111.34,-8.022],[111.3325,-8.029],[111.3305,-8.0315],[111.3295,-8.0335],[111.329,-8.034],[111.328,-8.035],[111.325,-8.045],[111.332,-8.0595],[111.332,-8.061],[111.33,-8.063],[111.3295,-8.064],[111.328,-8.064],[111.3285,-8.066],[111.3285,-8.067],[111.3285,-8.0725],[111.329,-8.0725],[111.3465,-8.0665],[111.3465,-8.066],[111.347,-8.0655],[111.349,-8.064],[111.354,-8.049],[111.367,-8.033],[111.367,-8.031],[111.3655,-8.03],[111.362,-8.03],[111.361,-8.0285],[111.36,-8.0145]]]},"properties":{"code":"35.01.09.2006","name":"Gemaharjo"}},{"type":"Feature","geometry":{"type":"Polygon","coordinates":[[[111.3135,-7.9855],[111.313,-7.9875],[111.3065,-7.9835],[111.305,-7.9855],[111.3045,-7.986],[111.304,-7.9865],[111.303,-7.991],[111.3,-7.994],[111.299,-7.994],[111.299,-7.9965],[111.299,-7.997],[111.299,-7.998],[111.299,-7.999],[111.298,-8.005],[111.3095,-8.0135],[111.3075,-8.027],[111.3005,-8.0365],[111.2985,-8.0395],[111.2975,-8.04],[111.3075,-8.0505],[111.318,-8.053],[111.32,-8.0555],[111.3195,-8.058],[111.325,-8.063],[111.328,-8.0655],[111.3285,-8.065],[111.328,-8.064],[111.3295,-8.064],[111.33,-8.063],[111.332,-8.061],[111.332,-8.0595],[111.325,-8.045],[111.328,-8.035],[111.329,-8.034],[111.3295,-8.0335],[111.3305,-8.032],[111.33,-8.03],[111.3295,-8.0285],[111.3225,-8.009],[111.325,-8.0025],[111.3245,-8.002],[111.3235,-7.998],[111.3235,-7.9975],[111.3215,-7.9965],[111.3135,-7.9855]]]},"properties":{"code":"35.01.09.2007","name":"Ploso"}},{"type":"Feature","geometry":{"type":"Polygon","coordinates":[[[111.2975,-8.04],[111.2835,-8.038],[111.2855,-8.045],[111.282,-8.0735],[111.2845,-8.078],[111.2855,-8.077],[111.288,-8.0765],[111.2905,-8.076],[111.293,-8.0755],[111.311,-8.0705],[111.313,-8.0705],[111.3145,-8.0705],[111.3195,-8.0595],[111.32,-8.0555],[111.318,-8.053],[111.3075,-8.0505],[111.2975,-8.04]]]},"properties":{"code":"35.01.09.2008","name":"Tegalombo"}},{"type":"Feature","geometry":{"type":"Polygon","coordinates":[[[111.265,-8.0225],[111.2585,-8.015],[111.258,-8.0155],[111.253,-8.022],[111.2515,-8.023],[111.247,-8.037],[111.247,-8.0385],[111.247,-8.0395],[111.246,-8.0405],[111.2595,-8.0475],[111.2555,-8.056],[111.2655,-8.06],[111.279,-8.0745],[111.2815,-8.082],[111.284,-8.079],[111.2845,-8.078],[111.282,-8.0735],[111.2855,-8.045],[111.2835,-8.038],[111.28,-8.0355],[111.265,-8.0225]]]},"properties":{"code":"35.01.09.2009","name":"Kemuning"}},{"type":"Feature","geometry":{"type":"Polygon","coordinates":[[[111.338,-7.972],[111.337,-7.9715],[111.3275,-7.968],[111.326,-7.966],[111.3215,-7.966],[111.3195,-7.9675],[111.317,-7.9715],[111.315,-7.9765],[111.313,-7.9805],[111.314,-7.9845],[111.3135,-7.985],[111.3135,-7.9855],[111.3215,-7.9965],[111.3235,-7.9975],[111.3235,-7.998],[111.3245,-8.002],[111.325,-8.0025],[111.3325,-8.004],[111.335,-8.008],[111.3355,-8.0105],[111.344,-8.0065],[111.35,-7.991],[111.3495,-7.989],[111.3485,-7.9875],[111.349,-7.985],[111.3485,-7.9785],[111.348,-7.9785],[111.3475,-7.977],[111.341,-7.9755],[111.3385,-7.972],[111.338,-7.972]]]},"properties":{"code":"35.01.09.2010","name":"Tahunan"}},{"type":"Feature","geometry":{"type":"Polygon","coordinates":[[[111.344,-8.0065],[111.3355,-8.0105],[111.335,-8.008],[111.3325,-8.004],[111.325,-8.0025],[111.3225,-8.009],[111.3295,-8.0285],[111.33,-8.03],[111.3305,-8.032],[111.3305,-8.0315],[111.3325,-8.029],[111.34,-8.022],[111.344,-8.021],[111.3565,-8.0175],[111.357,-8.0155],[111.3595,-8.0145],[111.3585,-8.0135],[111.345,-8.006],[111.344,-8.0065]]]},"properties":{"code":"35.01.09.2011","name":"Tahunan Baru"}},{"type":"Feature","geometry":{"type":"Polygon","coordinates":[[[111.258,-8.222],[111.255,-8.2185],[111.251,-8.2045],[111.2445,-8.208],[111.251,-8.2205],[111.251,-8.2345],[111.2325,-8.235],[111.228,-8.2405],[111.2285,-8.243],[111.229,-8.2455],[111.2295,-8.247],[111.231,-8.252],[111.2315,-8.2565],[111.256,-8.248],[111.2545,-8.246],[111.255,-8.2445],[111.262,-8.2285],[111.2615,-8.227],[111.258,-8.222]]]},"properties":{"code":"35.01.10.2001","name":"Jetak"}},{"type":"Feature","geometry":{"type":"Polygon","coordinates":[[[111.2445,-8.208],[111.215,-8.2035],[111.2145,-8.2055],[111.219,-8.2205],[111.227,-8.2395],[111.2275,-8.2405],[111.228,-8.2405],[111.2325,-8.235],[111.251,-8.2345],[111.251,-8.2205],[111.2445,-8.208]]]},"properties":{"code":"35.01.10.2002","name":"Nglaran"}},{"type":"Feature","geometry":{"type":"Polygon","coordinates":[[[111.249,-8.193],[111.2485,-8.1935],[111.2445,-8.1925],[111.243,-8.19],[111.2255,-8.182],[111.2225,-8.175],[111.2215,-8.176],[111.22,-8.176],[111.2045,-8.179],[111.2105,-8.196],[111.211,-8.198],[111.2135,-8.2035],[111.215,-8.2035],[111.2445,-8.208],[111.251,-8.2045],[111.2545,-8.1965],[111.251,-8.1935],[111.249,-8.193]]]},"properties":{"code":"35.01.10.2003","name":"Wonoanti"}},{"type":"Feature","geometry":{"type":"Polygon","coordinates":[[[111.2835,-8.1835],[111.2825,-8.181],[111.2815,-8.1805],[111.27,-8.1865],[111.2645,-8.1965],[111.2555,-8.196],[111.2545,-8.1965],[111.251,-8.2045],[111.255,-8.2185],[111.258,-8.222],[111.2615,-8.227],[111.262,-8.2245],[111.2625,-8.223],[111.2645,-8.2215],[111.2855,-8.2165],[111.2875,-8.215],[111.2865,-8.2125],[111.287,-8.2105],[111.2875,-8.208],[111.292,-8.1945],[111.287,-8.189],[111.284,-8.1855],[111.2835,-8.1835]]]},"properties":{"code":"35.01.10.2004","name":"Padi"}},{"type":"Feature","geometry":{"type":"Polygon","coordinates":[[[111.2955,-8.1775],[111.2945,-8.1755],[111.2835,-8.1835],[111.284,-8.1855],[111.287,-8.189],[111.292,-8.1945],[111.2985,-8.202],[111.2995,-8.2045],[111.3055,-8.2055],[111.3075,-8.1995],[111.308,-8.1955],[111.3015,-8.1935],[111.2955,-8.1775]]]},"properties":{"code":"35.01.10.2005","name":"Kluwih"}},{"type":"Feature","geometry":{"type":"Polygon","coordinates":[[[111.2945,-8.1755],[111.292,-8.169],[111.3,-8.158],[111.3,-8.1565],[111.298,-8.148],[111.2895,-8.1655],[111.285,-8.1685],[111.2835,-8.1685],[111.279,-8.1685],[111.2775,-8.1695],[111.261,-8.183],[111.2555,-8.196],[111.2645,-8.1965],[111.27,-8.1865],[111.2815,-8.1805],[111.2825,-8.181],[111.2835,-8.1835],[111.2945,-8.1755]]]},"properties":{"code":"35.01.10.2006","name":"Bungur"}},{"type":"Feature","geometry":{"type":"Polygon","coordinates":[[[111.2895,-8.1655],[111.2635,-8.1665],[111.261,-8.1655],[111.2595,-8.166],[111.2595,-8.1675],[111.2595,-8.175],[111.2505,-8.191],[111.249,-8.193],[111.251,-8.1935],[111.2545,-8.1965],[111.2555,-8.196],[111.261,-8.183],[111.2775,-8.1695],[111.279,-8.1685],[111.2835,-8.1685],[111.285,-8.1685],[111.2895,-8.1655]]]},"properties":{"code":"35.01.10.2007","name":"Tulakan"}},{"type":"Feature","geometry":{"type":"Polygon","coordinates":[[[111.2545,-8.155],[111.2535,-8.155],[111.2305,-8.1535],[111.228,-8.1535],[111.2275,-8.154],[111.2275,-8.1545],[111.226,-8.157],[111.2245,-8.1585],[111.2235,-8.1585],[111.2215,-8.1585],[111.223,-8.166],[111.2225,-8.167],[111.2245,-8.1685],[111.2245,-8.1725],[111.2225,-8.175],[111.2255,-8.182],[111.243,-8.19],[111.2445,-8.1925],[111.2485,-8.1935],[111.2505,-8.191],[111.2595,-8.175],[111.2595,-8.1675],[111.2595,-8.162],[111.2595,-8.157],[111.259,-8.1575],[111.2555,-8.1565],[111.2545,-8.155]]]},"properties":{"code":"35.01.10.2008","name":"Jatigunung"}},{"type":"Feature","geometry":{"type":"Polygon","coordinates":[[[111.26,-8.151],[111.259,-8.151],[111.254,-8.142],[111.243,-8.136],[111.242,-8.136],[111.236,-8.1425],[111.234,-8.1445],[111.2335,-8.145],[111.2325,-8.147],[111.2305,-8.149],[111.2285,-8.1515],[111.228,-8.1535],[111.2305,-8.1535],[111.2535,-8.155],[111.257,-8.1535],[111.2605,-8.152],[111.26,-8.151]]]},"properties":{"code":"35.01.10.2009","name":"Gasang"}},{"type":"Feature","geometry":{"type":"Polygon","coordinates":[[[111.243,-8.1205],[111.225,-8.1195],[111.219,-8.116],[111.218,-8.117],[111.1995,-8.122],[111.199,-8.123],[111.201,-8.1345],[111.196,-8.149],[111.1855,-8.1515],[111.1845,-8.1515],[111.1815,-8.1555],[111.181,-8.1565],[111.1815,-8.1585],[111.1825,-8.158],[111.184,-8.1595],[111.1855,-8.16],[111.2065,-8.1615],[111.2215,-8.1585],[111.2235,-8.1585],[111.2245,-8.1585],[111.226,-8.157],[111.2275,-8.1545],[111.2275,-8.154],[111.2285,-8.1515],[111.2305,-8.149],[111.2325,-8.147],[111.2335,-8.145],[111.234,-8.1445],[111.236,-8.1425],[111.242,-8.136],[111.2425,-8.1355],[111.243,-8.1205]]]},"properties":{"code":"35.01.10.2010","name":"Kalikuning"}},{"type":"Feature","geometry":{"type":"Polygon","coordinates":[[[111.262,-8.114],[111.255,-8.113],[111.246,-8.1165],[111.243,-8.1205],[111.2425,-8.1355],[111.243,-8.136],[111.254,-8.142],[111.259,-8.151],[111.26,-8.151],[111.2595,-8.1495],[111.2615,-8.1405],[111.2715,-8.1315],[111.2675,-8.1235],[111.2655,-8.1205],[111.262,-8.114]]]},"properties":{"code":"35.01.10.2011","name":"Ngile"}},{"type":"Feature","geometry":{"type":"Polygon","coordinates":[[[111.2975,-8.126],[111.2715,-8.121],[111.2665,-8.1105],[111.262,-8.114],[111.2655,-8.1205],[111.2675,-8.1235],[111.2715,-8.1315],[111.2615,-8.1405],[111.2595,-8.1495],[111.2605,-8.152],[111.257,-8.1535],[111.2545,-8.155],[111.2555,-8.1565],[111.259,-8.1575],[111.2605,-8.1565],[111.262,-8.156],[111.2635,-8.156],[111.2655,-8.156],[111.269,-8.1535],[111.2705,-8.153],[111.2725,-8.153],[111.274,-8.153],[111.2805,-8.1545],[111.2815,-8.1535],[111.2805,-8.1515],[111.2795,-8.141],[111.2805,-8.137],[111.2795,-8.1355],[111.282,-8.1315],[111.2955,-8.1275],[111.2975,-8.126]]]},"properties":{"code":"35.01.10.2012","name":"Bubakan"}},{"type":"Feature","geometry":{"type":"Polygon","coordinates":[[[111.298,-8.148],[111.297,-8.146],[111.298,-8.126],[111.2955,-8.1275],[111.282,-8.1315],[111.2795,-8.1355],[111.2805,-8.137],[111.2795,-8.141],[111.2805,-8.1515],[111.2815,-8.1535],[111.2805,-8.1545],[111.274,-8.153],[111.2725,-8.153],[111.2705,-8.153],[111.269,-8.1535],[111.2655,-8.156],[111.2635,-8.156],[111.262,-8.156],[111.2605,-8.1565],[111.2595,-8.157],[111.2595,-8.162],[111.2595,-8.166],[111.261,-8.1655],[111.2635,-8.1665],[111.2895,-8.1655],[111.298,-8.148]]]},"properties":{"code":"35.01.10.2013","name":"Losari"}},{"type":"Feature","geometry":{"type":"Polygon","coordinates":[[[111.306,-8.1315],[111.3035,-8.1305],[111.3025,-8.129],[111.3,-8.1265],[111.298,-8.126],[111.297,-8.146],[111.298,-8.148],[111.3,-8.1565],[111.3,-8.158],[111.292,-8.169],[111.2945,-8.1755],[111.2955,-8.1775],[111.3085,-8.177],[111.315,-8.1645],[111.3215,-8.1645],[111.3225,-8.1645],[111.3225,-8.161],[111.3055,-8.1375],[111.3055,-8.137],[111.306,-8.1345],[111.3055,-8.1325],[111.306,-8.1315]]]},"properties":{"code":"35.01.10.2014","name":"Ngumbul"}},{"type":"Feature","geometry":{"type":"Polygon","coordinates":[[[111.3425,-8.1335],[111.3305,-8.126],[111.3085,-8.13],[111.3075,-8.1315],[111.3065,-8.132],[111.306,-8.1315],[111.3055,-8.1325],[111.306,-8.1345],[111.3055,-8.137],[111.3055,-8.1375],[111.3225,-8.161],[111.3225,-8.1645],[111.3235,-8.1645],[111.3325,-8.178],[111.3395,-8.168],[111.3425,-8.1335]]]},"properties":{"code":"35.01.10.2015","name":"Wonosidi"}},{"type":"Feature","geometry":{"type":"Polygon","coordinates":[[[111.3625,-8.097],[111.3555,-8.089],[111.354,-8.0885],[111.3515,-8.0855],[111.351,-8.0855],[111.3465,-8.0895],[111.344,-8.0915],[111.3325,-8.092],[111.323,-8.106],[111.3165,-8.1075],[111.313,-8.1095],[111.312,-8.11],[111.3115,-8.1115],[111.3105,-8.112],[111.309,-8.1115],[111.3025,-8.117],[111.3005,-8.118],[111.3005,-8.123],[111.2985,-8.1255],[111.3,-8.1265],[111.3025,-8.129],[111.3035,-8.1305],[111.306,-8.1315],[111.3065,-8.132],[111.3075,-8.1315],[111.3085,-8.13],[111.3305,-8.126],[111.3425,-8.1335],[111.3435,-8.1325],[111.3485,-8.131],[111.3535,-8.126],[111.355,-8.1245],[111.3555,-8.1235],[111.356,-8.123],[111.3565,-8.1225],[111.3555,-8.122],[111.3555,-8.1215],[111.356,-8.1205],[111.3485,-8.115],[111.348,-8.115],[111.3475,-8.1145],[111.347,-8.1135],[111.3465,-8.109],[111.347,-8.1085],[111.352,-8.105],[111.3585,-8.1065],[111.36,-8.106],[111.36,-8.1045],[111.361,-8.102],[111.362,-8.101],[111.3625,-8.0995],[111.3625,-8.097]]]},"properties":{"code":"35.01.10.2016","name":"Ketro"}},{"type":"Feature","geometry":{"type":"Polygon","coordinates":[[[111.352,-8.107],[111.36,-8.1065],[111.36,-8.1035],[111.358,-8.1015],[111.3585,-8.0995],[111.3505,-8.0895],[111.3355,-8.0955],[111.3305,-8.1145],[111.3355,-8.1275],[111.346,-8.131],[111.356,-8.1225],[111.3605,-8.1225],[111.362,-8.1215],[111.3615,-8.119],[111.361,-8.1185],[111.36,-8.119],[111.3605,-8.1195],[111.36,-8.12],[111.3595,-8.1195],[111.359,-8.1205],[111.358,-8.1195],[111.357,-8.119],[111.3575,-8.1205],[111.3565,-8.121],[111.3555,-8.1205],[111.355,-8.1195],[111.352,-8.116],[111.349,-8.115],[111.348,-8.115],[111.347,-8.1135],[111.3475,-8.1105],[111.3465,-8.1085],[111.352,-8.107]]]},"properties":{"code":"35.01.10.2017","name":"Ketro Harjo"}},{"type":"Feature","geometry":{"type":"Polygon","coordinates":[[[111.2965,-8.2245],[111.287,-8.2155],[111.2855,-8.2165],[111.2645,-8.2215],[111.2625,-8.223],[111.262,-8.2245],[111.262,-8.2285],[111.255,-8.2445],[111.2545,-8.246],[111.256,-8.248],[111.2705,-8.2485],[111.2955,-8.2635],[111.292,-8.24],[111.293,-8.2385],[111.2965,-8.227],[111.3005,-8.2285],[111.2965,-8.2245]]]},"properties":{"code":"35.01.11.2001","name":"Sidomulyo"}},{"type":"Feature","geometry":{"type":"Polygon","coordinates":[[[111.325,-8.2425],[111.324,-8.243],[111.316,-8.237],[111.3085,-8.2445],[111.3085,-8.243],[111.3035,-8.245],[111.3035,-8.247],[111.2945,-8.2435],[111.2925,-8.2395],[111.292,-8.24],[111.2955,-8.2635],[111.303,-8.257],[111.312,-8.2665],[111.326,-8.27],[111.3285,-8.26],[111.329,-8.2585],[111.329,-8.2565],[111.3295,-8.253],[111.329,-8.249],[111.329,-8.248],[111.3275,-8.2485],[111.3265,-8.247],[111.3255,-8.245],[111.325,-8.2425]]]},"properties":{"code":"35.01.11.2002","name":"Hadiwarno"}},{"type":"Feature","geometry":{"type":"Polygon","coordinates":[[[111.3145,-8.22],[111.308,-8.2275],[111.3085,-8.228],[111.316,-8.237],[111.324,-8.243],[111.325,-8.2415],[111.327,-8.228],[111.3145,-8.22]]]},"properties":{"code":"35.01.11.2003","name":"Tanjungpuro"}},{"type":"Feature","geometry":{"type":"Polygon","coordinates":[[[111.3005,-8.2285],[111.2965,-8.227],[111.293,-8.2385],[111.2925,-8.2395],[111.2945,-8.2435],[111.3035,-8.247],[111.3035,-8.245],[111.3085,-8.243],[111.3085,-8.2445],[111.316,-8.237],[111.3085,-8.228],[111.307,-8.227],[111.3015,-8.23],[111.3005,-8.2285]]]},"properties":{"code":"35.01.11.2004","name":"Hadiluwih"}},{"type":"Feature","geometry":{"type":"Polygon","coordinates":[[[111.3055,-8.2055],[111.2995,-8.2045],[111.2985,-8.202],[111.292,-8.1945],[111.2875,-8.208],[111.287,-8.2105],[111.2865,-8.2125],[111.2875,-8.215],[111.287,-8.2155],[111.2965,-8.2245],[111.3,-8.228],[111.3015,-8.23],[111.307,-8.227],[111.308,-8.2275],[111.3145,-8.22],[111.315,-8.219],[111.3125,-8.2175],[111.3135,-8.2145],[111.313,-8.211],[111.314,-8.2095],[111.3135,-8.208],[111.3055,-8.2055]]]},"properties":{"code":"35.01.11.2005","name":"Pagerejo"}},{"type":"Feature","geometry":{"type":"Polygon","coordinates":[[[111.3335,-8.2215],[111.3345,-8.216],[111.334,-8.2155],[111.331,-8.2135],[111.3265,-8.217],[111.325,-8.2165],[111.314,-8.2125],[111.314,-8.2095],[111.313,-8.211],[111.3135,-8.2145],[111.3125,-8.2175],[111.315,-8.219],[111.3145,-8.22],[111.327,-8.228],[111.3315,-8.2235],[111.3335,-8.2215]]]},"properties":{"code":"35.01.11.2006","name":"Wiyoro"}},{"type":"Feature","geometry":{"type":"Polygon","coordinates":[[[111.337,-8.2065],[111.336,-8.2065],[111.3345,-8.206],[111.3135,-8.208],[111.314,-8.2095],[111.314,-8.2125],[111.325,-8.2165],[111.3265,-8.217],[111.331,-8.2135],[111.334,-8.2155],[111.3345,-8.216],[111.3335,-8.2215],[111.3355,-8.219],[111.3445,-8.216],[111.338,-8.21],[111.337,-8.2095],[111.3365,-8.2085],[111.337,-8.2065]]]},"properties":{"code":"35.01.11.2007","name":"Ngadirojo"}},{"type":"Feature","geometry":{"type":"Polygon","coordinates":[[[111.351,-8.195],[111.34,-8.1945],[111.3395,-8.196],[111.34,-8.197],[111.3405,-8.198],[111.3385,-8.2065],[111.337,-8.2065],[111.3365,-8.2075],[111.3365,-8.2085],[111.337,-8.2095],[111.338,-8.21],[111.3445,-8.216],[111.3585,-8.2085],[111.36,-8.201],[111.351,-8.195]]]},"properties":{"code":"35.01.11.2008","name":"Bogoharjo"}},{"type":"Feature","geometry":{"type":"Polygon","coordinates":[[[111.331,-8.1965],[111.3305,-8.197],[111.3265,-8.197],[111.3175,-8.1935],[111.3165,-8.1935],[111.315,-8.193],[111.3135,-8.1935],[111.312,-8.193],[111.3105,-8.1955],[111.3075,-8.199],[111.3075,-8.1995],[111.3055,-8.2055],[111.3135,-8.208],[111.3345,-8.206],[111.336,-8.2065],[111.3385,-8.2065],[111.3405,-8.198],[111.3405,-8.1975],[111.3395,-8.197],[111.3395,-8.1975],[111.337,-8.197],[111.3345,-8.1975],[111.331,-8.1965]]]},"properties":{"code":"35.01.11.2009","name":"Cokrokembang"}},{"type":"Feature","geometry":{"type":"Polygon","coordinates":[[[111.3085,-8.177],[111.2955,-8.1775],[111.3015,-8.1935],[111.308,-8.1955],[111.3075,-8.199],[111.3105,-8.1955],[111.312,-8.193],[111.3135,-8.1935],[111.315,-8.193],[111.3165,-8.1935],[111.3175,-8.1935],[111.3265,-8.197],[111.3305,-8.197],[111.331,-8.1965],[111.3295,-8.1955],[111.3295,-8.195],[111.33,-8.194],[111.329,-8.1935],[111.33,-8.1915],[111.328,-8.191],[111.312,-8.1835],[111.3085,-8.177]]]},"properties":{"code":"35.01.11.2010","name":"Bodag"}},{"type":"Feature","geometry":{"type":"Polygon","coordinates":[[[111.3325,-8.178],[111.3235,-8.1645],[111.3215,-8.1645],[111.315,-8.1645],[111.3085,-8.177],[111.312,-8.1835],[111.328,-8.191],[111.33,-8.1885],[111.3265,-8.183],[111.327,-8.1805],[111.3325,-8.178]]]},"properties":{"code":"35.01.11.2011","name":"Tanjunglor"}},{"type":"Feature","geometry":{"type":"Polygon","coordinates":[[[111.354,-8.159],[111.3395,-8.168],[111.3325,-8.178],[111.327,-8.1805],[111.3265,-8.183],[111.33,-8.1885],[111.33,-8.1915],[111.329,-8.1935],[111.331,-8.1945],[111.3355,-8.1845],[111.336,-8.184],[111.339,-8.183],[111.3405,-8.183],[111.342,-8.1835],[111.3435,-8.1835],[111.345,-8.183],[111.347,-8.182],[111.3465,-8.1765],[111.347,-8.173],[111.354,-8.159]]]},"properties":{"code":"35.01.11.2012","name":"Nogosari"}},{"type":"Feature","geometry":{"type":"Polygon","coordinates":[[[111.3405,-8.1845],[111.339,-8.183],[111.336,-8.184],[111.3355,-8.1845],[111.331,-8.1945],[111.33,-8.194],[111.3295,-8.195],[111.3295,-8.1955],[111.331,-8.1965],[111.3345,-8.1975],[111.337,-8.197],[111.3395,-8.1975],[111.3395,-8.197],[111.3405,-8.1975],[111.3395,-8.196],[111.34,-8.1945],[111.3405,-8.1845]]]},"properties":{"code":"35.01.11.2013","name":"Cangkring"}},{"type":"Feature","geometry":{"type":"Polygon","coordinates":[[[111.3745,-8.1755],[111.3725,-8.1755],[111.3715,-8.1755],[111.371,-8.176],[111.3535,-8.187],[111.351,-8.195],[111.36,-8.201],[111.366,-8.191],[111.3705,-8.187],[111.3715,-8.1845],[111.3745,-8.1755]]]},"properties":{"code":"35.01.11.2014","name":"Wonodadi Wetan"}},{"type":"Feature","geometry":{"type":"Polygon","coordinates":[[[111.358,-8.16],[111.3565,-8.16],[111.354,-8.159],[111.347,-8.173],[111.3465,-8.1765],[111.347,-8.182],[111.345,-8.183],[111.3435,-8.1835],[111.342,-8.1835],[111.3405,-8.183],[111.3405,-8.1845],[111.34,-8.1945],[111.351,-8.195],[111.3535,-8.187],[111.371,-8.176],[111.372,-8.1755],[111.373,-8.1755],[111.3765,-8.176],[111.377,-8.1765],[111.3775,-8.1775],[111.379,-8.1775],[111.3825,-8.174],[111.3835,-8.168],[111.3825,-8.165],[111.3805,-8.1635],[111.3795,-8.162],[111.378,-8.1645],[111.372,-8.164],[111.3655,-8.163],[111.358,-8.16]]]},"properties":{"code":"35.01.11.2015","name":"Wonodadi Kulon"}},{"type":"Feature","geometry":{"type":"Polygon","coordinates":[[[111.3585,-8.1315],[111.3595,-8.131],[111.3595,-8.128],[111.3585,-8.125],[111.358,-8.125],[111.3575,-8.123],[111.3575,-8.1225],[111.357,-8.1225],[111.3565,-8.1225],[111.356,-8.123],[111.3555,-8.1235],[111.355,-8.1245],[111.3535,-8.126],[111.3485,-8.131],[111.3435,-8.1325],[111.3425,-8.1335],[111.3395,-8.168],[111.354,-8.159],[111.3565,-8.16],[111.358,-8.16],[111.35,-8.138],[111.3585,-8.1315]]]},"properties":{"code":"35.01.11.2016","name":"Wonokarto"}},{"type":"Feature","geometry":{"type":"Polygon","coordinates":[[[111.3585,-8.1315],[111.35,-8.138],[111.358,-8.16],[111.3655,-8.163],[111.372,-8.164],[111.378,-8.1645],[111.3795,-8.162],[111.3785,-8.1605],[111.3785,-8.159],[111.378,-8.157],[111.3765,-8.1545],[111.3735,-8.1525],[111.372,-8.153],[111.3585,-8.14],[111.357,-8.1405],[111.358,-8.1385],[111.3585,-8.1345],[111.3585,-8.1315]]]},"properties":{"code":"35.01.11.2017","name":"Wonosobo"}},{"type":"Feature","geometry":{"type":"Polygon","coordinates":[[[111.38,-8.1405],[111.3795,-8.139],[111.3685,-8.129],[111.3685,-8.1215],[111.3625,-8.121],[111.3615,-8.119],[111.361,-8.119],[111.3605,-8.119],[111.36,-8.1195],[111.359,-8.1195],[111.359,-8.12],[111.3585,-8.12],[111.358,-8.1195],[111.357,-8.119],[111.357,-8.12],[111.3565,-8.1205],[111.356,-8.1205],[111.3555,-8.1215],[111.3555,-8.122],[111.3565,-8.122],[111.357,-8.1225],[111.3575,-8.1225],[111.3575,-8.123],[111.358,-8.125],[111.3585,-8.125],[111.3595,-8.128],[111.3595,-8.131],[111.3585,-8.1315],[111.3585,-8.1345],[111.358,-8.1385],[111.357,-8.1405],[111.3585,-8.14],[111.372,-8.153],[111.3735,-8.1525],[111.3765,-8.1545],[111.3785,-8.155],[111.381,-8.148],[111.38,-8.147],[111.381,-8.1435],[111.379,-8.1415],[111.379,-8.141],[111.38,-8.1405]]]},"properties":{"code":"35.01.11.2018","name":"Wonoasri"}},{"type":"Feature","geometry":{"type":"Polygon","coordinates":[[[111.3385,-8.2275],[111.336,-8.227],[111.3355,-8.226],[111.3325,-8.2275],[111.327,-8.228],[111.325,-8.2415],[111.325,-8.2425],[111.3255,-8.245],[111.3265,-8.247],[111.3275,-8.2485],[111.329,-8.248],[111.329,-8.249],[111.3295,-8.253],[111.329,-8.2565],[111.329,-8.2585],[111.3285,-8.26],[111.326,-8.27],[111.342,-8.262],[111.354,-8.269],[111.353,-8.2565],[111.3525,-8.253],[111.357,-8.2365],[111.3515,-8.228],[111.3385,-8.2275]]]},"properties":{"code":"35.01.12.2001","name":"Pagerkidul"}},{"type":"Feature","geometry":{"type":"Polygon","coordinates":[[[111.3665,-8.231],[111.366,-8.2305],[111.3655,-8.2285],[111.364,-8.2285],[111.364,-8.223],[111.3615,-8.2155],[111.362,-8.2105],[111.359,-8.2075],[111.3585,-8.2085],[111.3445,-8.216],[111.3355,-8.219],[111.333,-8.2225],[111.3315,-8.2235],[111.327,-8.228],[111.3325,-8.2275],[111.3355,-8.226],[111.336,-8.227],[111.3385,-8.2275],[111.3515,-8.228],[111.357,-8.2365],[111.3525,-8.253],[111.353,-8.2565],[111.354,-8.269],[111.3635,-8.262],[111.362,-8.241],[111.3645,-8.2395],[111.364,-8.2365],[111.3635,-8.236],[111.3625,-8.2345],[111.364,-8.231],[111.3665,-8.231]]]},"properties":{"code":"35.01.12.2002","name":"Pagerlor"}},{"type":"Feature","geometry":{"type":"Polygon","coordinates":[[[111.391,-8.234],[111.3825,-8.2355],[111.3685,-8.23],[111.3675,-8.231],[111.364,-8.231],[111.3625,-8.2345],[111.3635,-8.236],[111.364,-8.2365],[111.3645,-8.2395],[111.362,-8.241],[111.3635,-8.262],[111.375,-8.2645],[111.3775,-8.263],[111.3785,-8.2615],[111.379,-8.2575],[111.3795,-8.252],[111.382,-8.25],[111.382,-8.2475],[111.3895,-8.2375],[111.391,-8.234]]]},"properties":{"code":"35.01.12.2003","name":"Sukorejo"}},{"type":"Feature","geometry":{"type":"Polygon","coordinates":[[[111.4015,-8.225],[111.402,-8.224],[111.405,-8.209],[111.404,-8.2065],[111.404,-8.2055],[111.4035,-8.204],[111.401,-8.2065],[111.401,-8.2075],[111.3985,-8.2085],[111.3875,-8.2125],[111.3875,-8.215],[111.387,-8.2165],[111.388,-8.2175],[111.3895,-8.219],[111.3935,-8.2205],[111.397,-8.225],[111.3965,-8.2275],[111.398,-8.228],[111.4015,-8.225]]]},"properties":{"code":"35.01.12.2004","name":"Sudimoro"}},{"type":"Feature","geometry":{"type":"Polygon","coordinates":[[[111.3985,-8.1765],[111.396,-8.178],[111.391,-8.178],[111.3825,-8.174],[111.379,-8.1775],[111.3775,-8.1775],[111.377,-8.1765],[111.3765,-8.176],[111.3745,-8.1755],[111.3715,-8.1845],[111.3705,-8.187],[111.369,-8.1885],[111.374,-8.191],[111.375,-8.1925],[111.3875,-8.199],[111.4025,-8.194],[111.397,-8.1875],[111.4,-8.1805],[111.3985,-8.178],[111.399,-8.1775],[111.3985,-8.1765]]]},"properties":{"code":"35.01.12.2005","name":"Ketanggung"}},{"type":"Feature","geometry":{"type":"Polygon","coordinates":[[[111.425,-8.1705],[111.4235,-8.1705],[111.41,-8.171],[111.4065,-8.172],[111.404,-8.1735],[111.4005,-8.176],[111.399,-8.175],[111.3985,-8.1755],[111.3985,-8.1765],[111.399,-8.1775],[111.3985,-8.178],[111.4,-8.1805],[111.397,-8.1875],[111.4025,-8.194],[111.4035,-8.197],[111.421,-8.1915],[111.424,-8.1845],[111.425,-8.184],[111.4255,-8.1835],[111.425,-8.1795],[111.425,-8.1705]]]},"properties":{"code":"35.01.12.2006","name":"Klepu"}},{"type":"Feature","geometry":{"type":"Polygon","coordinates":[[[111.4015,-8.1685],[111.387,-8.16],[111.3835,-8.1605],[111.3825,-8.1615],[111.382,-8.164],[111.3825,-8.165],[111.3835,-8.168],[111.3825,-8.174],[111.391,-8.178],[111.396,-8.178],[111.3985,-8.1765],[111.3985,-8.176],[111.3985,-8.1755],[111.399,-8.175],[111.4005,-8.176],[111.404,-8.1735],[111.404,-8.172],[111.4015,-8.1685]]]},"properties":{"code":"35.01.12.2007","name":"Sembowo"}},{"type":"Feature","geometry":{"type":"Polygon","coordinates":[[[111.4025,-8.194],[111.3875,-8.199],[111.375,-8.1925],[111.374,-8.191],[111.369,-8.1885],[111.366,-8.191],[111.36,-8.201],[111.366,-8.2005],[111.3875,-8.2125],[111.3985,-8.2085],[111.401,-8.2075],[111.401,-8.2065],[111.4035,-8.204],[111.403,-8.203],[111.403,-8.2005],[111.4035,-8.197],[111.4025,-8.194]]]},"properties":{"code":"35.01.12.2008","name":"Karangmulyo"}},{"type":"Feature","geometry":{"type":"Polygon","coordinates":[[[111.3875,-8.2125],[111.366,-8.2005],[111.36,-8.201],[111.359,-8.2075],[111.362,-8.2105],[111.3615,-8.2155],[111.364,-8.223],[111.364,-8.2285],[111.3655,-8.2285],[111.366,-8.2305],[111.3665,-8.231],[111.3675,-8.231],[111.3685,-8.23],[111.3825,-8.2355],[111.391,-8.234],[111.392,-8.233],[111.3935,-8.2315],[111.3935,-8.23],[111.396,-8.2275],[111.3965,-8.2275],[111.397,-8.225],[111.3935,-8.2205],[111.3895,-8.219],[111.388,-8.2175],[111.387,-8.2165],[111.3875,-8.215],[111.3875,-8.2125]]]},"properties":{"code":"35.01.12.2009","name":"Gunungrejo"}},{"type":"Feature","geometry":{"type":"Polygon","coordinates":[[[111.4065,-8.2585],[111.3925,-8.2345],[111.392,-8.233],[111.3895,-8.2375],[111.382,-8.2475],[111.382,-8.25],[111.3795,-8.252],[111.379,-8.2575],[111.3785,-8.2615],[111.3775,-8.263],[111.375,-8.2645],[111.3775,-8.2745],[111.392,-8.276],[111.403,-8.269],[111.403,-8.268],[111.4045,-8.2665],[111.405,-8.266],[111.4055,-8.2635],[111.4065,-8.26],[111.4065,-8.2585]]]},"properties":{"code":"35.01.12.2010","name":"Sumberejo"}}]}