{"type":"FeatureCollection","features":[{"type":"Feature","geometry":{"type":"Polygon","coordinates":[[[113.6985,-7.824],[113.6945,-7.822],[113.6885,-7.8185],[113.6865,-7.817],[113.685,-7.8195],[113.6815,-7.8225],[113.682,-7.8245],[113.679,-7.8265],[113.6475,-7.865],[113.648,-7.8685],[113.648,-7.869],[113.647,-7.8695],[113.625,-7.886],[113.6155,-7.8875],[113.619,-7.8905],[113.6205,-7.8915],[113.6225,-7.894],[113.6235,-7.8955],[113.625,-7.8935],[113.648,-7.8815],[113.6755,-7.853],[113.683,-7.847],[113.6895,-7.833],[113.6945,-7.827],[113.6955,-7.8265],[113.6985,-7.824]]]},"properties":{"code":"35.12.01.2001","name":"Pategalan","latitude":-7.855583349788126,"longitude":113.66213684523692}},{"type":"Feature","geometry":{"type":"Polygon","coordinates":[[[113.711,-7.787],[113.7055,-7.787],[113.705,-7.787],[113.704,-7.7875],[113.6975,-7.799],[113.6955,-7.8005],[113.6935,-7.8045],[113.687,-7.814],[113.6865,-7.815],[113.6865,-7.817],[113.6885,-7.8185],[113.6945,-7.822],[113.6985,-7.824],[113.703,-7.824],[113.705,-7.8245],[113.705,-7.824],[113.7055,-7.8225],[113.709,-7.798],[113.709,-7.7925],[113.711,-7.787]]]},"properties":{"code":"35.12.01.2002","name":"Semambung","latitude":-7.807956951976856,"longitude":113.70046505307037}},{"type":"Feature","geometry":{"type":"Polygon","coordinates":[[[113.705,-7.787],[113.703,-7.776],[113.702,-7.7765],[113.699,-7.7795],[113.698,-7.781],[113.6945,-7.7825],[113.6935,-7.7825],[113.6835,-7.8095],[113.687,-7.814],[113.6935,-7.8045],[113.6955,-7.8005],[113.6975,-7.799],[113.704,-7.7875],[113.705,-7.787]]]},"properties":{"code":"35.12.01.2003","name":"Sumberanyar","latitude":-7.794408672199214,"longitude":113.69425675788852}},{"type":"Feature","geometry":{"type":"Polygon","coordinates":[[[113.6905,-7.765],[113.689,-7.762],[113.6875,-7.763],[113.687,-7.764],[113.6875,-7.7645],[113.6855,-7.7715],[113.684,-7.7715],[113.6795,-7.7685],[113.674,-7.7885],[113.6725,-7.792],[113.672,-7.7965],[113.6715,-7.801],[113.6755,-7.8035],[113.6835,-7.8095],[113.6935,-7.7825],[113.693,-7.782],[113.6905,-7.765]]]},"properties":{"code":"35.12.01.2004","name":"Jatibanteng","latitude":-7.786756082854311,"longitude":113.68305522594534}},{"type":"Feature","geometry":{"type":"Polygon","coordinates":[[[113.6795,-7.7685],[113.678,-7.765],[113.677,-7.7675],[113.676,-7.769],[113.6545,-7.777],[113.6505,-7.7785],[113.6465,-7.7765],[113.6445,-7.7765],[113.642,-7.7785],[113.6375,-7.779],[113.634,-7.782],[113.6255,-7.7935],[113.622,-7.794],[113.6145,-7.795],[113.614,-7.7955],[113.612,-7.7955],[113.6115,-7.796],[113.6095,-7.7965],[113.608,-7.797],[113.597,-7.8035],[113.605,-7.8175],[113.606,-7.819],[113.613,-7.816],[113.6255,-7.8095],[113.63,-7.7995],[113.6425,-7.7905],[113.6455,-7.7875],[113.674,-7.7885],[113.6795,-7.7685]]]},"properties":{"code":"35.12.01.2005","name":"Curahsuri","latitude":-7.792313329387263,"longitude":113.63705261904565}},{"type":"Feature","geometry":{"type":"Polygon","coordinates":[[[113.674,-7.7885],[113.6455,-7.7875],[113.6425,-7.7905],[113.645,-7.7935],[113.6445,-7.796],[113.6415,-7.8005],[113.641,-7.804],[113.667,-7.819],[113.6675,-7.8175],[113.6725,-7.8025],[113.6715,-7.801],[113.672,-7.7965],[113.6725,-7.792],[113.674,-7.7885]]]},"properties":{"code":"35.12.01.2006","name":"Wringinanom","latitude":-7.800589494261913,"longitude":113.65763762776737}},{"type":"Feature","geometry":{"type":"Polygon","coordinates":[[[113.6835,-7.8095],[113.6755,-7.8035],[113.6725,-7.8025],[113.6675,-7.8175],[113.666,-7.822],[113.658,-7.8355],[113.639,-7.851],[113.625,-7.8695],[113.6155,-7.87],[113.6165,-7.871],[113.6175,-7.873],[113.618,-7.8755],[113.6175,-7.877],[113.6175,-7.881],[113.6155,-7.883],[113.6155,-7.8875],[113.625,-7.886],[113.647,-7.8695],[113.648,-7.869],[113.648,-7.8685],[113.6475,-7.865],[113.679,-7.8265],[113.682,-7.8245],[113.6815,-7.8225],[113.685,-7.8195],[113.6865,-7.815],[113.687,-7.814],[113.6835,-7.8095]]]},"properties":{"code":"35.12.01.2007","name":"Kembangsari","latitude":-7.847285976513565,"longitude":113.65212047698861}},{"type":"Feature","geometry":{"type":"Polygon","coordinates":[[[113.667,-7.819],[113.641,-7.804],[113.6415,-7.8005],[113.6445,-7.796],[113.645,-7.7935],[113.6425,-7.7905],[113.63,-7.7995],[113.6255,-7.8095],[113.613,-7.816],[113.606,-7.819],[113.6055,-7.82],[113.609,-7.823],[113.6115,-7.8255],[113.61,-7.831],[113.609,-7.8325],[113.606,-7.8365],[113.606,-7.838],[113.6045,-7.841],[113.603,-7.843],[113.604,-7.846],[113.604,-7.8475],[113.608,-7.8525],[113.6085,-7.854],[113.6085,-7.859],[113.6105,-7.8625],[113.6125,-7.8665],[113.6155,-7.8695],[113.6155,-7.87],[113.625,-7.8695],[113.639,-7.851],[113.658,-7.8355],[113.666,-7.822],[113.667,-7.819]]]},"properties":{"code":"35.12.01.2008","name":"Patemon","latitude":-7.8322678653861315,"longitude":113.63166394645188}},{"type":"Feature","geometry":{"type":"Polygon","coordinates":[[[113.7175,-7.7705],[113.717,-7.77],[113.716,-7.7705],[113.7135,-7.7695],[113.711,-7.77],[113.7055,-7.769],[113.703,-7.7695],[113.701,-7.7765],[113.701,-7.7775],[113.702,-7.7765],[113.703,-7.776],[113.705,-7.787],[113.7055,-7.787],[113.711,-7.787],[113.712,-7.784],[113.7175,-7.771],[113.7175,-7.7705]]]},"properties":{"code":"35.12.02.2001","name":"Widoropayung","latitude":-7.77737684453874,"longitude":113.70930301723529}},{"type":"Feature","geometry":{"type":"Polygon","coordinates":[[[113.727,-7.7755],[113.722,-7.7715],[113.7205,-7.77],[113.719,-7.7685],[113.719,-7.769],[113.718,-7.77],[113.7175,-7.771],[113.712,-7.784],[113.711,-7.787],[113.712,-7.787],[113.712,-7.7875],[113.713,-7.788],[113.721,-7.79],[113.7215,-7.79],[113.7215,-7.789],[113.7265,-7.79],[113.7305,-7.79],[113.731,-7.7895],[113.7305,-7.788],[113.727,-7.7755]]]},"properties":{"code":"35.12.02.2002","name":"Sumberejo","latitude":-7.781642808689342,"longitude":113.72182925870436}},{"type":"Feature","geometry":{"type":"Polygon","coordinates":[[[113.7105,-7.745],[113.704,-7.743],[113.7035,-7.744],[113.7,-7.754],[113.7025,-7.769],[113.7055,-7.769],[113.711,-7.77],[113.7135,-7.7695],[113.716,-7.7705],[113.717,-7.77],[113.7175,-7.7705],[113.718,-7.77],[113.719,-7.769],[113.7185,-7.7675],[113.718,-7.7615],[113.717,-7.7605],[113.717,-7.7575],[113.7165,-7.7565],[113.716,-7.7535],[113.714,-7.748],[113.7115,-7.7475],[113.7105,-7.747],[113.7105,-7.745]]]},"properties":{"code":"35.12.02.2003","name":"Jetis","latitude":-7.7577938167470695,"longitude":113.70930333164871}},{"type":"Feature","geometry":{"type":"Polygon","coordinates":[[[113.7035,-7.744],[113.697,-7.7455],[113.694,-7.745],[113.6915,-7.753],[113.691,-7.754],[113.691,-7.7555],[113.6905,-7.758],[113.691,-7.7605],[113.691,-7.7625],[113.691,-7.764],[113.6905,-7.765],[113.693,-7.782],[113.6945,-7.7825],[113.698,-7.781],[113.699,-7.7795],[113.701,-7.7775],[113.701,-7.7765],[113.703,-7.7695],[113.7025,-7.769],[113.7,-7.754],[113.7035,-7.744]]]},"properties":{"code":"35.12.02.2004","name":"Blimbing","latitude":-7.762034897254616,"longitude":113.69696286818164}},{"type":"Feature","geometry":{"type":"Polygon","coordinates":[[[113.694,-7.745],[113.6925,-7.7415],[113.685,-7.743],[113.6855,-7.7435],[113.685,-7.7445],[113.6875,-7.7455],[113.6885,-7.7465],[113.6865,-7.7635],[113.687,-7.764],[113.6875,-7.763],[113.689,-7.762],[113.6905,-7.765],[113.691,-7.764],[113.691,-7.7625],[113.691,-7.7605],[113.6905,-7.758],[113.691,-7.7555],[113.691,-7.754],[113.6915,-7.753],[113.694,-7.745]]]},"properties":{"code":"35.12.02.2005","name":"Langkap","latitude":-7.75062180744046,"longitude":113.6902657107679}},{"type":"Feature","geometry":{"type":"MultiPolygon","coordinates":[[[[113.676,-7.768],[113.6755,-7.7675],[113.6755,-7.768],[113.676,-7.768]]],[[[113.6855,-7.7435],[113.684,-7.7425],[113.685,-7.7405],[113.6835,-7.737],[113.684,-7.738],[113.6795,-7.753],[113.6805,-7.7535],[113.6795,-7.757],[113.678,-7.765],[113.6795,-7.7685],[113.684,-7.7715],[113.6855,-7.7715],[113.6875,-7.7645],[113.6865,-7.7635],[113.6885,-7.7465],[113.6875,-7.7455],[113.685,-7.7445],[113.6855,-7.7435]]]]},"properties":{"code":"35.12.02.2006","name":"Bloro","latitude":-7.755368127358797,"longitude":113.68376835115335}},{"type":"Feature","geometry":{"type":"Polygon","coordinates":[[[113.697,-7.723],[113.697,-7.722],[113.696,-7.72],[113.6755,-7.7295],[113.6805,-7.7315],[113.688,-7.7305],[113.6885,-7.7305],[113.697,-7.723]]]},"properties":{"code":"35.12.02.2007","name":"Pesisir","latitude":-7.727321363457643,"longitude":113.68697272153675}},{"type":"Feature","geometry":{"type":"Polygon","coordinates":[[[113.7025,-7.739],[113.692,-7.739],[113.6925,-7.7415],[113.694,-7.745],[113.697,-7.7455],[113.7035,-7.744],[113.704,-7.7435],[113.7035,-7.743],[113.703,-7.742],[113.7025,-7.739]]]},"properties":{"code":"35.12.02.2008","name":"Kalimas","latitude":-7.740833089553104,"longitude":113.69731445552694}},{"type":"Feature","geometry":{"type":"Polygon","coordinates":[[[113.7025,-7.739],[113.7025,-7.738],[113.7025,-7.7375],[113.7035,-7.736],[113.6965,-7.724],[113.697,-7.723],[113.6885,-7.7305],[113.688,-7.7305],[113.6805,-7.7315],[113.6825,-7.7325],[113.6835,-7.7365],[113.6835,-7.737],[113.685,-7.7405],[113.684,-7.7425],[113.685,-7.743],[113.6925,-7.7415],[113.692,-7.739],[113.7025,-7.739]]]},"properties":{"code":"35.12.02.2009","name":"Besuki","latitude":-7.733104712619203,"longitude":113.69354302815782}},{"type":"Feature","geometry":{"type":"Polygon","coordinates":[[[113.7105,-7.745],[113.7125,-7.7415],[113.7125,-7.7405],[113.713,-7.7375],[113.71,-7.7185],[113.7125,-7.709],[113.696,-7.72],[113.697,-7.722],[113.6965,-7.724],[113.7035,-7.736],[113.7025,-7.7375],[113.7025,-7.738],[113.703,-7.742],[113.7035,-7.743],[113.704,-7.7435],[113.704,-7.743],[113.7105,-7.745]]]},"properties":{"code":"35.12.02.2010","name":"Demung","latitude":-7.726785834890055,"longitude":113.70689820894215}},{"type":"Feature","geometry":{"type":"Polygon","coordinates":[[[113.727,-7.79],[113.7265,-7.79],[113.7215,-7.789],[113.723,-7.79],[113.7155,-7.8165],[113.7155,-7.8185],[113.7155,-7.819],[113.718,-7.819],[113.723,-7.8195],[113.7265,-7.82],[113.7305,-7.819],[113.7275,-7.8145],[113.73,-7.8025],[113.7285,-7.794],[113.728,-7.7915],[113.727,-7.79]]]},"properties":{"code":"35.12.03.2001","name":"Cemara","latitude":-7.806951748368807,"longitude":113.72364421563918}},{"type":"Feature","geometry":{"type":"Polygon","coordinates":[[[113.7335,-7.8095],[113.738,-7.8],[113.7325,-7.7915],[113.731,-7.7895],[113.7305,-7.79],[113.727,-7.79],[113.728,-7.7915],[113.7285,-7.794],[113.73,-7.8025],[113.7275,-7.8145],[113.7305,-7.819],[113.7315,-7.819],[113.7335,-7.813],[113.7335,-7.811],[113.7335,-7.8095]]]},"properties":{"code":"35.12.03.2002","name":"Mojodungkol","latitude":-7.803556166689501,"longitude":113.73177121596788}},{"type":"Feature","geometry":{"type":"Polygon","coordinates":[[[113.739,-7.761],[113.7285,-7.76],[113.7275,-7.76],[113.7275,-7.7635],[113.728,-7.7645],[113.727,-7.7755],[113.7305,-7.788],[113.7325,-7.7915],[113.738,-7.8],[113.7335,-7.8095],[113.736,-7.8085],[113.737,-7.8065],[113.7375,-7.806],[113.74,-7.801],[113.7395,-7.797],[113.7385,-7.7945],[113.7385,-7.791],[113.739,-7.7895],[113.7395,-7.789],[113.735,-7.7715],[113.733,-7.7705],[113.7345,-7.7685],[113.739,-7.761]]]},"properties":{"code":"35.12.03.2003","name":"Gunung Malang","latitude":-7.780943738011089,"longitude":113.73365455798653}},{"type":"Feature","geometry":{"type":"Polygon","coordinates":[[[113.742,-7.754],[113.7385,-7.7535],[113.7385,-7.758],[113.739,-7.761],[113.7345,-7.7685],[113.733,-7.7705],[113.735,-7.7715],[113.7395,-7.789],[113.7405,-7.789],[113.743,-7.789],[113.744,-7.7905],[113.7455,-7.7945],[113.746,-7.7955],[113.761,-7.7925],[113.7575,-7.7855],[113.756,-7.784],[113.7515,-7.7805],[113.7425,-7.7555],[113.742,-7.754]]]},"properties":{"code":"35.12.03.2004","name":"Gunung Putri","latitude":-7.778997182700904,"longitude":113.74552350353409}},{"type":"Feature","geometry":{"type":"Polygon","coordinates":[[[113.7435,-7.733],[113.7355,-7.727],[113.7335,-7.7295],[113.7335,-7.7305],[113.728,-7.742],[113.7295,-7.7525],[113.728,-7.7525],[113.7285,-7.755],[113.725,-7.7545],[113.723,-7.756],[113.7245,-7.759],[113.7255,-7.76],[113.7285,-7.76],[113.739,-7.761],[113.7385,-7.758],[113.7385,-7.7535],[113.742,-7.754],[113.7415,-7.752],[113.7435,-7.733]]]},"properties":{"code":"35.12.03.2005","name":"Suboh","latitude":-7.74530954619539,"longitude":113.73531271495847}},{"type":"Feature","geometry":{"type":"Polygon","coordinates":[[[113.728,-7.7525],[113.727,-7.7525],[113.72,-7.744],[113.7195,-7.7455],[113.716,-7.754],[113.7165,-7.7565],[113.717,-7.7575],[113.717,-7.7605],[113.718,-7.7615],[113.7185,-7.7675],[113.719,-7.7685],[113.7205,-7.77],[113.722,-7.7715],[113.727,-7.7755],[113.728,-7.7645],[113.7275,-7.7635],[113.7275,-7.76],[113.7255,-7.76],[113.7245,-7.759],[113.723,-7.756],[113.725,-7.7545],[113.7285,-7.755],[113.728,-7.7525]]]},"properties":{"code":"35.12.03.2006","name":"Dawuan","latitude":-7.759422201720158,"longitude":113.72274329620687}},{"type":"Feature","geometry":{"type":"Polygon","coordinates":[[[113.7355,-7.727],[113.726,-7.7225],[113.7225,-7.733],[113.7225,-7.734],[113.72,-7.7415],[113.72,-7.744],[113.727,-7.7525],[113.7295,-7.7525],[113.728,-7.742],[113.7335,-7.7305],[113.7335,-7.7295],[113.7355,-7.727]]]},"properties":{"code":"35.12.03.2007","name":"Buduan","latitude":-7.7359376210857995,"longitude":113.72695260049025}},{"type":"Feature","geometry":{"type":"Polygon","coordinates":[[[113.726,-7.7225],[113.7125,-7.709],[113.71,-7.7185],[113.713,-7.7375],[113.7125,-7.7405],[113.7125,-7.7415],[113.7105,-7.747],[113.7115,-7.7475],[113.714,-7.748],[113.716,-7.7535],[113.716,-7.754],[113.7195,-7.7455],[113.72,-7.7415],[113.7225,-7.734],[113.7225,-7.733],[113.726,-7.7225]]]},"properties":{"code":"35.12.03.2008","name":"Ketah","latitude":-7.729650255718661,"longitude":113.71716218617273}},{"type":"Feature","geometry":{"type":"Polygon","coordinates":[[[113.8215,-7.7945],[113.816,-7.793],[113.8095,-7.789],[113.808,-7.786],[113.795,-7.7815],[113.7865,-7.7895],[113.7855,-7.8],[113.7865,-7.802],[113.7875,-7.803],[113.793,-7.8025],[113.8,-7.808],[113.8005,-7.809],[113.801,-7.8125],[113.802,-7.8165],[113.808,-7.8135],[113.823,-7.811],[113.825,-7.8045],[113.822,-7.7975],[113.8215,-7.796],[113.8215,-7.7945]]]},"properties":{"code":"35.12.04.2001","name":"Alas Bayur","latitude":-7.799061602978232,"longitude":113.80525334194704}},{"type":"Feature","geometry":{"type":"Polygon","coordinates":[[[113.797,-7.772],[113.796,-7.772],[113.794,-7.7715],[113.7925,-7.7715],[113.7845,-7.7675],[113.7825,-7.7675],[113.7815,-7.7675],[113.781,-7.767],[113.7805,-7.767],[113.78,-7.7695],[113.7865,-7.7895],[113.795,-7.7815],[113.808,-7.786],[113.8095,-7.789],[113.816,-7.793],[113.8215,-7.7945],[113.8215,-7.791],[113.811,-7.772],[113.797,-7.772]]]},"properties":{"code":"35.12.04.2002","name":"Sumberanyar","latitude":-7.779744962017654,"longitude":113.79991690521751}},{"type":"Feature","geometry":{"type":"Polygon","coordinates":[[[113.825,-7.772],[113.811,-7.772],[113.8215,-7.791],[113.8215,-7.7935],[113.8215,-7.796],[113.822,-7.7975],[113.825,-7.8045],[113.825,-7.811],[113.828,-7.813],[113.8315,-7.8135],[113.8345,-7.813],[113.841,-7.808],[113.848,-7.798],[113.8495,-7.7955],[113.853,-7.78],[113.8485,-7.7815],[113.846,-7.7815],[113.8295,-7.7765],[113.8265,-7.7755],[113.825,-7.772]]]},"properties":{"code":"35.12.04.2003","name":"Campoan","latitude":-7.791256776084714,"longitude":113.83313139676076}},{"type":"Feature","geometry":{"type":"Polygon","coordinates":[[[113.7815,-7.757],[113.7775,-7.7575],[113.777,-7.7595],[113.778,-7.762],[113.7805,-7.767],[113.781,-7.767],[113.7815,-7.7675],[113.7825,-7.7675],[113.7845,-7.7675],[113.7925,-7.7715],[113.794,-7.7715],[113.796,-7.772],[113.797,-7.7715],[113.7905,-7.758],[113.7905,-7.7575],[113.7895,-7.7575],[113.7825,-7.7575],[113.7815,-7.757]]]},"properties":{"code":"35.12.04.2004","name":"Trebungan","latitude":-7.763648531909098,"longitude":113.78791573205416}},{"type":"Feature","geometry":{"type":"Polygon","coordinates":[[[113.767,-7.7555],[113.763,-7.768],[113.7605,-7.7745],[113.756,-7.784],[113.7575,-7.7855],[113.761,-7.7925],[113.763,-7.7935],[113.783,-7.799],[113.784,-7.799],[113.7845,-7.7995],[113.7855,-7.8],[113.7865,-7.7895],[113.78,-7.7695],[113.7805,-7.767],[113.778,-7.762],[113.777,-7.7595],[113.7775,-7.7585],[113.777,-7.7575],[113.7765,-7.7575],[113.7765,-7.7565],[113.767,-7.7555]]]},"properties":{"code":"35.12.04.2005","name":"Sumber Pinang","latitude":-7.779480621188644,"longitude":113.77222993849867}},{"type":"Feature","geometry":{"type":"Polygon","coordinates":[[[113.764,-7.739],[113.7435,-7.733],[113.7415,-7.752],[113.7425,-7.7555],[113.7515,-7.7805],[113.756,-7.784],[113.7605,-7.7745],[113.763,-7.768],[113.767,-7.7555],[113.7675,-7.7535],[113.764,-7.739]]]},"properties":{"code":"35.12.04.2006","name":"Selomukti","latitude":-7.755745649728998,"longitude":113.754205918149}},{"type":"Feature","geometry":{"type":"Polygon","coordinates":[[[113.7765,-7.7325],[113.764,-7.739],[113.7675,-7.7535],[113.767,-7.7555],[113.7765,-7.7565],[113.7765,-7.7575],[113.777,-7.7575],[113.7775,-7.7585],[113.7775,-7.7575],[113.7815,-7.757],[113.7815,-7.756],[113.775,-7.74],[113.7765,-7.7325]]]},"properties":{"code":"35.12.04.2007","name":"Mlandingan Kulon","latitude":-7.745792951857273,"longitude":113.77224036958594}},{"type":"Feature","geometry":{"type":"Polygon","coordinates":[[[113.981,-7.7395],[113.9475,-7.7255],[113.946,-7.725],[113.9455,-7.734],[113.9425,-7.745],[113.942,-7.7475],[113.942,-7.75],[113.9425,-7.751],[113.9535,-7.7575],[113.9545,-7.7595],[113.966,-7.7595],[113.968,-7.76],[113.974,-7.7585],[113.9755,-7.758],[113.9775,-7.757],[113.978,-7.7565],[113.9785,-7.7565],[113.9785,-7.755],[113.979,-7.7525],[113.981,-7.7405],[113.981,-7.7395]]]},"properties":{"code":"35.12.05.2001","name":"Bugeman","latitude":-7.744888623241959,"longitude":113.96059966579902}},{"type":"Feature","geometry":{"type":"Polygon","coordinates":[[[113.9375,-7.718],[113.9305,-7.724],[113.927,-7.7315],[113.925,-7.731],[113.925,-7.733],[113.925,-7.734],[113.9245,-7.7365],[113.925,-7.737],[113.9235,-7.7425],[113.921,-7.7515],[113.942,-7.7475],[113.9425,-7.745],[113.9455,-7.734],[113.946,-7.725],[113.946,-7.724],[113.945,-7.723],[113.9375,-7.718]]]},"properties":{"code":"35.12.05.2002","name":"Kendit","latitude":-7.734419396968919,"longitude":113.93485196505539}},{"type":"Feature","geometry":{"type":"Polygon","coordinates":[[[113.925,-7.731],[113.9235,-7.731],[113.9135,-7.7325],[113.899,-7.731],[113.8925,-7.7485],[113.879,-7.7635],[113.88,-7.7635],[113.882,-7.7645],[113.8885,-7.7655],[113.89,-7.766],[113.899,-7.763],[113.9025,-7.7635],[113.912,-7.765],[113.913,-7.7645],[113.92,-7.7525],[113.9235,-7.7425],[113.925,-7.737],[113.9245,-7.7365],[113.925,-7.734],[113.925,-7.733],[113.925,-7.731]]]},"properties":{"code":"35.12.05.2003","name":"Balung","latitude":-7.74848778755229,"longitude":113.90601126918449}},{"type":"Feature","geometry":{"type":"Polygon","coordinates":[[[113.942,-7.7475],[113.921,-7.7515],[113.92,-7.7525],[113.913,-7.7645],[113.912,-7.765],[113.9025,-7.7635],[113.899,-7.763],[113.89,-7.766],[113.8885,-7.7655],[113.882,-7.7645],[113.88,-7.7635],[113.879,-7.7635],[113.8785,-7.764],[113.8785,-7.7695],[113.888,-7.7745],[113.904,-7.793],[113.904,-7.795],[113.9035,-7.803],[113.904,-7.8035],[113.9045,-7.802],[113.9055,-7.8005],[113.906,-7.8],[113.905,-7.799],[113.918,-7.789],[113.9325,-7.793],[113.935,-7.7925],[113.936,-7.792],[113.937,-7.7915],[113.9365,-7.789],[113.938,-7.786],[113.941,-7.7755],[113.949,-7.767],[113.9535,-7.7575],[113.9425,-7.751],[113.942,-7.75],[113.942,-7.7475]]]},"properties":{"code":"35.12.05.2004","name":"Tambak Ukir","latitude":-7.771541347425162,"longitude":113.91961364401521}},{"type":"Feature","geometry":{"type":"Polygon","coordinates":[[[113.879,-7.7635],[113.863,-7.762],[113.8565,-7.779],[113.853,-7.78],[113.8495,-7.7955],[113.8515,-7.795],[113.8645,-7.7935],[113.899,-7.8],[113.899,-7.8015],[113.9025,-7.8025],[113.9035,-7.803],[113.904,-7.795],[113.904,-7.793],[113.888,-7.7745],[113.8785,-7.7695],[113.8785,-7.764],[113.879,-7.7635]]]},"properties":{"code":"35.12.05.2005","name":"Rajekwesi","latitude":-7.783513448234865,"longitude":113.87617367630693}},{"type":"Feature","geometry":{"type":"Polygon","coordinates":[[[113.899,-7.731],[113.899,-7.7225],[113.8755,-7.7055],[113.8755,-7.702],[113.8715,-7.7],[113.87,-7.6995],[113.866,-7.704],[113.863,-7.7045],[113.8605,-7.7185],[113.8495,-7.723],[113.849,-7.7235],[113.864,-7.75],[113.863,-7.762],[113.879,-7.7635],[113.8925,-7.7485],[113.899,-7.731]]]},"properties":{"code":"35.12.05.2006","name":"Kukusan","latitude":-7.732634040126191,"longitude":113.8760427581849}},{"type":"Feature","geometry":{"type":"Polygon","coordinates":[[[113.9265,-7.701],[113.913,-7.6965],[113.8965,-7.697],[113.886,-7.688],[113.8675,-7.6845],[113.863,-7.7045],[113.866,-7.704],[113.87,-7.6995],[113.8715,-7.7],[113.8755,-7.702],[113.8755,-7.7055],[113.899,-7.7225],[113.899,-7.731],[113.9135,-7.7325],[113.9235,-7.731],[113.925,-7.731],[113.927,-7.7315],[113.9305,-7.724],[113.9305,-7.71],[113.9265,-7.701]]]},"properties":{"code":"35.12.05.2007","name":"Klatakan","latitude":-7.7090164657183875,"longitude":113.90170146127191}},{"type":"Feature","geometry":{"type":"Polygon","coordinates":[[[113.966,-7.707],[113.964,-7.706],[113.958,-7.705],[113.952,-7.704],[113.949,-7.6995],[113.9395,-7.7185],[113.9375,-7.718],[113.945,-7.723],[113.946,-7.724],[113.9475,-7.7255],[113.981,-7.7395],[113.982,-7.738],[113.9825,-7.738],[113.983,-7.737],[113.984,-7.7365],[113.9745,-7.7205],[113.976,-7.713],[113.966,-7.707]]]},"properties":{"code":"35.12.06.2001","name":"Paowan","latitude":-7.719576966473013,"longitude":113.96108803385363}},{"type":"Feature","geometry":{"type":"Polygon","coordinates":[[[113.9805,-7.708],[113.98,-7.708],[113.9785,-7.7085],[113.978,-7.709],[113.972,-7.7095],[113.97,-7.7085],[113.966,-7.707],[113.976,-7.713],[113.9745,-7.7205],[113.984,-7.7365],[113.983,-7.737],[113.9825,-7.738],[113.982,-7.738],[113.981,-7.7405],[113.979,-7.7525],[113.9785,-7.755],[113.9785,-7.7565],[113.978,-7.7565],[113.9785,-7.758],[113.979,-7.7585],[113.984,-7.7585],[113.989,-7.755],[113.9915,-7.7545],[113.9995,-7.745],[114.001,-7.743],[114.0025,-7.738],[114.002,-7.735],[114.0095,-7.7125],[114.0085,-7.712],[114.008,-7.7105],[114.0065,-7.7105],[114.0045,-7.7105],[113.984,-7.709],[113.9805,-7.708]]]},"properties":{"code":"35.12.06.2002","name":"Sumberkolak","latitude":-7.729549915362155,"longitude":113.99040628206441}},{"type":"Feature","geometry":{"type":"Polygon","coordinates":[[[113.9785,-7.6945],[113.9445,-7.69],[113.947,-7.696],[113.952,-7.704],[113.958,-7.705],[113.964,-7.706],[113.97,-7.7085],[113.972,-7.7095],[113.978,-7.709],[113.9785,-7.7085],[113.98,-7.708],[113.9805,-7.708],[113.9785,-7.6945]]]},"properties":{"code":"35.12.06.2003","name":"Wringinanom","latitude":-7.69777732642841,"longitude":113.96464038123528}},{"type":"Feature","geometry":{"type":"Polygon","coordinates":[[[113.9445,-7.69],[113.9385,-7.6795],[113.934,-7.698],[113.9265,-7.701],[113.9305,-7.71],[113.9395,-7.7185],[113.949,-7.6995],[113.947,-7.696],[113.9445,-7.69]]]},"properties":{"code":"35.12.06.2004","name":"Kilensari","latitude":-7.701257539683015,"longitude":113.93811868998654}},{"type":"Feature","geometry":{"type":"Polygon","coordinates":[[[113.989,-7.6925],[113.989,-7.6915],[113.9885,-7.6915],[113.9885,-7.691],[113.986,-7.69],[113.982,-7.6795],[113.9835,-7.6725],[113.976,-7.6705],[113.9695,-7.669],[113.9665,-7.6635],[113.9515,-7.6805],[113.9385,-7.6795],[113.9445,-7.69],[113.9785,-7.6945],[113.989,-7.6925]]]},"properties":{"code":"35.12.06.2005","name":"Peleyan","latitude":-7.681089304867955,"longitude":113.96547765727566}},{"type":"Feature","geometry":{"type":"Polygon","coordinates":[[[113.995,-7.672],[113.9925,-7.6715],[113.99,-7.676],[113.9895,-7.675],[113.984,-7.671],[113.982,-7.6795],[113.986,-7.69],[113.9885,-7.691],[113.9885,-7.6915],[113.991,-7.6915],[113.998,-7.693],[113.9985,-7.6935],[113.9985,-7.692],[113.989,-7.6835],[113.9885,-7.6825],[113.995,-7.672]]]},"properties":{"code":"35.12.06.2006","name":"Alasmalang","latitude":-7.681746511592736,"longitude":113.98975304483197}},{"type":"Feature","geometry":{"type":"Polygon","coordinates":[[[114.0065,-7.656],[113.994,-7.654],[113.9835,-7.6495],[113.9735,-7.6505],[113.9665,-7.6635],[113.9695,-7.669],[113.976,-7.6705],[113.9835,-7.6725],[113.984,-7.671],[113.9895,-7.675],[113.99,-7.676],[113.9925,-7.6715],[113.9955,-7.6725],[113.996,-7.67],[113.995,-7.6715],[113.995,-7.6705],[114.0055,-7.663],[114.005,-7.6625],[114.0055,-7.6625],[114.006,-7.6575],[114.0065,-7.656]]]},"properties":{"code":"35.12.06.2007","name":"Duwet","latitude":-7.660770352937323,"longitude":113.98468340779264}},{"type":"Feature","geometry":{"type":"Polygon","coordinates":[[[114.0115,-7.639],[114.0085,-7.6385],[114.01,-7.6285],[113.9965,-7.6365],[113.9835,-7.6495],[113.994,-7.654],[114.007,-7.656],[114.0115,-7.639]]]},"properties":{"code":"35.12.06.2008","name":"Gelung","latitude":-7.645031094713211,"longitude":113.99971297928052}},{"type":"Feature","geometry":{"type":"Polygon","coordinates":[[[113.989,-7.6925],[113.9785,-7.6945],[113.9805,-7.708],[113.984,-7.709],[114.0045,-7.7105],[114.004,-7.71],[113.999,-7.7025],[113.999,-7.7],[114.0045,-7.6965],[114.005,-7.695],[114.0015,-7.693],[114,-7.6925],[113.9995,-7.693],[113.9985,-7.693],[113.9985,-7.6935],[113.998,-7.693],[113.991,-7.6915],[113.989,-7.6915],[113.989,-7.6925]]]},"properties":{"code":"35.12.07.1002","name":"Patokan","latitude":-7.70187648361737,"longitude":113.99078462232997}},{"type":"Feature","geometry":{"type":"Polygon","coordinates":[[[114.0135,-7.697],[114.0125,-7.6965],[114.0055,-7.6945],[114.0045,-7.6965],[113.999,-7.7],[113.999,-7.7025],[114.004,-7.71],[114.0065,-7.7105],[114.008,-7.7105],[114.0085,-7.7115],[114.009,-7.711],[114.01,-7.7055],[114.011,-7.7005],[114.0115,-7.6995],[114.013,-7.6975],[114.0135,-7.697]]]},"properties":{"code":"35.12.07.1003","name":"Dawuhan","latitude":-7.7019876948781505,"longitude":114.00594490657753}},{"type":"Feature","geometry":{"type":"Polygon","coordinates":[[[114.006,-7.757],[113.9885,-7.7655],[113.985,-7.762],[113.9795,-7.763],[113.9695,-7.7615],[113.966,-7.7595],[113.9545,-7.7595],[113.951,-7.765],[113.97,-7.769],[113.9835,-7.7725],[113.9905,-7.7755],[113.9925,-7.777],[113.9925,-7.778],[113.997,-7.775],[113.9985,-7.7735],[114.001,-7.77],[114.005,-7.7625],[114.0055,-7.7595],[114.006,-7.757]]]},"properties":{"code":"35.12.07.2001","name":"Kalibagor","latitude":-7.766609975970413,"longitude":113.98023554319096}},{"type":"Feature","geometry":{"type":"Polygon","coordinates":[[[114.017,-7.7345],[114.0135,-7.7135],[114.0095,-7.7125],[114.002,-7.735],[114.0025,-7.738],[114.001,-7.743],[113.9995,-7.745],[113.9915,-7.7545],[113.989,-7.755],[113.984,-7.7585],[113.979,-7.7585],[113.9785,-7.758],[113.978,-7.7565],[113.9775,-7.757],[113.9755,-7.758],[113.974,-7.7585],[113.968,-7.76],[113.9695,-7.7615],[113.9795,-7.763],[113.985,-7.762],[113.9885,-7.7655],[114.006,-7.757],[114.0065,-7.757],[114.008,-7.747],[114.017,-7.7345]]]},"properties":{"code":"35.12.07.2004","name":"Kotakan","latitude":-7.743295483250063,"longitude":114.00146786366989}},{"type":"Feature","geometry":{"type":"Polygon","coordinates":[[[114.013,-7.687],[114.012,-7.676],[114.0025,-7.673],[113.996,-7.6715],[113.9955,-7.6725],[113.995,-7.672],[113.9885,-7.6825],[113.989,-7.6835],[113.9985,-7.692],[113.9985,-7.693],[113.9995,-7.693],[114,-7.6925],[114.0015,-7.693],[114.005,-7.695],[114.0055,-7.6945],[114.0125,-7.6965],[114.0135,-7.697],[114.014,-7.697],[114.0125,-7.6875],[114.013,-7.687]]]},"properties":{"code":"35.12.07.2005","name":"Talkandang","latitude":-7.68393982968772,"longitude":114.0031808637551}},{"type":"Feature","geometry":{"type":"Polygon","coordinates":[[[114.02,-7.668],[114.0165,-7.6645],[114.016,-7.6665],[114.012,-7.666],[114.006,-7.6615],[114.0055,-7.6625],[114.005,-7.6625],[114.0055,-7.663],[113.995,-7.6705],[113.995,-7.6715],[113.996,-7.67],[113.996,-7.6715],[114.0025,-7.673],[114.012,-7.676],[114.013,-7.687],[114.018,-7.6745],[114.02,-7.668]]]},"properties":{"code":"35.12.07.2006","name":"Olean","latitude":-7.671244745865029,"longitude":114.00883532730002}},{"type":"Feature","geometry":{"type":"Polygon","coordinates":[[[114.0285,-7.7255],[114.0265,-7.7235],[114.026,-7.7225],[114.0095,-7.709],[114.009,-7.711],[114.0085,-7.7115],[114.0085,-7.712],[114.0135,-7.7135],[114.017,-7.7345],[114.024,-7.735],[114.025,-7.738],[114.027,-7.739],[114.0275,-7.739],[114.0275,-7.737],[114.028,-7.736],[114.028,-7.7305],[114.0285,-7.7255]]]},"properties":{"code":"35.12.08.1002","name":"Ardirejo","latitude":-7.725699247717857,"longitude":114.02071265046598}},{"type":"Feature","geometry":{"type":"Polygon","coordinates":[[[114.0395,-7.703],[114.0395,-7.695],[114.0325,-7.697],[114.0325,-7.6965],[114.0305,-7.697],[114.0285,-7.697],[114.0185,-7.697],[114.011,-7.7005],[114.01,-7.7055],[114.0095,-7.709],[114.026,-7.7225],[114.0265,-7.7235],[114.0285,-7.7255],[114.0305,-7.725],[114.0395,-7.703]]]},"properties":{"code":"35.12.08.1007","name":"Mimbaan","latitude":-7.707767908072374,"longitude":114.02600575876838}},{"type":"Feature","geometry":{"type":"Polygon","coordinates":[[[114.0275,-7.739],[114.027,-7.739],[114.025,-7.738],[114.024,-7.735],[114.017,-7.7345],[114.008,-7.747],[114.0065,-7.757],[114.007,-7.7565],[114.012,-7.7595],[114.013,-7.76],[114.0135,-7.76],[114.015,-7.761],[114.0195,-7.76],[114.024,-7.76],[114.0255,-7.76],[114.03,-7.76],[114.0305,-7.7585],[114.031,-7.7565],[114.0315,-7.7535],[114.0275,-7.74],[114.0275,-7.739]]]},"properties":{"code":"35.12.08.2001","name":"Sliwung","latitude":-7.749019705327202,"longitude":114.02008517921536}},{"type":"Feature","geometry":{"type":"Polygon","coordinates":[[[114.0385,-7.7315],[114.037,-7.732],[114.029,-7.733],[114.028,-7.736],[114.0275,-7.737],[114.0275,-7.74],[114.0315,-7.7535],[114.031,-7.7565],[114.0305,-7.7585],[114.0305,-7.758],[114.0355,-7.76],[114.038,-7.7595],[114.0405,-7.7595],[114.0445,-7.7585],[114.0445,-7.7475],[114.0425,-7.745],[114.038,-7.734],[114.0385,-7.7315]]]},"properties":{"code":"35.12.08.2003","name":"Battal","latitude":-7.746618517740756,"longitude":114.03660033967982}},{"type":"Feature","geometry":{"type":"Polygon","coordinates":[[[114.054,-7.7355],[114.055,-7.7305],[114.05,-7.732],[114.05,-7.7315],[114.0485,-7.7315],[114.046,-7.731],[114.043,-7.731],[114.0415,-7.731],[114.039,-7.7315],[114.0385,-7.7315],[114.038,-7.734],[114.0425,-7.745],[114.0445,-7.7475],[114.0445,-7.7585],[114.0515,-7.7605],[114.056,-7.759],[114.054,-7.7355]]]},"properties":{"code":"35.12.08.2004","name":"Klampokan","latitude":-7.74376615546083,"longitude":114.04790801428372}},{"type":"Feature","geometry":{"type":"Polygon","coordinates":[[[114.0645,-7.705],[114.0615,-7.7025],[114.059,-7.702],[114.059,-7.7025],[114.056,-7.702],[114.056,-7.703],[114.0555,-7.705],[114.0555,-7.708],[114.051,-7.729],[114.0495,-7.731],[114.05,-7.732],[114.055,-7.7305],[114.0575,-7.726],[114.0575,-7.723],[114.0585,-7.7215],[114.0645,-7.705]]]},"properties":{"code":"35.12.08.2005","name":"Juglangan","latitude":-7.715419290388906,"longitude":114.05763807163808}},{"type":"Feature","geometry":{"type":"Polygon","coordinates":[[[114.0555,-7.706],[114.0395,-7.703],[114.0305,-7.725],[114.0285,-7.7255],[114.028,-7.7305],[114.029,-7.733],[114.037,-7.732],[114.0375,-7.731],[114.039,-7.7315],[114.0415,-7.731],[114.043,-7.731],[114.046,-7.731],[114.0485,-7.7315],[114.05,-7.7315],[114.0495,-7.731],[114.051,-7.729],[114.0555,-7.708],[114.0555,-7.706]]]},"properties":{"code":"35.12.08.2006","name":"Panji Kidul","latitude":-7.7193085891949265,"longitude":114.04286288924668}},{"type":"Feature","geometry":{"type":"Polygon","coordinates":[[[114.0565,-7.697],[114.0465,-7.6945],[114.0435,-7.694],[114.043,-7.694],[114.0395,-7.695],[114.0395,-7.703],[114.0555,-7.706],[114.0555,-7.705],[114.056,-7.703],[114.056,-7.7015],[114.0555,-7.7015],[114.056,-7.699],[114.0565,-7.697]]]},"properties":{"code":"35.12.08.2008","name":"Panji Lor","latitude":-7.69976712486396,"longitude":114.0480160772767}},{"type":"Feature","geometry":{"type":"Polygon","coordinates":[[[114.044,-7.6755],[114.0375,-7.6755],[114.0345,-7.688],[114.0325,-7.696],[114.0325,-7.697],[114.0435,-7.6935],[114.045,-7.6885],[114.0465,-7.6835],[114.047,-7.6835],[114.048,-7.679],[114.044,-7.6755]]]},"properties":{"code":"35.12.08.2009","name":"Tokelan","latitude":-7.685404123916581,"longitude":114.04031839896084}},{"type":"Feature","geometry":{"type":"Polygon","coordinates":[[[114.035,-7.686],[114.033,-7.6855],[114.0335,-7.685],[114.0255,-7.6835],[114.016,-7.679],[114.0125,-7.6875],[114.014,-7.697],[114.013,-7.6975],[114.0115,-7.6995],[114.0185,-7.697],[114.0285,-7.697],[114.0305,-7.697],[114.0325,-7.6965],[114.0325,-7.696],[114.035,-7.686]]]},"properties":{"code":"35.12.08.2010","name":"Curah Jeru","latitude":-7.689752102318988,"longitude":114.02269423790413}},{"type":"Feature","geometry":{"type":"Polygon","coordinates":[[[114.0305,-7.668],[114.021,-7.6655],[114.02,-7.668],[114.018,-7.6745],[114.016,-7.679],[114.0255,-7.6835],[114.0335,-7.685],[114.033,-7.6855],[114.035,-7.686],[114.037,-7.677],[114.0385,-7.6725],[114.0305,-7.668]]]},"properties":{"code":"35.12.08.2011","name":"Tenggir","latitude":-7.6759114132554584,"longitude":114.0274222429984}},{"type":"Feature","geometry":{"type":"Polygon","coordinates":[[[114.034,-7.6545],[114.029,-7.6535],[114.022,-7.654],[114.021,-7.6625],[114.021,-7.6655],[114.0305,-7.668],[114.031,-7.6655],[114.034,-7.6545]]]},"properties":{"code":"35.12.08.2012","name":"Kayu Putih","latitude":-7.660205503250181,"longitude":114.02695197463487}},{"type":"Feature","geometry":{"type":"Polygon","coordinates":[[[114.0625,-7.629],[114.0525,-7.627],[114.0415,-7.653],[114.0475,-7.654],[114.049,-7.654],[114.0635,-7.6305],[114.0625,-7.629]]]},"properties":{"code":"35.12.09.2001","name":"Tanjung Glugur","latitude":-7.640198125981832,"longitude":114.05223133310187}},{"type":"Feature","geometry":{"type":"Polygon","coordinates":[[[114.0415,-7.653],[114.0385,-7.652],[114.035,-7.6515],[114.031,-7.6655],[114.0305,-7.668],[114.0385,-7.6725],[114.0375,-7.6755],[114.044,-7.6755],[114.0455,-7.6725],[114.046,-7.6675],[114.047,-7.6615],[114.05,-7.6545],[114.0475,-7.654],[114.0415,-7.653]]]},"properties":{"code":"35.12.09.2002","name":"Mangaran","latitude":-7.6631746373029905,"longitude":114.03958149651613}},{"type":"Feature","geometry":{"type":"Polygon","coordinates":[[[114.0845,-7.672],[114.0635,-7.6305],[114.049,-7.654],[114.05,-7.6545],[114.047,-7.6615],[114.075,-7.6685],[114.0795,-7.6695],[114.0845,-7.672]]]},"properties":{"code":"35.12.09.2003","name":"Tanjung Kamal","latitude":-7.653636198617664,"longitude":114.06485882269185}},{"type":"Feature","geometry":{"type":"Polygon","coordinates":[[[114.026,-7.638],[114.0265,-7.631],[114.0125,-7.625],[114.01,-7.6285],[114.0085,-7.6385],[114.0145,-7.6395],[114.026,-7.638]]]},"properties":{"code":"35.12.09.2004","name":"Semiring","latitude":-7.634085158150396,"longitude":114.01765185263694}},{"type":"Feature","geometry":{"type":"Polygon","coordinates":[[[114.0625,-7.629],[114.046,-7.6085],[114.0295,-7.6095],[114.0125,-7.625],[114.0265,-7.631],[114.026,-7.638],[114.037,-7.641],[114.0355,-7.6475],[114.037,-7.648],[114.036,-7.6515],[114.0385,-7.652],[114.0415,-7.653],[114.0525,-7.627],[114.0625,-7.629]]]},"properties":{"code":"35.12.09.2005","name":"Tanjung Pecinan","latitude":-7.6258600893039485,"longitude":114.03774383538624}},{"type":"Feature","geometry":{"type":"Polygon","coordinates":[[[114.036,-7.6515],[114.037,-7.648],[114.0355,-7.6475],[114.037,-7.641],[114.026,-7.638],[114.0145,-7.6395],[114.0115,-7.639],[114.007,-7.656],[114.0065,-7.656],[114.006,-7.6575],[114.006,-7.6615],[114.012,-7.666],[114.016,-7.6665],[114.0165,-7.6645],[114.021,-7.6625],[114.022,-7.654],[114.029,-7.6535],[114.034,-7.6545],[114.035,-7.6515],[114.036,-7.6515]]]},"properties":{"code":"35.12.09.2006","name":"Trebungan","latitude":-7.6508788143573865,"longitude":114.02002730173947}},{"type":"Feature","geometry":{"type":"Polygon","coordinates":[[[114.0885,-7.7265],[114.088,-7.727],[114.0735,-7.731],[114.069,-7.7315],[114.066,-7.732],[114.054,-7.7355],[114.056,-7.759],[114.062,-7.759],[114.066,-7.7595],[114.0675,-7.7595],[114.07,-7.7605],[114.072,-7.764],[114.073,-7.761],[114.076,-7.7585],[114.076,-7.758],[114.076,-7.7575],[114.077,-7.7565],[114.0815,-7.7515],[114.0865,-7.7515],[114.09,-7.75],[114.094,-7.75],[114.1005,-7.7405],[114.101,-7.7395],[114.0995,-7.7285],[114.0985,-7.7285],[114.0885,-7.7265]]]},"properties":{"code":"35.12.10.2001","name":"Kandang","latitude":-7.742467960853531,"longitude":114.0759690464708}},{"type":"Feature","geometry":{"type":"Polygon","coordinates":[[[114.0675,-7.705],[114.0645,-7.705],[114.0585,-7.7215],[114.0575,-7.723],[114.0575,-7.726],[114.054,-7.7355],[114.066,-7.732],[114.0695,-7.722],[114.0675,-7.705]]]},"properties":{"code":"35.12.10.2002","name":"Curah Cottok","latitude":-7.722796593743127,"longitude":114.06334285073802}},{"type":"Feature","geometry":{"type":"Polygon","coordinates":[[[114.0825,-7.699],[114.0675,-7.705],[114.0695,-7.722],[114.066,-7.732],[114.069,-7.7315],[114.0735,-7.731],[114.088,-7.727],[114.089,-7.726],[114.088,-7.7235],[114.0805,-7.722],[114.078,-7.7055],[114.082,-7.6995],[114.0825,-7.699]]]},"properties":{"code":"35.12.10.2003","name":"Peleyan","latitude":-7.713983109333215,"longitude":114.07459493515059}},{"type":"Feature","geometry":{"type":"Polygon","coordinates":[[[114.0855,-7.6965],[114.0835,-7.699],[114.082,-7.6995],[114.078,-7.7055],[114.0805,-7.722],[114.088,-7.7235],[114.086,-7.707],[114.086,-7.704],[114.086,-7.703],[114.0855,-7.7015],[114.0855,-7.6965]]]},"properties":{"code":"35.12.10.2004","name":"Wonokoyo","latitude":-7.712196971491549,"longitude":114.08270762335933}},{"type":"Feature","geometry":{"type":"Polygon","coordinates":[[[114.12,-7.7095],[114.1075,-7.707],[114.095,-7.6935],[114.0935,-7.705],[114.086,-7.707],[114.088,-7.7235],[114.089,-7.726],[114.0885,-7.7265],[114.0985,-7.7285],[114.1,-7.7285],[114.1135,-7.7325],[114.1145,-7.731],[114.12,-7.7095]]]},"properties":{"code":"35.12.10.2005","name":"Seletreng","latitude":-7.715698958388524,"longitude":114.10161057564825}},{"type":"Feature","geometry":{"type":"Polygon","coordinates":[[[114.0845,-7.672],[114.0795,-7.6695],[114.0765,-7.669],[114.076,-7.673],[114.0745,-7.673],[114.074,-7.6815],[114.0735,-7.686],[114.0745,-7.689],[114.0785,-7.6885],[114.08,-7.6925],[114.0815,-7.693],[114.0815,-7.6925],[114.081,-7.692],[114.086,-7.689],[114.0855,-7.7015],[114.086,-7.703],[114.086,-7.704],[114.086,-7.707],[114.0935,-7.705],[114.095,-7.6935],[114.0845,-7.672]]]},"properties":{"code":"35.12.10.2006","name":"Landangan","latitude":-7.686920320818048,"longitude":114.08460131305075}},{"type":"Feature","geometry":{"type":"Polygon","coordinates":[[[114.0855,-7.6965],[114.086,-7.689],[114.081,-7.692],[114.0815,-7.6925],[114.0815,-7.693],[114.08,-7.6925],[114.0785,-7.6885],[114.0635,-7.691],[114.0565,-7.697],[114.056,-7.699],[114.0555,-7.7015],[114.056,-7.7015],[114.056,-7.702],[114.059,-7.7025],[114.059,-7.702],[114.0615,-7.7025],[114.0645,-7.705],[114.0675,-7.705],[114.0825,-7.699],[114.0835,-7.699],[114.0855,-7.6965]]]},"properties":{"code":"35.12.10.2007","name":"Kapongan","latitude":-7.695939335788776,"longitude":114.07068120436762}},{"type":"Feature","geometry":{"type":"Polygon","coordinates":[[[114.047,-7.6835],[114.0465,-7.6835],[114.045,-7.6885],[114.0435,-7.6935],[114.043,-7.694],[114.044,-7.6945],[114.0465,-7.6945],[114.0565,-7.697],[114.0635,-7.691],[114.0745,-7.689],[114.0735,-7.686],[114.07,-7.6845],[114.047,-7.6835]]]},"properties":{"code":"35.12.10.2008","name":"Kesambirampak","latitude":-7.689282234150671,"longitude":114.05724359141495}},{"type":"Feature","geometry":{"type":"Polygon","coordinates":[[[114.0455,-7.671],[114.0455,-7.6725],[114.044,-7.6755],[114.048,-7.679],[114.047,-7.6835],[114.07,-7.6845],[114.074,-7.6815],[114.0745,-7.673],[114.067,-7.6735],[114.065,-7.6735],[114.065,-7.673],[114.0615,-7.673],[114.0455,-7.671]]]},"properties":{"code":"35.12.10.2009","name":"Gebangan","latitude":-7.678344543736549,"longitude":114.0598741506268}},{"type":"Feature","geometry":{"type":"Polygon","coordinates":[[[114.0765,-7.669],[114.075,-7.6685],[114.047,-7.6615],[114.046,-7.6675],[114.0455,-7.671],[114.0615,-7.673],[114.065,-7.673],[114.065,-7.6735],[114.067,-7.6735],[114.0745,-7.673],[114.076,-7.673],[114.0765,-7.669]]]},"properties":{"code":"35.12.10.2010","name":"Pokaan","latitude":-7.668440994508179,"longitude":114.05961386581656}},{"type":"Feature","geometry":{"type":"Polygon","coordinates":[[[114.1665,-7.844],[114.158,-7.8375],[114.1285,-7.831],[114.129,-7.832],[114.1255,-7.8505],[114.1315,-7.872],[114.129,-7.9025],[114.128,-7.903],[114.1295,-7.939],[114.134,-7.949],[114.135,-7.962],[114.135,-7.9745],[114.1345,-7.9795],[114.134,-7.9865],[114.1345,-7.987],[114.135,-7.986],[114.159,-7.974],[114.1615,-7.9735],[114.1665,-7.9705],[114.171,-7.97],[114.172,-7.954],[114.1665,-7.948],[114.163,-7.945],[114.162,-7.9425],[114.163,-7.94],[114.164,-7.936],[114.1655,-7.925],[114.165,-7.924],[114.166,-7.9185],[114.1665,-7.916],[114.167,-7.898],[114.168,-7.8895],[114.1685,-7.8865],[114.1645,-7.869],[114.1665,-7.844]]]},"properties":{"code":"35.12.11.2001","name":"Kayumas","latitude":-7.90581632443093,"longitude":114.14824123550626}},{"type":"Feature","geometry":{"type":"Polygon","coordinates":[[[114.133,-7.7905],[114.128,-7.79],[114.125,-7.79],[114.123,-7.79],[114.1225,-7.79],[114.122,-7.79],[114.122,-7.7905],[114.1215,-7.792],[114.1215,-7.793],[114.1215,-7.7935],[114.117,-7.795],[114.1145,-7.797],[114.114,-7.7985],[114.114,-7.7995],[114.1145,-7.8],[114.115,-7.8005],[114.1155,-7.801],[114.112,-7.8115],[114.1125,-7.8125],[114.1165,-7.8255],[114.1175,-7.845],[114.1255,-7.8505],[114.129,-7.832],[114.1275,-7.831],[114.122,-7.824],[114.1225,-7.821],[114.1235,-7.8195],[114.124,-7.817],[114.131,-7.795],[114.1315,-7.793],[114.133,-7.7905]]]},"properties":{"code":"35.12.11.2002","name":"Bayeman","latitude":-7.81757551390424,"longitude":114.12179594085877}},{"type":"Feature","geometry":{"type":"Polygon","coordinates":[[[114.146,-7.747],[114.1405,-7.7475],[114.1375,-7.7475],[114.135,-7.7415],[114.133,-7.7415],[114.1305,-7.742],[114.1265,-7.7415],[114.126,-7.7415],[114.1235,-7.7525],[114.1235,-7.754],[114.123,-7.756],[114.1225,-7.7895],[114.122,-7.79],[114.1225,-7.79],[114.123,-7.79],[114.125,-7.79],[114.128,-7.79],[114.133,-7.7905],[114.133,-7.789],[114.1345,-7.788],[114.1355,-7.7865],[114.144,-7.775],[114.1445,-7.775],[114.139,-7.773],[114.1485,-7.752],[114.1465,-7.7475],[114.146,-7.747]]]},"properties":{"code":"35.12.11.2003","name":"Ketowan","latitude":-7.764752087874965,"longitude":114.13271744441762}},{"type":"Feature","geometry":{"type":"Polygon","coordinates":[[[114.156,-7.7445],[114.146,-7.7415],[114.1455,-7.7435],[114.146,-7.7455],[114.1465,-7.7475],[114.1485,-7.752],[114.139,-7.773],[114.1445,-7.775],[114.1445,-7.774],[114.148,-7.773],[114.1485,-7.7725],[114.1485,-7.772],[114.151,-7.77],[114.152,-7.77],[114.1525,-7.769],[114.153,-7.767],[114.1615,-7.7515],[114.164,-7.7505],[114.166,-7.7495],[114.168,-7.7485],[114.1695,-7.7475],[114.168,-7.747],[114.156,-7.7455],[114.156,-7.7445]]]},"properties":{"code":"35.12.11.2004","name":"Kedungdowo","latitude":-7.757536694647452,"longitude":114.15144232838762}},{"type":"Feature","geometry":{"type":"Polygon","coordinates":[[[114.1135,-7.7325],[114.1,-7.7285],[114.0995,-7.7285],[114.101,-7.7395],[114.1005,-7.7405],[114.094,-7.75],[114.09,-7.75],[114.0865,-7.7515],[114.0815,-7.7515],[114.077,-7.7565],[114.076,-7.758],[114.0765,-7.758],[114.0805,-7.759],[114.0845,-7.7595],[114.0855,-7.76],[114.092,-7.7605],[114.094,-7.771],[114.0895,-7.7835],[114.1,-7.7895],[114.0925,-7.8015],[114.0915,-7.813],[114.0915,-7.8145],[114.105,-7.843],[114.1035,-7.8455],[114.1145,-7.8755],[114.1195,-7.9045],[114.127,-7.904],[114.129,-7.9025],[114.1315,-7.872],[114.1255,-7.8505],[114.1175,-7.845],[114.1165,-7.8255],[114.1125,-7.8125],[114.112,-7.8115],[114.1155,-7.801],[114.115,-7.8005],[114.1145,-7.8],[114.114,-7.7995],[114.114,-7.7985],[114.1145,-7.797],[114.117,-7.795],[114.1215,-7.7935],[114.1215,-7.793],[114.1215,-7.792],[114.122,-7.7905],[114.122,-7.79],[114.1225,-7.7895],[114.123,-7.756],[114.1235,-7.754],[114.1235,-7.7525],[114.1225,-7.7525],[114.122,-7.7525],[114.122,-7.751],[114.1205,-7.75],[114.12,-7.746],[114.1175,-7.745],[114.1175,-7.7395],[114.1125,-7.7365],[114.1135,-7.7325]]]},"properties":{"code":"35.12.11.2005","name":"Jatisari","latitude":-7.8072532728807165,"longitude":114.10997572734365}},{"type":"Feature","geometry":{"type":"Polygon","coordinates":[[[114.128,-7.903],[114.127,-7.904],[114.1195,-7.9045],[114.1145,-7.8755],[114.1035,-7.8455],[114.105,-7.843],[114.0915,-7.8145],[114.0915,-7.813],[114.0925,-7.8015],[114.1,-7.7895],[114.0895,-7.7835],[114.094,-7.771],[114.092,-7.7605],[114.0855,-7.76],[114.0845,-7.7595],[114.0805,-7.759],[114.0765,-7.758],[114.076,-7.758],[114.076,-7.7585],[114.073,-7.761],[114.072,-7.765],[114.079,-7.7705],[114.0795,-7.7715],[114.0755,-7.782],[114.0755,-7.7835],[114.077,-7.7865],[114.078,-7.7885],[114.079,-7.789],[114.0795,-7.7895],[114.0795,-7.7915],[114.081,-7.796],[114.0825,-7.796],[114.0885,-7.8055],[114.0895,-7.807],[114.089,-7.808],[114.089,-7.8245],[114.0955,-7.8405],[114.0935,-7.85],[114.0935,-7.852],[114.0935,-7.853],[114.0935,-7.857],[114.093,-7.8595],[114.0925,-7.874],[114.0935,-7.876],[114.0995,-7.8895],[114.1025,-7.8955],[114.103,-7.8975],[114.1045,-7.9015],[114.107,-7.9045],[114.111,-7.909],[114.1135,-7.942],[114.1145,-7.944],[114.1275,-7.976],[114.128,-7.9895],[114.1305,-7.9905],[114.132,-7.9885],[114.133,-7.988],[114.1345,-7.987],[114.134,-7.9865],[114.1345,-7.9795],[114.135,-7.9745],[114.135,-7.962],[114.134,-7.949],[114.1295,-7.939],[114.128,-7.903]]]},"properties":{"code":"35.12.11.2006","name":"Curah Tatal","latitude":-7.875940389705521,"longitude":114.10713033522673}},{"type":"Feature","geometry":{"type":"Polygon","coordinates":[[[114.1305,-7.7145],[114.12,-7.7095],[114.1145,-7.731],[114.1125,-7.7365],[114.1175,-7.7395],[114.1175,-7.745],[114.12,-7.746],[114.1205,-7.75],[114.122,-7.751],[114.122,-7.7525],[114.1225,-7.7525],[114.1235,-7.7525],[114.126,-7.7415],[114.1265,-7.7415],[114.1315,-7.7155],[114.1305,-7.7145]]]},"properties":{"code":"35.12.11.2007","name":"Arjasa","latitude":-7.727472853866197,"longitude":114.12218758663744}},{"type":"Feature","geometry":{"type":"Polygon","coordinates":[[[114.156,-7.715],[114.1305,-7.7145],[114.1315,-7.7155],[114.1265,-7.7415],[114.1305,-7.742],[114.133,-7.7415],[114.135,-7.7415],[114.1375,-7.7475],[114.1405,-7.7475],[114.146,-7.747],[114.146,-7.7455],[114.1455,-7.7435],[114.146,-7.7415],[114.156,-7.7445],[114.1565,-7.744],[114.1575,-7.735],[114.157,-7.7305],[114.1525,-7.7295],[114.153,-7.726],[114.156,-7.715]]]},"properties":{"code":"35.12.11.2008","name":"Lamongan","latitude":-7.729835438381586,"longitude":114.14180139542461}},{"type":"Feature","geometry":{"type":"Polygon","coordinates":[[[114.1835,-7.7845],[114.1855,-7.77],[114.1695,-7.7625],[114.1695,-7.7615],[114.1705,-7.7475],[114.17,-7.747],[114.1695,-7.7475],[114.168,-7.7485],[114.166,-7.7495],[114.164,-7.7505],[114.1615,-7.7515],[114.153,-7.767],[114.1525,-7.769],[114.152,-7.77],[114.151,-7.77],[114.1485,-7.772],[114.1485,-7.7725],[114.148,-7.773],[114.1445,-7.774],[114.144,-7.775],[114.1355,-7.7865],[114.1345,-7.788],[114.133,-7.789],[114.133,-7.7905],[114.1315,-7.793],[114.131,-7.795],[114.124,-7.817],[114.1235,-7.8195],[114.1225,-7.821],[114.122,-7.824],[114.1275,-7.831],[114.1285,-7.831],[114.158,-7.8375],[114.1665,-7.844],[114.17,-7.8385],[114.1715,-7.8365],[114.177,-7.823],[114.1815,-7.7945],[114.185,-7.7925],[114.1835,-7.7905],[114.1835,-7.789],[114.1835,-7.7845]]]},"properties":{"code":"35.12.12.2001","name":"Sopet","latitude":-7.8003863440759655,"longitude":114.15664036351686}},{"type":"Feature","geometry":{"type":"Polygon","coordinates":[[[114.1735,-7.7405],[114.172,-7.7405],[114.1715,-7.745],[114.17,-7.747],[114.1705,-7.7475],[114.1695,-7.7615],[114.1695,-7.7625],[114.1855,-7.77],[114.1835,-7.7845],[114.188,-7.7835],[114.1885,-7.7625],[114.1915,-7.7505],[114.1905,-7.7475],[114.191,-7.7445],[114.191,-7.743],[114.1895,-7.743],[114.186,-7.741],[114.185,-7.7415],[114.1735,-7.7405]]]},"properties":{"code":"35.12.12.2002","name":"Curah Kalak","latitude":-7.755717881375057,"longitude":114.18115136162474}},{"type":"Feature","geometry":{"type":"Polygon","coordinates":[[[114.203,-7.7365],[114.197,-7.738],[114.1965,-7.7345],[114.1855,-7.733],[114.185,-7.7335],[114.183,-7.7355],[114.1815,-7.7355],[114.1755,-7.7395],[114.175,-7.74],[114.174,-7.7405],[114.1735,-7.7405],[114.185,-7.7415],[114.186,-7.741],[114.1895,-7.743],[114.191,-7.743],[114.191,-7.7445],[114.1905,-7.7475],[114.1915,-7.7505],[114.191,-7.751],[114.202,-7.751],[114.2035,-7.748],[114.2075,-7.746],[114.2095,-7.745],[114.21,-7.738],[114.209,-7.7375],[114.2085,-7.739],[114.205,-7.7385],[114.2045,-7.7365],[114.203,-7.7365]]]},"properties":{"code":"35.12.12.2003","name":"Palangan","latitude":-7.741790861711539,"longitude":114.19473932691297}},{"type":"Feature","geometry":{"type":"Polygon","coordinates":[[[114.2215,-7.735],[114.221,-7.735],[114.225,-7.73],[114.224,-7.708],[114.2035,-7.717],[114.2035,-7.7175],[114.203,-7.7185],[114.2025,-7.7365],[114.2045,-7.7365],[114.205,-7.7385],[114.2085,-7.739],[114.209,-7.7375],[114.21,-7.738],[114.21,-7.7365],[114.218,-7.738],[114.219,-7.738],[114.2215,-7.735]]]},"properties":{"code":"35.12.12.2004","name":"Jangkar","latitude":-7.725240873530021,"longitude":114.21448204027487}},{"type":"Feature","geometry":{"type":"Polygon","coordinates":[[[114.2035,-7.717],[114.2,-7.714],[114.1935,-7.73],[114.1885,-7.73],[114.1865,-7.732],[114.186,-7.7325],[114.1855,-7.733],[114.1965,-7.7345],[114.197,-7.738],[114.203,-7.7365],[114.2025,-7.7365],[114.203,-7.7185],[114.2035,-7.7175],[114.2035,-7.717]]]},"properties":{"code":"35.12.12.2005","name":"Gadingan","latitude":-7.727611793495332,"longitude":114.19790953296175}},{"type":"Feature","geometry":{"type":"Polygon","coordinates":[[[114.2,-7.714],[114.184,-7.713],[114.183,-7.7275],[114.1745,-7.734],[114.175,-7.734],[114.175,-7.7375],[114.1745,-7.739],[114.175,-7.739],[114.175,-7.74],[114.1755,-7.7395],[114.1815,-7.7355],[114.183,-7.7355],[114.185,-7.7335],[114.186,-7.7325],[114.1865,-7.732],[114.1885,-7.73],[114.1935,-7.73],[114.2,-7.714]]]},"properties":{"code":"35.12.12.2006","name":"Kumbangsari","latitude":-7.722929823870267,"longitude":114.18805441649293}},{"type":"Feature","geometry":{"type":"Polygon","coordinates":[[[114.1745,-7.734],[114.163,-7.732],[114.1575,-7.735],[114.1565,-7.744],[114.156,-7.7455],[114.168,-7.747],[114.1715,-7.745],[114.172,-7.7405],[114.174,-7.7405],[114.175,-7.74],[114.175,-7.739],[114.1745,-7.739],[114.175,-7.7375],[114.175,-7.734],[114.1745,-7.734]]]},"properties":{"code":"35.12.12.2007","name":"Pesanggrahan","latitude":-7.738909365485148,"longitude":114.1652979033771}},{"type":"Feature","geometry":{"type":"Polygon","coordinates":[[[114.184,-7.713],[114.156,-7.715],[114.153,-7.726],[114.1525,-7.7295],[114.157,-7.7305],[114.163,-7.732],[114.1745,-7.734],[114.183,-7.7275],[114.184,-7.713]]]},"properties":{"code":"35.12.12.2008","name":"Agel","latitude":-7.723068428739084,"longitude":114.16881037261398}},{"type":"Feature","geometry":{"type":"Polygon","coordinates":[[[114.2185,-7.7795],[114.217,-7.778],[114.209,-7.7905],[114.2065,-7.7895],[114.2035,-7.7925],[114.201,-7.8115],[114.2005,-7.814],[114.191,-7.8275],[114.182,-7.8585],[114.184,-7.878],[114.167,-7.913],[114.166,-7.9185],[114.165,-7.924],[114.1655,-7.925],[114.164,-7.936],[114.163,-7.94],[114.162,-7.9425],[114.163,-7.945],[114.1665,-7.948],[114.172,-7.954],[114.171,-7.97],[114.1735,-7.97],[114.1745,-7.9695],[114.18,-7.9705],[114.198,-7.975],[114.1985,-7.966],[114.198,-7.9635],[114.1965,-7.9615],[114.197,-7.958],[114.212,-7.904],[114.2135,-7.8775],[114.2195,-7.864],[114.2165,-7.8395],[114.219,-7.817],[114.218,-7.8005],[114.222,-7.7815],[114.2205,-7.78],[114.2185,-7.7795]]]},"properties":{"code":"35.12.13.2001","name":"Kedunglo","latitude":-7.886582942446762,"longitude":114.19525596297555}},{"type":"Feature","geometry":{"type":"Polygon","coordinates":[[[114.233,-7.7815],[114.2315,-7.78],[114.227,-7.781],[114.224,-7.781],[114.2235,-7.783],[114.2225,-7.783],[114.223,-7.7805],[114.2215,-7.7805],[114.221,-7.781],[114.222,-7.7815],[114.218,-7.8005],[114.219,-7.817],[114.2165,-7.8395],[114.2195,-7.864],[114.2135,-7.8775],[114.212,-7.904],[114.197,-7.958],[114.1965,-7.9615],[114.198,-7.9635],[114.1985,-7.966],[114.198,-7.975],[114.2035,-7.9755],[114.2115,-7.978],[114.2195,-7.9825],[114.2205,-7.9845],[114.222,-7.9855],[114.2235,-7.986],[114.224,-7.9865],[114.2245,-7.9865],[114.2245,-7.9855],[114.2265,-7.981],[114.245,-7.9515],[114.246,-7.949],[114.247,-7.9465],[114.258,-7.932],[114.263,-7.9265],[114.271,-7.918],[114.2715,-7.915],[114.269,-7.895],[114.2635,-7.886],[114.2605,-7.882],[114.2585,-7.882],[114.25,-7.875],[114.236,-7.849],[114.2385,-7.842],[114.244,-7.803],[114.238,-7.7865],[114.2385,-7.7845],[114.234,-7.7825],[114.233,-7.7815]]]},"properties":{"code":"35.12.13.2002","name":"Bantal","latitude":-7.896841693837048,"longitude":114.23130339939237}},{"type":"Feature","geometry":{"type":"Polygon","coordinates":[[[114.234,-7.7655],[114.2335,-7.764],[114.233,-7.7635],[114.233,-7.758],[114.226,-7.752],[114.222,-7.7515],[114.2215,-7.756],[114.2225,-7.756],[114.222,-7.7605],[114.22,-7.7745],[114.2185,-7.7795],[114.2205,-7.78],[114.221,-7.781],[114.2215,-7.7805],[114.223,-7.7805],[114.2225,-7.783],[114.2235,-7.783],[114.224,-7.781],[114.227,-7.781],[114.2315,-7.78],[114.233,-7.7815],[114.2315,-7.7715],[114.2325,-7.7685],[114.233,-7.766],[114.234,-7.7655]]]},"properties":{"code":"35.12.13.2003","name":"Awar-awar","latitude":-7.767822341081392,"longitude":114.22655664859889}},{"type":"Feature","geometry":{"type":"Polygon","coordinates":[[[114.222,-7.7515],[114.2185,-7.7515],[114.209,-7.76],[114.207,-7.7745],[114.2065,-7.7755],[114.204,-7.7815],[114.203,-7.786],[114.2025,-7.7875],[114.204,-7.7885],[114.2065,-7.7895],[114.209,-7.7905],[114.217,-7.778],[114.2185,-7.7795],[114.22,-7.7745],[114.222,-7.7605],[114.2225,-7.756],[114.2215,-7.756],[114.222,-7.7515]]]},"properties":{"code":"35.12.13.2004","name":"Perante","latitude":-7.77024120165845,"longitude":114.21342875882945}},{"type":"Feature","geometry":{"type":"Polygon","coordinates":[[[114.2215,-7.7495],[114.218,-7.7495],[114.205,-7.7505],[114.2055,-7.7545],[114.2085,-7.755],[114.2065,-7.7755],[114.207,-7.7745],[114.209,-7.76],[114.2185,-7.7515],[114.223,-7.7515],[114.226,-7.752],[114.233,-7.758],[114.233,-7.7635],[114.2335,-7.764],[114.234,-7.7655],[114.2345,-7.7645],[114.239,-7.752],[114.2355,-7.751],[114.2215,-7.7495]]]},"properties":{"code":"35.12.13.2005","name":"Trigonco","latitude":-7.755835261315515,"longitude":114.2206471835894}},{"type":"Feature","geometry":{"type":"Polygon","coordinates":[[[114.205,-7.7505],[114.203,-7.751],[114.2045,-7.7475],[114.2035,-7.748],[114.202,-7.751],[114.1985,-7.751],[114.1965,-7.7645],[114.1975,-7.793],[114.1945,-7.7975],[114.193,-7.799],[114.186,-7.8145],[114.181,-7.834],[114.1785,-7.835],[114.1715,-7.8365],[114.17,-7.8385],[114.1665,-7.844],[114.1645,-7.869],[114.1685,-7.8865],[114.168,-7.8895],[114.167,-7.898],[114.1665,-7.916],[114.167,-7.913],[114.184,-7.878],[114.182,-7.8585],[114.191,-7.8275],[114.2005,-7.814],[114.201,-7.8115],[114.2035,-7.7925],[114.2065,-7.7895],[114.204,-7.7885],[114.2025,-7.7875],[114.203,-7.786],[114.204,-7.7815],[114.2065,-7.7755],[114.2085,-7.755],[114.2055,-7.7545],[114.205,-7.7505]]]},"properties":{"code":"35.12.13.2006","name":"Kertosari","latitude":-7.836301834188791,"longitude":114.18405280016245}},{"type":"Feature","geometry":{"type":"Polygon","coordinates":[[[114.1985,-7.751],[114.191,-7.751],[114.1885,-7.7625],[114.188,-7.7835],[114.1835,-7.7845],[114.1835,-7.789],[114.1835,-7.7905],[114.185,-7.7925],[114.1815,-7.7945],[114.177,-7.823],[114.1715,-7.8365],[114.1785,-7.835],[114.181,-7.834],[114.186,-7.8145],[114.193,-7.799],[114.1945,-7.7975],[114.1975,-7.793],[114.1965,-7.7645],[114.1985,-7.751]]]},"properties":{"code":"35.12.13.2007","name":"Mojosari","latitude":-7.7937031433386235,"longitude":114.1875507108636}},{"type":"Feature","geometry":{"type":"Polygon","coordinates":[[[114.218,-7.738],[114.21,-7.7365],[114.2095,-7.745],[114.2075,-7.746],[114.2045,-7.7475],[114.203,-7.751],[114.218,-7.7495],[114.2215,-7.7495],[114.218,-7.739],[114.218,-7.738]]]},"properties":{"code":"35.12.13.2008","name":"Asembagus","latitude":-7.744469292322705,"longitude":114.2139134578258}},{"type":"Feature","geometry":{"type":"Polygon","coordinates":[[[114.2215,-7.7495],[114.231,-7.7475],[114.223,-7.7355],[114.2215,-7.735],[114.219,-7.738],[114.218,-7.739],[114.2215,-7.7495]]]},"properties":{"code":"35.12.13.2009","name":"Gudang","latitude":-7.74278033902956,"longitude":114.22564916176557}},{"type":"Feature","geometry":{"type":"Polygon","coordinates":[[[114.2835,-7.735],[114.258,-7.7175],[114.2435,-7.6995],[114.2385,-7.6975],[114.224,-7.708],[114.225,-7.73],[114.221,-7.735],[114.223,-7.7355],[114.231,-7.7475],[114.2355,-7.751],[114.2385,-7.7515],[114.2455,-7.739],[114.2595,-7.7385],[114.2695,-7.7465],[114.273,-7.7425],[114.275,-7.741],[114.2835,-7.735]]]},"properties":{"code":"35.12.13.2010","name":"Wringin Anom","latitude":-7.725752541976945,"longitude":114.2463082614115}},{"type":"Feature","geometry":{"type":"Polygon","coordinates":[[[114.439,-7.9045],[114.414,-7.8965],[114.3975,-7.884],[114.3845,-7.88],[114.375,-7.875],[114.3715,-7.8515],[114.3605,-7.844],[114.3585,-7.8445],[114.3245,-7.854],[114.3235,-7.8745],[114.3315,-7.889],[114.3305,-7.9025],[114.3515,-7.9135],[114.371,-7.9185],[114.3725,-7.9185],[114.379,-7.922],[114.384,-7.9235],[114.401,-7.933],[114.404,-7.9345],[114.4065,-7.9375],[114.4075,-7.938],[114.424,-7.9355],[114.4225,-7.919],[114.439,-7.9045]]]},"properties":{"code":"35.12.14.2001","name":"Wonorejo","latitude":-7.892391761345633,"longitude":114.37283188824222}},{"type":"Feature","geometry":{"type":"Polygon","coordinates":[[[114.306,-7.746],[114.289,-7.7445],[114.28,-7.7575],[114.28,-7.7585],[114.2795,-7.76],[114.279,-7.762],[114.28,-7.7625],[114.279,-7.764],[114.2825,-7.7805],[114.271,-7.802],[114.2685,-7.82],[114.2605,-7.8395],[114.2675,-7.854],[114.2685,-7.8515],[114.2725,-7.847],[114.276,-7.8405],[114.282,-7.8345],[114.29,-7.7955],[114.298,-7.772],[114.304,-7.765],[114.3045,-7.7605],[114.306,-7.746]]]},"properties":{"code":"35.12.14.2002","name":"Sumberanyar","latitude":-7.795567564434185,"longitude":114.28250464215405}},{"type":"Feature","geometry":{"type":"Polygon","coordinates":[[[114.289,-7.7445],[114.2835,-7.735],[114.275,-7.741],[114.273,-7.7425],[114.2695,-7.7465],[114.25,-7.777],[114.249,-7.778],[114.244,-7.7765],[114.2425,-7.778],[114.2405,-7.7815],[114.2385,-7.7845],[114.238,-7.7865],[114.244,-7.803],[114.2385,-7.842],[114.236,-7.849],[114.25,-7.875],[114.265,-7.8635],[114.268,-7.8575],[114.2675,-7.854],[114.2605,-7.8395],[114.2685,-7.82],[114.271,-7.802],[114.2825,-7.7805],[114.279,-7.764],[114.28,-7.7625],[114.279,-7.762],[114.2795,-7.76],[114.28,-7.7585],[114.28,-7.7575],[114.289,-7.7445]]]},"properties":{"code":"35.12.14.2003","name":"Sumberejo","latitude":-7.80514139764412,"longitude":114.25896404564361}},{"type":"Feature","geometry":{"type":"Polygon","coordinates":[[[114.2695,-7.7465],[114.2595,-7.7385],[114.2455,-7.739],[114.2385,-7.7515],[114.239,-7.752],[114.2345,-7.7645],[114.233,-7.766],[114.2325,-7.7685],[114.2315,-7.7715],[114.233,-7.7815],[114.234,-7.7825],[114.2405,-7.7815],[114.2425,-7.778],[114.244,-7.7765],[114.249,-7.778],[114.25,-7.777],[114.2695,-7.7465]]]},"properties":{"code":"35.12.14.2004","name":"Banyuputih","latitude":-7.75839186681054,"longitude":114.24823252474245}},{"type":"Feature","geometry":{"type":"Polygon","coordinates":[[[114.439,-7.9045],[114.4635,-7.8895],[114.4645,-7.885],[114.458,-7.8475],[114.465,-7.836],[114.4645,-7.825],[114.4535,-7.8075],[114.4425,-7.7975],[114.422,-7.787],[114.404,-7.77],[114.395,-7.772],[114.379,-7.7555],[114.329,-7.7585],[114.32,-7.757],[114.306,-7.746],[114.3045,-7.7605],[114.304,-7.765],[114.298,-7.772],[114.29,-7.7955],[114.282,-7.8345],[114.276,-7.8405],[114.2725,-7.847],[114.2685,-7.8515],[114.2675,-7.854],[114.268,-7.8575],[114.265,-7.8635],[114.25,-7.875],[114.2585,-7.882],[114.2605,-7.882],[114.2635,-7.886],[114.269,-7.895],[114.2715,-7.915],[114.272,-7.9145],[114.296,-7.8885],[114.2975,-7.8865],[114.2985,-7.8865],[114.301,-7.8855],[114.305,-7.8855],[114.307,-7.8865],[114.3305,-7.9025],[114.3315,-7.889],[114.3235,-7.8745],[114.3245,-7.854],[114.3585,-7.8445],[114.3605,-7.844],[114.3715,-7.8515],[114.375,-7.875],[114.3845,-7.88],[114.3975,-7.884],[114.414,-7.8965],[114.439,-7.9045]]]},"properties":{"code":"35.12.14.2005","name":"Sumberwaru","latitude":-7.829817288861518,"longitude":114.36503293617068}},{"type":"Feature","geometry":{"type":"Polygon","coordinates":[[[113.668,-7.9205],[113.676,-7.91],[113.6785,-7.909],[113.6815,-7.9065],[113.696,-7.893],[113.7055,-7.8795],[113.705,-7.8785],[113.7,-7.8815],[113.697,-7.8815],[113.6965,-7.8795],[113.6955,-7.879],[113.695,-7.88],[113.687,-7.882],[113.6855,-7.883],[113.682,-7.8865],[113.682,-7.888],[113.6805,-7.8895],[113.68,-7.89],[113.679,-7.892],[113.678,-7.893],[113.6765,-7.8935],[113.665,-7.9085],[113.6535,-7.917],[113.6225,-7.934],[113.6205,-7.935],[113.618,-7.936],[113.6185,-7.9365],[113.611,-7.9485],[113.6125,-7.952],[113.6145,-7.953],[113.6225,-7.9525],[113.6225,-7.9535],[113.621,-7.955],[113.6205,-7.9555],[113.616,-7.957],[113.624,-7.9615],[113.625,-7.9605],[113.6365,-7.95],[113.6605,-7.9385],[113.663,-7.9215],[113.667,-7.92],[113.668,-7.9205]]]},"properties":{"code":"35.12.15.2001","name":"Tamankursi","latitude":-7.923521724393499,"longitude":113.65347489149627}},{"type":"Feature","geometry":{"type":"Polygon","coordinates":[[[113.7275,-7.858],[113.709,-7.8705],[113.706,-7.873],[113.7055,-7.8775],[113.705,-7.8785],[113.7055,-7.8795],[113.696,-7.893],[113.6815,-7.9065],[113.6785,-7.909],[113.676,-7.91],[113.668,-7.9205],[113.6685,-7.9205],[113.672,-7.9195],[113.6735,-7.919],[113.6885,-7.904],[113.7,-7.8995],[113.707,-7.8855],[113.7095,-7.885],[113.719,-7.8805],[113.7215,-7.8765],[113.7275,-7.858]]]},"properties":{"code":"35.12.15.2002","name":"Sumberargo","latitude":-7.887984143371766,"longitude":113.70250218842999}},{"type":"Feature","geometry":{"type":"Polygon","coordinates":[[[113.7305,-7.819],[113.7265,-7.82],[113.723,-7.8195],[113.718,-7.819],[113.7155,-7.819],[113.7155,-7.8185],[113.7155,-7.82],[113.717,-7.8225],[113.716,-7.823],[113.7145,-7.8235],[113.7165,-7.8255],[113.716,-7.8295],[113.7195,-7.835],[113.7145,-7.852],[113.72,-7.8555],[113.7245,-7.856],[113.7255,-7.8555],[113.7265,-7.855],[113.726,-7.855],[113.7265,-7.8535],[113.728,-7.851],[113.7295,-7.8455],[113.7305,-7.841],[113.7325,-7.8365],[113.733,-7.8355],[113.732,-7.8335],[113.7325,-7.8335],[113.7335,-7.8315],[113.7325,-7.8245],[113.7315,-7.82],[113.7315,-7.819],[113.7305,-7.819]]]},"properties":{"code":"35.12.15.2003","name":"Tamansari","latitude":-7.836333619655489,"longitude":113.72383700884664}},{"type":"Feature","geometry":{"type":"Polygon","coordinates":[[[113.7145,-7.852],[113.7095,-7.8545],[113.708,-7.8545],[113.706,-7.862],[113.707,-7.8625],[113.705,-7.8655],[113.7045,-7.866],[113.7,-7.874],[113.699,-7.8755],[113.6985,-7.8765],[113.697,-7.8765],[113.696,-7.8775],[113.6955,-7.879],[113.6965,-7.8795],[113.697,-7.8815],[113.7,-7.8815],[113.705,-7.8785],[113.7055,-7.8775],[113.706,-7.873],[113.709,-7.8705],[113.7275,-7.858],[113.7275,-7.8575],[113.7265,-7.855],[113.7255,-7.8555],[113.7245,-7.856],[113.72,-7.8555],[113.7145,-7.852]]]},"properties":{"code":"35.12.15.2004","name":"Kalirejo","latitude":-7.86498959239009,"longitude":113.71147447381718}},{"type":"Feature","geometry":{"type":"Polygon","coordinates":[[[113.7045,-7.866],[113.7025,-7.867],[113.7015,-7.8675],[113.6975,-7.8675],[113.6915,-7.8635],[113.6905,-7.8635],[113.6885,-7.864],[113.6895,-7.8645],[113.688,-7.877],[113.676,-7.881],[113.667,-7.8915],[113.6665,-7.892],[113.6655,-7.8915],[113.6635,-7.892],[113.665,-7.895],[113.665,-7.8965],[113.6585,-7.9045],[113.639,-7.9105],[113.6305,-7.919],[113.6265,-7.9235],[113.625,-7.9255],[113.624,-7.926],[113.622,-7.927],[113.6175,-7.9315],[113.617,-7.9345],[113.6175,-7.936],[113.618,-7.936],[113.62,-7.935],[113.6225,-7.934],[113.6535,-7.917],[113.665,-7.9085],[113.6765,-7.8935],[113.678,-7.893],[113.679,-7.892],[113.68,-7.89],[113.6805,-7.8895],[113.682,-7.888],[113.682,-7.8865],[113.6855,-7.883],[113.687,-7.882],[113.695,-7.88],[113.696,-7.877],[113.697,-7.8765],[113.6985,-7.8765],[113.699,-7.8755],[113.7,-7.874],[113.7045,-7.866]]]},"properties":{"code":"35.12.15.2005","name":"Baderan","latitude":-7.901150118677251,"longitude":113.66090325196346}},{"type":"Feature","geometry":{"type":"Polygon","coordinates":[[[113.6925,-7.8545],[113.6875,-7.8505],[113.6845,-7.85],[113.6815,-7.8495],[113.68,-7.849],[113.6755,-7.853],[113.648,-7.8815],[113.625,-7.8935],[113.6235,-7.8955],[113.6235,-7.9055],[113.623,-7.9055],[113.622,-7.907],[113.623,-7.908],[113.624,-7.9095],[113.6265,-7.9165],[113.6265,-7.9235],[113.6305,-7.919],[113.639,-7.9105],[113.6585,-7.9045],[113.665,-7.8965],[113.665,-7.895],[113.6635,-7.892],[113.6655,-7.8915],[113.6665,-7.892],[113.667,-7.8915],[113.676,-7.881],[113.688,-7.877],[113.6895,-7.8645],[113.6885,-7.8635],[113.6885,-7.862],[113.6925,-7.8565],[113.6925,-7.8545]]]},"properties":{"code":"35.12.15.2006","name":"Alastengah","latitude":-7.884574012757448,"longitude":113.65755592036042}},{"type":"Feature","geometry":{"type":"Polygon","coordinates":[[[113.705,-7.824],[113.705,-7.8245],[113.703,-7.824],[113.6955,-7.8265],[113.6945,-7.827],[113.6895,-7.833],[113.683,-7.847],[113.68,-7.849],[113.6815,-7.8495],[113.6845,-7.85],[113.6875,-7.8505],[113.6925,-7.8545],[113.693,-7.8535],[113.7025,-7.8335],[113.7045,-7.829],[113.705,-7.825],[113.705,-7.824]]]},"properties":{"code":"35.12.15.2007","name":"Taman","latitude":-7.838948547592898,"longitude":113.69399156913238}},{"type":"Feature","geometry":{"type":"Polygon","coordinates":[[[113.7145,-7.852],[113.7195,-7.835],[113.716,-7.8295],[113.7165,-7.8255],[113.7145,-7.8235],[113.713,-7.826],[113.709,-7.8335],[113.7025,-7.8335],[113.693,-7.8535],[113.6925,-7.8565],[113.6885,-7.862],[113.6885,-7.863],[113.6885,-7.864],[113.6905,-7.8635],[113.6915,-7.8635],[113.6975,-7.8675],[113.7015,-7.8675],[113.7025,-7.867],[113.7045,-7.866],[113.705,-7.8655],[113.707,-7.8625],[113.706,-7.862],[113.708,-7.8545],[113.7095,-7.8545],[113.7145,-7.852]]]},"properties":{"code":"35.12.15.2008","name":"Tlogosari","latitude":-7.8480347427902,"longitude":113.705242646087}},{"type":"Feature","geometry":{"type":"Polygon","coordinates":[[[113.723,-7.79],[113.7215,-7.79],[113.721,-7.79],[113.713,-7.788],[113.712,-7.7875],[113.712,-7.787],[113.711,-7.787],[113.709,-7.7925],[113.709,-7.798],[113.7055,-7.8225],[113.705,-7.825],[113.7045,-7.829],[113.7025,-7.8335],[113.709,-7.8335],[113.713,-7.826],[113.7145,-7.824],[113.716,-7.823],[113.717,-7.8225],[113.7155,-7.8205],[113.7155,-7.8195],[113.7155,-7.8165],[113.723,-7.79]]]},"properties":{"code":"35.12.15.2009","name":"Plalangan","latitude":-7.809397842029814,"longitude":113.71254807416214}},{"type":"Feature","geometry":{"type":"Polygon","coordinates":[[[113.68,-7.755],[113.6775,-7.755],[113.6735,-7.756],[113.6715,-7.759],[113.662,-7.7625],[113.658,-7.768],[113.6395,-7.7715],[113.6395,-7.7785],[113.642,-7.7785],[113.6445,-7.7765],[113.6465,-7.7765],[113.6505,-7.7785],[113.6545,-7.777],[113.676,-7.769],[113.6755,-7.768],[113.6755,-7.7675],[113.676,-7.768],[113.677,-7.7675],[113.678,-7.765],[113.6795,-7.757],[113.68,-7.755]]]},"properties":{"code":"35.12.16.2001","name":"Lubawang","latitude":-7.768415335381714,"longitude":113.66187563843326}},{"type":"Feature","geometry":{"type":"Polygon","coordinates":[[[113.6395,-7.7715],[113.639,-7.7585],[113.643,-7.745],[113.647,-7.7395],[113.646,-7.7345],[113.6475,-7.7335],[113.645,-7.735],[113.6455,-7.737],[113.642,-7.7415],[113.6325,-7.7405],[113.633,-7.74],[113.63,-7.74],[113.629,-7.7405],[113.631,-7.756],[113.6215,-7.764],[113.621,-7.7645],[113.62,-7.7665],[113.6115,-7.7835],[113.613,-7.7885],[113.6115,-7.7925],[113.612,-7.794],[113.612,-7.7945],[113.6125,-7.7955],[113.614,-7.7955],[113.6145,-7.795],[113.622,-7.794],[113.6255,-7.7935],[113.634,-7.782],[113.6375,-7.779],[113.6395,-7.7785],[113.6395,-7.7715]]]},"properties":{"code":"35.12.16.2002","name":"Kalisari","latitude":-7.768863849123321,"longitude":113.62892037665563}},{"type":"Feature","geometry":{"type":"Polygon","coordinates":[[[113.6215,-7.764],[113.6155,-7.7685],[113.611,-7.768],[113.6095,-7.767],[113.6075,-7.7665],[113.6005,-7.7755],[113.6005,-7.777],[113.602,-7.7795],[113.602,-7.7835],[113.602,-7.786],[113.6045,-7.797],[113.608,-7.797],[113.6095,-7.7965],[113.6115,-7.796],[113.612,-7.7955],[113.6125,-7.7955],[113.612,-7.7945],[113.612,-7.794],[113.6115,-7.7925],[113.613,-7.7885],[113.6115,-7.7835],[113.62,-7.7665],[113.621,-7.7645],[113.6215,-7.764]]]},"properties":{"code":"35.12.16.2003","name":"Tepos","latitude":-7.778829650283379,"longitude":113.60978125461723}},{"type":"Feature","geometry":{"type":"Polygon","coordinates":[[[113.6165,-7.7495],[113.6145,-7.7495],[113.6115,-7.7485],[113.6025,-7.7395],[113.591,-7.7375],[113.5805,-7.7325],[113.5785,-7.7325],[113.5775,-7.734],[113.5735,-7.739],[113.5725,-7.742],[113.5755,-7.7485],[113.5765,-7.756],[113.5905,-7.7635],[113.5995,-7.7735],[113.6005,-7.7755],[113.6075,-7.7665],[113.612,-7.754],[113.614,-7.751],[113.6145,-7.7505],[113.616,-7.75],[113.6165,-7.7495]]]},"properties":{"code":"35.12.16.2004","name":"Selobanteng","latitude":-7.751189497517965,"longitude":113.59278039070664}},{"type":"Feature","geometry":{"type":"Polygon","coordinates":[[[113.6385,-7.723],[113.619,-7.72],[113.6095,-7.7225],[113.5975,-7.7155],[113.5785,-7.7295],[113.5785,-7.7325],[113.5805,-7.7325],[113.591,-7.7375],[113.6025,-7.7395],[113.6115,-7.7485],[113.6145,-7.7495],[113.6165,-7.7495],[113.618,-7.748],[113.6225,-7.741],[113.63,-7.74],[113.633,-7.74],[113.633,-7.7385],[113.6385,-7.723]]]},"properties":{"code":"35.12.16.2005","name":"Banyuglugur","latitude":-7.7312904520533445,"longitude":113.61076813968783}},{"type":"Feature","geometry":{"type":"Polygon","coordinates":[[[113.6215,-7.764],[113.631,-7.756],[113.629,-7.7405],[113.6225,-7.741],[113.618,-7.748],[113.6165,-7.75],[113.6145,-7.7505],[113.614,-7.751],[113.612,-7.754],[113.6075,-7.7665],[113.6095,-7.767],[113.611,-7.768],[113.6155,-7.7685],[113.6215,-7.764]]]},"properties":{"code":"35.12.16.2006","name":"Telempong","latitude":-7.755264370219172,"longitude":113.61910215246726}},{"type":"Feature","geometry":{"type":"Polygon","coordinates":[[[113.6755,-7.7295],[113.6675,-7.737],[113.656,-7.733],[113.651,-7.725],[113.6385,-7.723],[113.633,-7.7385],[113.6325,-7.7405],[113.642,-7.7415],[113.6455,-7.737],[113.645,-7.735],[113.6475,-7.7335],[113.646,-7.7345],[113.647,-7.7395],[113.643,-7.745],[113.639,-7.7585],[113.6395,-7.7715],[113.658,-7.768],[113.662,-7.7625],[113.6715,-7.759],[113.6735,-7.756],[113.6775,-7.755],[113.68,-7.755],[113.6805,-7.7535],[113.6795,-7.753],[113.684,-7.738],[113.6835,-7.7365],[113.6825,-7.7325],[113.6755,-7.7295]]]},"properties":{"code":"35.12.16.2007","name":"Kalianget","latitude":-7.747352234313594,"longitude":113.65743923462189}},{"type":"Feature","geometry":{"type":"Polygon","coordinates":[[[113.863,-7.762],[113.864,-7.75],[113.849,-7.7235],[113.8445,-7.727],[113.841,-7.729],[113.841,-7.7295],[113.84,-7.736],[113.839,-7.7375],[113.8345,-7.7685],[113.828,-7.776],[113.8295,-7.7765],[113.846,-7.7815],[113.8485,-7.7815],[113.8565,-7.779],[113.863,-7.762]]]},"properties":{"code":"35.12.17.2001","name":"Patemon","latitude":-7.756853138404282,"longitude":113.84838154755386}},{"type":"Feature","geometry":{"type":"Polygon","coordinates":[[[113.828,-7.776],[113.8345,-7.7685],[113.839,-7.7375],[113.836,-7.738],[113.822,-7.7445],[113.812,-7.754],[113.812,-7.7545],[113.8115,-7.756],[113.812,-7.7585],[113.824,-7.769],[113.825,-7.772],[113.8265,-7.7755],[113.828,-7.776]]]},"properties":{"code":"35.12.17.2002","name":"Sumbertengah","latitude":-7.754095660915927,"longitude":113.8266655806172}},{"type":"Feature","geometry":{"type":"Polygon","coordinates":[[[113.812,-7.7545],[113.8115,-7.7545],[113.8055,-7.7515],[113.801,-7.7515],[113.8015,-7.754],[113.8,-7.7565],[113.793,-7.757],[113.7905,-7.758],[113.797,-7.7715],[113.797,-7.772],[113.811,-7.772],[113.825,-7.772],[113.824,-7.769],[113.812,-7.7585],[113.8115,-7.756],[113.812,-7.7545]]]},"properties":{"code":"35.12.17.2003","name":"Selowogo","latitude":-7.763626560557404,"longitude":113.80754164146289}},{"type":"Feature","geometry":{"type":"Polygon","coordinates":[[[113.784,-7.733],[113.7765,-7.7325],[113.775,-7.74],[113.7815,-7.756],[113.7825,-7.7575],[113.7895,-7.7575],[113.7905,-7.7575],[113.7905,-7.758],[113.793,-7.757],[113.8,-7.7565],[113.8015,-7.754],[113.801,-7.7515],[113.8,-7.7515],[113.784,-7.733]]]},"properties":{"code":"35.12.17.2004","name":"Mlandingan Wetan","latitude":-7.746921568926483,"longitude":113.78631803023028}},{"type":"Feature","geometry":{"type":"Polygon","coordinates":[[[113.801,-7.7235],[113.795,-7.728],[113.803,-7.7515],[113.8055,-7.7515],[113.8115,-7.7545],[113.812,-7.754],[113.822,-7.7445],[113.836,-7.738],[113.84,-7.736],[113.8405,-7.735],[113.8395,-7.734],[113.8355,-7.7305],[113.801,-7.7235]]]},"properties":{"code":"35.12.17.2005","name":"Bungatan","latitude":-7.736295954980049,"longitude":113.81441965056055}},{"type":"Feature","geometry":{"type":"Polygon","coordinates":[[[113.803,-7.7515],[113.795,-7.728],[113.784,-7.733],[113.8,-7.7515],[113.803,-7.7515]]]},"properties":{"code":"35.12.17.2006","name":"Bletok","latitude":-7.740209820619059,"longitude":113.79430066552192}},{"type":"Feature","geometry":{"type":"Polygon","coordinates":[[[113.863,-7.7045],[113.8675,-7.6845],[113.84,-7.685],[113.821,-7.6965],[113.801,-7.7235],[113.8355,-7.7305],[113.8405,-7.735],[113.841,-7.7295],[113.841,-7.729],[113.8445,-7.727],[113.8495,-7.723],[113.8605,-7.7185],[113.863,-7.7045]]]},"properties":{"code":"35.12.17.2007","name":"Pasir Putih","latitude":-7.7075440834835565,"longitude":113.83813266882805}}]}