{"type":"FeatureCollection","features":[{"type":"Feature","geometry":{"type":"Polygon","coordinates":[[[112.539,-7.8695],[112.538,-7.8685],[112.5375,-7.87],[112.538,-7.871],[112.539,-7.873],[112.5345,-7.879],[112.527,-7.882],[112.5295,-7.8845],[112.53,-7.887],[112.5305,-7.889],[112.5305,-7.8895],[112.532,-7.889],[112.5345,-7.8875],[112.5415,-7.8895],[112.542,-7.8875],[112.5495,-7.886],[112.552,-7.8865],[112.5525,-7.886],[112.5525,-7.8845],[112.553,-7.883],[112.551,-7.8755],[112.5505,-7.8715],[112.5485,-7.8725],[112.5435,-7.874],[112.5425,-7.8745],[112.541,-7.8745],[112.5405,-7.8735],[112.539,-7.8695]]]},"properties":{"code":"35.79.01.1001","name":"Temas"}},{"type":"Feature","geometry":{"type":"Polygon","coordinates":[[[112.5215,-7.8625],[112.5205,-7.862],[112.5195,-7.862],[112.5195,-7.8625],[112.5185,-7.8625],[112.5185,-7.863],[112.5205,-7.8645],[112.521,-7.866],[112.5215,-7.867],[112.516,-7.868],[112.516,-7.87],[112.514,-7.883],[112.506,-7.8815],[112.5045,-7.883],[112.4955,-7.8975],[112.482,-7.904],[112.483,-7.9055],[112.483,-7.907],[112.482,-7.91],[112.4825,-7.9105],[112.501,-7.9],[112.5025,-7.8995],[112.5195,-7.8885],[112.526,-7.8705],[112.5215,-7.8625]]]},"properties":{"code":"35.79.01.1002","name":"Ngaglik"}},{"type":"Feature","geometry":{"type":"Polygon","coordinates":[[[112.495,-7.8545],[112.4945,-7.854],[112.4875,-7.8655],[112.488,-7.8775],[112.479,-7.8875],[112.4785,-7.889],[112.4835,-7.8905],[112.495,-7.8895],[112.4995,-7.8775],[112.5105,-7.8665],[112.511,-7.8615],[112.51,-7.861],[112.499,-7.858],[112.495,-7.8545]]]},"properties":{"code":"35.79.01.1003","name":"Songgokerto"}},{"type":"Feature","geometry":{"type":"Polygon","coordinates":[[[112.5245,-7.86],[112.52,-7.853],[112.5205,-7.854],[112.5215,-7.8605],[112.5215,-7.8625],[112.526,-7.8705],[112.5195,-7.8885],[112.5025,-7.8995],[112.5045,-7.899],[112.5055,-7.898],[112.507,-7.8975],[112.526,-7.8915],[112.528,-7.8905],[112.5305,-7.8895],[112.5305,-7.889],[112.53,-7.887],[112.5295,-7.8845],[112.527,-7.882],[112.5345,-7.879],[112.539,-7.873],[112.538,-7.871],[112.5375,-7.87],[112.538,-7.8685],[112.5375,-7.868],[112.5335,-7.867],[112.533,-7.8675],[112.5325,-7.867],[112.5325,-7.8665],[112.5325,-7.8655],[112.524,-7.8625],[112.5245,-7.86]]]},"properties":{"code":"35.79.01.1004","name":"Sisir"}},{"type":"Feature","geometry":{"type":"Polygon","coordinates":[[[112.518,-7.846],[112.5175,-7.8455],[112.507,-7.847],[112.5025,-7.856],[112.5005,-7.858],[112.499,-7.858],[112.51,-7.861],[112.5115,-7.8615],[112.513,-7.8615],[112.5175,-7.8615],[112.518,-7.862],[112.5185,-7.8625],[112.5195,-7.8625],[112.5195,-7.862],[112.5205,-7.862],[112.5215,-7.8625],[112.5215,-7.8605],[112.5205,-7.854],[112.52,-7.8525],[112.519,-7.849],[112.5185,-7.848],[112.5185,-7.8475],[112.518,-7.846]]]},"properties":{"code":"35.79.01.2005","name":"Sumberejo"}},{"type":"Feature","geometry":{"type":"Polygon","coordinates":[[[112.5415,-7.8895],[112.5345,-7.8875],[112.532,-7.889],[112.5305,-7.8895],[112.528,-7.8905],[112.526,-7.8915],[112.507,-7.8975],[112.5055,-7.898],[112.5045,-7.899],[112.501,-7.9],[112.4825,-7.9105],[112.4835,-7.9125],[112.482,-7.92],[112.4825,-7.922],[112.484,-7.924],[112.517,-7.9115],[112.5285,-7.914],[112.5305,-7.913],[112.531,-7.9135],[112.5315,-7.9125],[112.5305,-7.9045],[112.531,-7.9015],[112.5335,-7.9005],[112.543,-7.895],[112.544,-7.892],[112.542,-7.889],[112.5415,-7.8895]]]},"properties":{"code":"35.79.01.2006","name":"Oro-oro Ombo"}},{"type":"Feature","geometry":{"type":"Polygon","coordinates":[[[112.5235,-7.841],[112.523,-7.84],[112.5225,-7.841],[112.522,-7.8415],[112.521,-7.8425],[112.5195,-7.848],[112.5195,-7.849],[112.519,-7.849],[112.52,-7.8525],[112.52,-7.853],[112.5245,-7.86],[112.524,-7.8625],[112.5325,-7.8655],[112.5335,-7.8655],[112.5325,-7.865],[112.533,-7.864],[112.533,-7.8635],[112.5335,-7.8635],[112.531,-7.8575],[112.53,-7.855],[112.529,-7.851],[112.529,-7.8485],[112.529,-7.845],[112.5285,-7.844],[112.529,-7.842],[112.529,-7.8415],[112.525,-7.8405],[112.5235,-7.841]]]},"properties":{"code":"35.79.01.2007","name":"Sidomulyo"}},{"type":"Feature","geometry":{"type":"Polygon","coordinates":[[[112.5175,-7.8615],[112.513,-7.8615],[112.5115,-7.8615],[112.511,-7.8615],[112.5105,-7.8665],[112.4995,-7.8775],[112.495,-7.8895],[112.4835,-7.8905],[112.4785,-7.889],[112.4785,-7.8895],[112.4775,-7.893],[112.478,-7.8975],[112.4785,-7.8985],[112.4805,-7.9],[112.482,-7.904],[112.4955,-7.8975],[112.5045,-7.883],[112.506,-7.8815],[112.514,-7.883],[112.516,-7.87],[112.516,-7.868],[112.5215,-7.867],[112.521,-7.866],[112.5205,-7.8645],[112.5185,-7.863],[112.5185,-7.8625],[112.518,-7.862],[112.5175,-7.8615]]]},"properties":{"code":"35.79.01.2008","name":"Pesanggrahan"}},{"type":"Feature","geometry":{"type":"Polygon","coordinates":[[[112.5315,-7.8275],[112.5215,-7.822],[112.5165,-7.8215],[112.5095,-7.823],[112.5115,-7.8255],[112.523,-7.839],[112.5225,-7.8395],[112.523,-7.84],[112.5235,-7.841],[112.525,-7.8405],[112.529,-7.8415],[112.529,-7.8405],[112.5285,-7.84],[112.528,-7.839],[112.529,-7.838],[112.5305,-7.835],[112.529,-7.8335],[112.5295,-7.833],[112.5315,-7.8275]]]},"properties":{"code":"35.79.02.2001","name":"Punten"}},{"type":"Feature","geometry":{"type":"Polygon","coordinates":[[[112.5115,-7.8255],[112.5095,-7.823],[112.5085,-7.823],[112.5065,-7.825],[112.4995,-7.8345],[112.4965,-7.8365],[112.4965,-7.837],[112.4945,-7.854],[112.495,-7.8545],[112.499,-7.858],[112.5005,-7.858],[112.5025,-7.856],[112.507,-7.847],[112.5175,-7.8455],[112.518,-7.846],[112.5185,-7.8475],[112.5185,-7.848],[112.519,-7.849],[112.5195,-7.849],[112.5195,-7.848],[112.521,-7.8425],[112.522,-7.8415],[112.5225,-7.841],[112.5225,-7.8395],[112.523,-7.839],[112.5115,-7.8255]]]},"properties":{"code":"35.79.02.2002","name":"Gunungsari"}},{"type":"Feature","geometry":{"type":"Polygon","coordinates":[[[112.4995,-7.755],[112.4985,-7.7555],[112.4945,-7.762],[112.4895,-7.7655],[112.491,-7.775],[112.4915,-7.785],[112.4935,-7.788],[112.496,-7.7925],[112.498,-7.7965],[112.4975,-7.8055],[112.4995,-7.8155],[112.499,-7.8215],[112.495,-7.825],[112.4935,-7.8285],[112.495,-7.831],[112.4965,-7.8365],[112.4995,-7.8345],[112.5065,-7.825],[112.5085,-7.823],[112.5095,-7.823],[112.5165,-7.8215],[112.5215,-7.822],[112.5315,-7.8275],[112.531,-7.8035],[112.5415,-7.7975],[112.554,-7.7805],[112.5825,-7.76],[112.5765,-7.7605],[112.5375,-7.7765],[112.5355,-7.7765],[112.5105,-7.7695],[112.5,-7.755],[112.4995,-7.755]]]},"properties":{"code":"35.79.02.2003","name":"Tulungrejo"}},{"type":"Feature","geometry":{"type":"Polygon","coordinates":[[[112.588,-7.7605],[112.5875,-7.759],[112.5825,-7.76],[112.554,-7.7805],[112.5415,-7.7975],[112.531,-7.8035],[112.5315,-7.8275],[112.5295,-7.833],[112.529,-7.8335],[112.5305,-7.835],[112.53,-7.8355],[112.5315,-7.837],[112.533,-7.837],[112.5355,-7.8355],[112.536,-7.8325],[112.5445,-7.821],[112.55,-7.805],[112.5635,-7.789],[112.577,-7.7775],[112.5805,-7.7755],[112.583,-7.774],[112.583,-7.773],[112.5835,-7.771],[112.5875,-7.7665],[112.59,-7.765],[112.5895,-7.764],[112.588,-7.7605]]]},"properties":{"code":"35.79.02.2004","name":"Sumbergondo"}},{"type":"Feature","geometry":{"type":"Polygon","coordinates":[[[112.564,-7.8315],[112.5605,-7.8295],[112.5585,-7.8405],[112.5465,-7.861],[112.536,-7.864],[112.533,-7.8635],[112.533,-7.864],[112.5325,-7.865],[112.5335,-7.8655],[112.5325,-7.8665],[112.5325,-7.867],[112.533,-7.8675],[112.5335,-7.867],[112.5375,-7.868],[112.539,-7.8695],[112.5405,-7.8735],[112.541,-7.8745],[112.5425,-7.8745],[112.5435,-7.874],[112.5485,-7.8725],[112.5505,-7.8715],[112.551,-7.8755],[112.5535,-7.8755],[112.555,-7.875],[112.5535,-7.862],[112.5645,-7.8325],[112.564,-7.8315]]]},"properties":{"code":"35.79.02.2005","name":"Pandanrejo"}},{"type":"Feature","geometry":{"type":"Polygon","coordinates":[[[112.5845,-7.7805],[112.584,-7.7795],[112.5645,-7.803],[112.5595,-7.8255],[112.552,-7.8405],[112.5425,-7.8435],[112.541,-7.847],[112.531,-7.8555],[112.531,-7.8575],[112.5335,-7.8635],[112.536,-7.864],[112.5465,-7.861],[112.5585,-7.8405],[112.5605,-7.8295],[112.564,-7.8315],[112.5645,-7.8325],[112.5675,-7.808],[112.58,-7.789],[112.581,-7.786],[112.5815,-7.7845],[112.5845,-7.7815],[112.5845,-7.7805]]]},"properties":{"code":"35.79.02.2006","name":"Bumiaji"}},{"type":"Feature","geometry":{"type":"Polygon","coordinates":[[[112.5795,-7.7935],[112.58,-7.789],[112.5675,-7.808],[112.5645,-7.8325],[112.5535,-7.862],[112.555,-7.875],[112.556,-7.875],[112.5645,-7.882],[112.565,-7.8805],[112.5655,-7.8575],[112.565,-7.857],[112.573,-7.827],[112.5715,-7.8175],[112.5785,-7.8065],[112.5795,-7.7935]]]},"properties":{"code":"35.79.02.2007","name":"Giripurno"}},{"type":"Feature","geometry":{"type":"Polygon","coordinates":[[[112.584,-7.7795],[112.5835,-7.7755],[112.583,-7.774],[112.5805,-7.7755],[112.577,-7.7775],[112.5635,-7.789],[112.55,-7.805],[112.5445,-7.821],[112.536,-7.8325],[112.5355,-7.8355],[112.533,-7.837],[112.5315,-7.837],[112.53,-7.8355],[112.529,-7.838],[112.528,-7.839],[112.5285,-7.84],[112.529,-7.8405],[112.529,-7.842],[112.5285,-7.844],[112.529,-7.845],[112.529,-7.8485],[112.529,-7.851],[112.53,-7.855],[112.531,-7.8555],[112.541,-7.847],[112.5425,-7.8435],[112.552,-7.8405],[112.5595,-7.8255],[112.5645,-7.803],[112.584,-7.7795]]]},"properties":{"code":"35.79.02.2008","name":"Bulukerto"}},{"type":"Feature","geometry":{"type":"Polygon","coordinates":[[[112.575,-7.733],[112.572,-7.734],[112.562,-7.738],[112.5595,-7.7375],[112.5575,-7.737],[112.554,-7.7375],[112.5385,-7.738],[112.533,-7.7365],[112.5315,-7.735],[112.528,-7.735],[112.5155,-7.741],[112.5145,-7.7415],[112.5125,-7.7515],[112.5025,-7.755],[112.5,-7.755],[112.5105,-7.7695],[112.5355,-7.7765],[112.5375,-7.7765],[112.5765,-7.7605],[112.5825,-7.76],[112.5875,-7.759],[112.5875,-7.7575],[112.582,-7.7515],[112.5815,-7.749],[112.579,-7.7435],[112.5785,-7.74],[112.5755,-7.734],[112.575,-7.733]]]},"properties":{"code":"35.79.02.2009","name":"Sumberbrantas"}},{"type":"Feature","geometry":{"type":"Polygon","coordinates":[[[112.5755,-7.903],[112.5745,-7.903],[112.5675,-7.907],[112.5655,-7.9075],[112.5635,-7.913],[112.564,-7.914],[112.569,-7.9135],[112.571,-7.9135],[112.575,-7.918],[112.576,-7.917],[112.5775,-7.9175],[112.578,-7.9175],[112.5785,-7.9175],[112.58,-7.9175],[112.581,-7.9155],[112.5825,-7.9095],[112.581,-7.909],[112.5755,-7.903]]]},"properties":{"code":"35.79.03.1001","name":"Dadaprejo"}},{"type":"Feature","geometry":{"type":"Polygon","coordinates":[[[112.552,-7.8865],[112.5495,-7.886],[112.542,-7.8875],[112.5415,-7.8895],[112.542,-7.889],[112.544,-7.892],[112.543,-7.895],[112.5335,-7.9005],[112.531,-7.9015],[112.5305,-7.9045],[112.532,-7.904],[112.5345,-7.9035],[112.5365,-7.903],[112.536,-7.9045],[112.5375,-7.9055],[112.5375,-7.9045],[112.5435,-7.9015],[112.5445,-7.9],[112.554,-7.899],[112.555,-7.9],[112.5565,-7.8975],[112.557,-7.8985],[112.5595,-7.8945],[112.561,-7.892],[112.5605,-7.8915],[112.56,-7.8905],[112.5585,-7.8895],[112.5525,-7.8865],[112.552,-7.8865]]]},"properties":{"code":"35.79.03.2002","name":"Beji"}},{"type":"Feature","geometry":{"type":"Polygon","coordinates":[[[112.557,-7.8985],[112.5565,-7.8975],[112.555,-7.9],[112.554,-7.899],[112.5445,-7.9],[112.5435,-7.9015],[112.5375,-7.9045],[112.5375,-7.905],[112.538,-7.905],[112.5375,-7.907],[112.5405,-7.9105],[112.5475,-7.912],[112.548,-7.922],[112.549,-7.922],[112.563,-7.9145],[112.5635,-7.913],[112.5655,-7.9075],[112.5625,-7.9075],[112.557,-7.8985]]]},"properties":{"code":"35.79.03.2003","name":"Junrejo"}},{"type":"Feature","geometry":{"type":"Polygon","coordinates":[[[112.536,-7.9045],[112.5365,-7.903],[112.5345,-7.9035],[112.532,-7.904],[112.5305,-7.9045],[112.5315,-7.9125],[112.531,-7.9135],[112.5305,-7.913],[112.5285,-7.914],[112.517,-7.9115],[112.484,-7.924],[112.4745,-7.9395],[112.4825,-7.932],[112.4975,-7.932],[112.501,-7.931],[112.5175,-7.9285],[112.519,-7.928],[112.5205,-7.928],[112.541,-7.9265],[112.5415,-7.9265],[112.5415,-7.923],[112.548,-7.922],[112.5475,-7.912],[112.5405,-7.9105],[112.5375,-7.907],[112.538,-7.905],[112.5375,-7.905],[112.5375,-7.9055],[112.536,-7.9045]]]},"properties":{"code":"35.79.03.2004","name":"Tlekung"}},{"type":"Feature","geometry":{"type":"Polygon","coordinates":[[[112.5615,-7.8935],[112.5595,-7.8945],[112.557,-7.8985],[112.5625,-7.9075],[112.5675,-7.907],[112.5745,-7.903],[112.5745,-7.901],[112.5745,-7.8995],[112.5735,-7.899],[112.5725,-7.8995],[112.5725,-7.8985],[112.563,-7.895],[112.5615,-7.8935]]]},"properties":{"code":"35.79.03.2005","name":"Mojorejo"}},{"type":"Feature","geometry":{"type":"Polygon","coordinates":[[[112.5765,-7.8875],[112.5755,-7.8865],[112.574,-7.888],[112.5735,-7.889],[112.573,-7.897],[112.5725,-7.8995],[112.5735,-7.899],[112.5745,-7.8995],[112.5745,-7.901],[112.5755,-7.903],[112.581,-7.909],[112.5825,-7.9095],[112.5845,-7.9095],[112.591,-7.908],[112.5925,-7.9075],[112.595,-7.906],[112.5955,-7.903],[112.592,-7.8985],[112.5915,-7.8975],[112.591,-7.8975],[112.581,-7.8885],[112.581,-7.8875],[112.5765,-7.8875]]]},"properties":{"code":"35.79.03.2006","name":"Pendem"}},{"type":"Feature","geometry":{"type":"Polygon","coordinates":[[[112.556,-7.875],[112.5535,-7.8755],[112.551,-7.8755],[112.553,-7.883],[112.5525,-7.8845],[112.5525,-7.886],[112.5525,-7.8865],[112.5585,-7.8895],[112.56,-7.8905],[112.5605,-7.8915],[112.561,-7.892],[112.5615,-7.8935],[112.563,-7.895],[112.5725,-7.8985],[112.573,-7.897],[112.5735,-7.889],[112.5725,-7.889],[112.571,-7.888],[112.57,-7.886],[112.567,-7.882],[112.5645,-7.882],[112.556,-7.875]]]},"properties":{"code":"35.79.03.2007","name":"Torongrejo"}}]}