{"type":"FeatureCollection","features":[{"type":"Feature","geometry":{"type":"Polygon","coordinates":[[[112.6495,-7.9165],[112.64,-7.9215],[112.6395,-7.9205],[112.6395,-7.921],[112.64,-7.9215],[112.64,-7.9225],[112.6425,-7.9235],[112.645,-7.9255],[112.6475,-7.925],[112.652,-7.925],[112.663,-7.9305],[112.6625,-7.9285],[112.6495,-7.9165]]]},"properties":{"code":"35.73.01.1001","name":"Balearjosari"}},{"type":"Feature","geometry":{"type":"Polygon","coordinates":[[[112.663,-7.9305],[112.652,-7.925],[112.651,-7.9255],[112.6525,-7.9295],[112.6575,-7.936],[112.6615,-7.937],[112.6645,-7.9355],[112.6635,-7.935],[112.6635,-7.9335],[112.6625,-7.932],[112.663,-7.9315],[112.663,-7.9305]]]},"properties":{"code":"35.73.01.1002","name":"Arjosari"}},{"type":"Feature","geometry":{"type":"Polygon","coordinates":[[[112.651,-7.9255],[112.6475,-7.925],[112.645,-7.9255],[112.6425,-7.9235],[112.6415,-7.923],[112.64,-7.9245],[112.6375,-7.926],[112.6385,-7.927],[112.639,-7.9275],[112.6395,-7.928],[112.6405,-7.929],[112.6435,-7.931],[112.6445,-7.9305],[112.6495,-7.9325],[112.6515,-7.9365],[112.6575,-7.939],[112.659,-7.936],[112.6575,-7.936],[112.6525,-7.9295],[112.651,-7.9255]]]},"properties":{"code":"35.73.01.1003","name":"Polowijen"}},{"type":"Feature","geometry":{"type":"Polygon","coordinates":[[[112.6575,-7.939],[112.6515,-7.9365],[112.6495,-7.9325],[112.6445,-7.9305],[112.6435,-7.931],[112.6405,-7.929],[112.6395,-7.928],[112.6385,-7.9295],[112.638,-7.9305],[112.6395,-7.931],[112.6425,-7.9335],[112.643,-7.934],[112.642,-7.9355],[112.642,-7.9365],[112.641,-7.938],[112.642,-7.9385],[112.6425,-7.939],[112.644,-7.94],[112.644,-7.9405],[112.6465,-7.9415],[112.6505,-7.943],[112.651,-7.9425],[112.6515,-7.941],[112.6555,-7.9425],[112.6575,-7.939]]]},"properties":{"code":"35.73.01.1004","name":"Purwodadi"}},{"type":"Feature","geometry":{"type":"Polygon","coordinates":[[[112.651,-7.9425],[112.6505,-7.943],[112.6465,-7.9415],[112.644,-7.9405],[112.644,-7.94],[112.6425,-7.939],[112.642,-7.9385],[112.641,-7.938],[112.6405,-7.939],[112.638,-7.9415],[112.638,-7.943],[112.64,-7.944],[112.646,-7.9475],[112.6475,-7.9505],[112.6485,-7.9505],[112.6525,-7.945],[112.651,-7.9425]]]},"properties":{"code":"35.73.01.1005","name":"Blimbing"}},{"type":"Feature","geometry":{"type":"Polygon","coordinates":[[[112.6685,-7.947],[112.6645,-7.938],[112.665,-7.9365],[112.6645,-7.9355],[112.6615,-7.937],[112.659,-7.936],[112.6555,-7.9425],[112.6515,-7.941],[112.6525,-7.945],[112.6485,-7.9505],[112.6485,-7.9515],[112.652,-7.9615],[112.6515,-7.9615],[112.6545,-7.9685],[112.6545,-7.9675],[112.656,-7.966],[112.659,-7.964],[112.6635,-7.959],[112.664,-7.9585],[112.6685,-7.947]]]},"properties":{"code":"35.73.01.1006","name":"Pandanwangi"}},{"type":"Feature","geometry":{"type":"Polygon","coordinates":[[[112.6485,-7.9515],[112.6475,-7.9505],[112.646,-7.9475],[112.64,-7.944],[112.638,-7.943],[112.637,-7.945],[112.637,-7.9465],[112.638,-7.9475],[112.638,-7.953],[112.639,-7.953],[112.638,-7.958],[112.6465,-7.959],[112.652,-7.9615],[112.6485,-7.9515]]]},"properties":{"code":"35.73.01.1007","name":"Purwantoro"}},{"type":"Feature","geometry":{"type":"Polygon","coordinates":[[[112.6515,-7.9615],[112.6465,-7.959],[112.638,-7.958],[112.637,-7.9605],[112.6385,-7.967],[112.6425,-7.969],[112.645,-7.972],[112.6505,-7.9745],[112.652,-7.974],[112.654,-7.9715],[112.6545,-7.969],[112.6545,-7.9685],[112.6515,-7.9615]]]},"properties":{"code":"35.73.01.1008","name":"Bunulrejo"}},{"type":"Feature","geometry":{"type":"Polygon","coordinates":[[[112.649,-7.974],[112.645,-7.972],[112.6425,-7.969],[112.6385,-7.967],[112.6385,-7.968],[112.6385,-7.978],[112.638,-7.981],[112.637,-7.9825],[112.6385,-7.9835],[112.64,-7.984],[112.6405,-7.985],[112.6415,-7.9835],[112.649,-7.974]]]},"properties":{"code":"35.73.01.1009","name":"Kesatrian"}},{"type":"Feature","geometry":{"type":"Polygon","coordinates":[[[112.65,-7.9835],[112.652,-7.974],[112.6505,-7.9745],[112.649,-7.974],[112.6415,-7.9835],[112.6415,-7.988],[112.647,-7.9905],[112.6475,-7.99],[112.648,-7.9895],[112.65,-7.987],[112.65,-7.9865],[112.65,-7.9835]]]},"properties":{"code":"35.73.01.1010","name":"Polehan"}},{"type":"Feature","geometry":{"type":"Polygon","coordinates":[[[112.6405,-7.985],[112.64,-7.984],[112.6385,-7.9835],[112.637,-7.9825],[112.6355,-7.987],[112.646,-7.993],[112.6465,-7.992],[112.647,-7.9905],[112.6415,-7.988],[112.6405,-7.985]]]},"properties":{"code":"35.73.01.1011","name":"Jodipan"}},{"type":"Feature","geometry":{"type":"Polygon","coordinates":[[[112.6385,-7.969],[112.6365,-7.9695],[112.6345,-7.968],[112.6335,-7.967],[112.6315,-7.972],[112.63,-7.9745],[112.6295,-7.9765],[112.6315,-7.9765],[112.6365,-7.9775],[112.6385,-7.9775],[112.6385,-7.969]]]},"properties":{"code":"35.73.02.1001","name":"Klojen"}},{"type":"Feature","geometry":{"type":"Polygon","coordinates":[[[112.6385,-7.967],[112.637,-7.9605],[112.635,-7.9645],[112.63,-7.962],[112.6295,-7.9635],[112.634,-7.966],[112.6335,-7.967],[112.6345,-7.968],[112.6365,-7.9695],[112.6385,-7.969],[112.6385,-7.967]]]},"properties":{"code":"35.73.02.1002","name":"Rampalcelaket"}},{"type":"Feature","geometry":{"type":"Polygon","coordinates":[[[112.625,-7.9565],[112.6265,-7.962],[112.6275,-7.9625],[112.6285,-7.9645],[112.631,-7.9685],[112.63,-7.972],[112.6305,-7.973],[112.633,-7.9675],[112.634,-7.966],[112.6295,-7.9635],[112.63,-7.962],[112.6305,-7.962],[112.626,-7.9575],[112.625,-7.9565]]]},"properties":{"code":"35.73.02.1003","name":"Samaan"}},{"type":"Feature","geometry":{"type":"Polygon","coordinates":[[[112.6385,-7.9775],[112.6365,-7.9775],[112.634,-7.977],[112.6325,-7.979],[112.631,-7.98],[112.63,-7.983],[112.634,-7.9845],[112.637,-7.983],[112.638,-7.981],[112.6385,-7.9775]]]},"properties":{"code":"35.73.02.1004","name":"Kiduldalem"}},{"type":"Feature","geometry":{"type":"Polygon","coordinates":[[[112.637,-7.983],[112.634,-7.9845],[112.6315,-7.9835],[112.6305,-7.9875],[112.629,-7.991],[112.6335,-7.9935],[112.6345,-7.991],[112.637,-7.983]]]},"properties":{"code":"35.73.02.1005","name":"Sukoharjo"}},{"type":"Feature","geometry":{"type":"Polygon","coordinates":[[[112.631,-7.985],[112.6235,-7.9835],[112.6225,-7.985],[112.6235,-7.9995],[112.6255,-7.9995],[112.626,-7.996],[112.626,-7.9955],[112.6265,-7.996],[112.629,-7.991],[112.6305,-7.9875],[112.631,-7.985]]]},"properties":{"code":"35.73.02.1006","name":"Kasin"}},{"type":"Feature","geometry":{"type":"Polygon","coordinates":[[[112.6295,-7.9765],[112.628,-7.9765],[112.627,-7.976],[112.625,-7.974],[112.6235,-7.973],[112.6235,-7.974],[112.622,-7.9765],[112.626,-7.98],[112.6245,-7.9805],[112.6225,-7.9835],[112.6245,-7.9835],[112.631,-7.985],[112.6315,-7.9835],[112.63,-7.983],[112.631,-7.98],[112.6325,-7.979],[112.634,-7.977],[112.6315,-7.9765],[112.6295,-7.9765]]]},"properties":{"code":"35.73.02.1007","name":"Kauman"}},{"type":"Feature","geometry":{"type":"Polygon","coordinates":[[[112.6305,-7.973],[112.63,-7.972],[112.631,-7.9685],[112.6285,-7.9645],[112.6275,-7.9625],[112.6265,-7.962],[112.6235,-7.963],[112.621,-7.9645],[112.6195,-7.9665],[112.6215,-7.9725],[112.624,-7.9735],[112.6255,-7.9745],[112.6265,-7.9755],[112.628,-7.9765],[112.6295,-7.9765],[112.63,-7.9745],[112.6305,-7.973]]]},"properties":{"code":"35.73.02.1008","name":"Oro-oro Dowo"}},{"type":"Feature","geometry":{"type":"Polygon","coordinates":[[[112.622,-7.9765],[112.613,-7.973],[112.6125,-7.9765],[112.6145,-7.9835],[112.622,-7.983],[112.6225,-7.9835],[112.6245,-7.9805],[112.626,-7.98],[112.622,-7.9765]]]},"properties":{"code":"35.73.02.1009","name":"Bareng"}},{"type":"Feature","geometry":{"type":"Polygon","coordinates":[[[112.6195,-7.9665],[112.6135,-7.964],[112.613,-7.9675],[112.613,-7.9705],[112.6125,-7.9715],[112.613,-7.973],[112.622,-7.9765],[112.6235,-7.974],[112.6235,-7.973],[112.6215,-7.9725],[112.6195,-7.9665]]]},"properties":{"code":"35.73.02.1010","name":"Gading Kasri"}},{"type":"Feature","geometry":{"type":"Polygon","coordinates":[[[112.625,-7.9565],[112.6175,-7.951],[112.616,-7.9505],[112.616,-7.956],[112.6195,-7.958],[112.622,-7.9635],[112.6235,-7.963],[112.6265,-7.962],[112.625,-7.9565]]]},"properties":{"code":"35.73.02.1011","name":"Penanggungan"}},{"type":"Feature","geometry":{"type":"Polygon","coordinates":[[[112.646,-7.993],[112.6355,-7.987],[112.6345,-7.991],[112.6335,-7.994],[112.6375,-7.994],[112.638,-7.9945],[112.637,-7.996],[112.6375,-7.9975],[112.637,-7.9965],[112.639,-7.997],[112.64,-7.9975],[112.642,-7.9965],[112.6435,-7.9965],[112.6445,-7.996],[112.645,-7.995],[112.646,-7.9945],[112.646,-7.993]]]},"properties":{"code":"35.73.03.1001","name":"Kotalama"}},{"type":"Feature","geometry":{"type":"Polygon","coordinates":[[[112.6375,-7.9975],[112.637,-7.996],[112.638,-7.9945],[112.6375,-7.994],[112.6335,-7.994],[112.632,-7.9985],[112.6305,-8.0035],[112.631,-8.0035],[112.6315,-8.0045],[112.633,-8.0045],[112.6335,-8.004],[112.636,-8.002],[112.6375,-7.9975]]]},"properties":{"code":"35.73.03.1002","name":"Mergosono"}},{"type":"Feature","geometry":{"type":"Polygon","coordinates":[[[112.6435,-8.0135],[112.638,-8.0115],[112.637,-8.0015],[112.636,-8.002],[112.6335,-8.004],[112.633,-8.0045],[112.6315,-8.0055],[112.631,-8.0065],[112.6315,-8.0095],[112.6305,-8.027],[112.6295,-8.03],[112.629,-8.032],[112.6315,-8.0315],[112.634,-8.0315],[112.6425,-8.032],[112.6425,-8.0325],[112.644,-8.033],[112.6445,-8.0315],[112.6425,-8.031],[112.6435,-8.0135]]]},"properties":{"code":"35.73.03.1003","name":"Bumiayu"}},{"type":"Feature","geometry":{"type":"Polygon","coordinates":[[[112.6555,-8.0145],[112.6505,-8.013],[112.645,-8.011],[112.645,-8.014],[112.6435,-8.0135],[112.6425,-8.031],[112.646,-8.032],[112.646,-8.0325],[112.655,-8.034],[112.6745,-8.0245],[112.6735,-8.0235],[112.6725,-8.023],[112.6725,-8.022],[112.6555,-8.0145]]]},"properties":{"code":"35.73.03.1004","name":"Wonokoyo"}},{"type":"Feature","geometry":{"type":"Polygon","coordinates":[[[112.672,-8.009],[112.6675,-8.008],[112.6575,-8.002],[112.654,-8],[112.647,-7.996],[112.647,-7.9955],[112.646,-7.9945],[112.645,-7.995],[112.6445,-7.996],[112.6435,-7.9965],[112.642,-7.9965],[112.64,-7.9975],[112.639,-7.997],[112.637,-7.9965],[112.6375,-7.9975],[112.637,-8.0015],[112.638,-8.0115],[112.645,-8.014],[112.645,-8.011],[112.6505,-8.013],[112.6555,-8.0145],[112.6725,-8.022],[112.6735,-8.0175],[112.672,-8.009]]]},"properties":{"code":"35.73.03.1005","name":"Buring"}},{"type":"Feature","geometry":{"type":"Polygon","coordinates":[[[112.652,-7.9845],[112.65,-7.9835],[112.65,-7.9865],[112.65,-7.987],[112.648,-7.9895],[112.6475,-7.99],[112.6465,-7.992],[112.646,-7.993],[112.646,-7.9945],[112.647,-7.9955],[112.647,-7.996],[112.654,-8],[112.6575,-8.002],[112.6675,-8.008],[112.672,-8.009],[112.652,-7.9845]]]},"properties":{"code":"35.73.03.1006","name":"Kedungkandang"}},{"type":"Feature","geometry":{"type":"Polygon","coordinates":[[[112.6765,-8.0065],[112.6755,-7.995],[112.6625,-7.983],[112.6625,-7.979],[112.6665,-7.974],[112.6645,-7.973],[112.6625,-7.976],[112.652,-7.9845],[112.672,-8.009],[112.679,-8.0105],[112.679,-8.007],[112.6765,-8.0065]]]},"properties":{"code":"35.73.03.1007","name":"Lesanpuro"}},{"type":"Feature","geometry":{"type":"Polygon","coordinates":[[[112.6655,-7.971],[112.664,-7.9715],[112.664,-7.969],[112.6635,-7.9685],[112.661,-7.967],[112.661,-7.966],[112.6605,-7.9665],[112.6575,-7.965],[112.656,-7.966],[112.6545,-7.9675],[112.6545,-7.969],[112.654,-7.9715],[112.652,-7.974],[112.65,-7.9835],[112.652,-7.9845],[112.6625,-7.976],[112.6655,-7.971]]]},"properties":{"code":"35.73.03.1008","name":"Sawojajar"}},{"type":"Feature","geometry":{"type":"Polygon","coordinates":[[[112.679,-7.9765],[112.6705,-7.97],[112.668,-7.969],[112.6675,-7.97],[112.6665,-7.9705],[112.6655,-7.971],[112.6645,-7.973],[112.6665,-7.974],[112.6625,-7.979],[112.6625,-7.983],[112.6755,-7.995],[112.6765,-8.0065],[112.6785,-7.989],[112.673,-7.9795],[112.6735,-7.978],[112.6765,-7.977],[112.679,-7.9765]]]},"properties":{"code":"35.73.03.1009","name":"Madyopuro"}},{"type":"Feature","geometry":{"type":"Polygon","coordinates":[[[112.69,-7.9755],[112.679,-7.9765],[112.6765,-7.977],[112.6735,-7.978],[112.673,-7.9795],[112.6785,-7.989],[112.6765,-8.0065],[112.679,-8.006],[112.681,-8.005],[112.683,-8.0055],[112.6845,-8.0025],[112.6865,-7.999],[112.6875,-7.998],[112.6885,-7.997],[112.692,-7.9865],[112.694,-7.9815],[112.6905,-7.98],[112.6905,-7.9765],[112.69,-7.9755]]]},"properties":{"code":"35.73.03.1010","name":"Cemorokandang"}},{"type":"Feature","geometry":{"type":"Polygon","coordinates":[[[112.6425,-8.0325],[112.6425,-8.032],[112.634,-8.0315],[112.6315,-8.0315],[112.629,-8.032],[112.6295,-8.034],[112.631,-8.0415],[112.6315,-8.046],[112.645,-8.0485],[112.6455,-8.047],[112.6425,-8.0325]]]},"properties":{"code":"35.73.03.1011","name":"Arjowinangun"}},{"type":"Feature","geometry":{"type":"Polygon","coordinates":[[[112.677,-8.0255],[112.6745,-8.0245],[112.655,-8.034],[112.646,-8.0325],[112.646,-8.032],[112.6445,-8.0315],[112.644,-8.033],[112.6425,-8.0325],[112.6455,-8.047],[112.6455,-8.048],[112.6455,-8.0515],[112.6545,-8.049],[112.6745,-8.029],[112.677,-8.0255]]]},"properties":{"code":"35.73.03.1012","name":"Tlogowaru"}},{"type":"Feature","geometry":{"type":"Polygon","coordinates":[[[112.6335,-7.9935],[112.629,-7.991],[112.6265,-7.996],[112.626,-7.9955],[112.6255,-7.998],[112.6275,-8.002],[112.626,-8.0075],[112.6265,-8.0075],[112.63,-8.006],[112.6305,-8.0045],[112.632,-7.9985],[112.6335,-7.9935]]]},"properties":{"code":"35.73.04.1001","name":"Ciptomulyo"}},{"type":"Feature","geometry":{"type":"Polygon","coordinates":[[[112.6315,-8.0045],[112.631,-8.0035],[112.6305,-8.0035],[112.63,-8.006],[112.6265,-8.0075],[112.6255,-8.007],[112.625,-8.0085],[112.624,-8.009],[112.623,-8.014],[112.623,-8.0155],[112.63,-8.028],[112.6305,-8.027],[112.6315,-8.0095],[112.631,-8.0065],[112.6315,-8.0055],[112.6315,-8.0045]]]},"properties":{"code":"35.73.04.1002","name":"Gadang"}},{"type":"Feature","geometry":{"type":"Polygon","coordinates":[[[112.623,-8.014],[112.619,-8.0145],[112.618,-8.014],[112.6135,-8.02],[112.6145,-8.021],[112.6185,-8.023],[112.6215,-8.029],[112.622,-8.0285],[112.6225,-8.0285],[112.6295,-8.034],[112.629,-8.032],[112.6295,-8.03],[112.63,-8.028],[112.623,-8.0155],[112.623,-8.014]]]},"properties":{"code":"35.73.04.1003","name":"Kebonsari"}},{"type":"Feature","geometry":{"type":"Polygon","coordinates":[[[112.612,-7.9955],[112.607,-7.9945],[112.605,-7.993],[112.6035,-7.997],[112.6055,-8.0005],[112.606,-8.002],[112.615,-8.007],[112.6155,-8.0075],[112.615,-8.008],[112.6145,-8.009],[112.616,-8.0095],[112.6185,-8.0125],[112.618,-8.014],[112.619,-8.0145],[112.623,-8.014],[112.624,-8.009],[112.625,-8.0085],[112.6255,-8.007],[112.626,-8.0075],[112.6275,-8.002],[112.6255,-7.998],[112.6255,-7.9995],[112.6235,-7.9995],[112.624,-8],[112.618,-7.9985],[112.617,-7.997],[112.6155,-7.9965],[112.615,-7.996],[112.6145,-7.9965],[112.6135,-7.9955],[112.612,-7.9955]]]},"properties":{"code":"35.73.04.1004","name":"Bandungrejosari"}},{"type":"Feature","geometry":{"type":"Polygon","coordinates":[[[112.6225,-7.985],[112.616,-7.9955],[112.616,-7.996],[112.615,-7.996],[112.6155,-7.9965],[112.617,-7.997],[112.618,-7.9985],[112.624,-8],[112.6235,-7.9995],[112.6225,-7.985]]]},"properties":{"code":"35.73.04.1005","name":"Sukun"}},{"type":"Feature","geometry":{"type":"Polygon","coordinates":[[[112.6225,-7.9835],[112.622,-7.983],[112.6115,-7.984],[112.611,-7.986],[112.6105,-7.9875],[112.6105,-7.9915],[112.612,-7.995],[112.6135,-7.9955],[112.6145,-7.9965],[112.615,-7.996],[112.616,-7.996],[112.616,-7.9955],[112.6225,-7.985],[112.6235,-7.9835],[112.6225,-7.9835]]]},"properties":{"code":"35.73.04.1006","name":"Tanjungrejo"}},{"type":"Feature","geometry":{"type":"Polygon","coordinates":[[[112.6125,-7.9715],[112.612,-7.971],[112.6115,-7.9705],[112.61,-7.9695],[112.606,-7.969],[112.6065,-7.965],[112.6045,-7.9635],[112.6,-7.965],[112.6005,-7.966],[112.6035,-7.9705],[112.6015,-7.972],[112.596,-7.973],[112.595,-7.9735],[112.596,-7.9735],[112.6005,-7.9755],[112.6085,-7.977],[112.609,-7.9785],[112.61,-7.98],[112.611,-7.982],[112.6115,-7.984],[112.6145,-7.9835],[112.6125,-7.9765],[112.6125,-7.9715]]]},"properties":{"code":"35.73.04.1007","name":"Pisangcandi"}},{"type":"Feature","geometry":{"type":"Polygon","coordinates":[[[112.595,-7.9735],[112.5945,-7.9735],[112.593,-7.973],[112.592,-7.973],[112.591,-7.974],[112.591,-7.976],[112.5965,-7.9785],[112.5985,-7.9795],[112.6055,-7.991],[112.605,-7.993],[112.607,-7.9945],[112.612,-7.9955],[112.612,-7.995],[112.6105,-7.9915],[112.6105,-7.9875],[112.611,-7.986],[112.6115,-7.984],[112.611,-7.982],[112.61,-7.98],[112.609,-7.9785],[112.6085,-7.977],[112.6005,-7.9755],[112.596,-7.9735],[112.595,-7.9735]]]},"properties":{"code":"35.73.04.1008","name":"Bandulan"}},{"type":"Feature","geometry":{"type":"Polygon","coordinates":[[[112.6035,-7.95],[112.6015,-7.951],[112.5995,-7.9505],[112.59,-7.947],[112.5815,-7.945],[112.582,-7.945],[112.5815,-7.947],[112.5815,-7.9495],[112.598,-7.9625],[112.598,-7.963],[112.599,-7.965],[112.6,-7.965],[112.6045,-7.9635],[112.6065,-7.965],[112.606,-7.969],[112.61,-7.9695],[112.6115,-7.9705],[112.612,-7.971],[112.6125,-7.9715],[112.613,-7.9705],[112.613,-7.9675],[112.613,-7.9635],[112.6095,-7.9615],[112.6085,-7.9605],[112.608,-7.954],[112.607,-7.954],[112.6035,-7.954],[112.6035,-7.95]]]},"properties":{"code":"35.73.04.1009","name":"Karangbesuki"}},{"type":"Feature","geometry":{"type":"Polygon","coordinates":[[[112.5975,-7.979],[112.5935,-7.9835],[112.5775,-7.982],[112.577,-7.9835],[112.5765,-7.9835],[112.5805,-7.9865],[112.582,-7.9865],[112.5835,-7.9865],[112.5835,-7.987],[112.586,-7.987],[112.5865,-7.9865],[112.5885,-7.985],[112.589,-7.9925],[112.59,-7.9925],[112.5905,-7.9925],[112.5925,-7.9935],[112.593,-7.9935],[112.5955,-7.994],[112.5965,-7.995],[112.5975,-7.9955],[112.6,-7.9955],[112.601,-7.9955],[112.6015,-7.9955],[112.601,-7.996],[112.6015,-7.9965],[112.602,-7.9965],[112.6025,-7.997],[112.6035,-7.997],[112.605,-7.993],[112.6055,-7.991],[112.5985,-7.9795],[112.5975,-7.979]]]},"properties":{"code":"35.73.04.1010","name":"Mulyorejo"}},{"type":"Feature","geometry":{"type":"Polygon","coordinates":[[[112.6035,-7.997],[112.6025,-7.997],[112.602,-7.9965],[112.6015,-7.9965],[112.601,-7.996],[112.6,-7.9985],[112.5975,-8.006],[112.6065,-8.0135],[112.61,-8.014],[112.6135,-8.011],[112.615,-8.008],[112.6155,-8.0075],[112.615,-8.007],[112.606,-8.002],[112.6055,-8.0005],[112.6035,-7.997]]]},"properties":{"code":"35.73.04.1011","name":"Bakalankrajan"}},{"type":"Feature","geometry":{"type":"Polygon","coordinates":[[[112.6195,-7.923],[112.6185,-7.922],[112.6155,-7.921],[112.611,-7.92],[112.611,-7.9205],[112.601,-7.9235],[112.6015,-7.924],[112.602,-7.924],[112.603,-7.9255],[112.6055,-7.93],[112.6075,-7.9325],[112.612,-7.9285],[112.613,-7.932],[112.613,-7.9345],[112.614,-7.935],[112.617,-7.9335],[112.6225,-7.9285],[112.6215,-7.928],[112.619,-7.9255],[112.6195,-7.923]]]},"properties":{"code":"35.73.05.1001","name":"Tunggulwulung"}},{"type":"Feature","geometry":{"type":"Polygon","coordinates":[[[112.5855,-7.9365],[112.5705,-7.936],[112.58,-7.9435],[112.581,-7.9445],[112.5815,-7.945],[112.59,-7.947],[112.5995,-7.9505],[112.6015,-7.951],[112.6045,-7.949],[112.605,-7.948],[112.607,-7.9445],[112.6065,-7.944],[112.607,-7.942],[112.606,-7.9385],[112.605,-7.937],[112.6045,-7.9375],[112.598,-7.9415],[112.5855,-7.9365]]]},"properties":{"code":"35.73.05.1002","name":"Merjosari"}},{"type":"Feature","geometry":{"type":"Polygon","coordinates":[[[112.601,-7.9235],[112.601,-7.924],[112.592,-7.9175],[112.5915,-7.918],[112.592,-7.9185],[112.594,-7.92],[112.5935,-7.9235],[112.596,-7.9235],[112.5975,-7.9235],[112.6,-7.9265],[112.5995,-7.928],[112.599,-7.9295],[112.599,-7.9305],[112.599,-7.9365],[112.5975,-7.9375],[112.588,-7.9365],[112.5855,-7.9365],[112.598,-7.9415],[112.6045,-7.9375],[112.605,-7.937],[112.605,-7.9365],[112.608,-7.9335],[112.6055,-7.93],[112.603,-7.9255],[112.602,-7.924],[112.6015,-7.924],[112.601,-7.9235]]]},"properties":{"code":"35.73.05.1003","name":"Tlogomas"}},{"type":"Feature","geometry":{"type":"Polygon","coordinates":[[[112.614,-7.947],[112.614,-7.946],[112.614,-7.9445],[112.612,-7.9405],[112.6115,-7.9395],[112.6095,-7.9365],[112.608,-7.9335],[112.605,-7.9365],[112.606,-7.9385],[112.607,-7.942],[112.6065,-7.944],[112.607,-7.9445],[112.605,-7.948],[112.6045,-7.949],[112.6035,-7.95],[112.6035,-7.954],[112.607,-7.954],[112.608,-7.954],[112.608,-7.951],[112.6085,-7.9505],[112.6085,-7.9475],[112.609,-7.947],[112.614,-7.947]]]},"properties":{"code":"35.73.05.1004","name":"Dinoyo"}},{"type":"Feature","geometry":{"type":"Polygon","coordinates":[[[112.616,-7.956],[112.6155,-7.957],[112.6145,-7.957],[112.613,-7.9565],[112.6105,-7.9535],[112.6085,-7.951],[112.608,-7.951],[112.608,-7.954],[112.6085,-7.9605],[112.6095,-7.9615],[112.613,-7.9635],[112.6135,-7.964],[112.6195,-7.9665],[112.621,-7.9645],[112.622,-7.9635],[112.6195,-7.958],[112.616,-7.956]]]},"properties":{"code":"35.73.05.1005","name":"Sumbersari"}},{"type":"Feature","geometry":{"type":"Polygon","coordinates":[[[112.614,-7.947],[112.609,-7.947],[112.6085,-7.9475],[112.6085,-7.9505],[112.6085,-7.951],[112.6105,-7.9535],[112.613,-7.9565],[112.6145,-7.957],[112.6155,-7.957],[112.616,-7.956],[112.616,-7.9505],[112.616,-7.9495],[112.615,-7.9475],[112.614,-7.947]]]},"properties":{"code":"35.73.05.1006","name":"Ketawanggede"}},{"type":"Feature","geometry":{"type":"Polygon","coordinates":[[[112.613,-7.9345],[112.613,-7.932],[112.612,-7.9285],[112.6075,-7.9325],[112.6095,-7.9365],[112.6115,-7.9395],[112.612,-7.9405],[112.614,-7.9445],[112.614,-7.946],[112.615,-7.9475],[112.616,-7.9495],[112.6175,-7.951],[112.625,-7.9565],[112.625,-7.956],[112.6325,-7.952],[112.633,-7.9515],[112.6325,-7.951],[112.632,-7.949],[112.6305,-7.9485],[112.6285,-7.9475],[112.627,-7.947],[112.6255,-7.9465],[112.6235,-7.943],[112.6225,-7.9415],[112.6215,-7.9405],[112.6125,-7.9355],[112.613,-7.9345]]]},"properties":{"code":"35.73.05.1007","name":"Jatimulyo"}},{"type":"Feature","geometry":{"type":"Polygon","coordinates":[[[112.6395,-7.9235],[112.6365,-7.9225],[112.6355,-7.922],[112.6315,-7.926],[112.6235,-7.925],[112.6215,-7.9235],[112.6195,-7.923],[112.619,-7.9255],[112.6215,-7.928],[112.627,-7.9285],[112.628,-7.93],[112.6305,-7.9305],[112.6325,-7.932],[112.642,-7.936],[112.642,-7.9355],[112.643,-7.934],[112.6425,-7.9335],[112.6395,-7.931],[112.638,-7.9305],[112.6385,-7.9295],[112.6395,-7.928],[112.639,-7.9275],[112.6385,-7.9265],[112.6375,-7.926],[112.64,-7.9245],[112.6395,-7.9235]]]},"properties":{"code":"35.73.05.1008","name":"Tunjungsekar"}},{"type":"Feature","geometry":{"type":"Polygon","coordinates":[[[112.642,-7.936],[112.6325,-7.932],[112.6305,-7.9305],[112.628,-7.93],[112.627,-7.9285],[112.6225,-7.9285],[112.617,-7.9335],[112.614,-7.935],[112.613,-7.9345],[112.6125,-7.9355],[112.6215,-7.9405],[112.6225,-7.9415],[112.623,-7.9425],[112.637,-7.9465],[112.637,-7.945],[112.638,-7.9415],[112.6405,-7.939],[112.642,-7.9365],[112.642,-7.936]]]},"properties":{"code":"35.73.05.1009","name":"Mojolangu"}},{"type":"Feature","geometry":{"type":"Polygon","coordinates":[[[112.637,-7.9465],[112.623,-7.9425],[112.6235,-7.943],[112.6255,-7.9465],[112.627,-7.947],[112.6285,-7.9475],[112.6305,-7.9485],[112.632,-7.949],[112.6325,-7.951],[112.633,-7.9515],[112.6325,-7.952],[112.638,-7.953],[112.638,-7.9475],[112.637,-7.9465]]]},"properties":{"code":"35.73.05.1010","name":"Tulusrejo"}},{"type":"Feature","geometry":{"type":"Polygon","coordinates":[[[112.6325,-7.952],[112.625,-7.956],[112.626,-7.9575],[112.6305,-7.962],[112.635,-7.9645],[112.639,-7.953],[112.638,-7.953],[112.6325,-7.952]]]},"properties":{"code":"35.73.05.1011","name":"Lowokwaru"}},{"type":"Feature","geometry":{"type":"Polygon","coordinates":[[[112.6395,-7.9205],[112.638,-7.9195],[112.63,-7.911],[112.6175,-7.9195],[112.6165,-7.9195],[112.6135,-7.919],[112.612,-7.918],[112.61,-7.9175],[112.61,-7.918],[112.611,-7.92],[112.6155,-7.921],[112.6185,-7.922],[112.6195,-7.923],[112.6215,-7.9235],[112.6235,-7.925],[112.6315,-7.926],[112.6355,-7.922],[112.6365,-7.9225],[112.6395,-7.9235],[112.6415,-7.923],[112.64,-7.9225],[112.64,-7.9215],[112.6395,-7.921],[112.6395,-7.9205]]]},"properties":{"code":"35.73.05.1012","name":"Tasik Madu"}}]}