{"type":"FeatureCollection","features":[{"type":"Feature","geometry":{"type":"Polygon","coordinates":[[[106.6345,-6.1675],[106.6335,-6.168],[106.6315,-6.169],[106.6285,-6.169],[106.628,-6.17],[106.629,-6.1755],[106.6285,-6.177],[106.628,-6.178],[106.6295,-6.178],[106.6295,-6.1775],[106.633,-6.178],[106.6345,-6.1775],[106.636,-6.1675],[106.6345,-6.1675]]]},"properties":{"code":"36.71.01.1001","name":"Sukarasa"}},{"type":"Feature","geometry":{"type":"Polygon","coordinates":[[[106.642,-6.176],[106.6415,-6.173],[106.643,-6.168],[106.643,-6.1665],[106.636,-6.1675],[106.6345,-6.1775],[106.6375,-6.177],[106.6385,-6.1785],[106.639,-6.177],[106.642,-6.176]]]},"properties":{"code":"36.71.01.1002","name":"Sukaasih"}},{"type":"Feature","geometry":{"type":"Polygon","coordinates":[[[106.662,-6.1795],[106.661,-6.1795],[106.6585,-6.1765],[106.6585,-6.176],[106.66,-6.176],[106.6605,-6.17],[106.66,-6.1675],[106.661,-6.167],[106.6595,-6.1655],[106.6595,-6.164],[106.658,-6.164],[106.657,-6.164],[106.654,-6.1645],[106.643,-6.1665],[106.643,-6.168],[106.6415,-6.173],[106.642,-6.1765],[106.656,-6.1785],[106.662,-6.183],[106.6625,-6.1825],[106.662,-6.18],[106.662,-6.1795]]]},"properties":{"code":"36.71.01.1003","name":"Tanah Tinggi"}},{"type":"Feature","geometry":{"type":"Polygon","coordinates":[[[106.6605,-6.183],[106.656,-6.1785],[106.642,-6.1765],[106.642,-6.176],[106.642,-6.1765],[106.639,-6.177],[106.6385,-6.1785],[106.645,-6.181],[106.645,-6.184],[106.645,-6.185],[106.645,-6.1865],[106.6455,-6.187],[106.647,-6.1865],[106.648,-6.1865],[106.655,-6.186],[106.6605,-6.183]]]},"properties":{"code":"36.71.01.1004","name":"Buaran Indah"}},{"type":"Feature","geometry":{"type":"Polygon","coordinates":[[[106.6305,-6.196],[106.626,-6.196],[106.6235,-6.2105],[106.623,-6.211],[106.6235,-6.2135],[106.6245,-6.214],[106.627,-6.2155],[106.6465,-6.214],[106.6475,-6.214],[106.647,-6.2125],[106.6465,-6.212],[106.6465,-6.2085],[106.6465,-6.2075],[106.6455,-6.208],[106.6445,-6.208],[106.644,-6.2085],[106.6425,-6.2085],[106.6385,-6.2085],[106.636,-6.2065],[106.6305,-6.196]]]},"properties":{"code":"36.71.01.1005","name":"Cikokol"}},{"type":"Feature","geometry":{"type":"Polygon","coordinates":[[[106.648,-6.1865],[106.647,-6.1865],[106.644,-6.1915],[106.636,-6.197],[106.632,-6.196],[106.6305,-6.196],[106.636,-6.2065],[106.6385,-6.2085],[106.6425,-6.2085],[106.644,-6.2085],[106.6445,-6.208],[106.646,-6.2075],[106.6465,-6.2075],[106.646,-6.207],[106.6485,-6.205],[106.6475,-6.204],[106.6475,-6.197],[106.6485,-6.195],[106.6495,-6.1945],[106.649,-6.189],[106.648,-6.1865]]]},"properties":{"code":"36.71.01.1006","name":"Kelapa Indah"}},{"type":"Feature","geometry":{"type":"Polygon","coordinates":[[[106.6385,-6.1785],[106.6375,-6.177],[106.633,-6.178],[106.6295,-6.1775],[106.6295,-6.178],[106.628,-6.178],[106.628,-6.1785],[106.6285,-6.18],[106.63,-6.1835],[106.63,-6.186],[106.631,-6.1875],[106.6315,-6.1875],[106.6435,-6.185],[106.645,-6.185],[106.645,-6.184],[106.645,-6.181],[106.6385,-6.1785]]]},"properties":{"code":"36.71.01.1007","name":"Sukasari"}},{"type":"Feature","geometry":{"type":"Polygon","coordinates":[[[106.6455,-6.187],[106.645,-6.1865],[106.645,-6.185],[106.6435,-6.185],[106.6315,-6.1875],[106.632,-6.191],[106.626,-6.196],[106.632,-6.196],[106.636,-6.197],[106.644,-6.1915],[106.6455,-6.187]]]},"properties":{"code":"36.71.01.1008","name":"Babakan"}},{"type":"Feature","geometry":{"type":"Polygon","coordinates":[[[106.5915,-6.186],[106.586,-6.181],[106.5855,-6.1755],[106.5845,-6.175],[106.5835,-6.1755],[106.583,-6.177],[106.583,-6.179],[106.5825,-6.18],[106.5815,-6.181],[106.582,-6.1885],[106.582,-6.191],[106.5815,-6.1925],[106.58,-6.1935],[106.5795,-6.194],[106.5785,-6.1955],[106.5785,-6.196],[106.5785,-6.1965],[106.579,-6.1965],[106.5785,-6.1975],[106.579,-6.198],[106.583,-6.197],[106.587,-6.1935],[106.5895,-6.191],[106.5905,-6.1905],[106.5895,-6.19],[106.5915,-6.186]]]},"properties":{"code":"36.71.02.1001","name":"Keroncong"}},{"type":"Feature","geometry":{"type":"Polygon","coordinates":[[[106.5785,-6.196],[106.577,-6.196],[106.5765,-6.197],[106.5735,-6.1965],[106.571,-6.1965],[106.5715,-6.1985],[106.567,-6.205],[106.569,-6.2065],[106.5715,-6.2045],[106.5735,-6.2035],[106.5745,-6.2035],[106.577,-6.206],[106.5775,-6.2055],[106.5775,-6.206],[106.578,-6.2055],[106.5785,-6.204],[106.579,-6.203],[106.579,-6.2015],[106.58,-6.199],[106.5795,-6.199],[106.5795,-6.198],[106.579,-6.198],[106.5785,-6.1975],[106.579,-6.1965],[106.5785,-6.196]]]},"properties":{"code":"36.71.02.1002","name":"Jatake"}},{"type":"Feature","geometry":{"type":"Polygon","coordinates":[[[106.5745,-6.1865],[106.567,-6.176],[106.566,-6.177],[106.554,-6.1845],[106.553,-6.185],[106.552,-6.188],[106.5515,-6.19],[106.553,-6.1985],[106.5525,-6.1995],[106.553,-6.1995],[106.554,-6.1995],[106.558,-6.201],[106.567,-6.205],[106.5715,-6.1985],[106.5705,-6.196],[106.5745,-6.1865]]]},"properties":{"code":"36.71.02.1003","name":"Pasir Jaya"}},{"type":"Feature","geometry":{"type":"Polygon","coordinates":[[[106.5925,-6.203],[106.587,-6.1935],[106.583,-6.197],[106.5795,-6.198],[106.5795,-6.199],[106.58,-6.199],[106.579,-6.2015],[106.579,-6.203],[106.5785,-6.204],[106.578,-6.2055],[106.5775,-6.206],[106.5815,-6.2095],[106.5825,-6.2105],[106.58,-6.2155],[106.581,-6.218],[106.5825,-6.2195],[106.5845,-6.221],[106.5925,-6.22],[106.593,-6.2185],[106.5945,-6.2145],[106.5945,-6.211],[106.5955,-6.2075],[106.5955,-6.205],[106.5935,-6.2035],[106.5925,-6.203]]]},"properties":{"code":"36.71.02.1004","name":"Gandasari"}},{"type":"Feature","geometry":{"type":"Polygon","coordinates":[[[106.5775,-6.206],[106.5775,-6.2055],[106.577,-6.206],[106.5745,-6.2035],[106.5735,-6.2035],[106.5715,-6.2045],[106.567,-6.208],[106.565,-6.211],[106.567,-6.212],[106.5695,-6.213],[106.573,-6.2155],[106.5805,-6.2165],[106.58,-6.2155],[106.5825,-6.2105],[106.5815,-6.2095],[106.5775,-6.206]]]},"properties":{"code":"36.71.02.1005","name":"Manis Jaya"}},{"type":"Feature","geometry":{"type":"Polygon","coordinates":[[[106.5825,-6.1795],[106.5765,-6.178],[106.5745,-6.1865],[106.5705,-6.196],[106.571,-6.1965],[106.5735,-6.1965],[106.5765,-6.197],[106.577,-6.196],[106.5785,-6.196],[106.5785,-6.1955],[106.5795,-6.194],[106.58,-6.1935],[106.5815,-6.1925],[106.582,-6.191],[106.582,-6.1885],[106.5815,-6.181],[106.582,-6.181],[106.5825,-6.1795]]]},"properties":{"code":"36.71.02.1006","name":"Alam Jaya"}},{"type":"Feature","geometry":{"type":"Polygon","coordinates":[[[106.6745,-6.1545],[106.671,-6.1545],[106.6705,-6.1545],[106.658,-6.1635],[106.658,-6.164],[106.6595,-6.164],[106.661,-6.164],[106.671,-6.1635],[106.673,-6.1635],[106.675,-6.164],[106.6755,-6.162],[106.675,-6.1595],[106.675,-6.1555],[106.6745,-6.1545]]]},"properties":{"code":"36.71.03.1001","name":"Batuceper"}},{"type":"Feature","geometry":{"type":"Polygon","coordinates":[[[106.6705,-6.1545],[106.6665,-6.153],[106.6585,-6.1475],[106.6575,-6.149],[106.6575,-6.1625],[106.658,-6.1635],[106.6705,-6.1545]]]},"properties":{"code":"36.71.03.1002","name":"Batu Jaya"}},{"type":"Feature","geometry":{"type":"Polygon","coordinates":[[[106.691,-6.16],[106.6865,-6.16],[106.684,-6.161],[106.681,-6.1625],[106.679,-6.174],[106.6835,-6.1755],[106.6845,-6.175],[106.687,-6.1725],[106.687,-6.1695],[106.691,-6.16]]]},"properties":{"code":"36.71.03.1003","name":"Poris Gaga"}},{"type":"Feature","geometry":{"type":"Polygon","coordinates":[[[106.677,-6.1645],[106.6765,-6.165],[106.676,-6.165],[106.673,-6.164],[106.671,-6.1635],[106.67,-6.166],[106.67,-6.167],[106.669,-6.1745],[106.67,-6.1815],[106.671,-6.1815],[106.6715,-6.1815],[106.672,-6.1785],[106.6755,-6.171],[106.6775,-6.17],[106.6785,-6.1675],[106.677,-6.1675],[106.6775,-6.165],[106.677,-6.1645]]]},"properties":{"code":"36.71.03.1004","name":"Poris Gaga Baru"}},{"type":"Feature","geometry":{"type":"Polygon","coordinates":[[[106.688,-6.16],[106.688,-6.1545],[106.687,-6.1545],[106.6785,-6.1545],[106.6745,-6.1545],[106.675,-6.1555],[106.675,-6.1595],[106.6755,-6.162],[106.675,-6.164],[106.673,-6.1635],[106.671,-6.1635],[106.673,-6.164],[106.6755,-6.165],[106.6765,-6.165],[106.677,-6.1645],[106.6775,-6.1635],[106.684,-6.161],[106.6865,-6.16],[106.688,-6.16]]]},"properties":{"code":"36.71.03.1005","name":"Kebon Besar"}},{"type":"Feature","geometry":{"type":"Polygon","coordinates":[[[106.6585,-6.1475],[106.657,-6.147],[106.649,-6.1485],[106.65,-6.1655],[106.654,-6.1645],[106.657,-6.164],[106.658,-6.164],[106.6575,-6.1625],[106.6575,-6.149],[106.6585,-6.1475]]]},"properties":{"code":"36.71.03.1006","name":"Batu Sari"}},{"type":"Feature","geometry":{"type":"Polygon","coordinates":[[[106.679,-6.174],[106.681,-6.1625],[106.6775,-6.1635],[106.677,-6.1645],[106.6775,-6.165],[106.677,-6.1675],[106.6785,-6.1675],[106.6775,-6.17],[106.6755,-6.171],[106.672,-6.1785],[106.6715,-6.1815],[106.6725,-6.1815],[106.679,-6.174]]]},"properties":{"code":"36.71.03.1007","name":"Poris Jaya"}},{"type":"Feature","geometry":{"type":"Polygon","coordinates":[[[106.671,-6.1395],[106.6695,-6.1405],[106.6675,-6.1405],[106.6525,-6.1415],[106.6495,-6.1425],[106.65,-6.1465],[106.65,-6.148],[106.657,-6.147],[106.658,-6.147],[106.6665,-6.153],[106.6705,-6.1545],[106.6725,-6.1505],[106.6725,-6.144],[106.672,-6.144],[106.671,-6.1395]]]},"properties":{"code":"36.71.04.1001","name":"Belendung"}},{"type":"Feature","geometry":{"type":"Polygon","coordinates":[[[106.6865,-6.125],[106.6855,-6.1245],[106.6785,-6.131],[106.671,-6.1395],[106.672,-6.144],[106.675,-6.143],[106.6865,-6.1445],[106.6865,-6.1415],[106.686,-6.132],[106.686,-6.1285],[106.6865,-6.125]]]},"properties":{"code":"36.71.04.1002","name":"Jurumudi"}},{"type":"Feature","geometry":{"type":"Polygon","coordinates":[[[106.69,-6.121],[106.6965,-6.1115],[106.697,-6.1105],[106.6885,-6.107],[106.6895,-6.102],[106.6885,-6.1],[106.688,-6.097],[106.687,-6.0975],[106.677,-6.098],[106.676,-6.0985],[106.6755,-6.1],[106.6715,-6.1045],[106.6715,-6.1055],[106.677,-6.103],[106.681,-6.1015],[106.6785,-6.11],[106.6855,-6.1245],[106.6865,-6.125],[106.688,-6.1245],[106.69,-6.121]]]},"properties":{"code":"36.71.04.1003","name":"Benda"}},{"type":"Feature","geometry":{"type":"Polygon","coordinates":[[[106.6855,-6.1245],[106.6785,-6.11],[106.681,-6.1015],[106.677,-6.103],[106.6715,-6.1055],[106.6715,-6.106],[106.6725,-6.1195],[106.648,-6.1215],[106.6425,-6.1145],[106.6425,-6.1135],[106.642,-6.1135],[106.642,-6.114],[106.6415,-6.114],[106.6405,-6.114],[106.6345,-6.117],[106.634,-6.123],[106.6325,-6.149],[106.6335,-6.149],[106.6525,-6.1415],[106.6675,-6.1405],[106.6695,-6.1405],[106.671,-6.1395],[106.6785,-6.131],[106.6855,-6.1245]]]},"properties":{"code":"36.71.04.1004","name":"Pajang"}},{"type":"Feature","geometry":{"type":"Polygon","coordinates":[[[106.6865,-6.144],[106.6865,-6.1445],[106.675,-6.143],[106.6725,-6.144],[106.6725,-6.1505],[106.6705,-6.1545],[106.671,-6.1545],[106.6785,-6.1545],[106.687,-6.1545],[106.6875,-6.1535],[106.6875,-6.144],[106.6865,-6.144]]]},"properties":{"code":"36.71.04.1005","name":"Jurumudi Baru"}},{"type":"Feature","geometry":{"type":"Polygon","coordinates":[[[106.6825,-6.186],[106.6725,-6.1865],[106.6695,-6.186],[106.669,-6.1895],[106.669,-6.19],[106.669,-6.191],[106.6695,-6.191],[106.669,-6.195],[106.6685,-6.197],[106.669,-6.1975],[106.671,-6.196],[106.673,-6.1945],[106.6745,-6.195],[106.6755,-6.195],[106.6775,-6.202],[106.678,-6.202],[106.683,-6.202],[106.6835,-6.2005],[106.6805,-6.2],[106.686,-6.1895],[106.683,-6.1875],[106.6825,-6.186]]]},"properties":{"code":"36.71.05.1001","name":"Cipondoh"}},{"type":"Feature","geometry":{"type":"Polygon","coordinates":[[[106.684,-6.1755],[106.6835,-6.1755],[106.679,-6.174],[106.6725,-6.1815],[106.671,-6.1815],[106.6705,-6.1815],[106.6695,-6.1855],[106.6725,-6.1865],[106.6825,-6.186],[106.6835,-6.1845],[106.684,-6.1755]]]},"properties":{"code":"36.71.05.1002","name":"Cipondoh Makmur"}},{"type":"Feature","geometry":{"type":"Polygon","coordinates":[[[106.687,-6.1725],[106.6845,-6.175],[106.684,-6.1755],[106.6835,-6.1845],[106.6825,-6.186],[106.683,-6.1875],[106.686,-6.1895],[106.6865,-6.1895],[106.6905,-6.185],[106.6905,-6.184],[106.6925,-6.1815],[106.693,-6.179],[106.694,-6.1775],[106.694,-6.176],[106.6945,-6.176],[106.6935,-6.1755],[106.6925,-6.175],[106.691,-6.1735],[106.6885,-6.1725],[106.687,-6.1725]]]},"properties":{"code":"36.71.05.1003","name":"Cipondoh Indah"}},{"type":"Feature","geometry":{"type":"Polygon","coordinates":[[[106.7025,-6.186],[106.694,-6.1865],[106.6925,-6.192],[106.691,-6.1955],[106.689,-6.199],[106.6895,-6.2005],[106.695,-6.2015],[106.696,-6.201],[106.7005,-6.1965],[106.7,-6.196],[106.7,-6.1955],[106.7015,-6.195],[106.7025,-6.186]]]},"properties":{"code":"36.71.05.1004","name":"Gondrong"}},{"type":"Feature","geometry":{"type":"Polygon","coordinates":[[[106.694,-6.1865],[106.692,-6.185],[106.6905,-6.185],[106.6865,-6.1895],[106.686,-6.19],[106.686,-6.1895],[106.6805,-6.2],[106.6835,-6.2005],[106.685,-6.201],[106.687,-6.2015],[106.6865,-6.2005],[106.6895,-6.2005],[106.689,-6.199],[106.691,-6.1955],[106.6925,-6.192],[106.694,-6.1865]]]},"properties":{"code":"36.71.05.1005","name":"Kenanga"}},{"type":"Feature","geometry":{"type":"Polygon","coordinates":[[[106.723,-6.1845],[106.7155,-6.182],[106.711,-6.1805],[106.709,-6.1845],[106.7065,-6.184],[106.7015,-6.195],[106.7,-6.1955],[106.7035,-6.1955],[106.7045,-6.1955],[106.7045,-6.196],[106.706,-6.196],[106.707,-6.196],[106.708,-6.196],[106.7095,-6.197],[106.7105,-6.197],[106.712,-6.196],[106.713,-6.195],[106.7125,-6.1935],[106.7125,-6.193],[106.7135,-6.192],[106.715,-6.19],[106.7165,-6.19],[106.7225,-6.1865],[106.7235,-6.1855],[106.7245,-6.185],[106.723,-6.1845]]]},"properties":{"code":"36.71.05.1006","name":"Petir"}},{"type":"Feature","geometry":{"type":"Polygon","coordinates":[[[106.7005,-6.177],[106.6955,-6.175],[106.6945,-6.176],[106.694,-6.176],[106.694,-6.1775],[106.693,-6.179],[106.6925,-6.1815],[106.6905,-6.184],[106.6905,-6.185],[106.692,-6.185],[106.694,-6.1865],[106.7025,-6.186],[106.7065,-6.184],[106.709,-6.1845],[106.711,-6.1805],[106.7025,-6.1775],[106.7005,-6.177]]]},"properties":{"code":"36.71.05.1007","name":"Ketapang"}},{"type":"Feature","geometry":{"type":"Polygon","coordinates":[[[106.669,-6.1745],[106.67,-6.167],[106.67,-6.166],[106.671,-6.1635],[106.661,-6.164],[106.6595,-6.164],[106.6595,-6.1655],[106.661,-6.167],[106.66,-6.1675],[106.6605,-6.17],[106.66,-6.176],[106.6585,-6.176],[106.6585,-6.1765],[106.661,-6.1795],[106.6635,-6.1795],[106.669,-6.1745]]]},"properties":{"code":"36.71.05.1008","name":"Poris Plawad"}},{"type":"Feature","geometry":{"type":"Polygon","coordinates":[[[106.6705,-6.1815],[106.67,-6.1815],[106.669,-6.1745],[106.6635,-6.1795],[106.662,-6.1795],[106.662,-6.18],[106.6625,-6.1825],[106.662,-6.183],[106.6605,-6.183],[106.655,-6.186],[106.66,-6.187],[106.669,-6.191],[106.669,-6.19],[106.669,-6.1895],[106.6695,-6.186],[106.6695,-6.1855],[106.6705,-6.1815]]]},"properties":{"code":"36.71.05.1009","name":"Poris Plawad Utara"}},{"type":"Feature","geometry":{"type":"Polygon","coordinates":[[[106.655,-6.186],[106.648,-6.1865],[106.649,-6.189],[106.651,-6.195],[106.654,-6.196],[106.6575,-6.1965],[106.667,-6.1975],[106.669,-6.195],[106.6695,-6.191],[106.66,-6.187],[106.655,-6.186]]]},"properties":{"code":"36.71.05.1010","name":"Poris Plawad Indah"}},{"type":"Feature","geometry":{"type":"Polygon","coordinates":[[[106.719,-6.2445],[106.7095,-6.2425],[106.708,-6.2425],[106.711,-6.2515],[106.7145,-6.2515],[106.7205,-6.251],[106.719,-6.2445]]]},"properties":{"code":"36.71.06.1001","name":"Paninggilan"}},{"type":"Feature","geometry":{"type":"Polygon","coordinates":[[[106.7105,-6.225],[106.709,-6.2245],[106.704,-6.2255],[106.703,-6.224],[106.7025,-6.2245],[106.7015,-6.2265],[106.7015,-6.228],[106.7025,-6.228],[106.7015,-6.231],[106.703,-6.237],[106.703,-6.238],[106.708,-6.238],[106.7095,-6.238],[106.7075,-6.229],[106.7095,-6.2265],[106.7105,-6.225]]]},"properties":{"code":"36.71.06.1002","name":"Sudimara Barat"}},{"type":"Feature","geometry":{"type":"Polygon","coordinates":[[[106.7235,-6.2295],[106.721,-6.229],[106.7185,-6.228],[106.7165,-6.2275],[106.714,-6.227],[106.7145,-6.2375],[106.716,-6.2375],[106.7175,-6.2375],[106.7175,-6.237],[106.7195,-6.2365],[106.722,-6.232],[106.722,-6.231],[106.7235,-6.2295]]]},"properties":{"code":"36.71.06.1003","name":"Sudimara Timur"}},{"type":"Feature","geometry":{"type":"Polygon","coordinates":[[[106.7005,-6.244],[106.7,-6.2435],[106.7,-6.243],[106.6985,-6.242],[106.697,-6.239],[106.697,-6.2355],[106.698,-6.233],[106.697,-6.232],[106.6955,-6.23],[106.693,-6.231],[106.6915,-6.2315],[106.6915,-6.232],[106.687,-6.2385],[106.6885,-6.2385],[106.691,-6.2435],[106.697,-6.2445],[106.6995,-6.2445],[106.7005,-6.244]]]},"properties":{"code":"36.71.06.1004","name":"Tajur"}},{"type":"Feature","geometry":{"type":"Polygon","coordinates":[[[106.708,-6.2425],[106.704,-6.243],[106.703,-6.2425],[106.703,-6.242],[106.7025,-6.2415],[106.6995,-6.2445],[106.697,-6.2445],[106.696,-6.2515],[106.6985,-6.2515],[106.7,-6.2535],[106.7025,-6.255],[106.704,-6.256],[106.704,-6.2545],[106.711,-6.2515],[106.708,-6.2425]]]},"properties":{"code":"36.71.06.1005","name":"Parung Serab"}},{"type":"Feature","geometry":{"type":"Polygon","coordinates":[[[106.714,-6.227],[106.7125,-6.226],[106.7105,-6.225],[106.7095,-6.2265],[106.7075,-6.229],[106.7095,-6.238],[106.7105,-6.238],[106.7145,-6.2375],[106.714,-6.227]]]},"properties":{"code":"36.71.06.1006","name":"Sudimara Jaya"}},{"type":"Feature","geometry":{"type":"Polygon","coordinates":[[[106.7015,-6.228],[106.7005,-6.228],[106.7,-6.226],[106.695,-6.2265],[106.695,-6.2275],[106.6945,-6.228],[106.6935,-6.23],[106.6945,-6.2305],[106.6955,-6.23],[106.697,-6.232],[106.698,-6.233],[106.697,-6.2355],[106.697,-6.239],[106.6985,-6.242],[106.7,-6.243],[106.7,-6.2435],[106.7005,-6.244],[106.7025,-6.241],[106.703,-6.2395],[106.703,-6.237],[106.7015,-6.231],[106.7025,-6.228],[106.7015,-6.228]]]},"properties":{"code":"36.71.06.1007","name":"Sudimara Selatan"}},{"type":"Feature","geometry":{"type":"Polygon","coordinates":[[[106.719,-6.238],[106.7175,-6.237],[106.7175,-6.2375],[106.716,-6.2375],[106.7105,-6.238],[106.708,-6.238],[106.703,-6.238],[106.703,-6.2395],[106.7025,-6.241],[106.7025,-6.2415],[106.703,-6.242],[106.703,-6.2425],[106.704,-6.243],[106.7095,-6.2425],[106.719,-6.2445],[106.719,-6.2405],[106.719,-6.2385],[106.719,-6.238]]]},"properties":{"code":"36.71.06.1008","name":"Paninggilan Utara"}},{"type":"Feature","geometry":{"type":"Polygon","coordinates":[[[106.63,-6.185],[106.6215,-6.1855],[106.619,-6.188],[106.6195,-6.1955],[106.62,-6.195],[106.6225,-6.195],[106.6245,-6.1955],[106.626,-6.196],[106.632,-6.191],[106.631,-6.1875],[106.63,-6.186],[106.63,-6.185]]]},"properties":{"code":"36.71.07.1001","name":"Karawaci"}},{"type":"Feature","geometry":{"type":"Polygon","coordinates":[[[106.626,-6.196],[106.6245,-6.1955],[106.6225,-6.195],[106.622,-6.196],[106.6195,-6.201],[106.6175,-6.206],[106.616,-6.209],[106.616,-6.2105],[106.6195,-6.211],[106.6195,-6.2115],[106.623,-6.211],[106.6235,-6.2105],[106.626,-6.196]]]},"properties":{"code":"36.71.07.1002","name":"Bojong Jaya"}},{"type":"Feature","geometry":{"type":"Polygon","coordinates":[[[106.6145,-6.211],[106.615,-6.2105],[106.615,-6.2005],[106.6145,-6.1965],[106.613,-6.197],[106.61,-6.1975],[106.6095,-6.198],[106.61,-6.1985],[106.6105,-6.199],[106.611,-6.201],[106.612,-6.202],[106.6115,-6.2045],[106.6115,-6.205],[106.6125,-6.207],[106.614,-6.2095],[106.6145,-6.211]]]},"properties":{"code":"36.71.07.1003","name":"Karawaci Baru"}},{"type":"Feature","geometry":{"type":"Polygon","coordinates":[[[106.6195,-6.1955],[106.6155,-6.195],[106.6145,-6.1965],[106.615,-6.2005],[106.615,-6.2105],[106.6145,-6.211],[106.6155,-6.211],[106.616,-6.209],[106.6175,-6.206],[106.6195,-6.201],[106.622,-6.196],[106.6225,-6.195],[106.62,-6.195],[106.6195,-6.1955]]]},"properties":{"code":"36.71.07.1004","name":"Nusa Jaya"}},{"type":"Feature","geometry":{"type":"Polygon","coordinates":[[[106.6145,-6.1965],[106.612,-6.1915],[106.6135,-6.184],[106.607,-6.1845],[106.606,-6.1845],[106.6075,-6.187],[106.607,-6.1875],[106.607,-6.1895],[106.6075,-6.19],[106.609,-6.191],[106.6105,-6.197],[106.61,-6.1975],[106.613,-6.197],[106.6145,-6.1965]]]},"properties":{"code":"36.71.07.1005","name":"Cimone"}},{"type":"Feature","geometry":{"type":"Polygon","coordinates":[[[106.619,-6.187],[106.6135,-6.184],[106.612,-6.1915],[106.6155,-6.195],[106.6195,-6.1955],[106.619,-6.188],[106.619,-6.187]]]},"properties":{"code":"36.71.07.1006","name":"Cimone Jaya"}},{"type":"Feature","geometry":{"type":"Polygon","coordinates":[[[106.622,-6.1795],[106.624,-6.1775],[106.622,-6.1765],[106.6155,-6.178],[106.6135,-6.184],[106.619,-6.187],[106.622,-6.1835],[106.622,-6.1795]]]},"properties":{"code":"36.71.07.1007","name":"Pabuaran"}},{"type":"Feature","geometry":{"type":"Polygon","coordinates":[[[106.622,-6.1765],[106.619,-6.1745],[106.6175,-6.1745],[106.6175,-6.1705],[106.6165,-6.1705],[106.6165,-6.176],[106.6155,-6.178],[106.622,-6.1765]]]},"properties":{"code":"36.71.07.1008","name":"Sumur Pacing"}},{"type":"Feature","geometry":{"type":"Polygon","coordinates":[[[106.6055,-6.1835],[106.6065,-6.1835],[106.6075,-6.1835],[106.6095,-6.182],[106.61,-6.171],[106.604,-6.171],[106.602,-6.1725],[106.601,-6.174],[106.6025,-6.179],[106.602,-6.179],[106.604,-6.18],[106.605,-6.182],[106.6055,-6.183],[106.6055,-6.1835]]]},"properties":{"code":"36.71.07.1009","name":"Bugel"}},{"type":"Feature","geometry":{"type":"Polygon","coordinates":[[[106.6155,-6.178],[106.6165,-6.176],[106.6165,-6.1705],[106.61,-6.171],[106.6095,-6.182],[106.6075,-6.1835],[106.6065,-6.1835],[106.6055,-6.1835],[106.606,-6.1845],[106.607,-6.1845],[106.6135,-6.184],[106.6155,-6.178]]]},"properties":{"code":"36.71.07.1010","name":"Marga Sari"}},{"type":"Feature","geometry":{"type":"Polygon","coordinates":[[[106.6185,-6.1705],[106.619,-6.168],[106.6175,-6.1635],[106.6185,-6.1605],[106.616,-6.1605],[106.61,-6.165],[106.6105,-6.166],[106.6105,-6.169],[106.61,-6.171],[106.6145,-6.1705],[106.6185,-6.1705]]]},"properties":{"code":"36.71.07.1011","name":"Pabuaran Tumpeng"}},{"type":"Feature","geometry":{"type":"Polygon","coordinates":[[[106.616,-6.1605],[106.6135,-6.16],[106.6105,-6.162],[106.6095,-6.1615],[106.609,-6.1625],[106.6095,-6.163],[106.6035,-6.171],[106.61,-6.171],[106.6105,-6.169],[106.6105,-6.166],[106.61,-6.165],[106.616,-6.1605]]]},"properties":{"code":"36.71.07.1012","name":"Nambo Jaya"}},{"type":"Feature","geometry":{"type":"Polygon","coordinates":[[[106.628,-6.17],[106.6255,-6.17],[106.6175,-6.1705],[106.6175,-6.1745],[106.619,-6.1745],[106.622,-6.1765],[106.624,-6.1775],[106.6265,-6.177],[106.6275,-6.1755],[106.629,-6.1755],[106.628,-6.17]]]},"properties":{"code":"36.71.07.1013","name":"Gerendeng"}},{"type":"Feature","geometry":{"type":"Polygon","coordinates":[[[106.629,-6.1755],[106.6275,-6.1755],[106.6265,-6.177],[106.622,-6.1795],[106.622,-6.1835],[106.6215,-6.1855],[106.63,-6.185],[106.63,-6.1835],[106.6285,-6.18],[106.628,-6.1785],[106.6285,-6.177],[106.629,-6.1755]]]},"properties":{"code":"36.71.07.1014","name":"Sukajadi"}},{"type":"Feature","geometry":{"type":"Polygon","coordinates":[[[106.6325,-6.1655],[106.627,-6.161],[106.625,-6.1605],[106.6185,-6.1605],[106.6175,-6.1635],[106.619,-6.168],[106.6185,-6.1705],[106.6255,-6.17],[106.628,-6.17],[106.6285,-6.169],[106.6315,-6.169],[106.6335,-6.168],[106.6325,-6.1655]]]},"properties":{"code":"36.71.07.1015","name":"Pasar Baru"}},{"type":"Feature","geometry":{"type":"Polygon","coordinates":[[[106.6325,-6.1655],[106.632,-6.1645],[106.628,-6.159],[106.622,-6.1545],[106.6195,-6.1575],[106.615,-6.158],[106.6145,-6.158],[106.6135,-6.1585],[106.614,-6.159],[106.6135,-6.16],[106.625,-6.1605],[106.627,-6.161],[106.6325,-6.1655]]]},"properties":{"code":"36.71.07.1016","name":"Koang Jaya"}},{"type":"Feature","geometry":{"type":"Polygon","coordinates":[[[106.6035,-6.171],[106.601,-6.1695],[106.6005,-6.1685],[106.602,-6.1475],[106.5935,-6.148],[106.5925,-6.1485],[106.5915,-6.1485],[106.591,-6.148],[106.5905,-6.148],[106.591,-6.153],[106.5895,-6.16],[106.588,-6.1615],[106.5885,-6.1615],[106.59,-6.162],[106.59,-6.1645],[106.592,-6.1675],[106.6,-6.171],[106.6015,-6.173],[106.602,-6.1725],[106.604,-6.171],[106.6035,-6.171]]]},"properties":{"code":"36.71.08.1001","name":"Periuk"}},{"type":"Feature","geometry":{"type":"Polygon","coordinates":[[[106.5865,-6.162],[106.5835,-6.162],[106.579,-6.172],[106.568,-6.1755],[106.567,-6.176],[106.5745,-6.1865],[106.5765,-6.178],[106.5825,-6.1795],[106.583,-6.179],[106.583,-6.177],[106.5835,-6.1755],[106.5855,-6.173],[106.5865,-6.162]]]},"properties":{"code":"36.71.08.1002","name":"Gembor"}},{"type":"Feature","geometry":{"type":"Polygon","coordinates":[[[106.6,-6.171],[106.592,-6.1675],[106.59,-6.1645],[106.59,-6.162],[106.5885,-6.1615],[106.588,-6.1615],[106.5875,-6.162],[106.5865,-6.162],[106.5855,-6.173],[106.5845,-6.175],[106.5855,-6.1755],[106.586,-6.181],[106.5915,-6.186],[106.5925,-6.184],[106.6,-6.171]]]},"properties":{"code":"36.71.08.1003","name":"Gebang Raya"}},{"type":"Feature","geometry":{"type":"Polygon","coordinates":[[[106.6,-6.171],[106.5925,-6.184],[106.5895,-6.19],[106.5905,-6.1905],[106.5915,-6.189],[106.5975,-6.189],[106.5985,-6.189],[106.5985,-6.1885],[106.6015,-6.1795],[106.602,-6.179],[106.6025,-6.179],[106.601,-6.174],[106.6015,-6.173],[106.6,-6.171]]]},"properties":{"code":"36.71.08.1004","name":"Sangiang Jaya"}},{"type":"Feature","geometry":{"type":"Polygon","coordinates":[[[106.6135,-6.148],[106.6105,-6.148],[106.609,-6.148],[106.6085,-6.1475],[106.602,-6.1475],[106.6005,-6.1685],[106.601,-6.1695],[106.6035,-6.171],[106.6095,-6.163],[106.609,-6.1625],[106.6095,-6.1615],[106.6105,-6.162],[106.6135,-6.16],[106.614,-6.159],[106.6135,-6.1585],[106.6145,-6.158],[106.615,-6.158],[106.6125,-6.1525],[106.6135,-6.148]]]},"properties":{"code":"36.71.08.1005","name":"Periuk Jaya"}},{"type":"Feature","geometry":{"type":"Polygon","coordinates":[[[106.61,-6.1975],[106.6105,-6.197],[106.609,-6.191],[106.6075,-6.19],[106.607,-6.1895],[106.607,-6.1875],[106.6005,-6.1885],[106.601,-6.1915],[106.602,-6.1945],[106.6025,-6.198],[106.607,-6.2005],[106.606,-6.206],[106.6065,-6.207],[106.6075,-6.208],[106.607,-6.207],[106.6075,-6.2065],[106.6115,-6.2045],[106.612,-6.202],[106.611,-6.201],[106.6105,-6.199],[106.61,-6.1985],[106.6095,-6.198],[106.61,-6.1975]]]},"properties":{"code":"36.71.09.1001","name":"Cibodas"}},{"type":"Feature","geometry":{"type":"Polygon","coordinates":[[[106.6145,-6.211],[106.614,-6.2095],[106.6125,-6.207],[106.6115,-6.205],[106.6075,-6.2065],[106.607,-6.207],[106.6075,-6.2075],[106.607,-6.208],[106.606,-6.21],[106.606,-6.211],[106.6045,-6.212],[106.604,-6.2135],[106.6125,-6.216],[106.6155,-6.2165],[106.6165,-6.215],[106.6155,-6.214],[106.615,-6.2125],[106.616,-6.2105],[106.6155,-6.211],[106.6145,-6.211]]]},"properties":{"code":"36.71.09.1002","name":"Cibodas Sari"}},{"type":"Feature","geometry":{"type":"Polygon","coordinates":[[[106.6075,-6.208],[106.6065,-6.207],[106.606,-6.206],[106.607,-6.2005],[106.6025,-6.198],[106.5995,-6.206],[106.6,-6.207],[106.601,-6.2055],[106.6035,-6.207],[106.604,-6.2135],[106.6045,-6.212],[106.606,-6.211],[106.606,-6.21],[106.6075,-6.208]]]},"properties":{"code":"36.71.09.1003","name":"Cibodas Baru"}},{"type":"Feature","geometry":{"type":"Polygon","coordinates":[[[106.6235,-6.2135],[106.6195,-6.2115],[106.6195,-6.211],[106.616,-6.2105],[106.615,-6.2125],[106.6155,-6.214],[106.6165,-6.215],[106.6155,-6.2165],[106.6125,-6.216],[106.61,-6.2195],[106.6135,-6.2235],[106.6125,-6.224],[106.626,-6.2275],[106.6285,-6.2285],[106.6305,-6.2255],[106.6295,-6.2245],[106.63,-6.223],[106.6305,-6.22],[106.6305,-6.219],[106.6245,-6.214],[106.6235,-6.2135]]]},"properties":{"code":"36.71.09.1004","name":"Panunggangan Barat"}},{"type":"Feature","geometry":{"type":"Polygon","coordinates":[[[106.602,-6.179],[106.6015,-6.1795],[106.5985,-6.1885],[106.5985,-6.189],[106.598,-6.1935],[106.593,-6.2025],[106.5935,-6.2035],[106.5955,-6.205],[106.5955,-6.206],[106.597,-6.207],[106.5995,-6.206],[106.6025,-6.198],[106.602,-6.1945],[106.601,-6.1915],[106.6005,-6.1885],[106.6075,-6.187],[106.6055,-6.184],[106.6055,-6.1835],[106.6055,-6.183],[106.605,-6.182],[106.604,-6.18],[106.602,-6.179]]]},"properties":{"code":"36.71.09.1005","name":"Uwung Jaya"}},{"type":"Feature","geometry":{"type":"Polygon","coordinates":[[[106.5925,-6.203],[106.593,-6.2025],[106.598,-6.1935],[106.5985,-6.189],[106.5975,-6.189],[106.5915,-6.189],[106.59,-6.191],[106.587,-6.1935],[106.5925,-6.203]]]},"properties":{"code":"36.71.09.1006","name":"Jatiuwung"}},{"type":"Feature","geometry":{"type":"Polygon","coordinates":[[[106.6325,-6.149],[106.63,-6.139],[106.628,-6.139],[106.6175,-6.1405],[106.6215,-6.151],[106.6245,-6.153],[106.6265,-6.154],[106.6285,-6.1555],[106.631,-6.1545],[106.631,-6.1555],[106.632,-6.155],[106.6325,-6.155],[106.6325,-6.149]]]},"properties":{"code":"36.71.10.1001","name":"Neglasari"}},{"type":"Feature","geometry":{"type":"Polygon","coordinates":[[[106.6445,-6.1665],[106.644,-6.1645],[106.644,-6.161],[106.641,-6.153],[106.641,-6.1505],[106.6435,-6.1505],[106.644,-6.1495],[106.644,-6.1475],[106.644,-6.1455],[106.644,-6.145],[106.6335,-6.149],[106.6325,-6.149],[106.6325,-6.158],[106.632,-6.1585],[106.6315,-6.1595],[106.6325,-6.1605],[106.6345,-6.1675],[106.6365,-6.1675],[106.6445,-6.1665]]]},"properties":{"code":"36.71.10.1002","name":"Karang Sari"}},{"type":"Feature","geometry":{"type":"Polygon","coordinates":[[[106.6375,-6.106],[106.636,-6.106],[106.635,-6.1075],[106.6325,-6.115],[106.6295,-6.1205],[106.629,-6.1205],[106.627,-6.129],[106.6295,-6.134],[106.6295,-6.139],[106.63,-6.139],[106.634,-6.123],[106.6345,-6.117],[106.6405,-6.114],[106.6415,-6.114],[106.642,-6.114],[106.642,-6.1135],[106.6425,-6.1135],[106.642,-6.1115],[106.6375,-6.106]]]},"properties":{"code":"36.71.10.1003","name":"Selapajang Jaya"}},{"type":"Feature","geometry":{"type":"Polygon","coordinates":[[[106.629,-6.1205],[106.6285,-6.12],[106.623,-6.1205],[106.621,-6.1225],[106.618,-6.1305],[106.617,-6.1395],[106.6175,-6.1405],[106.628,-6.139],[106.6295,-6.139],[106.6295,-6.134],[106.627,-6.129],[106.629,-6.1205]]]},"properties":{"code":"36.71.10.1004","name":"Kedaung Wetan"}},{"type":"Feature","geometry":{"type":"Polygon","coordinates":[[[106.6175,-6.1405],[106.617,-6.1395],[106.616,-6.1395],[106.6155,-6.14],[106.616,-6.141],[106.6135,-6.146],[106.6135,-6.148],[106.6125,-6.1525],[106.6195,-6.1575],[106.622,-6.1545],[106.628,-6.159],[106.632,-6.1645],[106.6345,-6.1675],[106.6325,-6.1605],[106.6315,-6.1595],[106.632,-6.1585],[106.6325,-6.158],[106.6325,-6.155],[106.632,-6.155],[106.631,-6.1555],[106.631,-6.1545],[106.6285,-6.1555],[106.6265,-6.154],[106.6245,-6.153],[106.6215,-6.151],[106.6175,-6.1405]]]},"properties":{"code":"36.71.10.1005","name":"Mekar Sari"}},{"type":"Feature","geometry":{"type":"Polygon","coordinates":[[[106.65,-6.148],[106.65,-6.1465],[106.6495,-6.1425],[106.644,-6.145],[106.644,-6.1455],[106.644,-6.1475],[106.644,-6.1495],[106.6435,-6.1505],[106.641,-6.1505],[106.641,-6.153],[106.644,-6.161],[106.644,-6.1645],[106.6445,-6.1665],[106.65,-6.1655],[106.649,-6.1485],[106.65,-6.148]]]},"properties":{"code":"36.71.10.1006","name":"Karang Anyar"}},{"type":"Feature","geometry":{"type":"Polygon","coordinates":[[[106.616,-6.1395],[106.618,-6.1305],[106.621,-6.1225],[106.6205,-6.1225],[106.62,-6.123],[106.6185,-6.1225],[106.6115,-6.134],[106.611,-6.1365],[106.6135,-6.139],[106.6155,-6.14],[106.616,-6.1395]]]},"properties":{"code":"36.71.10.1007","name":"Kedaung Baru"}},{"type":"Feature","geometry":{"type":"Polygon","coordinates":[[[106.696,-6.2225],[106.6955,-6.2215],[106.6945,-6.221],[106.6955,-6.21],[106.6925,-6.211],[106.68,-6.214],[106.68,-6.218],[106.6795,-6.22],[106.6835,-6.2205],[106.687,-6.221],[106.696,-6.2225]]]},"properties":{"code":"36.71.11.1001","name":"Pinang"}},{"type":"Feature","geometry":{"type":"Polygon","coordinates":[[[106.696,-6.2225],[106.687,-6.221],[106.6835,-6.221],[106.6835,-6.2275],[106.682,-6.23],[106.683,-6.23],[106.6915,-6.232],[106.6915,-6.2315],[106.693,-6.231],[106.6945,-6.2305],[106.6935,-6.23],[106.6945,-6.228],[106.695,-6.2275],[106.696,-6.2255],[106.6965,-6.225],[106.6965,-6.223],[106.696,-6.2225]]]},"properties":{"code":"36.71.11.1002","name":"Sudimara Pinang"}},{"type":"Feature","geometry":{"type":"Polygon","coordinates":[[[106.695,-6.2015],[106.6895,-6.2005],[106.6865,-6.2005],[106.687,-6.2015],[106.685,-6.201],[106.683,-6.202],[106.678,-6.202],[106.678,-6.2035],[106.68,-6.214],[106.6925,-6.211],[106.6955,-6.2095],[106.6955,-6.209],[106.695,-6.2085],[106.695,-6.207],[106.694,-6.2065],[106.6945,-6.2055],[106.694,-6.2045],[106.6945,-6.2035],[106.695,-6.2015]]]},"properties":{"code":"36.71.11.1003","name":"Neroktog"}},{"type":"Feature","geometry":{"type":"Polygon","coordinates":[[[106.675,-6.231],[106.676,-6.23],[106.674,-6.2295],[106.6725,-6.2285],[106.671,-6.2235],[106.672,-6.2205],[106.6745,-6.218],[106.675,-6.2165],[106.676,-6.2165],[106.676,-6.2155],[106.6685,-6.2175],[106.659,-6.219],[106.659,-6.22],[106.6595,-6.225],[106.66,-6.231],[106.6615,-6.2315],[106.675,-6.231]]]},"properties":{"code":"36.71.11.1004","name":"Kunciran"}},{"type":"Feature","geometry":{"type":"Polygon","coordinates":[[[106.6835,-6.221],[106.6835,-6.2205],[106.6795,-6.22],[106.68,-6.218],[106.68,-6.214],[106.676,-6.2155],[106.676,-6.2165],[106.675,-6.2165],[106.6745,-6.218],[106.672,-6.2205],[106.671,-6.2235],[106.6725,-6.2285],[106.674,-6.2295],[106.676,-6.23],[106.675,-6.231],[106.6815,-6.231],[106.682,-6.23],[106.6835,-6.2275],[106.6835,-6.221]]]},"properties":{"code":"36.71.11.1005","name":"Kunciran Indah"}},{"type":"Feature","geometry":{"type":"Polygon","coordinates":[[[106.678,-6.2035],[106.6775,-6.202],[106.6755,-6.195],[106.6745,-6.195],[106.673,-6.1945],[106.671,-6.196],[106.669,-6.1975],[106.6655,-6.2035],[106.665,-6.2055],[106.667,-6.2045],[106.6675,-6.2045],[106.6655,-6.2115],[106.6645,-6.211],[106.659,-6.213],[106.659,-6.215],[106.659,-6.2155],[106.659,-6.216],[106.659,-6.2165],[106.6585,-6.2175],[106.659,-6.219],[106.6685,-6.2175],[106.68,-6.214],[106.678,-6.2035]]]},"properties":{"code":"36.71.11.1006","name":"Kunciran Jaya"}},{"type":"Feature","geometry":{"type":"Polygon","coordinates":[[[106.6685,-6.197],[106.667,-6.1975],[106.6575,-6.1965],[106.654,-6.196],[106.651,-6.195],[106.6495,-6.1945],[106.6485,-6.195],[106.6475,-6.197],[106.6475,-6.204],[106.6485,-6.205],[106.6515,-6.205],[106.652,-6.2045],[106.6525,-6.2045],[106.662,-6.209],[106.6655,-6.2115],[106.6675,-6.2045],[106.667,-6.2045],[106.665,-6.2055],[106.6655,-6.2035],[106.669,-6.1975],[106.6685,-6.197]]]},"properties":{"code":"36.71.11.1007","name":"Cipete"}},{"type":"Feature","geometry":{"type":"Polygon","coordinates":[[[106.6645,-6.211],[106.662,-6.209],[106.6525,-6.2045],[106.652,-6.2045],[106.6515,-6.205],[106.6485,-6.205],[106.646,-6.207],[106.6465,-6.2085],[106.6465,-6.212],[106.647,-6.2125],[106.6475,-6.214],[106.65,-6.2135],[106.65,-6.214],[106.6525,-6.214],[106.654,-6.2135],[106.656,-6.213],[106.6585,-6.213],[106.659,-6.213],[106.6645,-6.211]]]},"properties":{"code":"36.71.11.1008","name":"Pakojan"}},{"type":"Feature","geometry":{"type":"Polygon","coordinates":[[[106.6505,-6.23],[106.65,-6.221],[106.6495,-6.2205],[106.63,-6.223],[106.6295,-6.2245],[106.6305,-6.2255],[106.6385,-6.23],[106.6505,-6.23]]]},"properties":{"code":"36.71.11.1009","name":"Panunggangan"}},{"type":"Feature","geometry":{"type":"Polygon","coordinates":[[[106.65,-6.214],[106.65,-6.2135],[106.6485,-6.214],[106.6465,-6.214],[106.627,-6.2155],[106.6305,-6.219],[106.6305,-6.22],[106.63,-6.223],[106.6495,-6.2205],[106.6505,-6.2195],[106.65,-6.216],[106.65,-6.214]]]},"properties":{"code":"36.71.11.1010","name":"Panunggangan Utara"}},{"type":"Feature","geometry":{"type":"Polygon","coordinates":[[[106.659,-6.213],[106.6585,-6.213],[106.656,-6.213],[106.654,-6.2135],[106.6525,-6.214],[106.65,-6.214],[106.65,-6.216],[106.6505,-6.2195],[106.65,-6.221],[106.6505,-6.23],[106.66,-6.231],[106.6595,-6.225],[106.659,-6.22],[106.6585,-6.2175],[106.659,-6.2165],[106.659,-6.216],[106.659,-6.2155],[106.659,-6.215],[106.659,-6.213]]]},"properties":{"code":"36.71.11.1011","name":"Panunggangan Timur"}},{"type":"Feature","geometry":{"type":"Polygon","coordinates":[[[106.7155,-6.21],[106.709,-6.207],[106.7075,-6.2085],[106.7065,-6.212],[106.704,-6.217],[106.703,-6.224],[106.704,-6.2255],[106.709,-6.2245],[106.7105,-6.225],[106.7155,-6.21]]]},"properties":{"code":"36.71.12.1001","name":"Karang Tengah"}},{"type":"Feature","geometry":{"type":"Polygon","coordinates":[[[106.724,-6.192],[106.722,-6.1915],[106.721,-6.192],[106.72,-6.1925],[106.7095,-6.203],[106.709,-6.207],[106.7155,-6.21],[106.7175,-6.207],[106.7185,-6.208],[106.7195,-6.2095],[106.72,-6.212],[106.7245,-6.208],[106.7235,-6.2005],[106.724,-6.192]]]},"properties":{"code":"36.71.12.1002","name":"Karang Mulya"}},{"type":"Feature","geometry":{"type":"Polygon","coordinates":[[[106.7045,-6.196],[106.7045,-6.1955],[106.7035,-6.1955],[106.7,-6.1955],[106.7,-6.196],[106.7005,-6.1965],[106.696,-6.201],[106.695,-6.2015],[106.6945,-6.2035],[106.694,-6.2045],[106.6945,-6.2055],[106.694,-6.2065],[106.695,-6.207],[106.695,-6.2085],[106.6955,-6.209],[106.6955,-6.2095],[106.6965,-6.209],[106.7,-6.214],[106.7035,-6.2105],[106.703,-6.209],[106.7055,-6.2075],[106.706,-6.2065],[106.706,-6.206],[106.705,-6.2055],[106.7045,-6.202],[106.7035,-6.1975],[106.7045,-6.196]]]},"properties":{"code":"36.71.12.1003","name":"Pondok Bahar"}},{"type":"Feature","geometry":{"type":"Polygon","coordinates":[[[106.709,-6.205],[106.7065,-6.205],[106.7055,-6.2075],[106.703,-6.209],[106.7035,-6.2105],[106.7,-6.214],[106.7015,-6.224],[106.703,-6.224],[106.704,-6.217],[106.7065,-6.212],[106.7075,-6.2085],[106.709,-6.205]]]},"properties":{"code":"36.71.12.1004","name":"Pondok Pucung"}},{"type":"Feature","geometry":{"type":"Polygon","coordinates":[[[106.72,-6.212],[106.7195,-6.2095],[106.7185,-6.208],[106.7175,-6.207],[106.7155,-6.21],[106.7105,-6.225],[106.7125,-6.226],[106.7165,-6.2275],[106.7185,-6.228],[106.721,-6.229],[106.7235,-6.2295],[106.7215,-6.225],[106.72,-6.224],[106.7185,-6.217],[106.719,-6.2155],[106.72,-6.212]]]},"properties":{"code":"36.71.12.1005","name":"Karang Timur"}},{"type":"Feature","geometry":{"type":"Polygon","coordinates":[[[106.7,-6.214],[106.6965,-6.209],[106.6955,-6.21],[106.6945,-6.221],[106.6955,-6.2215],[106.6965,-6.223],[106.6965,-6.225],[106.696,-6.2255],[106.695,-6.2265],[106.7,-6.226],[106.7005,-6.228],[106.7015,-6.2265],[106.7025,-6.2245],[106.7015,-6.224],[106.7,-6.214]]]},"properties":{"code":"36.71.12.1006","name":"Padurenan"}},{"type":"Feature","geometry":{"type":"Polygon","coordinates":[[[106.72,-6.1925],[106.7135,-6.192],[106.7125,-6.193],[106.7125,-6.1935],[106.713,-6.195],[106.712,-6.196],[106.7105,-6.197],[106.7095,-6.197],[106.708,-6.196],[106.707,-6.196],[106.706,-6.196],[106.7045,-6.196],[106.7035,-6.1975],[106.7045,-6.202],[106.705,-6.2055],[106.706,-6.206],[106.706,-6.2065],[106.7065,-6.205],[106.709,-6.205],[106.7095,-6.203],[106.72,-6.1925]]]},"properties":{"code":"36.71.12.1007","name":"Parung Jaya"}},{"type":"Feature","geometry":{"type":"Polygon","coordinates":[[[106.727,-6.2245],[106.7215,-6.225],[106.7235,-6.2295],[106.7235,-6.23],[106.722,-6.231],[106.722,-6.232],[106.7195,-6.2365],[106.719,-6.238],[106.719,-6.2385],[106.7235,-6.2395],[106.7255,-6.237],[106.733,-6.237],[106.7335,-6.2365],[106.734,-6.2345],[106.735,-6.234],[106.7355,-6.2335],[106.7275,-6.2315],[106.727,-6.2245]]]},"properties":{"code":"36.71.13.1001","name":"Larangan Utara"}},{"type":"Feature","geometry":{"type":"Polygon","coordinates":[[[106.7305,-6.244],[106.7305,-6.2435],[106.7285,-6.2435],[106.719,-6.2445],[106.7205,-6.251],[106.7235,-6.251],[106.725,-6.2525],[106.728,-6.253],[106.7315,-6.253],[106.7315,-6.2515],[106.7315,-6.251],[106.7315,-6.249],[106.7305,-6.247],[106.7305,-6.2455],[106.7305,-6.244]]]},"properties":{"code":"36.71.13.1002","name":"Larangan Selatan"}},{"type":"Feature","geometry":{"type":"Polygon","coordinates":[[[106.739,-6.235],[106.7385,-6.234],[106.7355,-6.2335],[106.735,-6.234],[106.734,-6.2345],[106.7335,-6.2365],[106.733,-6.2375],[106.7335,-6.239],[106.7325,-6.2395],[106.7315,-6.2395],[106.7395,-6.245],[106.739,-6.242],[106.739,-6.235]]]},"properties":{"code":"36.71.13.1003","name":"Cipadu"}},{"type":"Feature","geometry":{"type":"Polygon","coordinates":[[[106.7375,-6.224],[106.734,-6.224],[106.7355,-6.2335],[106.7385,-6.234],[106.7415,-6.2355],[106.744,-6.2365],[106.7445,-6.235],[106.7375,-6.224]]]},"properties":{"code":"36.71.13.1004","name":"Kreo"}},{"type":"Feature","geometry":{"type":"Polygon","coordinates":[[[106.734,-6.224],[106.732,-6.224],[106.7305,-6.224],[106.727,-6.2245],[106.7275,-6.2315],[106.7355,-6.2335],[106.734,-6.224]]]},"properties":{"code":"36.71.13.1005","name":"Larangan Indah"}},{"type":"Feature","geometry":{"type":"Polygon","coordinates":[[[106.733,-6.237],[106.7255,-6.237],[106.7235,-6.2395],[106.719,-6.2405],[106.719,-6.2445],[106.7285,-6.2435],[106.7305,-6.2435],[106.7305,-6.244],[106.731,-6.2395],[106.7325,-6.2395],[106.7335,-6.239],[106.733,-6.2375],[106.733,-6.237]]]},"properties":{"code":"36.71.13.1006","name":"Gaga"}},{"type":"Feature","geometry":{"type":"Polygon","coordinates":[[[106.7315,-6.2395],[106.731,-6.2395],[106.7305,-6.244],[106.7305,-6.2455],[106.7305,-6.247],[106.7315,-6.249],[106.7315,-6.251],[106.7315,-6.2515],[106.7315,-6.253],[106.737,-6.2525],[106.738,-6.251],[106.7385,-6.251],[106.7455,-6.2515],[106.747,-6.2515],[106.748,-6.25],[106.747,-6.2485],[106.7465,-6.2475],[106.747,-6.2455],[106.7435,-6.2445],[106.7415,-6.2445],[106.7395,-6.2445],[106.7395,-6.245],[106.7315,-6.2395]]]},"properties":{"code":"36.71.13.1007","name":"Cipadu Jaya"}},{"type":"Feature","geometry":{"type":"Polygon","coordinates":[[[106.744,-6.2365],[106.7415,-6.2355],[106.739,-6.235],[106.739,-6.242],[106.7395,-6.2445],[106.7415,-6.2445],[106.7435,-6.2445],[106.747,-6.2455],[106.7475,-6.2425],[106.7485,-6.2415],[106.748,-6.24],[106.7475,-6.239],[106.744,-6.2365]]]},"properties":{"code":"36.71.13.1008","name":"Kreo Selatan"}}]}