{"type":"FeatureCollection","features":[{"type":"Feature","geometry":{"type":"Polygon","coordinates":[[[115.429,-8.452],[115.4235,-8.4365],[115.4155,-8.429],[115.414,-8.43],[115.414,-8.4305],[115.4115,-8.442],[115.4105,-8.443],[115.4085,-8.4475],[115.408,-8.449],[115.402,-8.462],[115.4005,-8.463],[115.4015,-8.4635],[115.4135,-8.464],[115.4165,-8.4645],[115.417,-8.4655],[115.4175,-8.466],[115.4175,-8.4655],[115.4275,-8.455],[115.4285,-8.4525],[115.429,-8.452]]]},"properties":{"code":"51.07.01.2001","name":"Nongan"}},{"type":"Feature","geometry":{"type":"Polygon","coordinates":[[[115.4385,-8.426],[115.437,-8.4265],[115.4365,-8.426],[115.4345,-8.424],[115.429,-8.415],[115.4195,-8.414],[115.4195,-8.412],[115.4185,-8.404],[115.4185,-8.403],[115.416,-8.4035],[115.4145,-8.4125],[115.413,-8.4185],[115.4135,-8.4205],[115.415,-8.4205],[115.414,-8.4245],[115.4145,-8.425],[115.4145,-8.4265],[115.4145,-8.427],[115.414,-8.43],[115.4155,-8.429],[115.4235,-8.4365],[115.429,-8.452],[115.43,-8.451],[115.4305,-8.4505],[115.433,-8.448],[115.434,-8.4465],[115.435,-8.446],[115.4375,-8.4445],[115.4365,-8.443],[115.443,-8.433],[115.445,-8.4325],[115.4455,-8.4315],[115.4405,-8.429],[115.4385,-8.426]]]},"properties":{"code":"51.07.01.2002","name":"Rendang"}},{"type":"Feature","geometry":{"type":"Polygon","coordinates":[[[115.4575,-8.398],[115.4405,-8.3915],[115.442,-8.3875],[115.439,-8.387],[115.4345,-8.386],[115.434,-8.387],[115.432,-8.388],[115.431,-8.389],[115.4315,-8.387],[115.432,-8.385],[115.424,-8.3805],[115.4235,-8.3805],[115.418,-8.3965],[115.4185,-8.3995],[115.4185,-8.4025],[115.4185,-8.4035],[115.4185,-8.404],[115.4195,-8.412],[115.4195,-8.414],[115.429,-8.415],[115.4345,-8.424],[115.4365,-8.426],[115.437,-8.4265],[115.4385,-8.426],[115.4385,-8.425],[115.4385,-8.42],[115.44,-8.4175],[115.4415,-8.418],[115.443,-8.4165],[115.444,-8.4125],[115.447,-8.409],[115.45,-8.408],[115.4505,-8.4065],[115.451,-8.4055],[115.456,-8.4],[115.457,-8.399],[115.4575,-8.398]]]},"properties":{"code":"51.07.01.2003","name":"Menanga"}},{"type":"Feature","geometry":{"type":"Polygon","coordinates":[[[115.4935,-8.342],[115.484,-8.3345],[115.479,-8.33],[115.4715,-8.319],[115.472,-8.317],[115.4705,-8.3175],[115.468,-8.3235],[115.4665,-8.328],[115.4595,-8.333],[115.4525,-8.3525],[115.4425,-8.358],[115.4395,-8.361],[115.4345,-8.365],[115.4355,-8.367],[115.423,-8.38],[115.424,-8.3805],[115.432,-8.385],[115.4315,-8.387],[115.431,-8.389],[115.432,-8.388],[115.434,-8.387],[115.4345,-8.386],[115.439,-8.387],[115.442,-8.3875],[115.4405,-8.3915],[115.4575,-8.398],[115.458,-8.3975],[115.4605,-8.397],[115.4645,-8.3925],[115.4665,-8.3875],[115.4675,-8.384],[115.468,-8.383],[115.4775,-8.375],[115.4935,-8.342]]]},"properties":{"code":"51.07.01.2004","name":"Besakih"}},{"type":"Feature","geometry":{"type":"Polygon","coordinates":[[[115.472,-8.317],[115.4695,-8.315],[115.4695,-8.312],[115.471,-8.3105],[115.4695,-8.3095],[115.465,-8.3125],[115.445,-8.302],[115.438,-8.287],[115.4295,-8.28],[115.426,-8.285],[115.4195,-8.322],[115.4135,-8.323],[115.409,-8.3225],[115.4095,-8.326],[115.4085,-8.3295],[115.409,-8.3325],[115.409,-8.3335],[115.4095,-8.3355],[115.403,-8.3395],[115.402,-8.34],[115.402,-8.341],[115.402,-8.3415],[115.4035,-8.3425],[115.403,-8.345],[115.397,-8.3565],[115.396,-8.357],[115.396,-8.3615],[115.397,-8.3655],[115.4065,-8.388],[115.408,-8.3935],[115.4095,-8.396],[115.412,-8.398],[115.416,-8.4035],[115.4185,-8.403],[115.4185,-8.4025],[115.4185,-8.3995],[115.418,-8.3965],[115.4235,-8.3805],[115.423,-8.38],[115.4355,-8.367],[115.4345,-8.365],[115.4395,-8.361],[115.4425,-8.358],[115.4525,-8.3525],[115.4595,-8.333],[115.4665,-8.328],[115.468,-8.3235],[115.4705,-8.3175],[115.472,-8.317]]]},"properties":{"code":"51.07.01.2005","name":"Pempatan"}},{"type":"Feature","geometry":{"type":"Polygon","coordinates":[[[115.4175,-8.466],[115.417,-8.4655],[115.4165,-8.4645],[115.4135,-8.464],[115.4015,-8.4635],[115.4005,-8.463],[115.393,-8.4775],[115.3915,-8.479],[115.39,-8.4825],[115.3925,-8.484],[115.3945,-8.4815],[115.3965,-8.481],[115.401,-8.478],[115.4135,-8.4735],[115.4135,-8.4715],[115.4135,-8.47],[115.416,-8.4675],[115.4175,-8.466]]]},"properties":{"code":"51.07.01.2006","name":"Pesaban"}},{"type":"Feature","geometry":{"type":"Polygon","coordinates":[[[115.421,-8.4845],[115.4205,-8.4845],[115.418,-8.479],[115.416,-8.4775],[115.415,-8.476],[115.413,-8.476],[115.413,-8.4785],[115.4115,-8.4855],[115.4095,-8.4865],[115.4095,-8.487],[115.4115,-8.493],[115.412,-8.498],[115.414,-8.4995],[115.415,-8.5035],[115.4145,-8.5055],[115.418,-8.506],[115.4185,-8.5045],[115.4205,-8.5015],[115.4205,-8.501],[115.4205,-8.4985],[115.4205,-8.495],[115.4195,-8.494],[115.419,-8.494],[115.419,-8.491],[115.4195,-8.4875],[115.421,-8.4845]]]},"properties":{"code":"51.07.02.2001","name":"Tangkup"}},{"type":"Feature","geometry":{"type":"MultiPolygon","coordinates":[[[[115.438,-8.494],[115.439,-8.4895],[115.439,-8.489],[115.438,-8.4895],[115.432,-8.4925],[115.429,-8.4955],[115.428,-8.4955],[115.424,-8.4975],[115.423,-8.4985],[115.4185,-8.5045],[115.418,-8.506],[115.4195,-8.5055],[115.42,-8.5045],[115.4215,-8.5045],[115.4255,-8.503],[115.427,-8.504],[115.427,-8.5055],[115.4325,-8.5095],[115.4415,-8.5135],[115.4435,-8.5125],[115.4465,-8.5105],[115.447,-8.5095],[115.45,-8.5075],[115.451,-8.5075],[115.4515,-8.507],[115.45,-8.505],[115.4425,-8.4945],[115.442,-8.4945],[115.438,-8.494]]],[[[115.45,-8.4855],[115.45,-8.483],[115.4485,-8.4835],[115.4485,-8.485],[115.4495,-8.486],[115.45,-8.4855]]]]},"properties":{"code":"51.07.02.2002","name":"Talibeng"}},{"type":"Feature","geometry":{"type":"Polygon","coordinates":[[[115.472,-8.4625],[115.446,-8.46],[115.4435,-8.4615],[115.4435,-8.462],[115.4405,-8.4635],[115.44,-8.4665],[115.439,-8.4715],[115.439,-8.4745],[115.4405,-8.4825],[115.44,-8.487],[115.4415,-8.4865],[115.445,-8.478],[115.446,-8.4745],[115.4465,-8.4735],[115.4475,-8.4735],[115.4595,-8.478],[115.472,-8.4625]]]},"properties":{"code":"51.07.02.2003","name":"Sidemen"}},{"type":"Feature","geometry":{"type":"Polygon","coordinates":[[[115.454,-8.448],[115.4535,-8.4475],[115.453,-8.4465],[115.4515,-8.4465],[115.4515,-8.447],[115.4505,-8.4475],[115.4505,-8.448],[115.4495,-8.4475],[115.448,-8.4465],[115.437,-8.445],[115.435,-8.446],[115.434,-8.4465],[115.433,-8.448],[115.4305,-8.4505],[115.43,-8.451],[115.4285,-8.4525],[115.4275,-8.455],[115.4175,-8.4655],[115.4175,-8.466],[115.416,-8.4675],[115.4135,-8.47],[115.4135,-8.4715],[115.4145,-8.474],[115.414,-8.4755],[115.415,-8.476],[115.416,-8.4775],[115.418,-8.479],[115.4205,-8.4845],[115.4215,-8.484],[115.4275,-8.481],[115.428,-8.477],[115.428,-8.4765],[115.429,-8.4745],[115.4305,-8.4745],[115.4375,-8.479],[115.439,-8.4745],[115.439,-8.4715],[115.44,-8.4665],[115.4405,-8.4635],[115.4435,-8.462],[115.4435,-8.4615],[115.446,-8.4585],[115.452,-8.4535],[115.4525,-8.4525],[115.452,-8.452],[115.4525,-8.45],[115.453,-8.449],[115.454,-8.448]]]},"properties":{"code":"51.07.02.2004","name":"Sangkan Gunung"}},{"type":"Feature","geometry":{"type":"Polygon","coordinates":[[[115.4595,-8.478],[115.4475,-8.4735],[115.4465,-8.4735],[115.446,-8.4745],[115.445,-8.478],[115.4415,-8.4865],[115.439,-8.489],[115.439,-8.4895],[115.438,-8.494],[115.442,-8.4945],[115.4435,-8.494],[115.446,-8.4925],[115.4465,-8.4935],[115.4485,-8.4925],[115.4485,-8.4915],[115.448,-8.491],[115.449,-8.4905],[115.4495,-8.4895],[115.45,-8.489],[115.45,-8.488],[115.4495,-8.487],[115.4485,-8.485],[115.4485,-8.4835],[115.45,-8.483],[115.45,-8.4835],[115.4525,-8.4835],[115.4545,-8.486],[115.4555,-8.4855],[115.457,-8.486],[115.457,-8.4865],[115.4635,-8.486],[115.466,-8.483],[115.463,-8.481],[115.4595,-8.478]]]},"properties":{"code":"51.07.02.2005","name":"Telagatawang"}},{"type":"Feature","geometry":{"type":"Polygon","coordinates":[[[115.468,-8.4485],[115.4575,-8.4475],[115.456,-8.4435],[115.457,-8.441],[115.457,-8.4395],[115.4565,-8.4385],[115.4565,-8.44],[115.453,-8.446],[115.454,-8.4475],[115.4535,-8.4485],[115.453,-8.449],[115.4525,-8.45],[115.452,-8.452],[115.4525,-8.4525],[115.452,-8.4535],[115.446,-8.4585],[115.446,-8.46],[115.472,-8.4625],[115.472,-8.458],[115.471,-8.456],[115.468,-8.4485]]]},"properties":{"code":"51.07.02.2006","name":"Sinduwati"}},{"type":"Feature","geometry":{"type":"Polygon","coordinates":[[[115.4635,-8.504],[115.4665,-8.497],[115.467,-8.4905],[115.4675,-8.489],[115.467,-8.4855],[115.466,-8.483],[115.4635,-8.486],[115.457,-8.4865],[115.457,-8.486],[115.4555,-8.4855],[115.4545,-8.486],[115.4525,-8.4835],[115.45,-8.4835],[115.45,-8.4855],[115.4495,-8.486],[115.4485,-8.485],[115.4495,-8.487],[115.45,-8.488],[115.45,-8.489],[115.4495,-8.4895],[115.449,-8.4905],[115.448,-8.491],[115.4485,-8.4915],[115.4485,-8.4925],[115.4465,-8.4935],[115.446,-8.4925],[115.4435,-8.494],[115.4425,-8.4945],[115.45,-8.505],[115.4515,-8.507],[115.455,-8.5055],[115.4635,-8.504]]]},"properties":{"code":"51.07.02.2007","name":"Tri Eka Buana"}},{"type":"Feature","geometry":{"type":"Polygon","coordinates":[[[115.421,-8.505],[115.4195,-8.5055],[115.418,-8.506],[115.415,-8.509],[115.4085,-8.5125],[115.406,-8.513],[115.4055,-8.5135],[115.4055,-8.516],[115.4065,-8.5225],[115.4065,-8.526],[115.41,-8.53],[115.412,-8.527],[115.4155,-8.524],[115.416,-8.524],[115.4155,-8.5235],[115.416,-8.523],[115.4155,-8.5225],[115.4155,-8.52],[115.418,-8.517],[115.4185,-8.5115],[115.4225,-8.5075],[115.4215,-8.5065],[115.421,-8.505]]]},"properties":{"code":"51.07.02.2008","name":"Kertha Buana"}},{"type":"Feature","geometry":{"type":"Polygon","coordinates":[[[115.4415,-8.5135],[115.4325,-8.5095],[115.427,-8.5055],[115.427,-8.504],[115.4255,-8.503],[115.4215,-8.5045],[115.421,-8.505],[115.4215,-8.5065],[115.4225,-8.5075],[115.4185,-8.5115],[115.418,-8.517],[115.4155,-8.52],[115.4155,-8.5225],[115.416,-8.523],[115.4155,-8.5235],[115.416,-8.524],[115.4165,-8.524],[115.4175,-8.524],[115.418,-8.523],[115.4195,-8.5235],[115.4225,-8.522],[115.434,-8.5195],[115.4365,-8.5185],[115.44,-8.515],[115.4405,-8.514],[115.4415,-8.5135]]]},"properties":{"code":"51.07.02.2009","name":"Lokasari"}},{"type":"Feature","geometry":{"type":"Polygon","coordinates":[[[115.4375,-8.479],[115.4305,-8.4745],[115.429,-8.4745],[115.428,-8.4765],[115.428,-8.477],[115.4275,-8.481],[115.4215,-8.484],[115.421,-8.4845],[115.4195,-8.4875],[115.419,-8.491],[115.419,-8.494],[115.4195,-8.494],[115.4205,-8.495],[115.4205,-8.4985],[115.4205,-8.501],[115.4205,-8.5015],[115.423,-8.4985],[115.424,-8.4975],[115.428,-8.4955],[115.429,-8.4955],[115.432,-8.4925],[115.438,-8.4895],[115.44,-8.487],[115.4405,-8.4825],[115.4375,-8.479]]]},"properties":{"code":"51.07.02.2010","name":"Wisma Kerta"}},{"type":"Feature","geometry":{"type":"Polygon","coordinates":[[[115.483,-8.469],[115.472,-8.4625],[115.4595,-8.478],[115.463,-8.481],[115.466,-8.482],[115.467,-8.4855],[115.4675,-8.489],[115.467,-8.4905],[115.4665,-8.497],[115.4635,-8.504],[115.4695,-8.5115],[115.474,-8.5165],[115.476,-8.533],[115.482,-8.5345],[115.484,-8.533],[115.4855,-8.5265],[115.488,-8.5235],[115.4885,-8.5215],[115.4895,-8.5215],[115.4895,-8.521],[115.49,-8.521],[115.4895,-8.5205],[115.4885,-8.5195],[115.4885,-8.519],[115.4875,-8.5175],[115.4885,-8.5165],[115.4875,-8.5145],[115.4805,-8.49],[115.48,-8.4885],[115.486,-8.4875],[115.4885,-8.4845],[115.489,-8.484],[115.49,-8.4805],[115.49,-8.4795],[115.49,-8.479],[115.4865,-8.4785],[115.4865,-8.476],[115.487,-8.4745],[115.484,-8.473],[115.483,-8.469]]]},"properties":{"code":"51.07.03.2001","name":"Gegelang"}},{"type":"Feature","geometry":{"type":"Polygon","coordinates":[[[115.508,-8.514],[115.4955,-8.5065],[115.4875,-8.4865],[115.486,-8.4875],[115.48,-8.4885],[115.4805,-8.49],[115.4875,-8.5145],[115.4885,-8.5165],[115.4875,-8.5175],[115.4885,-8.519],[115.4885,-8.5195],[115.4895,-8.5205],[115.49,-8.5205],[115.491,-8.5215],[115.491,-8.522],[115.4905,-8.5235],[115.491,-8.5245],[115.4925,-8.5255],[115.4935,-8.53],[115.4955,-8.5305],[115.4975,-8.5295],[115.497,-8.531],[115.498,-8.532],[115.4985,-8.534],[115.501,-8.536],[115.502,-8.5345],[115.503,-8.5325],[115.504,-8.532],[115.5095,-8.521],[115.508,-8.514]]]},"properties":{"code":"51.07.03.2002","name":"Antiga"}},{"type":"Feature","geometry":{"type":"Polygon","coordinates":[[[115.5045,-8.468],[115.501,-8.467],[115.4985,-8.465],[115.4975,-8.4655],[115.4905,-8.4785],[115.49,-8.4795],[115.49,-8.4805],[115.489,-8.484],[115.4885,-8.4845],[115.4875,-8.4865],[115.4955,-8.5065],[115.508,-8.514],[115.5195,-8.5045],[115.518,-8.504],[115.5165,-8.502],[115.5125,-8.495],[115.512,-8.4935],[115.5045,-8.468]]]},"properties":{"code":"51.07.03.2003","name":"Ulakan"}},{"type":"Feature","geometry":{"type":"Polygon","coordinates":[[[115.5185,-8.4625],[115.5185,-8.4615],[115.518,-8.461],[115.5145,-8.4625],[115.513,-8.463],[115.5135,-8.4645],[115.5135,-8.4655],[115.5055,-8.467],[115.5045,-8.468],[115.512,-8.4935],[115.5125,-8.495],[115.5165,-8.502],[115.518,-8.504],[115.5195,-8.5045],[115.53,-8.501],[115.542,-8.5035],[115.538,-8.4955],[115.538,-8.4925],[115.539,-8.4875],[115.5325,-8.483],[115.531,-8.4825],[115.53,-8.4835],[115.529,-8.4845],[115.5285,-8.485],[115.5265,-8.4855],[115.5185,-8.4625]]]},"properties":{"code":"51.07.03.2004","name":"Manggis"}},{"type":"Feature","geometry":{"type":"Polygon","coordinates":[[[115.5575,-8.506],[115.564,-8.5075],[115.5695,-8.495],[115.5715,-8.491],[115.571,-8.49],[115.571,-8.488],[115.571,-8.4875],[115.568,-8.489],[115.5655,-8.492],[115.565,-8.4935],[115.5595,-8.4945],[115.5585,-8.497],[115.5575,-8.506]]]},"properties":{"code":"51.07.03.2005","name":"Nyuh Tebel"}},{"type":"Feature","geometry":{"type":"Polygon","coordinates":[[[115.568,-8.4505],[115.568,-8.4515],[115.5615,-8.4475],[115.5595,-8.4445],[115.558,-8.4455],[115.557,-8.445],[115.5555,-8.448],[115.553,-8.4525],[115.554,-8.4535],[115.557,-8.461],[115.556,-8.482],[115.55,-8.4925],[115.5585,-8.497],[115.5595,-8.4945],[115.565,-8.4935],[115.564,-8.487],[115.5645,-8.481],[115.5685,-8.478],[115.5705,-8.487],[115.571,-8.488],[115.571,-8.49],[115.5715,-8.491],[115.5695,-8.495],[115.564,-8.5075],[115.564,-8.5085],[115.573,-8.49],[115.5845,-8.4775],[115.587,-8.4775],[115.5875,-8.4775],[115.588,-8.477],[115.582,-8.4685],[115.581,-8.469],[115.5695,-8.454],[115.5685,-8.4505],[115.568,-8.4505]]]},"properties":{"code":"51.07.03.2006","name":"Tenganan"}},{"type":"Feature","geometry":{"type":"Polygon","coordinates":[[[115.55,-8.4925],[115.556,-8.482],[115.557,-8.461],[115.554,-8.4535],[115.5535,-8.453],[115.5425,-8.455],[115.5415,-8.456],[115.5445,-8.464],[115.544,-8.467],[115.5435,-8.475],[115.5425,-8.4805],[115.5415,-8.486],[115.539,-8.4875],[115.538,-8.4925],[115.538,-8.4955],[115.55,-8.4925]]]},"properties":{"code":"51.07.03.2007","name":"Ngis"}},{"type":"Feature","geometry":{"type":"Polygon","coordinates":[[[115.5415,-8.456],[115.5245,-8.457],[115.5185,-8.4625],[115.5265,-8.4855],[115.5285,-8.485],[115.529,-8.4845],[115.53,-8.4835],[115.531,-8.4825],[115.5325,-8.483],[115.539,-8.4875],[115.5415,-8.486],[115.5425,-8.4805],[115.5435,-8.475],[115.544,-8.467],[115.5445,-8.464],[115.5415,-8.456]]]},"properties":{"code":"51.07.03.2008","name":"Selumbung"}},{"type":"Feature","geometry":{"type":"Polygon","coordinates":[[[115.503,-8.542],[115.5135,-8.528],[115.5095,-8.521],[115.504,-8.532],[115.503,-8.5325],[115.502,-8.5345],[115.501,-8.536],[115.503,-8.542]]]},"properties":{"code":"51.07.03.2009","name":"Padangbai"}},{"type":"Feature","geometry":{"type":"Polygon","coordinates":[[[115.49,-8.521],[115.4895,-8.521],[115.4895,-8.5215],[115.4885,-8.5215],[115.488,-8.5235],[115.4855,-8.5265],[115.484,-8.533],[115.482,-8.5345],[115.476,-8.533],[115.4755,-8.535],[115.4805,-8.5435],[115.479,-8.5505],[115.503,-8.542],[115.501,-8.536],[115.4985,-8.534],[115.498,-8.532],[115.497,-8.531],[115.4975,-8.5295],[115.4955,-8.5305],[115.4935,-8.53],[115.4925,-8.5255],[115.491,-8.5245],[115.4905,-8.5235],[115.4905,-8.523],[115.491,-8.522],[115.491,-8.5215],[115.49,-8.521]]]},"properties":{"code":"51.07.03.2010","name":"Antiga Kelod"}},{"type":"Feature","geometry":{"type":"Polygon","coordinates":[[[115.571,-8.4875],[115.5705,-8.487],[115.5685,-8.478],[115.5645,-8.481],[115.564,-8.487],[115.5655,-8.492],[115.568,-8.489],[115.571,-8.4875]]]},"properties":{"code":"51.07.03.2011","name":"Pesedahan"}},{"type":"Feature","geometry":{"type":"Polygon","coordinates":[[[115.55,-8.4925],[115.538,-8.4955],[115.542,-8.5035],[115.5575,-8.506],[115.5585,-8.497],[115.55,-8.4925]]]},"properties":{"code":"51.07.03.2012","name":"Sengkidu"}},{"type":"Feature","geometry":{"type":"Polygon","coordinates":[[[115.605,-8.4465],[115.602,-8.442],[115.5955,-8.4445],[115.5945,-8.4435],[115.589,-8.446],[115.5895,-8.4465],[115.595,-8.4515],[115.593,-8.453],[115.5945,-8.458],[115.592,-8.4595],[115.593,-8.4615],[115.5915,-8.463],[115.5915,-8.4635],[115.5925,-8.465],[115.5935,-8.465],[115.5945,-8.467],[115.6005,-8.467],[115.604,-8.469],[115.6065,-8.471],[115.606,-8.474],[115.607,-8.475],[115.6055,-8.4775],[115.6075,-8.479],[115.611,-8.4805],[115.6135,-8.481],[115.6165,-8.485],[115.6255,-8.476],[115.6125,-8.454],[115.605,-8.4465]]]},"properties":{"code":"51.07.04.1002","name":"Subagan"}},{"type":"Feature","geometry":{"type":"Polygon","coordinates":[[[115.603,-8.4215],[115.6025,-8.4205],[115.6025,-8.42],[115.601,-8.417],[115.5895,-8.415],[115.588,-8.416],[115.5835,-8.4215],[115.5825,-8.4225],[115.587,-8.4345],[115.584,-8.437],[115.582,-8.4365],[115.575,-8.44],[115.5865,-8.445],[115.588,-8.445],[115.588,-8.4455],[115.589,-8.446],[115.5945,-8.4435],[115.5955,-8.4445],[115.602,-8.442],[115.602,-8.44],[115.602,-8.4315],[115.603,-8.429],[115.6035,-8.4275],[115.605,-8.425],[115.603,-8.4215]]]},"properties":{"code":"51.07.04.1003","name":"Padangkerta"}},{"type":"Feature","geometry":{"type":"Polygon","coordinates":[[[115.622,-8.419],[115.6215,-8.419],[115.614,-8.417],[115.6125,-8.4185],[115.6115,-8.4195],[115.6055,-8.426],[115.6035,-8.4275],[115.603,-8.429],[115.602,-8.4315],[115.602,-8.44],[115.605,-8.4465],[115.6125,-8.454],[115.6255,-8.476],[115.6315,-8.4715],[115.62,-8.45],[115.6185,-8.4475],[115.6185,-8.445],[115.6175,-8.443],[115.6175,-8.438],[115.618,-8.4365],[115.6185,-8.433],[115.619,-8.432],[115.619,-8.43],[115.6185,-8.4275],[115.622,-8.419]]]},"properties":{"code":"51.07.04.1004","name":"Karangasem"}},{"type":"Feature","geometry":{"type":"Polygon","coordinates":[[[115.587,-8.4775],[115.5845,-8.4775],[115.573,-8.49],[115.564,-8.5085],[115.58,-8.5145],[115.61,-8.5025],[115.6125,-8.4945],[115.608,-8.4915],[115.605,-8.49],[115.6035,-8.49],[115.6015,-8.488],[115.59,-8.479],[115.5875,-8.4775],[115.587,-8.4775]]]},"properties":{"code":"51.07.04.2001","name":"Bugbug"}},{"type":"Feature","geometry":{"type":"Polygon","coordinates":[[[115.634,-8.4325],[115.632,-8.433],[115.626,-8.4325],[115.626,-8.4345],[115.621,-8.4465],[115.6185,-8.4465],[115.62,-8.45],[115.6315,-8.4715],[115.635,-8.461],[115.632,-8.4405],[115.634,-8.4325]]]},"properties":{"code":"51.07.04.2005","name":"Tumbu"}},{"type":"Feature","geometry":{"type":"Polygon","coordinates":[[[115.6835,-8.4345],[115.6775,-8.4215],[115.6805,-8.4155],[115.674,-8.3955],[115.6705,-8.396],[115.6675,-8.3955],[115.6615,-8.3965],[115.661,-8.4005],[115.663,-8.408],[115.6615,-8.4125],[115.659,-8.4135],[115.654,-8.414],[115.6535,-8.4135],[115.6525,-8.4395],[115.652,-8.441],[115.65,-8.4445],[115.648,-8.448],[115.65,-8.4535],[115.6505,-8.4545],[115.68,-8.439],[115.6835,-8.4345]]]},"properties":{"code":"51.07.04.2006","name":"Seraya"}},{"type":"Feature","geometry":{"type":"Polygon","coordinates":[[[115.6535,-8.4135],[115.6525,-8.4135],[115.6375,-8.43],[115.635,-8.431],[115.634,-8.4325],[115.632,-8.4405],[115.635,-8.461],[115.6505,-8.4545],[115.65,-8.4535],[115.648,-8.448],[115.65,-8.4445],[115.652,-8.441],[115.6525,-8.4395],[115.6535,-8.4135]]]},"properties":{"code":"51.07.04.2007","name":"Seraya Barat"}},{"type":"Feature","geometry":{"type":"Polygon","coordinates":[[[115.688,-8.3895],[115.686,-8.389],[115.684,-8.3895],[115.6815,-8.39],[115.681,-8.391],[115.678,-8.3945],[115.674,-8.3955],[115.6805,-8.4155],[115.6775,-8.4215],[115.6835,-8.4345],[115.7,-8.418],[115.7095,-8.3965],[115.7075,-8.396],[115.704,-8.395],[115.6975,-8.3925],[115.6945,-8.3925],[115.688,-8.3895]]]},"properties":{"code":"51.07.04.2008","name":"Seraya Timur"}},{"type":"Feature","geometry":{"type":"Polygon","coordinates":[[[115.6165,-8.485],[115.6135,-8.481],[115.611,-8.4805],[115.6075,-8.479],[115.6055,-8.4775],[115.607,-8.475],[115.606,-8.474],[115.6065,-8.471],[115.604,-8.469],[115.6005,-8.467],[115.5945,-8.467],[115.5935,-8.465],[115.5925,-8.465],[115.5915,-8.4635],[115.5915,-8.463],[115.5895,-8.4645],[115.585,-8.467],[115.5825,-8.468],[115.582,-8.4685],[115.588,-8.477],[115.59,-8.479],[115.6015,-8.488],[115.6035,-8.49],[115.605,-8.49],[115.608,-8.4915],[115.6125,-8.4945],[115.6165,-8.485]]]},"properties":{"code":"51.07.04.2009","name":"Pertima"}},{"type":"Feature","geometry":{"type":"Polygon","coordinates":[[[115.627,-8.414],[115.6245,-8.4185],[115.622,-8.419],[115.6185,-8.4275],[115.619,-8.43],[115.619,-8.432],[115.6185,-8.433],[115.618,-8.4365],[115.6175,-8.438],[115.6175,-8.443],[115.6185,-8.445],[115.6185,-8.4465],[115.621,-8.4465],[115.626,-8.4345],[115.626,-8.433],[115.6265,-8.4305],[115.627,-8.414]]]},"properties":{"code":"51.07.04.2010","name":"Tegalinggah"}},{"type":"Feature","geometry":{"type":"Polygon","coordinates":[[[115.652,-8.394],[115.6395,-8.3965],[115.6375,-8.3985],[115.6365,-8.4015],[115.631,-8.407],[115.6295,-8.41],[115.627,-8.414],[115.6265,-8.4305],[115.626,-8.4325],[115.6295,-8.4335],[115.632,-8.433],[115.634,-8.4325],[115.635,-8.431],[115.6375,-8.43],[115.6525,-8.4135],[115.654,-8.414],[115.659,-8.4135],[115.6615,-8.4125],[115.663,-8.408],[115.661,-8.4005],[115.6615,-8.3965],[115.656,-8.3945],[115.652,-8.394]]]},"properties":{"code":"51.07.04.2011","name":"Bukit"}},{"type":"Feature","geometry":{"type":"Polygon","coordinates":[[[115.591,-8.3955],[115.5805,-8.392],[115.5775,-8.392],[115.5695,-8.3965],[115.5685,-8.403],[115.5685,-8.404],[115.57,-8.408],[115.5725,-8.41],[115.5725,-8.4105],[115.5735,-8.413],[115.574,-8.4155],[115.5745,-8.416],[115.577,-8.4205],[115.581,-8.4225],[115.5825,-8.4225],[115.5835,-8.4215],[115.588,-8.416],[115.5895,-8.415],[115.601,-8.417],[115.6025,-8.42],[115.6025,-8.4205],[115.603,-8.4215],[115.6035,-8.421],[115.6055,-8.421],[115.6095,-8.413],[115.6095,-8.411],[115.6065,-8.4115],[115.607,-8.407],[115.6075,-8.4055],[115.591,-8.3955]]]},"properties":{"code":"51.07.05.2001","name":"Ababi"}},{"type":"Feature","geometry":{"type":"Polygon","coordinates":[[[115.6395,-8.3965],[115.6315,-8.3985],[115.6295,-8.399],[115.629,-8.399],[115.626,-8.4015],[115.613,-8.3985],[115.6125,-8.3985],[115.6095,-8.398],[115.609,-8.399],[115.6095,-8.408],[115.6095,-8.413],[115.6055,-8.421],[115.6035,-8.421],[115.603,-8.4215],[115.605,-8.425],[115.6055,-8.426],[115.6115,-8.4195],[115.6125,-8.4185],[115.614,-8.417],[115.6215,-8.419],[115.6245,-8.4185],[115.627,-8.414],[115.6295,-8.41],[115.631,-8.407],[115.6365,-8.4015],[115.6375,-8.3985],[115.6395,-8.3965]]]},"properties":{"code":"51.07.05.2002","name":"Tiyingtali"}},{"type":"Feature","geometry":{"type":"Polygon","coordinates":[[[115.7095,-8.3965],[115.7105,-8.378],[115.698,-8.3585],[115.6635,-8.3375],[115.662,-8.343],[115.635,-8.3585],[115.631,-8.3765],[115.633,-8.3785],[115.638,-8.3785],[115.6385,-8.3795],[115.64,-8.3855],[115.652,-8.394],[115.656,-8.3945],[115.6675,-8.3955],[115.6705,-8.396],[115.674,-8.3955],[115.678,-8.3945],[115.681,-8.391],[115.6815,-8.39],[115.684,-8.3895],[115.686,-8.389],[115.688,-8.3895],[115.6945,-8.3925],[115.6975,-8.3925],[115.704,-8.395],[115.7075,-8.396],[115.7095,-8.3965]]]},"properties":{"code":"51.07.05.2003","name":"Bunutan"}},{"type":"Feature","geometry":{"type":"Polygon","coordinates":[[[115.633,-8.3785],[115.6255,-8.3765],[115.622,-8.3735],[115.62,-8.365],[115.619,-8.364],[115.6175,-8.3635],[115.6105,-8.367],[115.608,-8.366],[115.602,-8.362],[115.602,-8.3615],[115.602,-8.3605],[115.602,-8.36],[115.595,-8.364],[115.591,-8.3645],[115.6015,-8.381],[115.6,-8.382],[115.6015,-8.3825],[115.608,-8.387],[115.6105,-8.393],[115.612,-8.3935],[115.6125,-8.396],[115.6135,-8.397],[115.6135,-8.3965],[115.6185,-8.383],[115.6205,-8.382],[115.6215,-8.382],[115.628,-8.3805],[115.6355,-8.3795],[115.633,-8.3785]]]},"properties":{"code":"51.07.05.2004","name":"Tista"}},{"type":"Feature","geometry":{"type":"Polygon","coordinates":[[[115.6,-8.382],[115.599,-8.382],[115.597,-8.384],[115.596,-8.385],[115.596,-8.3855],[115.5945,-8.388],[115.591,-8.3955],[115.6075,-8.4055],[115.607,-8.407],[115.6065,-8.4115],[115.6095,-8.411],[115.6095,-8.408],[115.609,-8.399],[115.6095,-8.398],[115.6125,-8.3985],[115.6135,-8.397],[115.6125,-8.396],[115.612,-8.3935],[115.6105,-8.393],[115.608,-8.387],[115.6015,-8.3825],[115.6,-8.382]]]},"properties":{"code":"51.07.05.2005","name":"Abang"}},{"type":"Feature","geometry":{"type":"Polygon","coordinates":[[[115.588,-8.3795],[115.5875,-8.3815],[115.587,-8.383],[115.5855,-8.382],[115.58,-8.3805],[115.5785,-8.381],[115.5635,-8.3775],[115.563,-8.377],[115.563,-8.3785],[115.563,-8.383],[115.5635,-8.385],[115.57,-8.394],[115.5695,-8.3965],[115.5775,-8.392],[115.5805,-8.392],[115.591,-8.3955],[115.5945,-8.388],[115.596,-8.3855],[115.596,-8.385],[115.5965,-8.3845],[115.591,-8.3785],[115.59,-8.3775],[115.5895,-8.3785],[115.5885,-8.3795],[115.588,-8.3795]]]},"properties":{"code":"51.07.05.2006","name":"Pidpid"}},{"type":"Feature","geometry":{"type":"Polygon","coordinates":[[[115.6245,-8.315],[115.6185,-8.3005],[115.608,-8.3075],[115.599,-8.324],[115.5905,-8.3285],[115.5755,-8.3275],[115.5725,-8.3275],[115.5615,-8.3315],[115.5575,-8.335],[115.5565,-8.338],[115.5435,-8.3445],[115.5225,-8.345],[115.5185,-8.344],[115.5275,-8.349],[115.5425,-8.355],[115.559,-8.3565],[115.567,-8.3635],[115.5705,-8.3645],[115.58,-8.364],[115.5805,-8.3635],[115.582,-8.3635],[115.5835,-8.3635],[115.5845,-8.3635],[115.5885,-8.363],[115.595,-8.364],[115.602,-8.36],[115.6035,-8.36],[115.6045,-8.358],[115.606,-8.356],[115.6065,-8.3535],[115.606,-8.353],[115.606,-8.3525],[115.6065,-8.3515],[115.6065,-8.35],[115.6045,-8.3425],[115.604,-8.34],[115.608,-8.337],[115.6085,-8.337],[115.609,-8.3345],[115.6095,-8.334],[115.6065,-8.3305],[115.6105,-8.322],[115.6115,-8.321],[115.613,-8.3205],[115.6165,-8.3195],[115.6245,-8.315]]]},"properties":{"code":"51.07.05.2007","name":"Datah"}},{"type":"Feature","geometry":{"type":"Polygon","coordinates":[[[115.6225,-8.3365],[115.6115,-8.3365],[115.6095,-8.337],[115.609,-8.337],[115.608,-8.337],[115.604,-8.34],[115.6045,-8.3425],[115.6065,-8.35],[115.6065,-8.3515],[115.606,-8.3525],[115.607,-8.3525],[115.609,-8.351],[115.6115,-8.3495],[115.615,-8.348],[115.616,-8.3485],[115.619,-8.3485],[115.6185,-8.3495],[115.62,-8.3525],[115.6215,-8.3545],[115.6225,-8.357],[115.6225,-8.358],[115.6265,-8.3605],[115.6305,-8.3595],[115.633,-8.36],[115.635,-8.3585],[115.6315,-8.359],[115.63,-8.3585],[115.6275,-8.3575],[115.619,-8.345],[115.619,-8.344],[115.621,-8.3425],[115.622,-8.341],[115.6225,-8.3385],[115.6225,-8.3365]]]},"properties":{"code":"51.07.05.2008","name":"Culik"}},{"type":"Feature","geometry":{"type":"Polygon","coordinates":[[[115.6635,-8.3375],[115.6415,-8.333],[115.6355,-8.3275],[115.63,-8.3295],[115.627,-8.331],[115.624,-8.3315],[115.623,-8.3315],[115.6225,-8.3365],[115.6225,-8.3385],[115.622,-8.341],[115.621,-8.3425],[115.619,-8.344],[115.619,-8.345],[115.6275,-8.3575],[115.63,-8.3585],[115.6315,-8.359],[115.635,-8.3585],[115.662,-8.343],[115.6635,-8.3375]]]},"properties":{"code":"51.07.05.2009","name":"Purwa Kerthi"}},{"type":"Feature","geometry":{"type":"Polygon","coordinates":[[[115.635,-8.3585],[115.633,-8.36],[115.6305,-8.3595],[115.6265,-8.3605],[115.6225,-8.358],[115.6225,-8.357],[115.6215,-8.3545],[115.62,-8.3525],[115.6185,-8.3495],[115.619,-8.3485],[115.616,-8.3485],[115.615,-8.348],[115.6115,-8.3495],[115.609,-8.351],[115.607,-8.3525],[115.606,-8.3525],[115.6065,-8.3535],[115.606,-8.356],[115.6045,-8.358],[115.6035,-8.36],[115.602,-8.3605],[115.602,-8.3615],[115.602,-8.362],[115.608,-8.366],[115.6105,-8.367],[115.6175,-8.3635],[115.619,-8.364],[115.62,-8.365],[115.622,-8.3735],[115.6255,-8.3765],[115.633,-8.3785],[115.631,-8.3765],[115.635,-8.3585]]]},"properties":{"code":"51.07.05.2010","name":"Kertha Mandala"}},{"type":"Feature","geometry":{"type":"Polygon","coordinates":[[[115.6355,-8.3275],[115.6245,-8.315],[115.6165,-8.3195],[115.613,-8.3205],[115.6115,-8.321],[115.6105,-8.322],[115.6065,-8.3305],[115.6095,-8.334],[115.609,-8.3345],[115.6085,-8.337],[115.6095,-8.337],[115.6115,-8.3365],[115.6225,-8.3365],[115.623,-8.3315],[115.624,-8.3315],[115.627,-8.331],[115.63,-8.3295],[115.6355,-8.3275]]]},"properties":{"code":"51.07.05.2011","name":"Laba Sari"}},{"type":"Feature","geometry":{"type":"Polygon","coordinates":[[[115.589,-8.3635],[115.5885,-8.363],[115.5845,-8.3635],[115.5835,-8.3635],[115.582,-8.3635],[115.5805,-8.3635],[115.579,-8.3645],[115.577,-8.3655],[115.561,-8.376],[115.563,-8.377],[115.5635,-8.3775],[115.5785,-8.381],[115.58,-8.3805],[115.5855,-8.382],[115.587,-8.383],[115.5875,-8.3815],[115.588,-8.3795],[115.5865,-8.3765],[115.5885,-8.3765],[115.59,-8.372],[115.5885,-8.3695],[115.589,-8.3635]]]},"properties":{"code":"51.07.05.2012","name":"Nawa Kerti"}},{"type":"Feature","geometry":{"type":"Polygon","coordinates":[[[115.591,-8.3645],[115.589,-8.3635],[115.5885,-8.3695],[115.59,-8.372],[115.5885,-8.3765],[115.5865,-8.3765],[115.588,-8.3795],[115.5885,-8.3795],[115.5895,-8.3785],[115.59,-8.3775],[115.591,-8.3785],[115.5965,-8.3845],[115.597,-8.384],[115.599,-8.382],[115.6015,-8.381],[115.591,-8.3645]]]},"properties":{"code":"51.07.05.2013","name":"Kesimpar"}},{"type":"Feature","geometry":{"type":"Polygon","coordinates":[[[115.652,-8.394],[115.64,-8.3855],[115.6385,-8.3795],[115.638,-8.3785],[115.6355,-8.3795],[115.628,-8.3805],[115.6215,-8.382],[115.6205,-8.382],[115.6185,-8.383],[115.6135,-8.3965],[115.614,-8.397],[115.6135,-8.397],[115.613,-8.3985],[115.626,-8.4015],[115.629,-8.399],[115.6295,-8.399],[115.6315,-8.3985],[115.6395,-8.3965],[115.652,-8.394]]]},"properties":{"code":"51.07.05.2014","name":"Tri Buana"}},{"type":"Feature","geometry":{"type":"Polygon","coordinates":[[[115.5925,-8.4595],[115.5925,-8.459],[115.591,-8.4595],[115.59,-8.459],[115.588,-8.4565],[115.5795,-8.455],[115.571,-8.4405],[115.568,-8.45],[115.568,-8.4505],[115.5685,-8.4505],[115.5695,-8.454],[115.581,-8.469],[115.5825,-8.468],[115.585,-8.467],[115.5895,-8.4645],[115.593,-8.4615],[115.592,-8.4595],[115.5925,-8.4595]]]},"properties":{"code":"51.07.06.2001","name":"Bungaya"}},{"type":"Feature","geometry":{"type":"Polygon","coordinates":[[[115.5825,-8.4225],[115.581,-8.4225],[115.577,-8.4205],[115.5745,-8.416],[115.569,-8.4255],[115.5685,-8.427],[115.578,-8.4375],[115.582,-8.4365],[115.584,-8.437],[115.587,-8.4345],[115.5825,-8.4225]]]},"properties":{"code":"51.07.06.2002","name":"Budakeling"}},{"type":"Feature","geometry":{"type":"Polygon","coordinates":[[[115.5685,-8.427],[115.5675,-8.4275],[115.567,-8.4265],[115.566,-8.425],[115.5635,-8.423],[115.549,-8.4095],[115.543,-8.4065],[115.54,-8.412],[115.5435,-8.43],[115.5455,-8.432],[115.551,-8.438],[115.5525,-8.44],[115.5565,-8.4445],[115.558,-8.4455],[115.5595,-8.4445],[115.5615,-8.4475],[115.568,-8.4515],[115.568,-8.45],[115.571,-8.4405],[115.575,-8.44],[115.578,-8.4375],[115.5685,-8.427]]]},"properties":{"code":"51.07.06.2003","name":"Bebandem"}},{"type":"Feature","geometry":{"type":"Polygon","coordinates":[[[115.5475,-8.4405],[115.548,-8.4395],[115.538,-8.4405],[115.5325,-8.433],[115.531,-8.433],[115.5295,-8.4335],[115.5285,-8.434],[115.525,-8.435],[115.522,-8.435],[115.5195,-8.432],[115.516,-8.441],[115.51,-8.443],[115.518,-8.4555],[115.518,-8.4585],[115.518,-8.46],[115.5185,-8.461],[115.5185,-8.4615],[115.5185,-8.4625],[115.5245,-8.457],[115.5415,-8.456],[115.5425,-8.455],[115.5415,-8.445],[115.5475,-8.4405]]]},"properties":{"code":"51.07.06.2004","name":"Sibetan"}},{"type":"Feature","geometry":{"type":"Polygon","coordinates":[[[115.5075,-8.343],[115.507,-8.343],[115.507,-8.3475],[115.5055,-8.3565],[115.5055,-8.364],[115.505,-8.3665],[115.506,-8.3705],[115.5055,-8.3955],[115.5055,-8.3965],[115.505,-8.399],[115.5035,-8.4],[115.501,-8.405],[115.5005,-8.406],[115.501,-8.407],[115.504,-8.4115],[115.5075,-8.412],[115.5185,-8.4205],[115.5185,-8.4235],[115.5185,-8.4245],[115.518,-8.426],[115.5195,-8.4315],[115.5195,-8.432],[115.522,-8.435],[115.525,-8.435],[115.5285,-8.434],[115.5295,-8.4335],[115.531,-8.433],[115.5325,-8.433],[115.538,-8.4405],[115.548,-8.4395],[115.5495,-8.44],[115.551,-8.44],[115.551,-8.438],[115.5455,-8.432],[115.5435,-8.43],[115.54,-8.412],[115.543,-8.4065],[115.5425,-8.405],[115.54,-8.4],[115.519,-8.373],[115.5075,-8.3455],[115.5075,-8.343]]]},"properties":{"code":"51.07.06.2005","name":"Jungutan"}},{"type":"Feature","geometry":{"type":"Polygon","coordinates":[[[115.575,-8.44],[115.571,-8.4405],[115.5795,-8.455],[115.588,-8.4565],[115.59,-8.459],[115.591,-8.4595],[115.5925,-8.459],[115.5925,-8.4595],[115.5945,-8.458],[115.593,-8.453],[115.595,-8.4515],[115.5895,-8.4465],[115.588,-8.4455],[115.588,-8.445],[115.5865,-8.445],[115.575,-8.44]]]},"properties":{"code":"51.07.06.2006","name":"Bungaya Kangin"}},{"type":"Feature","geometry":{"type":"Polygon","coordinates":[[[115.5185,-8.344],[115.516,-8.3445],[115.5135,-8.3425],[115.5115,-8.3425],[115.5075,-8.343],[115.5075,-8.3455],[115.519,-8.373],[115.54,-8.4],[115.5425,-8.405],[115.549,-8.4095],[115.5635,-8.423],[115.566,-8.425],[115.567,-8.4265],[115.5675,-8.4275],[115.569,-8.4255],[115.5745,-8.416],[115.574,-8.4155],[115.5735,-8.413],[115.5725,-8.4105],[115.5725,-8.41],[115.57,-8.408],[115.5685,-8.404],[115.5685,-8.403],[115.5695,-8.3965],[115.57,-8.394],[115.5635,-8.385],[115.563,-8.383],[115.563,-8.3785],[115.561,-8.376],[115.577,-8.3655],[115.579,-8.3645],[115.58,-8.364],[115.5705,-8.3645],[115.567,-8.3635],[115.559,-8.3565],[115.5425,-8.355],[115.5275,-8.349],[115.5185,-8.344]]]},"properties":{"code":"51.07.06.2007","name":"Bhuana Giri"}},{"type":"Feature","geometry":{"type":"Polygon","coordinates":[[[115.551,-8.44],[115.5495,-8.44],[115.5475,-8.4405],[115.5415,-8.445],[115.5425,-8.455],[115.5535,-8.453],[115.553,-8.4525],[115.5555,-8.448],[115.557,-8.445],[115.5565,-8.4445],[115.5525,-8.44],[115.551,-8.44]]]},"properties":{"code":"51.07.06.2008","name":"Macang"}},{"type":"Feature","geometry":{"type":"Polygon","coordinates":[[[115.454,-8.411],[115.451,-8.406],[115.4505,-8.4065],[115.45,-8.408],[115.447,-8.409],[115.444,-8.4125],[115.443,-8.4165],[115.4415,-8.418],[115.44,-8.4175],[115.4385,-8.42],[115.4385,-8.425],[115.4405,-8.429],[115.4455,-8.4315],[115.445,-8.4325],[115.443,-8.433],[115.4365,-8.443],[115.4375,-8.4445],[115.437,-8.445],[115.448,-8.4465],[115.4495,-8.4475],[115.4505,-8.448],[115.4505,-8.4475],[115.4515,-8.447],[115.4515,-8.4465],[115.453,-8.4465],[115.4535,-8.4475],[115.454,-8.448],[115.454,-8.4475],[115.453,-8.446],[115.4565,-8.44],[115.457,-8.438],[115.457,-8.4375],[115.4565,-8.4345],[115.4565,-8.4335],[115.458,-8.431],[115.4585,-8.428],[115.4595,-8.4245],[115.454,-8.411]]]},"properties":{"code":"51.07.07.2001","name":"Muncan"}},{"type":"Feature","geometry":{"type":"Polygon","coordinates":[[[115.496,-8.4225],[115.49,-8.4215],[115.483,-8.436],[115.4745,-8.4325],[115.474,-8.433],[115.474,-8.434],[115.473,-8.4365],[115.473,-8.4385],[115.4725,-8.4405],[115.4715,-8.443],[115.468,-8.4485],[115.471,-8.456],[115.472,-8.456],[115.4745,-8.4535],[115.4755,-8.4505],[115.4905,-8.4315],[115.492,-8.429],[115.496,-8.425],[115.496,-8.4225]]]},"properties":{"code":"51.07.07.2002","name":"Selat"}},{"type":"Feature","geometry":{"type":"Polygon","coordinates":[[[115.4905,-8.4315],[115.4755,-8.4505],[115.4745,-8.4535],[115.472,-8.456],[115.472,-8.458],[115.472,-8.4625],[115.483,-8.469],[115.4865,-8.4675],[115.498,-8.4545],[115.4965,-8.4525],[115.4925,-8.451],[115.4935,-8.449],[115.4985,-8.443],[115.5,-8.4425],[115.5015,-8.441],[115.504,-8.44],[115.505,-8.437],[115.5025,-8.437],[115.501,-8.4365],[115.4905,-8.4315]]]},"properties":{"code":"51.07.07.2003","name":"Duda"}},{"type":"Feature","geometry":{"type":"Polygon","coordinates":[[[115.507,-8.343],[115.4935,-8.342],[115.4775,-8.375],[115.468,-8.383],[115.4675,-8.384],[115.4665,-8.3875],[115.4645,-8.3925],[115.4605,-8.397],[115.458,-8.3975],[115.457,-8.399],[115.456,-8.4],[115.451,-8.4055],[115.451,-8.406],[115.454,-8.411],[115.4665,-8.4185],[115.473,-8.417],[115.474,-8.416],[115.475,-8.4155],[115.476,-8.415],[115.4765,-8.4145],[115.478,-8.4135],[115.48,-8.413],[115.49,-8.4085],[115.495,-8.397],[115.504,-8.398],[115.504,-8.3985],[115.504,-8.399],[115.504,-8.3995],[115.5045,-8.399],[115.5055,-8.397],[115.5055,-8.3955],[115.506,-8.3705],[115.505,-8.3665],[115.5055,-8.364],[115.5055,-8.3565],[115.507,-8.3475],[115.507,-8.343]]]},"properties":{"code":"51.07.07.2004","name":"Sebudi"}},{"type":"Feature","geometry":{"type":"Polygon","coordinates":[[[115.5195,-8.432],[115.5195,-8.4315],[115.518,-8.426],[115.5185,-8.4245],[115.5185,-8.4235],[115.5185,-8.4205],[115.5075,-8.412],[115.504,-8.4115],[115.501,-8.407],[115.5005,-8.406],[115.499,-8.407],[115.497,-8.4205],[115.496,-8.425],[115.492,-8.429],[115.4905,-8.4315],[115.501,-8.4365],[115.5025,-8.437],[115.5055,-8.437],[115.5075,-8.436],[115.5085,-8.436],[115.516,-8.441],[115.5195,-8.432]]]},"properties":{"code":"51.07.07.2005","name":"Duda Utara"}},{"type":"Feature","geometry":{"type":"Polygon","coordinates":[[[115.516,-8.441],[115.5085,-8.436],[115.5075,-8.436],[115.5055,-8.437],[115.505,-8.437],[115.504,-8.44],[115.5015,-8.441],[115.5,-8.4425],[115.4985,-8.443],[115.4935,-8.449],[115.4925,-8.451],[115.4965,-8.4525],[115.498,-8.4545],[115.4865,-8.4675],[115.483,-8.469],[115.484,-8.473],[115.487,-8.4745],[115.4865,-8.476],[115.4865,-8.4785],[115.49,-8.479],[115.4905,-8.4785],[115.4975,-8.4655],[115.4985,-8.465],[115.501,-8.467],[115.5055,-8.467],[115.5135,-8.4655],[115.5135,-8.4645],[115.513,-8.463],[115.5145,-8.4625],[115.518,-8.461],[115.5185,-8.461],[115.518,-8.46],[115.518,-8.4585],[115.518,-8.4555],[115.51,-8.443],[115.516,-8.441]]]},"properties":{"code":"51.07.07.2006","name":"Duda Timur"}},{"type":"Feature","geometry":{"type":"Polygon","coordinates":[[[115.4765,-8.4145],[115.476,-8.415],[115.475,-8.4155],[115.474,-8.416],[115.473,-8.417],[115.4665,-8.4185],[115.454,-8.411],[115.4595,-8.4245],[115.4585,-8.428],[115.458,-8.431],[115.4565,-8.4335],[115.4565,-8.4345],[115.457,-8.4375],[115.4565,-8.4385],[115.457,-8.4395],[115.457,-8.441],[115.456,-8.4435],[115.4575,-8.4475],[115.468,-8.4485],[115.4715,-8.443],[115.4725,-8.4405],[115.473,-8.4385],[115.473,-8.4365],[115.474,-8.434],[115.474,-8.433],[115.4745,-8.432],[115.4775,-8.42],[115.4755,-8.4185],[115.4765,-8.415],[115.4765,-8.4145]]]},"properties":{"code":"51.07.07.2007","name":"Peringsari"}},{"type":"Feature","geometry":{"type":"Polygon","coordinates":[[[115.504,-8.3995],[115.504,-8.399],[115.504,-8.398],[115.495,-8.397],[115.49,-8.4085],[115.48,-8.413],[115.478,-8.4135],[115.4765,-8.415],[115.4755,-8.4185],[115.4775,-8.42],[115.4745,-8.432],[115.4745,-8.4325],[115.483,-8.436],[115.49,-8.4215],[115.496,-8.4225],[115.497,-8.4205],[115.499,-8.407],[115.501,-8.405],[115.5035,-8.4],[115.504,-8.3995]]]},"properties":{"code":"51.07.07.2008","name":"Amerta Bhuana"}},{"type":"Feature","geometry":{"type":"Polygon","coordinates":[[[115.5,-8.233],[115.487,-8.2285],[115.478,-8.2215],[115.4725,-8.223],[115.4725,-8.225],[115.474,-8.236],[115.47,-8.238],[115.4675,-8.239],[115.466,-8.2395],[115.4635,-8.241],[115.4595,-8.2425],[115.459,-8.243],[115.459,-8.244],[115.429,-8.2705],[115.4285,-8.273],[115.4295,-8.28],[115.438,-8.287],[115.445,-8.302],[115.465,-8.3125],[115.4695,-8.3095],[115.471,-8.3105],[115.4695,-8.312],[115.4695,-8.315],[115.472,-8.316],[115.472,-8.317],[115.4715,-8.319],[115.479,-8.33],[115.484,-8.3345],[115.4935,-8.342],[115.507,-8.343],[115.508,-8.343],[115.508,-8.3425],[115.508,-8.34],[115.5095,-8.336],[115.5115,-8.3165],[115.511,-8.296],[115.511,-8.294],[115.511,-8.2885],[115.511,-8.2875],[115.5115,-8.2875],[115.513,-8.2865],[115.521,-8.2685],[115.522,-8.2665],[115.51,-8.2525],[115.5085,-8.2415],[115.4995,-8.2365],[115.5,-8.233]]]},"properties":{"code":"51.07.08.2001","name":"Ban"}},{"type":"Feature","geometry":{"type":"Polygon","coordinates":[[[115.5825,-8.258],[115.58,-8.254],[115.5525,-8.277],[115.5465,-8.2795],[115.5315,-8.3005],[115.511,-8.2915],[115.511,-8.294],[115.511,-8.296],[115.5115,-8.3165],[115.5095,-8.336],[115.508,-8.34],[115.508,-8.3425],[115.5115,-8.3425],[115.5135,-8.3425],[115.516,-8.3445],[115.5185,-8.344],[115.5225,-8.345],[115.5435,-8.3445],[115.5565,-8.338],[115.5575,-8.335],[115.5615,-8.3315],[115.5595,-8.332],[115.56,-8.33],[115.562,-8.328],[115.5545,-8.3255],[115.5545,-8.32],[115.5535,-8.3175],[115.5545,-8.3145],[115.5635,-8.303],[115.5645,-8.302],[115.566,-8.3],[115.568,-8.2985],[115.5765,-8.2955],[115.5785,-8.294],[115.579,-8.2935],[115.5685,-8.273],[115.5825,-8.258]]]},"properties":{"code":"51.07.08.2002","name":"Dukuh"}},{"type":"Feature","geometry":{"type":"Polygon","coordinates":[[[115.58,-8.254],[115.5725,-8.247],[115.5705,-8.25],[115.555,-8.257],[115.5525,-8.258],[115.5335,-8.2895],[115.5315,-8.3005],[115.5465,-8.2795],[115.5525,-8.277],[115.58,-8.254]]]},"properties":{"code":"51.07.08.2003","name":"Kubu"}},{"type":"Feature","geometry":{"type":"Polygon","coordinates":[[[115.5195,-8.2105],[115.508,-8.2045],[115.501,-8.1935],[115.49,-8.189],[115.4885,-8.1915],[115.488,-8.196],[115.4875,-8.1975],[115.4875,-8.199],[115.4875,-8.2005],[115.4875,-8.203],[115.4875,-8.2035],[115.4795,-8.217],[115.4725,-8.219],[115.472,-8.226],[115.459,-8.236],[115.4585,-8.2395],[115.4575,-8.2415],[115.458,-8.2415],[115.459,-8.243],[115.4595,-8.2425],[115.4635,-8.241],[115.466,-8.2395],[115.4675,-8.239],[115.47,-8.238],[115.474,-8.236],[115.4725,-8.225],[115.4725,-8.223],[115.478,-8.2215],[115.487,-8.2285],[115.5,-8.233],[115.5005,-8.2315],[115.511,-8.2315],[115.5195,-8.2105]]]},"properties":{"code":"51.07.08.2004","name":"Tianyar"}},{"type":"Feature","geometry":{"type":"Polygon","coordinates":[[[115.4875,-8.186],[115.471,-8.1795],[115.457,-8.1665],[115.4345,-8.1805],[115.4445,-8.189],[115.4535,-8.1985],[115.438,-8.2175],[115.445,-8.2255],[115.4585,-8.2225],[115.462,-8.22],[115.461,-8.218],[115.461,-8.2165],[115.4665,-8.206],[115.467,-8.2045],[115.4595,-8.2015],[115.4575,-8.201],[115.467,-8.1925],[115.4875,-8.186]]]},"properties":{"code":"51.07.08.2005","name":"Tianyar Barat"}},{"type":"Feature","geometry":{"type":"Polygon","coordinates":[[[115.49,-8.189],[115.4875,-8.186],[115.467,-8.1925],[115.4575,-8.201],[115.4595,-8.2015],[115.467,-8.2045],[115.4665,-8.206],[115.461,-8.2165],[115.461,-8.218],[115.462,-8.22],[115.4585,-8.2225],[115.445,-8.2255],[115.4475,-8.2425],[115.448,-8.244],[115.452,-8.244],[115.4555,-8.242],[115.4575,-8.2415],[115.4585,-8.2395],[115.459,-8.236],[115.472,-8.226],[115.4725,-8.219],[115.4795,-8.217],[115.4875,-8.2035],[115.4875,-8.203],[115.4875,-8.2005],[115.4875,-8.199],[115.4875,-8.1975],[115.488,-8.196],[115.4885,-8.1915],[115.49,-8.189]]]},"properties":{"code":"51.07.08.2006","name":"Tianyar Tengah"}},{"type":"Feature","geometry":{"type":"Polygon","coordinates":[[[115.6185,-8.3005],[115.5925,-8.275],[115.5825,-8.258],[115.5685,-8.273],[115.579,-8.2935],[115.5785,-8.294],[115.5765,-8.2955],[115.568,-8.2985],[115.566,-8.3],[115.5645,-8.302],[115.5635,-8.303],[115.5545,-8.3145],[115.5535,-8.3175],[115.5545,-8.32],[115.5545,-8.3255],[115.562,-8.328],[115.56,-8.33],[115.5595,-8.332],[115.5615,-8.3315],[115.5725,-8.3275],[115.5755,-8.3275],[115.5905,-8.3285],[115.599,-8.324],[115.608,-8.3075],[115.6185,-8.3005]]]},"properties":{"code":"51.07.08.2007","name":"Tulamben"}},{"type":"Feature","geometry":{"type":"Polygon","coordinates":[[[115.5575,-8.231],[115.5325,-8.27],[115.522,-8.2665],[115.521,-8.2685],[115.513,-8.2865],[115.5115,-8.2875],[115.511,-8.2875],[115.511,-8.2885],[115.511,-8.2915],[115.5315,-8.3005],[115.5335,-8.2895],[115.5525,-8.258],[115.555,-8.257],[115.5705,-8.25],[115.5725,-8.247],[115.5575,-8.231]]]},"properties":{"code":"51.07.08.2008","name":"Baturinggit"}},{"type":"Feature","geometry":{"type":"Polygon","coordinates":[[[115.5575,-8.231],[115.5195,-8.2105],[115.511,-8.2315],[115.5005,-8.2315],[115.4995,-8.2365],[115.5085,-8.2415],[115.51,-8.2525],[115.522,-8.2665],[115.5325,-8.27],[115.5575,-8.231]]]},"properties":{"code":"51.07.08.2009","name":"Sukadana"}}]}