{"type":"FeatureCollection","features":[{"type":"Feature","geometry":{"type":"Polygon","coordinates":[[[115.2395,-8.7215],[115.2215,-8.7325],[115.218,-8.7465],[115.2345,-8.748],[115.2395,-8.7215]]]},"properties":{"code":"51.71.01.1001","name":"Serangan","latitude":-8.736258673548225,"longitude":115.23210985982101}},{"type":"Feature","geometry":{"type":"Polygon","coordinates":[[[115.211,-8.6825],[115.2085,-8.682],[115.207,-8.681],[115.2,-8.6835],[115.2005,-8.686],[115.201,-8.689],[115.2085,-8.7025],[115.206,-8.729],[115.22,-8.727],[115.22,-8.7125],[115.214,-8.704],[115.211,-8.6825]]]},"properties":{"code":"51.71.01.1002","name":"Pedungan","latitude":-8.711510492853712,"longitude":115.2106642986263}},{"type":"Feature","geometry":{"type":"Polygon","coordinates":[[[115.217,-8.6795],[115.2115,-8.6825],[115.211,-8.6825],[115.214,-8.704],[115.22,-8.7125],[115.22,-8.727],[115.2315,-8.7195],[115.226,-8.7],[115.2245,-8.692],[115.224,-8.6905],[115.2215,-8.687],[115.2205,-8.6845],[115.2175,-8.681],[115.217,-8.6795]]]},"properties":{"code":"51.71.01.1003","name":"Sesetan","latitude":-8.701562826126425,"longitude":115.22048770172064}},{"type":"Feature","geometry":{"type":"Polygon","coordinates":[[[115.2195,-8.674],[115.2165,-8.679],[115.2175,-8.681],[115.2205,-8.6845],[115.2215,-8.687],[115.224,-8.6905],[115.2245,-8.692],[115.225,-8.694],[115.234,-8.6945],[115.2335,-8.6775],[115.2335,-8.675],[115.225,-8.6745],[115.222,-8.674],[115.2195,-8.674]]]},"properties":{"code":"51.71.01.1004","name":"Panjer","latitude":-8.683239846570526,"longitude":115.22675829984557}},{"type":"Feature","geometry":{"type":"Polygon","coordinates":[[[115.246,-8.6735],[115.2335,-8.6745],[115.2335,-8.6775],[115.234,-8.6945],[115.242,-8.698],[115.2445,-8.6895],[115.2465,-8.679],[115.2465,-8.676],[115.2465,-8.6745],[115.246,-8.6745],[115.246,-8.6735]]]},"properties":{"code":"51.71.01.1005","name":"Renon","latitude":-8.684526057456319,"longitude":115.23980780787474}},{"type":"Feature","geometry":{"type":"Polygon","coordinates":[[[115.2645,-8.6825],[115.2505,-8.6805],[115.2585,-8.6995],[115.2575,-8.704],[115.258,-8.7105],[115.2635,-8.7065],[115.267,-8.692],[115.2645,-8.6825]]]},"properties":{"code":"51.71.01.1006","name":"Sanur","latitude":-8.693220347256844,"longitude":115.26003853848785}},{"type":"Feature","geometry":{"type":"Polygon","coordinates":[[[115.234,-8.6945],[115.225,-8.694],[115.226,-8.7],[115.2315,-8.7195],[115.243,-8.7135],[115.2425,-8.7],[115.242,-8.698],[115.234,-8.6945]]]},"properties":{"code":"51.71.01.2007","name":"Sidakarya","latitude":-8.70558879829904,"longitude":115.2343232157841}},{"type":"Feature","geometry":{"type":"Polygon","coordinates":[[[115.199,-8.6885],[115.197,-8.6915],[115.1935,-8.69],[115.191,-8.6935],[115.189,-8.697],[115.1875,-8.707],[115.187,-8.737],[115.188,-8.7385],[115.206,-8.729],[115.2085,-8.7025],[115.201,-8.689],[115.199,-8.6885]]]},"properties":{"code":"51.71.01.2008","name":"Pemogan","latitude":-8.713750210567431,"longitude":115.19684741543703}},{"type":"Feature","geometry":{"type":"Polygon","coordinates":[[[115.2615,-8.6695],[115.2555,-8.6645],[115.255,-8.6645],[115.2465,-8.6735],[115.2465,-8.676],[115.247,-8.6775],[115.2505,-8.6805],[115.2645,-8.6825],[115.2615,-8.6695]]]},"properties":{"code":"51.71.01.2009","name":"Sanur Kaja","latitude":-8.674580719078467,"longitude":115.25626755457512}},{"type":"Feature","geometry":{"type":"Polygon","coordinates":[[[115.2505,-8.6805],[115.247,-8.6775],[115.2465,-8.679],[115.2445,-8.6895],[115.2425,-8.7],[115.243,-8.7135],[115.258,-8.7105],[115.2575,-8.704],[115.2585,-8.6995],[115.2505,-8.6805]]]},"properties":{"code":"51.71.01.2010","name":"Sanur Kauh","latitude":-8.69849598714127,"longitude":115.2496600177555}},{"type":"Feature","geometry":{"type":"Polygon","coordinates":[[[115.2325,-8.6355],[115.232,-8.639],[115.2335,-8.643],[115.2335,-8.644],[115.2345,-8.644],[115.2355,-8.6445],[115.2365,-8.649],[115.242,-8.654],[115.2425,-8.658],[115.242,-8.658],[115.2455,-8.671],[115.2455,-8.6715],[115.246,-8.6745],[115.2465,-8.6745],[115.2465,-8.6735],[115.255,-8.6645],[115.254,-8.664],[115.246,-8.6495],[115.243,-8.6495],[115.234,-8.638],[115.2325,-8.6355]]]},"properties":{"code":"51.71.02.1003","name":"Kesiman","latitude":-8.657052869462248,"longitude":115.24516454999757}},{"type":"Feature","geometry":{"type":"Polygon","coordinates":[[[115.2335,-8.644],[115.233,-8.6455],[115.2335,-8.653],[115.234,-8.6545],[115.233,-8.655],[115.2365,-8.655],[115.239,-8.6585],[115.2425,-8.658],[115.242,-8.654],[115.2365,-8.649],[115.2355,-8.6445],[115.2345,-8.644],[115.2335,-8.644]]]},"properties":{"code":"51.71.02.1006","name":"Sumerta","latitude":-8.65196859847798,"longitude":115.23663122370891}},{"type":"Feature","geometry":{"type":"Polygon","coordinates":[[[115.222,-8.6515],[115.2185,-8.6515],[115.219,-8.6545],[115.218,-8.659],[115.2185,-8.6615],[115.2215,-8.6615],[115.2215,-8.6605],[115.2245,-8.659],[115.225,-8.657],[115.222,-8.6565],[115.222,-8.6515]]]},"properties":{"code":"51.71.02.1010","name":"Dangin Puri","latitude":-8.656874825850817,"longitude":115.22078742592035}},{"type":"Feature","geometry":{"type":"Polygon","coordinates":[[[115.2375,-8.604],[115.237,-8.6015],[115.2375,-8.601],[115.238,-8.6],[115.2355,-8.5915],[115.2345,-8.593],[115.2285,-8.5925],[115.228,-8.5925],[115.2355,-8.607],[115.2345,-8.626],[115.2335,-8.626],[115.231,-8.626],[115.232,-8.627],[115.2325,-8.6295],[115.2305,-8.63],[115.2335,-8.632],[115.242,-8.6385],[115.2445,-8.6365],[115.245,-8.635],[115.2415,-8.6115],[115.2375,-8.607],[115.237,-8.605],[115.2375,-8.604]]]},"properties":{"code":"51.71.02.1014","name":"Penatih","latitude":-8.617233237477928,"longitude":115.23710247020597}},{"type":"Feature","geometry":{"type":"Polygon","coordinates":[[[115.2245,-8.659],[115.2215,-8.6605],[115.2215,-8.6635],[115.2195,-8.67],[115.22,-8.671],[115.2195,-8.674],[115.222,-8.674],[115.2245,-8.6745],[115.228,-8.675],[115.2285,-8.6685],[115.2285,-8.6615],[115.2245,-8.659]]]},"properties":{"code":"51.71.02.2001","name":"Dangin Puri Kelod","latitude":-8.667559440281286,"longitude":115.22448145591329}},{"type":"Feature","geometry":{"type":"Polygon","coordinates":[[[115.242,-8.658],[115.239,-8.6585],[115.2365,-8.655],[115.233,-8.655],[115.2315,-8.6565],[115.229,-8.6565],[115.229,-8.658],[115.2285,-8.6685],[115.228,-8.675],[115.2335,-8.675],[115.2335,-8.6745],[115.246,-8.6735],[115.2455,-8.6715],[115.2455,-8.671],[115.242,-8.658]]]},"properties":{"code":"51.71.02.2002","name":"Sumerta Kelod","latitude":-8.665756925564995,"longitude":115.23634610132629}},{"type":"Feature","geometry":{"type":"Polygon","coordinates":[[[115.242,-8.6385],[115.2335,-8.632],[115.233,-8.635],[115.234,-8.638],[115.243,-8.6495],[115.246,-8.6495],[115.254,-8.664],[115.2555,-8.6645],[115.2615,-8.6695],[115.273,-8.652],[115.272,-8.652],[115.2685,-8.6545],[115.268,-8.6545],[115.2635,-8.656],[115.2585,-8.6545],[115.257,-8.656],[115.255,-8.656],[115.242,-8.6385]]]},"properties":{"code":"51.71.02.2004","name":"Kesiman Petilan","latitude":-8.651518653390434,"longitude":115.25062621613547}},{"type":"Feature","geometry":{"type":"Polygon","coordinates":[[[115.273,-8.6475],[115.2555,-8.632],[115.256,-8.631],[115.255,-8.6315],[115.25,-8.6315],[115.245,-8.6355],[115.2445,-8.6365],[115.242,-8.6385],[115.255,-8.656],[115.257,-8.656],[115.2585,-8.6545],[115.2635,-8.656],[115.268,-8.6545],[115.2685,-8.6545],[115.272,-8.652],[115.273,-8.652],[115.275,-8.6505],[115.273,-8.6475]]]},"properties":{"code":"51.71.02.2005","name":"Kesiman Kertalangu","latitude":-8.644513322261506,"longitude":115.258492754417}},{"type":"Feature","geometry":{"type":"Polygon","coordinates":[[[115.232,-8.639],[115.228,-8.6465],[115.229,-8.655],[115.2315,-8.6565],[115.233,-8.655],[115.234,-8.6545],[115.2335,-8.653],[115.233,-8.6455],[115.2335,-8.643],[115.232,-8.639]]]},"properties":{"code":"51.71.02.2007","name":"Sumerta Kaja","latitude":-8.647944354557588,"longitude":115.2307456657125}},{"type":"Feature","geometry":{"type":"Polygon","coordinates":[[[115.228,-8.6465],[115.2255,-8.646],[115.2235,-8.657],[115.225,-8.657],[115.2245,-8.659],[115.2285,-8.6615],[115.229,-8.658],[115.229,-8.6565],[115.229,-8.655],[115.228,-8.6465]]]},"properties":{"code":"51.71.02.2008","name":"Sumerta Kauh","latitude":-8.654845203838839,"longitude":115.22728259041328}},{"type":"Feature","geometry":{"type":"Polygon","coordinates":[[[115.244,-8.6015],[115.24,-8.6025],[115.2375,-8.604],[115.237,-8.605],[115.2375,-8.607],[115.2415,-8.6115],[115.245,-8.635],[115.245,-8.6355],[115.25,-8.6315],[115.2525,-8.6315],[115.255,-8.6315],[115.256,-8.631],[115.256,-8.6295],[115.2565,-8.6285],[115.2545,-8.6225],[115.246,-8.6165],[115.244,-8.6015]]]},"properties":{"code":"51.71.02.2015","name":"Penatih Dangin Puri","latitude":-8.621353043305444,"longitude":115.2465248014211}},{"type":"Feature","geometry":{"type":"Polygon","coordinates":[[[115.2215,-8.6615],[115.2185,-8.6615],[115.2175,-8.6615],[115.2145,-8.661],[115.2135,-8.6615],[115.212,-8.664],[115.211,-8.6645],[115.21,-8.664],[115.2095,-8.6645],[115.2095,-8.665],[115.2105,-8.665],[115.2115,-8.6645],[115.212,-8.6665],[115.2195,-8.671],[115.2195,-8.67],[115.2215,-8.6635],[115.2215,-8.6615]]]},"properties":{"code":"51.71.03.1005","name":"Dauh Puri","latitude":-8.664824845998051,"longitude":115.21701627442995}},{"type":"Feature","geometry":{"type":"Polygon","coordinates":[[[115.2125,-8.6555],[115.2005,-8.6525],[115.198,-8.652],[115.198,-8.6525],[115.1975,-8.653],[115.1975,-8.654],[115.1975,-8.6555],[115.1995,-8.657],[115.2015,-8.6605],[115.2015,-8.661],[115.204,-8.662],[115.2055,-8.6615],[115.2095,-8.6625],[115.2095,-8.663],[115.2105,-8.6635],[115.2105,-8.664],[115.2115,-8.664],[115.212,-8.664],[115.2125,-8.6635],[115.2135,-8.6615],[115.2135,-8.66],[115.2125,-8.6555]]]},"properties":{"code":"51.71.03.1007","name":"Pemecutan","latitude":-8.657616750359956,"longitude":115.20576091536775}},{"type":"Feature","geometry":{"type":"Polygon","coordinates":[[[115.1935,-8.637],[115.1935,-8.636],[115.1875,-8.6425],[115.1875,-8.6435],[115.1815,-8.648],[115.181,-8.648],[115.1795,-8.654],[115.18,-8.656],[115.1825,-8.657],[115.1825,-8.6585],[115.1865,-8.675],[115.1905,-8.6765],[115.1915,-8.676],[115.1915,-8.673],[115.1915,-8.6725],[115.191,-8.6715],[115.1905,-8.6705],[115.19,-8.6665],[115.1895,-8.666],[115.19,-8.665],[115.1915,-8.6635],[115.193,-8.6635],[115.193,-8.6625],[115.193,-8.6615],[115.1935,-8.6595],[115.1935,-8.6585],[115.194,-8.658],[115.1935,-8.657],[115.1925,-8.6555],[115.1925,-8.6525],[115.192,-8.652],[115.192,-8.651],[115.192,-8.6505],[115.1935,-8.6505],[115.1935,-8.637]]]},"properties":{"code":"51.71.03.1010","name":"Padangsambian","latitude":-8.654910567245844,"longitude":115.18823788360869}},{"type":"Feature","geometry":{"type":"Polygon","coordinates":[[[115.1915,-8.676],[115.1905,-8.6765],[115.1865,-8.675],[115.1825,-8.6585],[115.1825,-8.657],[115.18,-8.656],[115.1785,-8.6565],[115.1805,-8.66],[115.178,-8.6605],[115.1745,-8.66],[115.174,-8.6615],[115.1795,-8.676],[115.173,-8.683],[115.1735,-8.6835],[115.173,-8.684],[115.1735,-8.6845],[115.1775,-8.691],[115.1795,-8.692],[115.18,-8.6915],[115.1795,-8.6875],[115.18,-8.6865],[115.183,-8.6865],[115.185,-8.684],[115.1875,-8.683],[115.1905,-8.6805],[115.1915,-8.679],[115.1915,-8.676]]]},"properties":{"code":"51.71.03.2001","name":"Padangsambian Kelod","latitude":-8.673792706788227,"longitude":115.18128102681129}},{"type":"Feature","geometry":{"type":"Polygon","coordinates":[[[115.2115,-8.664],[115.2105,-8.664],[115.2105,-8.6635],[115.2095,-8.663],[115.2095,-8.6625],[115.2055,-8.6615],[115.204,-8.662],[115.2015,-8.661],[115.2,-8.667],[115.193,-8.673],[115.191,-8.673],[115.1915,-8.673],[115.1915,-8.676],[115.1915,-8.679],[115.1905,-8.6805],[115.1875,-8.683],[115.185,-8.684],[115.183,-8.6865],[115.18,-8.6865],[115.1795,-8.6875],[115.18,-8.6915],[115.1805,-8.692],[115.1795,-8.6935],[115.179,-8.6955],[115.1765,-8.6955],[115.1765,-8.6965],[115.182,-8.698],[115.182,-8.7035],[115.184,-8.7045],[115.1845,-8.704],[115.1875,-8.707],[115.189,-8.697],[115.191,-8.6935],[115.1935,-8.69],[115.1935,-8.6895],[115.195,-8.6875],[115.1975,-8.6845],[115.198,-8.6815],[115.206,-8.6725],[115.2075,-8.6675],[115.209,-8.6665],[115.2095,-8.666],[115.2095,-8.6655],[115.21,-8.6645],[115.211,-8.6645],[115.2115,-8.664]]]},"properties":{"code":"51.71.03.2002","name":"Pemecutan Kelod","latitude":-8.68303254218076,"longitude":115.19262180433141}},{"type":"Feature","geometry":{"type":"Polygon","coordinates":[[[115.212,-8.6665],[115.2115,-8.6645],[115.2105,-8.665],[115.2095,-8.665],[115.2095,-8.666],[115.2095,-8.6665],[115.209,-8.667],[115.2075,-8.6675],[115.206,-8.6725],[115.198,-8.6815],[115.1975,-8.6845],[115.195,-8.6875],[115.1935,-8.6895],[115.197,-8.6915],[115.199,-8.6885],[115.2005,-8.686],[115.2,-8.6835],[115.207,-8.681],[115.212,-8.6665]]]},"properties":{"code":"51.71.03.2003","name":"Dauh Puri Kauh","latitude":-8.678591688098516,"longitude":115.20312440232237}},{"type":"Feature","geometry":{"type":"Polygon","coordinates":[[[115.2195,-8.671],[115.212,-8.6665],[115.207,-8.681],[115.2085,-8.682],[115.2115,-8.6825],[115.217,-8.6795],[115.2165,-8.679],[115.2195,-8.674],[115.22,-8.671],[115.2195,-8.671]]]},"properties":{"code":"51.71.03.2004","name":"Dauh Puri Kelod","latitude":-8.674382110781758,"longitude":115.21293608498264}},{"type":"Feature","geometry":{"type":"Polygon","coordinates":[[[115.217,-8.656],[115.2125,-8.6555],[115.2135,-8.66],[115.2145,-8.661],[115.2175,-8.6615],[115.218,-8.659],[115.2185,-8.656],[115.217,-8.656]]]},"properties":{"code":"51.71.03.2006","name":"Dauh Puri Kangin","latitude":-8.658345912093859,"longitude":115.21548461593873}},{"type":"Feature","geometry":{"type":"Polygon","coordinates":[[[115.2005,-8.665],[115.195,-8.662],[115.194,-8.662],[115.193,-8.6625],[115.193,-8.6635],[115.1915,-8.6635],[115.19,-8.665],[115.1895,-8.666],[115.19,-8.6665],[115.1905,-8.6705],[115.191,-8.6715],[115.1915,-8.6725],[115.191,-8.673],[115.193,-8.673],[115.2,-8.667],[115.2005,-8.665]]]},"properties":{"code":"51.71.03.2008","name":"Tegal Harum","latitude":-8.667359703182568,"longitude":115.19420401085937}},{"type":"Feature","geometry":{"type":"Polygon","coordinates":[[[115.198,-8.652],[115.192,-8.651],[115.192,-8.652],[115.1925,-8.6525],[115.1925,-8.6555],[115.1935,-8.657],[115.194,-8.658],[115.1935,-8.6585],[115.1935,-8.6595],[115.193,-8.6615],[115.194,-8.662],[115.195,-8.662],[115.2005,-8.665],[115.201,-8.6625],[115.2015,-8.6605],[115.1995,-8.657],[115.1975,-8.6555],[115.1975,-8.654],[115.1975,-8.653],[115.198,-8.6525],[115.198,-8.652]]]},"properties":{"code":"51.71.03.2009","name":"Tegal Kertha","latitude":-8.6584456383828,"longitude":115.19663556385049}},{"type":"Feature","geometry":{"type":"Polygon","coordinates":[[[115.1875,-8.615],[115.187,-8.615],[115.1865,-8.6155],[115.1865,-8.616],[115.1865,-8.6165],[115.183,-8.616],[115.182,-8.616],[115.181,-8.616],[115.1805,-8.6165],[115.18,-8.62],[115.181,-8.623],[115.182,-8.6235],[115.182,-8.625],[115.181,-8.628],[115.18,-8.6285],[115.1815,-8.636],[115.1815,-8.637],[115.1815,-8.6395],[115.181,-8.6465],[115.1815,-8.648],[115.1875,-8.6435],[115.1875,-8.6425],[115.1935,-8.636],[115.195,-8.6345],[115.193,-8.634],[115.1925,-8.6325],[115.1915,-8.6325],[115.1905,-8.6315],[115.19,-8.63],[115.19,-8.6275],[115.188,-8.622],[115.19,-8.618],[115.189,-8.6165],[115.1885,-8.6165],[115.1875,-8.615]]]},"properties":{"code":"51.71.03.2011","name":"Padang Sambian Kaja","latitude":-8.630932326929853,"longitude":115.18533000498789}},{"type":"Feature","geometry":{"type":"Polygon","coordinates":[[[115.231,-8.626],[115.23,-8.626],[115.2285,-8.6255],[115.2195,-8.629],[115.218,-8.6305],[115.217,-8.636],[115.2215,-8.6355],[115.2245,-8.6365],[115.2255,-8.646],[115.228,-8.6465],[115.232,-8.639],[115.2325,-8.6355],[115.233,-8.635],[115.2335,-8.632],[115.2305,-8.63],[115.2325,-8.6295],[115.232,-8.627],[115.231,-8.626]]]},"properties":{"code":"51.71.04.1004","name":"Tonja","latitude":-8.63249784237828,"longitude":115.22575891037874}},{"type":"Feature","geometry":{"type":"Polygon","coordinates":[[[115.2065,-8.6305],[115.206,-8.631],[115.2055,-8.631],[115.2045,-8.631],[115.202,-8.629],[115.202,-8.6265],[115.198,-8.6265],[115.195,-8.627],[115.1925,-8.6285],[115.1915,-8.629],[115.1905,-8.629],[115.19,-8.629],[115.19,-8.63],[115.19,-8.6305],[115.1915,-8.6325],[115.1925,-8.6325],[115.193,-8.634],[115.195,-8.6345],[115.1935,-8.636],[115.1935,-8.637],[115.1955,-8.6375],[115.209,-8.6375],[115.209,-8.6365],[115.2085,-8.6335],[115.2065,-8.6315],[115.2065,-8.6305]]]},"properties":{"code":"51.71.04.1007","name":"Ubung","latitude":-8.632888052078403,"longitude":115.19954643221112}},{"type":"Feature","geometry":{"type":"Polygon","coordinates":[[[115.218,-8.612],[115.217,-8.6115],[115.209,-8.61],[115.207,-8.617],[115.207,-8.6215],[115.2085,-8.6225],[115.2075,-8.6235],[115.2055,-8.6305],[115.2065,-8.6305],[115.2065,-8.6315],[115.2085,-8.6335],[115.211,-8.6345],[115.2145,-8.634],[115.2155,-8.634],[115.2175,-8.634],[115.218,-8.6305],[115.2175,-8.6265],[115.218,-8.612]]]},"properties":{"code":"51.71.04.1009","name":"Peguyangan","latitude":-8.621806620810819,"longitude":115.21244896344832}},{"type":"Feature","geometry":{"type":"Polygon","coordinates":[[[115.2255,-8.646],[115.2245,-8.6365],[115.222,-8.6515],[115.222,-8.6565],[115.2235,-8.657],[115.2255,-8.646]]]},"properties":{"code":"51.71.04.2001","name":"Dangin Puri Kangin","latitude":-8.647230379436678,"longitude":115.22435929163171}},{"type":"Feature","geometry":{"type":"Polygon","coordinates":[[[115.2185,-8.6515],[115.2165,-8.649],[115.2165,-8.6445],[115.2155,-8.644],[115.215,-8.6455],[115.2135,-8.645],[115.214,-8.647],[115.217,-8.656],[115.2185,-8.656],[115.219,-8.6545],[115.2185,-8.6515]]]},"properties":{"code":"51.71.04.2002","name":"Dangin Puri Kauh","latitude":-8.650444742510196,"longitude":115.21622854456868}},{"type":"Feature","geometry":{"type":"Polygon","coordinates":[[[115.2245,-8.6365],[115.2215,-8.6355],[115.216,-8.636],[115.2165,-8.638],[115.216,-8.6415],[115.216,-8.642],[115.2155,-8.644],[115.2165,-8.6445],[115.2165,-8.649],[115.2185,-8.6515],[115.222,-8.6515],[115.2245,-8.6365]]]},"properties":{"code":"51.71.04.2003","name":"Dangin Puri Kaja","latitude":-8.642436046560322,"longitude":115.21957704860787}},{"type":"Feature","geometry":{"type":"Polygon","coordinates":[[[115.209,-8.6375],[115.1955,-8.6375],[115.1935,-8.637],[115.1935,-8.6505],[115.192,-8.6505],[115.192,-8.651],[115.1965,-8.6515],[115.2005,-8.6525],[115.2125,-8.6555],[115.2095,-8.638],[115.209,-8.6375]]]},"properties":{"code":"51.71.04.2005","name":"Pemecutan Kaja","latitude":-8.645790495240675,"longitude":115.20317739354215}},{"type":"Feature","geometry":{"type":"Polygon","coordinates":[[[115.2175,-8.634],[115.2155,-8.634],[115.2145,-8.634],[115.211,-8.6345],[115.2085,-8.6335],[115.209,-8.6365],[115.2095,-8.638],[115.2125,-8.6555],[115.217,-8.656],[115.214,-8.647],[115.2135,-8.645],[115.215,-8.6455],[115.216,-8.642],[115.216,-8.6415],[115.2165,-8.638],[115.216,-8.636],[115.217,-8.636],[115.2175,-8.634]]]},"properties":{"code":"51.71.04.2006","name":"Dauh Puri Kaja","latitude":-8.642183219307363,"longitude":115.21320315902902}},{"type":"Feature","geometry":{"type":"Polygon","coordinates":[[[115.203,-8.602],[115.197,-8.605],[115.1965,-8.6075],[115.196,-8.612],[115.1945,-8.6115],[115.188,-8.615],[115.1875,-8.615],[115.1885,-8.6165],[115.189,-8.6165],[115.19,-8.618],[115.188,-8.622],[115.19,-8.6275],[115.19,-8.629],[115.1905,-8.629],[115.1915,-8.629],[115.1925,-8.6285],[115.195,-8.627],[115.198,-8.6265],[115.202,-8.6265],[115.202,-8.629],[115.2045,-8.631],[115.2055,-8.631],[115.2065,-8.6305],[115.2055,-8.6305],[115.2075,-8.6235],[115.2085,-8.6225],[115.207,-8.6215],[115.207,-8.617],[115.207,-8.616],[115.206,-8.6145],[115.2035,-8.611],[115.2025,-8.6095],[115.2025,-8.606],[115.2035,-8.605],[115.2035,-8.604],[115.2035,-8.603],[115.203,-8.602]]]},"properties":{"code":"51.71.04.2008","name":"Ubung Kaja","latitude":-8.618492813664107,"longitude":115.19810693759099}},{"type":"Feature","geometry":{"type":"Polygon","coordinates":[[[115.224,-8.5975],[115.2055,-8.602],[115.2035,-8.604],[115.2035,-8.605],[115.2025,-8.606],[115.2025,-8.6095],[115.2035,-8.611],[115.206,-8.6145],[115.207,-8.616],[115.209,-8.61],[115.217,-8.6115],[115.2205,-8.611],[115.224,-8.5975]]]},"properties":{"code":"51.71.04.2010","name":"Peguyangan Kaja","latitude":-8.604385046796974,"longitude":115.21352792270575}},{"type":"Feature","geometry":{"type":"Polygon","coordinates":[[[115.228,-8.5925],[115.2275,-8.5925],[115.226,-8.593],[115.226,-8.5955],[115.2245,-8.597],[115.224,-8.5975],[115.2205,-8.611],[115.218,-8.612],[115.2175,-8.6265],[115.2195,-8.629],[115.2285,-8.6255],[115.23,-8.626],[115.2305,-8.626],[115.2325,-8.626],[115.2345,-8.626],[115.2355,-8.607],[115.228,-8.5925]]]},"properties":{"code":"51.71.04.2011","name":"Peguyangan Kangin","latitude":-8.612845969398261,"longitude":115.22735758365334}}]}