{"type":"FeatureCollection","features":[{"type":"Feature","geometry":{"type":"Polygon","coordinates":[[[120.867,-8.828],[120.8655,-8.827],[120.8625,-8.827],[120.86,-8.8265],[120.8595,-8.8275],[120.8585,-8.8285],[120.8585,-8.8305],[120.8565,-8.8325],[120.85,-8.8355],[120.856,-8.8445],[120.867,-8.828]]]},"properties":{"code":"53.09.01.1002","name":"Aimere"}},{"type":"Feature","geometry":{"type":"Polygon","coordinates":[[[120.9145,-8.831],[120.8965,-8.837],[120.8695,-8.858],[120.8635,-8.856],[120.8625,-8.857],[120.863,-8.861],[120.867,-8.8745],[120.875,-8.8715],[120.8765,-8.87],[120.8865,-8.862],[120.8825,-8.856],[120.915,-8.8385],[120.9145,-8.831]]]},"properties":{"code":"53.09.01.1003","name":"Foa"}},{"type":"Feature","geometry":{"type":"Polygon","coordinates":[[[120.923,-8.7705],[120.9145,-8.762],[120.91,-8.7595],[120.9095,-8.76],[120.9075,-8.763],[120.897,-8.7705],[120.8445,-8.776],[120.8425,-8.7795],[120.843,-8.7805],[120.8405,-8.7915],[120.84,-8.792],[120.833,-8.7965],[120.8235,-8.8215],[120.821,-8.824],[120.8155,-8.826],[120.815,-8.826],[120.8215,-8.8305],[120.838,-8.8225],[120.843,-8.828],[120.846,-8.829],[120.85,-8.8285],[120.8515,-8.8255],[120.859,-8.8265],[120.8595,-8.8265],[120.8605,-8.8265],[120.8625,-8.827],[120.8655,-8.827],[120.8675,-8.8275],[120.8685,-8.828],[120.8875,-8.822],[120.8965,-8.8155],[120.8995,-8.8125],[120.9035,-8.8085],[120.9065,-8.8065],[120.9095,-8.806],[120.9115,-8.8055],[120.9185,-8.8005],[120.922,-8.798],[120.9365,-8.793],[120.923,-8.7705]]]},"properties":{"code":"53.09.01.2001","name":"Keligejo"}},{"type":"Feature","geometry":{"type":"Polygon","coordinates":[[[120.8985,-8.815],[120.8965,-8.8155],[120.8875,-8.822],[120.8685,-8.828],[120.8675,-8.8275],[120.867,-8.828],[120.856,-8.8445],[120.8575,-8.8525],[120.8895,-8.8365],[120.906,-8.8245],[120.8985,-8.815]]]},"properties":{"code":"53.09.01.2014","name":"Aimere Timur"}},{"type":"Feature","geometry":{"type":"Polygon","coordinates":[[[120.9315,-8.737],[120.915,-8.7275],[120.912,-8.7275],[120.8895,-8.73],[120.8815,-8.7275],[120.881,-8.7255],[120.879,-8.725],[120.875,-8.723],[120.871,-8.722],[120.8595,-8.7245],[120.857,-8.725],[120.8555,-8.7285],[120.8555,-8.729],[120.854,-8.7325],[120.8545,-8.744],[120.8565,-8.7465],[120.855,-8.7505],[120.8495,-8.753],[120.8415,-8.7745],[120.8415,-8.7775],[120.8425,-8.7795],[120.8445,-8.776],[120.897,-8.7705],[120.9075,-8.763],[120.9095,-8.76],[120.9105,-8.7595],[120.9125,-8.76],[120.932,-8.739],[120.9315,-8.737]]]},"properties":{"code":"53.09.01.2018","name":"Heawea"}},{"type":"Feature","geometry":{"type":"Polygon","coordinates":[[[120.843,-8.828],[120.838,-8.8225],[120.8215,-8.8305],[120.815,-8.826],[120.811,-8.8285],[120.8115,-8.8315],[120.8185,-8.8355],[120.841,-8.831],[120.842,-8.8285],[120.843,-8.828]]]},"properties":{"code":"53.09.01.2019","name":"Legelapu"}},{"type":"Feature","geometry":{"type":"Polygon","coordinates":[[[120.9155,-8.8215],[120.927,-8.7975],[120.9365,-8.793],[120.922,-8.798],[120.9185,-8.8005],[120.9115,-8.8055],[120.9095,-8.806],[120.9065,-8.8065],[120.9035,-8.8085],[120.8995,-8.8125],[120.8985,-8.815],[120.906,-8.8245],[120.8895,-8.8365],[120.8575,-8.8525],[120.8585,-8.855],[120.862,-8.8605],[120.8625,-8.8605],[120.863,-8.861],[120.8625,-8.857],[120.8635,-8.856],[120.8695,-8.858],[120.8965,-8.837],[120.9145,-8.831],[120.917,-8.8275],[120.9185,-8.8275],[120.917,-8.824],[120.9155,-8.8215]]]},"properties":{"code":"53.09.01.2020","name":"Lekogoko"}},{"type":"Feature","geometry":{"type":"Polygon","coordinates":[[[120.9395,-8.8445],[120.938,-8.84],[120.9365,-8.839],[120.919,-8.8275],[120.9185,-8.8275],[120.917,-8.8275],[120.9145,-8.831],[120.915,-8.8385],[120.8825,-8.856],[120.8865,-8.862],[120.8765,-8.87],[120.876,-8.871],[120.8985,-8.865],[120.903,-8.8675],[120.905,-8.8725],[120.9055,-8.877],[120.9065,-8.875],[120.918,-8.8705],[120.9265,-8.8705],[120.9375,-8.8735],[120.9545,-8.878],[120.945,-8.863],[120.936,-8.8565],[120.9395,-8.8445]]]},"properties":{"code":"53.09.01.2021","name":"Binawali"}},{"type":"Feature","geometry":{"type":"Polygon","coordinates":[[[120.9055,-8.877],[120.905,-8.8725],[120.903,-8.8675],[120.8985,-8.865],[120.876,-8.871],[120.875,-8.8715],[120.867,-8.8745],[120.867,-8.875],[120.868,-8.878],[120.8685,-8.88],[120.8715,-8.884],[120.873,-8.8865],[120.876,-8.887],[120.8785,-8.8865],[120.884,-8.889],[120.8955,-8.878],[120.904,-8.877],[120.905,-8.877],[120.9055,-8.877]]]},"properties":{"code":"53.09.01.2022","name":"Kila"}},{"type":"Feature","geometry":{"type":"Polygon","coordinates":[[[120.86,-8.8265],[120.859,-8.8265],[120.8515,-8.8255],[120.85,-8.8285],[120.846,-8.829],[120.842,-8.8285],[120.841,-8.831],[120.85,-8.8355],[120.8565,-8.8325],[120.8585,-8.8305],[120.8585,-8.8285],[120.8595,-8.8275],[120.86,-8.8265]]]},"properties":{"code":"53.09.01.2023","name":"Waesae"}},{"type":"Feature","geometry":{"type":"Polygon","coordinates":[[[121.068,-8.8145],[121.061,-8.824],[121.0625,-8.823],[121.065,-8.8215],[121.064,-8.8235],[121.0645,-8.8325],[121.07,-8.8365],[121.0775,-8.8375],[121.0785,-8.8375],[121.079,-8.8365],[121.079,-8.8345],[121.078,-8.8175],[121.07,-8.8145],[121.068,-8.8145]]]},"properties":{"code":"53.09.02.1008","name":"Todabelu"}},{"type":"Feature","geometry":{"type":"Polygon","coordinates":[[[121.076,-8.778],[121.073,-8.7775],[121.0725,-8.776],[121.064,-8.7755],[121.0585,-8.786],[121.058,-8.787],[121.056,-8.7875],[121.052,-8.798],[121.049,-8.799],[121.0485,-8.803],[121.049,-8.809],[121.0495,-8.8125],[121.0465,-8.817],[121.0455,-8.8215],[121.0535,-8.8265],[121.061,-8.827],[121.0625,-8.825],[121.061,-8.824],[121.068,-8.8145],[121.077,-8.8095],[121.0785,-8.8085],[121.0825,-8.8025],[121.083,-8.7995],[121.083,-8.7985],[121.083,-8.797],[121.082,-8.794],[121.0825,-8.793],[121.0835,-8.791],[121.084,-8.7885],[121.084,-8.788],[121.0825,-8.787],[121.077,-8.7805],[121.076,-8.779],[121.076,-8.778]]]},"properties":{"code":"53.09.02.1017","name":"Mataloko"}},{"type":"Feature","geometry":{"type":"Polygon","coordinates":[[[121.059,-8.8965],[121.0615,-8.8865],[121.072,-8.878],[121.068,-8.861],[121.056,-8.859],[121.0495,-8.8615],[121.049,-8.8625],[121.0505,-8.863],[121.0515,-8.8645],[121.0525,-8.8665],[121.053,-8.867],[121.054,-8.868],[121.059,-8.87],[121.06,-8.869],[121.056,-8.881],[121.049,-8.885],[121.047,-8.8855],[121.0405,-8.89],[121.0365,-8.8945],[121.035,-8.911],[121.0355,-8.9115],[121.054,-8.9065],[121.059,-8.8965]]]},"properties":{"code":"53.09.02.2002","name":"Were I"}},{"type":"Feature","geometry":{"type":"Polygon","coordinates":[[[121.104,-8.7485],[121.105,-8.747],[121.105,-8.7465],[121.105,-8.746],[121.103,-8.7435],[121.1005,-8.7365],[121.0745,-8.7445],[121.0825,-8.7605],[121.081,-8.763],[121.08,-8.768],[121.0805,-8.77],[121.0805,-8.7705],[121.081,-8.773],[121.076,-8.778],[121.076,-8.779],[121.077,-8.7805],[121.0825,-8.787],[121.0855,-8.7885],[121.0885,-8.7875],[121.091,-8.788],[121.0945,-8.7895],[121.107,-8.7815],[121.1185,-8.792],[121.12,-8.79],[121.121,-8.7855],[121.109,-8.7685],[121.097,-8.757],[121.0965,-8.7565],[121.098,-8.7565],[121.1035,-8.748],[121.104,-8.7485]]]},"properties":{"code":"53.09.02.2009","name":"Sangadeto"}},{"type":"Feature","geometry":{"type":"Polygon","coordinates":[[[121.0685,-8.8365],[121.0655,-8.838],[121.0615,-8.8375],[121.0565,-8.833],[121.056,-8.8325],[121.056,-8.832],[121.056,-8.828],[121.055,-8.8285],[121.053,-8.8295],[121.0425,-8.8365],[121.0405,-8.838],[121.0325,-8.8475],[121.03,-8.848],[121.0295,-8.848],[121.0295,-8.849],[121.051,-8.8415],[121.0555,-8.846],[121.073,-8.843],[121.079,-8.8375],[121.0775,-8.8375],[121.07,-8.8365],[121.0685,-8.8365]]]},"properties":{"code":"53.09.02.2010","name":"Ratogesa"}},{"type":"Feature","geometry":{"type":"Polygon","coordinates":[[[121.074,-8.849],[121.061,-8.845],[121.0355,-8.8575],[121.0175,-8.8725],[121.0215,-8.8755],[121.0305,-8.876],[121.0325,-8.8735],[121.035,-8.8725],[121.038,-8.8715],[121.043,-8.8725],[121.044,-8.8735],[121.0475,-8.8725],[121.0475,-8.872],[121.047,-8.8635],[121.0485,-8.863],[121.0495,-8.8615],[121.056,-8.859],[121.0535,-8.8585],[121.0565,-8.854],[121.07,-8.8555],[121.082,-8.857],[121.074,-8.849]]]},"properties":{"code":"53.09.02.2011","name":"Radabata"}},{"type":"Feature","geometry":{"type":"Polygon","coordinates":[[[121.073,-8.843],[121.0555,-8.846],[121.051,-8.8415],[121.0295,-8.849],[121.0355,-8.8575],[121.061,-8.845],[121.074,-8.849],[121.073,-8.843]]]},"properties":{"code":"53.09.02.2018","name":"Dadawea"}},{"type":"Feature","geometry":{"type":"Polygon","coordinates":[[[121.1185,-8.792],[121.107,-8.7815],[121.0945,-8.7895],[121.1055,-8.8005],[121.106,-8.8185],[121.106,-8.8195],[121.1075,-8.82],[121.1085,-8.8195],[121.106,-8.81],[121.107,-8.808],[121.119,-8.8065],[121.1255,-8.811],[121.123,-8.806],[121.1205,-8.8015],[121.121,-8.8005],[121.121,-8.7955],[121.1185,-8.792]]]},"properties":{"code":"53.09.02.2019","name":"Sarasedu"}},{"type":"Feature","geometry":{"type":"Polygon","coordinates":[[[121.0895,-8.788],[121.0885,-8.7875],[121.0855,-8.7885],[121.084,-8.788],[121.084,-8.7885],[121.0835,-8.791],[121.0825,-8.793],[121.082,-8.794],[121.083,-8.797],[121.083,-8.7985],[121.083,-8.7995],[121.0825,-8.8025],[121.0785,-8.8085],[121.0775,-8.809],[121.078,-8.8175],[121.079,-8.8345],[121.0955,-8.821],[121.091,-8.8065],[121.092,-8.803],[121.0895,-8.788]]]},"properties":{"code":"53.09.02.2020","name":"Malanuza"}},{"type":"Feature","geometry":{"type":"Polygon","coordinates":[[[121.056,-8.881],[121.06,-8.869],[121.059,-8.87],[121.054,-8.868],[121.053,-8.867],[121.0525,-8.8665],[121.0515,-8.8645],[121.049,-8.8625],[121.0485,-8.863],[121.047,-8.8635],[121.0475,-8.872],[121.0475,-8.8725],[121.048,-8.873],[121.052,-8.8765],[121.055,-8.878],[121.0555,-8.879],[121.056,-8.881]]]},"properties":{"code":"53.09.02.2025","name":"Were"}},{"type":"Feature","geometry":{"type":"Polygon","coordinates":[[[121.082,-8.857],[121.07,-8.8555],[121.0565,-8.854],[121.0535,-8.8585],[121.056,-8.859],[121.068,-8.861],[121.072,-8.878],[121.0615,-8.8865],[121.059,-8.8965],[121.061,-8.896],[121.0665,-8.8945],[121.0705,-8.893],[121.0725,-8.8925],[121.0745,-8.8915],[121.076,-8.8895],[121.077,-8.887],[121.078,-8.883],[121.078,-8.875],[121.0825,-8.86],[121.0825,-8.8595],[121.087,-8.8585],[121.082,-8.857]]]},"properties":{"code":"53.09.02.2026","name":"Were IV"}},{"type":"Feature","geometry":{"type":"Polygon","coordinates":[[[121.104,-8.841],[121.0955,-8.821],[121.079,-8.8345],[121.079,-8.8365],[121.0785,-8.8375],[121.081,-8.8375],[121.083,-8.8395],[121.091,-8.846],[121.0995,-8.845],[121.105,-8.8445],[121.104,-8.841]]]},"properties":{"code":"53.09.02.2031","name":"Malanuza I"}},{"type":"Feature","geometry":{"type":"Polygon","coordinates":[[[121.0945,-8.7895],[121.091,-8.788],[121.0895,-8.788],[121.092,-8.803],[121.091,-8.8065],[121.0955,-8.821],[121.104,-8.841],[121.106,-8.841],[121.115,-8.838],[121.1325,-8.8215],[121.132,-8.821],[121.1295,-8.8145],[121.1295,-8.8105],[121.129,-8.809],[121.126,-8.81],[121.1255,-8.811],[121.119,-8.8065],[121.107,-8.808],[121.106,-8.81],[121.1085,-8.8195],[121.1075,-8.82],[121.106,-8.8195],[121.106,-8.8185],[121.1055,-8.8005],[121.0945,-8.7895]]]},"properties":{"code":"53.09.02.2032","name":"Sarasedu I"}},{"type":"Feature","geometry":{"type":"Polygon","coordinates":[[[121.0685,-8.8365],[121.0645,-8.8325],[121.064,-8.8235],[121.065,-8.8215],[121.0625,-8.823],[121.0625,-8.825],[121.061,-8.827],[121.057,-8.827],[121.056,-8.828],[121.056,-8.832],[121.056,-8.8325],[121.0565,-8.833],[121.0615,-8.8375],[121.0655,-8.838],[121.0685,-8.8365]]]},"properties":{"code":"53.09.02.2036","name":"Ulu Belu"}},{"type":"Feature","geometry":{"type":"Polygon","coordinates":[[[121.0775,-8.809],[121.077,-8.8095],[121.068,-8.8145],[121.07,-8.8145],[121.078,-8.8175],[121.0775,-8.809]]]},"properties":{"code":"53.09.02.2037","name":"Eko Roka"}},{"type":"Feature","geometry":{"type":"Polygon","coordinates":[[[121.057,-8.827],[121.0535,-8.8265],[121.0455,-8.8215],[121.041,-8.828],[121.04,-8.8295],[121.035,-8.8375],[121.035,-8.8405],[121.0315,-8.8475],[121.0325,-8.8475],[121.0405,-8.838],[121.0425,-8.8365],[121.053,-8.8295],[121.055,-8.8285],[121.056,-8.828],[121.057,-8.827]]]},"properties":{"code":"53.09.02.2038","name":"Wae Ia"}},{"type":"Feature","geometry":{"type":"Polygon","coordinates":[[[120.967,-8.789],[120.9665,-8.789],[120.965,-8.788],[120.9635,-8.787],[120.9625,-8.787],[120.9625,-8.7895],[120.957,-8.801],[120.9555,-8.8045],[120.955,-8.8045],[120.9555,-8.805],[120.955,-8.812],[120.955,-8.8145],[120.9555,-8.8185],[120.9585,-8.8175],[120.9595,-8.8155],[120.96,-8.814],[120.977,-8.807],[120.9795,-8.8075],[120.9795,-8.807],[120.987,-8.8015],[120.985,-8.795],[120.985,-8.792],[120.9745,-8.7935],[120.974,-8.794],[120.9725,-8.7925],[120.971,-8.7935],[120.9705,-8.7925],[120.9695,-8.7925],[120.9685,-8.792],[120.968,-8.7915],[120.9685,-8.7895],[120.967,-8.789]]]},"properties":{"code":"53.09.06.1013","name":"Bajawa"}},{"type":"Feature","geometry":{"type":"Polygon","coordinates":[[[120.9835,-8.7875],[120.975,-8.7895],[120.973,-8.7895],[120.969,-8.791],[120.9685,-8.7915],[120.9695,-8.7925],[120.9705,-8.7925],[120.971,-8.7935],[120.9725,-8.7925],[120.974,-8.794],[120.9745,-8.7935],[120.985,-8.792],[120.986,-8.7905],[120.9835,-8.7875]]]},"properties":{"code":"53.09.06.1014","name":"Tanalodu"}},{"type":"Feature","geometry":{"type":"Polygon","coordinates":[[[120.973,-8.7895],[120.973,-8.787],[120.968,-8.7865],[120.967,-8.789],[120.9685,-8.7895],[120.968,-8.7915],[120.9685,-8.7915],[120.969,-8.791],[120.973,-8.7895]]]},"properties":{"code":"53.09.06.1015","name":"Kisanata"}},{"type":"Feature","geometry":{"type":"Polygon","coordinates":[[[120.9665,-8.7805],[120.9605,-8.7805],[120.9625,-8.787],[120.9635,-8.787],[120.965,-8.788],[120.9665,-8.789],[120.968,-8.7865],[120.9695,-8.7845],[120.967,-8.7815],[120.9665,-8.7805]]]},"properties":{"code":"53.09.06.1016","name":"Jawameze"}},{"type":"Feature","geometry":{"type":"Polygon","coordinates":[[[120.9755,-8.7785],[120.9665,-8.779],[120.9665,-8.7795],[120.9665,-8.7805],[120.967,-8.7815],[120.9695,-8.7845],[120.968,-8.7865],[120.973,-8.787],[120.9735,-8.7865],[120.9735,-8.7825],[120.9755,-8.7785]]]},"properties":{"code":"53.09.06.1017","name":"Trikora"}},{"type":"Feature","geometry":{"type":"Polygon","coordinates":[[[120.9845,-8.7825],[120.975,-8.78],[120.9735,-8.7865],[120.973,-8.7895],[120.975,-8.7895],[120.9835,-8.7875],[120.984,-8.785],[120.9845,-8.7825]]]},"properties":{"code":"53.09.06.1018","name":"Ngedukelu"}},{"type":"Feature","geometry":{"type":"Polygon","coordinates":[[[120.986,-8.776],[120.98,-8.7745],[120.9755,-8.7785],[120.975,-8.78],[120.9845,-8.7825],[120.986,-8.7775],[120.986,-8.776]]]},"properties":{"code":"53.09.06.1019","name":"Lebijaga"}},{"type":"Feature","geometry":{"type":"Polygon","coordinates":[[[121.021,-8.7725],[121.0185,-8.7725],[121.017,-8.7715],[121.0165,-8.769],[121.011,-8.7685],[121.0095,-8.7685],[120.986,-8.776],[120.986,-8.7775],[120.9855,-8.78],[120.984,-8.785],[120.9835,-8.7875],[120.986,-8.7905],[120.9875,-8.79],[120.988,-8.789],[120.9885,-8.789],[120.991,-8.7875],[120.998,-8.783],[121.0005,-8.782],[121.0025,-8.781],[121.017,-8.774],[121.021,-8.7735],[121.021,-8.7725]]]},"properties":{"code":"53.09.06.1020","name":"Faobata"}},{"type":"Feature","geometry":{"type":"Polygon","coordinates":[[[120.963,-8.7665],[120.953,-8.77],[120.9585,-8.7765],[120.9595,-8.7775],[120.9605,-8.7805],[120.9665,-8.7805],[120.9665,-8.7795],[120.966,-8.778],[120.963,-8.7665]]]},"properties":{"code":"53.09.06.1021","name":"Susu"}},{"type":"Feature","geometry":{"type":"Polygon","coordinates":[[[120.9795,-8.836],[120.9575,-8.832],[120.957,-8.834],[120.956,-8.8345],[120.956,-8.836],[120.9455,-8.844],[120.946,-8.846],[120.951,-8.848],[120.9795,-8.836]]]},"properties":{"code":"53.09.06.2001","name":"Beja"}},{"type":"Feature","geometry":{"type":"Polygon","coordinates":[[[120.9915,-8.822],[120.9635,-8.823],[120.9595,-8.8225],[120.9565,-8.8305],[120.9575,-8.832],[120.9795,-8.836],[120.9815,-8.8375],[120.982,-8.839],[120.9815,-8.843],[120.9865,-8.839],[120.988,-8.838],[120.9885,-8.838],[120.99,-8.8355],[120.995,-8.83],[120.9955,-8.829],[120.9935,-8.8235],[120.992,-8.822],[120.9915,-8.822]]]},"properties":{"code":"53.09.06.2002","name":"Bomari"}},{"type":"Feature","geometry":{"type":"Polygon","coordinates":[[[120.953,-8.77],[120.952,-8.7635],[120.932,-8.739],[120.9125,-8.76],[120.91,-8.7595],[120.9145,-8.762],[120.923,-8.7705],[120.935,-8.7775],[120.9605,-8.7805],[120.9595,-8.7775],[120.9585,-8.7765],[120.953,-8.77]]]},"properties":{"code":"53.09.06.2003","name":"Wawowae"}},{"type":"Feature","geometry":{"type":"Polygon","coordinates":[[[121.0035,-8.799],[120.9965,-8.794],[120.987,-8.8015],[120.9795,-8.807],[120.98,-8.8105],[120.991,-8.817],[120.9905,-8.819],[120.991,-8.8215],[120.992,-8.822],[120.9935,-8.8235],[120.994,-8.8225],[121.0035,-8.799]]]},"properties":{"code":"53.09.06.2004","name":"Ubedolumolo"}},{"type":"Feature","geometry":{"type":"Polygon","coordinates":[[[121.017,-8.752],[120.993,-8.7525],[120.968,-8.764],[120.963,-8.7665],[120.966,-8.778],[120.9665,-8.779],[120.9755,-8.7785],[120.98,-8.7745],[120.987,-8.772],[120.9995,-8.7635],[121.011,-8.7595],[121.021,-8.7545],[121.0195,-8.7525],[121.017,-8.752]]]},"properties":{"code":"53.09.06.2005","name":"Naru"}},{"type":"Feature","geometry":{"type":"Polygon","coordinates":[[[120.9605,-8.7805],[120.935,-8.7775],[120.923,-8.7705],[120.9365,-8.793],[120.927,-8.7975],[120.9155,-8.8215],[120.9305,-8.8195],[120.937,-8.8135],[120.938,-8.8125],[120.9415,-8.8105],[120.942,-8.81],[120.948,-8.8075],[120.9495,-8.8065],[120.9505,-8.807],[120.952,-8.8075],[120.952,-8.8085],[120.9525,-8.8065],[120.953,-8.8065],[120.9535,-8.8065],[120.954,-8.8055],[120.955,-8.8045],[120.9555,-8.8045],[120.955,-8.8045],[120.9555,-8.8045],[120.957,-8.801],[120.9625,-8.7895],[120.9625,-8.787],[120.9605,-8.7805]]]},"properties":{"code":"53.09.06.2009","name":"Beiwali"}},{"type":"Feature","geometry":{"type":"Polygon","coordinates":[[[120.9795,-8.8075],[120.977,-8.807],[120.96,-8.814],[120.9595,-8.8155],[120.9585,-8.8175],[120.957,-8.8185],[120.9595,-8.822],[120.9595,-8.8225],[120.9635,-8.823],[120.9915,-8.822],[120.991,-8.8215],[120.9905,-8.819],[120.991,-8.817],[120.98,-8.8105],[120.9795,-8.8075]]]},"properties":{"code":"53.09.06.2022","name":"Borani"}},{"type":"Feature","geometry":{"type":"Polygon","coordinates":[[[120.957,-8.8185],[120.9555,-8.8185],[120.955,-8.8145],[120.955,-8.812],[120.9555,-8.805],[120.9555,-8.8045],[120.955,-8.8045],[120.954,-8.8055],[120.9535,-8.8065],[120.953,-8.8065],[120.9525,-8.8065],[120.952,-8.8085],[120.952,-8.8075],[120.9505,-8.807],[120.9495,-8.8065],[120.948,-8.8075],[120.942,-8.81],[120.9415,-8.8105],[120.938,-8.8125],[120.937,-8.8135],[120.9305,-8.8195],[120.9155,-8.8215],[120.917,-8.824],[120.919,-8.8275],[120.9365,-8.839],[120.938,-8.84],[120.9395,-8.8445],[120.9455,-8.844],[120.956,-8.836],[120.956,-8.8345],[120.957,-8.834],[120.9565,-8.8305],[120.9595,-8.8225],[120.9595,-8.822],[120.957,-8.8185]]]},"properties":{"code":"53.09.06.2023","name":"Langagedha"}},{"type":"Feature","geometry":{"type":"Polygon","coordinates":[[[121.021,-8.7725],[121.022,-8.77],[121.0245,-8.7695],[121.0255,-8.769],[121.0295,-8.768],[121.0365,-8.758],[121.0365,-8.7565],[121.0365,-8.7505],[121.0235,-8.753],[121.018,-8.756],[121.0105,-8.7685],[121.011,-8.7685],[121.0165,-8.769],[121.017,-8.7715],[121.0185,-8.7725],[121.021,-8.7725]]]},"properties":{"code":"53.09.06.2024","name":"Pape"}},{"type":"Feature","geometry":{"type":"Polygon","coordinates":[[[121.0095,-8.7685],[121.0105,-8.7685],[121.018,-8.756],[121.011,-8.7595],[120.9995,-8.7635],[120.987,-8.772],[120.98,-8.7745],[120.986,-8.776],[121.0095,-8.7685]]]},"properties":{"code":"53.09.06.2025","name":"Bowali"}},{"type":"Feature","geometry":{"type":"Polygon","coordinates":[[[120.968,-8.764],[120.964,-8.754],[120.948,-8.739],[120.932,-8.739],[120.952,-8.7635],[120.953,-8.77],[120.963,-8.7665],[120.968,-8.764]]]},"properties":{"code":"53.09.06.2026","name":"Ngoranale"}},{"type":"Feature","geometry":{"type":"Polygon","coordinates":[[[121.0035,-8.799],[121.021,-8.7755],[121.017,-8.774],[121.0025,-8.781],[121.0005,-8.782],[120.998,-8.783],[120.991,-8.7875],[120.9885,-8.789],[120.988,-8.789],[120.9875,-8.79],[120.985,-8.795],[120.987,-8.8015],[120.9965,-8.794],[121.0035,-8.799]]]},"properties":{"code":"53.09.06.2027","name":"Ubedolumolo I"}},{"type":"Feature","geometry":{"type":"Polygon","coordinates":[[[120.9815,-8.843],[120.982,-8.839],[120.9815,-8.8375],[120.9795,-8.836],[120.951,-8.848],[120.946,-8.846],[120.9455,-8.844],[120.9395,-8.8445],[120.936,-8.8565],[120.945,-8.863],[120.9545,-8.878],[120.9575,-8.8755],[120.9685,-8.8625],[120.97,-8.86],[120.9705,-8.8595],[120.976,-8.855],[120.982,-8.851],[120.9815,-8.843]]]},"properties":{"code":"53.09.06.2028","name":"Bela"}},{"type":"Feature","geometry":{"type":"Polygon","coordinates":[[[121.049,-8.672],[121.0485,-8.6715],[121.0455,-8.672],[121.0455,-8.674],[121.043,-8.6675],[121.022,-8.664],[121.0205,-8.6645],[121.0195,-8.664],[121.019,-8.6645],[121.0175,-8.664],[121.0175,-8.668],[121.0195,-8.6725],[121.021,-8.672],[121.0285,-8.6685],[121.0385,-8.6865],[121.05,-8.6765],[121.05,-8.676],[121.0505,-8.6755],[121.0495,-8.675],[121.049,-8.672]]]},"properties":{"code":"53.09.07.2001","name":"Waepana"}},{"type":"Feature","geometry":{"type":"Polygon","coordinates":[[[121.041,-8.711],[121.043,-8.7065],[121.0275,-8.714],[121.025,-8.716],[121.019,-8.7205],[121.02,-8.722],[121.029,-8.7185],[121.0295,-8.717],[121.041,-8.711]]]},"properties":{"code":"53.09.07.2004","name":"Masumeli"}},{"type":"Feature","geometry":{"type":"Polygon","coordinates":[[[121.1025,-8.6675],[121.089,-8.6635],[121.0885,-8.6625],[121.0875,-8.6595],[121.0855,-8.662],[121.0845,-8.6665],[121.084,-8.6695],[121.0855,-8.6695],[121.0875,-8.67],[121.09,-8.6735],[121.0915,-8.675],[121.0955,-8.6775],[121.1,-8.678],[121.1025,-8.675],[121.105,-8.676],[121.106,-8.678],[121.104,-8.6855],[121.0845,-8.693],[121.0835,-8.699],[121.0825,-8.7],[121.0765,-8.7025],[121.074,-8.702],[121.073,-8.702],[121.0715,-8.702],[121.0695,-8.702],[121.0695,-8.712],[121.045,-8.7125],[121.0435,-8.7145],[121.045,-8.716],[121.046,-8.718],[121.0605,-8.724],[121.0635,-8.7225],[121.069,-8.721],[121.07,-8.7205],[121.079,-8.718],[121.077,-8.7115],[121.087,-8.704],[121.087,-8.702],[121.0855,-8.7005],[121.085,-8.7],[121.088,-8.7],[121.089,-8.7005],[121.1005,-8.699],[121.1025,-8.6995],[121.104,-8.6995],[121.106,-8.7015],[121.112,-8.699],[121.113,-8.698],[121.125,-8.7025],[121.128,-8.7025],[121.126,-8.6855],[121.123,-8.686],[121.12,-8.687],[121.1165,-8.686],[121.1165,-8.6855],[121.1155,-8.6835],[121.108,-8.6795],[121.1075,-8.6745],[121.107,-8.6725],[121.1035,-8.668],[121.1025,-8.6675]]]},"properties":{"code":"53.09.07.2005","name":"Piga"}},{"type":"Feature","geometry":{"type":"Polygon","coordinates":[[[121.079,-8.718],[121.07,-8.7205],[121.069,-8.721],[121.0635,-8.7225],[121.0605,-8.724],[121.046,-8.718],[121.0455,-8.7175],[121.0435,-8.718],[121.046,-8.7215],[121.046,-8.723],[121.059,-8.7285],[121.063,-8.729],[121.068,-8.733],[121.0685,-8.734],[121.071,-8.7355],[121.0725,-8.7335],[121.074,-8.732],[121.0775,-8.731],[121.0805,-8.731],[121.0815,-8.7325],[121.0825,-8.7315],[121.0815,-8.7295],[121.0835,-8.7265],[121.079,-8.718]]]},"properties":{"code":"53.09.07.2006","name":"Loa"}},{"type":"Feature","geometry":{"type":"Polygon","coordinates":[[[121.0435,-8.718],[121.0415,-8.7185],[121.042,-8.72],[121.044,-8.7425],[121.048,-8.746],[121.0505,-8.7475],[121.053,-8.748],[121.055,-8.748],[121.0575,-8.7465],[121.0595,-8.747],[121.0615,-8.746],[121.047,-8.7245],[121.0465,-8.724],[121.0465,-8.7235],[121.046,-8.7215],[121.0435,-8.718]]]},"properties":{"code":"53.09.07.2007","name":"Tarawaja"}},{"type":"Feature","geometry":{"type":"Polygon","coordinates":[[[121.05,-8.676],[121.05,-8.6765],[121.0385,-8.6865],[121.0285,-8.6685],[121.021,-8.672],[121.0195,-8.6725],[121.021,-8.6975],[121.0205,-8.701],[121.02,-8.7025],[121.027,-8.7145],[121.0275,-8.714],[121.043,-8.7065],[121.0425,-8.6935],[121.052,-8.683],[121.053,-8.6795],[121.0515,-8.6765],[121.05,-8.676]]]},"properties":{"code":"53.09.07.2008","name":"Seso"}},{"type":"Feature","geometry":{"type":"Polygon","coordinates":[[[121.126,-8.7035],[121.125,-8.7025],[121.113,-8.698],[121.112,-8.699],[121.106,-8.7015],[121.104,-8.6995],[121.1025,-8.6995],[121.1005,-8.699],[121.089,-8.7005],[121.088,-8.7],[121.085,-8.7],[121.0855,-8.7005],[121.087,-8.702],[121.087,-8.704],[121.077,-8.7115],[121.079,-8.718],[121.0835,-8.7265],[121.0895,-8.7395],[121.1005,-8.7365],[121.103,-8.7435],[121.104,-8.7455],[121.1045,-8.746],[121.105,-8.746],[121.105,-8.7465],[121.104,-8.7485],[121.1045,-8.749],[121.107,-8.747],[121.1165,-8.7405],[121.1145,-8.718],[121.1145,-8.7175],[121.113,-8.7165],[121.112,-8.717],[121.1125,-8.7145],[121.12,-8.7095],[121.1225,-8.7085],[121.123,-8.707],[121.124,-8.7045],[121.126,-8.7035]]]},"properties":{"code":"53.09.07.2010","name":"Mengeruda"}},{"type":"Feature","geometry":{"type":"Polygon","coordinates":[[[121.0445,-8.7135],[121.045,-8.7115],[121.045,-8.7105],[121.041,-8.711],[121.0295,-8.717],[121.029,-8.7185],[121.02,-8.722],[121.0225,-8.724],[121.0415,-8.7185],[121.0435,-8.718],[121.0455,-8.7175],[121.045,-8.716],[121.0435,-8.7145],[121.0445,-8.7135]]]},"properties":{"code":"53.09.07.2011","name":"Masu Kedhi"}},{"type":"Feature","geometry":{"type":"Polygon","coordinates":[[[121.0905,-8.679],[121.0955,-8.6775],[121.0915,-8.675],[121.09,-8.6735],[121.0875,-8.67],[121.0855,-8.6695],[121.084,-8.6695],[121.068,-8.6765],[121.0665,-8.6765],[121.0655,-8.674],[121.053,-8.6725],[121.0515,-8.673],[121.049,-8.6725],[121.049,-8.672],[121.0495,-8.675],[121.0505,-8.6755],[121.05,-8.676],[121.0515,-8.6765],[121.053,-8.6795],[121.052,-8.683],[121.0425,-8.6935],[121.043,-8.7065],[121.058,-8.699],[121.06,-8.6975],[121.065,-8.694],[121.089,-8.6815],[121.0895,-8.6795],[121.0905,-8.679]]]},"properties":{"code":"53.09.07.2012","name":"Libunio"}},{"type":"Feature","geometry":{"type":"Polygon","coordinates":[[[121.027,-8.7145],[121.02,-8.7025],[121.016,-8.7115],[121.015,-8.714],[121.019,-8.7205],[121.025,-8.716],[121.027,-8.7145]]]},"properties":{"code":"53.09.07.2013","name":"Meli Waru"}},{"type":"Feature","geometry":{"type":"Polygon","coordinates":[[[121.045,-8.7105],[121.045,-8.7095],[121.048,-8.7095],[121.0585,-8.7095],[121.0595,-8.7],[121.058,-8.699],[121.043,-8.7065],[121.041,-8.711],[121.045,-8.7105]]]},"properties":{"code":"53.09.07.2014","name":"Ngabheo"}},{"type":"Feature","geometry":{"type":"Polygon","coordinates":[[[121.0835,-8.7265],[121.0815,-8.7295],[121.0825,-8.7315],[121.0815,-8.7325],[121.0805,-8.731],[121.0775,-8.731],[121.074,-8.732],[121.0725,-8.7335],[121.071,-8.7355],[121.0685,-8.734],[121.068,-8.733],[121.063,-8.729],[121.059,-8.7285],[121.046,-8.723],[121.0465,-8.7235],[121.0465,-8.724],[121.047,-8.7245],[121.0615,-8.746],[121.0615,-8.747],[121.0615,-8.7475],[121.0625,-8.7465],[121.064,-8.748],[121.0655,-8.747],[121.0655,-8.7455],[121.067,-8.747],[121.068,-8.7465],[121.0675,-8.744],[121.068,-8.744],[121.0705,-8.743],[121.071,-8.742],[121.071,-8.743],[121.072,-8.743],[121.0725,-8.744],[121.0745,-8.7445],[121.0895,-8.7395],[121.0835,-8.7265]]]},"properties":{"code":"53.09.07.2016","name":"Bogoboa"}},{"type":"Feature","geometry":{"type":"Polygon","coordinates":[[[121.0445,-8.7135],[121.045,-8.7125],[121.0695,-8.712],[121.0695,-8.702],[121.0715,-8.702],[121.073,-8.702],[121.074,-8.702],[121.0765,-8.7025],[121.0825,-8.7],[121.0835,-8.699],[121.0845,-8.693],[121.104,-8.6855],[121.106,-8.678],[121.105,-8.676],[121.1025,-8.675],[121.1,-8.678],[121.0905,-8.679],[121.0895,-8.6795],[121.089,-8.6815],[121.065,-8.694],[121.06,-8.6975],[121.0595,-8.7],[121.0585,-8.7095],[121.048,-8.7095],[121.045,-8.7095],[121.0455,-8.7105],[121.045,-8.7115],[121.0445,-8.7135]]]},"properties":{"code":"53.09.07.2017","name":"Piga I"}},{"type":"Feature","geometry":{"type":"Polygon","coordinates":[[[121.0415,-8.7185],[121.0225,-8.724],[121.027,-8.7285],[121.0375,-8.7435],[121.04,-8.7465],[121.0405,-8.747],[121.0435,-8.7475],[121.0485,-8.747],[121.048,-8.746],[121.044,-8.7425],[121.042,-8.72],[121.0415,-8.7185]]]},"properties":{"code":"53.09.07.2018","name":"Tarawali"}},{"type":"Feature","geometry":{"type":"Polygon","coordinates":[[[121.0415,-8.415],[121.031,-8.4135],[121.026,-8.425],[121.0255,-8.425],[121.0235,-8.424],[121.0035,-8.4495],[121.02,-8.466],[121.042,-8.466],[121.041,-8.457],[121.04,-8.4555],[121.034,-8.4485],[121.0325,-8.446],[121.032,-8.444],[121.031,-8.438],[121.0325,-8.4375],[121.044,-8.4225],[121.0415,-8.415]]]},"properties":{"code":"53.09.09.1010","name":"Benteng Tengah"}},{"type":"Feature","geometry":{"type":"Polygon","coordinates":[[[121.031,-8.4135],[121.026,-8.4155],[121.026,-8.418],[121.025,-8.4245],[121.026,-8.425],[121.031,-8.4135]]]},"properties":{"code":"53.09.09.1011","name":"Nangamese"}},{"type":"Feature","geometry":{"type":"Polygon","coordinates":[[[121.045,-8.4835],[121.0385,-8.491],[121.037,-8.4915],[121.036,-8.4915],[121.021,-8.4785],[121.0135,-8.476],[121.0125,-8.493],[121.016,-8.509],[121.0165,-8.509],[121.0195,-8.509],[121.043,-8.5085],[121.053,-8.4945],[121.045,-8.4835]]]},"properties":{"code":"53.09.09.2005","name":"Taenterong"}},{"type":"Feature","geometry":{"type":"Polygon","coordinates":[[[121.0985,-8.5005],[121.071,-8.5035],[121.0705,-8.5045],[121.061,-8.5035],[121.0455,-8.509],[121.043,-8.5085],[121.0395,-8.526],[121.057,-8.5245],[121.072,-8.519],[121.081,-8.524],[121.0985,-8.5165],[121.0985,-8.5005]]]},"properties":{"code":"53.09.09.2006","name":"Wangka"}},{"type":"Feature","geometry":{"type":"Polygon","coordinates":[[[121.1625,-8.536],[121.171,-8.522],[121.162,-8.51],[121.1515,-8.504],[121.1425,-8.444],[121.143,-8.442],[121.1375,-8.442],[121.132,-8.4435],[121.1355,-8.4495],[121.14,-8.479],[121.1375,-8.4975],[121.1115,-8.5025],[121.1075,-8.512],[121.0985,-8.5165],[121.112,-8.5355],[121.1475,-8.549],[121.1495,-8.548],[121.16,-8.5405],[121.1605,-8.5385],[121.1615,-8.536],[121.1625,-8.536]]]},"properties":{"code":"53.09.09.2008","name":"Lengkosambi"}},{"type":"Feature","geometry":{"type":"Polygon","coordinates":[[[121.1215,-8.4275],[121.0885,-8.4205],[121.0755,-8.413],[121.063,-8.411],[121.0415,-8.415],[121.044,-8.4225],[121.0325,-8.4375],[121.031,-8.438],[121.032,-8.444],[121.0325,-8.446],[121.034,-8.4485],[121.04,-8.4555],[121.041,-8.457],[121.042,-8.466],[121.0535,-8.4675],[121.059,-8.4615],[121.087,-8.4705],[121.1015,-8.4925],[121.1145,-8.475],[121.119,-8.4565],[121.118,-8.4435],[121.1215,-8.4275]]]},"properties":{"code":"53.09.09.2009","name":"Tadho"}},{"type":"Feature","geometry":{"type":"Polygon","coordinates":[[[120.9845,-8.3885],[120.963,-8.3705],[120.9805,-8.3665],[120.986,-8.3525],[120.9775,-8.347],[120.9565,-8.3445],[120.9435,-8.3465],[120.9565,-8.369],[120.9495,-8.371],[120.949,-8.3725],[120.9485,-8.373],[120.9485,-8.3745],[120.9535,-8.381],[120.954,-8.382],[120.9475,-8.429],[120.9475,-8.436],[120.953,-8.436],[120.962,-8.436],[120.9625,-8.436],[120.9845,-8.3885]]]},"properties":{"code":"53.09.09.2012","name":"Sambinasi"}},{"type":"Feature","geometry":{"type":"MultiPolygon","coordinates":[[[[121.026,-8.4155],[121.0145,-8.3975],[120.9845,-8.3885],[120.9625,-8.436],[120.9765,-8.4375],[120.9795,-8.4395],[120.983,-8.452],[120.987,-8.4535],[120.989,-8.4545],[120.99,-8.4535],[120.9985,-8.4475],[121.0035,-8.4495],[121.0235,-8.424],[121.025,-8.4245],[121.026,-8.418],[121.026,-8.4155]]],[[[121.01,-8.3685],[120.9985,-8.385],[121.016,-8.389],[121.019,-8.3815],[121.01,-8.3685]]]]},"properties":{"code":"53.09.09.2013","name":"Latung"}},{"type":"Feature","geometry":{"type":"Polygon","coordinates":[[[121.1015,-8.4925],[121.087,-8.4705],[121.059,-8.4615],[121.0535,-8.4675],[121.042,-8.466],[121.045,-8.474],[121.0465,-8.4755],[121.045,-8.4835],[121.053,-8.4945],[121.0455,-8.509],[121.061,-8.5035],[121.0705,-8.5045],[121.071,-8.5035],[121.0985,-8.5005],[121.1015,-8.4925]]]},"properties":{"code":"53.09.09.2014","name":"Rawangkalo"}},{"type":"Feature","geometry":{"type":"Polygon","coordinates":[[[121.0985,-8.5165],[121.081,-8.524],[121.072,-8.519],[121.057,-8.5245],[121.0395,-8.526],[121.04,-8.5365],[121.048,-8.558],[121.0415,-8.5725],[121.06,-8.5805],[121.064,-8.5815],[121.075,-8.5845],[121.078,-8.586],[121.0795,-8.5875],[121.0805,-8.5855],[121.0835,-8.5815],[121.1,-8.5755],[121.104,-8.573],[121.105,-8.572],[121.103,-8.57],[121.1005,-8.57],[121.0915,-8.564],[121.0875,-8.5465],[121.0895,-8.5315],[121.0985,-8.5165]]]},"properties":{"code":"53.09.09.2016","name":"Wangka Selatan"}},{"type":"Feature","geometry":{"type":"Polygon","coordinates":[[[121.173,-8.441],[121.165,-8.445],[121.144,-8.4295],[121.144,-8.438],[121.1425,-8.444],[121.1515,-8.504],[121.162,-8.51],[121.171,-8.522],[121.1625,-8.536],[121.1635,-8.536],[121.1735,-8.534],[121.1745,-8.535],[121.186,-8.5355],[121.186,-8.534],[121.192,-8.5255],[121.193,-8.522],[121.193,-8.5085],[121.193,-8.506],[121.1925,-8.5055],[121.191,-8.5055],[121.1885,-8.5045],[121.186,-8.5045],[121.164,-8.4805],[121.162,-8.4785],[121.1775,-8.4655],[121.179,-8.448],[121.1775,-8.4455],[121.177,-8.445],[121.173,-8.441]]]},"properties":{"code":"53.09.09.2017","name":"Lengkosambi Timur"}},{"type":"Feature","geometry":{"type":"Polygon","coordinates":[[[121.132,-8.4435],[121.131,-8.4425],[121.1285,-8.4415],[121.13,-8.441],[121.1285,-8.4325],[121.1215,-8.4275],[121.118,-8.4435],[121.119,-8.4565],[121.1145,-8.475],[121.1015,-8.4925],[121.0985,-8.5005],[121.0985,-8.5165],[121.1075,-8.512],[121.1115,-8.5025],[121.1375,-8.4975],[121.14,-8.479],[121.1355,-8.4495],[121.132,-8.4435]]]},"properties":{"code":"53.09.09.2018","name":"Lengkosambi Barat"}},{"type":"Feature","geometry":{"type":"Polygon","coordinates":[[[120.9485,-8.373],[120.938,-8.3555],[120.926,-8.3545],[120.936,-8.368],[120.9245,-8.3775],[120.9215,-8.3795],[120.9145,-8.393],[120.914,-8.3955],[120.9125,-8.41],[120.9275,-8.419],[120.929,-8.4295],[120.917,-8.4355],[120.916,-8.4375],[120.914,-8.44],[120.913,-8.4425],[120.917,-8.445],[120.918,-8.444],[120.922,-8.45],[120.9225,-8.4485],[120.925,-8.4475],[120.9325,-8.437],[120.9475,-8.436],[120.9475,-8.429],[120.954,-8.382],[120.9535,-8.381],[120.9485,-8.3745],[120.9485,-8.373]]]},"properties":{"code":"53.09.09.2019","name":"Sambinasi Barat"}},{"type":"Feature","geometry":{"type":"Polygon","coordinates":[[[121.144,-8.4295],[121.1285,-8.4325],[121.13,-8.441],[121.1285,-8.4415],[121.131,-8.4425],[121.132,-8.4435],[121.1375,-8.442],[121.143,-8.442],[121.144,-8.438],[121.144,-8.4295]]]},"properties":{"code":"53.09.09.2020","name":"Lengkosambi Utara"}},{"type":"Feature","geometry":{"type":"Polygon","coordinates":[[[121.0035,-8.4495],[120.9985,-8.4475],[120.99,-8.4535],[120.989,-8.4545],[120.9895,-8.4575],[120.9915,-8.46],[120.992,-8.4645],[120.993,-8.4655],[120.994,-8.4665],[121.0045,-8.47],[121.006,-8.4715],[121.0055,-8.473],[121.007,-8.4735],[121.0135,-8.476],[121.021,-8.4785],[121.036,-8.4915],[121.037,-8.4915],[121.0385,-8.491],[121.045,-8.4835],[121.0465,-8.4755],[121.045,-8.474],[121.042,-8.466],[121.02,-8.466],[121.0035,-8.4495]]]},"properties":{"code":"53.09.09.2021","name":"Taen Terong I"}},{"type":"Feature","geometry":{"type":"Polygon","coordinates":[[[121.043,-8.5085],[121.0195,-8.509],[121.0165,-8.509],[121.016,-8.509],[121.016,-8.511],[121.018,-8.5255],[121.0175,-8.5295],[121.0205,-8.5525],[121.0155,-8.5595],[121.0175,-8.5785],[121.0115,-8.584],[121.0415,-8.5725],[121.048,-8.558],[121.04,-8.5365],[121.0395,-8.526],[121.043,-8.5085]]]},"properties":{"code":"53.09.09.2022","name":"Taen Terong II"}},{"type":"Feature","geometry":{"type":"Polygon","coordinates":[[[120.996,-8.8945],[120.984,-8.882],[120.9545,-8.878],[120.9685,-8.8895],[120.9695,-8.896],[120.9775,-8.9],[120.979,-8.9025],[120.981,-8.9145],[120.9815,-8.9155],[120.991,-8.9025],[120.992,-8.9025],[120.9935,-8.9005],[120.995,-8.9],[120.996,-8.8945]]]},"properties":{"code":"53.09.12.2001","name":"Watumanu"}},{"type":"Feature","geometry":{"type":"Polygon","coordinates":[[[120.988,-8.868],[120.9875,-8.867],[120.9735,-8.864],[120.9715,-8.8625],[120.9695,-8.8605],[120.97,-8.86],[120.9695,-8.8605],[120.9695,-8.861],[120.969,-8.862],[120.9685,-8.8625],[120.9575,-8.8755],[120.956,-8.877],[120.981,-8.8775],[120.984,-8.876],[120.9855,-8.8725],[120.988,-8.868]]]},"properties":{"code":"53.09.12.2002","name":"Tiworiwu"}},{"type":"Feature","geometry":{"type":"Polygon","coordinates":[[[121.006,-8.8885],[121.011,-8.885],[121.0235,-8.876],[121.01,-8.879],[121.0075,-8.8795],[120.9985,-8.884],[120.9985,-8.886],[120.9995,-8.886],[121.002,-8.8905],[121.006,-8.8885]]]},"properties":{"code":"53.09.12.2003","name":"Dariwali"}},{"type":"Feature","geometry":{"type":"Polygon","coordinates":[[[121.0475,-8.8725],[121.044,-8.8735],[121.043,-8.8725],[121.04,-8.872],[121.0475,-8.885],[121.049,-8.885],[121.056,-8.881],[121.0555,-8.879],[121.055,-8.878],[121.052,-8.8765],[121.048,-8.873],[121.0475,-8.8725]]]},"properties":{"code":"53.09.12.2004","name":"Naruwolo"}},{"type":"Feature","geometry":{"type":"Polygon","coordinates":[[[121.0075,-8.904],[121.0025,-8.8995],[121.001,-8.899],[120.995,-8.9],[120.9935,-8.9005],[120.992,-8.9025],[120.991,-8.9025],[120.9815,-8.9155],[120.9805,-8.9205],[120.9805,-8.922],[120.979,-8.922],[120.9705,-8.933],[120.9715,-8.934],[120.972,-8.9345],[120.9725,-8.935],[120.991,-8.9355],[120.993,-8.927],[121.004,-8.918],[121.008,-8.9175],[121.0115,-8.921],[121.015,-8.9185],[121.0065,-8.905],[121.0075,-8.904]]]},"properties":{"code":"53.09.12.2005","name":"Nenowea"}},{"type":"Feature","geometry":{"type":"Polygon","coordinates":[[[121.04,-8.872],[121.038,-8.8715],[121.035,-8.8725],[121.0325,-8.8735],[121.0305,-8.876],[121.0235,-8.876],[121.011,-8.885],[121.006,-8.8885],[121.007,-8.889],[121.008,-8.8895],[121.0085,-8.8915],[121.0125,-8.8955],[121.0125,-8.897],[121.012,-8.899],[121.0095,-8.9025],[121.008,-8.904],[121.0075,-8.904],[121.018,-8.906],[121.0215,-8.8995],[121.035,-8.8955],[121.0405,-8.89],[121.047,-8.8855],[121.0475,-8.885],[121.04,-8.872]]]},"properties":{"code":"53.09.12.2007","name":"Naruwolo I"}},{"type":"Feature","geometry":{"type":"Polygon","coordinates":[[[121.0235,-8.92],[121.015,-8.9185],[121.0115,-8.921],[121.0095,-8.9215],[121.0075,-8.9235],[121.005,-8.9275],[121.0015,-8.93],[121.0075,-8.94],[121.022,-8.9315],[121.0235,-8.92]]]},"properties":{"code":"53.09.12.2008","name":"Naruwolo II"}},{"type":"Feature","geometry":{"type":"Polygon","coordinates":[[[121.006,-8.8885],[121.002,-8.8905],[120.9995,-8.886],[120.9985,-8.886],[120.999,-8.887],[120.998,-8.8935],[120.997,-8.894],[120.996,-8.8945],[120.995,-8.9],[121.001,-8.899],[121.0025,-8.8995],[121.0075,-8.904],[121.008,-8.904],[121.0095,-8.9025],[121.012,-8.899],[121.0125,-8.897],[121.0125,-8.8955],[121.0085,-8.8915],[121.008,-8.8895],[121.007,-8.889],[121.006,-8.8885]]]},"properties":{"code":"53.09.12.2009","name":"Dariwali I"}},{"type":"Feature","geometry":{"type":"Polygon","coordinates":[[[121.0175,-8.8725],[121.014,-8.874],[121.0075,-8.874],[121.0075,-8.8745],[121.008,-8.8755],[121.0085,-8.877],[121.0095,-8.879],[121.01,-8.879],[121.0235,-8.876],[121.0215,-8.8755],[121.0175,-8.8725]]]},"properties":{"code":"53.09.12.2010","name":"Nio Lewa"}},{"type":"Feature","geometry":{"type":"Polygon","coordinates":[[[121.003,-8.8735],[120.9975,-8.8745],[120.996,-8.8745],[120.989,-8.8695],[120.988,-8.868],[120.9855,-8.8725],[120.984,-8.876],[120.981,-8.8775],[120.956,-8.877],[120.9545,-8.878],[120.984,-8.882],[120.996,-8.8945],[120.997,-8.894],[120.998,-8.8935],[120.999,-8.887],[120.9985,-8.8865],[120.9985,-8.884],[121.0075,-8.8795],[121.0095,-8.879],[121.0085,-8.877],[121.008,-8.8755],[121.0075,-8.8745],[121.0075,-8.874],[121.004,-8.874],[121.003,-8.8735]]]},"properties":{"code":"53.09.12.2011","name":"Tiworiwu I"}},{"type":"Feature","geometry":{"type":"Polygon","coordinates":[[[120.989,-8.852],[120.987,-8.851],[120.982,-8.851],[120.976,-8.855],[120.971,-8.859],[120.9695,-8.8605],[120.9715,-8.8625],[120.9735,-8.864],[120.9875,-8.867],[120.989,-8.8695],[120.996,-8.8745],[120.9975,-8.8745],[121.003,-8.8735],[121.0025,-8.872],[121.002,-8.866],[121.0005,-8.863],[120.9995,-8.862],[120.9955,-8.856],[120.989,-8.852]]]},"properties":{"code":"53.09.12.2012","name":"Tiworiwu II"}},{"type":"Feature","geometry":{"type":"Polygon","coordinates":[[[121.035,-8.911],[121.0365,-8.8945],[121.035,-8.8955],[121.0215,-8.8995],[121.018,-8.906],[121.0075,-8.904],[121.0065,-8.905],[121.015,-8.9185],[121.0235,-8.92],[121.024,-8.914],[121.035,-8.911]]]},"properties":{"code":"53.09.12.2015","name":"Batajawa"}},{"type":"Feature","geometry":{"type":"Polygon","coordinates":[[[120.9445,-8.606],[120.925,-8.589],[120.928,-8.574],[120.9305,-8.572],[120.931,-8.569],[120.926,-8.5675],[120.9175,-8.5755],[120.8845,-8.595],[120.88,-8.5995],[120.8815,-8.603],[120.8795,-8.606],[120.8795,-8.607],[120.882,-8.612],[120.883,-8.6135],[120.885,-8.623],[120.8855,-8.6245],[120.885,-8.6255],[120.888,-8.626],[120.8885,-8.629],[120.8865,-8.632],[120.8865,-8.633],[120.885,-8.634],[120.884,-8.635],[120.883,-8.635],[120.8855,-8.6415],[120.886,-8.645],[120.8855,-8.645],[120.8865,-8.645],[120.8865,-8.6455],[120.888,-8.6455],[120.891,-8.644],[120.897,-8.6285],[120.905,-8.631],[120.9065,-8.6315],[120.908,-8.632],[120.911,-8.631],[120.912,-8.6305],[120.93,-8.625],[120.94,-8.615],[120.951,-8.614],[120.9495,-8.611],[120.947,-8.6095],[120.9455,-8.6085],[120.9445,-8.606]]]},"properties":{"code":"53.09.14.2001","name":"Benteng Tawa"}},{"type":"Feature","geometry":{"type":"Polygon","coordinates":[[[120.926,-8.5075],[120.908,-8.507],[120.901,-8.502],[120.8985,-8.498],[120.8975,-8.495],[120.897,-8.4925],[120.8935,-8.4955],[120.8685,-8.4995],[120.8685,-8.5005],[120.869,-8.5015],[120.8695,-8.503],[120.87,-8.503],[120.8715,-8.503],[120.886,-8.5115],[120.888,-8.5225],[120.888,-8.5255],[120.8835,-8.538],[120.8745,-8.5355],[120.8715,-8.5405],[120.872,-8.5415],[120.88,-8.552],[120.8805,-8.5525],[120.879,-8.5545],[120.8735,-8.5585],[120.8745,-8.559],[120.883,-8.5565],[120.887,-8.555],[120.887,-8.5545],[120.8885,-8.5525],[120.893,-8.5475],[120.8935,-8.5475],[120.8955,-8.548],[120.926,-8.5075]]]},"properties":{"code":"53.09.14.2002","name":"Lanamai"}},{"type":"Feature","geometry":{"type":"Polygon","coordinates":[[[120.976,-8.521],[120.975,-8.5215],[120.975,-8.523],[120.974,-8.523],[120.9735,-8.525],[120.9685,-8.529],[120.955,-8.526],[120.9545,-8.5255],[120.946,-8.5215],[120.9455,-8.521],[120.9445,-8.522],[120.9305,-8.527],[120.9275,-8.5295],[120.9265,-8.5305],[120.926,-8.5315],[120.9205,-8.548],[120.9195,-8.5495],[120.9155,-8.557],[120.9135,-8.5605],[120.9125,-8.561],[120.925,-8.567],[120.931,-8.569],[120.9305,-8.572],[120.928,-8.574],[120.925,-8.589],[120.9445,-8.606],[120.97,-8.577],[120.97,-8.5565],[120.9805,-8.555],[120.9795,-8.554],[120.9705,-8.5415],[120.9785,-8.529],[120.9755,-8.522],[120.976,-8.521]]]},"properties":{"code":"53.09.14.2003","name":"Wolomeze"}},{"type":"Feature","geometry":{"type":"Polygon","coordinates":[[[120.976,-8.521],[120.976,-8.5195],[120.9845,-8.4985],[120.9865,-8.4975],[120.993,-8.493],[120.996,-8.479],[120.9905,-8.473],[120.99,-8.4745],[120.9705,-8.488],[120.969,-8.4895],[120.968,-8.49],[120.967,-8.4905],[120.942,-8.5005],[120.9355,-8.5065],[120.934,-8.5075],[120.9335,-8.513],[120.936,-8.514],[120.9445,-8.52],[120.946,-8.5215],[120.9545,-8.5255],[120.955,-8.526],[120.9685,-8.529],[120.9735,-8.525],[120.974,-8.523],[120.975,-8.523],[120.975,-8.5215],[120.976,-8.521]]]},"properties":{"code":"53.09.14.2004","name":"Ria"}},{"type":"Feature","geometry":{"type":"Polygon","coordinates":[[[121.0135,-8.476],[121.007,-8.4735],[121.0055,-8.473],[121.006,-8.4715],[121.0045,-8.47],[120.994,-8.4665],[120.9935,-8.4675],[120.9925,-8.469],[120.991,-8.472],[120.9905,-8.473],[120.996,-8.479],[120.993,-8.493],[120.9865,-8.4975],[120.9845,-8.4985],[120.976,-8.5195],[120.976,-8.5205],[120.9755,-8.522],[120.9785,-8.529],[120.9705,-8.5415],[120.9795,-8.554],[120.9805,-8.555],[120.976,-8.5605],[120.975,-8.5655],[120.9775,-8.575],[121.0045,-8.585],[121.0115,-8.584],[121.0175,-8.5785],[121.0155,-8.5595],[121.0205,-8.5525],[121.0175,-8.5295],[121.018,-8.5255],[121.016,-8.511],[121.016,-8.509],[121.0125,-8.493],[121.0135,-8.476]]]},"properties":{"code":"53.09.14.2005","name":"Ngara"}},{"type":"Feature","geometry":{"type":"Polygon","coordinates":[[[120.9475,-8.436],[120.9325,-8.437],[120.925,-8.4475],[120.9225,-8.4485],[120.922,-8.45],[120.918,-8.444],[120.917,-8.445],[120.9115,-8.4535],[120.9165,-8.46],[120.924,-8.4685],[120.922,-8.476],[120.9205,-8.4765],[120.9055,-8.479],[120.9065,-8.4815],[120.8985,-8.492],[120.897,-8.4925],[120.8975,-8.495],[120.8985,-8.498],[120.901,-8.502],[120.908,-8.507],[120.926,-8.5075],[120.9325,-8.5075],[120.9355,-8.5065],[120.942,-8.5005],[120.967,-8.4905],[120.968,-8.49],[120.969,-8.4895],[120.9705,-8.488],[120.99,-8.4745],[120.991,-8.472],[120.9925,-8.469],[120.9935,-8.4675],[120.993,-8.4655],[120.992,-8.4645],[120.9915,-8.46],[120.9895,-8.4575],[120.987,-8.4535],[120.983,-8.452],[120.9795,-8.4395],[120.9765,-8.4375],[120.9625,-8.436],[120.962,-8.436],[120.953,-8.436],[120.9475,-8.436]]]},"properties":{"code":"53.09.14.2006","name":"Ria I"}},{"type":"Feature","geometry":{"type":"Polygon","coordinates":[[[120.934,-8.5075],[120.9325,-8.5075],[120.926,-8.5075],[120.8955,-8.548],[120.8935,-8.5475],[120.893,-8.5475],[120.8885,-8.5525],[120.887,-8.5545],[120.887,-8.555],[120.888,-8.558],[120.893,-8.559],[120.8955,-8.5585],[120.9105,-8.559],[120.9135,-8.5605],[120.9155,-8.557],[120.9195,-8.5495],[120.9205,-8.548],[120.926,-8.5315],[120.9265,-8.5305],[120.9275,-8.5295],[120.9305,-8.527],[120.9445,-8.522],[120.9455,-8.521],[120.9445,-8.52],[120.936,-8.514],[120.9335,-8.513],[120.934,-8.5075]]]},"properties":{"code":"53.09.14.2007","name":"Wolomeze I"}},{"type":"Feature","geometry":{"type":"Polygon","coordinates":[[[120.8745,-8.5355],[120.8565,-8.5425],[120.8575,-8.544],[120.8555,-8.5555],[120.857,-8.559],[120.8575,-8.568],[120.857,-8.5695],[120.858,-8.5705],[120.8595,-8.572],[120.8605,-8.5705],[120.864,-8.58],[120.866,-8.584],[120.868,-8.5845],[120.869,-8.5875],[120.8695,-8.5895],[120.869,-8.59],[120.869,-8.5905],[120.871,-8.592],[120.871,-8.593],[120.8735,-8.594],[120.8775,-8.5975],[120.879,-8.5975],[120.8845,-8.595],[120.9175,-8.5755],[120.926,-8.5675],[120.925,-8.567],[120.9125,-8.561],[120.9105,-8.559],[120.8955,-8.5585],[120.893,-8.559],[120.888,-8.558],[120.883,-8.5565],[120.8745,-8.559],[120.8735,-8.5585],[120.879,-8.5545],[120.8805,-8.5525],[120.88,-8.552],[120.872,-8.5415],[120.8715,-8.5405],[120.8745,-8.5355]]]},"properties":{"code":"53.09.14.2008","name":"Benteng Tawa I"}},{"type":"Feature","geometry":{"type":"Polygon","coordinates":[[[120.8745,-8.5355],[120.8835,-8.538],[120.888,-8.5255],[120.888,-8.5225],[120.886,-8.5115],[120.8715,-8.503],[120.87,-8.503],[120.8695,-8.503],[120.869,-8.5015],[120.8685,-8.5005],[120.868,-8.5],[120.852,-8.5045],[120.8485,-8.5185],[120.8505,-8.521],[120.8515,-8.5225],[120.8515,-8.534],[120.852,-8.5345],[120.852,-8.5365],[120.853,-8.539],[120.8565,-8.5425],[120.8745,-8.5355]]]},"properties":{"code":"53.09.14.2009","name":"Lanamai I"}},{"type":"Feature","geometry":{"type":"Polygon","coordinates":[[[120.9805,-8.555],[120.97,-8.5565],[120.97,-8.577],[120.9445,-8.606],[120.9455,-8.6085],[120.947,-8.6095],[120.9495,-8.611],[120.9515,-8.6125],[120.9555,-8.611],[120.959,-8.61],[120.9615,-8.608],[120.9815,-8.609],[120.9835,-8.609],[120.994,-8.6075],[120.995,-8.607],[120.9955,-8.607],[120.997,-8.6085],[121.006,-8.615],[121.006,-8.6145],[121.005,-8.61],[121.004,-8.604],[121.004,-8.602],[121.004,-8.601],[121.006,-8.5965],[121.004,-8.5915],[121.0035,-8.5885],[121.0045,-8.585],[120.9775,-8.575],[120.975,-8.5655],[120.976,-8.5605],[120.9805,-8.555]]]},"properties":{"code":"53.09.14.2010","name":"Wolomeze II"}},{"type":"Feature","geometry":{"type":"Polygon","coordinates":[[[120.928,-8.662],[120.907,-8.6495],[120.904,-8.65],[120.8935,-8.6515],[120.891,-8.651],[120.8905,-8.6525],[120.886,-8.6605],[120.883,-8.6615],[120.88,-8.6715],[120.888,-8.6735],[120.934,-8.6735],[120.9335,-8.6735],[120.9335,-8.673],[120.9325,-8.671],[120.928,-8.662]]]},"properties":{"code":"53.09.15.2001","name":"Uluwae"}},{"type":"Feature","geometry":{"type":"Polygon","coordinates":[[[120.976,-8.7225],[120.959,-8.7185],[120.941,-8.7275],[120.9395,-8.7295],[120.9315,-8.737],[120.932,-8.739],[120.948,-8.739],[120.964,-8.754],[120.968,-8.764],[120.993,-8.7525],[121.0015,-8.732],[121.0065,-8.7295],[121.0095,-8.7255],[121.0095,-8.7245],[120.995,-8.7245],[120.976,-8.7225]]]},"properties":{"code":"53.09.15.2002","name":"Inelika"}},{"type":"Feature","geometry":{"type":"Polygon","coordinates":[[[121.001,-8.668],[121.0005,-8.6655],[120.999,-8.6655],[120.997,-8.665],[120.9955,-8.6655],[120.9875,-8.6675],[120.987,-8.6675],[120.9855,-8.668],[120.982,-8.671],[120.981,-8.6745],[120.9815,-8.675],[120.9775,-8.694],[120.976,-8.7225],[120.9855,-8.7075],[121.0095,-8.6835],[121.012,-8.6745],[121.001,-8.668]]]},"properties":{"code":"53.09.15.2003","name":"Inegena"}},{"type":"Feature","geometry":{"type":"Polygon","coordinates":[[[121.019,-8.7205],[121.015,-8.716],[121.0095,-8.7235],[121.0095,-8.7255],[121.0065,-8.7295],[121.0045,-8.7305],[121.0175,-8.75],[121.0195,-8.7525],[121.021,-8.7545],[121.0235,-8.753],[121.0365,-8.7505],[121.0365,-8.7475],[121.0395,-8.7465],[121.0375,-8.7435],[121.027,-8.7285],[121.019,-8.7205]]]},"properties":{"code":"53.09.15.2004","name":"Wololika"}},{"type":"Feature","geometry":{"type":"Polygon","coordinates":[[[120.962,-8.6665],[120.9505,-8.669],[120.928,-8.662],[120.9325,-8.671],[120.9335,-8.673],[120.9335,-8.6735],[120.9345,-8.6735],[120.943,-8.682],[120.9425,-8.6845],[120.943,-8.686],[120.9465,-8.6855],[120.9635,-8.6925],[120.967,-8.6875],[120.964,-8.6805],[120.963,-8.671],[120.963,-8.6665],[120.962,-8.6665]]]},"properties":{"code":"53.09.15.2005","name":"Watukapu"}},{"type":"Feature","geometry":{"type":"Polygon","coordinates":[[[120.9395,-8.7295],[120.938,-8.726],[120.934,-8.7115],[120.9135,-8.691],[120.879,-8.6855],[120.8785,-8.6865],[120.8745,-8.692],[120.875,-8.697],[120.872,-8.696],[120.8675,-8.6975],[120.8675,-8.6965],[120.8665,-8.696],[120.8655,-8.6965],[120.857,-8.7035],[120.8545,-8.7035],[120.854,-8.705],[120.8475,-8.704],[120.8465,-8.706],[120.846,-8.715],[120.844,-8.72],[120.8475,-8.7205],[120.849,-8.7255],[120.8515,-8.7295],[120.853,-8.73],[120.855,-8.729],[120.8555,-8.729],[120.8555,-8.7285],[120.857,-8.725],[120.8595,-8.7245],[120.871,-8.722],[120.875,-8.723],[120.879,-8.725],[120.881,-8.7255],[120.8815,-8.7275],[120.8895,-8.73],[120.912,-8.7275],[120.915,-8.7275],[120.9315,-8.737],[120.9395,-8.7295]]]},"properties":{"code":"53.09.15.2006","name":"Waewea"}},{"type":"Feature","geometry":{"type":"Polygon","coordinates":[[[121.017,-8.6645],[121.003,-8.6655],[121.001,-8.668],[121.012,-8.6745],[121.0095,-8.6835],[120.9855,-8.7075],[120.976,-8.7225],[120.995,-8.7245],[121.0095,-8.7245],[121.0095,-8.7235],[121.015,-8.716],[121.015,-8.714],[121.016,-8.7115],[121.0205,-8.701],[121.021,-8.6975],[121.0195,-8.6725],[121.0175,-8.668],[121.017,-8.6645]]]},"properties":{"code":"53.09.15.2007","name":"Nabelena"}},{"type":"Feature","geometry":{"type":"Polygon","coordinates":[[[120.987,-8.6675],[120.9835,-8.667],[120.9825,-8.667],[120.9755,-8.669],[120.966,-8.667],[120.963,-8.6665],[120.963,-8.671],[120.964,-8.6805],[120.967,-8.6875],[120.9635,-8.6925],[120.9465,-8.6855],[120.9445,-8.688],[120.945,-8.689],[120.9455,-8.691],[120.9445,-8.6915],[120.944,-8.693],[120.9465,-8.705],[120.9475,-8.7115],[120.959,-8.7185],[120.976,-8.7225],[120.9775,-8.694],[120.9815,-8.675],[120.981,-8.6745],[120.982,-8.671],[120.9855,-8.668],[120.987,-8.6675]]]},"properties":{"code":"53.09.15.2008","name":"Genamere"}},{"type":"Feature","geometry":{"type":"Polygon","coordinates":[[[120.907,-8.6315],[120.905,-8.631],[120.897,-8.6285],[120.891,-8.644],[120.888,-8.6455],[120.8865,-8.6455],[120.8865,-8.645],[120.8855,-8.645],[120.8855,-8.6455],[120.8855,-8.6475],[120.886,-8.6475],[120.887,-8.6475],[120.8885,-8.6485],[120.8895,-8.6495],[120.8915,-8.65],[120.8905,-8.6515],[120.891,-8.651],[120.8935,-8.6515],[120.904,-8.65],[120.906,-8.65],[120.905,-8.6405],[120.905,-8.6355],[120.906,-8.6335],[120.906,-8.633],[120.907,-8.632],[120.907,-8.6315]]]},"properties":{"code":"53.09.15.2009","name":"Uluwae I"}},{"type":"Feature","geometry":{"type":"Polygon","coordinates":[[[120.934,-8.6735],[120.888,-8.6735],[120.881,-8.6735],[120.8815,-8.674],[120.8835,-8.676],[120.8805,-8.6765],[120.8825,-8.679],[120.8785,-8.6825],[120.8785,-8.6835],[120.879,-8.6855],[120.9135,-8.691],[120.934,-8.7115],[120.938,-8.726],[120.941,-8.7275],[120.959,-8.7185],[120.9475,-8.7115],[120.9465,-8.705],[120.944,-8.693],[120.9445,-8.6915],[120.9455,-8.691],[120.945,-8.689],[120.9445,-8.688],[120.943,-8.686],[120.9425,-8.6845],[120.943,-8.682],[120.9345,-8.6735],[120.934,-8.6735]]]},"properties":{"code":"53.09.15.2010","name":"Uluwae II"}},{"type":"Feature","geometry":{"type":"Polygon","coordinates":[[[121.017,-8.752],[121.0175,-8.75],[121.0045,-8.7305],[121.0015,-8.732],[120.993,-8.7525],[121.017,-8.752]]]},"properties":{"code":"53.09.15.2011","name":"Tura Muri"}},{"type":"Feature","geometry":{"type":"Polygon","coordinates":[[[121.006,-8.615],[120.997,-8.6085],[120.9965,-8.608],[120.9835,-8.6315],[121.0065,-8.64],[121.0245,-8.654],[121.019,-8.6645],[121.0205,-8.664],[121.0205,-8.6635],[121.022,-8.664],[121.043,-8.6675],[121.0455,-8.674],[121.0455,-8.672],[121.0485,-8.6715],[121.049,-8.6725],[121.0515,-8.673],[121.053,-8.6725],[121.0655,-8.674],[121.0665,-8.6765],[121.068,-8.6765],[121.084,-8.6695],[121.0845,-8.6665],[121.0855,-8.662],[121.087,-8.6585],[121.086,-8.6575],[121.0855,-8.6565],[121.082,-8.65],[121.079,-8.649],[121.055,-8.639],[121.0395,-8.6395],[121.037,-8.638],[121.0355,-8.636],[121.035,-8.6345],[121.033,-8.634],[121.03,-8.6315],[121.0285,-8.6315],[121.0275,-8.6315],[121.024,-8.63],[121.006,-8.615]]]},"properties":{"code":"53.09.16.2001","name":"Nginamanu"}},{"type":"Feature","geometry":{"type":"Polygon","coordinates":[[[121.0415,-8.5725],[121.0115,-8.584],[121.0255,-8.589],[121.055,-8.6075],[121.065,-8.609],[121.073,-8.6015],[121.078,-8.597],[121.0795,-8.596],[121.084,-8.5945],[121.0915,-8.596],[121.089,-8.595],[121.082,-8.5895],[121.0805,-8.588],[121.078,-8.586],[121.075,-8.5845],[121.064,-8.5815],[121.06,-8.5805],[121.0415,-8.5725]]]},"properties":{"code":"53.09.16.2002","name":"Denatana"}},{"type":"Feature","geometry":{"type":"Polygon","coordinates":[[[121.1295,-8.592],[121.129,-8.5905],[121.126,-8.589],[121.122,-8.5915],[121.107,-8.5875],[121.1085,-8.5725],[121.105,-8.572],[121.104,-8.573],[121.1,-8.5755],[121.0835,-8.5815],[121.0805,-8.5855],[121.0795,-8.5875],[121.082,-8.5895],[121.089,-8.595],[121.093,-8.597],[121.105,-8.6285],[121.1005,-8.637],[121.103,-8.645],[121.1015,-8.6535],[121.104,-8.6555],[121.1045,-8.6585],[121.1055,-8.657],[121.106,-8.656],[121.1075,-8.655],[121.1185,-8.645],[121.12,-8.646],[121.1225,-8.6445],[121.122,-8.644],[121.1335,-8.6425],[121.1405,-8.6235],[121.141,-8.607],[121.1395,-8.604],[121.1295,-8.592]]]},"properties":{"code":"53.09.16.2003","name":"Mainai"}},{"type":"Feature","geometry":{"type":"Polygon","coordinates":[[[121.1475,-8.549],[121.112,-8.5355],[121.0985,-8.5165],[121.0895,-8.5315],[121.0875,-8.5465],[121.0915,-8.564],[121.1005,-8.57],[121.103,-8.57],[121.105,-8.572],[121.1085,-8.5725],[121.107,-8.5875],[121.122,-8.5915],[121.126,-8.589],[121.129,-8.5905],[121.1295,-8.592],[121.1295,-8.5915],[121.138,-8.56],[121.1465,-8.549],[121.1475,-8.549]]]},"properties":{"code":"53.09.16.2004","name":"Turaloa"}},{"type":"Feature","geometry":{"type":"Polygon","coordinates":[[[121.019,-8.6645],[121.0245,-8.654],[121.0065,-8.64],[120.9835,-8.6315],[120.98,-8.6375],[120.962,-8.6665],[120.9635,-8.6665],[120.966,-8.667],[120.9755,-8.669],[120.9825,-8.667],[120.9835,-8.667],[120.987,-8.6675],[120.9875,-8.6675],[120.9955,-8.6655],[120.997,-8.665],[120.999,-8.6655],[121.0005,-8.6655],[121.003,-8.6655],[121.017,-8.6645],[121.0175,-8.664],[121.019,-8.6645]]]},"properties":{"code":"53.09.16.2005","name":"Nginamanu Selatan"}},{"type":"Feature","geometry":{"type":"Polygon","coordinates":[[[120.9965,-8.608],[120.996,-8.6075],[120.995,-8.607],[120.994,-8.6075],[120.9835,-8.609],[120.9815,-8.609],[120.9615,-8.608],[120.959,-8.61],[120.9555,-8.611],[120.9515,-8.6125],[120.951,-8.614],[120.94,-8.615],[120.93,-8.625],[120.912,-8.6305],[120.911,-8.631],[120.908,-8.632],[120.907,-8.6315],[120.907,-8.632],[120.906,-8.633],[120.906,-8.6335],[120.905,-8.6355],[120.905,-8.6405],[120.906,-8.65],[120.907,-8.6495],[120.928,-8.662],[120.9505,-8.669],[120.962,-8.6665],[120.98,-8.6375],[120.9965,-8.608]]]},"properties":{"code":"53.09.16.2006","name":"Nginamanu Barat"}},{"type":"Feature","geometry":{"type":"Polygon","coordinates":[[[121.065,-8.609],[121.055,-8.6075],[121.0255,-8.589],[121.0115,-8.584],[121.0045,-8.585],[121.0035,-8.5885],[121.004,-8.5915],[121.006,-8.5965],[121.004,-8.601],[121.004,-8.602],[121.004,-8.604],[121.005,-8.61],[121.006,-8.6145],[121.006,-8.615],[121.024,-8.63],[121.0275,-8.6315],[121.0285,-8.6315],[121.03,-8.6315],[121.033,-8.634],[121.035,-8.6345],[121.0355,-8.636],[121.037,-8.638],[121.0395,-8.6395],[121.055,-8.639],[121.079,-8.649],[121.0815,-8.6485],[121.0815,-8.6465],[121.083,-8.6455],[121.0845,-8.641],[121.084,-8.6395],[121.08,-8.6255],[121.067,-8.621],[121.065,-8.609]]]},"properties":{"code":"53.09.16.2007","name":"Wue"}},{"type":"Feature","geometry":{"type":"Polygon","coordinates":[[[121.0915,-8.596],[121.084,-8.5945],[121.0795,-8.596],[121.078,-8.597],[121.073,-8.6015],[121.065,-8.609],[121.067,-8.621],[121.08,-8.6255],[121.084,-8.6395],[121.0845,-8.641],[121.083,-8.6455],[121.0815,-8.6465],[121.0815,-8.6485],[121.082,-8.65],[121.0855,-8.6565],[121.086,-8.6575],[121.087,-8.6585],[121.0875,-8.6595],[121.0885,-8.6625],[121.089,-8.6635],[121.1025,-8.6675],[121.101,-8.663],[121.1025,-8.66],[121.1045,-8.6585],[121.104,-8.6555],[121.1015,-8.6535],[121.103,-8.645],[121.1005,-8.637],[121.105,-8.6285],[121.093,-8.597],[121.0915,-8.596]]]},"properties":{"code":"53.09.16.2008","name":"Denatana Timur"}},{"type":"Feature","geometry":{"type":"Polygon","coordinates":[[[121.0285,-8.9555],[121.0215,-8.941],[121.0075,-8.94],[121.004,-8.9445],[121.003,-8.947],[121.003,-8.949],[121.003,-8.9555],[121.0285,-8.9555]]]},"properties":{"code":"53.09.18.2001","name":"Bawarani"}},{"type":"Feature","geometry":{"type":"Polygon","coordinates":[[[121.035,-8.911],[121.024,-8.914],[121.022,-8.9315],[121.0075,-8.94],[121.0215,-8.941],[121.0285,-8.9555],[121.0325,-8.955],[121.036,-8.9555],[121.0335,-8.9325],[121.0355,-8.9115],[121.035,-8.911]]]},"properties":{"code":"53.09.18.2002","name":"Wogowela"}},{"type":"Feature","geometry":{"type":"Polygon","coordinates":[[[121.053,-8.947],[121.0505,-8.93],[121.036,-8.9145],[121.0355,-8.9115],[121.0335,-8.9325],[121.036,-8.9555],[121.053,-8.947]]]},"properties":{"code":"53.09.18.2003","name":"Watu Sipi"}},{"type":"Feature","geometry":{"type":"Polygon","coordinates":[[[121.065,-8.939],[121.063,-8.9335],[121.059,-8.8965],[121.054,-8.9065],[121.0355,-8.9115],[121.036,-8.9145],[121.0505,-8.93],[121.053,-8.947],[121.065,-8.939]]]},"properties":{"code":"53.09.18.2004","name":"Boba"}},{"type":"Feature","geometry":{"type":"Polygon","coordinates":[[[121.077,-8.895],[121.0745,-8.8925],[121.0735,-8.892],[121.072,-8.8925],[121.0705,-8.893],[121.0665,-8.8945],[121.064,-8.8955],[121.061,-8.896],[121.059,-8.8965],[121.063,-8.9335],[121.065,-8.939],[121.0935,-8.921],[121.083,-8.9115],[121.077,-8.895]]]},"properties":{"code":"53.09.18.2005","name":"Boba I"}},{"type":"Feature","geometry":{"type":"Polygon","coordinates":[[[121.113,-8.8765],[121.1095,-8.8755],[121.1085,-8.8755],[121.109,-8.8775],[121.092,-8.885],[121.0865,-8.8865],[121.082,-8.8895],[121.08,-8.8915],[121.077,-8.895],[121.083,-8.9115],[121.0935,-8.921],[121.1125,-8.916],[121.137,-8.9015],[121.1365,-8.901],[121.134,-8.9],[121.1305,-8.897],[121.1295,-8.895],[121.1295,-8.894],[121.1275,-8.8925],[121.12,-8.8885],[121.119,-8.8865],[121.118,-8.885],[121.1165,-8.8845],[121.1155,-8.882],[121.113,-8.8765]]]},"properties":{"code":"53.09.18.2006","name":"Were III"}},{"type":"Feature","geometry":{"type":"Polygon","coordinates":[[[121.127,-8.8845],[121.123,-8.883],[121.122,-8.8825],[121.119,-8.8865],[121.12,-8.8885],[121.1275,-8.8925],[121.1295,-8.894],[121.1295,-8.895],[121.1305,-8.897],[121.134,-8.9],[121.1365,-8.901],[121.137,-8.9015],[121.139,-8.898],[121.1385,-8.8975],[121.127,-8.8845]]]},"properties":{"code":"53.09.18.2007","name":"Kezewea"}},{"type":"Feature","geometry":{"type":"Polygon","coordinates":[[[121.122,-8.8825],[121.122,-8.881],[121.122,-8.88],[121.119,-8.8795],[121.115,-8.875],[121.1225,-8.855],[121.1205,-8.852],[121.116,-8.8525],[121.114,-8.8535],[121.114,-8.8585],[121.113,-8.8765],[121.1155,-8.882],[121.1165,-8.8845],[121.118,-8.885],[121.119,-8.8865],[121.122,-8.8825]]]},"properties":{"code":"53.09.18.2008","name":"Nirmala"}},{"type":"Feature","geometry":{"type":"Polygon","coordinates":[[[121.1135,-8.856],[121.1055,-8.847],[121.106,-8.8445],[121.1055,-8.844],[121.105,-8.8445],[121.0995,-8.845],[121.099,-8.8455],[121.1,-8.8525],[121.099,-8.8545],[121.091,-8.8535],[121.088,-8.8585],[121.0885,-8.858],[121.0925,-8.8585],[121.0955,-8.871],[121.1085,-8.8755],[121.1095,-8.8755],[121.113,-8.8765],[121.114,-8.8585],[121.1135,-8.856]]]},"properties":{"code":"53.09.18.2009","name":"Sadha"}},{"type":"Feature","geometry":{"type":"Polygon","coordinates":[[[121.136,-8.8375],[121.1325,-8.8215],[121.115,-8.838],[121.106,-8.841],[121.105,-8.8445],[121.1055,-8.844],[121.106,-8.8445],[121.1055,-8.847],[121.1135,-8.856],[121.114,-8.8535],[121.116,-8.8525],[121.1205,-8.852],[121.1225,-8.851],[121.128,-8.849],[121.1315,-8.849],[121.139,-8.843],[121.14,-8.843],[121.1395,-8.841],[121.1375,-8.8395],[121.136,-8.8375]]]},"properties":{"code":"53.09.18.2010","name":"Takatunga"}},{"type":"Feature","geometry":{"type":"Polygon","coordinates":[[[121.099,-8.8455],[121.091,-8.846],[121.083,-8.8395],[121.081,-8.8375],[121.0785,-8.8375],[121.079,-8.8375],[121.073,-8.843],[121.074,-8.849],[121.082,-8.857],[121.087,-8.8585],[121.088,-8.8585],[121.091,-8.8535],[121.099,-8.8545],[121.1,-8.8525],[121.099,-8.8455]]]},"properties":{"code":"53.09.18.2011","name":"Radamasa"}},{"type":"Feature","geometry":{"type":"Polygon","coordinates":[[[121.1085,-8.8755],[121.0955,-8.871],[121.0925,-8.8585],[121.0885,-8.858],[121.088,-8.8585],[121.087,-8.8585],[121.0825,-8.8595],[121.0825,-8.86],[121.078,-8.875],[121.078,-8.882],[121.077,-8.887],[121.0755,-8.8895],[121.0745,-8.891],[121.0735,-8.892],[121.0745,-8.8925],[121.077,-8.895],[121.08,-8.8915],[121.082,-8.8895],[121.0865,-8.8865],[121.092,-8.885],[121.109,-8.8775],[121.1085,-8.8755]]]},"properties":{"code":"53.09.18.2012","name":"Were II"}},{"type":"Feature","geometry":{"type":"Polygon","coordinates":[[[121.068,-8.7465],[121.067,-8.747],[121.0655,-8.7455],[121.0655,-8.747],[121.064,-8.748],[121.0625,-8.7465],[121.0615,-8.7475],[121.0615,-8.747],[121.0595,-8.747],[121.0575,-8.7475],[121.056,-8.749],[121.0555,-8.749],[121.0535,-8.7495],[121.0415,-8.7685],[121.0415,-8.7705],[121.0445,-8.782],[121.0205,-8.8095],[121.004,-8.819],[120.995,-8.83],[120.9955,-8.831],[120.996,-8.8325],[120.998,-8.834],[121.002,-8.8335],[121.003,-8.833],[121.0275,-8.8145],[121.0275,-8.8135],[121.0315,-8.8105],[121.0455,-8.794],[121.051,-8.775],[121.0505,-8.7735],[121.0515,-8.7715],[121.0675,-8.747],[121.068,-8.7465]]]},"properties":{"code":"53.09.19.1001","name":"Mangulewa"}},{"type":"Feature","geometry":{"type":"Polygon","coordinates":[[[121.0575,-8.7475],[121.0575,-8.7465],[121.055,-8.748],[121.053,-8.748],[121.0505,-8.7475],[121.0485,-8.747],[121.0435,-8.7475],[121.0405,-8.747],[121.04,-8.7465],[121.0395,-8.7465],[121.0365,-8.7475],[121.0365,-8.7505],[121.0365,-8.7565],[121.0365,-8.758],[121.0295,-8.768],[121.0255,-8.769],[121.0245,-8.7695],[121.022,-8.77],[121.021,-8.7735],[121.021,-8.7755],[121.0035,-8.799],[120.994,-8.8225],[120.9955,-8.829],[120.995,-8.83],[121.004,-8.819],[121.0205,-8.8095],[121.0445,-8.782],[121.0415,-8.7705],[121.0415,-8.7685],[121.0535,-8.7495],[121.0555,-8.749],[121.056,-8.749],[121.0575,-8.7475]]]},"properties":{"code":"53.09.19.2002","name":"Turekisa"}},{"type":"Feature","geometry":{"type":"Polygon","coordinates":[[[121.0165,-8.8345],[121.022,-8.8275],[121.021,-8.826],[121.0205,-8.8255],[121.021,-8.8245],[121.024,-8.821],[121.0265,-8.8175],[121.0275,-8.8145],[121.003,-8.833],[121.0025,-8.8335],[121.0135,-8.834],[121.016,-8.8345],[121.0165,-8.8345]]]},"properties":{"code":"53.09.19.2003","name":"Rakalaba"}},{"type":"Feature","geometry":{"type":"Polygon","coordinates":[[[121.056,-8.7875],[121.055,-8.7775],[121.052,-8.7735],[121.051,-8.773],[121.051,-8.775],[121.0455,-8.794],[121.0315,-8.8105],[121.0275,-8.8135],[121.0265,-8.8175],[121.024,-8.821],[121.021,-8.8245],[121.0205,-8.8255],[121.021,-8.826],[121.022,-8.8275],[121.0165,-8.8345],[121.0175,-8.8355],[121.0195,-8.8365],[121.0195,-8.837],[121.02,-8.838],[121.021,-8.8405],[121.023,-8.841],[121.0255,-8.838],[121.0295,-8.848],[121.03,-8.848],[121.0315,-8.8475],[121.035,-8.8405],[121.035,-8.8375],[121.04,-8.8295],[121.041,-8.828],[121.0455,-8.8215],[121.0465,-8.817],[121.0495,-8.8125],[121.049,-8.809],[121.0485,-8.803],[121.049,-8.799],[121.052,-8.798],[121.056,-8.7875]]]},"properties":{"code":"53.09.19.2004","name":"Sobo"}},{"type":"Feature","geometry":{"type":"Polygon","coordinates":[[[121.0745,-8.7445],[121.0725,-8.744],[121.072,-8.743],[121.071,-8.743],[121.071,-8.742],[121.0705,-8.743],[121.068,-8.744],[121.0675,-8.744],[121.068,-8.746],[121.0675,-8.747],[121.0515,-8.7715],[121.051,-8.773],[121.052,-8.7735],[121.055,-8.7775],[121.056,-8.7875],[121.058,-8.787],[121.0585,-8.786],[121.064,-8.7755],[121.0725,-8.776],[121.073,-8.7775],[121.076,-8.778],[121.081,-8.773],[121.0805,-8.7705],[121.0805,-8.77],[121.08,-8.768],[121.081,-8.763],[121.0825,-8.7605],[121.0745,-8.7445]]]},"properties":{"code":"53.09.19.2005","name":"Sobo I"}},{"type":"Feature","geometry":{"type":"Polygon","coordinates":[[[121.0105,-8.852],[121.007,-8.852],[121.003,-8.859],[121.0025,-8.86],[121.006,-8.861],[121.011,-8.8615],[121.012,-8.862],[121.017,-8.867],[121.021,-8.8585],[121.0225,-8.856],[121.023,-8.854],[121.019,-8.853],[121.0105,-8.852]]]},"properties":{"code":"53.09.19.2006","name":"Rakateda I"}},{"type":"Feature","geometry":{"type":"Polygon","coordinates":[[[121.0115,-8.844],[120.994,-8.842],[120.989,-8.852],[120.9955,-8.856],[120.9995,-8.862],[121,-8.8625],[121.0005,-8.862],[121.0005,-8.8615],[121.0025,-8.8605],[121.0025,-8.8595],[121.003,-8.859],[121.007,-8.852],[121.0105,-8.8515],[121.0115,-8.844]]]},"properties":{"code":"53.09.19.2007","name":"Rakateda II"}},{"type":"Feature","geometry":{"type":"Polygon","coordinates":[[[121.0295,-8.848],[121.0255,-8.838],[121.023,-8.841],[121.021,-8.8405],[121.02,-8.838],[121.0195,-8.837],[121.016,-8.84],[121.014,-8.842],[121.0135,-8.8435],[121.0115,-8.844],[121.0105,-8.8515],[121.0105,-8.852],[121.019,-8.853],[121.023,-8.854],[121.0225,-8.856],[121.021,-8.8585],[121.017,-8.867],[121.0175,-8.8725],[121.0355,-8.8575],[121.0295,-8.849],[121.0295,-8.848]]]},"properties":{"code":"53.09.19.2008","name":"Watunay"}},{"type":"Feature","geometry":{"type":"Polygon","coordinates":[[[121.0025,-8.8335],[121.002,-8.8335],[120.998,-8.834],[120.996,-8.8325],[120.9955,-8.831],[120.995,-8.83],[120.99,-8.8355],[120.9885,-8.838],[120.988,-8.838],[120.9865,-8.839],[120.9815,-8.843],[120.982,-8.851],[120.987,-8.851],[120.989,-8.852],[120.994,-8.842],[121.0115,-8.844],[121.0135,-8.8435],[121.014,-8.842],[121.016,-8.84],[121.0195,-8.837],[121.0195,-8.8365],[121.0175,-8.8355],[121.0165,-8.8345],[121.016,-8.8345],[121.0135,-8.834],[121.0025,-8.8335]]]},"properties":{"code":"53.09.19.2009","name":"Dizi Gedha"}},{"type":"Feature","geometry":{"type":"Polygon","coordinates":[[[121.017,-8.867],[121.012,-8.862],[121.011,-8.8615],[121.006,-8.861],[121.0025,-8.86],[121.0025,-8.8605],[121.0005,-8.8615],[121.0005,-8.862],[121,-8.8625],[121.0005,-8.863],[121.002,-8.866],[121.0025,-8.872],[121.003,-8.8735],[121.004,-8.874],[121.014,-8.874],[121.0175,-8.8725],[121.017,-8.867]]]},"properties":{"code":"53.09.19.2010","name":"Bea Pawe"}},{"type":"Feature","geometry":{"type":"Polygon","coordinates":[[[120.9545,-8.878],[120.9375,-8.8735],[120.9265,-8.8705],[120.918,-8.8705],[120.9065,-8.875],[120.9055,-8.877],[120.904,-8.877],[120.8955,-8.878],[120.884,-8.889],[120.899,-8.9035],[120.9015,-8.899],[120.925,-8.8845],[120.928,-8.8835],[120.9445,-8.881],[120.9515,-8.8795],[120.9545,-8.878]]]},"properties":{"code":"53.09.20.2001","name":"Paupaga"}},{"type":"Feature","geometry":{"type":"Polygon","coordinates":[[[120.904,-8.912],[120.9235,-8.8865],[120.925,-8.8845],[120.9015,-8.899],[120.899,-8.9035],[120.904,-8.912]]]},"properties":{"code":"53.09.20.2002","name":"Sebowuli"}},{"type":"Feature","geometry":{"type":"Polygon","coordinates":[[[120.9335,-8.8965],[120.9545,-8.878],[120.9515,-8.8795],[120.9445,-8.881],[120.928,-8.8835],[120.9235,-8.8865],[120.904,-8.912],[120.914,-8.921],[120.9235,-8.9125],[120.9335,-8.8965]]]},"properties":{"code":"53.09.20.2003","name":"Inerie"}},{"type":"Feature","geometry":{"type":"Polygon","coordinates":[[[120.9335,-8.9335],[120.935,-8.923],[120.951,-8.902],[120.957,-8.8865],[120.9545,-8.878],[120.9335,-8.8965],[120.933,-8.9135],[120.932,-8.9155],[120.9315,-8.9175],[120.9285,-8.9185],[120.9235,-8.9265],[120.9335,-8.9335]]]},"properties":{"code":"53.09.20.2004","name":"Warupele I"}},{"type":"Feature","geometry":{"type":"Polygon","coordinates":[[[120.9235,-8.9265],[120.9285,-8.9185],[120.9315,-8.9175],[120.932,-8.9155],[120.933,-8.9135],[120.9335,-8.8965],[120.9235,-8.9125],[120.914,-8.921],[120.9235,-8.9265]]]},"properties":{"code":"53.09.20.2005","name":"Warupele II"}},{"type":"Feature","geometry":{"type":"Polygon","coordinates":[[[120.9695,-8.896],[120.9685,-8.8895],[120.9545,-8.878],[120.957,-8.8865],[120.951,-8.902],[120.935,-8.923],[120.9335,-8.9335],[120.96,-8.945],[120.96,-8.938],[120.968,-8.9145],[120.9685,-8.9105],[120.968,-8.9095],[120.9675,-8.907],[120.9695,-8.896]]]},"properties":{"code":"53.09.20.2006","name":"Kelitei"}},{"type":"Feature","geometry":{"type":"Polygon","coordinates":[[[120.991,-8.9355],[120.9725,-8.935],[120.9725,-8.9355],[120.9705,-8.937],[120.96,-8.938],[120.96,-8.945],[120.981,-8.944],[120.987,-8.9515],[121.003,-8.9555],[121.003,-8.949],[121.003,-8.947],[121.004,-8.9445],[121.0075,-8.94],[120.991,-8.9355]]]},"properties":{"code":"53.09.20.2007","name":"Waebela"}},{"type":"Feature","geometry":{"type":"Polygon","coordinates":[[[120.981,-8.9145],[120.968,-8.9125],[120.968,-8.9145],[120.96,-8.938],[120.9705,-8.937],[120.9725,-8.9355],[120.972,-8.9345],[120.9715,-8.934],[120.9705,-8.933],[120.979,-8.922],[120.9805,-8.922],[120.9805,-8.9205],[120.9815,-8.9155],[120.981,-8.9145]]]},"properties":{"code":"53.09.20.2008","name":"Tiwurana"}},{"type":"Feature","geometry":{"type":"Polygon","coordinates":[[[121.0115,-8.921],[121.008,-8.9175],[121.004,-8.918],[120.993,-8.927],[120.991,-8.9355],[121.0075,-8.94],[121.0015,-8.93],[121.005,-8.9275],[121.0075,-8.9235],[121.0095,-8.9215],[121.0115,-8.921]]]},"properties":{"code":"53.09.20.2009","name":"Legeriwu"}},{"type":"Feature","geometry":{"type":"Polygon","coordinates":[[[120.981,-8.9145],[120.979,-8.9025],[120.9775,-8.9],[120.9695,-8.896],[120.9675,-8.907],[120.968,-8.9095],[120.9685,-8.9105],[120.968,-8.9125],[120.981,-8.9145]]]},"properties":{"code":"53.09.20.2010","name":"Manubhara"}}]}