{"type":"FeatureCollection","features":[{"type":"Feature","geometry":{"type":"Polygon","coordinates":[[[109.373,-0.0625],[109.373,-0.063],[109.369,-0.0575],[109.366,-0.06],[109.3615,-0.0695],[109.3645,-0.073],[109.369,-0.0855],[109.3725,-0.0775],[109.3815,-0.0765],[109.384,-0.0735],[109.3795,-0.07],[109.373,-0.0625]]]},"properties":{"code":"61.12.01.2001","name":"Sungai Raya"}},{"type":"Feature","geometry":{"type":"Polygon","coordinates":[[[109.5045,-0.146],[109.499,-0.1425],[109.4885,-0.154],[109.4805,-0.1525],[109.47,-0.135],[109.458,-0.1305],[109.4415,-0.131],[109.414,-0.106],[109.4135,-0.109],[109.4135,-0.122],[109.415,-0.128],[109.415,-0.1355],[109.416,-0.1395],[109.4185,-0.145],[109.422,-0.1475],[109.4245,-0.148],[109.4385,-0.1685],[109.456,-0.155],[109.466,-0.1665],[109.4725,-0.1615],[109.483,-0.1675],[109.504,-0.1915],[109.5165,-0.1805],[109.494,-0.1625],[109.4935,-0.1615],[109.5135,-0.153],[109.513,-0.1515],[109.5045,-0.146]]]},"properties":{"code":"61.12.01.2002","name":"Sungai Ambangah"}},{"type":"Feature","geometry":{"type":"Polygon","coordinates":[[[109.414,-0.1015],[109.409,-0.0945],[109.4045,-0.095],[109.402,-0.106],[109.383,-0.107],[109.3725,-0.1235],[109.362,-0.1335],[109.3625,-0.1355],[109.363,-0.1405],[109.363,-0.1415],[109.371,-0.1405],[109.378,-0.1335],[109.3905,-0.1355],[109.394,-0.129],[109.4145,-0.1265],[109.4135,-0.122],[109.4135,-0.109],[109.4145,-0.103],[109.414,-0.1015]]]},"properties":{"code":"61.12.01.2003","name":"Arang Limbung"}},{"type":"Feature","geometry":{"type":"Polygon","coordinates":[[[109.4385,-0.1685],[109.4245,-0.148],[109.422,-0.1475],[109.4185,-0.145],[109.418,-0.144],[109.4085,-0.152],[109.401,-0.168],[109.403,-0.175],[109.3935,-0.2015],[109.3975,-0.2035],[109.423,-0.2205],[109.4335,-0.2195],[109.4495,-0.2035],[109.4675,-0.1915],[109.453,-0.187],[109.4485,-0.1745],[109.4385,-0.1685]]]},"properties":{"code":"61.12.01.2004","name":"Kuala Dua"}},{"type":"Feature","geometry":{"type":"Polygon","coordinates":[[[109.5165,-0.1805],[109.504,-0.1915],[109.483,-0.1675],[109.4725,-0.1615],[109.466,-0.1665],[109.456,-0.155],[109.4385,-0.1685],[109.4485,-0.1745],[109.453,-0.187],[109.4675,-0.1915],[109.4685,-0.192],[109.471,-0.203],[109.4855,-0.205],[109.494,-0.2165],[109.502,-0.2165],[109.516,-0.231],[109.5225,-0.22],[109.533,-0.224],[109.548,-0.2045],[109.53,-0.191],[109.5165,-0.1805]]]},"properties":{"code":"61.12.01.2005","name":"Tebang Kacang"}},{"type":"Feature","geometry":{"type":"Polygon","coordinates":[[[109.585,-0.229],[109.579,-0.2295],[109.567,-0.2195],[109.5515,-0.207],[109.548,-0.2045],[109.533,-0.224],[109.5225,-0.22],[109.516,-0.231],[109.519,-0.235],[109.4735,-0.2765],[109.477,-0.2885],[109.4905,-0.315],[109.498,-0.307],[109.5095,-0.328],[109.498,-0.3385],[109.5115,-0.3475],[109.4715,-0.3825],[109.4675,-0.3865],[109.47,-0.3875],[109.4765,-0.388],[109.485,-0.3895],[109.488,-0.3905],[109.4975,-0.3975],[109.5095,-0.3955],[109.505,-0.372],[109.521,-0.383],[109.53,-0.37],[109.5365,-0.345],[109.5465,-0.3415],[109.5465,-0.364],[109.5595,-0.376],[109.5675,-0.374],[109.5695,-0.3695],[109.5695,-0.3555],[109.5695,-0.343],[109.5705,-0.336],[109.5785,-0.3255],[109.58,-0.325],[109.5805,-0.3205],[109.5885,-0.3195],[109.59,-0.3195],[109.5935,-0.319],[109.607,-0.314],[109.625,-0.2985],[109.629,-0.264],[109.6935,-0.247],[109.6835,-0.211],[109.664,-0.2145],[109.585,-0.229]]]},"properties":{"code":"61.12.01.2006","name":"Sungai Asam"}},{"type":"Feature","geometry":{"type":"Polygon","coordinates":[[[109.9055,-0.22],[109.9055,-0.2245],[109.8445,-0.1875],[109.836,-0.1615],[109.8265,-0.133],[109.826,-0.1715],[109.826,-0.199],[109.8185,-0.212],[109.8105,-0.215],[109.7955,-0.209],[109.778,-0.2185],[109.7555,-0.2425],[109.738,-0.2505],[109.7335,-0.2545],[109.732,-0.2575],[109.7365,-0.2665],[109.7395,-0.269],[109.7725,-0.2675],[109.7725,-0.2625],[109.7735,-0.2555],[109.775,-0.2535],[109.7875,-0.2445],[109.796,-0.245],[109.796,-0.248],[109.7955,-0.2495],[109.79,-0.2635],[109.7935,-0.2755],[109.8035,-0.2715],[109.804,-0.2495],[109.807,-0.2425],[109.809,-0.242],[109.8125,-0.243],[109.8155,-0.247],[109.816,-0.25],[109.817,-0.268],[109.8185,-0.271],[109.8265,-0.2815],[109.831,-0.2865],[109.832,-0.287],[109.836,-0.2865],[109.8385,-0.2835],[109.84,-0.277],[109.848,-0.2705],[109.8615,-0.274],[109.8755,-0.2725],[109.8845,-0.254],[109.897,-0.2365],[109.9035,-0.234],[109.93,-0.2375],[109.9405,-0.232],[109.9355,-0.222],[109.9055,-0.22]]]},"properties":{"code":"61.12.01.2007","name":"Pulau Limbung"}},{"type":"Feature","geometry":{"type":"Polygon","coordinates":[[[109.407,-0.0675],[109.393,-0.057],[109.3885,-0.053],[109.3855,-0.0485],[109.383,-0.0505],[109.375,-0.061],[109.373,-0.0625],[109.3795,-0.07],[109.383,-0.0725],[109.3875,-0.077],[109.3915,-0.081],[109.407,-0.0675]]]},"properties":{"code":"61.12.01.2008","name":"Kapur"}},{"type":"Feature","geometry":{"type":"Polygon","coordinates":[[[109.9415,-0.142],[109.941,-0.142],[109.921,-0.1475],[109.908,-0.139],[109.9025,-0.132],[109.9015,-0.1305],[109.9025,-0.1155],[109.904,-0.108],[109.8935,-0.101],[109.875,-0.08],[109.8745,-0.078],[109.8735,-0.074],[109.828,-0.1325],[109.8265,-0.133],[109.836,-0.1615],[109.8445,-0.1875],[109.9055,-0.2245],[109.9055,-0.22],[109.9185,-0.217],[109.946,-0.209],[109.9465,-0.2],[109.946,-0.19],[109.942,-0.165],[109.9415,-0.142]]]},"properties":{"code":"61.12.01.2009","name":"Gunung Tamang"}},{"type":"Feature","geometry":{"type":"Polygon","coordinates":[[[109.4675,-0.3865],[109.4715,-0.3825],[109.5115,-0.3475],[109.498,-0.3385],[109.5095,-0.328],[109.498,-0.307],[109.4905,-0.315],[109.477,-0.2885],[109.4735,-0.2765],[109.4215,-0.3265],[109.422,-0.331],[109.425,-0.337],[109.4405,-0.351],[109.456,-0.3585],[109.4595,-0.3685],[109.455,-0.378],[109.4565,-0.3805],[109.461,-0.384],[109.463,-0.385],[109.4675,-0.3865]]]},"properties":{"code":"61.12.01.2010","name":"Sungai Bulan"}},{"type":"Feature","geometry":{"type":"Polygon","coordinates":[[[109.418,-0.144],[109.416,-0.1395],[109.415,-0.1355],[109.415,-0.128],[109.4145,-0.1265],[109.394,-0.129],[109.3905,-0.1355],[109.378,-0.1335],[109.371,-0.1405],[109.363,-0.1415],[109.362,-0.1495],[109.3595,-0.1655],[109.356,-0.185],[109.3615,-0.195],[109.356,-0.2055],[109.3665,-0.212],[109.3795,-0.1965],[109.393,-0.2035],[109.3945,-0.202],[109.3935,-0.2015],[109.403,-0.175],[109.401,-0.168],[109.4085,-0.152],[109.418,-0.144]]]},"properties":{"code":"61.12.01.2011","name":"Limbung"}},{"type":"Feature","geometry":{"type":"Polygon","coordinates":[[[109.4045,-0.095],[109.4025,-0.095],[109.3985,-0.0925],[109.3975,-0.091],[109.3775,-0.11],[109.3745,-0.1175],[109.37,-0.1235],[109.361,-0.132],[109.362,-0.1335],[109.3725,-0.1235],[109.383,-0.107],[109.402,-0.106],[109.4045,-0.095]]]},"properties":{"code":"61.12.01.2012","name":"Teluk Kapuas"}},{"type":"Feature","geometry":{"type":"Polygon","coordinates":[[[109.443,-0.0825],[109.4315,-0.0855],[109.43,-0.086],[109.4325,-0.091],[109.414,-0.1015],[109.4145,-0.103],[109.414,-0.106],[109.4415,-0.131],[109.458,-0.1305],[109.47,-0.135],[109.4805,-0.1525],[109.4885,-0.154],[109.499,-0.1425],[109.5045,-0.146],[109.5065,-0.1305],[109.4935,-0.122],[109.482,-0.121],[109.459,-0.106],[109.443,-0.0825]]]},"properties":{"code":"61.12.01.2013","name":"Madu Sari"}},{"type":"Feature","geometry":{"type":"Polygon","coordinates":[[[109.516,-0.231],[109.502,-0.2165],[109.494,-0.2165],[109.4855,-0.205],[109.471,-0.203],[109.4685,-0.192],[109.4675,-0.1915],[109.4495,-0.2035],[109.4335,-0.2195],[109.423,-0.2205],[109.417,-0.2305],[109.4315,-0.239],[109.426,-0.2475],[109.4735,-0.2765],[109.519,-0.235],[109.516,-0.231]]]},"properties":{"code":"61.12.01.2014","name":"Mekar Sari"}},{"type":"Feature","geometry":{"type":"Polygon","coordinates":[[[109.407,-0.0675],[109.3915,-0.081],[109.3955,-0.086],[109.3985,-0.0925],[109.4025,-0.095],[109.409,-0.0945],[109.414,-0.1015],[109.4325,-0.091],[109.43,-0.086],[109.432,-0.0805],[109.4155,-0.0745],[109.407,-0.0675]]]},"properties":{"code":"61.12.01.2015","name":"Mekar Baru"}},{"type":"Feature","geometry":{"type":"Polygon","coordinates":[[[109.369,-0.0855],[109.3645,-0.073],[109.355,-0.08],[109.345,-0.096],[109.343,-0.098],[109.338,-0.095],[109.3335,-0.0955],[109.3295,-0.095],[109.325,-0.1],[109.351,-0.119],[109.3525,-0.129],[109.361,-0.1145],[109.364,-0.0895],[109.369,-0.0855]]]},"properties":{"code":"61.12.01.2016","name":"Sungai Raya Dalam"}},{"type":"Feature","geometry":{"type":"Polygon","coordinates":[[[109.3915,-0.081],[109.3875,-0.077],[109.384,-0.0735],[109.3815,-0.0765],[109.3725,-0.0775],[109.369,-0.0855],[109.364,-0.0895],[109.361,-0.1145],[109.3525,-0.129],[109.361,-0.132],[109.37,-0.1235],[109.3745,-0.1175],[109.3775,-0.11],[109.3975,-0.091],[109.3955,-0.086],[109.3915,-0.081]]]},"properties":{"code":"61.12.01.2017","name":"Parit Baru"}},{"type":"Feature","geometry":{"type":"Polygon","coordinates":[[[109.951,-0.259],[109.9525,-0.258],[109.9545,-0.246],[109.9445,-0.228],[109.946,-0.215],[109.946,-0.209],[109.9185,-0.217],[109.9055,-0.22],[109.9355,-0.222],[109.9405,-0.232],[109.93,-0.2375],[109.9035,-0.234],[109.897,-0.2365],[109.8845,-0.254],[109.8755,-0.2725],[109.8615,-0.274],[109.877,-0.2835],[109.8925,-0.2735],[109.913,-0.27],[109.9285,-0.2635],[109.951,-0.259]]]},"properties":{"code":"61.12.01.2018","name":"Pulau Jambu"}},{"type":"Feature","geometry":{"type":"Polygon","coordinates":[[[109.717,-0.3515],[109.716,-0.313],[109.7095,-0.2875],[109.701,-0.2715],[109.6935,-0.247],[109.629,-0.264],[109.625,-0.2985],[109.607,-0.314],[109.5935,-0.319],[109.59,-0.3195],[109.5885,-0.3195],[109.5805,-0.3205],[109.58,-0.325],[109.581,-0.325],[109.583,-0.325],[109.5895,-0.326],[109.592,-0.327],[109.5995,-0.3335],[109.6005,-0.337],[109.6,-0.3425],[109.597,-0.3555],[109.607,-0.371],[109.62,-0.374],[109.6385,-0.3695],[109.641,-0.368],[109.6545,-0.3575],[109.661,-0.3535],[109.6725,-0.353],[109.686,-0.3455],[109.69,-0.3335],[109.6895,-0.3185],[109.694,-0.308],[109.709,-0.311],[109.7025,-0.341],[109.7075,-0.35],[109.717,-0.3515]]]},"properties":{"code":"61.12.01.2019","name":"Kalibandung"}},{"type":"Feature","geometry":{"type":"Polygon","coordinates":[[[109.7725,-0.2675],[109.7395,-0.269],[109.7365,-0.2665],[109.732,-0.2575],[109.7335,-0.2545],[109.738,-0.2505],[109.7555,-0.2425],[109.778,-0.2185],[109.7955,-0.209],[109.8105,-0.215],[109.8185,-0.212],[109.826,-0.199],[109.826,-0.1715],[109.8265,-0.133],[109.8025,-0.14],[109.747,-0.1565],[109.714,-0.157],[109.6885,-0.17],[109.7,-0.2075],[109.6835,-0.211],[109.6935,-0.247],[109.701,-0.2715],[109.7095,-0.2875],[109.716,-0.313],[109.717,-0.3515],[109.7225,-0.3495],[109.7295,-0.3305],[109.74,-0.3145],[109.742,-0.309],[109.7435,-0.3055],[109.758,-0.2965],[109.7675,-0.2915],[109.7745,-0.281],[109.7745,-0.278],[109.773,-0.27],[109.7725,-0.2675]]]},"properties":{"code":"61.12.01.2020","name":"Muara Baru"}},{"type":"Feature","geometry":{"type":"Polygon","coordinates":[[[109.653,0.0015],[109.654,0.016],[109.7065,0.042],[109.7115,0.051],[109.7105,0.081],[109.7,0.0985],[109.699,0.0935],[109.702,0.0915],[109.6965,0.0895],[109.695,0.09],[109.693,0.0865],[109.6905,0.084],[109.69,0.081],[109.691,0.0765],[109.691,0.0725],[109.6915,0.0685],[109.6955,0.065],[109.695,0.063],[109.683,0.063],[109.671,0.0715],[109.669,0.0705],[109.6645,0.061],[109.663,0.065],[109.661,0.0655],[109.6585,0.064],[109.6665,0.057],[109.6675,0.055],[109.656,0.0565],[109.659,0.047],[109.662,0.0455],[109.6645,0.0435],[109.664,0.041],[109.6605,0.04],[109.659,0.0405],[109.6555,0.0445],[109.6505,0.051],[109.6485,0.049],[109.6495,0.043],[109.645,0.051],[109.6335,0.0495],[109.6355,0.034],[109.627,0.025],[109.612,0.0195],[109.605,0.0345],[109.593,0.037],[109.581,0.034],[109.579,0.035],[109.574,0.0375],[109.572,0.037],[109.5705,0.0355],[109.568,0.033],[109.5675,0.0325],[109.5705,0.03],[109.5835,0.026],[109.5715,0.0045],[109.581,-0.0015],[109.58,-0.0055],[109.551,-0.002],[109.5505,-0.0115],[109.5355,-0.017],[109.527,-0.0255],[109.513,-0.026],[109.5095,-0.029],[109.507,-0.0315],[109.5055,-0.0325],[109.5035,-0.025],[109.501,-0.023],[109.5,-0.0225],[109.4915,-0.0215],[109.4725,-0.016],[109.473,-0.026],[109.4735,-0.03],[109.482,-0.038],[109.4995,-0.0375],[109.518,-0.043],[109.5355,-0.0275],[109.5645,-0.0215],[109.567,-0.0215],[109.5695,-0.021],[109.5865,-0.0245],[109.5945,-0.0235],[109.6,-0.0185],[109.6005,-0.017],[109.6025,-0.0125],[109.6035,-0.0035],[109.621,0.0035],[109.636,-0.002],[109.653,0.0015]]]},"properties":{"code":"61.12.02.2001","name":"Kuala Mandor B"}},{"type":"Feature","geometry":{"type":"Polygon","coordinates":[[[109.4755,0.1255],[109.478,0.1335],[109.4475,0.156],[109.437,0.157],[109.4235,0.175],[109.416,0.176],[109.393,0.194],[109.3825,0.195],[109.3915,0.213],[109.379,0.2115],[109.3795,0.2055],[109.3785,0.204],[109.3775,0.204],[109.3755,0.2035],[109.373,0.203],[109.3725,0.202],[109.372,0.2015],[109.368,0.1965],[109.368,0.1945],[109.369,0.161],[109.371,0.1405],[109.371,0.096],[109.374,0.09],[109.399,0.09],[109.406,0.085],[109.419,0.1015],[109.443,0.107],[109.4475,0.102],[109.4635,0.1125],[109.4665,0.123],[109.4755,0.1255]]]},"properties":{"code":"61.12.02.2002","name":"Kubu Padi"}},{"type":"Feature","geometry":{"type":"Polygon","coordinates":[[[109.512,0.019],[109.5095,0.0205],[109.507,0.0205],[109.5015,0.025],[109.4985,0.028],[109.4895,0.0315],[109.485,0.0315],[109.478,0.031],[109.463,0.029],[109.4455,0.032],[109.452,0.0045],[109.454,-0.014],[109.4535,-0.0225],[109.4575,-0.021],[109.4725,-0.016],[109.4915,-0.0215],[109.5,-0.0225],[109.501,-0.023],[109.5035,-0.025],[109.5055,-0.023],[109.5125,-0.0115],[109.5085,0.0105],[109.511,0.0165],[109.512,0.019]]]},"properties":{"code":"61.12.02.2003","name":"Kuala Mandor A"}},{"type":"Feature","geometry":{"type":"Polygon","coordinates":[[[109.436,0.23],[109.4355,0.228],[109.4265,0.2165],[109.3915,0.213],[109.3825,0.195],[109.393,0.194],[109.416,0.176],[109.4235,0.175],[109.437,0.157],[109.4475,0.156],[109.478,0.1335],[109.4755,0.1255],[109.474,0.122],[109.4735,0.1195],[109.4735,0.1025],[109.468,0.099],[109.468,0.096],[109.4735,0.095],[109.4795,0.0925],[109.493,0.0775],[109.495,0.0765],[109.4985,0.0765],[109.5,0.075],[109.501,0.076],[109.5005,0.086],[109.5005,0.091],[109.5095,0.1145],[109.511,0.1195],[109.508,0.1245],[109.5105,0.127],[109.5075,0.131],[109.5075,0.1315],[109.5065,0.1355],[109.506,0.1355],[109.5045,0.135],[109.504,0.1355],[109.5015,0.1375],[109.502,0.1395],[109.5055,0.1385],[109.508,0.1395],[109.508,0.1415],[109.507,0.143],[109.506,0.1455],[109.505,0.145],[109.5,0.1455],[109.5015,0.1505],[109.489,0.1655],[109.4885,0.1685],[109.492,0.202],[109.49,0.2045],[109.49,0.205],[109.49,0.2065],[109.488,0.215],[109.486,0.2145],[109.4835,0.2155],[109.481,0.2155],[109.4805,0.2165],[109.4775,0.217],[109.4755,0.217],[109.475,0.2185],[109.474,0.22],[109.4595,0.22],[109.4595,0.2205],[109.459,0.229],[109.436,0.23]]]},"properties":{"code":"61.12.02.2004","name":"Retok"}},{"type":"Feature","geometry":{"type":"Polygon","coordinates":[[[109.4755,0.1255],[109.4665,0.123],[109.4635,0.1125],[109.4475,0.102],[109.443,0.107],[109.419,0.1015],[109.406,0.085],[109.399,0.09],[109.374,0.09],[109.3795,0.08],[109.3805,0.0485],[109.3815,0.0485],[109.3865,0.041],[109.444,0.04],[109.4455,0.032],[109.463,0.029],[109.478,0.031],[109.485,0.0315],[109.4895,0.0315],[109.4985,0.028],[109.5015,0.025],[109.507,0.0205],[109.5095,0.0205],[109.512,0.019],[109.513,0.0225],[109.521,0.0345],[109.5215,0.0375],[109.5105,0.0565],[109.5065,0.064],[109.5015,0.067],[109.5,0.0715],[109.4995,0.075],[109.5,0.075],[109.4985,0.0765],[109.495,0.0765],[109.493,0.0775],[109.4795,0.0925],[109.4735,0.095],[109.468,0.096],[109.468,0.099],[109.4735,0.1025],[109.4735,0.1195],[109.474,0.122],[109.4755,0.1255]]]},"properties":{"code":"61.12.02.2005","name":"Sungai Enau"}},{"type":"Feature","geometry":{"type":"Polygon","coordinates":[[[109.548,-0.0745],[109.536,-0.0715],[109.529,-0.064],[109.51,-0.0595],[109.5065,-0.0595],[109.491,-0.055],[109.477,-0.056],[109.4715,-0.0585],[109.4575,-0.0825],[109.443,-0.0825],[109.459,-0.106],[109.482,-0.121],[109.489,-0.12],[109.4955,-0.102],[109.5135,-0.09],[109.515,-0.1065],[109.5375,-0.096],[109.5475,-0.109],[109.5475,-0.1065],[109.548,-0.0745]]]},"properties":{"code":"61.12.03.2001","name":"Simpang Kanan"}},{"type":"Feature","geometry":{"type":"Polygon","coordinates":[[[109.4455,0.032],[109.437,0.035],[109.3975,0.0175],[109.394,0.008],[109.3845,-0.0005],[109.382,-0.0085],[109.38,-0.008],[109.3785,-0.008],[109.3775,-0.008],[109.378,-0.009],[109.378,-0.011],[109.3775,-0.012],[109.377,-0.022],[109.376,-0.023],[109.383,-0.025],[109.3855,-0.025],[109.3965,-0.0225],[109.4065,-0.0255],[109.408,-0.025],[109.4335,-0.024],[109.437,-0.0245],[109.4505,-0.0235],[109.4535,-0.0225],[109.454,-0.014],[109.452,0.0045],[109.4455,0.032]]]},"properties":{"code":"61.12.03.2002","name":"Mega Timur"}},{"type":"Feature","geometry":{"type":"Polygon","coordinates":[[[109.5605,-0.132],[109.548,-0.12],[109.547,-0.1215],[109.5455,-0.1215],[109.537,-0.126],[109.5285,-0.1425],[109.5195,-0.15],[109.4935,-0.1615],[109.494,-0.1625],[109.53,-0.191],[109.5515,-0.207],[109.567,-0.2195],[109.579,-0.2295],[109.585,-0.229],[109.5725,-0.2175],[109.5775,-0.2115],[109.5785,-0.1655],[109.5675,-0.1615],[109.5525,-0.164],[109.549,-0.151],[109.564,-0.1495],[109.5725,-0.144],[109.5605,-0.132]]]},"properties":{"code":"61.12.03.2003","name":"Bengkarek"}},{"type":"Feature","geometry":{"type":"Polygon","coordinates":[[[109.5905,-0.024],[109.5865,-0.0245],[109.5695,-0.021],[109.567,-0.0215],[109.5645,-0.0215],[109.554,-0.057],[109.565,-0.058],[109.5655,-0.08],[109.5975,-0.078],[109.6095,-0.083],[109.6075,-0.1025],[109.61,-0.124],[109.637,-0.122],[109.6535,-0.139],[109.6535,-0.1285],[109.6465,-0.1185],[109.643,-0.0935],[109.629,-0.081],[109.6175,-0.0605],[109.5965,-0.0425],[109.5905,-0.024]]]},"properties":{"code":"61.12.03.2004","name":"Lingga"}},{"type":"Feature","geometry":{"type":"Polygon","coordinates":[[[109.435,-0.0245],[109.4335,-0.024],[109.408,-0.025],[109.4065,-0.0255],[109.3965,-0.0225],[109.3855,-0.025],[109.383,-0.025],[109.3815,-0.031],[109.381,-0.0315],[109.3795,-0.0325],[109.379,-0.033],[109.3795,-0.04],[109.383,-0.0455],[109.3855,-0.0485],[109.392,-0.045],[109.397,-0.04],[109.418,-0.0475],[109.434,-0.0435],[109.437,-0.0435],[109.436,-0.0345],[109.435,-0.0245]]]},"properties":{"code":"61.12.03.2005","name":"Sungai Ambawang Kuala"}},{"type":"Feature","geometry":{"type":"Polygon","coordinates":[[[109.4725,-0.016],[109.4575,-0.021],[109.454,-0.0225],[109.4505,-0.0235],[109.437,-0.0245],[109.435,-0.0245],[109.436,-0.0345],[109.437,-0.0435],[109.4415,-0.0435],[109.4455,-0.043],[109.4535,-0.0415],[109.4675,-0.0445],[109.4755,-0.0505],[109.491,-0.0465],[109.4915,-0.0375],[109.482,-0.038],[109.4735,-0.03],[109.473,-0.026],[109.4725,-0.016]]]},"properties":{"code":"61.12.03.2006","name":"Jawa Tengah"}},{"type":"Feature","geometry":{"type":"Polygon","coordinates":[[[109.437,-0.0435],[109.434,-0.0435],[109.418,-0.0475],[109.397,-0.04],[109.392,-0.045],[109.3855,-0.0485],[109.3885,-0.053],[109.393,-0.057],[109.407,-0.067],[109.4155,-0.0745],[109.432,-0.0805],[109.4315,-0.0855],[109.443,-0.0825],[109.4575,-0.0825],[109.4715,-0.0585],[109.477,-0.056],[109.4755,-0.0505],[109.4675,-0.0445],[109.4535,-0.0415],[109.4455,-0.043],[109.4415,-0.0435],[109.437,-0.0435]]]},"properties":{"code":"61.12.03.2007","name":"Durian"}},{"type":"Feature","geometry":{"type":"Polygon","coordinates":[[[109.653,0.0015],[109.636,-0.002],[109.621,0.0035],[109.6035,-0.0035],[109.6025,-0.0125],[109.6005,-0.017],[109.6,-0.0185],[109.5945,-0.0235],[109.5905,-0.024],[109.5965,-0.0425],[109.6175,-0.0605],[109.629,-0.081],[109.643,-0.0935],[109.6465,-0.1185],[109.6535,-0.1285],[109.654,-0.0565],[109.653,0.0015]]]},"properties":{"code":"61.12.03.2008","name":"Pancaroba"}},{"type":"Feature","geometry":{"type":"Polygon","coordinates":[[[109.5475,-0.109],[109.5375,-0.096],[109.515,-0.1065],[109.5135,-0.09],[109.4955,-0.102],[109.489,-0.12],[109.4935,-0.122],[109.5065,-0.1305],[109.5045,-0.146],[109.513,-0.1515],[109.5135,-0.153],[109.5195,-0.15],[109.5285,-0.1425],[109.537,-0.126],[109.5455,-0.1215],[109.547,-0.1215],[109.548,-0.12],[109.547,-0.1185],[109.5475,-0.109]]]},"properties":{"code":"61.12.03.2009","name":"Puguk"}},{"type":"Feature","geometry":{"type":"Polygon","coordinates":[[[109.554,-0.057],[109.5645,-0.0215],[109.5355,-0.0275],[109.518,-0.043],[109.4995,-0.0375],[109.4915,-0.0375],[109.491,-0.0465],[109.4755,-0.0505],[109.477,-0.056],[109.491,-0.055],[109.5065,-0.0595],[109.51,-0.0595],[109.529,-0.064],[109.536,-0.0715],[109.548,-0.0745],[109.554,-0.057]]]},"properties":{"code":"61.12.03.2010","name":"Korek"}},{"type":"Feature","geometry":{"type":"Polygon","coordinates":[[[109.61,-0.124],[109.6075,-0.1025],[109.6095,-0.083],[109.5975,-0.078],[109.5655,-0.08],[109.565,-0.058],[109.554,-0.057],[109.548,-0.0745],[109.5475,-0.1065],[109.547,-0.1185],[109.548,-0.12],[109.5605,-0.132],[109.5735,-0.119],[109.61,-0.124]]]},"properties":{"code":"61.12.03.2011","name":"Pasak"}},{"type":"Feature","geometry":{"type":"Polygon","coordinates":[[[109.61,-0.124],[109.5735,-0.119],[109.5605,-0.132],[109.5725,-0.144],[109.564,-0.1495],[109.549,-0.151],[109.5525,-0.164],[109.5675,-0.1615],[109.5785,-0.1655],[109.5775,-0.2115],[109.5725,-0.2175],[109.585,-0.229],[109.664,-0.2145],[109.7,-0.2075],[109.6885,-0.17],[109.714,-0.157],[109.6535,-0.147],[109.6535,-0.139],[109.637,-0.122],[109.61,-0.124]]]},"properties":{"code":"61.12.03.2012","name":"Pasak Piang"}},{"type":"Feature","geometry":{"type":"Polygon","coordinates":[[[109.8765,0.077],[109.854,0.0845],[109.826,0.081],[109.821,0.088],[109.8015,0.0875],[109.7975,0.0785],[109.7855,0.0875],[109.7775,0.0785],[109.7645,0.078],[109.753,0.0925],[109.748,0.0845],[109.7335,0.0785],[109.7065,0.0895],[109.7025,0.0985],[109.7,0.0985],[109.7105,0.081],[109.7115,0.051],[109.7065,0.042],[109.654,0.016],[109.653,0.0015],[109.654,-0.0565],[109.6535,-0.147],[109.714,-0.157],[109.747,-0.1565],[109.8025,-0.14],[109.828,-0.1325],[109.8735,-0.074],[109.873,-0.0705],[109.8715,-0.0695],[109.871,-0.069],[109.869,-0.069],[109.864,-0.0645],[109.862,-0.062],[109.858,-0.0535],[109.8575,-0.0525],[109.853,-0.0515],[109.852,-0.046],[109.8505,-0.0415],[109.8495,-0.041],[109.85,-0.035],[109.848,-0.034],[109.8485,-0.031],[109.848,-0.027],[109.847,-0.0135],[109.8435,-0.0025],[109.843,-0.001],[109.843,0.004],[109.8575,0.0125],[109.864,0.024],[109.8775,0.032],[109.885,0.0415],[109.8825,0.06],[109.878,0.0705],[109.877,0.0735],[109.8765,0.077]]]},"properties":{"code":"61.12.03.2013","name":"Teluk Bakung"}},{"type":"Feature","geometry":{"type":"Polygon","coordinates":[[[109.4455,0.032],[109.444,0.04],[109.3865,0.041],[109.3815,0.0485],[109.38,0.0475],[109.378,0.0475],[109.3775,0.047],[109.3765,0.047],[109.375,0.0455],[109.366,0.044],[109.3645,0.043],[109.3645,0.042],[109.3645,0.0415],[109.365,0.039],[109.3685,0.0305],[109.37,0.03],[109.37,0.0235],[109.3705,0.0215],[109.3695,0.0095],[109.377,-0.0065],[109.3775,-0.008],[109.3785,-0.008],[109.38,-0.008],[109.382,-0.0085],[109.3845,-0.0005],[109.394,0.008],[109.3975,0.0175],[109.437,0.035],[109.4455,0.032]]]},"properties":{"code":"61.12.03.2015","name":"Sungai Malaya"}},{"type":"Feature","geometry":{"type":"Polygon","coordinates":[[[109.6245,-0.3735],[109.62,-0.374],[109.607,-0.371],[109.597,-0.3555],[109.6,-0.3425],[109.6005,-0.337],[109.5995,-0.3335],[109.592,-0.327],[109.5895,-0.326],[109.583,-0.325],[109.581,-0.325],[109.5785,-0.3255],[109.5705,-0.336],[109.5785,-0.3395],[109.585,-0.354],[109.591,-0.353],[109.5945,-0.372],[109.582,-0.383],[109.5675,-0.3815],[109.5675,-0.4165],[109.5815,-0.4165],[109.5875,-0.401],[109.602,-0.398],[109.6235,-0.381],[109.625,-0.378],[109.6245,-0.3735]]]},"properties":{"code":"61.12.04.2002","name":"Teluk Empening"}},{"type":"Feature","geometry":{"type":"Polygon","coordinates":[[[109.6335,-0.3865],[109.636,-0.3805],[109.6315,-0.381],[109.624,-0.38],[109.6235,-0.381],[109.602,-0.398],[109.5875,-0.401],[109.5815,-0.4165],[109.5675,-0.4165],[109.5835,-0.4255],[109.591,-0.422],[109.6,-0.429],[109.615,-0.4105],[109.6235,-0.4125],[109.631,-0.402],[109.629,-0.393],[109.6335,-0.3865]]]},"properties":{"code":"61.12.04.2003","name":"Terentang Hilir"}},{"type":"Feature","geometry":{"type":"Polygon","coordinates":[[[109.5675,-0.4165],[109.5645,-0.4135],[109.5015,-0.415],[109.4985,-0.4135],[109.5075,-0.421],[109.5165,-0.439],[109.512,-0.4575],[109.513,-0.4575],[109.515,-0.4615],[109.5155,-0.466],[109.516,-0.4665],[109.5185,-0.468],[109.5275,-0.4715],[109.534,-0.473],[109.5375,-0.4715],[109.5415,-0.4615],[109.5445,-0.4595],[109.5495,-0.4575],[109.566,-0.457],[109.56,-0.4665],[109.579,-0.4855],[109.607,-0.4485],[109.5895,-0.435],[109.5965,-0.4265],[109.591,-0.422],[109.5835,-0.4255],[109.5675,-0.4165]]]},"properties":{"code":"61.12.04.2004","name":"Terentang Hulu"}},{"type":"Feature","geometry":{"type":"Polygon","coordinates":[[[109.717,-0.3515],[109.7075,-0.35],[109.7025,-0.341],[109.709,-0.311],[109.694,-0.308],[109.6895,-0.3185],[109.69,-0.3335],[109.686,-0.3455],[109.6725,-0.353],[109.661,-0.3535],[109.6545,-0.3575],[109.641,-0.368],[109.6385,-0.3695],[109.6245,-0.3735],[109.625,-0.378],[109.624,-0.38],[109.6315,-0.381],[109.636,-0.3805],[109.6335,-0.3865],[109.6345,-0.385],[109.645,-0.3945],[109.651,-0.3855],[109.6425,-0.3755],[109.658,-0.362],[109.668,-0.372],[109.6745,-0.3915],[109.6405,-0.436],[109.631,-0.454],[109.652,-0.4575],[109.6745,-0.437],[109.6925,-0.43],[109.706,-0.4285],[109.729,-0.4365],[109.7455,-0.4315],[109.745,-0.4195],[109.7575,-0.4135],[109.817,-0.3775],[109.828,-0.363],[109.776,-0.3305],[109.743,-0.307],[109.7415,-0.3105],[109.74,-0.3145],[109.7295,-0.3305],[109.7225,-0.3495],[109.717,-0.3515]]]},"properties":{"code":"61.12.04.2005","name":"Permata"}},{"type":"Feature","geometry":{"type":"Polygon","coordinates":[[[109.8615,-0.274],[109.848,-0.2705],[109.84,-0.277],[109.8385,-0.2835],[109.836,-0.2865],[109.832,-0.287],[109.831,-0.2865],[109.8265,-0.2815],[109.8185,-0.271],[109.817,-0.268],[109.816,-0.25],[109.8155,-0.247],[109.8125,-0.243],[109.809,-0.242],[109.807,-0.2425],[109.804,-0.2495],[109.8035,-0.2715],[109.7935,-0.2755],[109.79,-0.2635],[109.7955,-0.2495],[109.796,-0.248],[109.796,-0.245],[109.7875,-0.2445],[109.775,-0.2535],[109.7735,-0.2555],[109.7725,-0.2625],[109.773,-0.27],[109.7745,-0.278],[109.7745,-0.281],[109.7675,-0.2915],[109.758,-0.2965],[109.7435,-0.3055],[109.743,-0.307],[109.776,-0.3305],[109.828,-0.363],[109.817,-0.3775],[109.7575,-0.4135],[109.7765,-0.4195],[109.8045,-0.449],[109.8095,-0.462],[109.799,-0.471],[109.779,-0.4965],[109.948,-0.5],[109.951,-0.4985],[109.9645,-0.4975],[109.9655,-0.495],[109.9605,-0.4915],[109.962,-0.484],[109.9675,-0.482],[109.973,-0.4685],[109.965,-0.4525],[109.9515,-0.4495],[109.947,-0.447],[109.946,-0.444],[109.965,-0.4455],[109.9715,-0.4425],[109.9725,-0.4365],[109.969,-0.4315],[109.9615,-0.429],[109.954,-0.426],[109.945,-0.422],[109.9315,-0.415],[109.925,-0.398],[109.9255,-0.379],[109.9245,-0.375],[109.9295,-0.357],[109.938,-0.3555],[109.945,-0.356],[109.9475,-0.356],[109.949,-0.3555],[109.9505,-0.3545],[109.9515,-0.353],[109.952,-0.352],[109.953,-0.35],[109.939,-0.332],[109.9375,-0.3305],[109.9355,-0.321],[109.938,-0.316],[109.958,-0.3025],[109.9615,-0.295],[109.967,-0.29],[109.9695,-0.285],[109.9705,-0.2785],[109.966,-0.27],[109.965,-0.2695],[109.9605,-0.267],[109.9515,-0.26],[109.951,-0.259],[109.9285,-0.2635],[109.913,-0.27],[109.8925,-0.2735],[109.877,-0.2835],[109.8615,-0.274]]]},"properties":{"code":"61.12.04.2006","name":"Betuah"}},{"type":"Feature","geometry":{"type":"Polygon","coordinates":[[[109.614,-0.44],[109.657,-0.384],[109.6565,-0.383],[109.647,-0.371],[109.6425,-0.3755],[109.651,-0.3855],[109.645,-0.3945],[109.6345,-0.385],[109.629,-0.393],[109.631,-0.402],[109.6235,-0.4125],[109.615,-0.4105],[109.6,-0.429],[109.5965,-0.4265],[109.5895,-0.435],[109.607,-0.4485],[109.614,-0.44]]]},"properties":{"code":"61.12.04.2007","name":"Sungai Radak Satu"}},{"type":"Feature","geometry":{"type":"Polygon","coordinates":[[[109.631,-0.454],[109.6405,-0.436],[109.6745,-0.3915],[109.668,-0.372],[109.658,-0.362],[109.647,-0.371],[109.6565,-0.383],[109.657,-0.384],[109.614,-0.44],[109.631,-0.454]]]},"properties":{"code":"61.12.04.2008","name":"Sungai Radak Dua"}},{"type":"Feature","geometry":{"type":"Polygon","coordinates":[[[109.4985,-0.4135],[109.4855,-0.406],[109.477,-0.418],[109.4475,-0.445],[109.4655,-0.448],[109.4815,-0.453],[109.488,-0.454],[109.492,-0.457],[109.4925,-0.463],[109.4935,-0.465],[109.5,-0.4655],[109.5005,-0.4655],[109.5065,-0.4635],[109.5085,-0.46],[109.512,-0.4575],[109.5165,-0.439],[109.5075,-0.421],[109.4985,-0.4135]]]},"properties":{"code":"61.12.04.2009","name":"Sungai Dungun"}},{"type":"Feature","geometry":{"type":"Polygon","coordinates":[[[109.5675,-0.4165],[109.5675,-0.3815],[109.582,-0.383],[109.5945,-0.372],[109.591,-0.353],[109.585,-0.354],[109.5785,-0.3395],[109.5705,-0.336],[109.5695,-0.343],[109.5695,-0.3555],[109.5695,-0.3695],[109.5675,-0.374],[109.5595,-0.376],[109.5465,-0.364],[109.5465,-0.3415],[109.5365,-0.345],[109.53,-0.37],[109.521,-0.383],[109.505,-0.372],[109.5095,-0.3955],[109.4975,-0.3975],[109.488,-0.3905],[109.486,-0.3895],[109.4855,-0.406],[109.5015,-0.415],[109.5645,-0.4135],[109.5675,-0.4165]]]},"properties":{"code":"61.12.04.2010","name":"Teluk Bayur"}},{"type":"Feature","geometry":{"type":"Polygon","coordinates":[[[109.631,-0.454],[109.614,-0.44],[109.579,-0.4855],[109.5975,-0.503],[109.6105,-0.4765],[109.631,-0.454]]]},"properties":{"code":"61.12.04.2011","name":"Radak Baru"}},{"type":"Feature","geometry":{"type":"Polygon","coordinates":[[[109.948,-0.5],[109.779,-0.4965],[109.767,-0.5115],[109.755,-0.53],[109.747,-0.533],[109.742,-0.5375],[109.739,-0.541],[109.7325,-0.55],[109.732,-0.551],[109.73,-0.5535],[109.7275,-0.5625],[109.706,-0.572],[109.6975,-0.5705],[109.6825,-0.579],[109.6825,-0.5905],[109.671,-0.603],[109.664,-0.625],[109.6635,-0.629],[109.6505,-0.6365],[109.6355,-0.6405],[109.6335,-0.641],[109.6145,-0.6415],[109.654,-0.672],[109.6675,-0.684],[109.6695,-0.69],[109.675,-0.695],[109.6745,-0.698],[109.6885,-0.707],[109.6965,-0.7165],[109.698,-0.7175],[109.7115,-0.719],[109.7255,-0.7555],[109.7495,-0.7505],[109.76,-0.7685],[109.767,-0.753],[109.7805,-0.751],[109.7605,-0.7185],[109.8815,-0.708],[109.8845,-0.6965],[109.884,-0.6935],[109.8775,-0.682],[109.8675,-0.6715],[109.86,-0.659],[109.8555,-0.658],[109.8465,-0.66],[109.8445,-0.661],[109.84,-0.6655],[109.836,-0.677],[109.8205,-0.675],[109.8185,-0.684],[109.8145,-0.684],[109.8115,-0.682],[109.809,-0.665],[109.814,-0.6445],[109.8155,-0.6425],[109.827,-0.633],[109.8355,-0.6275],[109.847,-0.6215],[109.8535,-0.617],[109.856,-0.615],[109.8605,-0.609],[109.8625,-0.6065],[109.865,-0.598],[109.866,-0.5945],[109.882,-0.5845],[109.882,-0.5815],[109.8795,-0.5695],[109.8905,-0.5495],[109.9155,-0.5355],[109.938,-0.514],[109.942,-0.5055],[109.948,-0.5]]]},"properties":{"code":"61.12.05.2001","name":"Tanjung Beringin"}},{"type":"Feature","geometry":{"type":"MultiPolygon","coordinates":[[[[109.6665,-1.0025],[109.684,-1.013],[109.689,-0.999],[109.6985,-0.987],[109.7215,-0.9735],[109.7195,-0.9215],[109.7275,-0.906],[109.7435,-0.9015],[109.736,-0.885],[109.7475,-0.874],[109.737,-0.8635],[109.723,-0.8745],[109.7135,-0.867],[109.718,-0.851],[109.7125,-0.834],[109.695,-0.828],[109.676,-0.832],[109.663,-0.8205],[109.6595,-0.811],[109.6415,-0.804],[109.6305,-0.8035],[109.618,-0.7965],[109.614,-0.789],[109.603,-0.786],[109.594,-0.7735],[109.5835,-0.774],[109.5605,-0.7635],[109.5585,-0.75],[109.552,-0.744],[109.541,-0.7455],[109.5345,-0.7385],[109.5095,-0.7395],[109.5,-0.746],[109.4995,-0.763],[109.5065,-0.7725],[109.5355,-0.8315],[109.5435,-0.832],[109.5735,-0.835],[109.593,-0.8475],[109.6115,-0.8675],[109.603,-0.8795],[109.6115,-0.8905],[109.614,-0.903],[109.625,-0.908],[109.6375,-0.933],[109.6465,-0.9385],[109.646,-0.963],[109.6525,-0.9775],[109.6685,-0.99],[109.6665,-1.0025]]],[[[109.5845,-0.739],[109.5755,-0.734],[109.573,-0.7485],[109.566,-0.756],[109.583,-0.7675],[109.6015,-0.769],[109.6035,-0.779],[109.618,-0.7845],[109.6235,-0.7945],[109.635,-0.7915],[109.6315,-0.761],[109.626,-0.7515],[109.6135,-0.752],[109.598,-0.748],[109.5845,-0.739]]],[[[109.698,-0.7175],[109.6915,-0.7275],[109.6835,-0.729],[109.677,-0.7375],[109.673,-0.739],[109.6705,-0.7555],[109.6595,-0.7505],[109.633,-0.751],[109.6355,-0.7955],[109.661,-0.806],[109.668,-0.8205],[109.6785,-0.829],[109.6915,-0.8245],[109.712,-0.8285],[109.71,-0.8215],[109.7055,-0.8215],[109.7045,-0.8205],[109.705,-0.8175],[109.7145,-0.814],[109.703,-0.7995],[109.7,-0.7685],[109.711,-0.757],[109.7155,-0.756],[109.7255,-0.7555],[109.7115,-0.719],[109.698,-0.7175]]],[[[109.6905,-0.7155],[109.6755,-0.718],[109.6675,-0.7175],[109.6645,-0.7255],[109.6595,-0.7255],[109.649,-0.719],[109.6415,-0.7325],[109.6225,-0.729],[109.606,-0.734],[109.608,-0.745],[109.639,-0.7505],[109.661,-0.749],[109.6715,-0.745],[109.6705,-0.74],[109.6765,-0.737],[109.684,-0.7275],[109.695,-0.7205],[109.6905,-0.7155]]],[[[109.5715,-0.732],[109.5775,-0.7255],[109.5755,-0.718],[109.5685,-0.7125],[109.555,-0.7265],[109.565,-0.742],[109.5715,-0.732]]],[[[109.5755,-0.711],[109.571,-0.7125],[109.577,-0.719],[109.5785,-0.7265],[109.5775,-0.7285],[109.599,-0.7435],[109.6065,-0.7415],[109.604,-0.732],[109.6065,-0.7265],[109.594,-0.716],[109.5795,-0.719],[109.5755,-0.711]]],[[[109.6575,-0.7],[109.6325,-0.7055],[109.616,-0.7025],[109.5995,-0.709],[109.587,-0.707],[109.578,-0.71],[109.58,-0.718],[109.595,-0.715],[109.607,-0.725],[109.6085,-0.73],[109.6265,-0.727],[109.642,-0.7305],[109.6475,-0.7175],[109.6605,-0.724],[109.664,-0.7245],[109.667,-0.717],[109.671,-0.715],[109.6865,-0.715],[109.6785,-0.702],[109.6575,-0.7]]],[[[109.526,-0.6995],[109.5005,-0.7],[109.492,-0.7065],[109.483,-0.7085],[109.4855,-0.714],[109.483,-0.7175],[109.4805,-0.718],[109.457,-0.72],[109.4545,-0.7265],[109.474,-0.732],[109.5125,-0.7275],[109.5285,-0.727],[109.542,-0.731],[109.559,-0.715],[109.5495,-0.7065],[109.526,-0.6995]]],[[[109.667,-0.6845],[109.6585,-0.6795],[109.6345,-0.6895],[109.6175,-0.6905],[109.6075,-0.6865],[109.598,-0.6955],[109.574,-0.692],[109.552,-0.7075],[109.561,-0.712],[109.569,-0.708],[109.603,-0.702],[109.617,-0.701],[109.6315,-0.704],[109.657,-0.699],[109.664,-0.6995],[109.674,-0.697],[109.6685,-0.6905],[109.667,-0.6845]]],[[[109.447,-0.6715],[109.425,-0.6815],[109.4365,-0.696],[109.4545,-0.705],[109.458,-0.719],[109.467,-0.716],[109.483,-0.7165],[109.482,-0.708],[109.4835,-0.7055],[109.4895,-0.697],[109.4675,-0.6815],[109.447,-0.6715]]],[[[109.3765,-0.6545],[109.37,-0.6505],[109.35,-0.658],[109.361,-0.674],[109.379,-0.6725],[109.4055,-0.6745],[109.386,-0.6575],[109.3765,-0.6545]]],[[[109.654,-0.672],[109.6145,-0.6415],[109.606,-0.6445],[109.5905,-0.6575],[109.584,-0.679],[109.5885,-0.69],[109.596,-0.6935],[109.6075,-0.685],[109.614,-0.683],[109.6195,-0.6895],[109.6465,-0.6835],[109.654,-0.672]]],[[[109.4525,-0.632],[109.432,-0.634],[109.4275,-0.6425],[109.4575,-0.659],[109.4735,-0.6695],[109.486,-0.6635],[109.4755,-0.6465],[109.4595,-0.6395],[109.4525,-0.632]]],[[[109.483,-0.6285],[109.474,-0.6235],[109.4605,-0.6305],[109.48,-0.649],[109.4825,-0.6575],[109.4965,-0.667],[109.483,-0.681],[109.498,-0.6885],[109.4995,-0.6945],[109.533,-0.697],[109.5465,-0.703],[109.5745,-0.6875],[109.581,-0.676],[109.5835,-0.653],[109.558,-0.657],[109.551,-0.652],[109.545,-0.6545],[109.541,-0.646],[109.5175,-0.645],[109.5015,-0.6375],[109.4925,-0.626],[109.483,-0.6285]]],[[[109.364,-0.6175],[109.3575,-0.619],[109.351,-0.6355],[109.361,-0.653],[109.3685,-0.6485],[109.3915,-0.6585],[109.405,-0.6725],[109.425,-0.668],[109.435,-0.674],[109.45,-0.6605],[109.404,-0.637],[109.3855,-0.6245],[109.364,-0.6175]]]]},"properties":{"code":"61.12.05.2002","name":"Batu Ampar"}},{"type":"Feature","geometry":{"type":"Polygon","coordinates":[[[109.5355,-0.8315],[109.5065,-0.7725],[109.4995,-0.763],[109.5,-0.746],[109.4665,-0.755],[109.4575,-0.7505],[109.456,-0.7685],[109.447,-0.782],[109.4205,-0.8215],[109.427,-0.821],[109.453,-0.811],[109.484,-0.8215],[109.523,-0.831],[109.5355,-0.8315]]]},"properties":{"code":"61.12.05.2003","name":"Teluk Nibung"}},{"type":"Feature","geometry":{"type":"Polygon","coordinates":[[[109.27,-0.6705],[109.265,-0.6655],[109.2485,-0.661],[109.245,-0.667],[109.241,-0.699],[109.242,-0.719],[109.2685,-0.729],[109.293,-0.7345],[109.281,-0.722],[109.2685,-0.719],[109.2495,-0.7065],[109.27,-0.6705]]]},"properties":{"code":"61.12.05.2004","name":"Padang Tikar Satu"}},{"type":"Feature","geometry":{"type":"Polygon","coordinates":[[[109.281,-0.6845],[109.27,-0.6705],[109.2495,-0.7065],[109.267,-0.7185],[109.2665,-0.7115],[109.2685,-0.704],[109.281,-0.6845]]]},"properties":{"code":"61.12.05.2005","name":"Padang Tikar Dua"}},{"type":"Feature","geometry":{"type":"Polygon","coordinates":[[[109.293,-0.7345],[109.2685,-0.729],[109.242,-0.719],[109.243,-0.741],[109.241,-0.7645],[109.26,-0.763],[109.3225,-0.762],[109.347,-0.7615],[109.3485,-0.7445],[109.293,-0.7345]]]},"properties":{"code":"61.12.05.2006","name":"Tasik Malaya"}},{"type":"Feature","geometry":{"type":"Polygon","coordinates":[[[109.3615,-0.78],[109.3465,-0.7675],[109.347,-0.7615],[109.3225,-0.762],[109.26,-0.763],[109.241,-0.7645],[109.237,-0.7945],[109.2665,-0.7945],[109.3615,-0.78]]]},"properties":{"code":"61.12.05.2007","name":"Sungai Besar"}},{"type":"Feature","geometry":{"type":"Polygon","coordinates":[[[109.388,-0.802],[109.3615,-0.78],[109.2665,-0.7945],[109.237,-0.7945],[109.244,-0.8285],[109.2675,-0.8185],[109.388,-0.802]]]},"properties":{"code":"61.12.05.2008","name":"Sungai Jawi"}},{"type":"Feature","geometry":{"type":"Polygon","coordinates":[[[109.4575,-0.7505],[109.4435,-0.7425],[109.4235,-0.7245],[109.4045,-0.712],[109.3915,-0.707],[109.3685,-0.7145],[109.3485,-0.712],[109.35,-0.7285],[109.3465,-0.7675],[109.3615,-0.78],[109.4115,-0.822],[109.4205,-0.8215],[109.447,-0.782],[109.456,-0.7685],[109.4575,-0.7505]]]},"properties":{"code":"61.12.05.2009","name":"Nipah Panjang"}},{"type":"Feature","geometry":{"type":"Polygon","coordinates":[[[109.402,-0.814],[109.388,-0.802],[109.2675,-0.8185],[109.244,-0.8285],[109.256,-0.853],[109.2715,-0.871],[109.389,-0.821],[109.402,-0.814]]]},"properties":{"code":"61.12.05.2010","name":"Ambarawa"}},{"type":"Feature","geometry":{"type":"MultiPolygon","coordinates":[[[[109.364,-0.873],[109.354,-0.8685],[109.3485,-0.871],[109.3475,-0.873],[109.344,-0.8745],[109.3345,-0.8745],[109.336,-0.8825],[109.3345,-0.8855],[109.326,-0.894],[109.322,-0.8945],[109.3195,-0.8935],[109.3165,-0.8915],[109.311,-0.885],[109.3075,-0.888],[109.308,-0.894],[109.3035,-0.902],[109.3065,-0.906],[109.3375,-0.9225],[109.365,-0.9225],[109.397,-0.9325],[109.406,-0.932],[109.418,-0.9165],[109.402,-0.904],[109.4035,-0.898],[109.3975,-0.891],[109.3915,-0.8895],[109.382,-0.8815],[109.3705,-0.881],[109.364,-0.873]]],[[[109.4095,-0.874],[109.397,-0.8675],[109.3835,-0.881],[109.3995,-0.891],[109.404,-0.897],[109.4035,-0.9035],[109.4205,-0.913],[109.429,-0.8935],[109.4215,-0.8755],[109.4095,-0.874]]],[[[109.523,-0.831],[109.484,-0.8215],[109.453,-0.811],[109.427,-0.821],[109.4115,-0.822],[109.402,-0.814],[109.389,-0.821],[109.2715,-0.871],[109.3,-0.9005],[109.3075,-0.893],[109.3075,-0.887],[109.3105,-0.8845],[109.313,-0.886],[109.317,-0.8915],[109.3205,-0.8935],[109.325,-0.894],[109.3265,-0.893],[109.3345,-0.8855],[109.336,-0.8815],[109.334,-0.8745],[109.336,-0.871],[109.3425,-0.8735],[109.347,-0.873],[109.3485,-0.871],[109.354,-0.8685],[109.3605,-0.8685],[109.3705,-0.88],[109.3965,-0.867],[109.4095,-0.873],[109.429,-0.8565],[109.439,-0.8575],[109.4585,-0.866],[109.496,-0.8745],[109.523,-0.878],[109.5365,-0.8855],[109.545,-0.883],[109.557,-0.888],[109.5725,-0.9005],[109.583,-0.898],[109.5935,-0.9085],[109.6,-0.9345],[109.6085,-0.944],[109.6095,-0.966],[109.618,-0.977],[109.6285,-0.973],[109.643,-0.9815],[109.6485,-0.9975],[109.6665,-1.0025],[109.6685,-0.99],[109.6525,-0.9775],[109.646,-0.963],[109.6465,-0.9385],[109.6375,-0.933],[109.625,-0.908],[109.614,-0.903],[109.6115,-0.8905],[109.603,-0.8795],[109.6115,-0.8675],[109.593,-0.8475],[109.5735,-0.835],[109.5435,-0.832],[109.523,-0.831]]]]},"properties":{"code":"61.12.05.2011","name":"Tanjung Harapan"}},{"type":"Feature","geometry":{"type":"Polygon","coordinates":[[[109.76,-0.7685],[109.7495,-0.7505],[109.7255,-0.7555],[109.7155,-0.756],[109.711,-0.757],[109.7,-0.7685],[109.703,-0.7995],[109.7145,-0.814],[109.705,-0.8175],[109.7045,-0.8205],[109.7055,-0.8215],[109.71,-0.8215],[109.712,-0.8285],[109.721,-0.849],[109.716,-0.863],[109.7275,-0.87],[109.7315,-0.863],[109.742,-0.86],[109.7505,-0.875],[109.7395,-0.8845],[109.754,-0.895],[109.767,-0.889],[109.774,-0.8785],[109.7775,-0.8765],[109.781,-0.8775],[109.784,-0.878],[109.7865,-0.878],[109.788,-0.8775],[109.796,-0.8735],[109.7995,-0.871],[109.801,-0.87],[109.801,-0.8625],[109.799,-0.861],[109.7935,-0.8525],[109.7985,-0.8435],[109.7995,-0.8425],[109.8005,-0.8425],[109.7855,-0.812],[109.76,-0.7685]]]},"properties":{"code":"61.12.05.2012","name":"Sungai Kerawang"}},{"type":"Feature","geometry":{"type":"Polygon","coordinates":[[[109.8295,-0.8325],[109.828,-0.8285],[109.7805,-0.751],[109.767,-0.753],[109.76,-0.7685],[109.7855,-0.812],[109.8005,-0.8425],[109.8115,-0.8465],[109.8295,-0.8325]]]},"properties":{"code":"61.12.05.2013","name":"Sumber Agung"}},{"type":"Feature","geometry":{"type":"Polygon","coordinates":[[[109.9415,-0.7325],[109.93,-0.721],[109.921,-0.726],[109.91,-0.7295],[109.8995,-0.7325],[109.884,-0.723],[109.8785,-0.7135],[109.879,-0.7115],[109.8815,-0.708],[109.7605,-0.7185],[109.828,-0.8285],[109.8295,-0.8325],[109.8325,-0.8345],[109.8385,-0.8405],[109.8435,-0.839],[109.857,-0.824],[109.8655,-0.832],[109.8765,-0.8255],[109.8945,-0.821],[109.893,-0.812],[109.8925,-0.8065],[109.8965,-0.802],[109.909,-0.798],[109.928,-0.786],[109.931,-0.7835],[109.9325,-0.7795],[109.9305,-0.771],[109.9365,-0.7645],[109.9325,-0.7495],[109.9415,-0.7325]]]},"properties":{"code":"61.12.05.2014","name":"Muara Tiga"}},{"type":"Feature","geometry":{"type":"Polygon","coordinates":[[[109.3485,-0.712],[109.3065,-0.7025],[109.289,-0.6925],[109.281,-0.6845],[109.2685,-0.704],[109.2665,-0.7115],[109.267,-0.7185],[109.2685,-0.719],[109.281,-0.722],[109.293,-0.7345],[109.3485,-0.7445],[109.35,-0.7285],[109.3485,-0.712]]]},"properties":{"code":"61.12.05.2015","name":"Medan Mas"}},{"type":"Feature","geometry":{"type":"Polygon","coordinates":[[[109.799,-0.471],[109.8095,-0.462],[109.8045,-0.449],[109.7765,-0.4195],[109.7575,-0.4135],[109.745,-0.4195],[109.7455,-0.4315],[109.729,-0.4365],[109.706,-0.4285],[109.6925,-0.43],[109.6745,-0.437],[109.652,-0.4575],[109.631,-0.454],[109.6105,-0.4765],[109.5975,-0.503],[109.56,-0.4665],[109.566,-0.457],[109.5495,-0.4575],[109.5445,-0.4595],[109.5415,-0.4615],[109.5375,-0.4715],[109.534,-0.473],[109.5275,-0.4715],[109.5185,-0.468],[109.516,-0.4665],[109.5155,-0.466],[109.515,-0.4615],[109.513,-0.4575],[109.5085,-0.46],[109.5065,-0.4635],[109.5005,-0.4655],[109.5,-0.4655],[109.4935,-0.465],[109.4925,-0.463],[109.492,-0.457],[109.488,-0.454],[109.4815,-0.453],[109.4655,-0.448],[109.463,-0.4495],[109.4605,-0.454],[109.46,-0.4595],[109.4595,-0.4615],[109.458,-0.464],[109.457,-0.465],[109.4545,-0.466],[109.452,-0.4665],[109.4465,-0.467],[109.4405,-0.466],[109.4365,-0.467],[109.4325,-0.474],[109.418,-0.4795],[109.439,-0.478],[109.439,-0.501],[109.434,-0.511],[109.428,-0.5175],[109.421,-0.5115],[109.4165,-0.4925],[109.399,-0.493],[109.403,-0.483],[109.4165,-0.4805],[109.4145,-0.4805],[109.4075,-0.4765],[109.4035,-0.478],[109.3935,-0.4845],[109.391,-0.485],[109.3865,-0.484],[109.3805,-0.484],[109.378,-0.486],[109.376,-0.489],[109.377,-0.4935],[109.371,-0.5015],[109.365,-0.5085],[109.3595,-0.511],[109.34,-0.529],[109.34,-0.545],[109.3245,-0.5735],[109.328,-0.5885],[109.339,-0.5895],[109.351,-0.5845],[109.374,-0.5845],[109.389,-0.609],[109.4025,-0.623],[109.4185,-0.6315],[109.462,-0.625],[109.473,-0.617],[109.4815,-0.626],[109.495,-0.6245],[109.5025,-0.635],[109.5175,-0.6425],[109.543,-0.6445],[109.546,-0.6515],[109.5625,-0.6505],[109.577,-0.653],[109.5845,-0.651],[109.5905,-0.6575],[109.606,-0.6445],[109.6145,-0.6415],[109.6335,-0.641],[109.6355,-0.6405],[109.6505,-0.6365],[109.6635,-0.629],[109.664,-0.625],[109.671,-0.603],[109.6825,-0.5905],[109.6825,-0.579],[109.6975,-0.5705],[109.706,-0.572],[109.7275,-0.5625],[109.73,-0.5535],[109.732,-0.551],[109.7325,-0.55],[109.739,-0.541],[109.742,-0.5375],[109.747,-0.533],[109.755,-0.53],[109.767,-0.5115],[109.799,-0.471]]]},"properties":{"code":"61.12.06.2001","name":"Kubu"}},{"type":"Feature","geometry":{"type":"Polygon","coordinates":[[[109.328,-0.4455],[109.316,-0.4465],[109.3125,-0.455],[109.3395,-0.4765],[109.3225,-0.4965],[109.3185,-0.5005],[109.301,-0.4875],[109.2885,-0.472],[109.287,-0.472],[109.287,-0.487],[109.246,-0.487],[109.2385,-0.489],[109.2505,-0.5095],[109.2875,-0.5095],[109.297,-0.494],[109.313,-0.529],[109.34,-0.529],[109.3595,-0.511],[109.365,-0.5085],[109.371,-0.5015],[109.377,-0.4935],[109.376,-0.4885],[109.367,-0.4845],[109.3655,-0.485],[109.3635,-0.485],[109.363,-0.4845],[109.365,-0.477],[109.368,-0.4685],[109.368,-0.4655],[109.3695,-0.4555],[109.365,-0.461],[109.3575,-0.4695],[109.342,-0.453],[109.328,-0.4455]]]},"properties":{"code":"61.12.06.2002","name":"Olak-Olak Kubu"}},{"type":"Feature","geometry":{"type":"Polygon","coordinates":[[[109.2515,-0.421],[109.2475,-0.419],[109.226,-0.398],[109.212,-0.39],[109.206,-0.3795],[109.1935,-0.3935],[109.198,-0.4045],[109.222,-0.428],[109.222,-0.4395],[109.2315,-0.449],[109.2515,-0.449],[109.2515,-0.421]]]},"properties":{"code":"61.12.06.2003","name":"Sungai Selamat"}},{"type":"Feature","geometry":{"type":"Polygon","coordinates":[[[109.2965,-0.34],[109.2965,-0.3315],[109.285,-0.3275],[109.264,-0.3115],[109.242,-0.3115],[109.242,-0.3205],[109.2365,-0.3205],[109.236,-0.3295],[109.2335,-0.3385],[109.217,-0.3505],[109.211,-0.3595],[109.209,-0.3585],[109.2035,-0.357],[109.202,-0.358],[109.1915,-0.3635],[109.1995,-0.37],[109.206,-0.3795],[109.212,-0.39],[109.226,-0.398],[109.2475,-0.419],[109.257,-0.423],[109.2705,-0.4265],[109.271,-0.4115],[109.292,-0.4135],[109.2915,-0.3925],[109.2945,-0.3795],[109.2965,-0.34]]]},"properties":{"code":"61.12.06.2004","name":"Sungai Bemban"}},{"type":"Feature","geometry":{"type":"Polygon","coordinates":[[[109.338,-0.2785],[109.3365,-0.279],[109.3275,-0.2755],[109.321,-0.2725],[109.318,-0.272],[109.318,-0.2895],[109.335,-0.293],[109.3305,-0.309],[109.352,-0.315],[109.3765,-0.3215],[109.3815,-0.303],[109.377,-0.291],[109.356,-0.2805],[109.338,-0.2785]]]},"properties":{"code":"61.12.06.2005","name":"Pinang Luar"}},{"type":"Feature","geometry":{"type":"Polygon","coordinates":[[[109.222,-0.431],[109.188,-0.43],[109.172,-0.436],[109.1625,-0.435],[109.156,-0.4245],[109.1565,-0.429],[109.1645,-0.4715],[109.1645,-0.473],[109.1645,-0.4825],[109.152,-0.498],[109.151,-0.5025],[109.1565,-0.513],[109.1645,-0.5025],[109.1655,-0.5015],[109.1695,-0.496],[109.171,-0.4945],[109.172,-0.493],[109.1735,-0.492],[109.176,-0.49],[109.181,-0.486],[109.1825,-0.4845],[109.189,-0.4675],[109.208,-0.47],[109.2315,-0.47],[109.249,-0.4675],[109.2705,-0.4675],[109.2515,-0.449],[109.2315,-0.449],[109.222,-0.4395],[109.222,-0.431]]]},"properties":{"code":"61.12.06.2006","name":"Seruat Dua"}},{"type":"Feature","geometry":{"type":"Polygon","coordinates":[[[109.206,-0.3795],[109.1995,-0.37],[109.19,-0.393],[109.1765,-0.3875],[109.1655,-0.3875],[109.161,-0.3915],[109.154,-0.4055],[109.156,-0.4245],[109.1625,-0.435],[109.172,-0.436],[109.188,-0.43],[109.222,-0.431],[109.222,-0.428],[109.198,-0.4045],[109.1935,-0.3935],[109.206,-0.3795]]]},"properties":{"code":"61.12.06.2007","name":"Seruat Tiga"}},{"type":"Feature","geometry":{"type":"MultiPolygon","coordinates":[[[[109.2975,-0.594],[109.286,-0.5995],[109.2815,-0.613],[109.3055,-0.6025],[109.2975,-0.594]]],[[[109.313,-0.529],[109.297,-0.494],[109.2875,-0.5095],[109.2505,-0.5095],[109.2475,-0.533],[109.2485,-0.5485],[109.248,-0.5525],[109.2495,-0.5535],[109.2495,-0.554],[109.2475,-0.5555],[109.2475,-0.556],[109.247,-0.558],[109.2275,-0.569],[109.227,-0.5715],[109.2245,-0.5825],[109.229,-0.591],[109.254,-0.605],[109.259,-0.5995],[109.2855,-0.5975],[109.2945,-0.592],[109.315,-0.594],[109.324,-0.588],[109.3245,-0.5735],[109.34,-0.545],[109.34,-0.529],[109.313,-0.529]]]]},"properties":{"code":"61.12.06.2008","name":"Dabong"}},{"type":"Feature","geometry":{"type":"Polygon","coordinates":[[[109.3765,-0.3215],[109.352,-0.315],[109.333,-0.3095],[109.333,-0.333],[109.3145,-0.333],[109.3145,-0.34],[109.2965,-0.34],[109.2945,-0.3795],[109.2915,-0.3925],[109.292,-0.4135],[109.271,-0.4115],[109.2705,-0.4265],[109.257,-0.423],[109.2515,-0.421],[109.2515,-0.449],[109.2705,-0.4675],[109.287,-0.4675],[109.287,-0.472],[109.2885,-0.472],[109.301,-0.4655],[109.307,-0.461],[109.3125,-0.455],[109.316,-0.4465],[109.328,-0.4455],[109.321,-0.436],[109.322,-0.427],[109.3345,-0.421],[109.3535,-0.4295],[109.3645,-0.4295],[109.368,-0.4205],[109.368,-0.402],[109.3865,-0.4015],[109.385,-0.3235],[109.3765,-0.3215]]]},"properties":{"code":"61.12.06.2009","name":"Ambawang"}},{"type":"Feature","geometry":{"type":"Polygon","coordinates":[[[109.1915,-0.3635],[109.183,-0.361],[109.1645,-0.371],[109.162,-0.371],[109.168,-0.383],[109.167,-0.3855],[109.1675,-0.3875],[109.1765,-0.3875],[109.19,-0.393],[109.1995,-0.37],[109.1915,-0.3635]]]},"properties":{"code":"61.12.06.2010","name":"Sepakat Baru"}},{"type":"Feature","geometry":{"type":"Polygon","coordinates":[[[109.393,-0.3045],[109.384,-0.301],[109.381,-0.2975],[109.38,-0.2875],[109.3785,-0.283],[109.3775,-0.2815],[109.3665,-0.277],[109.3585,-0.274],[109.3485,-0.27],[109.343,-0.271],[109.3395,-0.2775],[109.338,-0.2785],[109.356,-0.2805],[109.377,-0.291],[109.3815,-0.303],[109.3765,-0.3215],[109.385,-0.3235],[109.3865,-0.4015],[109.368,-0.402],[109.368,-0.4205],[109.377,-0.426],[109.3765,-0.42],[109.383,-0.4125],[109.396,-0.4235],[109.4045,-0.4225],[109.41,-0.4125],[109.413,-0.3975],[109.421,-0.391],[109.426,-0.39],[109.4295,-0.384],[109.4315,-0.3845],[109.4315,-0.384],[109.4275,-0.37],[109.425,-0.358],[109.4545,-0.362],[109.452,-0.378],[109.455,-0.385],[109.4545,-0.4105],[109.4495,-0.411],[109.4415,-0.428],[109.436,-0.4315],[109.4475,-0.445],[109.477,-0.418],[109.4855,-0.406],[109.486,-0.3895],[109.4765,-0.388],[109.47,-0.387],[109.463,-0.385],[109.461,-0.384],[109.4565,-0.3805],[109.455,-0.378],[109.4595,-0.3685],[109.456,-0.3585],[109.4405,-0.351],[109.425,-0.337],[109.422,-0.331],[109.4215,-0.325],[109.418,-0.321],[109.4065,-0.3175],[109.405,-0.317],[109.399,-0.308],[109.393,-0.3045]],[[109.4225,-0.3465],[109.4175,-0.364],[109.427,-0.383],[109.4235,-0.3885],[109.41,-0.383],[109.39,-0.3825],[109.3885,-0.347],[109.4225,-0.3465]],[[109.4085,-0.405],[109.404,-0.419],[109.39,-0.415],[109.3935,-0.4005],[109.4085,-0.405]]]},"properties":{"code":"61.12.06.2011","name":"Kampung Baru"}},{"type":"Feature","geometry":{"type":"Polygon","coordinates":[[[109.368,-0.4205],[109.3645,-0.4295],[109.3535,-0.4295],[109.3345,-0.421],[109.322,-0.427],[109.321,-0.436],[109.328,-0.4455],[109.342,-0.453],[109.3575,-0.4695],[109.365,-0.461],[109.3715,-0.453],[109.3845,-0.4395],[109.385,-0.4385],[109.379,-0.4305],[109.377,-0.426],[109.368,-0.4205]]]},"properties":{"code":"61.12.06.2012","name":"Air Putih"}},{"type":"Feature","geometry":{"type":"Polygon","coordinates":[[[109.4475,-0.445],[109.436,-0.4315],[109.412,-0.4485],[109.3915,-0.4495],[109.3835,-0.447],[109.378,-0.4465],[109.3715,-0.453],[109.3695,-0.4555],[109.368,-0.4655],[109.368,-0.4685],[109.365,-0.477],[109.363,-0.4845],[109.3635,-0.485],[109.3655,-0.485],[109.367,-0.4845],[109.376,-0.4885],[109.376,-0.489],[109.378,-0.486],[109.3805,-0.484],[109.3865,-0.484],[109.391,-0.485],[109.3935,-0.4845],[109.4035,-0.478],[109.4075,-0.4765],[109.4145,-0.4805],[109.4325,-0.474],[109.4365,-0.467],[109.4405,-0.466],[109.4445,-0.4665],[109.448,-0.467],[109.4525,-0.4665],[109.4545,-0.4665],[109.4555,-0.466],[109.458,-0.4645],[109.459,-0.4625],[109.46,-0.4595],[109.4605,-0.454],[109.463,-0.4495],[109.4655,-0.448],[109.4475,-0.445]]]},"properties":{"code":"61.12.06.2013","name":"Teluk Nangka"}},{"type":"Feature","geometry":{"type":"Polygon","coordinates":[[[109.4495,-0.411],[109.4545,-0.4105],[109.455,-0.385],[109.452,-0.378],[109.4545,-0.362],[109.425,-0.358],[109.4275,-0.37],[109.4315,-0.384],[109.431,-0.3855],[109.429,-0.3985],[109.4495,-0.411]]]},"properties":{"code":"61.12.06.2014","name":"Jangkang Satu"}},{"type":"Feature","geometry":{"type":"Polygon","coordinates":[[[109.4315,-0.3845],[109.4295,-0.384],[109.426,-0.39],[109.421,-0.391],[109.413,-0.3975],[109.41,-0.4125],[109.4045,-0.4225],[109.396,-0.4235],[109.383,-0.4125],[109.3765,-0.42],[109.379,-0.4305],[109.385,-0.4385],[109.3845,-0.4395],[109.378,-0.4465],[109.3835,-0.447],[109.3915,-0.4495],[109.412,-0.4485],[109.436,-0.4315],[109.4415,-0.428],[109.4495,-0.411],[109.429,-0.3985],[109.431,-0.3855],[109.4315,-0.3845]]]},"properties":{"code":"61.12.06.2015","name":"Jangkang Dua"}},{"type":"Feature","geometry":{"type":"MultiPolygon","coordinates":[[[[109.4085,-0.405],[109.3935,-0.4005],[109.39,-0.415],[109.404,-0.419],[109.4085,-0.405]]],[[[109.4225,-0.3465],[109.3885,-0.347],[109.39,-0.3825],[109.41,-0.383],[109.4235,-0.3885],[109.427,-0.383],[109.4175,-0.364],[109.4225,-0.3465]]]]},"properties":{"code":"61.12.06.2016","name":"Pinang Dalam"}},{"type":"Feature","geometry":{"type":"Polygon","coordinates":[[[109.4165,-0.4805],[109.403,-0.483],[109.399,-0.493],[109.4165,-0.4925],[109.421,-0.5115],[109.428,-0.5175],[109.434,-0.511],[109.439,-0.501],[109.439,-0.478],[109.418,-0.4795],[109.4165,-0.4805]]]},"properties":{"code":"61.12.06.2017","name":"Sungai Terus"}},{"type":"Feature","geometry":{"type":"Polygon","coordinates":[[[109.2885,-0.472],[109.301,-0.4875],[109.3185,-0.5005],[109.3225,-0.4965],[109.3395,-0.4765],[109.3125,-0.455],[109.307,-0.461],[109.301,-0.4655],[109.2885,-0.472]]]},"properties":{"code":"61.12.06.2018","name":"Pelita Jaya"}},{"type":"Feature","geometry":{"type":"Polygon","coordinates":[[[109.287,-0.472],[109.287,-0.4675],[109.249,-0.4675],[109.2315,-0.47],[109.208,-0.47],[109.189,-0.4675],[109.1825,-0.4845],[109.181,-0.486],[109.176,-0.49],[109.1735,-0.492],[109.172,-0.493],[109.171,-0.4945],[109.1695,-0.496],[109.1655,-0.5015],[109.1645,-0.5025],[109.1565,-0.513],[109.1545,-0.524],[109.1735,-0.537],[109.1765,-0.5385],[109.179,-0.5415],[109.18,-0.544],[109.1945,-0.5155],[109.203,-0.5065],[109.226,-0.4925],[109.246,-0.487],[109.287,-0.487],[109.287,-0.472]]]},"properties":{"code":"61.12.06.2019","name":"Mengkalang"}},{"type":"Feature","geometry":{"type":"Polygon","coordinates":[[[109.2505,-0.5095],[109.2385,-0.489],[109.226,-0.4925],[109.203,-0.5065],[109.1945,-0.5155],[109.18,-0.544],[109.1815,-0.5475],[109.1865,-0.5535],[109.2035,-0.5545],[109.227,-0.5715],[109.2275,-0.569],[109.247,-0.558],[109.2475,-0.556],[109.2475,-0.5555],[109.2495,-0.554],[109.2495,-0.5535],[109.248,-0.5525],[109.2485,-0.5485],[109.2475,-0.533],[109.2505,-0.5095]]]},"properties":{"code":"61.12.06.2020","name":"Mengkalang Jambu"}},{"type":"Feature","geometry":{"type":"MultiPolygon","coordinates":[[[[109.426,-0.2475],[109.402,-0.288],[109.419,-0.303],[109.413,-0.3125],[109.4085,-0.307],[109.4035,-0.3145],[109.4055,-0.317],[109.4065,-0.3175],[109.418,-0.321],[109.4215,-0.325],[109.4215,-0.3265],[109.4735,-0.2765],[109.426,-0.2475]]],[[[109.426,-0.2475],[109.4315,-0.239],[109.417,-0.2305],[109.423,-0.2205],[109.3975,-0.2035],[109.3945,-0.202],[109.393,-0.2035],[109.3795,-0.1965],[109.3665,-0.212],[109.3835,-0.222],[109.3655,-0.248],[109.3585,-0.2645],[109.3435,-0.2635],[109.329,-0.269],[109.3175,-0.265],[109.3045,-0.2715],[109.3015,-0.276],[109.301,-0.279],[109.3055,-0.276],[109.312,-0.273],[109.3175,-0.272],[109.319,-0.272],[109.321,-0.2725],[109.3275,-0.2755],[109.3365,-0.279],[109.3395,-0.2775],[109.343,-0.271],[109.3485,-0.27],[109.3585,-0.274],[109.3665,-0.277],[109.3775,-0.2815],[109.3785,-0.283],[109.38,-0.2875],[109.381,-0.2975],[109.384,-0.301],[109.393,-0.3045],[109.385,-0.2945],[109.377,-0.277],[109.364,-0.274],[109.3605,-0.2665],[109.3695,-0.2505],[109.385,-0.2265],[109.386,-0.2235],[109.4045,-0.2345],[109.426,-0.2475]]],[[[109.3595,-0.1655],[109.3475,-0.159],[109.3345,-0.1775],[109.319,-0.152],[109.3185,-0.185],[109.298,-0.2165],[109.322,-0.231],[109.3045,-0.263],[109.3075,-0.2645],[109.3435,-0.1985],[109.356,-0.2055],[109.3615,-0.195],[109.356,-0.185],[109.3595,-0.1655]]]]},"properties":{"code":"61.12.07.2001","name":"Rasau Jaya Umum"}},{"type":"Feature","geometry":{"type":"Polygon","coordinates":[[[109.399,-0.245],[109.4045,-0.2345],[109.386,-0.2235],[109.385,-0.2265],[109.3695,-0.2505],[109.3605,-0.2665],[109.364,-0.274],[109.377,-0.277],[109.399,-0.245]]]},"properties":{"code":"61.12.07.2002","name":"Rasau Jaya Satu"}},{"type":"Feature","geometry":{"type":"Polygon","coordinates":[[[109.426,-0.2475],[109.4045,-0.2345],[109.399,-0.245],[109.377,-0.277],[109.385,-0.2945],[109.393,-0.3045],[109.399,-0.308],[109.4035,-0.3145],[109.4085,-0.307],[109.413,-0.3125],[109.419,-0.303],[109.402,-0.288],[109.426,-0.2475]]]},"properties":{"code":"61.12.07.2003","name":"Rasau Jaya Dua"}},{"type":"Feature","geometry":{"type":"Polygon","coordinates":[[[109.356,-0.2055],[109.3435,-0.1985],[109.3075,-0.2645],[109.3045,-0.2715],[109.3175,-0.265],[109.329,-0.269],[109.3435,-0.2635],[109.3585,-0.2645],[109.3655,-0.248],[109.3835,-0.222],[109.3665,-0.212],[109.356,-0.2055]]]},"properties":{"code":"61.12.07.2004","name":"Rasau Jaya Tiga"}},{"type":"Feature","geometry":{"type":"Polygon","coordinates":[[[109.298,-0.2165],[109.2685,-0.269],[109.2695,-0.27],[109.284,-0.28],[109.292,-0.281],[109.301,-0.279],[109.3015,-0.276],[109.3045,-0.263],[109.322,-0.231],[109.298,-0.2165]]]},"properties":{"code":"61.12.07.2005","name":"Bintang Mas"}},{"type":"Feature","geometry":{"type":"Polygon","coordinates":[[[109.3185,-0.185],[109.3065,-0.1815],[109.282,-0.202],[109.254,-0.233],[109.237,-0.2535],[109.253,-0.264],[109.2635,-0.2665],[109.2675,-0.2685],[109.2685,-0.269],[109.298,-0.2165],[109.3185,-0.185]]]},"properties":{"code":"61.12.07.2006","name":"Pematang Tujuh"}},{"type":"Feature","geometry":{"type":"Polygon","coordinates":[[[109.214,-0.298],[109.2135,-0.298],[109.212,-0.286],[109.2065,-0.2785],[109.205,-0.28],[109.1925,-0.2815],[109.1725,-0.2855],[109.116,-0.2955],[109.1095,-0.298],[109.1015,-0.302],[109.1055,-0.3115],[109.126,-0.31],[109.141,-0.314],[109.164,-0.3105],[109.167,-0.312],[109.1795,-0.332],[109.2025,-0.3115],[109.214,-0.298]]]},"properties":{"code":"61.12.08.2001","name":"Teluk Pakedai Hulu"}},{"type":"Feature","geometry":{"type":"Polygon","coordinates":[[[109.165,-0.2305],[109.153,-0.2345],[109.1325,-0.2385],[109.1195,-0.2595],[109.0895,-0.2735],[109.0885,-0.289],[109.1015,-0.302],[109.1095,-0.298],[109.1245,-0.292],[109.1305,-0.278],[109.1425,-0.269],[109.1475,-0.267],[109.1595,-0.263],[109.162,-0.2625],[109.1655,-0.262],[109.162,-0.2365],[109.165,-0.2305]]]},"properties":{"code":"61.12.08.2002","name":"Teluk Pakedai Satu"}},{"type":"Feature","geometry":{"type":"Polygon","coordinates":[[[109.1805,-0.2655],[109.162,-0.264],[109.1575,-0.2635],[109.1475,-0.267],[109.1425,-0.269],[109.1305,-0.278],[109.1245,-0.292],[109.116,-0.2955],[109.1725,-0.2855],[109.1925,-0.2815],[109.205,-0.28],[109.2065,-0.2785],[109.2055,-0.277],[109.1855,-0.2715],[109.1805,-0.2655]]]},"properties":{"code":"61.12.08.2003","name":"Teluk Pakedai Dua"}},{"type":"Feature","geometry":{"type":"Polygon","coordinates":[[[109.1435,-0.4255],[109.1135,-0.422],[109.116,-0.4365],[109.1125,-0.4695],[109.121,-0.473],[109.1195,-0.4755],[109.117,-0.4905],[109.1355,-0.484],[109.1495,-0.4675],[109.1435,-0.4255]]]},"properties":{"code":"61.12.08.2004","name":"Kuala Karang"}},{"type":"Feature","geometry":{"type":"Polygon","coordinates":[[[109.161,-0.3915],[109.144,-0.389],[109.1435,-0.4255],[109.1495,-0.4675],[109.161,-0.468],[109.1645,-0.4825],[109.1645,-0.473],[109.1645,-0.4715],[109.1565,-0.429],[109.154,-0.4055],[109.161,-0.3915]]]},"properties":{"code":"61.12.08.2005","name":"Seruat Satu"}},{"type":"Feature","geometry":{"type":"Polygon","coordinates":[[[109.237,-0.2535],[109.231,-0.2495],[109.225,-0.257],[109.222,-0.2635],[109.22,-0.281],[109.2055,-0.277],[109.212,-0.286],[109.2135,-0.298],[109.218,-0.298],[109.2215,-0.3115],[109.229,-0.3205],[109.242,-0.3205],[109.242,-0.3115],[109.264,-0.3115],[109.285,-0.3275],[109.2965,-0.3315],[109.2965,-0.34],[109.3145,-0.34],[109.3145,-0.333],[109.333,-0.333],[109.333,-0.3095],[109.3305,-0.309],[109.335,-0.293],[109.318,-0.2895],[109.318,-0.272],[109.312,-0.273],[109.3055,-0.276],[109.301,-0.279],[109.299,-0.28],[109.292,-0.281],[109.284,-0.28],[109.2695,-0.27],[109.2675,-0.2685],[109.2635,-0.2665],[109.253,-0.264],[109.237,-0.2535]],[[109.3105,-0.311],[109.3185,-0.3305],[109.3065,-0.3305],[109.3065,-0.321],[109.286,-0.321],[109.289,-0.285],[109.314,-0.2895],[109.3105,-0.311]]]},"properties":{"code":"61.12.08.2006","name":"Sungai Deras"}},{"type":"Feature","geometry":{"type":"Polygon","coordinates":[[[109.2365,-0.3205],[109.229,-0.3205],[109.2215,-0.3115],[109.218,-0.298],[109.214,-0.298],[109.2025,-0.3115],[109.1795,-0.332],[109.167,-0.312],[109.164,-0.3105],[109.141,-0.314],[109.126,-0.31],[109.1055,-0.3115],[109.1135,-0.33],[109.11,-0.3455],[109.123,-0.3545],[109.147,-0.362],[109.156,-0.3685],[109.1535,-0.358],[109.149,-0.346],[109.1695,-0.351],[109.21,-0.351],[109.209,-0.3585],[109.211,-0.3595],[109.217,-0.3505],[109.2335,-0.3385],[109.236,-0.3295],[109.2365,-0.3205]]]},"properties":{"code":"61.12.08.2007","name":"Selat Remis"}},{"type":"Feature","geometry":{"type":"Polygon","coordinates":[[[109.222,-0.2635],[109.2085,-0.268],[109.198,-0.2555],[109.1955,-0.258],[109.1805,-0.2655],[109.1855,-0.2715],[109.2055,-0.277],[109.22,-0.281],[109.222,-0.2635]]]},"properties":{"code":"61.12.08.2008","name":"Madura"}},{"type":"Feature","geometry":{"type":"Polygon","coordinates":[[[109.218,-0.2345],[109.217,-0.232],[109.207,-0.2215],[109.197,-0.218],[109.1935,-0.222],[109.1785,-0.225],[109.1755,-0.227],[109.174,-0.2305],[109.171,-0.232],[109.165,-0.2305],[109.162,-0.2365],[109.1655,-0.262],[109.1615,-0.2625],[109.1575,-0.2635],[109.162,-0.264],[109.1805,-0.2655],[109.1955,-0.258],[109.2015,-0.2535],[109.198,-0.238],[109.2075,-0.231],[109.218,-0.2345]]]},"properties":{"code":"61.12.08.2009","name":"Pasir Putih"}},{"type":"Feature","geometry":{"type":"Polygon","coordinates":[[[109.209,-0.3585],[109.21,-0.351],[109.1695,-0.351],[109.149,-0.346],[109.1535,-0.358],[109.156,-0.3685],[109.1585,-0.3705],[109.1605,-0.371],[109.1645,-0.371],[109.183,-0.361],[109.1915,-0.3635],[109.202,-0.358],[109.2035,-0.357],[109.209,-0.3585]]]},"properties":{"code":"61.12.08.2010","name":"Teluk Gelam"}},{"type":"Feature","geometry":{"type":"Polygon","coordinates":[[[109.11,-0.3455],[109.1015,-0.3455],[109.0975,-0.361],[109.1135,-0.422],[109.1435,-0.4255],[109.144,-0.389],[109.161,-0.3915],[109.1655,-0.3875],[109.1675,-0.3875],[109.167,-0.3855],[109.168,-0.383],[109.162,-0.371],[109.1605,-0.371],[109.1585,-0.3705],[109.147,-0.362],[109.123,-0.3545],[109.11,-0.3455]]]},"properties":{"code":"61.12.08.2011","name":"Tanjung Bunga"}},{"type":"Feature","geometry":{"type":"Polygon","coordinates":[[[109.1645,-0.4825],[109.161,-0.468],[109.1495,-0.4675],[109.1355,-0.484],[109.117,-0.4905],[109.1195,-0.4755],[109.121,-0.473],[109.1125,-0.4695],[109.114,-0.503],[109.12,-0.5245],[109.1315,-0.547],[109.1475,-0.568],[109.1685,-0.5725],[109.188,-0.568],[109.1865,-0.5535],[109.1815,-0.5475],[109.179,-0.5415],[109.1765,-0.5385],[109.1735,-0.537],[109.1545,-0.524],[109.1565,-0.513],[109.151,-0.5025],[109.152,-0.498],[109.1645,-0.4825]]]},"properties":{"code":"61.12.08.2012","name":"Sungai Nibung"}},{"type":"Feature","geometry":{"type":"Polygon","coordinates":[[[109.3105,-0.311],[109.314,-0.2895],[109.289,-0.285],[109.286,-0.321],[109.3065,-0.321],[109.3065,-0.3305],[109.3185,-0.3305],[109.3105,-0.311]]]},"properties":{"code":"61.12.08.2013","name":"Arus Deras"}},{"type":"Feature","geometry":{"type":"Polygon","coordinates":[[[109.218,-0.2345],[109.2075,-0.231],[109.198,-0.238],[109.2015,-0.2535],[109.198,-0.2555],[109.2085,-0.268],[109.222,-0.2635],[109.225,-0.257],[109.231,-0.2495],[109.2215,-0.241],[109.218,-0.2345]]]},"properties":{"code":"61.12.08.2014","name":"Sungai Nipah"}},{"type":"Feature","geometry":{"type":"Polygon","coordinates":[[[109.2375,-0.071],[109.237,-0.039],[109.2125,-0.045],[109.196,-0.0435],[109.1635,-0.048],[109.176,-0.0675],[109.2375,-0.071]]]},"properties":{"code":"61.12.09.2001","name":"Sungai Kakap"}},{"type":"Feature","geometry":{"type":"Polygon","coordinates":[[[109.237,-0.039],[109.231,-0.0205],[109.215,-0.026],[109.177,-0.025],[109.161,-0.022],[109.159,-0.0375],[109.1635,-0.048],[109.196,-0.0435],[109.2125,-0.045],[109.237,-0.039]]]},"properties":{"code":"61.12.09.2002","name":"Sungai Itik"}},{"type":"Feature","geometry":{"type":"Polygon","coordinates":[[[109.2225,0.001],[109.2165,-0.0015],[109.187,0.001],[109.167,0.0055],[109.161,-0.022],[109.177,-0.025],[109.215,-0.026],[109.231,-0.0205],[109.224,-0.0105],[109.2225,0.001]]]},"properties":{"code":"61.12.09.2003","name":"Jeruju Besar"}},{"type":"Feature","geometry":{"type":"Polygon","coordinates":[[[109.178,0.034],[109.1685,0.028],[109.167,0.0055],[109.187,0.001],[109.2165,-0.0015],[109.2225,0.001],[109.222,0.004],[109.2215,0.005],[109.222,0.0085],[109.2215,0.018],[109.2165,0.0195],[109.178,0.034]]]},"properties":{"code":"61.12.09.2004","name":"Sungai Kupah"}},{"type":"Feature","geometry":{"type":"Polygon","coordinates":[[[109.2605,0.017],[109.2525,0.0145],[109.2345,0.017],[109.2215,0.018],[109.222,0.0085],[109.2215,0.005],[109.222,0.004],[109.224,-0.0105],[109.231,-0.0205],[109.237,-0.039],[109.2595,-0.0385],[109.2715,-0.0325],[109.2805,-0.0215],[109.2855,-0.017],[109.287,0.006],[109.2605,0.017]]]},"properties":{"code":"61.12.09.2005","name":"Sungai Rengas"}},{"type":"Feature","geometry":{"type":"Polygon","coordinates":[[[109.274,-0.03],[109.2715,-0.0325],[109.2595,-0.0385],[109.237,-0.039],[109.2375,-0.071],[109.2565,-0.0685],[109.261,-0.074],[109.259,-0.0745],[109.2635,-0.091],[109.297,-0.0875],[109.313,-0.0885],[109.3225,-0.088],[109.3205,-0.0855],[109.3065,-0.077],[109.3055,-0.0645],[109.304,-0.0635],[109.3025,-0.062],[109.302,-0.06],[109.297,-0.054],[109.291,-0.048],[109.2825,-0.043],[109.274,-0.03]]]},"properties":{"code":"61.12.09.2006","name":"Pal Sembilan"}},{"type":"Feature","geometry":{"type":"Polygon","coordinates":[[[109.2375,-0.071],[109.176,-0.0675],[109.1795,-0.0825],[109.188,-0.091],[109.1915,-0.091],[109.192,-0.0905],[109.1935,-0.089],[109.199,-0.0895],[109.2225,-0.0795],[109.2505,-0.0765],[109.261,-0.074],[109.2565,-0.0685],[109.2375,-0.071]]]},"properties":{"code":"61.12.09.2007","name":"Sungai Belidak"}},{"type":"Feature","geometry":{"type":"Polygon","coordinates":[[[109.297,-0.0875],[109.2635,-0.091],[109.259,-0.0745],[109.2505,-0.0765],[109.2225,-0.0795],[109.199,-0.0895],[109.1935,-0.089],[109.192,-0.0905],[109.1915,-0.091],[109.188,-0.091],[109.184,-0.095],[109.1935,-0.0965],[109.2035,-0.1],[109.2075,-0.109],[109.2115,-0.113],[109.2165,-0.113],[109.2285,-0.1165],[109.256,-0.11],[109.275,-0.096],[109.2965,-0.0915],[109.297,-0.0875]]]},"properties":{"code":"61.12.09.2008","name":"Kalimas"}},{"type":"Feature","geometry":{"type":"Polygon","coordinates":[[[109.3225,-0.088],[109.313,-0.0885],[109.297,-0.0875],[109.2965,-0.0915],[109.275,-0.096],[109.256,-0.11],[109.2285,-0.1165],[109.2165,-0.113],[109.2175,-0.1185],[109.2245,-0.1215],[109.2285,-0.1235],[109.2305,-0.1235],[109.233,-0.1235],[109.2385,-0.123],[109.2625,-0.134],[109.26,-0.1665],[109.2635,-0.1855],[109.2815,-0.202],[109.3065,-0.1815],[109.3185,-0.185],[109.319,-0.152],[109.3345,-0.1775],[109.3475,-0.159],[109.3595,-0.1655],[109.362,-0.1495],[109.363,-0.1405],[109.3625,-0.1355],[109.361,-0.132],[109.3525,-0.129],[109.351,-0.119],[109.325,-0.1],[109.3295,-0.095],[109.322,-0.094],[109.3225,-0.088]]]},"properties":{"code":"61.12.09.2009","name":"Punggur Kecil"}},{"type":"Feature","geometry":{"type":"Polygon","coordinates":[[[109.2815,-0.202],[109.2635,-0.1855],[109.26,-0.1665],[109.2625,-0.134],[109.2385,-0.123],[109.233,-0.1235],[109.2305,-0.1235],[109.2285,-0.1235],[109.2245,-0.1215],[109.2175,-0.1185],[109.2195,-0.145],[109.2005,-0.1805],[109.1835,-0.1805],[109.1815,-0.194],[109.197,-0.218],[109.207,-0.2215],[109.217,-0.232],[109.2215,-0.241],[109.237,-0.2535],[109.254,-0.233],[109.2815,-0.202]]]},"properties":{"code":"61.12.09.2010","name":"Punggur Besar"}},{"type":"Feature","geometry":{"type":"MultiPolygon","coordinates":[[[[109.1605,-0.1855],[109.1375,-0.1525],[109.127,-0.1475],[109.126,-0.167],[109.1405,-0.179],[109.1605,-0.1855]]],[[[109.1255,-0.1505],[109.117,-0.1355],[109.113,-0.117],[109.094,-0.13],[109.0905,-0.151],[109.0975,-0.1505],[109.119,-0.1685],[109.124,-0.1675],[109.1255,-0.1505]]],[[[109.178,-0.1175],[109.166,-0.094],[109.1675,-0.0795],[109.1645,-0.062],[109.159,-0.0605],[109.14,-0.078],[109.124,-0.1045],[109.131,-0.14],[109.143,-0.1595],[109.1585,-0.1755],[109.1645,-0.1875],[109.1775,-0.193],[109.181,-0.167],[109.1865,-0.14],[109.178,-0.1175]]]]},"properties":{"code":"61.12.09.2011","name":"Tanjung Saleh"}},{"type":"Feature","geometry":{"type":"MultiPolygon","coordinates":[[[[109.127,-0.202],[109.088,-0.208],[109.076,-0.2185],[109.0655,-0.2205],[109.0585,-0.2135],[109.0535,-0.243],[109.054,-0.2595],[109.061,-0.28],[109.0885,-0.3215],[109.101,-0.333],[109.1,-0.3075],[109.0835,-0.288],[109.0835,-0.27],[109.1095,-0.261],[109.124,-0.25],[109.1325,-0.2365],[109.1545,-0.233],[109.164,-0.2295],[109.172,-0.231],[109.175,-0.2265],[109.178,-0.2245],[109.193,-0.2185],[109.19,-0.214],[109.174,-0.207],[109.1575,-0.2105],[109.127,-0.202]]],[[[109.1265,-0.176],[109.103,-0.1685],[109.086,-0.1865],[109.0925,-0.1935],[109.1215,-0.198],[109.134,-0.196],[109.158,-0.2075],[109.173,-0.2015],[109.16,-0.188],[109.1265,-0.176]]]]},"properties":{"code":"61.12.09.2012","name":"Sepuk Laut"}},{"type":"Feature","geometry":{"type":"Polygon","coordinates":[[[109.2165,-0.113],[109.2115,-0.113],[109.2075,-0.109],[109.2035,-0.1],[109.1935,-0.0965],[109.184,-0.095],[109.1815,-0.105],[109.1885,-0.128],[109.1895,-0.1395],[109.1835,-0.162],[109.1835,-0.1805],[109.2005,-0.1805],[109.2195,-0.145],[109.2175,-0.1185],[109.2165,-0.113]]]},"properties":{"code":"61.12.09.2013","name":"Punggur Kapuas"}}]}