{"type":"FeatureCollection","features":[{"type":"Feature","geometry":{"type":"Polygon","coordinates":[[[111.1825,-2.714],[111.172,-2.7075],[111.1705,-2.707],[111.158,-2.7185],[111.1565,-2.7245],[111.1535,-2.7305],[111.15,-2.736],[111.148,-2.741],[111.1675,-2.7465],[111.1725,-2.7435],[111.1725,-2.743],[111.1785,-2.731],[111.1825,-2.714]]]},"properties":{"code":"62.08.01.1003","name":"Mendawai"}},{"type":"Feature","geometry":{"type":"Polygon","coordinates":[[[111.225,-2.5605],[111.2245,-2.5615],[111.2245,-2.5625],[111.2255,-2.5645],[111.2245,-2.5665],[111.21,-2.567],[111.197,-2.5535],[111.1955,-2.553],[111.193,-2.552],[111.188,-2.5495],[111.188,-2.5445],[111.1945,-2.536],[111.2025,-2.531],[111.2095,-2.5255],[111.2175,-2.5075],[111.207,-2.484],[111.1065,-2.484],[111.102,-2.484],[111.102,-2.485],[111.1075,-2.493],[111.107,-2.5065],[111.1125,-2.521],[111.126,-2.539],[111.1345,-2.5365],[111.147,-2.542],[111.1425,-2.5575],[111.1275,-2.562],[111.1315,-2.599],[111.1385,-2.6125],[111.1565,-2.6365],[111.158,-2.656],[111.1595,-2.661],[111.174,-2.6875],[111.1705,-2.707],[111.172,-2.7075],[111.189,-2.7175],[111.1915,-2.7105],[111.191,-2.7035],[111.1915,-2.703],[111.1895,-2.704],[111.189,-2.7045],[111.1875,-2.7045],[111.1835,-2.702],[111.182,-2.701],[111.182,-2.699],[111.193,-2.6785],[111.1915,-2.666],[111.2015,-2.664],[111.204,-2.651],[111.217,-2.6495],[111.2165,-2.6145],[111.2275,-2.615],[111.229,-2.5615],[111.2285,-2.5615],[111.2255,-2.562],[111.225,-2.5605]]]},"properties":{"code":"62.08.01.1004","name":"Padang"}},{"type":"Feature","geometry":{"type":"Polygon","coordinates":[[[111.1725,-2.7435],[111.1675,-2.7465],[111.148,-2.741],[111.1425,-2.7445],[111.134,-2.75],[111.123,-2.755],[111.101,-2.769],[111.0825,-2.773],[111.07,-2.78],[111.0615,-2.7825],[111.0335,-2.7855],[111.028,-2.7875],[111.017,-2.7925],[111.0125,-2.795],[111.01,-2.7965],[111.045,-2.8465],[111.068,-2.8115],[111.0875,-2.786],[111.1355,-2.8355],[111.141,-2.843],[111.167,-2.8155],[111.2075,-2.8295],[111.284,-2.7885],[111.3795,-2.7915],[111.3825,-2.76],[111.3625,-2.76],[111.23,-2.762],[111.2145,-2.7675],[111.2005,-2.758],[111.183,-2.7545],[111.175,-2.745],[111.1725,-2.7435]]]},"properties":{"code":"62.08.01.2001","name":"Natai Sedawak"}},{"type":"Feature","geometry":{"type":"Polygon","coordinates":[[[111.23,-2.762],[111.2185,-2.7385],[111.196,-2.706],[111.196,-2.7045],[111.1955,-2.704],[111.195,-2.7035],[111.192,-2.7035],[111.1915,-2.703],[111.191,-2.7035],[111.1915,-2.7105],[111.189,-2.7175],[111.1825,-2.714],[111.1785,-2.731],[111.1725,-2.743],[111.175,-2.745],[111.183,-2.7545],[111.2005,-2.758],[111.2145,-2.7675],[111.23,-2.762]]]},"properties":{"code":"62.08.01.2002","name":"Pudu"}},{"type":"Feature","geometry":{"type":"Polygon","coordinates":[[[111.247,-2.5675],[111.2325,-2.5625],[111.229,-2.5615],[111.2275,-2.615],[111.2165,-2.6145],[111.217,-2.6495],[111.204,-2.651],[111.2015,-2.664],[111.1915,-2.666],[111.193,-2.6785],[111.182,-2.699],[111.182,-2.701],[111.1835,-2.702],[111.1875,-2.7045],[111.189,-2.7045],[111.1895,-2.704],[111.1915,-2.703],[111.192,-2.7035],[111.195,-2.7035],[111.1955,-2.704],[111.196,-2.7045],[111.196,-2.706],[111.2185,-2.7385],[111.23,-2.762],[111.3625,-2.76],[111.374,-2.734],[111.3805,-2.7125],[111.4,-2.6535],[111.3975,-2.648],[111.3775,-2.6455],[111.3435,-2.6255],[111.33,-2.6025],[111.3085,-2.589],[111.3085,-2.584],[111.284,-2.5835],[111.28,-2.5835],[111.247,-2.5675]]]},"properties":{"code":"62.08.01.2005","name":"Kartamulia"}},{"type":"Feature","geometry":{"type":"Polygon","coordinates":[[[111.2755,-2.4665],[111.2675,-2.4585],[111.248,-2.4575],[111.2455,-2.4655],[111.2445,-2.468],[111.2385,-2.4655],[111.236,-2.462],[111.2355,-2.4615],[111.235,-2.462],[111.234,-2.462],[111.2285,-2.4625],[111.2215,-2.462],[111.2195,-2.463],[111.207,-2.484],[111.2175,-2.5075],[111.2095,-2.5255],[111.2025,-2.531],[111.1945,-2.536],[111.188,-2.5445],[111.188,-2.5495],[111.193,-2.552],[111.1955,-2.553],[111.197,-2.5535],[111.21,-2.567],[111.2245,-2.5665],[111.2255,-2.5645],[111.2245,-2.5625],[111.2245,-2.5615],[111.225,-2.5605],[111.22,-2.543],[111.2205,-2.514],[111.2175,-2.505],[111.243,-2.506],[111.255,-2.5005],[111.27,-2.5065],[111.287,-2.518],[111.281,-2.507],[111.2805,-2.4715],[111.2755,-2.467],[111.2755,-2.4665]]]},"properties":{"code":"62.08.01.2006","name":"Sukaraja"}},{"type":"Feature","geometry":{"type":"Polygon","coordinates":[[[111.284,-2.3165],[111.2835,-2.316],[111.282,-2.318],[111.28,-2.3235],[111.2725,-2.3315],[111.273,-2.333],[111.2745,-2.334],[111.274,-2.335],[111.266,-2.343],[111.2655,-2.345],[111.26,-2.35],[111.259,-2.3505],[111.202,-2.395],[111.202,-2.402],[111.1985,-2.4035],[111.199,-2.4065],[111.199,-2.408],[111.202,-2.409],[111.2065,-2.412],[111.207,-2.4315],[111.2255,-2.452],[111.2345,-2.462],[111.2355,-2.4615],[111.236,-2.462],[111.2385,-2.4655],[111.2445,-2.468],[111.2455,-2.4655],[111.248,-2.4575],[111.2675,-2.4585],[111.2755,-2.4665],[111.275,-2.4465],[111.275,-2.43],[111.2815,-2.428],[111.2955,-2.4085],[111.284,-2.4],[111.2835,-2.373],[111.265,-2.3725],[111.266,-2.347],[111.275,-2.336],[111.3055,-2.336],[111.3065,-2.333],[111.312,-2.3325],[111.312,-2.326],[111.3105,-2.326],[111.31,-2.3255],[111.309,-2.3255],[111.307,-2.3265],[111.303,-2.3265],[111.2965,-2.3225],[111.2935,-2.3205],[111.284,-2.3165]]]},"properties":{"code":"62.08.01.2007","name":"Pangkalan Muntai"}},{"type":"Feature","geometry":{"type":"Polygon","coordinates":[[[111.202,-2.409],[111.199,-2.408],[111.199,-2.4065],[111.189,-2.4075],[111.1825,-2.412],[111.162,-2.4145],[111.1485,-2.423],[111.149,-2.435],[111.1405,-2.4515],[111.125,-2.456],[111.1135,-2.4455],[111.101,-2.4495],[111.0995,-2.4665],[111.1025,-2.4715],[111.102,-2.483],[111.102,-2.484],[111.1065,-2.484],[111.207,-2.484],[111.2195,-2.463],[111.2215,-2.462],[111.2285,-2.4625],[111.2345,-2.462],[111.2255,-2.452],[111.207,-2.4315],[111.2065,-2.412],[111.202,-2.409]]]},"properties":{"code":"62.08.01.2008","name":"Petarikan"}},{"type":"Feature","geometry":{"type":"Polygon","coordinates":[[[110.8355,-2.9305],[110.79,-2.9155],[110.7875,-2.918],[110.776,-2.924],[110.7555,-2.942],[110.751,-2.9485],[110.7415,-2.974],[110.7325,-2.987],[110.733,-2.9965],[110.7435,-2.988],[110.771,-2.978],[110.7855,-2.976],[110.818,-2.9815],[110.819,-2.963],[110.8245,-2.9455],[110.8355,-2.9305]]]},"properties":{"code":"62.08.02.1001","name":"Kuala Jelai"}},{"type":"Feature","geometry":{"type":"Polygon","coordinates":[[[111.045,-2.8465],[111.01,-2.7965],[111.0095,-2.7975],[111.008,-2.7995],[111.0035,-2.811],[111,-2.8245],[110.9975,-2.8275],[110.995,-2.8305],[110.991,-2.834],[110.9775,-2.841],[110.9755,-2.8425],[110.975,-2.8435],[110.9715,-2.854],[110.9645,-2.8585],[110.943,-2.865],[110.9285,-2.8685],[110.9195,-2.866],[110.8945,-2.8695],[110.879,-2.882],[110.8615,-2.889],[110.8465,-2.886],[110.8275,-2.9055],[110.81,-2.908],[110.804,-2.9085],[110.7985,-2.9105],[110.79,-2.9155],[110.8355,-2.9305],[110.8725,-2.957],[110.905,-2.9815],[110.9555,-3.01],[110.9455,-2.9275],[111.045,-2.8465]]]},"properties":{"code":"62.08.02.2002","name":"Pulau Nibung"}},{"type":"Feature","geometry":{"type":"Polygon","coordinates":[[[110.871,-2.956],[110.8355,-2.9305],[110.8245,-2.9455],[110.819,-2.963],[110.818,-2.9815],[110.8495,-2.9965],[110.8695,-3.0105],[110.8685,-2.9925],[110.871,-2.956]]]},"properties":{"code":"62.08.02.2003","name":"Sungai Baru"}},{"type":"Feature","geometry":{"type":"Polygon","coordinates":[[[110.906,-2.982],[110.905,-2.9815],[110.871,-2.956],[110.8685,-2.9925],[110.8695,-3.0105],[110.908,-3.0395],[110.9195,-3.0465],[110.902,-3.025],[110.906,-2.982]]]},"properties":{"code":"62.08.02.2004","name":"Sungai Bundung"}},{"type":"Feature","geometry":{"type":"Polygon","coordinates":[[[110.9555,-3.01],[110.906,-2.982],[110.902,-3.025],[110.9195,-3.0465],[110.9345,-3.05],[110.951,-3.063],[110.9625,-3.0655],[110.9555,-3.01]]]},"properties":{"code":"62.08.02.2005","name":"Sungai Raja"}},{"type":"Feature","geometry":{"type":"Polygon","coordinates":[[[111.202,-2.395],[111.173,-2.397],[111.1375,-2.3945],[111.127,-2.3885],[111.1185,-2.388],[111.1135,-2.3865],[111.109,-2.4015],[111.1065,-2.412],[111.117,-2.432],[111.1145,-2.441],[111.1135,-2.4455],[111.125,-2.456],[111.1405,-2.4515],[111.149,-2.435],[111.1485,-2.423],[111.162,-2.4145],[111.1825,-2.412],[111.189,-2.4075],[111.1985,-2.4035],[111.202,-2.402],[111.202,-2.395]]]},"properties":{"code":"62.08.03.2001","name":"Jihing"}},{"type":"Feature","geometry":{"type":"Polygon","coordinates":[[[111.167,-2.3585],[111.1595,-2.3615],[111.112,-2.348],[111.1105,-2.35],[111.11,-2.3655],[111.116,-2.3745],[111.115,-2.3815],[111.1135,-2.3865],[111.1185,-2.388],[111.127,-2.3885],[111.1375,-2.3945],[111.173,-2.397],[111.202,-2.395],[111.208,-2.3685],[111.2175,-2.36],[111.1995,-2.359],[111.18,-2.3585],[111.175,-2.3585],[111.167,-2.3585]]]},"properties":{"code":"62.08.03.2002","name":"Air Dua"}},{"type":"Feature","geometry":{"type":"Polygon","coordinates":[[[111.2765,-2.2965],[111.2325,-2.287],[111.22,-2.296],[111.22,-2.3045],[111.224,-2.324],[111.2265,-2.351],[111.2175,-2.36],[111.208,-2.3685],[111.202,-2.395],[111.259,-2.3505],[111.26,-2.35],[111.2655,-2.345],[111.266,-2.343],[111.274,-2.335],[111.2745,-2.334],[111.273,-2.333],[111.2725,-2.3315],[111.28,-2.3235],[111.282,-2.318],[111.2805,-2.3055],[111.274,-2.3005],[111.274,-2.3],[111.2765,-2.2965]]]},"properties":{"code":"62.08.03.2005","name":"Lupu Peruca"}},{"type":"Feature","geometry":{"type":"Polygon","coordinates":[[[111.1575,-2.276],[111.1305,-2.278],[111.1295,-2.306],[111.1095,-2.318],[111.11,-2.319],[111.1155,-2.3275],[111.1125,-2.3475],[111.112,-2.348],[111.1595,-2.3615],[111.167,-2.3585],[111.1675,-2.356],[111.168,-2.355],[111.168,-2.354],[111.168,-2.353],[111.1675,-2.3315],[111.179,-2.3315],[111.184,-2.323],[111.178,-2.305],[111.1785,-2.2965],[111.1735,-2.286],[111.1585,-2.286],[111.1575,-2.276]]]},"properties":{"code":"62.08.03.2006","name":"Balai Riam"}},{"type":"Feature","geometry":{"type":"Polygon","coordinates":[[[111.1305,-2.278],[111.097,-2.277],[111.0895,-2.2865],[111.0755,-2.286],[111.0905,-2.3005],[111.1025,-2.3035],[111.1055,-2.3125],[111.1095,-2.318],[111.1295,-2.306],[111.1305,-2.278]]]},"properties":{"code":"62.08.03.2007","name":"Pempaning"}},{"type":"Feature","geometry":{"type":"Polygon","coordinates":[[[111.184,-2.323],[111.179,-2.3315],[111.1675,-2.3315],[111.168,-2.353],[111.168,-2.354],[111.168,-2.355],[111.1675,-2.356],[111.175,-2.3585],[111.18,-2.3585],[111.1965,-2.3585],[111.2005,-2.351],[111.2015,-2.3235],[111.197,-2.323],[111.196,-2.3235],[111.184,-2.323]]]},"properties":{"code":"62.08.03.2011","name":"Sekuningan Baru"}},{"type":"Feature","geometry":{"type":"Polygon","coordinates":[[[111.22,-2.296],[111.2125,-2.2865],[111.1945,-2.286],[111.188,-2.2935],[111.178,-2.305],[111.184,-2.323],[111.196,-2.3235],[111.197,-2.323],[111.2015,-2.3235],[111.2015,-2.3215],[111.2125,-2.3145],[111.213,-2.305],[111.22,-2.296]]]},"properties":{"code":"62.08.03.2012","name":"Bangun Jaya"}},{"type":"Feature","geometry":{"type":"Polygon","coordinates":[[[111.2175,-2.36],[111.2265,-2.351],[111.224,-2.324],[111.22,-2.3045],[111.213,-2.305],[111.2125,-2.3145],[111.2015,-2.3215],[111.2005,-2.351],[111.1965,-2.3585],[111.1995,-2.359],[111.2175,-2.36]]]},"properties":{"code":"62.08.03.2013","name":"Bukit Sungkai"}},{"type":"Feature","geometry":{"type":"Polygon","coordinates":[[[111.069,-3.0435],[111.066,-3.0195],[111.0695,-2.893],[111.062,-2.885],[111.0525,-2.861],[111.045,-2.8465],[110.9455,-2.9275],[110.9625,-3.0655],[110.9775,-3.066],[111.048,-3.0515],[111.069,-3.0435]]]},"properties":{"code":"62.08.04.2001","name":"Sungai Damar"}},{"type":"Feature","geometry":{"type":"Polygon","coordinates":[[[111.157,-3.0055],[111.139,-2.95],[111.145,-2.9185],[111.133,-2.8855],[111.1145,-2.8615],[111.1185,-2.8505],[111.068,-2.8115],[111.045,-2.8465],[111.0525,-2.861],[111.062,-2.885],[111.0695,-2.893],[111.066,-3.0195],[111.069,-3.0435],[111.1135,-3.027],[111.157,-3.0055]]]},"properties":{"code":"62.08.04.2002","name":"Sungai Tabuk"}},{"type":"Feature","geometry":{"type":"Polygon","coordinates":[[[111.141,-2.843],[111.1355,-2.8355],[111.0875,-2.786],[111.068,-2.8115],[111.1185,-2.8505],[111.1145,-2.8615],[111.133,-2.8855],[111.145,-2.9185],[111.139,-2.95],[111.157,-3.0055],[111.191,-2.99],[111.225,-2.968],[111.216,-2.9265],[111.196,-2.9015],[111.1715,-2.8845],[111.141,-2.843]]]},"properties":{"code":"62.08.04.2003","name":"Sungai Cabang Barat"}},{"type":"Feature","geometry":{"type":"Polygon","coordinates":[[[111.38,-2.877],[111.3825,-2.8175],[111.3795,-2.7915],[111.284,-2.7885],[111.2075,-2.8295],[111.167,-2.8155],[111.141,-2.843],[111.1715,-2.8845],[111.196,-2.9015],[111.216,-2.9265],[111.225,-2.968],[111.283,-2.936],[111.3315,-2.912],[111.352,-2.907],[111.3615,-2.9085],[111.38,-2.877]]]},"properties":{"code":"62.08.04.2004","name":"Sungai Pasir"}},{"type":"Feature","geometry":{"type":"Polygon","coordinates":[[[111.367,-2.192],[111.3655,-2.1915],[111.364,-2.1815],[111.355,-2.164],[111.355,-2.1525],[111.3515,-2.1515],[111.3365,-2.1505],[111.329,-2.151],[111.3305,-2.1745],[111.32,-2.174],[111.314,-2.187],[111.3105,-2.217],[111.3155,-2.2345],[111.312,-2.2615],[111.3115,-2.3005],[111.312,-2.3325],[111.3165,-2.3325],[111.317,-2.305],[111.347,-2.306],[111.3525,-2.2995],[111.3485,-2.286],[111.369,-2.2755],[111.382,-2.282],[111.3905,-2.267],[111.3895,-2.215],[111.358,-2.2145],[111.3575,-2.2095],[111.3595,-2.2],[111.362,-2.199],[111.366,-2.1945],[111.367,-2.1925],[111.367,-2.192]]]},"properties":{"code":"62.08.05.2001","name":"Kenawan"}},{"type":"Feature","geometry":{"type":"Polygon","coordinates":[[[111.329,-2.151],[111.322,-2.1505],[111.3185,-2.1505],[111.3075,-2.1505],[111.294,-2.1495],[111.271,-2.1415],[111.2685,-2.1415],[111.2615,-2.1745],[111.2615,-2.242],[111.259,-2.252],[111.267,-2.281],[111.2765,-2.2965],[111.274,-2.3],[111.274,-2.3005],[111.2805,-2.3055],[111.282,-2.318],[111.2835,-2.316],[111.284,-2.3165],[111.2935,-2.3205],[111.2965,-2.3225],[111.303,-2.3265],[111.307,-2.3265],[111.309,-2.3255],[111.31,-2.3255],[111.3105,-2.326],[111.312,-2.326],[111.3115,-2.3005],[111.312,-2.2615],[111.3155,-2.2345],[111.3105,-2.217],[111.314,-2.187],[111.32,-2.174],[111.3305,-2.1745],[111.329,-2.151]]]},"properties":{"code":"62.08.05.2002","name":"Laman Baru"}},{"type":"Feature","geometry":{"type":"MultiPolygon","coordinates":[[[[111.1575,-2.276],[111.157,-2.261],[111.163,-2.255],[111.163,-2.2535],[111.161,-2.245],[111.1305,-2.278],[111.1575,-2.276]]],[[[111.1575,-2.276],[111.1585,-2.286],[111.1735,-2.286],[111.1785,-2.2965],[111.188,-2.2935],[111.1945,-2.286],[111.2125,-2.2865],[111.22,-2.296],[111.2325,-2.287],[111.2765,-2.2965],[111.267,-2.281],[111.259,-2.252],[111.2615,-2.242],[111.2615,-2.1745],[111.2685,-2.1415],[111.266,-2.141],[111.264,-2.1245],[111.2635,-2.1235],[111.2645,-2.124],[111.2685,-2.1015],[111.2685,-2.0975],[111.262,-2.089],[111.2605,-2.087],[111.2605,-2.086],[111.2605,-2.0855],[111.2685,-2.0835],[111.2695,-2.0845],[111.2705,-2.083],[111.273,-2.078],[111.273,-2.077],[111.258,-2.0725],[111.25,-2.063],[111.225,-2.066],[111.2205,-2.0655],[111.231,-2.072],[111.229,-2.0995],[111.2225,-2.1105],[111.221,-2.125],[111.204,-2.1505],[111.1985,-2.151],[111.2025,-2.194],[111.198,-2.1965],[111.1775,-2.231],[111.181,-2.241],[111.1995,-2.258],[111.194,-2.2765],[111.1605,-2.2765],[111.1575,-2.276]]]]},"properties":{"code":"62.08.05.2003","name":"Ajang"}},{"type":"Feature","geometry":{"type":"Polygon","coordinates":[[[111.191,-2.037],[111.1715,-2.036],[111.156,-2.0285],[111.152,-2.019],[111.1335,-2.024],[111.1235,-2.0205],[111.0935,-2.033],[111.09,-2.0385],[111.0895,-2.041],[111.0885,-2.041],[111.087,-2.041],[111.0885,-2.043],[111.088,-2.045],[111.0875,-2.045],[111.09,-2.0475],[111.106,-2.0605],[111.1195,-2.084],[111.121,-2.132],[111.1185,-2.157],[111.117,-2.2025],[111.117,-2.2105],[111.117,-2.203],[111.125,-2.2015],[111.1345,-2.2035],[111.135,-2.2205],[111.1475,-2.222],[111.1475,-2.231],[111.1605,-2.2305],[111.159,-2.2425],[111.1655,-2.231],[111.1775,-2.231],[111.198,-2.1965],[111.2025,-2.194],[111.1985,-2.151],[111.204,-2.1505],[111.221,-2.125],[111.2225,-2.1105],[111.229,-2.0995],[111.231,-2.072],[111.2205,-2.0655],[111.2045,-2.064],[111.201,-2.059],[111.194,-2.0565],[111.205,-2.0375],[111.191,-2.037]]]},"properties":{"code":"62.08.05.2004","name":"Semantun"}},{"type":"Feature","geometry":{"type":"Polygon","coordinates":[[[111.117,-2.2105],[111.117,-2.2025],[111.1185,-2.157],[111.121,-2.132],[111.1195,-2.084],[111.106,-2.0605],[111.09,-2.0475],[111.0875,-2.045],[111.087,-2.046],[111.0585,-2.0595],[111.057,-2.073],[111.068,-2.0885],[111.0675,-2.1025],[111.0695,-2.1145],[111.06,-2.1385],[111.051,-2.1505],[111.0505,-2.1615],[111.0365,-2.1685],[111.034,-2.177],[111.0425,-2.1855],[111.038,-2.192],[111.0305,-2.2055],[111.025,-2.226],[111.039,-2.2375],[111.042,-2.251],[111.05,-2.248],[111.063,-2.2695],[111.0705,-2.281],[111.0755,-2.286],[111.0895,-2.2865],[111.097,-2.277],[111.1305,-2.278],[111.161,-2.245],[111.159,-2.2425],[111.148,-2.2395],[111.1325,-2.24],[111.1175,-2.2245],[111.117,-2.2105]]]},"properties":{"code":"62.08.05.2005","name":"Nibung Terjun"}},{"type":"Feature","geometry":{"type":"Polygon","coordinates":[[[111.1775,-2.231],[111.1655,-2.231],[111.159,-2.2425],[111.161,-2.245],[111.163,-2.2535],[111.163,-2.255],[111.157,-2.261],[111.1575,-2.276],[111.1605,-2.2765],[111.194,-2.2765],[111.1995,-2.258],[111.181,-2.241],[111.1775,-2.231]]]},"properties":{"code":"62.08.05.2006","name":"Natai Kondang"}},{"type":"Feature","geometry":{"type":"Polygon","coordinates":[[[111.159,-2.2425],[111.1605,-2.2305],[111.1475,-2.231],[111.1475,-2.222],[111.135,-2.2205],[111.1345,-2.2035],[111.125,-2.2015],[111.117,-2.203],[111.117,-2.2105],[111.1175,-2.2245],[111.1325,-2.24],[111.148,-2.2395],[111.159,-2.2425]]]},"properties":{"code":"62.08.05.2007","name":"Sembikuan"}}]}