{"type":"FeatureCollection","features":[{"type":"Feature","geometry":{"type":"Polygon","coordinates":[[[111.355,-1.837],[111.338,-1.825],[111.3325,-1.809],[111.324,-1.8025],[111.326,-1.769],[111.3155,-1.7475],[111.244,-1.7855],[111.2435,-1.789],[111.242,-1.7925],[111.239,-1.81],[111.254,-1.8095],[111.2595,-1.826],[111.2735,-1.8475],[111.277,-1.8655],[111.271,-1.8755],[111.2735,-1.8985],[111.289,-1.9175],[111.289,-1.9335],[111.2965,-1.944],[111.296,-1.962],[111.305,-1.962],[111.331,-1.962],[111.331,-1.9475],[111.339,-1.938],[111.33,-1.937],[111.3445,-1.905],[111.344,-1.8835],[111.355,-1.837]],[[111.323,-1.8615],[111.3425,-1.862],[111.34,-1.886],[111.325,-1.883],[111.323,-1.8615]]]},"properties":{"code":"62.09.01.1012","name":"Tapin Bini","latitude":-1.8501977943089363,"longitude":111.30238118958404}},{"type":"Feature","geometry":{"type":"Polygon","coordinates":[[[111.1065,-1.7635],[111.105,-1.765],[111.1025,-1.7635],[111.0625,-1.7675],[111.0275,-1.765],[111.017,-1.766],[111.017,-1.767],[111.014,-1.782],[111.005,-1.786],[110.9975,-1.7875],[111.039,-1.795],[111.0635,-1.7915],[111.088,-1.797],[111.097,-1.7945],[111.131,-1.808],[111.14,-1.8175],[111.15,-1.819],[111.139,-1.808],[111.1065,-1.7635]]]},"properties":{"code":"62.09.01.2001","name":"Sungai Tuat","latitude":-1.7830264674380198,"longitude":111.07322391356871}},{"type":"Feature","geometry":{"type":"Polygon","coordinates":[[[111.15,-1.819],[111.14,-1.8175],[111.131,-1.808],[111.097,-1.7945],[111.088,-1.797],[111.0635,-1.7915],[111.039,-1.795],[110.9975,-1.7875],[110.995,-1.788],[110.9935,-1.7965],[110.969,-1.814],[110.9755,-1.83],[110.974,-1.8335],[110.981,-1.835],[111.0135,-1.8375],[111.034,-1.8355],[111.091,-1.8275],[111.105,-1.8215],[111.1275,-1.821],[111.1515,-1.8305],[111.15,-1.819]]]},"properties":{"code":"62.09.01.2002","name":"Tanjung Beringin","latitude":-1.8138295178167154,"longitude":111.04677991129863}},{"type":"Feature","geometry":{"type":"Polygon","coordinates":[[[111.1515,-1.8305],[111.1275,-1.821],[111.105,-1.8215],[111.091,-1.8275],[111.034,-1.8355],[111.0135,-1.8375],[110.981,-1.835],[110.974,-1.8335],[110.9735,-1.835],[110.9535,-1.844],[110.9485,-1.8695],[110.951,-1.8845],[110.9605,-1.8895],[111.033,-1.8785],[111.0785,-1.8705],[111.109,-1.8615],[111.134,-1.8645],[111.138,-1.8425],[111.1515,-1.8305]]]},"properties":{"code":"62.09.01.2003","name":"Cuhai","latitude":-1.8539213043246467,"longitude":111.0411121138045}},{"type":"Feature","geometry":{"type":"Polygon","coordinates":[[[111.134,-1.8645],[111.109,-1.8615],[111.0785,-1.8705],[111.033,-1.8785],[110.9605,-1.8895],[110.96,-1.8905],[110.961,-1.8925],[110.9665,-1.8995],[110.9645,-1.91],[110.9815,-1.9285],[110.9875,-1.9405],[111.0735,-1.917],[111.1225,-1.89],[111.134,-1.8645]]]},"properties":{"code":"62.09.01.2004","name":"Kawa","latitude":-1.8985348126506087,"longitude":111.04277156699517}},{"type":"Feature","geometry":{"type":"Polygon","coordinates":[[[111.207,-1.8845],[111.212,-1.858],[111.211,-1.835],[111.219,-1.799],[111.171,-1.825],[111.15,-1.819],[111.1515,-1.8305],[111.138,-1.8425],[111.134,-1.8645],[111.1225,-1.89],[111.0735,-1.917],[110.9875,-1.9405],[110.9865,-1.952],[111,-1.9475],[111.004,-1.9625],[111.0105,-1.9695],[111.037,-1.9625],[111.055,-1.957],[111.061,-1.963],[111.0865,-1.9655],[111.088,-1.9675],[111.099,-1.981],[111.118,-1.966],[111.1245,-1.94],[111.171,-1.9035],[111.1745,-1.895],[111.207,-1.8845]]]},"properties":{"code":"62.09.01.2005","name":"Karang Taba","latitude":-1.9005127259885957,"longitude":111.12322622793562}},{"type":"Feature","geometry":{"type":"Polygon","coordinates":[[[111.191,-2.037],[111.232,-1.9485],[111.233,-1.9365],[111.22,-1.911],[111.2215,-1.89],[111.207,-1.8845],[111.1745,-1.895],[111.171,-1.9035],[111.1245,-1.94],[111.118,-1.966],[111.099,-1.981],[111.1015,-1.9885],[111.079,-2.0095],[111.087,-2.0405],[111.087,-2.041],[111.0885,-2.041],[111.0895,-2.041],[111.09,-2.0385],[111.0935,-2.033],[111.1235,-2.0205],[111.1335,-2.024],[111.152,-2.019],[111.156,-2.0285],[111.1715,-2.036],[111.191,-2.037]]]},"properties":{"code":"62.09.01.2006","name":"Penopa","latitude":-1.9682572017435895,"longitude":111.16609746021915}},{"type":"Feature","geometry":{"type":"Polygon","coordinates":[[[111.296,-1.962],[111.2965,-1.944],[111.289,-1.9335],[111.289,-1.9175],[111.2735,-1.8985],[111.271,-1.8755],[111.277,-1.8655],[111.2735,-1.8475],[111.2595,-1.826],[111.254,-1.8095],[111.239,-1.81],[111.242,-1.7925],[111.2435,-1.789],[111.244,-1.7855],[111.219,-1.799],[111.211,-1.835],[111.212,-1.858],[111.207,-1.8845],[111.2215,-1.89],[111.22,-1.911],[111.233,-1.9365],[111.232,-1.9485],[111.191,-2.037],[111.205,-2.0375],[111.194,-2.0565],[111.201,-2.059],[111.2045,-2.064],[111.225,-2.066],[111.25,-2.063],[111.254,-2.068],[111.272,-1.9965],[111.2785,-1.985],[111.278,-1.97],[111.2775,-1.968],[111.287,-1.9695],[111.289,-1.968],[111.29,-1.962],[111.296,-1.962]]]},"properties":{"code":"62.09.01.2007","name":"Suja","latitude":-1.9378312259618353,"longitude":111.24371523419254}},{"type":"Feature","geometry":{"type":"Polygon","coordinates":[[[111.4015,-1.8785],[111.3705,-1.8695],[111.362,-1.8365],[111.355,-1.837],[111.344,-1.8835],[111.3445,-1.905],[111.33,-1.937],[111.339,-1.938],[111.3725,-1.916],[111.402,-1.8995],[111.4015,-1.8785]]]},"properties":{"code":"62.09.01.2008","name":"Sekoban","latitude":-1.8919468057209232,"longitude":111.3648601789711}},{"type":"Feature","geometry":{"type":"Polygon","coordinates":[[[111.4195,-1.952],[111.3915,-1.9385],[111.393,-1.9225],[111.402,-1.8995],[111.3725,-1.916],[111.339,-1.938],[111.331,-1.9475],[111.331,-1.962],[111.305,-1.962],[111.29,-1.962],[111.289,-1.968],[111.287,-1.9695],[111.2775,-1.968],[111.278,-1.97],[111.2785,-1.985],[111.272,-1.9965],[111.254,-2.068],[111.258,-2.0725],[111.273,-2.077],[111.273,-2.078],[111.2735,-2.0775],[111.2915,-2.0255],[111.3185,-2.009],[111.3445,-2],[111.353,-2],[111.379,-1.982],[111.4055,-1.977],[111.4045,-1.9755],[111.4105,-1.9495],[111.4195,-1.952]]]},"properties":{"code":"62.09.01.2009","name":"Bakonsu","latitude":-1.9809078289938482,"longitude":111.3319648652605}},{"type":"Feature","geometry":{"type":"Polygon","coordinates":[[[111.323,-1.8615],[111.325,-1.883],[111.34,-1.886],[111.3425,-1.862],[111.323,-1.8615]]]},"properties":{"code":"62.09.01.2022","name":"Samu Jaya","latitude":-1.8732839678166122,"longitude":111.33187693287233}},{"type":"Feature","geometry":{"type":"Polygon","coordinates":[[[111.03,-1.5245],[111.0295,-1.5225],[111.0225,-1.504],[111.0065,-1.5035],[110.996,-1.5135],[110.9755,-1.535],[110.9695,-1.552],[110.9645,-1.556],[110.9525,-1.549],[110.9635,-1.572],[110.973,-1.572],[110.9815,-1.5945],[110.9935,-1.6115],[110.9835,-1.637],[110.9945,-1.619],[111.0195,-1.6165],[111.0275,-1.62],[111.0485,-1.615],[111.06,-1.62],[111.069,-1.612],[111.0485,-1.6035],[111.033,-1.5885],[111.026,-1.5545],[111.0305,-1.5445],[111.03,-1.5245]]]},"properties":{"code":"62.09.02.1017","name":"Kudangan","latitude":-1.5681704123122757,"longitude":111.00634090132432}},{"type":"Feature","geometry":{"type":"Polygon","coordinates":[[[111.129,-1.7205],[111.118,-1.717],[111.107,-1.7235],[111.102,-1.712],[111.086,-1.714],[111.0705,-1.7095],[111.042,-1.734],[111.0435,-1.7455],[111.0195,-1.764],[111.017,-1.7645],[111.017,-1.766],[111.0275,-1.765],[111.0625,-1.7675],[111.1025,-1.7635],[111.105,-1.765],[111.1375,-1.736],[111.129,-1.7205]]]},"properties":{"code":"62.09.02.2004","name":"Riam Panahan","latitude":-1.7409678319292923,"longitude":111.08193639314362}},{"type":"Feature","geometry":{"type":"Polygon","coordinates":[[[111.123,-1.641],[111.1225,-1.628],[111.0965,-1.637],[111.073,-1.6535],[111.0905,-1.6565],[111.0835,-1.6765],[111.0765,-1.681],[111.0705,-1.7095],[111.086,-1.714],[111.102,-1.712],[111.107,-1.7235],[111.118,-1.717],[111.129,-1.7205],[111.1285,-1.6495],[111.123,-1.641]]]},"properties":{"code":"62.09.02.2005","name":"Sepoyu","latitude":-1.6781434585420625,"longitude":111.10438317935915}},{"type":"Feature","geometry":{"type":"Polygon","coordinates":[[[111.073,-1.6535],[111.0505,-1.6395],[111.035,-1.6505],[111.008,-1.6605],[110.9975,-1.6835],[110.9845,-1.689],[110.9945,-1.707],[111.018,-1.7125],[111.0195,-1.7125],[111.031,-1.696],[111.04,-1.6765],[111.052,-1.668],[111.0665,-1.6685],[111.0905,-1.6565],[111.073,-1.6535]]]},"properties":{"code":"62.09.02.2010","name":"Nyalang","latitude":-1.6747561891958422,"longitude":111.02901984949969}},{"type":"Feature","geometry":{"type":"Polygon","coordinates":[[[111.0705,-1.7095],[111.0765,-1.681],[111.056,-1.6865],[111.0285,-1.7255],[111.0205,-1.73],[111.0265,-1.752],[111.0195,-1.764],[111.0435,-1.7455],[111.042,-1.734],[111.0705,-1.7095]]]},"properties":{"code":"62.09.02.2011","name":"Riam Tinggi","latitude":-1.7175850370800787,"longitude":111.04734388034764}},{"type":"Feature","geometry":{"type":"Polygon","coordinates":[[[111.0765,-1.681],[111.0835,-1.6765],[111.0905,-1.6565],[111.0665,-1.6685],[111.052,-1.668],[111.04,-1.6765],[111.031,-1.696],[111.0195,-1.7125],[111.022,-1.7135],[111.0205,-1.73],[111.0285,-1.7255],[111.056,-1.6865],[111.0765,-1.681]]]},"properties":{"code":"62.09.02.2012","name":"Landau Kantu","latitude":-1.6884678364439978,"longitude":111.0500012343506}},{"type":"Feature","geometry":{"type":"Polygon","coordinates":[[[111.108,-1.6185],[111.086,-1.609],[111.069,-1.612],[111.06,-1.62],[111.0485,-1.615],[111.0275,-1.62],[111.0195,-1.6165],[110.9945,-1.619],[110.9835,-1.637],[110.984,-1.6495],[110.9945,-1.65],[111,-1.6575],[110.994,-1.667],[110.9975,-1.6835],[111.008,-1.6605],[111.035,-1.6505],[111.0505,-1.6395],[111.073,-1.6535],[111.0965,-1.637],[111.1225,-1.628],[111.108,-1.6185]]]},"properties":{"code":"62.09.02.2013","name":"Lopus","latitude":-1.6343554852760782,"longitude":111.04356488429259}},{"type":"Feature","geometry":{"type":"Polygon","coordinates":[[[110.9835,-1.637],[110.9775,-1.639],[110.964,-1.6285],[110.9465,-1.6215],[110.946,-1.621],[110.9425,-1.621],[110.9415,-1.6225],[110.9415,-1.6245],[110.937,-1.645],[110.9405,-1.657],[110.9435,-1.656],[110.9545,-1.651],[110.967,-1.658],[110.984,-1.6495],[110.9835,-1.637]]]},"properties":{"code":"62.09.02.2014","name":"Kubung","latitude":-1.6411832155158528,"longitude":110.95788185531661}},{"type":"Feature","geometry":{"type":"Polygon","coordinates":[[[110.905,-1.6],[110.904,-1.6015],[110.8865,-1.6005],[110.8805,-1.612],[110.8635,-1.628],[110.863,-1.6285],[110.871,-1.636],[110.868,-1.6465],[110.8735,-1.6655],[110.8905,-1.658],[110.9045,-1.6765],[110.906,-1.69],[110.9195,-1.6935],[110.9335,-1.672],[110.94,-1.6575],[110.9405,-1.657],[110.937,-1.645],[110.9415,-1.6245],[110.9415,-1.6225],[110.9425,-1.621],[110.946,-1.621],[110.9415,-1.618],[110.933,-1.615],[110.9165,-1.6165],[110.908,-1.608],[110.9055,-1.601],[110.905,-1.6]]]},"properties":{"code":"62.09.02.2015","name":"Sekombulan","latitude":-1.6426236178940574,"longitude":110.90584413619}},{"type":"Feature","geometry":{"type":"Polygon","coordinates":[[[111.136,-1.4855],[111.12,-1.477],[111.1205,-1.4795],[111.1195,-1.487],[111.1175,-1.488],[111.0985,-1.487],[111.096,-1.4985],[111.084,-1.502],[111.081,-1.524],[111.0715,-1.5285],[111.065,-1.522],[111.05,-1.5165],[111.038,-1.5295],[111.0305,-1.5255],[111.03,-1.5245],[111.0305,-1.5445],[111.026,-1.5545],[111.033,-1.5885],[111.0485,-1.6035],[111.069,-1.612],[111.086,-1.609],[111.108,-1.6185],[111.114,-1.6005],[111.145,-1.585],[111.139,-1.5575],[111.134,-1.5005],[111.136,-1.4855]]]},"properties":{"code":"62.09.02.2016","name":"Penyombaan","latitude":-1.554413020263639,"longitude":111.08896575331667}},{"type":"Feature","geometry":{"type":"Polygon","coordinates":[[[110.9835,-1.637],[110.9935,-1.6115],[110.9815,-1.5945],[110.973,-1.572],[110.9635,-1.572],[110.9525,-1.549],[110.935,-1.5575],[110.921,-1.573],[110.918,-1.5755],[110.906,-1.5985],[110.905,-1.6],[110.9055,-1.601],[110.908,-1.608],[110.9165,-1.6165],[110.933,-1.615],[110.9415,-1.618],[110.946,-1.6205],[110.9465,-1.6215],[110.964,-1.6285],[110.9775,-1.639],[110.9835,-1.637]]]},"properties":{"code":"62.09.02.2020","name":"Hulu Jojabo","latitude":-1.5963931793338269,"longitude":110.9507193026705}},{"type":"Feature","geometry":{"type":"Polygon","coordinates":[[[111.337,-2.086],[111.3375,-2.0635],[111.3225,-2.0815],[111.3135,-2.086],[111.277,-2.0675],[111.2735,-2.0775],[111.273,-2.078],[111.2705,-2.083],[111.2695,-2.0845],[111.2685,-2.0835],[111.2605,-2.0855],[111.2605,-2.086],[111.2605,-2.087],[111.262,-2.089],[111.2685,-2.0975],[111.2685,-2.1015],[111.2645,-2.124],[111.2635,-2.1235],[111.264,-2.1245],[111.266,-2.141],[111.271,-2.1415],[111.294,-2.1495],[111.3075,-2.1505],[111.3185,-2.1505],[111.322,-2.1505],[111.3365,-2.1505],[111.3515,-2.1515],[111.355,-2.1525],[111.355,-2.164],[111.364,-2.1815],[111.3655,-2.1915],[111.3665,-2.192],[111.368,-2.1925],[111.3765,-2.192],[111.3925,-2.193],[111.3945,-2.193],[111.4025,-2.199],[111.425,-2.1915],[111.4665,-2.1965],[111.526,-2.172],[111.526,-2.1695],[111.5315,-2.1575],[111.5425,-2.1605],[111.5475,-2.1545],[111.548,-2.1515],[111.5495,-2.1505],[111.5475,-2.124],[111.543,-2.1245],[111.539,-2.128],[111.529,-2.13],[111.5115,-2.1285],[111.5135,-2.0825],[111.489,-2.089],[111.489,-2.1165],[111.4845,-2.1245],[111.441,-2.147],[111.43,-2.1655],[111.424,-2.166],[111.41,-2.18],[111.3965,-2.185],[111.395,-2.177],[111.3785,-2.163],[111.373,-2.1535],[111.361,-2.1445],[111.351,-2.1155],[111.3455,-2.112],[111.337,-2.086]]]},"properties":{"code":"62.09.03.1005","name":"Nanga Bulik","latitude":-2.1399042827415253,"longitude":111.40278458305677}},{"type":"Feature","geometry":{"type":"Polygon","coordinates":[[[111.48,-2.065],[111.4455,-2.049],[111.43,-2.037],[111.3695,-2.0675],[111.3375,-2.0635],[111.337,-2.086],[111.393,-2.0855],[111.3945,-2.089],[111.4395,-2.0965],[111.473,-2.0645],[111.48,-2.065]]]},"properties":{"code":"62.09.03.2001","name":"Sungai Mentawa","latitude":-2.070118478036207,"longitude":111.41070818813071}},{"type":"Feature","geometry":{"type":"Polygon","coordinates":[[[111.456,-2.2575],[111.419,-2.231],[111.3895,-2.231],[111.3905,-2.267],[111.382,-2.282],[111.3925,-2.2875],[111.41,-2.2785],[111.44,-2.288],[111.4475,-2.2735],[111.455,-2.2685],[111.4565,-2.2625],[111.456,-2.2575]]]},"properties":{"code":"62.09.03.2002","name":"Guci","latitude":-2.2600445341228017,"longitude":111.41755239554199}},{"type":"Feature","geometry":{"type":"Polygon","coordinates":[[[111.5325,-2.2725],[111.521,-2.272],[111.507,-2.262],[111.455,-2.2685],[111.4475,-2.2735],[111.44,-2.288],[111.41,-2.2785],[111.3925,-2.2875],[111.419,-2.29],[111.419,-2.306],[111.44,-2.306],[111.457,-2.3125],[111.476,-2.31],[111.5025,-2.312],[111.5365,-2.305],[111.5405,-2.3045],[111.5345,-2.2975],[111.5325,-2.2725]]]},"properties":{"code":"62.09.03.2003","name":"Batu Kotam","latitude":-2.2894109909379545,"longitude":111.47881067082999}},{"type":"Feature","geometry":{"type":"Polygon","coordinates":[[[111.5285,-2.2075],[111.5305,-2.2075],[111.5265,-2.196],[111.5265,-2.18],[111.526,-2.172],[111.4665,-2.1965],[111.425,-2.1915],[111.4025,-2.199],[111.3945,-2.193],[111.3925,-2.193],[111.3765,-2.192],[111.368,-2.1925],[111.367,-2.192],[111.367,-2.1925],[111.366,-2.1945],[111.362,-2.199],[111.3595,-2.2],[111.3575,-2.2095],[111.358,-2.2145],[111.3895,-2.215],[111.3895,-2.231],[111.419,-2.231],[111.456,-2.2575],[111.456,-2.255],[111.453,-2.2425],[111.455,-2.241],[111.467,-2.232],[111.5045,-2.2235],[111.5045,-2.222],[111.504,-2.2095],[111.5285,-2.2075]]]},"properties":{"code":"62.09.03.2004","name":"Kujan","latitude":-2.210779714637334,"longitude":111.44850040625845}},{"type":"Feature","geometry":{"type":"Polygon","coordinates":[[[111.5135,-2.0365],[111.504,-2.033],[111.491,-2.047],[111.48,-2.065],[111.473,-2.0645],[111.4395,-2.0965],[111.3945,-2.089],[111.393,-2.0855],[111.337,-2.086],[111.3455,-2.112],[111.351,-2.1155],[111.3535,-2.122],[111.359,-2.117],[111.383,-2.1135],[111.3835,-2.102],[111.4155,-2.1025],[111.415,-2.117],[111.425,-2.117],[111.425,-2.1295],[111.4355,-2.1295],[111.435,-2.144],[111.441,-2.147],[111.4845,-2.1245],[111.489,-2.1165],[111.489,-2.089],[111.5135,-2.0825],[111.493,-2.049],[111.5135,-2.0365]]]},"properties":{"code":"62.09.03.2006","name":"Bunut","latitude":-2.0993389185311484,"longitude":111.43829517008137}},{"type":"Feature","geometry":{"type":"Polygon","coordinates":[[[111.505,-2.0085],[111.4955,-2.0015],[111.4895,-1.997],[111.47,-1.9975],[111.472,-1.983],[111.4475,-2],[111.4515,-2.021],[111.43,-2.037],[111.4455,-2.049],[111.48,-2.065],[111.491,-2.047],[111.504,-2.033],[111.5135,-2.0365],[111.507,-2.019],[111.5045,-2.019],[111.505,-2.0085]]]},"properties":{"code":"62.09.03.2007","name":"Beruta","latitude":-2.0261268061803306,"longitude":111.4727664213367}},{"type":"Feature","geometry":{"type":"Polygon","coordinates":[[[111.472,-1.983],[111.446,-1.983],[111.445,-1.9765],[111.4435,-1.9735],[111.444,-1.9715],[111.444,-1.9705],[111.426,-1.9755],[111.406,-1.9765],[111.4055,-1.977],[111.379,-1.982],[111.353,-2],[111.3445,-2],[111.3185,-2.009],[111.2915,-2.0255],[111.277,-2.0675],[111.3135,-2.086],[111.3225,-2.0815],[111.3375,-2.0635],[111.3695,-2.0675],[111.43,-2.037],[111.4515,-2.021],[111.4475,-2],[111.472,-1.983]]]},"properties":{"code":"62.09.03.2008","name":"Tamiang","latitude":-2.026510439358964,"longitude":111.36879342583704}},{"type":"Feature","geometry":{"type":"Polygon","coordinates":[[[111.441,-2.147],[111.435,-2.144],[111.4355,-2.1295],[111.425,-2.1295],[111.425,-2.117],[111.415,-2.117],[111.4145,-2.1395],[111.4045,-2.147],[111.404,-2.147],[111.404,-2.1755],[111.41,-2.18],[111.424,-2.166],[111.43,-2.1655],[111.441,-2.147]]]},"properties":{"code":"62.09.03.2031","name":"Bumi Agung","latitude":-2.149278766005474,"longitude":111.42020712626935}},{"type":"Feature","geometry":{"type":"Polygon","coordinates":[[[111.3815,-2.1445],[111.361,-2.1445],[111.373,-2.1535],[111.3785,-2.163],[111.395,-2.177],[111.3965,-2.185],[111.41,-2.18],[111.404,-2.1755],[111.404,-2.147],[111.3935,-2.146],[111.3815,-2.1445]]]},"properties":{"code":"62.09.03.2032","name":"Sumber Mulya","latitude":-2.160177077275915,"longitude":111.39048392226994}},{"type":"Feature","geometry":{"type":"Polygon","coordinates":[[[111.383,-2.1135],[111.359,-2.117],[111.3535,-2.122],[111.361,-2.1445],[111.3815,-2.1445],[111.383,-2.1135]]]},"properties":{"code":"62.09.03.2036","name":"Bukit Indah","latitude":-2.1293230713303815,"longitude":111.36999586804258}},{"type":"Feature","geometry":{"type":"Polygon","coordinates":[[[111.415,-2.117],[111.4155,-2.1025],[111.3835,-2.102],[111.383,-2.1135],[111.3815,-2.1445],[111.3935,-2.146],[111.4045,-2.147],[111.4145,-2.1395],[111.415,-2.117]]]},"properties":{"code":"62.09.03.2037","name":"Arga Mulya","latitude":-2.123796593211812,"longitude":111.39847871997269}},{"type":"Feature","geometry":{"type":"Polygon","coordinates":[[[111.57,-2.0725],[111.538,-2.0635],[111.5355,-2.089],[111.5335,-2.0935],[111.5325,-2.094],[111.5265,-2.099],[111.5135,-2.0825],[111.5115,-2.1285],[111.529,-2.13],[111.539,-2.128],[111.543,-2.1245],[111.5475,-2.124],[111.547,-2.1215],[111.5485,-2.1195],[111.551,-2.118],[111.5645,-2.1165],[111.5655,-2.117],[111.571,-2.114],[111.571,-2.111],[111.5795,-2.104],[111.568,-2.0795],[111.57,-2.0725]]]},"properties":{"code":"62.09.03.2043","name":"Perigi Raya","latitude":-2.0994256608588993,"longitude":111.54307070058049}},{"type":"Feature","geometry":{"type":"Polygon","coordinates":[[[111.573,-2.0635],[111.5855,-2.035],[111.5915,-2.004],[111.554,-2.021],[111.516,-2.017],[111.505,-2.0085],[111.5045,-2.019],[111.507,-2.019],[111.5135,-2.0365],[111.493,-2.049],[111.5135,-2.0825],[111.5265,-2.099],[111.5325,-2.094],[111.5335,-2.0935],[111.5355,-2.089],[111.538,-2.0635],[111.57,-2.0725],[111.5705,-2.072],[111.5715,-2.067],[111.5715,-2.0655],[111.573,-2.0635]]]},"properties":{"code":"62.09.03.2044","name":"Nanga Pamalontian","latitude":-2.046732091618752,"longitude":111.5410561677142}},{"type":"Feature","geometry":{"type":"Polygon","coordinates":[[[111.4855,-1.9515],[111.476,-1.9415],[111.4705,-1.9415],[111.47,-1.964],[111.472,-1.983],[111.47,-1.9975],[111.4895,-1.997],[111.4955,-2.0015],[111.516,-2.017],[111.554,-2.021],[111.5345,-2.0065],[111.531,-1.992],[111.5335,-1.98],[111.525,-1.9615],[111.524,-1.947],[111.505,-1.952],[111.4855,-1.9515]]]},"properties":{"code":"62.09.04.2001","name":"Nanga Palikodan","latitude":-1.9808200808496559,"longitude":111.50403530765466}},{"type":"Feature","geometry":{"type":"Polygon","coordinates":[[[111.607,-1.9345],[111.5945,-1.92],[111.5805,-1.9165],[111.5525,-1.916],[111.54,-1.9275],[111.524,-1.947],[111.525,-1.9615],[111.5335,-1.98],[111.531,-1.992],[111.5345,-2.0065],[111.554,-2.021],[111.5915,-2.004],[111.5865,-1.9785],[111.587,-1.969],[111.604,-1.9425],[111.607,-1.9345]]]},"properties":{"code":"62.09.04.2002","name":"Sungkup","latitude":-1.9642333943116603,"longitude":111.56263154787979}},{"type":"Feature","geometry":{"type":"Polygon","coordinates":[[[111.5355,-1.9035],[111.516,-1.899],[111.5145,-1.915],[111.501,-1.9255],[111.4955,-1.921],[111.4855,-1.9515],[111.505,-1.952],[111.524,-1.947],[111.54,-1.9275],[111.5525,-1.916],[111.5355,-1.9035]]]},"properties":{"code":"62.09.04.2003","name":"Nuangan","latitude":-1.9275160770210968,"longitude":111.51817340392934}},{"type":"Feature","geometry":{"type":"Polygon","coordinates":[[[111.56,-1.873],[111.557,-1.868],[111.5355,-1.9035],[111.5525,-1.916],[111.5805,-1.9165],[111.5945,-1.92],[111.607,-1.9345],[111.616,-1.937],[111.607,-1.8925],[111.5975,-1.9085],[111.587,-1.885],[111.575,-1.8765],[111.56,-1.873]]]},"properties":{"code":"62.09.04.2004","name":"Nanga Koring","latitude":-1.9015595557769753,"longitude":111.57525385467292}},{"type":"Feature","geometry":{"type":"Polygon","coordinates":[[[111.665,-1.922],[111.6585,-1.905],[111.632,-1.894],[111.63,-1.8835],[111.6055,-1.869],[111.5945,-1.873],[111.56,-1.873],[111.575,-1.8765],[111.587,-1.885],[111.5975,-1.9085],[111.607,-1.8925],[111.616,-1.937],[111.64,-1.9315],[111.665,-1.922]]]},"properties":{"code":"62.09.04.2005","name":"Toka","latitude":-1.9029623778970661,"longitude":111.62184439576053}},{"type":"Feature","geometry":{"type":"Polygon","coordinates":[[[111.6055,-1.869],[111.5955,-1.8585],[111.559,-1.808],[111.561,-1.826],[111.557,-1.868],[111.56,-1.873],[111.5945,-1.873],[111.6055,-1.869]]]},"properties":{"code":"62.09.04.2006","name":"Sepondam","latitude":-1.8520121196627883,"longitude":111.57450458070184}},{"type":"Feature","geometry":{"type":"Polygon","coordinates":[[[111.6895,-1.899],[111.68,-1.8905],[111.64,-1.8375],[111.606,-1.6575],[111.5655,-1.6345],[111.575,-1.6855],[111.598,-1.669],[111.582,-1.737],[111.585,-1.7505],[111.5595,-1.7835],[111.559,-1.808],[111.5955,-1.8585],[111.6055,-1.869],[111.63,-1.8835],[111.632,-1.894],[111.6585,-1.905],[111.665,-1.922],[111.6895,-1.899]]]},"properties":{"code":"62.09.04.2007","name":"Merambang","latitude":-1.7939065792083846,"longitude":111.61032237196143}},{"type":"Feature","geometry":{"type":"Polygon","coordinates":[[[111.559,-1.808],[111.5595,-1.7835],[111.585,-1.7505],[111.582,-1.737],[111.598,-1.669],[111.575,-1.6855],[111.5655,-1.6345],[111.5595,-1.6425],[111.5585,-1.6475],[111.5595,-1.65],[111.562,-1.652],[111.5625,-1.656],[111.5615,-1.6615],[111.561,-1.668],[111.5595,-1.672],[111.5585,-1.6735],[111.5555,-1.6815],[111.553,-1.6815],[111.55,-1.6815],[111.548,-1.6835],[111.5345,-1.704],[111.531,-1.7065],[111.529,-1.708],[111.523,-1.7125],[111.5235,-1.725],[111.518,-1.7425],[111.517,-1.7455],[111.5045,-1.7545],[111.493,-1.754],[111.4905,-1.756],[111.487,-1.762],[111.486,-1.764],[111.482,-1.7715],[111.479,-1.778],[111.479,-1.779],[111.4775,-1.7805],[111.4755,-1.7835],[111.48,-1.8075],[111.48,-1.854],[111.485,-1.8735],[111.49,-1.875],[111.515,-1.8915],[111.516,-1.899],[111.5355,-1.9035],[111.557,-1.868],[111.561,-1.826],[111.559,-1.808]]]},"properties":{"code":"62.09.04.2008","name":"Pedongatan","latitude":-1.7864453963719131,"longitude":111.53295618760228}},{"type":"Feature","geometry":{"type":"Polygon","coordinates":[[[111.7175,-1.8515],[111.7095,-1.847],[111.693,-1.825],[111.6705,-1.8095],[111.6715,-1.8005],[111.661,-1.787],[111.6605,-1.768],[111.6555,-1.7555],[111.6245,-1.6465],[111.6215,-1.642],[111.6205,-1.581],[111.5585,-1.6045],[111.557,-1.6145],[111.5635,-1.623],[111.5655,-1.6345],[111.606,-1.6575],[111.64,-1.8375],[111.68,-1.8905],[111.6895,-1.899],[111.6965,-1.8925],[111.711,-1.868],[111.7175,-1.8515]]]},"properties":{"code":"62.09.04.2009","name":"Batu Tunggal","latitude":-1.7429017069350279,"longitude":111.63860569335003}},{"type":"Feature","geometry":{"type":"Polygon","coordinates":[[[111.7425,-1.4755],[111.733,-1.4655],[111.7035,-1.454],[111.678,-1.421],[111.6645,-1.4225],[111.6535,-1.4175],[111.645,-1.4195],[111.6385,-1.401],[111.598,-1.4815],[111.6205,-1.581],[111.6215,-1.642],[111.6245,-1.6465],[111.6555,-1.7555],[111.6605,-1.768],[111.661,-1.787],[111.6715,-1.8005],[111.6705,-1.8095],[111.693,-1.825],[111.7095,-1.847],[111.7175,-1.8515],[111.7215,-1.841],[111.716,-1.8395],[111.7185,-1.806],[111.729,-1.7905],[111.717,-1.7735],[111.7425,-1.735],[111.7395,-1.722],[111.75,-1.483],[111.7425,-1.4755]]]},"properties":{"code":"62.09.04.2010","name":"Nanga Kemujan","latitude":-1.6032498332875615,"longitude":111.68152872071278}},{"type":"Feature","geometry":{"type":"Polygon","coordinates":[[[111.4935,-1.88],[111.485,-1.8735],[111.484,-1.8825],[111.4745,-1.8915],[111.4625,-1.8955],[111.4685,-1.921],[111.47,-1.926],[111.47,-1.9355],[111.4705,-1.9355],[111.476,-1.9415],[111.4855,-1.9515],[111.4955,-1.921],[111.496,-1.891],[111.4935,-1.88]]]},"properties":{"code":"62.09.04.2011","name":"Bukit Jaya","latitude":-1.9123049322106884,"longitude":111.48160499162344}},{"type":"Feature","geometry":{"type":"Polygon","coordinates":[[[111.516,-1.899],[111.515,-1.8915],[111.49,-1.875],[111.4935,-1.88],[111.496,-1.891],[111.4955,-1.921],[111.501,-1.9255],[111.5145,-1.915],[111.516,-1.899]]]},"properties":{"code":"62.09.04.2012","name":"Suka Maju","latitude":-1.902166810167969,"longitude":111.50422378037274}},{"type":"Feature","geometry":{"type":"Polygon","coordinates":[[[111.6795,-2.011],[111.6695,-2.0025],[111.6505,-1.993],[111.6485,-1.975],[111.672,-1.94],[111.665,-1.922],[111.64,-1.9315],[111.616,-1.937],[111.607,-1.9345],[111.604,-1.9425],[111.587,-1.969],[111.5865,-1.9785],[111.5915,-2.004],[111.5855,-2.035],[111.573,-2.0635],[111.579,-2.0575],[111.5855,-2.053],[111.588,-2.0515],[111.5885,-2.0515],[111.5925,-2.0505],[111.6155,-2.0505],[111.637,-2.056],[111.6455,-2.066],[111.6475,-2.0655],[111.655,-2.061],[111.6405,-2.03],[111.6535,-2.0225],[111.6665,-2.023],[111.67,-2.0115],[111.6795,-2.011]]]},"properties":{"code":"62.09.05.2001","name":"Melata","latitude":-1.993679485508562,"longitude":111.62560473822771}},{"type":"Feature","geometry":{"type":"Polygon","coordinates":[[[111.701,-1.9205],[111.6965,-1.8925],[111.6895,-1.899],[111.665,-1.922],[111.672,-1.94],[111.6485,-1.975],[111.6505,-1.993],[111.6695,-2.0025],[111.6795,-2.011],[111.685,-2.007],[111.6875,-1.9955],[111.699,-1.971],[111.707,-1.9595],[111.6995,-1.948],[111.701,-1.9205]]]},"properties":{"code":"62.09.05.2002","name":"Nanuah","latitude":-1.9570410976470871,"longitude":111.67942488137048}},{"type":"Feature","geometry":{"type":"Polygon","coordinates":[[[111.8105,-1.935],[111.7805,-1.938],[111.7565,-1.917],[111.722,-1.9205],[111.701,-1.9205],[111.6995,-1.948],[111.707,-1.9595],[111.706,-1.9615],[111.7295,-1.9825],[111.735,-1.982],[111.7365,-1.9875],[111.79,-2.0205],[111.7935,-2.016],[111.802,-2.0045],[111.8035,-2.003],[111.806,-2.0025],[111.8095,-2.0005],[111.8125,-2.0015],[111.819,-2.002],[111.8195,-1.996],[111.824,-1.9865],[111.8205,-1.9655],[111.8195,-1.96],[111.82,-1.9595],[111.8245,-1.9575],[111.815,-1.9455],[111.8125,-1.9435],[111.81,-1.9365],[111.8105,-1.935]]]},"properties":{"code":"62.09.05.2003","name":"Batu Ampar","latitude":-1.962647109444457,"longitude":111.76413829162206}},{"type":"Feature","geometry":{"type":"Polygon","coordinates":[[[111.835,-1.906],[111.827,-1.9],[111.8315,-1.8885],[111.8285,-1.879],[111.818,-1.873],[111.8355,-1.844],[111.8255,-1.8365],[111.827,-1.823],[111.812,-1.8145],[111.8215,-1.7925],[111.8205,-1.779],[111.8285,-1.7785],[111.8335,-1.7565],[111.8435,-1.7525],[111.846,-1.733],[111.842,-1.703],[111.832,-1.691],[111.8205,-1.6845],[111.808,-1.6855],[111.7995,-1.675],[111.786,-1.6485],[111.7925,-1.6255],[111.8065,-1.6225],[111.8175,-1.6015],[111.809,-1.5845],[111.8085,-1.569],[111.798,-1.5515],[111.7755,-1.5445],[111.767,-1.5225],[111.761,-1.52],[111.75,-1.483],[111.7395,-1.722],[111.7425,-1.735],[111.717,-1.7735],[111.729,-1.7905],[111.7185,-1.806],[111.716,-1.8395],[111.7215,-1.841],[111.711,-1.868],[111.6965,-1.8925],[111.701,-1.9205],[111.722,-1.9205],[111.7565,-1.917],[111.7805,-1.938],[111.8075,-1.9355],[111.8105,-1.935],[111.8105,-1.934],[111.81,-1.927],[111.8345,-1.915],[111.835,-1.906]]]},"properties":{"code":"62.09.05.2004","name":"Lubuk Hiju","latitude":-1.7600368321040882,"longitude":111.77486767995947}},{"type":"Feature","geometry":{"type":"Polygon","coordinates":[[[111.79,-2.0205],[111.7365,-1.9875],[111.735,-1.982],[111.7295,-1.9825],[111.706,-1.9615],[111.699,-1.971],[111.6875,-1.9955],[111.685,-2.007],[111.6925,-2.006],[111.7095,-2.0285],[111.696,-2.0595],[111.6915,-2.0595],[111.6865,-2.0605],[111.6755,-2.0615],[111.672,-2.0615],[111.6695,-2.071],[111.739,-2.08],[111.7445,-2.0795],[111.748,-2.077],[111.759,-2.0715],[111.7705,-2.072],[111.7765,-2.066],[111.7765,-2.033],[111.7855,-2.0265],[111.79,-2.0205]]]},"properties":{"code":"62.09.05.2005","name":"Topalan","latitude":-2.0296989976109026,"longitude":111.73157140540151}},{"type":"Feature","geometry":{"type":"Polygon","coordinates":[[[111.616,-2.0985],[111.614,-2.0725],[111.5875,-2.0515],[111.5855,-2.053],[111.579,-2.0575],[111.5715,-2.0655],[111.5715,-2.067],[111.5705,-2.072],[111.57,-2.0725],[111.568,-2.0795],[111.5795,-2.104],[111.58,-2.1055],[111.5825,-2.105],[111.5835,-2.1055],[111.5855,-2.104],[111.5965,-2.1155],[111.616,-2.1045],[111.616,-2.0985]]]},"properties":{"code":"62.09.05.2006","name":"Bukit Makmur","latitude":-2.083562167385187,"longitude":111.5927030002442}},{"type":"Feature","geometry":{"type":"Polygon","coordinates":[[[111.688,-2.0605],[111.6915,-2.0595],[111.696,-2.0595],[111.7095,-2.0285],[111.6925,-2.006],[111.685,-2.007],[111.6795,-2.011],[111.67,-2.0115],[111.6665,-2.023],[111.6665,-2.0295],[111.688,-2.0605]]]},"properties":{"code":"62.09.05.2007","name":"Modang Mas","latitude":-2.031148715569571,"longitude":111.68807250504102}},{"type":"Feature","geometry":{"type":"Polygon","coordinates":[[[111.655,-2.061],[111.6475,-2.0655],[111.6455,-2.066],[111.637,-2.056],[111.6155,-2.0505],[111.5925,-2.0505],[111.5885,-2.0515],[111.588,-2.0515],[111.5875,-2.0515],[111.614,-2.0725],[111.616,-2.0985],[111.642,-2.0995],[111.651,-2.096],[111.6695,-2.071],[111.672,-2.0615],[111.6675,-2.06],[111.657,-2.0605],[111.655,-2.061]]]},"properties":{"code":"62.09.05.2008","name":"Bukit Raya","latitude":-2.0737797587349327,"longitude":111.63382031288096}},{"type":"Feature","geometry":{"type":"Polygon","coordinates":[[[111.6665,-2.023],[111.6535,-2.0225],[111.6405,-2.03],[111.655,-2.061],[111.657,-2.0605],[111.6675,-2.06],[111.6755,-2.0615],[111.6865,-2.0605],[111.688,-2.0605],[111.6665,-2.0295],[111.6665,-2.023]]]},"properties":{"code":"62.09.05.2009","name":"Mukti Manunggal","latitude":-2.0433908346128,"longitude":111.66243425273008}},{"type":"Feature","geometry":{"type":"Polygon","coordinates":[[[111.739,-2.08],[111.6695,-2.071],[111.651,-2.096],[111.642,-2.0995],[111.6475,-2.1135],[111.658,-2.1135],[111.6675,-2.119],[111.675,-2.1355],[111.6805,-2.1215],[111.696,-2.1215],[111.7035,-2.117],[111.706,-2.1165],[111.721,-2.1145],[111.723,-2.1135],[111.7405,-2.1205],[111.7425,-2.1215],[111.745,-2.122],[111.7425,-2.116],[111.744,-2.0995],[111.739,-2.08]]]},"properties":{"code":"62.09.05.2010","name":"Sumber Jaya","latitude":-2.0982230012519762,"longitude":111.69533895447455}},{"type":"Feature","geometry":{"type":"Polygon","coordinates":[[[111.642,-2.0995],[111.616,-2.0985],[111.616,-2.1045],[111.5965,-2.1155],[111.5855,-2.104],[111.5835,-2.1055],[111.5825,-2.105],[111.58,-2.1055],[111.5795,-2.104],[111.571,-2.111],[111.571,-2.114],[111.5655,-2.117],[111.5645,-2.1165],[111.551,-2.118],[111.5485,-2.1195],[111.547,-2.1215],[111.5475,-2.124],[111.5485,-2.1345],[111.5545,-2.139],[111.573,-2.149],[111.5975,-2.1555],[111.6005,-2.1605],[111.612,-2.1605],[111.6585,-2.1715],[111.658,-2.1695],[111.6495,-2.1505],[111.655,-2.1425],[111.675,-2.1355],[111.6675,-2.119],[111.658,-2.1135],[111.6475,-2.1135],[111.642,-2.0995]]]},"properties":{"code":"62.09.05.2011","name":"Bukit Harum","latitude":-2.1322641708779404,"longitude":111.6128041394928}},{"type":"Feature","geometry":{"type":"Polygon","coordinates":[[[111.5555,-2.234],[111.5495,-2.1505],[111.548,-2.1515],[111.5475,-2.1545],[111.5425,-2.1605],[111.5315,-2.1575],[111.526,-2.1695],[111.5265,-2.18],[111.5265,-2.196],[111.5305,-2.2075],[111.528,-2.209],[111.5305,-2.2205],[111.544,-2.24],[111.551,-2.2365],[111.5545,-2.2345],[111.5555,-2.234]]]},"properties":{"code":"62.09.06.2001","name":"Bina Bhakti","latitude":-2.196471299810339,"longitude":111.5406454730729}},{"type":"Feature","geometry":{"type":"Polygon","coordinates":[[[111.5725,-2.226],[111.5575,-2.2315],[111.555,-2.234],[111.5555,-2.235],[111.555,-2.2565],[111.5535,-2.2575],[111.565,-2.2665],[111.589,-2.2675],[111.5955,-2.2675],[111.5975,-2.2675],[111.5975,-2.264],[111.597,-2.2455],[111.605,-2.2435],[111.6055,-2.2415],[111.5785,-2.2325],[111.5725,-2.226]]]},"properties":{"code":"62.09.06.2002","name":"Wonorejo","latitude":-2.2486482635569227,"longitude":111.57611080962303}},{"type":"Feature","geometry":{"type":"Polygon","coordinates":[[[111.5975,-2.2815],[111.575,-2.281],[111.565,-2.272],[111.5325,-2.2725],[111.5345,-2.2975],[111.5405,-2.3045],[111.5535,-2.305],[111.585,-2.307],[111.5855,-2.2955],[111.5975,-2.2955],[111.5975,-2.2815]]]},"properties":{"code":"62.09.06.2003","name":"Mekar Mulya","latitude":-2.2892440633908753,"longitude":111.56165185935205}},{"type":"Feature","geometry":{"type":"Polygon","coordinates":[[[111.555,-2.2565],[111.5515,-2.2545],[111.545,-2.2515],[111.5065,-2.2485],[111.506,-2.259],[111.507,-2.262],[111.521,-2.272],[111.5325,-2.2725],[111.565,-2.272],[111.575,-2.281],[111.5975,-2.2815],[111.598,-2.27],[111.5975,-2.2675],[111.5955,-2.2675],[111.589,-2.2675],[111.565,-2.2665],[111.5535,-2.2575],[111.555,-2.2565]]]},"properties":{"code":"62.09.06.2004","name":"Jangkar Prima","latitude":-2.265194939870445,"longitude":111.54877254563067}},{"type":"Feature","geometry":{"type":"Polygon","coordinates":[[[111.5555,-2.234],[111.5545,-2.2345],[111.551,-2.2365],[111.544,-2.24],[111.5305,-2.2205],[111.528,-2.209],[111.5285,-2.2075],[111.504,-2.2095],[111.5045,-2.222],[111.5045,-2.2225],[111.5035,-2.2265],[111.5055,-2.2475],[111.5065,-2.2485],[111.545,-2.2515],[111.5515,-2.2545],[111.5555,-2.235],[111.555,-2.234],[111.5555,-2.234]]]},"properties":{"code":"62.09.06.2005","name":"Purwareja","latitude":-2.233969103247082,"longitude":111.5248959900898}},{"type":"Feature","geometry":{"type":"Polygon","coordinates":[[[111.6005,-2.1605],[111.5975,-2.1555],[111.573,-2.149],[111.5545,-2.139],[111.5485,-2.1345],[111.5555,-2.234],[111.5575,-2.2315],[111.5725,-2.226],[111.577,-2.2085],[111.597,-2.208],[111.593,-2.2],[111.6015,-2.178],[111.6005,-2.1605]]]},"properties":{"code":"62.09.06.2006","name":"Tri Tunggal","latitude":-2.181699124132374,"longitude":111.5723301271602}},{"type":"Feature","geometry":{"type":"Polygon","coordinates":[[[111.5045,-2.2235],[111.467,-2.232],[111.455,-2.241],[111.453,-2.2425],[111.456,-2.255],[111.4565,-2.2625],[111.455,-2.2685],[111.507,-2.262],[111.506,-2.259],[111.5055,-2.2475],[111.5035,-2.2265],[111.5045,-2.2235]]]},"properties":{"code":"62.09.06.2007","name":"Batu Hambawang","latitude":-2.24763433184407,"longitude":111.48117355967325}},{"type":"Feature","geometry":{"type":"Polygon","coordinates":[[[111.6585,-2.1715],[111.612,-2.1605],[111.6005,-2.1605],[111.6015,-2.178],[111.593,-2.2],[111.597,-2.208],[111.577,-2.2085],[111.5725,-2.226],[111.5785,-2.2325],[111.6055,-2.2415],[111.609,-2.2245],[111.5945,-2.2235],[111.6025,-2.202],[111.6095,-2.195],[111.6105,-2.195],[111.6215,-2.1965],[111.6605,-2.1805],[111.6595,-2.174],[111.6585,-2.1715]]]},"properties":{"code":"62.09.06.2008","name":"Rimba Jaya","latitude":-2.193709727287454,"longitude":111.61260450215728}},{"type":"Feature","geometry":{"type":"Polygon","coordinates":[[[111.4195,-1.952],[111.4105,-1.9495],[111.4045,-1.9755],[111.4055,-1.977],[111.406,-1.9765],[111.426,-1.9755],[111.445,-1.97],[111.445,-1.9635],[111.4385,-1.9535],[111.4295,-1.9585],[111.4195,-1.952]]]},"properties":{"code":"62.09.07.2001","name":"Nanga Belantikan","latitude":-1.964411193960129,"longitude":111.4236648571485}},{"type":"Feature","geometry":{"type":"Polygon","coordinates":[[[111.4745,-1.8915],[111.4315,-1.874],[111.4015,-1.8785],[111.402,-1.8995],[111.393,-1.9225],[111.3915,-1.9385],[111.4195,-1.952],[111.4295,-1.9585],[111.4385,-1.9535],[111.439,-1.952],[111.4585,-1.9475],[111.459,-1.946],[111.47,-1.9355],[111.47,-1.926],[111.4685,-1.921],[111.4625,-1.8955],[111.4745,-1.8915]]]},"properties":{"code":"62.09.07.2002","name":"Sungai Buluh","latitude":-1.9155214389500694,"longitude":111.43130703960162}},{"type":"Feature","geometry":{"type":"Polygon","coordinates":[[[111.48,-1.854],[111.433,-1.834],[111.423,-1.835],[111.4015,-1.83],[111.3735,-1.838],[111.362,-1.8365],[111.3705,-1.8695],[111.4015,-1.8785],[111.4315,-1.874],[111.4745,-1.8915],[111.484,-1.8825],[111.485,-1.8735],[111.48,-1.854]]]},"properties":{"code":"62.09.07.2003","name":"Tangga Batu","latitude":-1.858455427164142,"longitude":111.42430403157834}},{"type":"Feature","geometry":{"type":"Polygon","coordinates":[[[111.48,-1.854],[111.48,-1.8075],[111.428,-1.8095],[111.4045,-1.8145],[111.362,-1.8365],[111.3735,-1.838],[111.4015,-1.83],[111.423,-1.835],[111.433,-1.834],[111.48,-1.854]]]},"properties":{"code":"62.09.07.2004","name":"Belibi","latitude":-1.825950531123161,"longitude":111.43957949771148}},{"type":"Feature","geometry":{"type":"Polygon","coordinates":[[[111.4405,-1.754],[111.388,-1.713],[111.2795,-1.63],[111.285,-1.667],[111.302,-1.6805],[111.312,-1.6955],[111.306,-1.711],[111.308,-1.7295],[111.3155,-1.7475],[111.326,-1.769],[111.324,-1.8025],[111.3325,-1.809],[111.338,-1.825],[111.355,-1.837],[111.362,-1.8365],[111.4045,-1.8145],[111.428,-1.8095],[111.48,-1.8075],[111.4755,-1.7835],[111.4765,-1.782],[111.479,-1.7785],[111.4775,-1.7765],[111.4405,-1.754]]]},"properties":{"code":"62.09.07.2005","name":"Bayat","latitude":-1.7541486803444757,"longitude":111.37221484339534}},{"type":"Feature","geometry":{"type":"Polygon","coordinates":[[[111.479,-1.7785],[111.479,-1.778],[111.482,-1.7715],[111.486,-1.764],[111.487,-1.762],[111.4905,-1.756],[111.493,-1.754],[111.5045,-1.7545],[111.517,-1.7455],[111.518,-1.7425],[111.5235,-1.725],[111.523,-1.7125],[111.529,-1.708],[111.531,-1.7065],[111.5345,-1.704],[111.548,-1.6835],[111.55,-1.6815],[111.553,-1.6815],[111.5555,-1.6815],[111.5585,-1.6735],[111.5595,-1.672],[111.561,-1.668],[111.5615,-1.6615],[111.5625,-1.656],[111.562,-1.6535],[111.446,-1.658],[111.4055,-1.6795],[111.4405,-1.754],[111.4775,-1.7765],[111.479,-1.7785]]]},"properties":{"code":"62.09.07.2006","name":"Karang Besi","latitude":-1.7028591586501027,"longitude":111.4806877439291}},{"type":"Feature","geometry":{"type":"Polygon","coordinates":[[[111.5635,-1.623],[111.4215,-1.601],[111.3915,-1.621],[111.3715,-1.601],[111.278,-1.62],[111.2795,-1.63],[111.388,-1.713],[111.4405,-1.754],[111.4055,-1.6795],[111.446,-1.658],[111.562,-1.6535],[111.5595,-1.65],[111.5585,-1.6475],[111.5595,-1.6425],[111.5655,-1.6345],[111.5635,-1.623]]]},"properties":{"code":"62.09.07.2007","name":"Benuatan","latitude":-1.6469248433933246,"longitude":111.41263811136581}},{"type":"Feature","geometry":{"type":"Polygon","coordinates":[[[111.5585,-1.6045],[111.397,-1.547],[111.393,-1.5445],[111.349,-1.594],[111.2745,-1.5945],[111.278,-1.62],[111.3715,-1.601],[111.3915,-1.621],[111.4215,-1.601],[111.5635,-1.623],[111.557,-1.6145],[111.5585,-1.6045]]]},"properties":{"code":"62.09.07.2008","name":"Kahingai","latitude":-1.5912745984715528,"longitude":111.42114790794787}},{"type":"Feature","geometry":{"type":"Polygon","coordinates":[[[111.6205,-1.581],[111.553,-1.5605],[111.4075,-1.5145],[111.3815,-1.5095],[111.3745,-1.514],[111.335,-1.5785],[111.2865,-1.5475],[111.2745,-1.5945],[111.349,-1.594],[111.393,-1.5445],[111.397,-1.547],[111.5585,-1.6045],[111.6205,-1.581]]]},"properties":{"code":"62.09.07.2009","name":"Nanga Matu","latitude":-1.561813386160247,"longitude":111.44108676221366}},{"type":"Feature","geometry":{"type":"Polygon","coordinates":[[[111.3745,-1.514],[111.3655,-1.497],[111.3265,-1.367],[111.311,-1.3735],[111.3055,-1.3895],[111.2925,-1.3815],[111.284,-1.3835],[111.282,-1.4],[111.2655,-1.41],[111.26,-1.417],[111.26,-1.43],[111.2495,-1.4365],[111.247,-1.4355],[111.24,-1.453],[111.2645,-1.518],[111.269,-1.517],[111.2875,-1.544],[111.2865,-1.5475],[111.335,-1.5785],[111.3745,-1.514]]]},"properties":{"code":"62.09.07.2010","name":"Bintang Mangalih","latitude":-1.4747548418512608,"longitude":111.30886748608872}},{"type":"Feature","geometry":{"type":"Polygon","coordinates":[[[111.446,-1.2455],[111.4455,-1.2435],[111.4445,-1.2435],[111.437,-1.2485],[111.4325,-1.251],[111.4235,-1.2675],[111.4085,-1.262],[111.4085,-1.265],[111.407,-1.266],[111.4065,-1.2655],[111.406,-1.265],[111.401,-1.263],[111.392,-1.2525],[111.39,-1.256],[111.3855,-1.2765],[111.381,-1.282],[111.3805,-1.284],[111.3835,-1.2875],[111.384,-1.289],[111.3835,-1.2905],[111.371,-1.291],[111.363,-1.311],[111.3525,-1.313],[111.348,-1.3135],[111.3415,-1.3205],[111.332,-1.3335],[111.333,-1.349],[111.3275,-1.355],[111.3265,-1.367],[111.3655,-1.497],[111.3745,-1.514],[111.3815,-1.5095],[111.4075,-1.5145],[111.553,-1.5605],[111.6205,-1.581],[111.598,-1.4815],[111.6385,-1.401],[111.624,-1.3935],[111.6105,-1.392],[111.609,-1.3775],[111.597,-1.3645],[111.5895,-1.3475],[111.5805,-1.3435],[111.5685,-1.3345],[111.578,-1.3225],[111.5605,-1.311],[111.547,-1.297],[111.544,-1.2855],[111.516,-1.2695],[111.504,-1.2535],[111.488,-1.259],[111.463,-1.253],[111.4525,-1.2595],[111.446,-1.2455]]]},"properties":{"code":"62.09.07.2011","name":"Petarikan","latitude":-1.4082944722161659,"longitude":111.47976877634538}},{"type":"Feature","geometry":{"type":"Polygon","coordinates":[[[111.47,-1.9355],[111.459,-1.946],[111.4585,-1.9475],[111.439,-1.952],[111.445,-1.9635],[111.445,-1.97],[111.444,-1.9705],[111.444,-1.9715],[111.4435,-1.9735],[111.445,-1.9765],[111.446,-1.983],[111.472,-1.983],[111.47,-1.964],[111.4705,-1.9415],[111.4705,-1.9355],[111.47,-1.9355]]]},"properties":{"code":"62.09.07.2012","name":"Sumber Cahaya","latitude":-1.9634465781535968,"longitude":111.45785215532877}},{"type":"Feature","geometry":{"type":"Polygon","coordinates":[[[111.171,-1.825],[111.159,-1.791],[111.1415,-1.7665],[111.1415,-1.7555],[111.1515,-1.742],[111.1375,-1.736],[111.1065,-1.7635],[111.139,-1.808],[111.15,-1.819],[111.171,-1.825]]]},"properties":{"code":"62.09.08.2001","name":"Batu Tambun","latitude":-1.7799594155748835,"longitude":111.13875129841614}},{"type":"Feature","geometry":{"type":"Polygon","coordinates":[[[111.308,-1.7295],[111.275,-1.718],[111.222,-1.693],[111.1875,-1.7055],[111.1695,-1.7125],[111.1375,-1.736],[111.1515,-1.742],[111.1415,-1.7555],[111.1415,-1.7665],[111.159,-1.791],[111.171,-1.825],[111.3155,-1.7475],[111.308,-1.7295]]]},"properties":{"code":"62.09.08.2002","name":"Kinipan","latitude":-1.7517432778389446,"longitude":111.21572896564115}},{"type":"Feature","geometry":{"type":"Polygon","coordinates":[[[111.308,-1.7295],[111.306,-1.711],[111.312,-1.6955],[111.302,-1.6805],[111.285,-1.667],[111.1685,-1.684],[111.184,-1.697],[111.1875,-1.7055],[111.222,-1.693],[111.275,-1.718],[111.308,-1.7295]]]},"properties":{"code":"62.09.08.2003","name":"Ginih","latitude":-1.6930364230982453,"longitude":111.25530464507489}},{"type":"Feature","geometry":{"type":"Polygon","coordinates":[[[111.152,-1.651],[111.1345,-1.6345],[111.123,-1.641],[111.1285,-1.6495],[111.129,-1.7205],[111.1375,-1.736],[111.1695,-1.7125],[111.1875,-1.7055],[111.184,-1.697],[111.1685,-1.684],[111.168,-1.6695],[111.1525,-1.6675],[111.152,-1.651]]]},"properties":{"code":"62.09.08.2004","name":"Benakitan","latitude":-1.6879379499635792,"longitude":111.14777643037179}},{"type":"Feature","geometry":{"type":"Polygon","coordinates":[[[111.285,-1.667],[111.2665,-1.658],[111.2645,-1.6515],[111.152,-1.651],[111.1525,-1.6675],[111.168,-1.6695],[111.1685,-1.684],[111.285,-1.667]]]},"properties":{"code":"62.09.08.2005","name":"Liku","latitude":-1.6639007511612411,"longitude":111.21019534891924}},{"type":"Feature","geometry":{"type":"Polygon","coordinates":[[[111.2745,-1.5945],[111.2425,-1.5945],[111.19,-1.5895],[111.1675,-1.584],[111.145,-1.585],[111.114,-1.6005],[111.108,-1.6185],[111.1225,-1.628],[111.123,-1.641],[111.1345,-1.6345],[111.152,-1.651],[111.2645,-1.6515],[111.2665,-1.658],[111.285,-1.667],[111.2745,-1.5945]]]},"properties":{"code":"62.09.08.2006","name":"Mengkalang","latitude":-1.620655825167104,"longitude":111.19969653577422}},{"type":"Feature","geometry":{"type":"Polygon","coordinates":[[[111.2865,-1.5475],[111.2875,-1.544],[111.269,-1.517],[111.2645,-1.518],[111.24,-1.453],[111.2155,-1.461],[111.199,-1.498],[111.1845,-1.517],[111.168,-1.5175],[111.167,-1.534],[111.1565,-1.55],[111.139,-1.5575],[111.145,-1.585],[111.1675,-1.584],[111.19,-1.5895],[111.2425,-1.5945],[111.2745,-1.5945],[111.2865,-1.5475]]]},"properties":{"code":"62.09.08.2007","name":"Karang Mas","latitude":-1.5403042352965823,"longitude":111.22045700924427}},{"type":"Feature","geometry":{"type":"Polygon","coordinates":[[[111.139,-1.5575],[111.1565,-1.55],[111.167,-1.534],[111.168,-1.5175],[111.1845,-1.517],[111.199,-1.498],[111.2155,-1.461],[111.2015,-1.465],[111.202,-1.4655],[111.2,-1.475],[111.181,-1.4735],[111.18,-1.472],[111.136,-1.4855],[111.134,-1.5005],[111.139,-1.5575]]]},"properties":{"code":"62.09.08.2008","name":"Kina","latitude":-1.5055180738991214,"longitude":111.16484198238176}},{"type":"Feature","geometry":{"type":"MultiPolygon","coordinates":[[[[111.247,-1.4355],[111.246,-1.435],[111.2305,-1.439],[111.2185,-1.438],[111.204,-1.443],[111.1985,-1.45],[111.201,-1.4635],[111.2015,-1.465],[111.24,-1.453],[111.247,-1.4355]]],[[[111.1795,-1.471],[111.182,-1.458],[111.176,-1.4445],[111.1605,-1.433],[111.1415,-1.442],[111.138,-1.445],[111.123,-1.4515],[111.113,-1.4675],[111.119,-1.472],[111.12,-1.477],[111.136,-1.4855],[111.18,-1.472],[111.1795,-1.471]]]]},"properties":{"code":"62.09.08.2009","name":"Jamuat","latitude":-1.4575971310113327,"longitude":111.16878971901414}}]}