{"type":"FeatureCollection","features":[{"type":"Feature","geometry":{"type":"Polygon","coordinates":[[[113.1315,-2.6155],[113.1515,-2.6145],[113.2465,-2.615],[113.3365,-2.626],[113.3645,-2.6185],[113.405,-2.618],[113.3965,-2.5975],[113.41,-2.581],[113.4305,-2.5685],[113.4505,-2.573],[113.4575,-2.5625],[113.4655,-2.539],[113.467,-2.5355],[113.469,-2.534],[113.472,-2.531],[113.476,-2.5275],[113.4785,-2.526],[113.48,-2.5255],[113.3385,-2.5255],[113.3125,-2.53],[113.29,-2.5255],[113.278,-2.536],[113.26,-2.5355],[113.173,-2.5355],[113.1355,-2.6085],[113.1315,-2.6155]]]},"properties":{"code":"62.06.01.2001","name":"Galinggang"}},{"type":"Feature","geometry":{"type":"Polygon","coordinates":[[[113.7575,-2.448],[113.6755,-2.448],[113.3555,-2.448],[113.309,-2.4345],[113.2875,-2.4185],[113.2005,-2.4105],[113.213,-2.4505],[113.185,-2.512],[113.173,-2.5355],[113.26,-2.5355],[113.278,-2.536],[113.29,-2.5255],[113.3125,-2.53],[113.3385,-2.5255],[113.48,-2.5255],[113.489,-2.5235],[113.4945,-2.527],[113.4955,-2.529],[113.5045,-2.537],[113.515,-2.537],[113.53,-2.536],[113.542,-2.522],[113.539,-2.5155],[113.5315,-2.5045],[113.529,-2.499],[113.528,-2.4975],[113.529,-2.4925],[113.532,-2.4915],[113.537,-2.4885],[113.553,-2.496],[113.5605,-2.5015],[113.5815,-2.497],[113.585,-2.5095],[113.5935,-2.523],[113.6095,-2.5325],[113.6275,-2.5255],[113.6425,-2.53],[113.6595,-2.5185],[113.6865,-2.524],[113.6875,-2.5235],[113.7135,-2.5205],[113.725,-2.5225],[113.7515,-2.518],[113.7575,-2.448]]]},"properties":{"code":"62.06.01.2002","name":"Tampelas"}},{"type":"Feature","geometry":{"type":"Polygon","coordinates":[[[113.3655,-2.166],[113.3295,-2.1665],[113.321,-2.17],[113.2785,-2.1565],[113.269,-2.149],[113.2585,-2.148],[113.247,-2.159],[113.2295,-2.166],[113.1945,-2.259],[113.172,-2.323],[113.2005,-2.4105],[113.2875,-2.4185],[113.309,-2.4345],[113.3555,-2.448],[113.7575,-2.448],[113.7595,-2.429],[113.7055,-2.4295],[113.36,-2.432],[113.357,-2.432],[113.355,-2.428],[113.3555,-2.426],[113.353,-2.419],[113.3415,-2.409],[113.329,-2.398],[113.325,-2.3855],[113.3255,-2.376],[113.335,-2.3745],[113.3405,-2.365],[113.354,-2.3645],[113.36,-2.3635],[113.386,-2.349],[113.387,-2.3385],[113.394,-2.335],[113.394,-2.3085],[113.378,-2.3045],[113.3665,-2.282],[113.366,-2.264],[113.373,-2.2525],[113.3615,-2.24],[113.3595,-2.219],[113.36,-2.215],[113.3625,-2.2015],[113.367,-2.182],[113.3655,-2.166]]]},"properties":{"code":"62.06.01.2003","name":"Telaga"}},{"type":"Feature","geometry":{"type":"Polygon","coordinates":[[[113.7575,-2.3925],[113.4365,-2.3975],[113.397,-2.4045],[113.3745,-2.3995],[113.346,-2.396],[113.3255,-2.376],[113.325,-2.3855],[113.329,-2.398],[113.3415,-2.409],[113.353,-2.419],[113.3555,-2.426],[113.355,-2.428],[113.357,-2.432],[113.36,-2.432],[113.7055,-2.4295],[113.7595,-2.429],[113.762,-2.402],[113.7575,-2.3925]]]},"properties":{"code":"62.06.01.2004","name":"Parupuk"}},{"type":"Feature","geometry":{"type":"Polygon","coordinates":[[[113.75,-2.3765],[113.4585,-2.377],[113.4285,-2.374],[113.4145,-2.359],[113.387,-2.339],[113.386,-2.349],[113.36,-2.3635],[113.354,-2.3645],[113.3405,-2.365],[113.335,-2.3745],[113.3255,-2.376],[113.346,-2.396],[113.3745,-2.3995],[113.397,-2.4045],[113.4365,-2.3975],[113.7575,-2.3925],[113.75,-2.3765]]]},"properties":{"code":"62.06.01.2005","name":"Karuing"}},{"type":"Feature","geometry":{"type":"Polygon","coordinates":[[[113.366,-2.264],[113.3665,-2.282],[113.378,-2.3045],[113.394,-2.3085],[113.394,-2.335],[113.387,-2.3385],[113.387,-2.339],[113.4145,-2.359],[113.4285,-2.374],[113.4585,-2.377],[113.75,-2.3765],[113.7205,-2.3145],[113.459,-2.313],[113.4355,-2.294],[113.421,-2.2945],[113.366,-2.264]]]},"properties":{"code":"62.06.01.2006","name":"Jahanjang"}},{"type":"Feature","geometry":{"type":"Polygon","coordinates":[[[113.713,-2.299],[113.484,-2.2985],[113.465,-2.2875],[113.4685,-2.278],[113.4225,-2.26],[113.364,-2.243],[113.373,-2.2525],[113.366,-2.264],[113.421,-2.2945],[113.4355,-2.294],[113.459,-2.313],[113.7205,-2.3145],[113.713,-2.299]]]},"properties":{"code":"62.06.01.2007","name":"Tumbang Runen"}},{"type":"Feature","geometry":{"type":"Polygon","coordinates":[[[113.692,-2.2255],[113.466,-2.229],[113.463,-2.216],[113.441,-2.2145],[113.3605,-2.214],[113.3595,-2.219],[113.3615,-2.24],[113.364,-2.243],[113.4225,-2.26],[113.4685,-2.278],[113.465,-2.2875],[113.484,-2.2985],[113.713,-2.299],[113.7065,-2.2855],[113.69,-2.243],[113.692,-2.2255]]]},"properties":{"code":"62.06.01.2008","name":"Baun Bango"}},{"type":"Feature","geometry":{"type":"Polygon","coordinates":[[[113.695,-2.0925],[113.6945,-2.0865],[113.661,-2.0415],[113.639,-2.0125],[113.621,-2.047],[113.6025,-2.0685],[113.5855,-2.082],[113.565,-2.0985],[113.555,-2.1355],[113.5485,-2.153],[113.485,-2.17],[113.472,-2.1655],[113.4645,-2.1515],[113.445,-2.1575],[113.4215,-2.1585],[113.4075,-2.166],[113.4015,-2.1745],[113.3655,-2.166],[113.367,-2.182],[113.3625,-2.2015],[113.3605,-2.214],[113.441,-2.2145],[113.463,-2.216],[113.466,-2.229],[113.692,-2.2255],[113.6995,-2.157],[113.695,-2.0925]]]},"properties":{"code":"62.06.01.2009","name":"Asem Kumbang"}},{"type":"Feature","geometry":{"type":"Polygon","coordinates":[[[113.5075,-1.89],[113.489,-1.8835],[113.4725,-1.8875],[113.468,-1.895],[113.431,-1.8965],[113.4325,-1.908],[113.4245,-1.916],[113.4215,-1.9165],[113.4125,-1.9105],[113.381,-1.914],[113.378,-1.919],[113.3715,-1.9205],[113.368,-1.9195],[113.3645,-1.923],[113.3485,-1.9355],[113.3475,-1.937],[113.348,-1.9385],[113.3715,-1.938],[113.3825,-1.931],[113.3995,-1.9275],[113.407,-1.9385],[113.435,-1.9515],[113.446,-1.955],[113.4515,-1.9565],[113.4555,-1.9575],[113.461,-1.9585],[113.48,-1.9375],[113.485,-1.943],[113.4975,-1.93],[113.5075,-1.8975],[113.5075,-1.89]]]},"properties":{"code":"62.06.02.1003","name":"Kasongan Baru"}},{"type":"Feature","geometry":{"type":"Polygon","coordinates":[[[113.4945,-1.7955],[113.4695,-1.795],[113.4335,-1.827],[113.382,-1.858],[113.3815,-1.891],[113.3485,-1.9355],[113.3645,-1.923],[113.368,-1.9195],[113.3715,-1.9205],[113.378,-1.919],[113.381,-1.914],[113.4125,-1.9105],[113.4215,-1.9165],[113.4245,-1.916],[113.4325,-1.908],[113.431,-1.8965],[113.468,-1.895],[113.4725,-1.8875],[113.489,-1.8835],[113.5075,-1.89],[113.5085,-1.885],[113.546,-1.8845],[113.4945,-1.7955]]]},"properties":{"code":"62.06.02.1004","name":"Kasongan Lama"}},{"type":"Feature","geometry":{"type":"Polygon","coordinates":[[[113.4305,-1.9495],[113.407,-1.9385],[113.392,-1.961],[113.372,-1.9645],[113.2975,-1.996],[113.2695,-2.0245],[113.262,-2.051],[113.2945,-2.0495],[113.31,-2.0425],[113.3255,-2.043],[113.3355,-2.0245],[113.385,-1.9985],[113.417,-1.97],[113.425,-1.9635],[113.427,-1.952],[113.4305,-1.9495]]]},"properties":{"code":"62.06.02.2001","name":"Tewang Kadamba"}},{"type":"Feature","geometry":{"type":"Polygon","coordinates":[[[113.407,-1.9385],[113.3995,-1.9275],[113.3825,-1.931],[113.3715,-1.938],[113.348,-1.9385],[113.3475,-1.937],[113.3485,-1.9355],[113.342,-1.9345],[113.3405,-1.9345],[113.3365,-1.934],[113.335,-1.9345],[113.332,-1.9345],[113.3255,-1.935],[113.325,-1.936],[113.3175,-1.936],[113.315,-1.936],[113.313,-1.9375],[113.3125,-1.938],[113.311,-1.9385],[113.308,-1.939],[113.2975,-1.952],[113.2905,-1.9685],[113.2835,-1.9715],[113.22,-1.991],[113.2695,-2.0245],[113.2975,-1.996],[113.372,-1.9645],[113.392,-1.961],[113.407,-1.9385]]]},"properties":{"code":"62.06.02.2002","name":"Tumbang Liting"}},{"type":"Feature","geometry":{"type":"Polygon","coordinates":[[[113.4945,-1.7955],[113.4895,-1.7865],[113.486,-1.758],[113.463,-1.766],[113.4425,-1.77],[113.426,-1.781],[113.4135,-1.7945],[113.391,-1.824],[113.3685,-1.829],[113.3635,-1.8445],[113.3645,-1.86],[113.3555,-1.86],[113.3435,-1.879],[113.346,-1.885],[113.331,-1.902],[113.334,-1.9345],[113.3365,-1.934],[113.3405,-1.9345],[113.342,-1.9345],[113.3485,-1.9355],[113.3815,-1.891],[113.382,-1.858],[113.4335,-1.827],[113.4695,-1.795],[113.4945,-1.7955]]]},"properties":{"code":"62.06.02.2005","name":"Talian Kereng"}},{"type":"Feature","geometry":{"type":"Polygon","coordinates":[[[113.334,-1.9345],[113.331,-1.902],[113.346,-1.885],[113.3435,-1.879],[113.3555,-1.86],[113.3645,-1.86],[113.3635,-1.8445],[113.3685,-1.829],[113.391,-1.824],[113.4135,-1.7945],[113.3505,-1.827],[113.3435,-1.833],[113.3515,-1.8395],[113.334,-1.864],[113.326,-1.8835],[113.3145,-1.8885],[113.3145,-1.895],[113.3115,-1.9385],[113.3125,-1.938],[113.313,-1.9375],[113.315,-1.936],[113.3175,-1.936],[113.325,-1.936],[113.3255,-1.935],[113.332,-1.9345],[113.334,-1.9345]]]},"properties":{"code":"62.06.02.2006","name":"Banut Kalanaman"}},{"type":"Feature","geometry":{"type":"Polygon","coordinates":[[[113.3115,-1.9385],[113.3145,-1.895],[113.3145,-1.8885],[113.326,-1.8835],[113.334,-1.864],[113.3515,-1.8395],[113.3435,-1.833],[113.3275,-1.842],[113.306,-1.838],[113.2965,-1.8405],[113.284,-1.8685],[113.279,-1.872],[113.28,-1.8725],[113.281,-1.874],[113.287,-1.8735],[113.2865,-1.8785],[113.296,-1.8825],[113.298,-1.8835],[113.301,-1.8885],[113.304,-1.9045],[113.2905,-1.9685],[113.2975,-1.952],[113.308,-1.939],[113.3115,-1.9385]]]},"properties":{"code":"62.06.02.2007","name":"Talangkah"}},{"type":"Feature","geometry":{"type":"Polygon","coordinates":[[[113.2905,-1.9685],[113.304,-1.9045],[113.301,-1.8885],[113.298,-1.8835],[113.296,-1.8825],[113.2865,-1.8785],[113.287,-1.8735],[113.281,-1.874],[113.28,-1.8725],[113.279,-1.872],[113.2715,-1.878],[113.2345,-1.9065],[113.2215,-1.9025],[113.2115,-1.8945],[113.201,-1.889],[113.2,-1.886],[113.1905,-1.879],[113.161,-1.8825],[113.142,-1.876],[113.142,-1.89],[113.1425,-1.8995],[113.1555,-1.8995],[113.1565,-1.9105],[113.1685,-1.927],[113.2035,-1.9525],[113.2035,-1.9755],[113.2175,-1.9755],[113.22,-1.991],[113.2835,-1.9715],[113.2905,-1.9685]]]},"properties":{"code":"62.06.02.2008","name":"Hampalit"}},{"type":"Feature","geometry":{"type":"Polygon","coordinates":[[[113.493,-1.625],[113.49,-1.618],[113.4775,-1.605],[113.4005,-1.68],[113.38,-1.6985],[113.369,-1.711],[113.332,-1.731],[113.317,-1.7435],[113.281,-1.7645],[113.1825,-1.766],[113.183,-1.773],[113.188,-1.7755],[113.207,-1.792],[113.209,-1.7925],[113.212,-1.7945],[113.271,-1.792],[113.325,-1.769],[113.3435,-1.767],[113.3905,-1.7365],[113.3975,-1.735],[113.4015,-1.7315],[113.411,-1.7145],[113.4215,-1.709],[113.4455,-1.683],[113.4845,-1.658],[113.502,-1.6445],[113.493,-1.625]]]},"properties":{"code":"62.06.03.1006","name":"Pendahara"}},{"type":"Feature","geometry":{"type":"Polygon","coordinates":[[[113.4845,-1.7465],[113.4825,-1.73],[113.4065,-1.7915],[113.358,-1.8165],[113.3245,-1.8125],[113.3115,-1.8205],[113.297,-1.8285],[113.201,-1.8875],[113.201,-1.889],[113.2115,-1.8945],[113.2215,-1.9025],[113.2345,-1.9065],[113.2715,-1.878],[113.284,-1.8685],[113.2965,-1.8405],[113.306,-1.838],[113.3275,-1.842],[113.3505,-1.827],[113.4135,-1.7945],[113.426,-1.781],[113.4425,-1.77],[113.463,-1.766],[113.486,-1.758],[113.4845,-1.7465]]]},"properties":{"code":"62.06.03.2001","name":"Tewang Baringin"}},{"type":"Feature","geometry":{"type":"Polygon","coordinates":[[[113.4805,-1.7175],[113.4765,-1.687],[113.4705,-1.6995],[113.468,-1.7035],[113.46,-1.709],[113.4585,-1.7175],[113.438,-1.732],[113.432,-1.744],[113.408,-1.7515],[113.399,-1.7515],[113.359,-1.778],[113.3215,-1.798],[113.3165,-1.791],[113.315,-1.7925],[113.3095,-1.8105],[113.3115,-1.8205],[113.3245,-1.8125],[113.358,-1.8165],[113.4065,-1.7915],[113.4825,-1.73],[113.4805,-1.7175]]]},"properties":{"code":"62.06.03.2002","name":"Hapalam"}},{"type":"Feature","geometry":{"type":"Polygon","coordinates":[[[113.3115,-1.8205],[113.3095,-1.8105],[113.289,-1.816],[113.283,-1.8175],[113.206,-1.849],[113.142,-1.876],[113.161,-1.8825],[113.1905,-1.879],[113.2,-1.886],[113.201,-1.8875],[113.297,-1.8285],[113.3115,-1.8205]]]},"properties":{"code":"62.06.03.2003","name":"Tewang Rangas"}},{"type":"Feature","geometry":{"type":"Polygon","coordinates":[[[113.305,-1.778],[113.271,-1.792],[113.212,-1.7945],[113.209,-1.7925],[113.207,-1.792],[113.188,-1.7755],[113.183,-1.773],[113.1825,-1.766],[113.1515,-1.778],[113.134,-1.815],[113.1335,-1.8455],[113.1425,-1.8455],[113.142,-1.8675],[113.142,-1.876],[113.206,-1.849],[113.283,-1.8175],[113.289,-1.816],[113.3095,-1.8105],[113.315,-1.7925],[113.3165,-1.791],[113.3105,-1.784],[113.305,-1.778]]]},"properties":{"code":"62.06.03.2004","name":"Bangkuang"}},{"type":"Feature","geometry":{"type":"Polygon","coordinates":[[[113.486,-1.6665],[113.502,-1.6445],[113.4845,-1.658],[113.4455,-1.683],[113.4215,-1.709],[113.411,-1.7145],[113.4015,-1.7315],[113.3975,-1.735],[113.3905,-1.7365],[113.3435,-1.767],[113.325,-1.769],[113.305,-1.778],[113.3105,-1.784],[113.318,-1.7925],[113.3215,-1.798],[113.359,-1.778],[113.399,-1.7515],[113.408,-1.7515],[113.432,-1.744],[113.438,-1.732],[113.4585,-1.7175],[113.46,-1.709],[113.468,-1.7035],[113.4705,-1.6995],[113.4765,-1.687],[113.4755,-1.6805],[113.486,-1.6665]]]},"properties":{"code":"62.06.03.2005","name":"Tarusan Danum"}},{"type":"Feature","geometry":{"type":"Polygon","coordinates":[[[113.4775,-1.605],[113.4595,-1.595],[113.3945,-1.6615],[113.33,-1.724],[113.296,-1.7465],[113.287,-1.746],[113.2665,-1.737],[113.2275,-1.7445],[113.166,-1.7455],[113.167,-1.746],[113.1675,-1.75],[113.1685,-1.752],[113.179,-1.767],[113.1825,-1.766],[113.281,-1.7645],[113.317,-1.7435],[113.332,-1.731],[113.369,-1.711],[113.38,-1.6985],[113.4005,-1.68],[113.4775,-1.605]]]},"properties":{"code":"62.06.03.2007","name":"Tumbang Tarusan"}},{"type":"Feature","geometry":{"type":"Polygon","coordinates":[[[113.4595,-1.595],[113.4535,-1.592],[113.4425,-1.584],[113.365,-1.6505],[113.344,-1.6885],[113.335,-1.6955],[113.299,-1.7125],[113.307,-1.7215],[113.1605,-1.731],[113.1615,-1.732],[113.162,-1.734],[113.162,-1.737],[113.162,-1.7375],[113.163,-1.7385],[113.1645,-1.74],[113.165,-1.741],[113.164,-1.743],[113.164,-1.744],[113.165,-1.745],[113.166,-1.7455],[113.2275,-1.7445],[113.2665,-1.737],[113.287,-1.746],[113.296,-1.7465],[113.33,-1.724],[113.3945,-1.6615],[113.4595,-1.595]]]},"properties":{"code":"62.06.03.2008","name":"Tewang Rangkang"}},{"type":"Feature","geometry":{"type":"Polygon","coordinates":[[[113.4425,-1.584],[113.434,-1.5775],[113.4225,-1.5885],[113.392,-1.607],[113.3825,-1.616],[113.355,-1.641],[113.3395,-1.654],[113.309,-1.6695],[113.2935,-1.6795],[113.2925,-1.68],[113.285,-1.6805],[113.282,-1.6795],[113.2775,-1.6865],[113.277,-1.709],[113.259,-1.71],[113.2145,-1.7025],[113.1725,-1.707],[113.138,-1.709],[113.132,-1.71],[113.1335,-1.712],[113.135,-1.712],[113.136,-1.7125],[113.1365,-1.7115],[113.139,-1.7125],[113.1495,-1.715],[113.155,-1.7265],[113.156,-1.7295],[113.1555,-1.7295],[113.1595,-1.7315],[113.1605,-1.731],[113.307,-1.7215],[113.299,-1.7125],[113.335,-1.6955],[113.344,-1.6885],[113.365,-1.6505],[113.4425,-1.584]]]},"properties":{"code":"62.06.03.2009","name":"Tewang Manyangen"}},{"type":"Feature","geometry":{"type":"Polygon","coordinates":[[[113.1605,-1.731],[113.1595,-1.7315],[113.1555,-1.7295],[113.156,-1.7295],[113.155,-1.7265],[113.1495,-1.715],[113.139,-1.7125],[113.1365,-1.7115],[113.136,-1.7125],[113.135,-1.712],[113.1335,-1.712],[113.132,-1.71],[113.0955,-1.716],[113.0765,-1.723],[113.0315,-1.746],[113.0175,-1.7495],[113.017,-1.7655],[113.0335,-1.7655],[113.034,-1.779],[113.044,-1.779],[113.0435,-1.797],[113.062,-1.8135],[113.0975,-1.8145],[113.134,-1.815],[113.1515,-1.778],[113.179,-1.767],[113.1685,-1.752],[113.1675,-1.75],[113.167,-1.746],[113.166,-1.7455],[113.165,-1.745],[113.164,-1.744],[113.164,-1.743],[113.165,-1.741],[113.1645,-1.74],[113.163,-1.7385],[113.162,-1.7375],[113.162,-1.737],[113.162,-1.734],[113.1615,-1.732],[113.1605,-1.731]]]},"properties":{"code":"62.06.03.2010","name":"Karya Unggang"}},{"type":"Feature","geometry":{"type":"Polygon","coordinates":[[[113.282,-1.6795],[113.2765,-1.6855],[113.265,-1.702],[113.132,-1.6945],[113.132,-1.696],[113.138,-1.709],[113.1725,-1.707],[113.2145,-1.7025],[113.259,-1.71],[113.277,-1.709],[113.2775,-1.6865],[113.282,-1.6795]]]},"properties":{"code":"62.06.04.2001","name":"Tewang Papari"}},{"type":"Feature","geometry":{"type":"Polygon","coordinates":[[[113.132,-1.6945],[113.265,-1.702],[113.2765,-1.6855],[113.28,-1.6815],[113.265,-1.688],[113.1355,-1.6825],[113.135,-1.685],[113.1355,-1.6875],[113.132,-1.689],[113.1315,-1.69],[113.132,-1.6945]]]},"properties":{"code":"62.06.04.2002","name":"Tewang Darayu"}},{"type":"Feature","geometry":{"type":"Polygon","coordinates":[[[113.355,-1.6415],[113.2865,-1.6415],[113.2845,-1.6615],[113.2705,-1.665],[113.267,-1.6715],[113.251,-1.674],[113.161,-1.67],[113.135,-1.669],[113.1365,-1.6705],[113.1365,-1.673],[113.137,-1.675],[113.137,-1.677],[113.1355,-1.6825],[113.265,-1.688],[113.28,-1.6815],[113.282,-1.6795],[113.285,-1.6805],[113.2925,-1.68],[113.2935,-1.6795],[113.309,-1.6695],[113.3395,-1.654],[113.355,-1.6415]]]},"properties":{"code":"62.06.04.2003","name":"Buntut Bali"}},{"type":"Feature","geometry":{"type":"Polygon","coordinates":[[[113.251,-1.6565],[113.145,-1.6525],[113.125,-1.651],[113.125,-1.6515],[113.128,-1.6555],[113.13,-1.6565],[113.13,-1.6585],[113.1345,-1.666],[113.134,-1.6675],[113.1345,-1.6685],[113.135,-1.669],[113.161,-1.67],[113.251,-1.674],[113.255,-1.665],[113.2585,-1.6625],[113.2535,-1.6615],[113.251,-1.6565]]]},"properties":{"code":"62.06.04.2004","name":"Kuluk Bali"}},{"type":"Feature","geometry":{"type":"Polygon","coordinates":[[[113.434,-1.5775],[113.4335,-1.577],[113.283,-1.6385],[113.264,-1.652],[113.2615,-1.659],[113.2575,-1.6635],[113.255,-1.665],[113.251,-1.674],[113.267,-1.6715],[113.2705,-1.665],[113.2845,-1.6615],[113.2865,-1.6415],[113.355,-1.6415],[113.3825,-1.616],[113.392,-1.607],[113.4225,-1.5885],[113.434,-1.5775]]]},"properties":{"code":"62.06.04.2005","name":"Manduing Taheta"}},{"type":"Feature","geometry":{"type":"Polygon","coordinates":[[[113.4325,-1.576],[113.4205,-1.5605],[113.3335,-1.6],[113.3355,-1.609],[113.327,-1.613],[113.302,-1.602],[113.2965,-1.6165],[113.259,-1.6335],[113.254,-1.644],[113.251,-1.6565],[113.2535,-1.6615],[113.2585,-1.6625],[113.2615,-1.659],[113.264,-1.652],[113.283,-1.6385],[113.4335,-1.577],[113.4325,-1.576]]]},"properties":{"code":"62.06.04.2006","name":"Manduing Lama"}},{"type":"Feature","geometry":{"type":"Polygon","coordinates":[[[113.2345,-1.6155],[113.131,-1.612],[113.1295,-1.6205],[113.127,-1.6385],[113.125,-1.651],[113.145,-1.6525],[113.251,-1.6565],[113.254,-1.644],[113.2585,-1.635],[113.253,-1.635],[113.24,-1.6305],[113.237,-1.624],[113.2345,-1.6155]]]},"properties":{"code":"62.06.04.2007","name":"Tumbang Banjang"}},{"type":"Feature","geometry":{"type":"Polygon","coordinates":[[[113.393,-1.5385],[113.388,-1.5365],[113.2485,-1.5935],[113.254,-1.6045],[113.2345,-1.615],[113.237,-1.624],[113.24,-1.6305],[113.253,-1.635],[113.2585,-1.635],[113.259,-1.6335],[113.2965,-1.6165],[113.302,-1.602],[113.327,-1.613],[113.3355,-1.609],[113.3335,-1.6],[113.4205,-1.5605],[113.4,-1.541],[113.393,-1.5385]]]},"properties":{"code":"62.06.04.2008","name":"Tumbang Lawang"}},{"type":"Feature","geometry":{"type":"Polygon","coordinates":[[[113.2165,-1.5925],[113.1355,-1.5905],[113.131,-1.612],[113.2345,-1.6155],[113.2345,-1.615],[113.254,-1.6045],[113.2485,-1.5935],[113.2165,-1.5925]]]},"properties":{"code":"62.06.04.2009","name":"Dahian Tunggal"}},{"type":"Feature","geometry":{"type":"Polygon","coordinates":[[[113.3275,-1.4645],[113.3245,-1.461],[113.244,-1.5025],[113.24,-1.5425],[113.2375,-1.567],[113.2275,-1.5835],[113.2165,-1.5925],[113.2485,-1.5935],[113.388,-1.5365],[113.3615,-1.5255],[113.339,-1.48],[113.3275,-1.4645]]]},"properties":{"code":"62.06.04.2010","name":"Tewang Karangan"}},{"type":"Feature","geometry":{"type":"Polygon","coordinates":[[[113.2165,-1.5925],[113.2275,-1.5835],[113.2375,-1.567],[113.24,-1.5425],[113.2415,-1.528],[113.2275,-1.5365],[113.2085,-1.5715],[113.14,-1.5715],[113.1375,-1.582],[113.1355,-1.5905],[113.216,-1.5925],[113.2165,-1.5925]]]},"properties":{"code":"62.06.04.2011","name":"Tumbang Tungku"}},{"type":"Feature","geometry":{"type":"Polygon","coordinates":[[[113.2415,-1.528],[113.243,-1.512],[113.1895,-1.545],[113.1465,-1.546],[113.1445,-1.552],[113.14,-1.5715],[113.2085,-1.5715],[113.2275,-1.5365],[113.2415,-1.528]]]},"properties":{"code":"62.06.04.2012","name":"Geragu"}},{"type":"Feature","geometry":{"type":"Polygon","coordinates":[[[113.313,-1.445],[113.309,-1.44],[113.3075,-1.4385],[113.1675,-1.5305],[113.1635,-1.5455],[113.1895,-1.545],[113.243,-1.512],[113.244,-1.5025],[113.3245,-1.461],[113.313,-1.445]]]},"properties":{"code":"62.06.04.2013","name":"Tumbang Tanjung"}},{"type":"Feature","geometry":{"type":"Polygon","coordinates":[[[113.3075,-1.4385],[113.2975,-1.427],[113.2475,-1.45],[113.2155,-1.4735],[113.198,-1.494],[113.182,-1.5065],[113.153,-1.5335],[113.1475,-1.5435],[113.1465,-1.546],[113.1635,-1.5455],[113.1675,-1.5305],[113.3075,-1.4385]]]},"properties":{"code":"62.06.04.2014","name":"Tura"}},{"type":"Feature","geometry":{"type":"Polygon","coordinates":[[[113.097,-1.44],[113.0815,-1.411],[113.0795,-1.4165],[113.074,-1.421],[113.041,-1.507],[113.0505,-1.5065],[113.086,-1.4495],[113.0985,-1.45],[113.0975,-1.4435],[113.097,-1.44]]]},"properties":{"code":"62.06.05.1009","name":"Samba Kahayan"}},{"type":"Feature","geometry":{"type":"Polygon","coordinates":[[[113.2975,-1.427],[113.294,-1.4235],[113.282,-1.405],[113.1825,-1.4665],[113.1465,-1.489],[113.071,-1.5545],[113.05,-1.572],[113.124,-1.655],[113.128,-1.6555],[113.125,-1.6515],[113.127,-1.6385],[113.1295,-1.6205],[113.136,-1.589],[113.1375,-1.582],[113.1445,-1.552],[113.1475,-1.5435],[113.153,-1.5335],[113.182,-1.5065],[113.198,-1.494],[113.2155,-1.4735],[113.2475,-1.45],[113.2975,-1.427]]]},"properties":{"code":"62.06.05.2001","name":"Tumbang Lahang"}},{"type":"Feature","geometry":{"type":"Polygon","coordinates":[[[113.282,-1.405],[113.2775,-1.3985],[113.2705,-1.3865],[113.1105,-1.494],[113.0365,-1.557],[113.05,-1.572],[113.071,-1.5545],[113.1465,-1.489],[113.1825,-1.4665],[113.282,-1.405]]]},"properties":{"code":"62.06.05.2002","name":"Tewang Panjang"}},{"type":"Feature","geometry":{"type":"Polygon","coordinates":[[[113.2705,-1.3865],[113.263,-1.3725],[113.258,-1.3655],[113.123,-1.4625],[113.1045,-1.484],[113.0625,-1.5155],[113.0335,-1.5305],[113.0365,-1.557],[113.1105,-1.494],[113.2705,-1.3865]]]},"properties":{"code":"62.06.05.2003","name":"Petak Puti"}},{"type":"Feature","geometry":{"type":"Polygon","coordinates":[[[113.258,-1.3655],[113.257,-1.364],[113.246,-1.3645],[113.232,-1.3655],[113.127,-1.4485],[113.12,-1.459],[113.1145,-1.466],[113.0995,-1.4675],[113.09,-1.4795],[113.059,-1.506],[113.005,-1.509],[113.0335,-1.5305],[113.0625,-1.5155],[113.1045,-1.484],[113.123,-1.4625],[113.258,-1.3655]]]},"properties":{"code":"62.06.05.2004","name":"Telok"}},{"type":"Feature","geometry":{"type":"Polygon","coordinates":[[[113.0985,-1.45],[113.086,-1.4495],[113.0505,-1.5065],[113.059,-1.506],[113.09,-1.4795],[113.0995,-1.4675],[113.1145,-1.466],[113.11,-1.4565],[113.0995,-1.452],[113.0985,-1.45]]]},"properties":{"code":"62.06.05.2005","name":"Samba Danum"}},{"type":"Feature","geometry":{"type":"Polygon","coordinates":[[[113.12,-1.459],[113.127,-1.4485],[113.232,-1.3655],[113.2005,-1.3685],[113.1035,-1.439],[113.097,-1.44],[113.0975,-1.4435],[113.0995,-1.452],[113.11,-1.4565],[113.12,-1.459]]]},"properties":{"code":"62.06.05.2006","name":"Samba Bakumpai"}},{"type":"Feature","geometry":{"type":"Polygon","coordinates":[[[113.097,-1.44],[113.1035,-1.439],[113.2005,-1.3685],[113.1945,-1.369],[113.168,-1.3685],[113.163,-1.381],[113.1485,-1.3985],[113.1385,-1.398],[113.1335,-1.408],[113.122,-1.4055],[113.107,-1.4215],[113.0905,-1.412],[113.086,-1.401],[113.0815,-1.411],[113.097,-1.44]]]},"properties":{"code":"62.06.05.2007","name":"Samba Katung"}},{"type":"Feature","geometry":{"type":"Polygon","coordinates":[[[113.086,-1.401],[113.0765,-1.397],[113.059,-1.435],[113.0275,-1.5075],[113.041,-1.507],[113.074,-1.421],[113.0795,-1.4165],[113.086,-1.401]]]},"properties":{"code":"62.06.05.2008","name":"Napu Sahur"}},{"type":"Feature","geometry":{"type":"Polygon","coordinates":[[[113.066,-1.392],[113.055,-1.387],[113.037,-1.4265],[112.998,-1.5045],[113.005,-1.509],[113.0275,-1.5075],[113.059,-1.435],[113.0765,-1.397],[113.066,-1.392]]]},"properties":{"code":"62.06.05.2010","name":"Batu Badinding"}},{"type":"Feature","geometry":{"type":"Polygon","coordinates":[[[113.055,-1.387],[113.0215,-1.3685],[113.014,-1.3675],[112.9885,-1.4205],[112.937,-1.503],[112.9635,-1.5075],[112.998,-1.5045],[113.037,-1.4265],[113.055,-1.387]]]},"properties":{"code":"62.06.05.2011","name":"Rantau Asem"}},{"type":"Feature","geometry":{"type":"Polygon","coordinates":[[[112.866,-1.491],[112.839,-1.4905],[112.8385,-1.505],[112.8515,-1.514],[112.852,-1.5245],[112.8625,-1.5245],[112.864,-1.5915],[112.869,-1.595],[112.899,-1.594],[112.899,-1.601],[112.8965,-1.64],[112.93,-1.641],[112.9295,-1.6675],[112.9285,-1.705],[112.9815,-1.706],[112.981,-1.716],[113,-1.7165],[112.999,-1.749],[113.0175,-1.7495],[113.0315,-1.746],[113.0765,-1.723],[113.0955,-1.716],[113.138,-1.709],[113.132,-1.696],[113.1315,-1.69],[113.132,-1.689],[113.1355,-1.6875],[113.135,-1.685],[113.1355,-1.679],[113.137,-1.677],[113.137,-1.675],[113.1365,-1.673],[113.1365,-1.6705],[113.135,-1.669],[113.134,-1.668],[113.1345,-1.666],[113.13,-1.6585],[113.128,-1.6555],[113.124,-1.655],[113.0365,-1.557],[113.0335,-1.5305],[112.998,-1.5045],[112.9635,-1.5075],[112.866,-1.491]]]},"properties":{"code":"62.06.05.2012","name":"Mirah Kalanaman"}},{"type":"Feature","geometry":{"type":"Polygon","coordinates":[[[112.9915,-1.319],[112.9885,-1.3105],[112.9185,-1.4105],[112.866,-1.491],[112.937,-1.503],[112.9885,-1.4205],[113.014,-1.3675],[112.999,-1.3455],[112.992,-1.345],[112.9915,-1.3415],[112.9915,-1.319]]]},"properties":{"code":"62.06.05.2013","name":"Tumbang Kalemei"}},{"type":"Feature","geometry":{"type":"Polygon","coordinates":[[[112.9825,-1.3],[112.9705,-1.276],[112.9355,-1.277],[112.9325,-1.277],[112.927,-1.2775],[112.9255,-1.277],[112.925,-1.2775],[112.839,-1.424],[112.839,-1.477],[112.839,-1.4905],[112.866,-1.491],[112.9185,-1.4105],[112.9885,-1.3105],[112.9825,-1.3]]]},"properties":{"code":"62.06.05.2014","name":"Tumbang Marak"}},{"type":"Feature","geometry":{"type":"Polygon","coordinates":[[[112.925,-1.2775],[112.9245,-1.2775],[112.9225,-1.2745],[112.916,-1.2695],[112.9085,-1.249],[112.8945,-1.255],[112.872,-1.2555],[112.8625,-1.2525],[112.8595,-1.2525],[112.849,-1.258],[112.7865,-1.3925],[112.7915,-1.393],[112.7935,-1.4075],[112.8065,-1.41],[112.8155,-1.424],[112.839,-1.424],[112.925,-1.2775]]]},"properties":{"code":"62.06.05.2015","name":"Tumbang Hangei"}},{"type":"Feature","geometry":{"type":"Polygon","coordinates":[[[112.849,-1.258],[112.8115,-1.25],[112.7805,-1.2605],[112.774,-1.2705],[112.7735,-1.2835],[112.766,-1.3015],[112.7615,-1.334],[112.75,-1.381],[112.7635,-1.3895],[112.781,-1.391],[112.7865,-1.3925],[112.849,-1.258]]]},"properties":{"code":"62.06.05.2016","name":"Tumbang Pariyei"}},{"type":"Feature","geometry":{"type":"Polygon","coordinates":[[[113.241,-1.3415],[113.2325,-1.3305],[113.202,-1.3425],[113.1205,-1.3795],[113.103,-1.3945],[113.066,-1.392],[113.086,-1.401],[113.0905,-1.412],[113.107,-1.4215],[113.122,-1.4055],[113.1335,-1.408],[113.1385,-1.398],[113.1485,-1.3985],[113.163,-1.381],[113.168,-1.3685],[113.1945,-1.369],[113.238,-1.365],[113.257,-1.364],[113.241,-1.3415]]]},"properties":{"code":"62.06.06.2001","name":"Dehes"}},{"type":"Feature","geometry":{"type":"Polygon","coordinates":[[[113.216,-1.307],[113.2015,-1.2865],[113.1715,-1.32],[113.1615,-1.321],[113.1505,-1.333],[113.1355,-1.3335],[113.1315,-1.338],[113.13,-1.3395],[113.1285,-1.3405],[113.1135,-1.3525],[113.087,-1.354],[113.081,-1.358],[113.014,-1.3675],[113.0215,-1.3685],[113.055,-1.387],[113.0545,-1.375],[113.0885,-1.3745],[113.103,-1.3565],[113.1215,-1.3605],[113.1235,-1.36],[113.129,-1.3505],[113.1415,-1.351],[113.187,-1.329],[113.216,-1.307]]]},"properties":{"code":"62.06.06.2002","name":"Tumbang Labehu"}},{"type":"Feature","geometry":{"type":"Polygon","coordinates":[[[113.1985,-1.282],[113.1905,-1.2635],[113.174,-1.294],[113.119,-1.325],[113.097,-1.339],[113.0885,-1.338],[113.0195,-1.316],[112.9915,-1.319],[112.9915,-1.3415],[112.992,-1.345],[112.999,-1.3455],[113.014,-1.3675],[113.081,-1.358],[113.087,-1.354],[113.1135,-1.3525],[113.1285,-1.3405],[113.13,-1.3395],[113.1315,-1.338],[113.1355,-1.3335],[113.1505,-1.333],[113.1615,-1.321],[113.1715,-1.32],[113.2015,-1.2865],[113.199,-1.2835],[113.1985,-1.282]]]},"properties":{"code":"62.06.06.2003","name":"Tumbang Kaman"}},{"type":"Feature","geometry":{"type":"Polygon","coordinates":[[[113.1905,-1.2635],[113.1855,-1.2515],[113.191,-1.242],[113.1885,-1.2385],[113.1635,-1.2685],[113.142,-1.2835],[113.138,-1.2855],[113.131,-1.2855],[113.124,-1.289],[113.0735,-1.2885],[113.0055,-1.298],[112.9825,-1.3],[112.9885,-1.3105],[112.9915,-1.319],[113.0195,-1.316],[113.0885,-1.338],[113.097,-1.339],[113.119,-1.325],[113.174,-1.294],[113.1905,-1.2635]]]},"properties":{"code":"62.06.06.2004","name":"Tumbang Manggo"}},{"type":"Feature","geometry":{"type":"Polygon","coordinates":[[[113.1195,-1.272],[113.08,-1.268],[113.061,-1.265],[112.97,-1.258],[112.9085,-1.249],[112.916,-1.2695],[112.9225,-1.2745],[112.9245,-1.2775],[112.9255,-1.277],[112.927,-1.2775],[112.9325,-1.277],[112.9355,-1.277],[112.9705,-1.276],[112.9825,-1.3],[113.0055,-1.298],[113.0735,-1.2885],[113.1215,-1.289],[113.122,-1.288],[113.121,-1.2865],[113.1215,-1.285],[113.121,-1.278],[113.12,-1.2755],[113.1195,-1.272]]]},"properties":{"code":"62.06.06.2005","name":"Kamanto"}},{"type":"Feature","geometry":{"type":"Polygon","coordinates":[[[113.1135,-1.2405],[113.093,-1.233],[113.0735,-1.237],[113.065,-1.2355],[112.9615,-1.2355],[112.909,-1.234],[112.9085,-1.249],[112.97,-1.258],[113.061,-1.265],[113.08,-1.268],[113.1195,-1.272],[113.1195,-1.2705],[113.1195,-1.268],[113.1205,-1.2635],[113.1185,-1.261],[113.1175,-1.2605],[113.1165,-1.257],[113.111,-1.248],[113.1125,-1.242],[113.1135,-1.2405]]]},"properties":{"code":"62.06.06.2006","name":"Kuluk Habuhus"}},{"type":"Feature","geometry":{"type":"Polygon","coordinates":[[[113.217,-1.16],[113.2385,-1.1545],[113.238,-1.148],[113.238,-1.147],[113.1915,-1.1595],[113.1285,-1.1575],[113.125,-1.1635],[113.124,-1.164],[113.1195,-1.166],[113.099,-1.1735],[113.098,-1.179],[113.0975,-1.1805],[113.0965,-1.181],[113.094,-1.184],[113.091,-1.1865],[113.0905,-1.1935],[113.091,-1.1955],[113.097,-1.201],[113.1015,-1.2055],[113.108,-1.215],[113.113,-1.239],[113.1135,-1.24],[113.1135,-1.241],[113.1125,-1.242],[113.1135,-1.252],[113.16,-1.242],[113.1845,-1.2135],[113.192,-1.192],[113.2035,-1.1675],[113.217,-1.16]]]},"properties":{"code":"62.06.06.2007","name":"Tumbang Kanei"}},{"type":"Feature","geometry":{"type":"Polygon","coordinates":[[[113.2485,-1.112],[113.221,-1.1135],[113.1855,-1.114],[113.1625,-1.098],[113.1445,-1.098],[113.1105,-1.157],[113.1285,-1.1575],[113.1915,-1.1595],[113.238,-1.147],[113.238,-1.1425],[113.249,-1.129],[113.248,-1.118],[113.2485,-1.112]]]},"properties":{"code":"62.06.06.2008","name":"Tumbang Taranei"}},{"type":"Feature","geometry":{"type":"Polygon","coordinates":[[[113.2695,-1.0895],[113.2685,-1.0885],[113.261,-1.0805],[113.26,-1.078],[113.2415,-1.0855],[113.2235,-1.067],[113.218,-1.0535],[113.2075,-1.001],[113.1815,-0.9905],[113.1505,-1.0175],[113.1335,-1.038],[113.1335,-1.048],[113.15,-1.0485],[113.163,-1.057],[113.1725,-1.0565],[113.17,-1.0665],[113.168,-1.071],[113.1635,-1.086],[113.16,-1.094],[113.1615,-1.096],[113.1625,-1.098],[113.1855,-1.114],[113.221,-1.1135],[113.2485,-1.112],[113.249,-1.108],[113.2635,-1.095],[113.2695,-1.0895]]]},"properties":{"code":"62.06.06.2009","name":"Tumbang Kawei"}},{"type":"Feature","geometry":{"type":"Polygon","coordinates":[[[113.237,-0.9615],[113.23,-0.9425],[113.229,-0.9275],[113.228,-0.928],[113.2255,-0.928],[113.223,-0.929],[113.221,-0.932],[113.2195,-0.933],[113.214,-0.932],[113.202,-0.9515],[113.2025,-0.9635],[113.1995,-0.968],[113.1885,-0.984],[113.1815,-0.9905],[113.2075,-1.001],[113.218,-1.0535],[113.2235,-1.067],[113.2415,-1.0855],[113.26,-1.078],[113.261,-1.0805],[113.2685,-1.0885],[113.2695,-1.0895],[113.2725,-1.087],[113.2815,-1.0775],[113.2865,-1.0645],[113.284,-1.0535],[113.243,-0.977],[113.237,-0.9615]]]},"properties":{"code":"62.06.06.2010","name":"Tumbang Mangara"}},{"type":"Feature","geometry":{"type":"Polygon","coordinates":[[[113.1135,-1.2405],[113.1135,-1.24],[113.113,-1.239],[113.108,-1.215],[113.1015,-1.2055],[113.098,-1.202],[113.06,-1.22],[112.954,-1.21],[112.8925,-1.2035],[112.897,-1.212],[112.909,-1.234],[112.9615,-1.2355],[113.065,-1.2355],[113.0735,-1.237],[113.093,-1.233],[113.1135,-1.2405]]]},"properties":{"code":"62.06.06.2011","name":"Tumbang Pangka"}},{"type":"Feature","geometry":{"type":"Polygon","coordinates":[[[112.744,-0.7565],[112.744,-0.7485],[112.7545,-0.741],[112.7605,-0.7285],[112.7605,-0.7075],[112.756,-0.698],[112.7385,-0.6965],[112.726,-0.6865],[112.722,-0.657],[112.7205,-0.655],[112.713,-0.6495],[112.7065,-0.6405],[112.704,-0.638],[112.7025,-0.637],[112.7025,-0.638],[112.6985,-0.6405],[112.697,-0.6405],[112.696,-0.641],[112.696,-0.6425],[112.7025,-0.6855],[112.7075,-0.721],[112.7075,-0.749],[112.712,-0.7935],[112.7535,-0.854],[112.755,-0.8645],[112.7505,-0.894],[112.7415,-0.936],[112.743,-0.9515],[112.752,-0.965],[112.763,-0.97],[112.7755,-1.0005],[112.794,-1.041],[112.8255,-1.098],[112.84,-1.1245],[112.851,-1.14],[112.8555,-1.151],[112.856,-1.151],[112.8575,-1.154],[112.8595,-1.156],[112.862,-1.157],[112.866,-1.159],[112.8685,-1.1615],[112.872,-1.1655],[112.8735,-1.1665],[112.874,-1.1685],[112.8745,-1.172],[112.872,-1.1745],[112.8735,-1.176],[112.875,-1.176],[112.877,-1.1775],[112.879,-1.1805],[112.8845,-1.1885],[112.8925,-1.2035],[112.954,-1.21],[113.06,-1.22],[113.098,-1.202],[113.097,-1.201],[113.091,-1.1955],[113.0905,-1.1935],[113.091,-1.1865],[113.094,-1.184],[113.0965,-1.181],[113.0975,-1.1805],[113.098,-1.179],[113.099,-1.1735],[113.1195,-1.166],[113.124,-1.164],[113.125,-1.1635],[113.1285,-1.1575],[113.1105,-1.157],[113.1445,-1.098],[113.1625,-1.098],[113.1615,-1.096],[113.16,-1.094],[113.1635,-1.086],[113.168,-1.071],[113.17,-1.0665],[113.1725,-1.0565],[113.0465,-1.1075],[113.041,-1.108],[112.9635,-1.134],[112.8435,-1.0745],[112.8355,-1.058],[112.8175,-1.054],[112.817,-1.0455],[112.8175,-1.0445],[112.817,-1.038],[112.8005,-1.029],[112.804,-1.0145],[112.7945,-0.9835],[112.7975,-0.9655],[112.791,-0.9545],[112.7905,-0.952],[112.7625,-0.9455],[112.762,-0.9445],[112.76,-0.9385],[112.758,-0.9355],[112.76,-0.9325],[112.759,-0.93],[112.7585,-0.927],[112.7595,-0.9255],[112.7685,-0.9185],[112.77,-0.9175],[112.772,-0.9135],[112.7765,-0.9085],[112.786,-0.9015],[112.7895,-0.898],[112.7905,-0.8965],[112.7915,-0.895],[112.793,-0.8915],[112.793,-0.8895],[112.793,-0.888],[112.7915,-0.8835],[112.7915,-0.881],[112.792,-0.8795],[112.793,-0.8765],[112.7935,-0.8745],[112.7945,-0.866],[112.7955,-0.8615],[112.7955,-0.8595],[112.7935,-0.8485],[112.7925,-0.845],[112.7915,-0.842],[112.79,-0.839],[112.789,-0.8375],[112.7865,-0.835],[112.7855,-0.8315],[112.785,-0.831],[112.7835,-0.8305],[112.7815,-0.8265],[112.783,-0.823],[112.784,-0.824],[112.7855,-0.8235],[112.7715,-0.8],[112.7755,-0.7895],[112.772,-0.774],[112.7575,-0.7645],[112.7455,-0.7595],[112.744,-0.7565]]]},"properties":{"code":"62.06.06.2012","name":"Tumbang Atei"}},{"type":"Feature","geometry":{"type":"Polygon","coordinates":[[[113.186,-1.235],[113.1835,-1.2165],[113.1845,-1.2135],[113.16,-1.242],[113.1135,-1.252],[113.1165,-1.257],[113.1175,-1.2605],[113.1185,-1.261],[113.1205,-1.2635],[113.1195,-1.268],[113.1195,-1.2705],[113.1195,-1.2715],[113.119,-1.273],[113.12,-1.2755],[113.121,-1.278],[113.1215,-1.285],[113.121,-1.2865],[113.122,-1.288],[113.1215,-1.289],[113.124,-1.289],[113.131,-1.2855],[113.138,-1.2855],[113.142,-1.2835],[113.1635,-1.2685],[113.1885,-1.2385],[113.186,-1.235]]]},"properties":{"code":"62.06.06.2020","name":"Daya Manunggal"}},{"type":"Feature","geometry":{"type":"Polygon","coordinates":[[[113.2215,-1.3145],[113.216,-1.307],[113.187,-1.329],[113.1415,-1.351],[113.129,-1.3505],[113.1235,-1.36],[113.1215,-1.3605],[113.103,-1.3565],[113.0885,-1.3745],[113.0545,-1.375],[113.055,-1.387],[113.066,-1.392],[113.103,-1.3945],[113.1205,-1.3795],[113.202,-1.3425],[113.2325,-1.3305],[113.2215,-1.3145]]]},"properties":{"code":"62.06.06.2021","name":"Rantau Bangkiang"}},{"type":"Feature","geometry":{"type":"Polygon","coordinates":[[[112.909,-1.234],[112.897,-1.212],[112.894,-1.2065],[112.8715,-1.2135],[112.838,-1.2195],[112.8135,-1.226],[112.7875,-1.2375],[112.749,-1.259],[112.7315,-1.2815],[112.7175,-1.3145],[112.7365,-1.322],[112.7495,-1.3335],[112.7435,-1.353],[112.7455,-1.3595],[112.749,-1.371],[112.746,-1.378],[112.75,-1.381],[112.7615,-1.334],[112.766,-1.3015],[112.7735,-1.2835],[112.774,-1.2705],[112.7805,-1.2605],[112.8115,-1.25],[112.849,-1.258],[112.8595,-1.2525],[112.8625,-1.2525],[112.872,-1.2555],[112.8945,-1.255],[112.9085,-1.249],[112.909,-1.234]]]},"properties":{"code":"62.06.07.2001","name":"Tumbang Mandurei"}},{"type":"Feature","geometry":{"type":"Polygon","coordinates":[[[112.8925,-1.2035],[112.8845,-1.1885],[112.8825,-1.1855],[112.829,-1.1995],[112.781,-1.217],[112.748,-1.2385],[112.725,-1.261],[112.7225,-1.262],[112.673,-1.2765],[112.6745,-1.278],[112.6815,-1.289],[112.691,-1.3065],[112.7175,-1.3145],[112.7315,-1.2815],[112.749,-1.259],[112.7875,-1.2375],[112.8135,-1.226],[112.838,-1.2195],[112.8715,-1.2135],[112.894,-1.2065],[112.8925,-1.2035]]]},"properties":{"code":"62.06.07.2002","name":"Tumbang Paku"}},{"type":"Feature","geometry":{"type":"Polygon","coordinates":[[[112.8825,-1.1855],[112.879,-1.1805],[112.877,-1.1775],[112.875,-1.176],[112.8735,-1.176],[112.872,-1.1745],[112.8745,-1.172],[112.874,-1.1685],[112.8735,-1.1675],[112.8315,-1.18],[112.796,-1.1925],[112.777,-1.201],[112.7215,-1.2315],[112.6605,-1.242],[112.661,-1.2425],[112.675,-1.256],[112.6705,-1.263],[112.6725,-1.2765],[112.673,-1.2765],[112.7225,-1.262],[112.725,-1.261],[112.748,-1.2385],[112.781,-1.217],[112.829,-1.1995],[112.8825,-1.1855]]]},"properties":{"code":"62.06.07.2003","name":"Buntut Leleng"}},{"type":"Feature","geometry":{"type":"Polygon","coordinates":[[[112.8735,-1.1675],[112.872,-1.1655],[112.8685,-1.1615],[112.866,-1.159],[112.862,-1.157],[112.8595,-1.156],[112.8575,-1.154],[112.856,-1.151],[112.8555,-1.151],[112.854,-1.1475],[112.7745,-1.1815],[112.7115,-1.2125],[112.709,-1.2115],[112.652,-1.225],[112.6605,-1.242],[112.7215,-1.2315],[112.777,-1.201],[112.796,-1.1925],[112.8315,-1.18],[112.8735,-1.1675]]]},"properties":{"code":"62.06.07.2004","name":"Kuluk Leleng"}},{"type":"Feature","geometry":{"type":"Polygon","coordinates":[[[112.803,-1.0575],[112.794,-1.041],[112.7755,-1.0005],[112.763,-0.97],[112.752,-0.965],[112.743,-0.9515],[112.7415,-0.936],[112.7505,-0.894],[112.755,-0.8645],[112.7535,-0.854],[112.712,-0.7935],[112.7075,-0.749],[112.7075,-0.721],[112.7025,-0.6855],[112.696,-0.6425],[112.696,-0.641],[112.694,-0.6425],[112.688,-0.654],[112.6635,-0.6595],[112.658,-0.656],[112.6545,-0.655],[112.6325,-0.6605],[112.6285,-0.6665],[112.6275,-0.667],[112.6275,-0.673],[112.6285,-0.6775],[112.625,-0.681],[112.622,-0.7],[112.6285,-0.7085],[112.623,-0.7375],[112.6225,-0.7515],[112.634,-0.755],[112.643,-0.7725],[112.633,-0.8035],[112.621,-0.821],[112.6215,-0.8235],[112.632,-0.836],[112.629,-0.845],[112.6435,-0.858],[112.6425,-0.874],[112.6525,-0.8825],[112.652,-0.9335],[112.656,-0.937],[112.656,-0.9385],[112.653,-0.941],[112.6515,-0.942],[112.652,-0.943],[112.652,-0.9585],[112.6465,-0.9635],[112.647,-0.973],[112.649,-0.972],[112.652,-0.9715],[112.654,-0.9725],[112.658,-0.9745],[112.6635,-0.982],[112.6645,-0.9845],[112.661,-1.0085],[112.6625,-1.01],[112.6655,-1.011],[112.6705,-1.0125],[112.673,-1.0225],[112.6855,-1.023],[112.7005,-1.03],[112.7035,-1.0305],[112.6975,-1.0405],[112.695,-1.0435],[112.695,-1.045],[112.696,-1.0455],[112.6975,-1.0445],[112.7,-1.0455],[112.701,-1.0455],[112.7025,-1.047],[112.7555,-1.074],[112.788,-1.0535],[112.7905,-1.053],[112.803,-1.0575]]]},"properties":{"code":"62.06.07.2005","name":"Sabaung"}},{"type":"Feature","geometry":{"type":"Polygon","coordinates":[[[112.803,-1.0575],[112.7905,-1.053],[112.788,-1.0535],[112.7555,-1.074],[112.7025,-1.047],[112.708,-1.0565],[112.7035,-1.067],[112.703,-1.069],[112.703,-1.0765],[112.7025,-1.078],[112.7355,-1.0815],[112.8175,-1.0835],[112.803,-1.0575]]]},"properties":{"code":"62.06.07.2006","name":"Tumbang Malawan"}},{"type":"Feature","geometry":{"type":"Polygon","coordinates":[[[112.7025,-1.078],[112.645,-1.0755],[112.6405,-1.107],[112.6465,-1.118],[112.6485,-1.126],[112.67,-1.1395],[112.7345,-1.142],[112.8345,-1.1135],[112.8175,-1.0835],[112.7355,-1.0815],[112.7025,-1.078]]]},"properties":{"code":"62.06.07.2007","name":"Tumbang Taei"}},{"type":"Feature","geometry":{"type":"Polygon","coordinates":[[[112.854,-1.1475],[112.851,-1.14],[112.846,-1.133],[112.7365,-1.157],[112.7345,-1.1595],[112.734,-1.161],[112.733,-1.16],[112.718,-1.1635],[112.7135,-1.163],[112.707,-1.1595],[112.706,-1.1625],[112.7095,-1.1685],[112.7075,-1.171],[112.7005,-1.1925],[112.709,-1.2055],[112.711,-1.212],[112.7115,-1.2125],[112.7745,-1.1815],[112.854,-1.1475]]]},"properties":{"code":"62.06.07.2008","name":"Rangan Surai"}},{"type":"Feature","geometry":{"type":"Polygon","coordinates":[[[112.7345,-1.1595],[112.733,-1.159],[112.711,-1.1555],[112.696,-1.155],[112.69,-1.1875],[112.688,-1.1905],[112.687,-1.191],[112.6815,-1.181],[112.6805,-1.1805],[112.6785,-1.18],[112.678,-1.1825],[112.648,-1.216],[112.6505,-1.2235],[112.652,-1.225],[112.709,-1.2115],[112.711,-1.212],[112.709,-1.2055],[112.7005,-1.1925],[112.7075,-1.171],[112.7095,-1.1685],[112.706,-1.1625],[112.707,-1.1595],[112.7135,-1.163],[112.718,-1.1635],[112.733,-1.16],[112.7345,-1.1595]]]},"properties":{"code":"62.06.07.2009","name":"Tumbang Hiran"}},{"type":"Feature","geometry":{"type":"Polygon","coordinates":[[[112.846,-1.133],[112.84,-1.1245],[112.8345,-1.1135],[112.7345,-1.142],[112.67,-1.1395],[112.6715,-1.184],[112.672,-1.183],[112.673,-1.182],[112.676,-1.1805],[112.678,-1.18],[112.679,-1.18],[112.68,-1.1805],[112.6815,-1.181],[112.687,-1.191],[112.688,-1.1905],[112.69,-1.1875],[112.696,-1.155],[112.711,-1.1555],[112.733,-1.159],[112.7345,-1.1595],[112.736,-1.158],[112.7365,-1.157],[112.846,-1.133]]]},"properties":{"code":"62.06.07.2010","name":"Tumbang Pahanei"}},{"type":"Feature","geometry":{"type":"Polygon","coordinates":[[[112.67,-1.1395],[112.6555,-1.1305],[112.6575,-1.1675],[112.649,-1.1795],[112.6345,-1.19],[112.6465,-1.211],[112.648,-1.216],[112.678,-1.1825],[112.6785,-1.18],[112.677,-1.1805],[112.673,-1.182],[112.6725,-1.183],[112.6715,-1.184],[112.67,-1.1395]]]},"properties":{"code":"62.06.07.2011","name":"Tumbang Dakei"}},{"type":"Feature","geometry":{"type":"Polygon","coordinates":[[[112.6555,-1.1305],[112.6485,-1.126],[112.65,-1.155],[112.6215,-1.1825],[112.6345,-1.19],[112.649,-1.1795],[112.6575,-1.1675],[112.6555,-1.1305]]]},"properties":{"code":"62.06.07.2012","name":"Rangan Burih"}},{"type":"Feature","geometry":{"type":"Polygon","coordinates":[[[112.6485,-1.126],[112.6225,-1.145],[112.5865,-1.146],[112.6015,-1.168],[112.6005,-1.1735],[112.6125,-1.1765],[112.6215,-1.1825],[112.65,-1.155],[112.6485,-1.126]]]},"properties":{"code":"62.06.07.2013","name":"Tumbang Bemban"}},{"type":"Feature","geometry":{"type":"Polygon","coordinates":[[[112.7025,-1.047],[112.701,-1.0455],[112.7,-1.0455],[112.6975,-1.0445],[112.696,-1.0455],[112.695,-1.045],[112.695,-1.0435],[112.6975,-1.0405],[112.7035,-1.0305],[112.685,-1.0405],[112.608,-1.076],[112.5875,-1.139],[112.5865,-1.146],[112.6225,-1.145],[112.6485,-1.126],[112.6465,-1.118],[112.6405,-1.107],[112.645,-1.0755],[112.7025,-1.078],[112.703,-1.0765],[112.703,-1.069],[112.7035,-1.067],[112.708,-1.0565],[112.7025,-1.047]]]},"properties":{"code":"62.06.07.2014","name":"Tumbang Lambi"}},{"type":"Feature","geometry":{"type":"Polygon","coordinates":[[[112.7035,-1.0305],[112.7005,-1.03],[112.6855,-1.023],[112.673,-1.0225],[112.6705,-1.0125],[112.6655,-1.011],[112.6625,-1.01],[112.661,-1.0095],[112.5935,-1.067],[112.5405,-1.0715],[112.4995,-1.082],[112.501,-1.0845],[112.529,-1.1165],[112.55,-1.145],[112.577,-1.1615],[112.6005,-1.1735],[112.6015,-1.168],[112.5865,-1.146],[112.5875,-1.139],[112.608,-1.076],[112.685,-1.0405],[112.7035,-1.0305]]]},"properties":{"code":"62.06.07.2015","name":"Rangan Tangko"}},{"type":"Feature","geometry":{"type":"Polygon","coordinates":[[[112.661,-1.0095],[112.661,-1.0085],[112.6645,-0.9845],[112.6635,-0.982],[112.658,-0.9745],[112.654,-0.9725],[112.652,-0.9715],[112.649,-0.972],[112.647,-0.973],[112.6255,-0.986],[112.6195,-0.995],[112.607,-1],[112.601,-1.0045],[112.5985,-1.0095],[112.5905,-1.024],[112.5805,-1.0245],[112.572,-1.017],[112.546,-1.0255],[112.476,-1.0295],[112.479,-1.042],[112.49,-1.059],[112.4995,-1.082],[112.5405,-1.0715],[112.5935,-1.067],[112.661,-1.0095]]]},"properties":{"code":"62.06.07.2016","name":"Tumbang Tundu"}},{"type":"Feature","geometry":{"type":"Polygon","coordinates":[[[112.6275,-0.667],[112.6265,-0.668],[112.6175,-0.668],[112.6095,-0.683],[112.609,-0.684],[112.6005,-0.6865],[112.5935,-0.69],[112.5895,-0.689],[112.5785,-0.6815],[112.5765,-0.6815],[112.568,-0.685],[112.5625,-0.695],[112.545,-0.6955],[112.5405,-0.694],[112.5325,-0.6985],[112.522,-0.692],[112.5135,-0.701],[112.503,-0.7],[112.4955,-0.6845],[112.487,-0.6915],[112.4655,-0.68],[112.464,-0.6775],[112.463,-0.669],[112.45,-0.6735],[112.4345,-0.6735],[112.426,-0.684],[112.422,-0.686],[112.42,-0.686],[112.417,-0.686],[112.4105,-0.689],[112.4055,-0.695],[112.405,-0.6965],[112.41,-0.701],[112.42,-0.723],[112.4345,-0.772],[112.4455,-0.848],[112.4565,-0.8895],[112.468,-0.935],[112.4725,-0.9795],[112.4735,-1.0055],[112.4735,-1.0065],[112.517,-1.0055],[112.544,-1.009],[112.553,-1.0075],[112.558,-0.9965],[112.5575,-0.9865],[112.556,-0.9795],[112.555,-0.967],[112.556,-0.965],[112.5585,-0.9645],[112.5615,-0.963],[112.564,-0.96],[112.5745,-0.9585],[112.578,-0.957],[112.604,-0.957],[112.6285,-0.954],[112.633,-0.9545],[112.634,-0.9545],[112.637,-0.9515],[112.6515,-0.9425],[112.6515,-0.942],[112.653,-0.941],[112.656,-0.9385],[112.656,-0.937],[112.652,-0.9335],[112.6525,-0.8825],[112.6425,-0.874],[112.6435,-0.858],[112.629,-0.845],[112.632,-0.836],[112.6215,-0.8235],[112.621,-0.821],[112.633,-0.8035],[112.643,-0.7725],[112.634,-0.755],[112.6225,-0.7515],[112.623,-0.7375],[112.6285,-0.7085],[112.622,-0.7],[112.625,-0.681],[112.6285,-0.6775],[112.6275,-0.673],[112.6275,-0.667]]]},"properties":{"code":"62.06.07.2017","name":"Batu Panahan"}},{"type":"Feature","geometry":{"type":"Polygon","coordinates":[[[112.647,-0.973],[112.6465,-0.9635],[112.652,-0.9585],[112.652,-0.943],[112.6515,-0.9425],[112.637,-0.9515],[112.634,-0.9545],[112.633,-0.9545],[112.6285,-0.954],[112.604,-0.957],[112.578,-0.957],[112.5745,-0.9585],[112.564,-0.96],[112.5615,-0.963],[112.5585,-0.9645],[112.556,-0.965],[112.555,-0.967],[112.556,-0.9795],[112.5575,-0.9865],[112.558,-0.9965],[112.553,-1.0075],[112.544,-1.009],[112.517,-1.0055],[112.4735,-1.0065],[112.474,-1.0195],[112.476,-1.0295],[112.546,-1.0255],[112.572,-1.017],[112.5805,-1.0245],[112.5905,-1.024],[112.5985,-1.0095],[112.601,-1.0045],[112.607,-1],[112.6195,-0.995],[112.6255,-0.986],[112.647,-0.973]]]},"properties":{"code":"62.06.07.2018","name":"Tumbang Tabulus"}},{"type":"Feature","geometry":{"type":"Polygon","coordinates":[[[112.4465,-1.1435],[112.433,-1.1405],[112.4115,-1.141],[112.3995,-1.128],[112.3985,-1.1835],[112.4015,-1.209],[112.4085,-1.2135],[112.4095,-1.218],[112.411,-1.219],[112.412,-1.22],[112.412,-1.2205],[112.427,-1.2065],[112.4435,-1.2025],[112.429,-1.195],[112.4275,-1.193],[112.4275,-1.1905],[112.4275,-1.188],[112.434,-1.184],[112.438,-1.158],[112.4465,-1.1435]]]},"properties":{"code":"62.06.08.1014","name":"Tumbang Sanamang"}},{"type":"Feature","geometry":{"type":"Polygon","coordinates":[[[112.459,-0.898],[112.4565,-0.8895],[112.4455,-0.848],[112.4345,-0.772],[112.42,-0.723],[112.41,-0.701],[112.405,-0.6965],[112.403,-0.699],[112.3855,-0.7135],[112.3835,-0.713],[112.382,-0.7105],[112.374,-0.71],[112.361,-0.715],[112.3575,-0.715],[112.355,-0.7145],[112.3465,-0.7435],[112.3425,-0.7765],[112.333,-0.8005],[112.33,-0.807],[112.3085,-0.8195],[112.294,-0.823],[112.2865,-0.8495],[112.29,-0.8595],[112.2995,-0.8995],[112.3015,-0.9015],[112.3355,-0.9015],[112.3475,-0.8985],[112.358,-0.9015],[112.3775,-0.8925],[112.406,-0.8985],[112.459,-0.898]]]},"properties":{"code":"62.06.08.2001","name":"Kiham Batang"}},{"type":"Feature","geometry":{"type":"Polygon","coordinates":[[[112.4995,-1.082],[112.499,-1.0805],[112.4245,-1.108],[112.425,-1.109],[112.409,-1.1095],[112.3995,-1.128],[112.4115,-1.141],[112.433,-1.1405],[112.4465,-1.1435],[112.514,-1.0995],[112.501,-1.0845],[112.4995,-1.082]]]},"properties":{"code":"62.06.08.2002","name":"Tumbang Kabayan"}},{"type":"Feature","geometry":{"type":"Polygon","coordinates":[[[112.459,-0.898],[112.406,-0.8985],[112.3775,-0.8925],[112.358,-0.9015],[112.3475,-0.8985],[112.3355,-0.9015],[112.3015,-0.9015],[112.315,-0.9145],[112.315,-0.925],[112.465,-0.9235],[112.4655,-0.925],[112.459,-0.898]]]},"properties":{"code":"62.06.08.2003","name":"Rangan Kawit"}},{"type":"Feature","geometry":{"type":"Polygon","coordinates":[[[112.4655,-0.925],[112.465,-0.9235],[112.315,-0.925],[112.3165,-0.9415],[112.318,-0.947],[112.4445,-0.9475],[112.469,-0.946],[112.468,-0.935],[112.4655,-0.925]]]},"properties":{"code":"62.06.08.2004","name":"Dehes Asem"}},{"type":"Feature","geometry":{"type":"Polygon","coordinates":[[[112.4705,-0.9615],[112.469,-0.946],[112.4445,-0.9475],[112.318,-0.947],[112.3245,-0.9635],[112.453,-0.962],[112.4705,-0.9615]]]},"properties":{"code":"62.06.08.2005","name":"Kuluk Sapangi"}},{"type":"Feature","geometry":{"type":"Polygon","coordinates":[[[112.472,-0.9735],[112.4705,-0.9615],[112.453,-0.962],[112.3245,-0.9635],[112.327,-0.9695],[112.3305,-0.9745],[112.4415,-0.973],[112.472,-0.9735]]]},"properties":{"code":"62.06.08.2006","name":"Tumbang Kuai"}},{"type":"Feature","geometry":{"type":"Polygon","coordinates":[[[112.472,-0.9735],[112.4415,-0.973],[112.3305,-0.9745],[112.333,-0.978],[112.3405,-0.987],[112.4365,-0.986],[112.473,-0.986],[112.4725,-0.9795],[112.472,-0.9735]]]},"properties":{"code":"62.06.08.2007","name":"Tumbang Salaman"}},{"type":"Feature","geometry":{"type":"Polygon","coordinates":[[[112.4755,-1.0265],[112.474,-1.0195],[112.4735,-1.007],[112.347,-1.0075],[112.348,-1.02],[112.347,-1.0275],[112.433,-1.027],[112.4755,-1.0265]]]},"properties":{"code":"62.06.08.2008","name":"Rantau Puka"}},{"type":"Feature","geometry":{"type":"Polygon","coordinates":[[[112.476,-1.0295],[112.4755,-1.0265],[112.433,-1.027],[112.347,-1.0275],[112.3465,-1.0315],[112.344,-1.0435],[112.34,-1.06],[112.356,-1.0755],[112.4225,-1.075],[112.426,-1.0805],[112.482,-1.081],[112.499,-1.0805],[112.49,-1.059],[112.479,-1.042],[112.476,-1.0295]]]},"properties":{"code":"62.06.08.2009","name":"Rantau Bahai"}},{"type":"Feature","geometry":{"type":"Polygon","coordinates":[[[112.6005,-1.1735],[112.577,-1.1615],[112.5685,-1.1565],[112.5725,-1.18],[112.5945,-1.199],[112.632,-1.2075],[112.6505,-1.2235],[112.6465,-1.211],[112.6345,-1.19],[112.6125,-1.1765],[112.6005,-1.1735]]]},"properties":{"code":"62.06.08.2010","name":"Rangan Ranjing"}},{"type":"Feature","geometry":{"type":"Polygon","coordinates":[[[112.5685,-1.1565],[112.5545,-1.1475],[112.555,-1.169],[112.5625,-1.177],[112.5635,-1.1995],[112.5675,-1.2],[112.573,-1.2005],[112.583,-1.2005],[112.5915,-1.2],[112.5945,-1.199],[112.5725,-1.18],[112.5685,-1.1565]]]},"properties":{"code":"62.06.08.2011","name":"Tumbang Labaning"}},{"type":"Feature","geometry":{"type":"Polygon","coordinates":[[[112.5545,-1.1475],[112.55,-1.145],[112.548,-1.1425],[112.5405,-1.153],[112.541,-1.193],[112.5635,-1.1995],[112.5625,-1.177],[112.555,-1.169],[112.5545,-1.1475]]]},"properties":{"code":"62.06.08.2012","name":"Batu Bango"}},{"type":"Feature","geometry":{"type":"Polygon","coordinates":[[[112.521,-1.1075],[112.514,-1.0995],[112.4465,-1.1435],[112.4735,-1.1685],[112.464,-1.1985],[112.472,-1.2015],[112.494,-1.1605],[112.521,-1.1075]]]},"properties":{"code":"62.06.08.2013","name":"Tumbang Hangei II"}},{"type":"Feature","geometry":{"type":"Polygon","coordinates":[[[112.499,-1.0805],[112.482,-1.081],[112.426,-1.0805],[112.4225,-1.075],[112.356,-1.0755],[112.358,-1.081],[112.3605,-1.0895],[112.3645,-1.11],[112.425,-1.109],[112.4245,-1.108],[112.499,-1.0805]]]},"properties":{"code":"62.06.08.2015","name":"Sei Nanjan"}},{"type":"Feature","geometry":{"type":"Polygon","coordinates":[[[112.464,-1.1985],[112.4735,-1.1685],[112.4465,-1.1435],[112.438,-1.158],[112.434,-1.184],[112.4275,-1.188],[112.4275,-1.1905],[112.4275,-1.193],[112.429,-1.195],[112.4435,-1.2025],[112.462,-1.198],[112.464,-1.1985]]]},"properties":{"code":"62.06.08.2016","name":"Tumbang Jiga"}},{"type":"Feature","geometry":{"type":"Polygon","coordinates":[[[112.3995,-1.128],[112.409,-1.1095],[112.384,-1.1095],[112.372,-1.1835],[112.358,-1.23],[112.363,-1.229],[112.3755,-1.231],[112.392,-1.2395],[112.412,-1.2205],[112.412,-1.22],[112.411,-1.219],[112.4095,-1.218],[112.4085,-1.2135],[112.4015,-1.209],[112.3985,-1.1835],[112.3995,-1.128]]]},"properties":{"code":"62.06.08.2017","name":"Tumbang Mangketai"}},{"type":"Feature","geometry":{"type":"Polygon","coordinates":[[[112.198,-1.0885],[112.1815,-1.0875],[112.162,-1.087],[112.156,-1.102],[112.147,-1.1125],[112.164,-1.13],[112.188,-1.15],[112.1945,-1.1665],[112.195,-1.2115],[112.1565,-1.303],[112.157,-1.3035],[112.164,-1.312],[112.174,-1.313],[112.1925,-1.3025],[112.2165,-1.306],[112.2175,-1.313],[112.252,-1.318],[112.258,-1.3205],[112.279,-1.3035],[112.295,-1.307],[112.3165,-1.304],[112.323,-1.2995],[112.3285,-1.2905],[112.3235,-1.277],[112.321,-1.1945],[112.3605,-1.168],[112.3615,-1.128],[112.3235,-1.125],[112.278,-1.116],[112.2735,-1.11],[112.2555,-1.1005],[112.224,-1.096],[112.198,-1.0885]]]},"properties":{"code":"62.06.08.2019","name":"Tumbang Mahop"}},{"type":"Feature","geometry":{"type":"Polygon","coordinates":[[[112.1565,-1.303],[112.195,-1.2115],[112.1945,-1.1665],[112.188,-1.15],[112.164,-1.13],[112.147,-1.1125],[112.1455,-1.118],[112.1375,-1.1215],[112.138,-1.1285],[112.1185,-1.14],[112.1165,-1.164],[112.106,-1.2055],[112.0985,-1.217],[112.1125,-1.2185],[112.1235,-1.2285],[112.126,-1.2395],[112.1225,-1.254],[112.1245,-1.2645],[112.13,-1.278],[112.1265,-1.293],[112.1295,-1.299],[112.127,-1.313],[112.1435,-1.309],[112.154,-1.3025],[112.1565,-1.303]]]},"properties":{"code":"62.06.08.2020","name":"Tumbang Sabetung"}},{"type":"Feature","geometry":{"type":"Polygon","coordinates":[[[112.548,-1.1425],[112.5405,-1.1325],[112.496,-1.172],[112.4935,-1.2015],[112.498,-1.203],[112.5045,-1.2075],[112.5155,-1.199],[112.5285,-1.1975],[112.54,-1.193],[112.541,-1.193],[112.5405,-1.153],[112.548,-1.1425]]]},"properties":{"code":"62.06.08.2030","name":"Penda Tanggaring Lama"}},{"type":"Feature","geometry":{"type":"Polygon","coordinates":[[[112.5405,-1.1325],[112.529,-1.1165],[112.521,-1.1075],[112.494,-1.1605],[112.472,-1.2015],[112.4775,-1.203],[112.4905,-1.2],[112.4935,-1.2015],[112.496,-1.172],[112.5405,-1.1325]]]},"properties":{"code":"62.06.08.2031","name":"Penda Tanggaring Baru"}},{"type":"Feature","geometry":{"type":"Polygon","coordinates":[[[112.4735,-1.0065],[112.4735,-1.0055],[112.473,-0.986],[112.4365,-0.986],[112.341,-0.987],[112.3425,-0.989],[112.337,-1.001],[112.34,-1.007],[112.347,-1.0075],[112.4735,-1.007],[112.4735,-1.0065]]]},"properties":{"code":"62.06.08.2032","name":"Teluk Tampang"}},{"type":"Feature","geometry":{"type":"Polygon","coordinates":[[[112.358,-1.23],[112.372,-1.1835],[112.384,-1.1095],[112.3645,-1.11],[112.367,-1.1195],[112.3615,-1.128],[112.3605,-1.168],[112.321,-1.1945],[112.3235,-1.275],[112.329,-1.2665],[112.337,-1.258],[112.334,-1.246],[112.3505,-1.2315],[112.358,-1.23]]]},"properties":{"code":"62.06.08.2033","name":"Tumbang Manangei"}},{"type":"Feature","geometry":{"type":"Polygon","coordinates":[[[113.63,-2.816],[113.628,-2.811],[113.6175,-2.7895],[113.3015,-2.983],[113.2925,-2.9825],[113.28,-2.9765],[113.278,-2.9715],[113.276,-2.971],[113.2715,-2.98],[113.2695,-2.983],[113.2665,-2.9845],[113.176,-2.9835],[113.1955,-3.0255],[113.244,-3.0205],[113.248,-3.026],[113.2595,-3.0245],[113.276,-3.0165],[113.347,-2.9795],[113.3645,-2.971],[113.3975,-2.95],[113.5055,-2.8845],[113.63,-2.816]]]},"properties":{"code":"62.06.09.2001","name":"Mendawai"}},{"type":"Feature","geometry":{"type":"Polygon","coordinates":[[[113.2585,-3.0245],[113.248,-3.026],[113.244,-3.0205],[113.1955,-3.0255],[113.222,-3.084],[113.225,-3.094],[113.2425,-3.0965],[113.254,-3.0915],[113.2615,-3.081],[113.264,-3.071],[113.2685,-3.0685],[113.2695,-3.0675],[113.2675,-3.066],[113.259,-3.059],[113.256,-3.053],[113.2685,-3.044],[113.2585,-3.0245]]]},"properties":{"code":"62.06.09.2002","name":"Teluk Sebulu"}},{"type":"Feature","geometry":{"type":"Polygon","coordinates":[[[113.286,-2.96],[113.275,-2.952],[113.2765,-2.948],[113.176,-2.9235],[113.1475,-2.9165],[113.1455,-2.916],[113.1485,-2.923],[113.176,-2.9835],[113.2665,-2.9845],[113.2695,-2.983],[113.2715,-2.98],[113.276,-2.971],[113.2775,-2.9715],[113.286,-2.96]]]},"properties":{"code":"62.06.09.2003","name":"Kampung Melayu"}},{"type":"Feature","geometry":{"type":"Polygon","coordinates":[[[113.6175,-2.7895],[113.604,-2.762],[113.5995,-2.7565],[113.282,-2.8775],[113.281,-2.8815],[113.1315,-2.882],[113.1455,-2.916],[113.1475,-2.9165],[113.176,-2.9235],[113.2765,-2.948],[113.275,-2.952],[113.286,-2.96],[113.2945,-2.948],[113.313,-2.9615],[113.298,-2.9825],[113.3015,-2.983],[113.6175,-2.7895]]]},"properties":{"code":"62.06.09.2004","name":"Tewang Kampung"}},{"type":"Feature","geometry":{"type":"Polygon","coordinates":[[[113.5995,-2.7565],[113.584,-2.738],[113.5925,-2.7255],[113.0945,-2.7255],[113.096,-2.7555],[113.0975,-2.7975],[113.098,-2.8],[113.1315,-2.882],[113.281,-2.8815],[113.282,-2.8775],[113.5995,-2.7565]]]},"properties":{"code":"62.06.09.2005","name":"Perigi"}},{"type":"Feature","geometry":{"type":"Polygon","coordinates":[[[113.298,-2.9825],[113.313,-2.9615],[113.2945,-2.948],[113.2805,-2.9675],[113.2775,-2.9715],[113.278,-2.9715],[113.28,-2.9765],[113.2925,-2.9825],[113.298,-2.9825]]]},"properties":{"code":"62.06.09.2006","name":"Mekar Tani"}},{"type":"Feature","geometry":{"type":"Polygon","coordinates":[[[113.7515,-2.518],[113.725,-2.5225],[113.7135,-2.5205],[113.6875,-2.5235],[113.6865,-2.524],[113.6595,-2.5185],[113.6425,-2.53],[113.6275,-2.5255],[113.6095,-2.5325],[113.5935,-2.523],[113.585,-2.5095],[113.5815,-2.497],[113.5605,-2.5015],[113.553,-2.496],[113.537,-2.4885],[113.532,-2.4915],[113.529,-2.4925],[113.528,-2.4975],[113.529,-2.499],[113.5315,-2.5045],[113.539,-2.5155],[113.542,-2.522],[113.53,-2.536],[113.515,-2.537],[113.5045,-2.537],[113.4955,-2.529],[113.4945,-2.527],[113.489,-2.5235],[113.484,-2.524],[113.4785,-2.526],[113.4765,-2.527],[113.4725,-2.5305],[113.469,-2.534],[113.467,-2.5355],[113.4655,-2.539],[113.4575,-2.5625],[113.4505,-2.573],[113.4305,-2.5685],[113.41,-2.581],[113.3965,-2.5975],[113.405,-2.618],[113.3645,-2.6185],[113.3365,-2.626],[113.2465,-2.615],[113.1515,-2.6145],[113.1315,-2.6155],[113.0945,-2.6755],[113.094,-2.7095],[113.094,-2.71],[113.0945,-2.7255],[113.5925,-2.7255],[113.665,-2.6185],[113.751,-2.5215],[113.7515,-2.518]]]},"properties":{"code":"62.06.09.2007","name":"Tumbang Bulan"}},{"type":"Feature","geometry":{"type":"MultiPolygon","coordinates":[[[[113.334,-3.2715],[113.342,-3.28],[113.35,-3.272],[113.343,-3.2655],[113.334,-3.2715]]],[[[113.402,-3.259],[113.397,-3.2495],[113.373,-3.2625],[113.3675,-3.2735],[113.3595,-3.2775],[113.3665,-3.3015],[113.384,-3.295],[113.4055,-3.27],[113.402,-3.259]]]]},"properties":{"code":"62.06.10.1001","name":"Pagatan Hilir"}},{"type":"Feature","geometry":{"type":"Polygon","coordinates":[[[113.3275,-3.2445],[113.3235,-3.246],[113.3185,-3.25],[113.334,-3.2715],[113.343,-3.2655],[113.337,-3.2595],[113.3305,-3.251],[113.329,-3.2485],[113.3275,-3.2445]]]},"properties":{"code":"62.06.10.1002","name":"Pagatan Hulu"}},{"type":"Feature","geometry":{"type":"Polygon","coordinates":[[[113.3385,-3.213],[113.3165,-3.217],[113.3065,-3.2055],[113.287,-3.2065],[113.3185,-3.25],[113.3235,-3.246],[113.328,-3.2445],[113.3295,-3.24],[113.335,-3.2335],[113.345,-3.228],[113.3385,-3.213]]]},"properties":{"code":"62.06.10.2003","name":"Kampung Keramat"}},{"type":"Feature","geometry":{"type":"Polygon","coordinates":[[[113.275,-3.078],[113.2745,-3.075],[113.2735,-3.0725],[113.2715,-3.07],[113.2695,-3.0675],[113.2685,-3.0685],[113.264,-3.071],[113.2615,-3.081],[113.254,-3.0915],[113.2425,-3.0965],[113.225,-3.094],[113.233,-3.123],[113.2345,-3.152],[113.25,-3.1665],[113.287,-3.2065],[113.3065,-3.2055],[113.3165,-3.217],[113.3385,-3.213],[113.3265,-3.187],[113.3255,-3.185],[113.324,-3.1845],[113.322,-3.185],[113.314,-3.1885],[113.3095,-3.1845],[113.3065,-3.181],[113.303,-3.1765],[113.301,-3.1725],[113.3,-3.17],[113.2995,-3.1685],[113.3,-3.1675],[113.3005,-3.166],[113.301,-3.1645],[113.301,-3.1635],[113.301,-3.1625],[113.3,-3.161],[113.2985,-3.1585],[113.2975,-3.1565],[113.293,-3.1505],[113.2925,-3.1495],[113.2925,-3.147],[113.293,-3.1435],[113.2935,-3.141],[113.2955,-3.135],[113.289,-3.1185],[113.2835,-3.1175],[113.2745,-3.117],[113.272,-3.1165],[113.2705,-3.1155],[113.2685,-3.114],[113.2675,-3.113],[113.2665,-3.111],[113.2655,-3.1095],[113.2655,-3.108],[113.2655,-3.106],[113.274,-3.0875],[113.275,-3.078]]]},"properties":{"code":"62.06.10.2004","name":"Kampung Tengah"}},{"type":"Feature","geometry":{"type":"Polygon","coordinates":[[[113.447,-3.163],[113.44,-3.134],[113.337,-3.181],[113.324,-3.1845],[113.3255,-3.185],[113.326,-3.1865],[113.3385,-3.213],[113.447,-3.163]]]},"properties":{"code":"62.06.10.2005","name":"Jaya Makmur"}},{"type":"Feature","geometry":{"type":"Polygon","coordinates":[[[113.44,-3.134],[113.432,-3.1],[113.3515,-3.1365],[113.2995,-3.16],[113.3005,-3.162],[113.301,-3.1635],[113.301,-3.1655],[113.2995,-3.168],[113.3,-3.17],[113.3005,-3.1715],[113.302,-3.174],[113.306,-3.18],[113.309,-3.184],[113.3115,-3.1865],[113.314,-3.1885],[113.322,-3.185],[113.324,-3.1845],[113.337,-3.181],[113.44,-3.134]]]},"properties":{"code":"62.06.10.2006","name":"Subur Indah"}},{"type":"Feature","geometry":{"type":"Polygon","coordinates":[[[113.412,-3.013],[113.4065,-2.988],[113.2865,-3.0395],[113.285,-3.0365],[113.256,-3.053],[113.259,-3.059],[113.2675,-3.066],[113.27,-3.068],[113.2715,-3.0695],[113.273,-3.0715],[113.274,-3.0735],[113.2745,-3.0755],[113.275,-3.078],[113.311,-3.06],[113.412,-3.013]]]},"properties":{"code":"62.06.10.2007","name":"Kampung Baru"}},{"type":"Feature","geometry":{"type":"Polygon","coordinates":[[[113.42,-3.0485],[113.412,-3.013],[113.311,-3.06],[113.275,-3.078],[113.274,-3.0875],[113.2655,-3.106],[113.2655,-3.1075],[113.2655,-3.1095],[113.266,-3.111],[113.2665,-3.112],[113.2675,-3.113],[113.269,-3.115],[113.42,-3.0485]]]},"properties":{"code":"62.06.10.2008","name":"Bangun Jaya"}},{"type":"Feature","geometry":{"type":"Polygon","coordinates":[[[113.285,-3.0365],[113.276,-3.0165],[113.2595,-3.0245],[113.2585,-3.0245],[113.2685,-3.044],[113.285,-3.0365]]]},"properties":{"code":"62.06.10.2009","name":"Setia Mulia"}},{"type":"Feature","geometry":{"type":"Polygon","coordinates":[[[113.4265,-3.0765],[113.42,-3.0485],[113.269,-3.115],[113.2715,-3.116],[113.274,-3.117],[113.278,-3.1175],[113.2835,-3.1175],[113.289,-3.1185],[113.2955,-3.135],[113.2935,-3.1415],[113.2955,-3.1405],[113.3,-3.134],[113.321,-3.1225],[113.4265,-3.0765]]]},"properties":{"code":"62.06.10.2010","name":"Singam Raya"}},{"type":"Feature","geometry":{"type":"Polygon","coordinates":[[[113.6335,-3.135],[113.637,-3.1055],[113.646,-3.088],[113.6585,-3.0905],[113.6655,-3.0855],[113.659,-3.074],[113.664,-3.054],[113.6925,-3.03],[113.7135,-3.0215],[113.715,-3.012],[113.7085,-2.9635],[113.6605,-2.914],[113.6455,-2.8565],[113.63,-2.816],[113.5055,-2.8845],[113.5285,-2.9475],[113.543,-2.994],[113.555,-3.038],[113.5595,-3.068],[113.551,-3.1615],[113.601,-3.167],[113.6135,-3.1425],[113.6265,-3.1455],[113.6335,-3.135]]]},"properties":{"code":"62.06.10.2011","name":"Sebangau Jaya"}},{"type":"Feature","geometry":{"type":"Polygon","coordinates":[[[113.551,-3.1615],[113.5595,-3.068],[113.555,-3.038],[113.543,-2.994],[113.5285,-2.9475],[113.5055,-2.8845],[113.3975,-2.95],[113.4515,-3.1835],[113.453,-3.1895],[113.494,-3.173],[113.5125,-3.1675],[113.551,-3.1615]]]},"properties":{"code":"62.06.10.2012","name":"Sungai Kaki"}},{"type":"Feature","geometry":{"type":"Polygon","coordinates":[[[113.4515,-3.1835],[113.435,-3.191],[113.383,-3.218],[113.348,-3.234],[113.345,-3.228],[113.335,-3.2335],[113.3295,-3.24],[113.328,-3.2445],[113.3275,-3.2445],[113.329,-3.248],[113.3295,-3.2495],[113.331,-3.252],[113.338,-3.2605],[113.343,-3.2655],[113.35,-3.272],[113.3675,-3.2705],[113.3725,-3.2605],[113.3915,-3.2475],[113.4265,-3.2375],[113.4355,-3.226],[113.4365,-3.212],[113.453,-3.1895],[113.4515,-3.1835]]]},"properties":{"code":"62.06.10.2013","name":"Selat Baning"}},{"type":"Feature","geometry":{"type":"Polygon","coordinates":[[[113.4515,-3.1835],[113.447,-3.163],[113.3385,-3.213],[113.348,-3.234],[113.383,-3.218],[113.435,-3.191],[113.4515,-3.1835]]]},"properties":{"code":"62.06.10.2014","name":"Makmur Utama"}},{"type":"Feature","geometry":{"type":"Polygon","coordinates":[[[113.432,-3.1],[113.4265,-3.0765],[113.321,-3.1225],[113.3,-3.134],[113.2955,-3.1405],[113.2935,-3.1415],[113.293,-3.144],[113.2925,-3.1465],[113.2925,-3.149],[113.293,-3.1505],[113.2975,-3.1565],[113.2985,-3.1585],[113.2995,-3.16],[113.3515,-3.1365],[113.432,-3.1]]]},"properties":{"code":"62.06.10.2015","name":"Bumi Subur"}},{"type":"Feature","geometry":{"type":"Polygon","coordinates":[[[113.4065,-2.988],[113.3975,-2.95],[113.3645,-2.971],[113.347,-2.9795],[113.276,-3.0165],[113.2865,-3.0395],[113.4065,-2.988]]]},"properties":{"code":"62.06.10.2016","name":"Bakung Raya"}},{"type":"Feature","geometry":{"type":"Polygon","coordinates":[[[113.3655,-2.166],[113.4015,-2.1745],[113.4075,-2.166],[113.4215,-2.1585],[113.445,-2.1575],[113.4645,-2.1515],[113.472,-2.1655],[113.485,-2.17],[113.5485,-2.153],[113.555,-2.1355],[113.565,-2.0985],[113.5855,-2.082],[113.5255,-2.083],[113.5125,-2.088],[113.5085,-2.0965],[113.4755,-2.1095],[113.475,-2.1345],[113.4395,-2.139],[113.239,-2.1315],[113.23,-2.1645],[113.2295,-2.166],[113.247,-2.159],[113.2585,-2.148],[113.269,-2.149],[113.2785,-2.1565],[113.321,-2.17],[113.3295,-2.1665],[113.3655,-2.166]]]},"properties":{"code":"62.06.11.2001","name":"Talingke"}},{"type":"Feature","geometry":{"type":"Polygon","coordinates":[[[113.5855,-2.082],[113.6025,-2.0685],[113.621,-2.047],[113.5955,-2.0525],[113.582,-2.057],[113.574,-2.062],[113.539,-2.0605],[113.5325,-2.0545],[113.5145,-2.0505],[113.504,-2.065],[113.4705,-2.079],[113.4605,-2.0805],[113.4605,-2.09],[113.4455,-2.09],[113.445,-2.1195],[113.243,-2.1175],[113.239,-2.1315],[113.4395,-2.139],[113.475,-2.1345],[113.4755,-2.1095],[113.5085,-2.0965],[113.5125,-2.088],[113.5255,-2.083],[113.5855,-2.082]]]},"properties":{"code":"62.06.11.2002","name":"Hiyang Bana"}},{"type":"Feature","geometry":{"type":"Polygon","coordinates":[[[113.637,-2.009],[113.6275,-1.9965],[113.5195,-2.0035],[113.505,-2.015],[113.484,-2.028],[113.4795,-2.032],[113.4745,-2.035],[113.473,-2.0365],[113.472,-2.038],[113.4705,-2.0405],[113.4605,-2.0585],[113.4425,-2.065],[113.443,-2.059],[113.4415,-2.056],[113.4345,-2.049],[113.431,-2.046],[113.4275,-2.0435],[113.423,-2.0415],[113.419,-2.0405],[113.4155,-2.0405],[113.4115,-2.0405],[113.4085,-2.0415],[113.404,-2.044],[113.398,-2.0475],[113.389,-2.05],[113.3775,-2.058],[113.2575,-2.0675],[113.243,-2.1175],[113.445,-2.1195],[113.4455,-2.09],[113.4605,-2.09],[113.4605,-2.0805],[113.4705,-2.079],[113.504,-2.065],[113.5145,-2.0505],[113.5325,-2.0545],[113.539,-2.0605],[113.574,-2.062],[113.582,-2.057],[113.5955,-2.0525],[113.621,-2.047],[113.634,-2.022],[113.639,-2.0125],[113.637,-2.009]]]},"properties":{"code":"62.06.11.2003","name":"Petak Bahandang"}},{"type":"Feature","geometry":{"type":"Polygon","coordinates":[[[113.6195,-1.986],[113.609,-1.972],[113.5435,-1.9775],[113.482,-1.9825],[113.4735,-1.9945],[113.4485,-2],[113.4485,-2.004],[113.4475,-2.009],[113.447,-2.011],[113.4455,-2.013],[113.4455,-2.025],[113.4425,-2.065],[113.4605,-2.0585],[113.4675,-2.05],[113.469,-2.0445],[113.47,-2.0415],[113.4715,-2.038],[113.474,-2.036],[113.4755,-2.0345],[113.4795,-2.032],[113.484,-2.028],[113.505,-2.015],[113.5195,-2.0035],[113.6275,-1.9965],[113.6195,-1.986]]]},"properties":{"code":"62.06.11.2004","name":"Handiwung"}},{"type":"Feature","geometry":{"type":"Polygon","coordinates":[[[113.406,-2.007],[113.3915,-2.004],[113.387,-2.0025],[113.386,-2.0005],[113.385,-1.9985],[113.3355,-2.0245],[113.3255,-2.043],[113.31,-2.0425],[113.2945,-2.0495],[113.262,-2.051],[113.2575,-2.0675],[113.3775,-2.058],[113.389,-2.05],[113.398,-2.0475],[113.4035,-2.044],[113.4075,-2.042],[113.411,-2.041],[113.4145,-2.0405],[113.4185,-2.0405],[113.422,-2.0415],[113.4255,-2.0425],[113.4295,-2.045],[113.4325,-2.047],[113.4355,-2.0495],[113.4415,-2.056],[113.443,-2.059],[113.4455,-2.025],[113.4455,-2.013],[113.447,-2.011],[113.4475,-2.009],[113.448,-2.007],[113.406,-2.007]]]},"properties":{"code":"62.06.11.2005","name":"Tumbang Panggo"}},{"type":"Feature","geometry":{"type":"Polygon","coordinates":[[[113.609,-1.972],[113.59,-1.946],[113.5825,-1.935],[113.4735,-1.9655],[113.4615,-1.979],[113.4475,-1.9875],[113.4465,-1.9875],[113.4265,-1.9885],[113.423,-1.988],[113.418,-1.998],[113.406,-2.007],[113.448,-2.007],[113.4485,-2.004],[113.4485,-2],[113.4735,-1.9945],[113.482,-1.9825],[113.5435,-1.9775],[113.609,-1.972]]]},"properties":{"code":"62.06.11.2006","name":"Tewang Tampang"}},{"type":"Feature","geometry":{"type":"Polygon","coordinates":[[[113.546,-1.8845],[113.5085,-1.885],[113.5075,-1.89],[113.5075,-1.8975],[113.4975,-1.93],[113.485,-1.943],[113.48,-1.9375],[113.461,-1.9585],[113.4555,-1.9575],[113.4515,-1.9565],[113.446,-1.955],[113.435,-1.9515],[113.4305,-1.9495],[113.427,-1.952],[113.4305,-1.9545],[113.431,-1.961],[113.4255,-1.9885],[113.4265,-1.9885],[113.4465,-1.9875],[113.4475,-1.9875],[113.4615,-1.979],[113.4735,-1.9655],[113.5825,-1.935],[113.573,-1.9215],[113.5635,-1.9165],[113.565,-1.9125],[113.5665,-1.908],[113.5645,-1.907],[113.557,-1.9035],[113.546,-1.8845]]]},"properties":{"code":"62.06.11.2007","name":"Luwuk Kanan"}},{"type":"Feature","geometry":{"type":"Polygon","coordinates":[[[113.4255,-1.9885],[113.431,-1.961],[113.4305,-1.9545],[113.427,-1.952],[113.425,-1.9635],[113.417,-1.97],[113.385,-1.9985],[113.386,-2.0005],[113.387,-2.0025],[113.3915,-2.004],[113.406,-2.007],[113.418,-1.998],[113.423,-1.988],[113.4255,-1.9885]]]},"properties":{"code":"62.06.11.2008","name":"Luwuk Kiri"}},{"type":"Feature","geometry":{"type":"Polygon","coordinates":[[[113.1335,-1.048],[113.061,-1.0305],[113.048,-1.0295],[113.0255,-0.912],[113.025,-0.938],[113.018,-0.972],[113.018,-1.025],[113.032,-1.0305],[113.0315,-1.038],[113.017,-1.051],[112.935,-1.052],[112.9305,-1.0425],[112.817,-1.0455],[112.8175,-1.054],[112.8355,-1.058],[112.8435,-1.0745],[112.9635,-1.134],[113.041,-1.108],[113.0465,-1.1075],[113.1725,-1.0565],[113.163,-1.057],[113.15,-1.0485],[113.1335,-1.048]]]},"properties":{"code":"62.06.12.2001","name":"Tumbang Baraoi"}},{"type":"Feature","geometry":{"type":"Polygon","coordinates":[[[113.0255,-0.912],[113.02,-0.907],[112.9165,-0.8255],[112.86,-0.8125],[112.8545,-0.808],[112.8325,-0.8125],[112.7745,-0.7935],[112.7715,-0.8],[112.7855,-0.8235],[112.784,-0.824],[112.783,-0.823],[112.7815,-0.8265],[112.7835,-0.8305],[112.785,-0.831],[112.7855,-0.8315],[112.7865,-0.835],[112.7885,-0.837],[112.7895,-0.8385],[112.792,-0.8425],[112.7935,-0.8475],[112.7955,-0.859],[112.7955,-0.8605],[112.7935,-0.8745],[112.793,-0.877],[112.7915,-0.88],[112.7915,-0.8815],[112.7915,-0.8825],[112.7915,-0.884],[112.793,-0.8885],[112.793,-0.89],[112.7925,-0.8915],[112.791,-0.8955],[112.7905,-0.897],[112.789,-0.8985],[112.7865,-0.901],[112.7835,-0.9035],[112.7765,-0.909],[112.774,-0.91],[112.772,-0.9135],[112.77,-0.9175],[112.7685,-0.9185],[112.7595,-0.9255],[112.7585,-0.927],[112.759,-0.93],[112.76,-0.9325],[112.758,-0.9355],[112.76,-0.9385],[112.762,-0.9445],[112.7625,-0.9455],[112.7905,-0.952],[112.791,-0.9545],[112.7975,-0.9655],[112.7945,-0.9835],[112.804,-1.0145],[112.8005,-1.029],[112.817,-1.038],[112.8175,-1.0445],[112.817,-1.0455],[112.9305,-1.0425],[112.935,-1.052],[113.017,-1.051],[113.0315,-1.038],[113.032,-1.0305],[113.018,-1.025],[113.018,-0.972],[113.025,-0.938],[113.0255,-0.912]]]},"properties":{"code":"62.06.12.2002","name":"Tumbang Jala"}},{"type":"Feature","geometry":{"type":"Polygon","coordinates":[[[113.035,-0.7855],[112.8915,-0.7485],[112.848,-0.7445],[112.835,-0.7485],[112.82,-0.748],[112.822,-0.78],[112.807,-0.7645],[112.8015,-0.7625],[112.7625,-0.7615],[112.7565,-0.764],[112.7575,-0.7645],[112.772,-0.774],[112.7755,-0.7895],[112.7745,-0.7935],[112.8325,-0.8125],[112.8545,-0.808],[112.86,-0.8125],[112.9165,-0.8255],[113.02,-0.907],[113.0255,-0.912],[113.031,-0.8385],[113.027,-0.83],[113.033,-0.8215],[113.027,-0.809],[113.033,-0.786],[113.035,-0.7855]]]},"properties":{"code":"62.06.12.2003","name":"Batu Badak"}},{"type":"Feature","geometry":{"type":"Polygon","coordinates":[[[113.214,-0.932],[113.181,-0.94],[113.1285,-0.953],[113.126,-0.954],[113.1045,-0.95],[113.0955,-0.9525],[113.066,-0.947],[113.0255,-0.912],[113.048,-1.0295],[113.061,-1.0305],[113.1335,-1.048],[113.1335,-1.038],[113.1505,-1.0175],[113.1885,-0.984],[113.1995,-0.968],[113.2025,-0.9635],[113.202,-0.9515],[113.214,-0.932]]]},"properties":{"code":"62.06.12.2004","name":"Batu Tukan"}},{"type":"Feature","geometry":{"type":"Polygon","coordinates":[[[112.9915,-0.5005],[112.9915,-0.5],[112.992,-0.4945],[112.9915,-0.493],[112.99,-0.494],[112.9865,-0.4955],[112.9805,-0.5075],[112.979,-0.509],[112.955,-0.5135],[112.9345,-0.522],[112.922,-0.523],[112.92,-0.535],[112.9015,-0.5425],[112.8895,-0.5385],[112.866,-0.548],[112.836,-0.569],[112.8325,-0.5775],[112.805,-0.5805],[112.7875,-0.586],[112.7775,-0.574],[112.7545,-0.574],[112.752,-0.574],[112.75,-0.5735],[112.746,-0.572],[112.7445,-0.572],[112.7405,-0.577],[112.738,-0.5795],[112.729,-0.592],[112.7295,-0.594],[112.731,-0.5975],[112.7325,-0.5995],[112.7325,-0.6005],[112.731,-0.623],[112.7345,-0.6305],[112.7335,-0.6305],[112.728,-0.629],[112.725,-0.6285],[112.7045,-0.62],[112.7035,-0.6205],[112.7005,-0.6275],[112.7015,-0.6315],[112.7025,-0.636],[112.7025,-0.637],[112.704,-0.638],[112.7065,-0.6405],[112.713,-0.6495],[112.7205,-0.655],[112.722,-0.657],[112.726,-0.6865],[112.7385,-0.6965],[112.756,-0.698],[112.7605,-0.7075],[112.7605,-0.7285],[112.7545,-0.741],[112.744,-0.7485],[112.744,-0.7565],[112.762,-0.7565],[112.78,-0.7515],[112.7945,-0.7425],[112.789,-0.699],[112.792,-0.677],[112.796,-0.6655],[112.796,-0.628],[112.814,-0.627],[112.831,-0.6205],[112.8455,-0.608],[112.902,-0.5885],[112.919,-0.5705],[112.926,-0.558],[112.9415,-0.5505],[112.9555,-0.551],[112.967,-0.5385],[112.9915,-0.5005]]]},"properties":{"code":"62.06.12.2005","name":"Tumbang Tangoi"}},{"type":"Feature","geometry":{"type":"Polygon","coordinates":[[[113.035,-0.7855],[113.0355,-0.785],[113.0355,-0.784],[113.036,-0.7835],[113.0385,-0.78],[113.041,-0.777],[113.0345,-0.7705],[113.032,-0.77],[113.0305,-0.7545],[113.0405,-0.732],[113.038,-0.7295],[113.0235,-0.725],[113.02,-0.7235],[113.016,-0.7225],[113.011,-0.7195],[113.0045,-0.727],[112.9995,-0.7275],[112.9975,-0.726],[112.9935,-0.7085],[112.976,-0.702],[112.9735,-0.694],[112.9635,-0.691],[112.961,-0.6715],[112.9445,-0.6605],[112.885,-0.6465],[112.796,-0.628],[112.796,-0.6655],[112.792,-0.677],[112.789,-0.699],[112.7945,-0.7425],[112.78,-0.7515],[112.762,-0.7565],[112.744,-0.7565],[112.7455,-0.7595],[112.7565,-0.764],[112.7625,-0.7615],[112.8015,-0.7625],[112.807,-0.7645],[112.822,-0.78],[112.82,-0.748],[112.835,-0.7485],[112.848,-0.7445],[112.8915,-0.7485],[113.035,-0.7855]]]},"properties":{"code":"62.06.12.2006","name":"Nusa Kutau"}},{"type":"Feature","geometry":{"type":"Polygon","coordinates":[[[113.211,-0.506],[113.209,-0.505],[113.192,-0.5035],[113.1805,-0.49],[113.1695,-0.489],[113.164,-0.477],[113.1495,-0.476],[113.1425,-0.4715],[113.1285,-0.4555],[113.1255,-0.4575],[113.124,-0.4595],[113.1235,-0.4645],[113.121,-0.4675],[113.1195,-0.4685],[113.1165,-0.472],[113.114,-0.474],[113.0995,-0.4825],[113.098,-0.484],[113.097,-0.4875],[113.0945,-0.491],[113.0905,-0.4895],[113.0545,-0.514],[113.03,-0.5025],[113.001,-0.5035],[112.992,-0.501],[112.9915,-0.5005],[112.967,-0.5385],[112.9555,-0.551],[112.9415,-0.5505],[112.926,-0.558],[112.919,-0.5705],[112.902,-0.5885],[112.8455,-0.608],[112.831,-0.6205],[112.814,-0.627],[112.796,-0.628],[112.885,-0.6465],[112.9445,-0.6605],[112.961,-0.6715],[112.9635,-0.691],[112.9735,-0.694],[112.976,-0.702],[112.9935,-0.7085],[112.9975,-0.726],[112.9995,-0.7275],[113.0045,-0.727],[113.011,-0.7195],[113.016,-0.7225],[113.02,-0.7235],[113.0235,-0.725],[113.038,-0.7295],[113.0405,-0.732],[113.0305,-0.7545],[113.032,-0.77],[113.0345,-0.7705],[113.041,-0.777],[113.0385,-0.78],[113.036,-0.7835],[113.0355,-0.784],[113.0355,-0.785],[113.0345,-0.7855],[113.033,-0.786],[113.027,-0.809],[113.033,-0.8215],[113.027,-0.83],[113.031,-0.8385],[113.0255,-0.912],[113.066,-0.947],[113.0955,-0.9525],[113.1045,-0.95],[113.126,-0.954],[113.1285,-0.953],[113.181,-0.94],[113.214,-0.932],[113.2195,-0.933],[113.221,-0.932],[113.223,-0.929],[113.2255,-0.928],[113.228,-0.928],[113.229,-0.9275],[113.2195,-0.893],[113.234,-0.8625],[113.213,-0.8525],[113.2005,-0.8355],[113.194,-0.819],[113.19,-0.8025],[113.198,-0.784],[113.1925,-0.7685],[113.194,-0.759],[113.191,-0.7545],[113.1845,-0.744],[113.19,-0.735],[113.2055,-0.7275],[113.224,-0.7045],[113.2275,-0.6855],[113.2205,-0.66],[113.2005,-0.6425],[113.1925,-0.628],[113.1925,-0.6135],[113.1725,-0.602],[113.1755,-0.591],[113.167,-0.583],[113.1575,-0.559],[113.1605,-0.5375],[113.1845,-0.5265],[113.194,-0.508],[113.211,-0.506]]]},"properties":{"code":"62.06.12.2007","name":"Tumbang Habangoi"}},{"type":"Feature","geometry":{"type":"Polygon","coordinates":[[[112.3465,-1.0295],[112.2825,-1.029],[112.11,-1.029],[112.1115,-1.0295],[112.117,-1.045],[112.1515,-1.036],[112.156,-1.038],[112.2955,-1.038],[112.345,-1.038],[112.3465,-1.0315],[112.3465,-1.0295]]]},"properties":{"code":"62.06.13.2001","name":"Tumbang Gaei"}},{"type":"Feature","geometry":{"type":"Polygon","coordinates":[[[112.3195,-1.0885],[112.198,-1.0885],[112.224,-1.096],[112.2555,-1.1005],[112.2735,-1.11],[112.278,-1.116],[112.3235,-1.125],[112.3615,-1.128],[112.367,-1.1195],[112.3645,-1.11],[112.3605,-1.0895],[112.36,-1.0885],[112.3195,-1.0885]]]},"properties":{"code":"62.06.13.2002","name":"Tumbang Kataei"}},{"type":"Feature","geometry":{"type":"Polygon","coordinates":[[[112.2955,-0.8835],[112.268,-0.884],[112.223,-0.866],[112.1725,-0.8665],[112.1675,-0.8705],[112.149,-0.884],[112.147,-0.892],[112.131,-0.9005],[112.12,-0.919],[112.315,-0.919],[112.315,-0.9145],[112.3015,-0.9015],[112.2995,-0.8995],[112.2955,-0.8835]]]},"properties":{"code":"62.06.13.2003","name":"Tumbang Karuei"}},{"type":"Feature","geometry":{"type":"Polygon","coordinates":[[[112.345,-1.038],[112.2955,-1.038],[112.2945,-1.049],[112.2935,-1.0565],[112.301,-1.062],[112.3005,-1.062],[112.3105,-1.072],[112.315,-1.0775],[112.316,-1.086],[112.3185,-1.0875],[112.3195,-1.0885],[112.36,-1.0885],[112.358,-1.081],[112.356,-1.0755],[112.34,-1.06],[112.344,-1.0435],[112.345,-1.038]]]},"properties":{"code":"62.06.13.2004","name":"Tumbang Dahuei"}},{"type":"Feature","geometry":{"type":"Polygon","coordinates":[[[112.3195,-1.0885],[112.3185,-1.0875],[112.316,-1.086],[112.315,-1.0775],[112.3105,-1.072],[112.3005,-1.062],[112.159,-1.0625],[112.159,-1.076],[112.162,-1.087],[112.1815,-1.0875],[112.198,-1.0885],[112.3195,-1.0885]]]},"properties":{"code":"62.06.13.2005","name":"Rantau Pandan"}},{"type":"Feature","geometry":{"type":"Polygon","coordinates":[[[112.347,-1.0075],[112.34,-1.007],[112.339,-1.005],[112.282,-1.0055],[112.107,-1.0055],[112.1065,-1.0065],[112.1055,-1.0125],[112.108,-1.0275],[112.11,-1.029],[112.2825,-1.029],[112.3465,-1.0295],[112.348,-1.02],[112.347,-1.0075]]]},"properties":{"code":"62.06.13.2006","name":"Rangan Rondan"}},{"type":"Feature","geometry":{"type":"Polygon","coordinates":[[[112.341,-0.987],[112.335,-0.9805],[112.2715,-0.981],[112.112,-0.981],[112.1125,-0.998],[112.107,-1.0055],[112.282,-1.0055],[112.339,-1.005],[112.337,-1.001],[112.3425,-0.989],[112.341,-0.987]]]},"properties":{"code":"62.06.13.2007","name":"Rangan Bahekang"}},{"type":"Feature","geometry":{"type":"Polygon","coordinates":[[[112.315,-0.919],[112.12,-0.919],[112.115,-0.9265],[112.1135,-0.942],[112.116,-0.949],[112.116,-0.972],[112.112,-0.981],[112.2715,-0.981],[112.335,-0.9805],[112.333,-0.978],[112.327,-0.9695],[112.318,-0.947],[112.3165,-0.9415],[112.315,-0.925],[112.315,-0.919]]]},"properties":{"code":"62.06.13.2008","name":"Tumbang Kajamei"}},{"type":"Feature","geometry":{"type":"Polygon","coordinates":[[[112.355,-0.7145],[112.3545,-0.7145],[112.354,-0.7135],[112.3525,-0.7105],[112.338,-0.711],[112.3135,-0.7225],[112.311,-0.7215],[112.2945,-0.697],[112.2845,-0.668],[112.2755,-0.651],[112.2615,-0.6335],[112.2595,-0.6315],[112.2525,-0.6285],[112.2515,-0.6275],[112.25,-0.6275],[112.231,-0.613],[112.2265,-0.6145],[112.223,-0.614],[112.2165,-0.614],[112.214,-0.613],[112.212,-0.614],[112.211,-0.615],[112.2095,-0.615],[112.2085,-0.6175],[112.2075,-0.6295],[112.182,-0.638],[112.176,-0.6435],[112.1735,-0.6645],[112.1745,-0.684],[112.1635,-0.688],[112.167,-0.692],[112.17,-0.6985],[112.17,-0.7005],[112.169,-0.704],[112.1775,-0.7185],[112.1755,-0.7255],[112.189,-0.743],[112.194,-0.7655],[112.19,-0.7755],[112.168,-0.793],[112.165,-0.8],[112.333,-0.8005],[112.3425,-0.7765],[112.3465,-0.7435],[112.355,-0.7145]]]},"properties":{"code":"62.06.13.2009","name":"Tumbang Kaburai"}},{"type":"Feature","geometry":{"type":"Polygon","coordinates":[[[112.333,-0.8005],[112.165,-0.8],[112.1635,-0.8045],[112.16,-0.813],[112.1465,-0.83],[112.154,-0.8465],[112.1565,-0.85],[112.1725,-0.8665],[112.223,-0.866],[112.268,-0.884],[112.2955,-0.8835],[112.29,-0.8595],[112.2865,-0.8495],[112.294,-0.823],[112.3085,-0.8195],[112.33,-0.807],[112.333,-0.8005]]]},"properties":{"code":"62.06.13.2010","name":"Tanjung Batik"}},{"type":"Feature","geometry":{"type":"Polygon","coordinates":[[[112.3005,-1.062],[112.301,-1.062],[112.2935,-1.0565],[112.2945,-1.049],[112.2955,-1.038],[112.156,-1.038],[112.158,-1.039],[112.159,-1.0605],[112.159,-1.0625],[112.3005,-1.062]]]},"properties":{"code":"62.06.13.2011","name":"Penda Nange"}}]}