{"type":"FeatureCollection","features":[{"type":"Feature","geometry":{"type":"Polygon","coordinates":[[[115.2595,-2.3415],[115.252,-2.335],[115.228,-2.322],[115.1395,-2.287],[115.132,-2.292],[115.1255,-2.2945],[115.1315,-2.294],[115.154,-2.303],[115.181,-2.3195],[115.214,-2.34],[115.2385,-2.349],[115.256,-2.3535],[115.2595,-2.3415]]]},"properties":{"code":"63.09.01.2001","name":"Hapalah","latitude":-2.3225687843386877,"longitude":115.20392577359213}},{"type":"Feature","geometry":{"type":"Polygon","coordinates":[[[115.2735,-2.3235],[115.1615,-2.272],[115.1505,-2.2795],[115.235,-2.315],[115.262,-2.3325],[115.2595,-2.3415],[115.271,-2.338],[115.2735,-2.3235]]]},"properties":{"code":"63.09.01.2002","name":"Bangkiling","latitude":-2.3033056334328625,"longitude":115.216766082939}},{"type":"Feature","geometry":{"type":"Polygon","coordinates":[[[115.28,-2.3405],[115.271,-2.338],[115.2785,-2.349],[115.2745,-2.357],[115.282,-2.3595],[115.283,-2.3595],[115.286,-2.347],[115.28,-2.3405]]]},"properties":{"code":"63.09.01.2003","name":"Sungai Durian","latitude":-2.348638089984634,"longitude":115.27880905578115}},{"type":"Feature","geometry":{"type":"Polygon","coordinates":[[[115.301,-2.341],[115.297,-2.337],[115.282,-2.337],[115.28,-2.3405],[115.286,-2.347],[115.301,-2.341]]]},"properties":{"code":"63.09.01.2004","name":"Pematang","latitude":-2.3410213401655637,"longitude":115.29056818188496}},{"type":"Feature","geometry":{"type":"Polygon","coordinates":[[[115.2975,-2.3225],[115.2845,-2.323],[115.285,-2.3245],[115.282,-2.337],[115.297,-2.337],[115.2975,-2.3225]]]},"properties":{"code":"63.09.01.2005","name":"Hariang","latitude":-2.328604877763612,"longitude":115.2901374093267}},{"type":"Feature","geometry":{"type":"Polygon","coordinates":[[[115.2655,-2.308],[115.2455,-2.3065],[115.1625,-2.271],[115.1615,-2.272],[115.2735,-2.3235],[115.285,-2.3245],[115.2845,-2.323],[115.2795,-2.3185],[115.2655,-2.308]]]},"properties":{"code":"63.09.01.2006","name":"Banua Lawas","latitude":-2.3052474991604974,"longitude":115.24233593920388}},{"type":"Feature","geometry":{"type":"Polygon","coordinates":[[[115.268,-2.2855],[115.261,-2.2895],[115.176,-2.266],[115.175,-2.2625],[115.1625,-2.271],[115.2455,-2.3065],[115.2655,-2.308],[115.273,-2.2895],[115.268,-2.2855]]]},"properties":{"code":"63.09.01.2007","name":"Habau","latitude":-2.287711744575478,"longitude":115.22487859746393}},{"type":"Feature","geometry":{"type":"Polygon","coordinates":[[[115.2855,-2.2945],[115.2845,-2.287],[115.2775,-2.2875],[115.273,-2.2895],[115.2655,-2.308],[115.2795,-2.3185],[115.294,-2.3085],[115.2855,-2.3075],[115.2855,-2.2945]]]},"properties":{"code":"63.09.01.2008","name":"Banua Rantau","latitude":-2.3031212398589975,"longitude":115.27939382826997}},{"type":"Feature","geometry":{"type":"Polygon","coordinates":[[[115.2825,-2.281],[115.2785,-2.2685],[115.2645,-2.2725],[115.268,-2.2855],[115.273,-2.2895],[115.2775,-2.2875],[115.285,-2.287],[115.2825,-2.281]]]},"properties":{"code":"63.09.01.2009","name":"Purai","latitude":-2.279336079951303,"longitude":115.274332326991}},{"type":"Feature","geometry":{"type":"Polygon","coordinates":[[[115.2745,-2.357],[115.2785,-2.349],[115.271,-2.338],[115.2595,-2.3415],[115.256,-2.3535],[115.269,-2.355],[115.2745,-2.357]]]},"properties":{"code":"63.09.01.2010","name":"Batang Banyu","latitude":-2.3485256549468043,"longitude":115.26767616503295}},{"type":"Feature","geometry":{"type":"Polygon","coordinates":[[[115.2645,-2.2725],[115.2215,-2.2605],[115.207,-2.241],[115.203,-2.244],[115.188,-2.254],[115.175,-2.2625],[115.176,-2.266],[115.261,-2.2895],[115.268,-2.2855],[115.2645,-2.2725]]]},"properties":{"code":"63.09.01.2011","name":"Habau Hulu","latitude":-2.267901859128246,"longitude":115.22137197550785}},{"type":"Feature","geometry":{"type":"Polygon","coordinates":[[[115.285,-2.3245],[115.2735,-2.3235],[115.271,-2.338],[115.28,-2.3405],[115.282,-2.337],[115.285,-2.3245]]]},"properties":{"code":"63.09.01.2012","name":"Bungin","latitude":-2.3315305054731366,"longitude":115.27642025090728}},{"type":"Feature","geometry":{"type":"Polygon","coordinates":[[[115.2595,-2.3415],[115.262,-2.3325],[115.235,-2.315],[115.1505,-2.2795],[115.1395,-2.287],[115.228,-2.322],[115.252,-2.335],[115.2595,-2.3415]]]},"properties":{"code":"63.09.01.2013","name":"Bangkiling Raya","latitude":-2.307523131874475,"longitude":115.20246732221636}},{"type":"Feature","geometry":{"type":"Polygon","coordinates":[[[115.25,-2.234],[115.232,-2.234],[115.227,-2.227],[115.2175,-2.2335],[115.207,-2.241],[115.2215,-2.2605],[115.2645,-2.2725],[115.2785,-2.2685],[115.278,-2.265],[115.2755,-2.263],[115.274,-2.262],[115.2715,-2.261],[115.2585,-2.241],[115.25,-2.234]]]},"properties":{"code":"63.09.01.2014","name":"Talan","latitude":-2.2510507735965612,"longitude":115.24128674766929}},{"type":"Feature","geometry":{"type":"Polygon","coordinates":[[[115.302,-2.3215],[115.294,-2.3085],[115.2795,-2.3185],[115.2845,-2.323],[115.2975,-2.3225],[115.302,-2.3215]]]},"properties":{"code":"63.09.01.2015","name":"Sungai Anyar","latitude":-2.317147960957207,"longitude":115.29092093964638}},{"type":"Feature","geometry":{"type":"Polygon","coordinates":[[[115.301,-2.274],[115.2985,-2.2695],[115.29,-2.276],[115.288,-2.278],[115.297,-2.282],[115.301,-2.274]]]},"properties":{"code":"63.09.02.1001","name":"Pulau","latitude":-2.2758527503718082,"longitude":115.2960816699341}},{"type":"Feature","geometry":{"type":"Polygon","coordinates":[[[115.3215,-2.285],[115.3145,-2.287],[115.297,-2.282],[115.294,-2.294],[115.295,-2.2965],[115.2935,-2.303],[115.2925,-2.304],[115.294,-2.306],[115.2945,-2.3065],[115.2955,-2.3055],[115.297,-2.306],[115.31,-2.3025],[115.3215,-2.285]]]},"properties":{"code":"63.09.02.2002","name":"Ampukung","latitude":-2.294305668236673,"longitude":115.30365644043559}},{"type":"Feature","geometry":{"type":"Polygon","coordinates":[[[115.2945,-2.295],[115.2885,-2.294],[115.2855,-2.2945],[115.2855,-2.3075],[115.294,-2.3085],[115.294,-2.3065],[115.2945,-2.3065],[115.294,-2.306],[115.2925,-2.304],[115.2935,-2.303],[115.295,-2.2965],[115.2945,-2.295]]]},"properties":{"code":"63.09.02.2003","name":"Telaga Itar","latitude":-2.3012021315527873,"longitude":115.28963217849416}},{"type":"Feature","geometry":{"type":"Polygon","coordinates":[[[115.321,-2.2455],[115.3085,-2.2395],[115.3035,-2.2515],[115.3135,-2.259],[115.317,-2.251],[115.3185,-2.2495],[115.3205,-2.2465],[115.321,-2.2455]]]},"properties":{"code":"63.09.02.2004","name":"Sungai Buluh","latitude":-2.248803010009209,"longitude":115.31107588475611}},{"type":"Feature","geometry":{"type":"Polygon","coordinates":[[[115.3035,-2.229],[115.3015,-2.22],[115.2965,-2.2165],[115.2905,-2.224],[115.2815,-2.222],[115.281,-2.221],[115.281,-2.235],[115.286,-2.2515],[115.293,-2.2555],[115.2995,-2.2575],[115.3035,-2.2515],[115.3085,-2.2395],[115.3035,-2.229]]]},"properties":{"code":"63.09.02.2005","name":"Binturu","latitude":-2.237430607936867,"longitude":115.29428869734109}},{"type":"Feature","geometry":{"type":"Polygon","coordinates":[[[115.297,-2.282],[115.288,-2.278],[115.2825,-2.281],[115.285,-2.287],[115.2845,-2.287],[115.2855,-2.2945],[115.2885,-2.294],[115.2945,-2.295],[115.294,-2.294],[115.297,-2.282]]]},"properties":{"code":"63.09.02.2006","name":"Pudak Setegal","latitude":-2.286428391782339,"longitude":115.28993965557228}},{"type":"Feature","geometry":{"type":"Polygon","coordinates":[[[115.2455,-2.2005],[115.245,-2.192],[115.2415,-2.1985],[115.2475,-2.212],[115.227,-2.227],[115.232,-2.234],[115.25,-2.234],[115.2645,-2.2265],[115.26,-2.2175],[115.2575,-2.2145],[115.256,-2.211],[115.253,-2.2075],[115.2455,-2.2005]]]},"properties":{"code":"63.09.02.2007","name":"Pasar Panas","latitude":-2.222020969327421,"longitude":115.24631031980141}},{"type":"Feature","geometry":{"type":"Polygon","coordinates":[[[115.328,-2.257],[115.317,-2.251],[115.3135,-2.259],[115.3105,-2.264],[115.307,-2.274],[115.304,-2.275],[115.301,-2.274],[115.297,-2.282],[115.3145,-2.287],[115.3215,-2.285],[115.3245,-2.2685],[115.3275,-2.264],[115.328,-2.257]]]},"properties":{"code":"63.09.02.2008","name":"Masintan","latitude":-2.2713570452300202,"longitude":115.3153458582818}},{"type":"Feature","geometry":{"type":"Polygon","coordinates":[[[115.2995,-2.2575],[115.293,-2.2555],[115.284,-2.265],[115.29,-2.276],[115.2985,-2.2695],[115.2995,-2.2575]]]},"properties":{"code":"63.09.02.2009","name":"Takulat","latitude":-2.265223591944277,"longitude":115.29254232844416}},{"type":"Feature","geometry":{"type":"Polygon","coordinates":[[[115.3135,-2.259],[115.3035,-2.2515],[115.2995,-2.2575],[115.2985,-2.2695],[115.301,-2.274],[115.304,-2.275],[115.307,-2.274],[115.3105,-2.264],[115.3135,-2.259]]]},"properties":{"code":"63.09.02.2010","name":"Paliat","latitude":-2.2641918208688456,"longitude":115.30539771969602}},{"type":"Feature","geometry":{"type":"Polygon","coordinates":[[[115.281,-2.221],[115.2715,-2.2185],[115.2645,-2.2265],[115.25,-2.234],[115.2585,-2.241],[115.2715,-2.261],[115.273,-2.2615],[115.286,-2.2515],[115.281,-2.235],[115.281,-2.221]]]},"properties":{"code":"63.09.02.2011","name":"Karangan Putih","latitude":-2.239505746199143,"longitude":115.2707575342494}},{"type":"Feature","geometry":{"type":"Polygon","coordinates":[[[115.293,-2.2555],[115.286,-2.2515],[115.273,-2.2615],[115.274,-2.262],[115.2755,-2.263],[115.278,-2.265],[115.2785,-2.2685],[115.2825,-2.281],[115.288,-2.278],[115.29,-2.276],[115.284,-2.265],[115.293,-2.2555]]]},"properties":{"code":"63.09.02.2012","name":"Bahungin","latitude":-2.264473958716383,"longitude":115.28367396102846}},{"type":"Feature","geometry":{"type":"Polygon","coordinates":[[[115.336,-2.209],[115.331,-2.2055],[115.329,-2.207],[115.3285,-2.208],[115.3285,-2.21],[115.329,-2.215],[115.3265,-2.2155],[115.3265,-2.216],[115.3265,-2.217],[115.3295,-2.2175],[115.329,-2.2205],[115.338,-2.229],[115.3435,-2.2165],[115.343,-2.2145],[115.3395,-2.209],[115.336,-2.2095],[115.336,-2.209]]]},"properties":{"code":"63.09.03.2001","name":"Murung Baru","latitude":-2.216269838311732,"longitude":115.33565468243084}},{"type":"Feature","geometry":{"type":"Polygon","coordinates":[[[115.371,-2.234],[115.354,-2.2045],[115.343,-2.2145],[115.3435,-2.2165],[115.364,-2.2365],[115.3695,-2.236],[115.371,-2.234]]]},"properties":{"code":"63.09.03.2002","name":"Lukbayur","latitude":-2.2211680907952305,"longitude":115.35660944596496}},{"type":"Feature","geometry":{"type":"Polygon","coordinates":[[[115.3815,-2.259],[115.3695,-2.236],[115.364,-2.2365],[115.362,-2.245],[115.3505,-2.246],[115.3535,-2.2585],[115.3505,-2.278],[115.347,-2.2795],[115.3575,-2.298],[115.3595,-2.2955],[115.363,-2.2965],[115.3825,-2.274],[115.3845,-2.2665],[115.3815,-2.259]]]},"properties":{"code":"63.09.03.2003","name":"Walangkir","latitude":-2.2674281159568803,"longitude":115.36548928382929}},{"type":"Feature","geometry":{"type":"Polygon","coordinates":[[[115.432,-2.2345],[115.4165,-2.224],[115.399,-2.224],[115.399,-2.2365],[115.3915,-2.253],[115.3815,-2.259],[115.3845,-2.2665],[115.4125,-2.259],[115.4165,-2.268],[115.4215,-2.2585],[115.436,-2.2595],[115.44,-2.27],[115.454,-2.246],[115.432,-2.2345]]]},"properties":{"code":"63.09.03.2004","name":"Warukin","latitude":-2.2467203317502,"longitude":115.41688966443868}},{"type":"Feature","geometry":{"type":"Polygon","coordinates":[[[115.436,-2.218],[115.417,-2.196],[115.4165,-2.2085],[115.4065,-2.209],[115.394,-2.217],[115.3895,-2.2185],[115.3865,-2.2205],[115.3835,-2.2205],[115.382,-2.2305],[115.371,-2.234],[115.3695,-2.236],[115.3815,-2.259],[115.3915,-2.253],[115.399,-2.2365],[115.399,-2.224],[115.4165,-2.224],[115.432,-2.2345],[115.436,-2.218]]]},"properties":{"code":"63.09.03.2005","name":"Barimbun","latitude":-2.2272835386100973,"longitude":115.402852869049}},{"type":"Feature","geometry":{"type":"Polygon","coordinates":[[[115.3835,-2.2205],[115.3645,-2.199],[115.354,-2.2045],[115.371,-2.234],[115.382,-2.2305],[115.3835,-2.2205]]]},"properties":{"code":"63.09.03.2006","name":"Mangkusip","latitude":-2.2168293661267295,"longitude":115.37010281783614}},{"type":"Feature","geometry":{"type":"Polygon","coordinates":[[[115.3565,-2.193],[115.355,-2.1925],[115.3485,-2.197],[115.3455,-2.1985],[115.3425,-2.196],[115.341,-2.1955],[115.3405,-2.196],[115.341,-2.1995],[115.341,-2.201],[115.3405,-2.202],[115.336,-2.209],[115.336,-2.2095],[115.3395,-2.209],[115.343,-2.2145],[115.354,-2.2045],[115.3645,-2.199],[115.361,-2.2],[115.3565,-2.193]]]},"properties":{"code":"63.09.03.2007","name":"Pamarangan Kanan","latitude":-2.201825022796426,"longitude":115.34910551651079}},{"type":"Feature","geometry":{"type":"Polygon","coordinates":[[[115.4165,-2.268],[115.4125,-2.259],[115.3845,-2.2665],[115.3825,-2.274],[115.363,-2.2965],[115.3695,-2.2985],[115.3945,-2.2955],[115.3975,-2.2955],[115.4055,-2.298],[115.4175,-2.289],[115.4165,-2.268]]]},"properties":{"code":"63.09.03.2008","name":"Pulau Ku'u","latitude":-2.2817252933722485,"longitude":115.39547918669068}},{"type":"Feature","geometry":{"type":"Polygon","coordinates":[[[115.4165,-2.2085],[115.4115,-2.2025],[115.392,-2.201],[115.3795,-2.196],[115.373,-2.1915],[115.3645,-2.199],[115.3835,-2.2205],[115.3865,-2.2205],[115.3895,-2.2185],[115.394,-2.217],[115.4065,-2.209],[115.4165,-2.2085]]]},"properties":{"code":"63.09.03.2009","name":"Tanta","latitude":-2.2061841434911025,"longitude":115.38795078561071}},{"type":"Feature","geometry":{"type":"Polygon","coordinates":[[[115.4905,-2.214],[115.471,-2.196],[115.436,-2.218],[115.432,-2.2345],[115.454,-2.246],[115.44,-2.27],[115.44,-2.2715],[115.442,-2.27],[115.449,-2.2715],[115.4625,-2.2675],[115.4795,-2.251],[115.475,-2.2425],[115.484,-2.2355],[115.4885,-2.22],[115.4905,-2.214]]]},"properties":{"code":"63.09.03.2010","name":"Padang Panjang","latitude":-2.2324723302329494,"longitude":115.46197646557701}},{"type":"Feature","geometry":{"type":"Polygon","coordinates":[[[115.376,-2.181],[115.374,-2.173],[115.371,-2.1725],[115.3705,-2.176],[115.3675,-2.1765],[115.367,-2.1765],[115.366,-2.178],[115.3625,-2.1835],[115.3635,-2.1905],[115.3635,-2.192],[115.361,-2.192],[115.3575,-2.194],[115.3565,-2.193],[115.361,-2.2],[115.3645,-2.199],[115.373,-2.1915],[115.373,-2.1905],[115.3735,-2.188],[115.376,-2.181]]]},"properties":{"code":"63.09.03.2011","name":"Puain Kanan","latitude":-2.1865678767830627,"longitude":115.36754309173428}},{"type":"Feature","geometry":{"type":"Polygon","coordinates":[[[115.364,-2.2365],[115.3435,-2.2165],[115.338,-2.229],[115.3455,-2.2445],[115.3505,-2.246],[115.362,-2.245],[115.364,-2.2365]]]},"properties":{"code":"63.09.03.2012","name":"Padangin","latitude":-2.233730249471856,"longitude":115.35096858482555}},{"type":"Feature","geometry":{"type":"Polygon","coordinates":[[[115.44,-2.27],[115.436,-2.2595],[115.4215,-2.2585],[115.4165,-2.268],[115.4175,-2.289],[115.4275,-2.2805],[115.4295,-2.28],[115.44,-2.2715],[115.44,-2.27]]]},"properties":{"code":"63.09.03.2013","name":"Tamiyang","latitude":-2.271129738160259,"longitude":115.42665033766744}},{"type":"Feature","geometry":{"type":"Polygon","coordinates":[[[115.3935,-2.1845],[115.387,-2.1835],[115.384,-2.1825],[115.376,-2.181],[115.3735,-2.188],[115.373,-2.1905],[115.3795,-2.196],[115.392,-2.201],[115.4115,-2.2025],[115.4165,-2.2085],[115.417,-2.196],[115.4165,-2.195],[115.4085,-2.1875],[115.408,-2.187],[115.403,-2.184],[115.399,-2.184],[115.3935,-2.1845]]]},"properties":{"code":"63.09.03.2014","name":"Tanta Hulu","latitude":-2.1929354645639223,"longitude":115.39562360240257}},{"type":"Feature","geometry":{"type":"Polygon","coordinates":[[[115.371,-2.122],[115.359,-2.1165],[115.344,-2.124],[115.3315,-2.1385],[115.337,-2.1545],[115.358,-2.163],[115.363,-2.1785],[115.366,-2.178],[115.367,-2.1765],[115.3675,-2.1765],[115.3705,-2.176],[115.371,-2.1725],[115.371,-2.172],[115.372,-2.17],[115.3725,-2.1675],[115.3735,-2.167],[115.375,-2.166],[115.376,-2.167],[115.377,-2.1655],[115.378,-2.154],[115.369,-2.1425],[115.3685,-2.142],[115.365,-2.128],[115.371,-2.122]]]},"properties":{"code":"63.09.04.1001","name":"Jangkung","latitude":-2.146479149892964,"longitude":115.3569614505143}},{"type":"Feature","geometry":{"type":"Polygon","coordinates":[[[115.389,-2.156],[115.378,-2.154],[115.377,-2.1655],[115.376,-2.167],[115.375,-2.17],[115.3775,-2.172],[115.3785,-2.172],[115.3795,-2.1705],[115.3805,-2.169],[115.3825,-2.1665],[115.386,-2.1695],[115.3865,-2.171],[115.387,-2.1715],[115.39,-2.1725],[115.3915,-2.1705],[115.3875,-2.1675],[115.386,-2.1635],[115.388,-2.1605],[115.389,-2.156]]]},"properties":{"code":"63.09.04.1002","name":"Tanjung","latitude":-2.163399307210718,"longitude":115.38350754367117}},{"type":"Feature","geometry":{"type":"Polygon","coordinates":[[[115.3915,-2.146],[115.371,-2.122],[115.365,-2.128],[115.3685,-2.142],[115.369,-2.1425],[115.378,-2.154],[115.389,-2.156],[115.3925,-2.153],[115.394,-2.152],[115.395,-2.1505],[115.3915,-2.146]]]},"properties":{"code":"63.09.04.1003","name":"Agung","latitude":-2.1408687034863227,"longitude":115.37838826770961}},{"type":"Feature","geometry":{"type":"Polygon","coordinates":[[[115.387,-2.119],[115.371,-2.1115],[115.371,-2.122],[115.3915,-2.146],[115.392,-2.145],[115.3935,-2.1435],[115.3945,-2.1425],[115.395,-2.1415],[115.393,-2.1395],[115.393,-2.1385],[115.3935,-2.1375],[115.3985,-2.137],[115.399,-2.136],[115.399,-2.1325],[115.397,-2.129],[115.3955,-2.1255],[115.387,-2.119]]]},"properties":{"code":"63.09.04.1004","name":"Hikun","latitude":-2.127893777570128,"longitude":115.3843273979072}},{"type":"Feature","geometry":{"type":"Polygon","coordinates":[[[115.3205,-2.2185],[115.3275,-2.2085],[115.3155,-2.2025],[115.3125,-2.186],[115.303,-2.1835],[115.3015,-2.183],[115.3015,-2.1835],[115.298,-2.2065],[115.2965,-2.2165],[115.3015,-2.22],[115.3035,-2.229],[115.3155,-2.227],[115.3205,-2.2185]]]},"properties":{"code":"63.09.04.2005","name":"Banyu Tajun","latitude":-2.2079431491742216,"longitude":115.30903720127637}},{"type":"Feature","geometry":{"type":"Polygon","coordinates":[[[115.3165,-2.131],[115.3135,-2.129],[115.312,-2.13],[115.3025,-2.1395],[115.3025,-2.141],[115.3135,-2.164],[115.319,-2.1845],[115.329,-2.185],[115.3315,-2.1955],[115.336,-2.1975],[115.3405,-2.2015],[115.341,-2.201],[115.341,-2.1995],[115.3405,-2.196],[115.341,-2.1955],[115.3425,-2.196],[115.3455,-2.1985],[115.3485,-2.197],[115.355,-2.1925],[115.3575,-2.194],[115.359,-2.193],[115.3435,-2.1775],[115.3165,-2.131]]]},"properties":{"code":"63.09.04.2006","name":"Pamarangan Kiwa","latitude":-2.1688456745398645,"longitude":115.32770497469606}},{"type":"Feature","geometry":{"type":"Polygon","coordinates":[[[115.3315,-2.1385],[115.324,-2.14],[115.3165,-2.131],[115.3435,-2.1775],[115.359,-2.193],[115.361,-2.192],[115.3635,-2.192],[115.3635,-2.1905],[115.3625,-2.1835],[115.363,-2.1785],[115.358,-2.163],[115.337,-2.1545],[115.3315,-2.1385]]]},"properties":{"code":"63.09.04.2007","name":"Puain Kiwa","latitude":-2.162758917940799,"longitude":115.34211813252078}},{"type":"Feature","geometry":{"type":"Polygon","coordinates":[[[115.403,-2.058],[115.4025,-2.058],[115.401,-2.056],[115.4005,-2.0545],[115.3865,-2.0465],[115.3865,-2.048],[115.3975,-2.0665],[115.417,-2.0875],[115.412,-2.1015],[115.4155,-2.1055],[115.41,-2.1115],[115.4115,-2.111],[115.413,-2.1105],[115.4135,-2.115],[115.414,-2.1155],[115.4155,-2.115],[115.4155,-2.111],[115.417,-2.111],[115.4185,-2.113],[115.434,-2.106],[115.4545,-2.0905],[115.4485,-2.0835],[115.4305,-2.0785],[115.403,-2.058]]]},"properties":{"code":"63.09.04.2008","name":"Juai","latitude":-2.0856809466753066,"longitude":115.42221008032676}},{"type":"Feature","geometry":{"type":"Polygon","coordinates":[[[115.4625,-2.051],[115.445,-2.0455],[115.4545,-2.0535],[115.462,-2.0525],[115.4625,-2.051]]]},"properties":{"code":"63.09.04.2009","name":"Mahe Seberang","latitude":-2.04897384649803,"longitude":115.45176589444168}},{"type":"Feature","geometry":{"type":"Polygon","coordinates":[[[115.384,-2.091],[115.3745,-2.096],[115.369,-2.085],[115.357,-2.072],[115.3575,-2.069],[115.3615,-2.063],[115.3615,-2.061],[115.359,-2.0555],[115.358,-2.058],[115.3555,-2.0665],[115.3525,-2.0835],[115.3525,-2.086],[115.3525,-2.088],[115.355,-2.0945],[115.336,-2.096],[115.332,-2.1],[115.319,-2.12],[115.3155,-2.127],[115.3135,-2.129],[115.3165,-2.131],[115.324,-2.14],[115.3315,-2.1385],[115.344,-2.124],[115.359,-2.1165],[115.371,-2.122],[115.371,-2.1115],[115.387,-2.119],[115.386,-2.1185],[115.387,-2.117],[115.3905,-2.1145],[115.3945,-2.1095],[115.384,-2.091]]]},"properties":{"code":"63.09.04.2010","name":"Kambitin","latitude":-2.107287285957516,"longitude":115.35287448844642}},{"type":"Feature","geometry":{"type":"Polygon","coordinates":[[[115.3865,-2.048],[115.3865,-2.049],[115.3735,-2.049],[115.3725,-2.048],[115.3905,-2.068],[115.3825,-2.0805],[115.384,-2.091],[115.3945,-2.1095],[115.3905,-2.1145],[115.387,-2.117],[115.386,-2.1185],[115.3955,-2.1255],[115.397,-2.129],[115.399,-2.1325],[115.399,-2.131],[115.407,-2.128],[115.4095,-2.127],[115.4105,-2.126],[115.4095,-2.1255],[115.413,-2.121],[115.4185,-2.119],[115.4185,-2.113],[115.417,-2.111],[115.4155,-2.111],[115.4155,-2.115],[115.414,-2.1155],[115.4135,-2.115],[115.413,-2.1105],[115.4115,-2.111],[115.41,-2.1115],[115.4155,-2.1055],[115.412,-2.1015],[115.417,-2.0875],[115.3975,-2.0665],[115.3865,-2.048]]]},"properties":{"code":"63.09.04.2011","name":"Wayau","latitude":-2.09153197306159,"longitude":115.3980591662545}},{"type":"Feature","geometry":{"type":"Polygon","coordinates":[[[115.413,-2.0365],[115.4055,-2.0195],[115.397,-2.013],[115.3965,-2.0235],[115.3955,-2.032],[115.407,-2.0585],[115.406,-2.059],[115.4045,-2.0575],[115.403,-2.058],[115.4305,-2.0785],[115.4485,-2.0835],[115.4545,-2.0905],[115.4615,-2.072],[115.4485,-2.064],[115.445,-2.0565],[115.4245,-2.057],[115.4145,-2.0475],[115.413,-2.0365]]]},"properties":{"code":"63.09.04.2012","name":"Garunggung","latitude":-2.0577586257697433,"longitude":115.42489981252969}},{"type":"Feature","geometry":{"type":"Polygon","coordinates":[[[115.445,-2.0455],[115.431,-2.032],[115.413,-2.0365],[115.4145,-2.0475],[115.4245,-2.057],[115.445,-2.0565],[115.4485,-2.064],[115.4615,-2.072],[115.4765,-2.0785],[115.4795,-2.0715],[115.462,-2.0525],[115.4545,-2.0535],[115.445,-2.0455]]]},"properties":{"code":"63.09.04.2013","name":"Kitang","latitude":-2.053779464159252,"longitude":115.44402583055829}},{"type":"Feature","geometry":{"type":"Polygon","coordinates":[[[115.3405,-2.2015],[115.336,-2.1975],[115.3315,-2.1955],[115.329,-2.185],[115.319,-2.1845],[115.3135,-2.164],[115.3025,-2.141],[115.302,-2.141],[115.2975,-2.143],[115.297,-2.144],[115.302,-2.163],[115.3015,-2.164],[115.298,-2.1695],[115.2985,-2.1725],[115.3,-2.1795],[115.3015,-2.1795],[115.3015,-2.1805],[115.302,-2.1805],[115.3015,-2.183],[115.301,-2.183],[115.3015,-2.183],[115.302,-2.183],[115.303,-2.1835],[115.3125,-2.186],[115.3155,-2.2025],[115.3275,-2.2085],[115.3205,-2.2185],[115.325,-2.22],[115.3275,-2.2215],[115.3295,-2.2175],[115.3265,-2.217],[115.3265,-2.216],[115.3265,-2.2155],[115.329,-2.215],[115.3285,-2.21],[115.3285,-2.208],[115.329,-2.207],[115.331,-2.2055],[115.336,-2.209],[115.3405,-2.202],[115.3405,-2.2015]]]},"properties":{"code":"63.09.04.2014","name":"Sungai Pimping","latitude":-2.1832965582989,"longitude":115.31588907706593}},{"type":"Feature","geometry":{"type":"Polygon","coordinates":[[[115.3725,-2.048],[115.372,-2.048],[115.3635,-2.044],[115.359,-2.0555],[115.3615,-2.061],[115.3615,-2.063],[115.3575,-2.069],[115.357,-2.072],[115.369,-2.085],[115.3745,-2.096],[115.384,-2.091],[115.3825,-2.0805],[115.3905,-2.068],[115.3725,-2.048]]]},"properties":{"code":"63.09.04.2015","name":"Kambitin Raya","latitude":-2.070465214961602,"longitude":115.37343251808795}},{"type":"Feature","geometry":{"type":"Polygon","coordinates":[[[115.665,-2.0035],[115.6635,-1.986],[115.6535,-1.98],[115.633,-1.9905],[115.623,-1.9815],[115.613,-1.9895],[115.605,-2.006],[115.6015,-2.031],[115.6015,-2.0415],[115.626,-2.025],[115.648,-2.0195],[115.665,-2.0035]]]},"properties":{"code":"63.09.05.2001","name":"Marindi","latitude":-2.005871905014267,"longitude":115.6317079063541}},{"type":"Feature","geometry":{"type":"Polygon","coordinates":[[[115.623,-1.9815],[115.6115,-1.9835],[115.59,-1.979],[115.58,-1.9835],[115.5775,-2.0035],[115.585,-2.013],[115.5905,-2.0295],[115.6015,-2.031],[115.605,-2.006],[115.613,-1.9895],[115.623,-1.9815]]]},"properties":{"code":"63.09.05.2002","name":"Wirang","latitude":-2.0011369586483436,"longitude":115.59515609656533}},{"type":"Feature","geometry":{"type":"Polygon","coordinates":[[[115.58,-1.9835],[115.58,-1.98],[115.57,-1.986],[115.5455,-1.9885],[115.539,-2.002],[115.55,-2.021],[115.5505,-2.0275],[115.55,-2.032],[115.5495,-2.0325],[115.5515,-2.0325],[115.553,-2.033],[115.557,-2.0355],[115.5755,-2.0305],[115.587,-2.0455],[115.589,-2.05],[115.6015,-2.0415],[115.6015,-2.031],[115.5905,-2.0295],[115.585,-2.013],[115.5775,-2.0035],[115.58,-1.9835]]]},"properties":{"code":"63.09.05.2003","name":"Bongkang","latitude":-2.013655190473979,"longitude":115.56802855049104}},{"type":"Feature","geometry":{"type":"MultiPolygon","coordinates":[[[[115.5495,-2.0325],[115.55,-2.032],[115.5505,-2.0275],[115.55,-2.021],[115.539,-2.002],[115.5455,-1.9885],[115.523,-2.01],[115.5155,-2.0135],[115.504,-2.0275],[115.5105,-2.038],[115.5245,-2.0515],[115.543,-2.054],[115.532,-2.0365],[115.549,-2.0325],[115.5495,-2.0325]]],[[[115.5085,-1.9075],[115.5075,-1.878],[115.5075,-1.862],[115.4965,-1.885],[115.5,-1.905],[115.488,-1.9135],[115.495,-1.936],[115.503,-1.9295],[115.521,-1.9255],[115.51,-1.907],[115.5085,-1.9075]]]]},"properties":{"code":"63.09.05.2004","name":"Nawin","latitude":-1.9790983917539187,"longitude":115.51914262226435}},{"type":"Feature","geometry":{"type":"Polygon","coordinates":[[[115.5155,-2.0135],[115.491,-1.995],[115.485,-2],[115.488,-2.0155],[115.495,-2.029],[115.5105,-2.038],[115.504,-2.0275],[115.5155,-2.0135]]]},"properties":{"code":"63.09.05.2005","name":"Halong","latitude":-2.0137310076070656,"longitude":115.49925979726952}},{"type":"Feature","geometry":{"type":"Polygon","coordinates":[[[115.5415,-1.9395],[115.531,-1.929],[115.521,-1.9255],[115.503,-1.9295],[115.487,-1.9435],[115.471,-1.964],[115.482,-1.966],[115.4865,-1.9775],[115.482,-1.983],[115.482,-1.9845],[115.491,-1.995],[115.5155,-2.0135],[115.523,-2.01],[115.5455,-1.9885],[115.5405,-1.9775],[115.545,-1.9665],[115.527,-1.955],[115.5415,-1.9395]]]},"properties":{"code":"63.09.05.2007","name":"Hayup","latitude":-1.967593352635967,"longitude":115.51195350922694}},{"type":"Feature","geometry":{"type":"Polygon","coordinates":[[[115.543,-2.054],[115.5245,-2.0515],[115.52,-2.062],[115.508,-2.065],[115.5035,-2.0725],[115.4975,-2.08],[115.5155,-2.1045],[115.5215,-2.1015],[115.5275,-2.086],[115.5555,-2.089],[115.5595,-2.0705],[115.543,-2.054]]]},"properties":{"code":"63.09.05.2011","name":"Kembang Kuning","latitude":-2.0748484083174406,"longitude":115.52882167828491}},{"type":"Feature","geometry":{"type":"Polygon","coordinates":[[[115.587,-2.0455],[115.5755,-2.0305],[115.557,-2.0355],[115.553,-2.033],[115.5515,-2.0325],[115.549,-2.0325],[115.532,-2.0365],[115.543,-2.054],[115.5595,-2.0705],[115.5815,-2.055],[115.587,-2.0455]]]},"properties":{"code":"63.09.05.2012","name":"Seradang","latitude":-2.0476034070106124,"longitude":115.5606561424977}},{"type":"Feature","geometry":{"type":"Polygon","coordinates":[[[115.482,-1.984],[115.4735,-1.984],[115.4655,-2],[115.459,-2.0255],[115.4515,-2.0325],[115.431,-2.032],[115.445,-2.0455],[115.4625,-2.051],[115.465,-2.0405],[115.4615,-2.0315],[115.4735,-2],[115.485,-2],[115.491,-1.995],[115.482,-1.9845],[115.482,-1.984]]]},"properties":{"code":"63.09.05.2013","name":"Mahe Pasar","latitude":-2.0187367883013794,"longitude":115.46375438292094}},{"type":"Feature","geometry":{"type":"Polygon","coordinates":[[[115.5285,-2.109],[115.5215,-2.1015],[115.5155,-2.1045],[115.5035,-2.141],[115.5205,-2.1485],[115.531,-2.16],[115.5365,-2.176],[115.5405,-2.192],[115.549,-2.187],[115.5515,-2.1865],[115.56,-2.177],[115.5605,-2.1745],[115.5675,-2.162],[115.575,-2.157],[115.5795,-2.1555],[115.555,-2.1335],[115.5485,-2.123],[115.532,-2.118],[115.5285,-2.109]]]},"properties":{"code":"63.09.05.2014","name":"Lok Batu","latitude":-2.1465634336078065,"longitude":115.53995620551918}},{"type":"Feature","geometry":{"type":"Polygon","coordinates":[[[115.488,-2.0155],[115.4725,-2.034],[115.4655,-2.034],[115.465,-2.0405],[115.4625,-2.051],[115.462,-2.0525],[115.4795,-2.0715],[115.5015,-2.073],[115.502,-2.053],[115.5105,-2.038],[115.495,-2.029],[115.488,-2.0155]]]},"properties":{"code":"63.09.05.2015","name":"Suput","latitude":-2.0460053901855377,"longitude":115.48586397395547}},{"type":"Feature","geometry":{"type":"Polygon","coordinates":[[[115.485,-2],[115.4735,-2],[115.4615,-2.0315],[115.4655,-2.034],[115.4725,-2.034],[115.488,-2.0155],[115.485,-2]]]},"properties":{"code":"63.09.05.2018","name":"Surian","latitude":-2.016175376563666,"longitude":115.47482760918771}},{"type":"Feature","geometry":{"type":"Polygon","coordinates":[[[115.5245,-2.0515],[115.5105,-2.038],[115.502,-2.053],[115.5015,-2.073],[115.5035,-2.0725],[115.508,-2.065],[115.52,-2.062],[115.5245,-2.0515]]]},"properties":{"code":"63.09.05.2021","name":"Catur Karya","latitude":-2.0546617610862787,"longitude":115.51041712793126}},{"type":"Feature","geometry":{"type":"Polygon","coordinates":[[[115.4195,-2.1625],[115.4155,-2.1575],[115.395,-2.1505],[115.394,-2.152],[115.3925,-2.153],[115.389,-2.156],[115.388,-2.1605],[115.386,-2.1635],[115.3875,-2.1675],[115.3915,-2.1705],[115.399,-2.1655],[115.4045,-2.1645],[115.409,-2.1665],[115.419,-2.1635],[115.4195,-2.1625]]]},"properties":{"code":"63.09.06.1001","name":"Belimbing Raya","latitude":-2.1605065846041094,"longitude":115.40167105880987}},{"type":"Feature","geometry":{"type":"Polygon","coordinates":[[[115.4395,-2.1545],[115.427,-2.154],[115.4075,-2.145],[115.406,-2.14],[115.4045,-2.1385],[115.4,-2.1405],[115.398,-2.1415],[115.394,-2.143],[115.3935,-2.1435],[115.392,-2.145],[115.3915,-2.146],[115.395,-2.1505],[115.4155,-2.1575],[115.4195,-2.1625],[115.4195,-2.162],[115.4205,-2.1625],[115.4225,-2.1615],[115.423,-2.163],[115.4325,-2.165],[115.4395,-2.1545]]]},"properties":{"code":"63.09.06.1002","name":"Belimbing","latitude":-2.1529870691489403,"longitude":115.41530918163676}},{"type":"Feature","geometry":{"type":"Polygon","coordinates":[[[115.376,-2.167],[115.375,-2.166],[115.3735,-2.167],[115.3725,-2.1675],[115.372,-2.17],[115.371,-2.172],[115.374,-2.173],[115.376,-2.181],[115.384,-2.1825],[115.387,-2.1835],[115.3935,-2.1845],[115.389,-2.1725],[115.387,-2.1715],[115.3865,-2.171],[115.386,-2.1695],[115.3825,-2.1665],[115.3805,-2.169],[115.3795,-2.1705],[115.3785,-2.172],[115.3775,-2.172],[115.375,-2.17],[115.376,-2.167]]]},"properties":{"code":"63.09.06.1003","name":"Sulingan","latitude":-2.175824475725302,"longitude":115.38231974593698}},{"type":"Feature","geometry":{"type":"Polygon","coordinates":[[[115.4515,-2.152],[115.445,-2.146],[115.437,-2.1585],[115.4325,-2.165],[115.423,-2.163],[115.4225,-2.1615],[115.4205,-2.1625],[115.4195,-2.162],[115.419,-2.1635],[115.409,-2.1665],[115.4085,-2.1705],[115.4075,-2.171],[115.4055,-2.171],[115.4045,-2.178],[115.402,-2.184],[115.403,-2.184],[115.408,-2.187],[115.4085,-2.1875],[115.4165,-2.195],[115.421,-2.1835],[115.429,-2.179],[115.4345,-2.1665],[115.443,-2.1675],[115.4515,-2.152]]]},"properties":{"code":"63.09.06.1006","name":"Mabu'un","latitude":-2.1717800108088796,"longitude":115.42349011240734}},{"type":"Feature","geometry":{"type":"Polygon","coordinates":[[[115.409,-2.1665],[115.4045,-2.1645],[115.399,-2.1655],[115.3915,-2.1705],[115.39,-2.1725],[115.389,-2.1725],[115.3935,-2.1845],[115.399,-2.184],[115.402,-2.184],[115.4045,-2.178],[115.4055,-2.171],[115.4075,-2.171],[115.4085,-2.1705],[115.409,-2.1665]]]},"properties":{"code":"63.09.06.1009","name":"Pembataan","latitude":-2.1740954198215308,"longitude":115.39855182862394}},{"type":"Feature","geometry":{"type":"Polygon","coordinates":[[[115.5365,-2.176],[115.486,-2.173],[115.4715,-2.174],[115.465,-2.166],[115.451,-2.171],[115.443,-2.1675],[115.4515,-2.152],[115.443,-2.1675],[115.4345,-2.1665],[115.429,-2.179],[115.421,-2.1835],[115.4165,-2.195],[115.417,-2.196],[115.436,-2.218],[115.471,-2.196],[115.4905,-2.214],[115.491,-2.2125],[115.5105,-2.2045],[115.5245,-2.1955],[115.5355,-2.1935],[115.5365,-2.176]]]},"properties":{"code":"63.09.06.2004","name":"Maburai","latitude":-2.189326858957699,"longitude":115.47294161561359}},{"type":"Feature","geometry":{"type":"Polygon","coordinates":[[[115.5015,-2.073],[115.4795,-2.0715],[115.4765,-2.0785],[115.473,-2.092],[115.4635,-2.109],[115.452,-2.118],[115.453,-2.133],[115.445,-2.146],[115.4515,-2.152],[115.443,-2.1675],[115.451,-2.171],[115.465,-2.166],[115.4715,-2.174],[115.486,-2.173],[115.5365,-2.176],[115.531,-2.16],[115.5205,-2.1485],[115.5035,-2.141],[115.5155,-2.1045],[115.4975,-2.08],[115.5035,-2.0725],[115.5015,-2.073]]]},"properties":{"code":"63.09.06.2005","name":"Kasiau","latitude":-2.1327554123419534,"longitude":115.48644454677495}},{"type":"Feature","geometry":{"type":"Polygon","coordinates":[[[115.4455,-2.145],[115.4325,-2.137],[115.417,-2.137],[115.4105,-2.1265],[115.4095,-2.127],[115.407,-2.128],[115.399,-2.131],[115.399,-2.132],[115.399,-2.136],[115.3985,-2.137],[115.3935,-2.1375],[115.393,-2.1385],[115.393,-2.1395],[115.395,-2.1415],[115.3945,-2.1425],[115.394,-2.143],[115.398,-2.1415],[115.4,-2.1405],[115.4045,-2.1385],[115.406,-2.14],[115.4075,-2.145],[115.427,-2.154],[115.4395,-2.1545],[115.4455,-2.145]]]},"properties":{"code":"63.09.06.2007","name":"Kapar","latitude":-2.1418848958349566,"longitude":115.42007679046078}},{"type":"Feature","geometry":{"type":"Polygon","coordinates":[[[115.452,-2.118],[115.434,-2.106],[115.4185,-2.113],[115.4185,-2.119],[115.413,-2.121],[115.4095,-2.1255],[115.4105,-2.126],[115.4105,-2.1265],[115.417,-2.137],[115.4325,-2.137],[115.4455,-2.145],[115.453,-2.133],[115.452,-2.118]]]},"properties":{"code":"63.09.06.2008","name":"Masukau","latitude":-2.1254812702115053,"longitude":115.43205711657971}},{"type":"Feature","geometry":{"type":"Polygon","coordinates":[[[115.4765,-2.0785],[115.4615,-2.072],[115.4545,-2.0905],[115.434,-2.106],[115.452,-2.118],[115.4635,-2.109],[115.473,-2.092],[115.4765,-2.0785]]]},"properties":{"code":"63.09.06.2010","name":"Kasiau Raya","latitude":-2.0960020048434007,"longitude":115.45850234172904}},{"type":"Feature","geometry":{"type":"Polygon","coordinates":[[[115.5735,-1.9485],[115.5695,-1.9515],[115.554,-1.945],[115.546,-1.954],[115.5545,-1.9605],[115.5615,-1.9745],[115.57,-1.972],[115.58,-1.98],[115.58,-1.9835],[115.59,-1.979],[115.582,-1.956],[115.586,-1.9485],[115.5735,-1.9485]]]},"properties":{"code":"63.09.07.2001","name":"Kupang Nunding","latitude":-1.9623637849063118,"longitude":115.56987757081018}},{"type":"Feature","geometry":{"type":"Polygon","coordinates":[[[115.7015,-1.969],[115.692,-1.969],[115.684,-1.9635],[115.6755,-1.949],[115.679,-1.9255],[115.6655,-1.933],[115.6605,-1.9335],[115.6535,-1.9275],[115.634,-1.9485],[115.6195,-1.9505],[115.5995,-1.947],[115.5995,-1.942],[115.586,-1.9485],[115.582,-1.956],[115.59,-1.979],[115.6115,-1.9835],[115.623,-1.9815],[115.633,-1.9905],[115.6535,-1.98],[115.6635,-1.986],[115.665,-2.0035],[115.6815,-2.0015],[115.697,-1.9875],[115.698,-1.982],[115.697,-1.9805],[115.697,-1.979],[115.6975,-1.978],[115.697,-1.978],[115.7015,-1.969]]]},"properties":{"code":"63.09.07.2002","name":"Mangkupum","latitude":-1.9646567531979036,"longitude":115.64472476727433}},{"type":"Feature","geometry":{"type":"Polygon","coordinates":[[[115.564,-1.9275],[115.559,-1.9145],[115.5475,-1.923],[115.5295,-1.905],[115.511,-1.9025],[115.509,-1.906],[115.509,-1.9075],[115.51,-1.907],[115.521,-1.9255],[115.531,-1.929],[115.5415,-1.9395],[115.554,-1.945],[115.5695,-1.9515],[115.5735,-1.9485],[115.5655,-1.9385],[115.5695,-1.933],[115.564,-1.9275]]]},"properties":{"code":"63.09.07.2003","name":"Pasar Batu","latitude":-1.9262577904882148,"longitude":115.54307598069639}},{"type":"Feature","geometry":{"type":"Polygon","coordinates":[[[115.595,-1.8835],[115.595,-1.8755],[115.586,-1.8615],[115.5815,-1.8585],[115.5775,-1.8605],[115.576,-1.8605],[115.575,-1.862],[115.573,-1.863],[115.5725,-1.864],[115.5735,-1.8645],[115.563,-1.865],[115.555,-1.8795],[115.5465,-1.885],[115.52,-1.8725],[115.5075,-1.878],[115.5085,-1.9075],[115.509,-1.9075],[115.509,-1.906],[115.511,-1.9025],[115.5295,-1.905],[115.5475,-1.923],[115.559,-1.9145],[115.564,-1.9275],[115.5665,-1.9115],[115.5915,-1.899],[115.592,-1.8945],[115.594,-1.8925],[115.594,-1.892],[115.593,-1.8905],[115.595,-1.8835]]]},"properties":{"code":"63.09.07.2004","name":"Uwie","latitude":-1.8907110410495689,"longitude":115.5531395900383}},{"type":"Feature","geometry":{"type":"Polygon","coordinates":[[[115.6055,-1.886],[115.5985,-1.8845],[115.5975,-1.884],[115.5985,-1.883],[115.598,-1.8825],[115.595,-1.8835],[115.593,-1.8905],[115.594,-1.892],[115.594,-1.8925],[115.593,-1.8935],[115.603,-1.91],[115.615,-1.9155],[115.6225,-1.9115],[115.609,-1.897],[115.6065,-1.8875],[115.605,-1.887],[115.6055,-1.8865],[115.6055,-1.886]]]},"properties":{"code":"63.09.07.2005","name":"Muara Uya","latitude":-1.8999049895259503,"longitude":115.6051121388144}},{"type":"Feature","geometry":{"type":"Polygon","coordinates":[[[115.7325,-1.861],[115.717,-1.8685],[115.7145,-1.8855],[115.7075,-1.898],[115.6935,-1.912],[115.691,-1.9125],[115.6855,-1.9135],[115.6835,-1.911],[115.677,-1.9095],[115.6745,-1.9075],[115.6735,-1.901],[115.6615,-1.8955],[115.661,-1.894],[115.66,-1.894],[115.658,-1.8925],[115.658,-1.89],[115.657,-1.888],[115.656,-1.8855],[115.6435,-1.8815],[115.633,-1.887],[115.633,-1.886],[115.631,-1.886],[115.629,-1.8885],[115.628,-1.8835],[115.6105,-1.8805],[115.606,-1.886],[115.6055,-1.8865],[115.605,-1.887],[115.6065,-1.8875],[115.609,-1.897],[115.6225,-1.9115],[115.6275,-1.9185],[115.6465,-1.921],[115.6575,-1.913],[115.67,-1.9245],[115.679,-1.9255],[115.6755,-1.949],[115.684,-1.9635],[115.692,-1.969],[115.7015,-1.9685],[115.707,-1.9615],[115.7075,-1.954],[115.71,-1.947],[115.712,-1.9435],[115.72,-1.9265],[115.7275,-1.925],[115.726,-1.924],[115.7205,-1.9175],[115.73,-1.8705],[115.731,-1.8675],[115.7325,-1.861]]]},"properties":{"code":"63.09.07.2006","name":"Lumbang","latitude":-1.914382038464015,"longitude":115.6773288658062}},{"type":"Feature","geometry":{"type":"Polygon","coordinates":[[[115.62,-1.796],[115.604,-1.7835],[115.5945,-1.761],[115.5995,-1.7405],[115.5975,-1.7335],[115.587,-1.745],[115.573,-1.754],[115.5665,-1.7655],[115.5595,-1.7965],[115.558,-1.7985],[115.553,-1.8125],[115.5445,-1.82],[115.556,-1.83],[115.5675,-1.8495],[115.586,-1.8615],[115.595,-1.8755],[115.595,-1.8835],[115.598,-1.8825],[115.5985,-1.883],[115.5975,-1.884],[115.5985,-1.8845],[115.6055,-1.886],[115.606,-1.886],[115.6105,-1.8805],[115.619,-1.861],[115.6195,-1.848],[115.6205,-1.8295],[115.621,-1.8285],[115.622,-1.8255],[115.6245,-1.8085],[115.62,-1.796]]]},"properties":{"code":"63.09.07.2007","name":"Santuun","latitude":-1.814778899599598,"longitude":115.5892900779469}},{"type":"Feature","geometry":{"type":"Polygon","coordinates":[[[115.615,-1.9155],[115.603,-1.91],[115.593,-1.8935],[115.592,-1.8945],[115.5915,-1.899],[115.5665,-1.9115],[115.564,-1.9275],[115.565,-1.9285],[115.5735,-1.924],[115.5825,-1.9215],[115.5975,-1.9255],[115.6085,-1.9175],[115.615,-1.9155]]]},"properties":{"code":"63.09.07.2008","name":"Simpung Layung","latitude":-1.913323521879198,"longitude":115.58609093437038}},{"type":"Feature","geometry":{"type":"Polygon","coordinates":[[[115.558,-1.7985],[115.554,-1.803],[115.5365,-1.808],[115.5245,-1.8185],[115.5145,-1.8145],[115.509,-1.7985],[115.506,-1.8005],[115.492,-1.806],[115.4815,-1.8085],[115.4825,-1.8115],[115.472,-1.8245],[115.471,-1.841],[115.4715,-1.844],[115.478,-1.8485],[115.508,-1.857],[115.5075,-1.862],[115.5075,-1.878],[115.52,-1.8725],[115.5465,-1.885],[115.555,-1.8795],[115.563,-1.865],[115.5735,-1.8645],[115.5725,-1.864],[115.573,-1.863],[115.575,-1.862],[115.576,-1.8605],[115.5775,-1.8605],[115.5815,-1.8585],[115.5675,-1.8495],[115.556,-1.83],[115.5445,-1.82],[115.553,-1.8125],[115.558,-1.7985]]]},"properties":{"code":"63.09.07.2009","name":"Binjai","latitude":-1.841299977694057,"longitude":115.52343149419286}},{"type":"Feature","geometry":{"type":"Polygon","coordinates":[[[115.5995,-1.942],[115.6085,-1.9175],[115.5975,-1.9255],[115.5825,-1.9215],[115.5735,-1.924],[115.565,-1.9285],[115.5695,-1.933],[115.5655,-1.9385],[115.5735,-1.9485],[115.586,-1.9485],[115.5995,-1.942]]]},"properties":{"code":"63.09.07.2010","name":"Palapi","latitude":-1.9337451253786992,"longitude":115.58620331327617}},{"type":"Feature","geometry":{"type":"Polygon","coordinates":[[[115.679,-1.9255],[115.67,-1.9245],[115.6575,-1.913],[115.6465,-1.921],[115.6275,-1.9185],[115.6225,-1.9115],[115.615,-1.9155],[115.6085,-1.9175],[115.5995,-1.942],[115.5995,-1.947],[115.6195,-1.9505],[115.634,-1.9485],[115.6535,-1.9275],[115.6605,-1.9335],[115.6655,-1.933],[115.679,-1.9255]]]},"properties":{"code":"63.09.07.2011","name":"Kampung Baru","latitude":-1.9308721691846547,"longitude":115.63173756466097}},{"type":"Feature","geometry":{"type":"Polygon","coordinates":[[[115.655,-1.5125],[115.654,-1.5125],[115.634,-1.511],[115.6275,-1.505],[115.6275,-1.5035],[115.6215,-1.5005],[115.619,-1.488],[115.628,-1.4675],[115.6475,-1.462],[115.65,-1.4615],[115.651,-1.4625],[115.655,-1.4615],[115.679,-1.4565],[115.688,-1.447],[115.695,-1.416],[115.7065,-1.4135],[115.7205,-1.387],[115.7225,-1.375],[115.7235,-1.373],[115.737,-1.3655],[115.7475,-1.3375],[115.752,-1.3335],[115.759,-1.3125],[115.7465,-1.3165],[115.7315,-1.329],[115.7165,-1.3365],[115.7145,-1.337],[115.7085,-1.338],[115.7055,-1.338],[115.705,-1.3375],[115.692,-1.3385],[115.689,-1.3375],[115.6675,-1.335],[115.6575,-1.3445],[115.6415,-1.351],[115.6255,-1.3505],[115.6155,-1.3665],[115.5965,-1.379],[115.577,-1.3805],[115.5625,-1.4005],[115.555,-1.4],[115.5515,-1.4075],[115.5705,-1.4325],[115.5885,-1.44],[115.591,-1.4805],[115.5865,-1.4865],[115.5625,-1.4835],[115.548,-1.486],[115.5435,-1.4995],[115.537,-1.5305],[115.5455,-1.5365],[115.5625,-1.535],[115.574,-1.5215],[115.584,-1.529],[115.5855,-1.557],[115.5975,-1.5655],[115.595,-1.5885],[115.5825,-1.602],[115.581,-1.6145],[115.573,-1.6305],[115.5625,-1.6885],[115.551,-1.69],[115.5475,-1.71],[115.5225,-1.752],[115.5175,-1.768],[115.517,-1.789],[115.509,-1.7985],[115.5145,-1.8145],[115.5245,-1.8185],[115.5365,-1.808],[115.554,-1.803],[115.5595,-1.7965],[115.5665,-1.7655],[115.573,-1.754],[115.587,-1.745],[115.5975,-1.7335],[115.5795,-1.723],[115.583,-1.7035],[115.604,-1.685],[115.6115,-1.6845],[115.6235,-1.6745],[115.6265,-1.657],[115.655,-1.6415],[115.66,-1.64],[115.67,-1.639],[115.67,-1.6395],[115.67,-1.6345],[115.67,-1.63],[115.667,-1.6275],[115.6515,-1.6175],[115.6525,-1.6155],[115.6535,-1.6135],[115.6545,-1.6135],[115.6545,-1.6125],[115.646,-1.61],[115.64,-1.609],[115.639,-1.6085],[115.6365,-1.6045],[115.636,-1.604],[115.64,-1.586],[115.63,-1.5765],[115.63,-1.5755],[115.6295,-1.563],[115.629,-1.562],[115.6305,-1.5575],[115.636,-1.5485],[115.635,-1.541],[115.6325,-1.53],[115.6335,-1.529],[115.641,-1.52],[115.655,-1.5125]]]},"properties":{"code":"63.09.07.2012","name":"Salikung","latitude":-1.5253648789775984,"longitude":115.61609077280565}},{"type":"Feature","geometry":{"type":"Polygon","coordinates":[[[115.554,-1.945],[115.5415,-1.9395],[115.527,-1.955],[115.545,-1.9665],[115.5405,-1.9775],[115.5455,-1.9885],[115.57,-1.986],[115.58,-1.98],[115.57,-1.972],[115.5615,-1.9745],[115.5545,-1.9605],[115.546,-1.954],[115.554,-1.945]]]},"properties":{"code":"63.09.07.2013","name":"Ribang","latitude":-1.9671995661278725,"longitude":115.55027334785372}},{"type":"Feature","geometry":{"type":"Polygon","coordinates":[[[115.509,-1.7985],[115.517,-1.789],[115.5175,-1.768],[115.5225,-1.752],[115.5475,-1.71],[115.551,-1.69],[115.5625,-1.6885],[115.573,-1.6305],[115.581,-1.6145],[115.5825,-1.602],[115.595,-1.5885],[115.5975,-1.5655],[115.5855,-1.557],[115.575,-1.584],[115.552,-1.6335],[115.544,-1.6425],[115.5465,-1.654],[115.544,-1.675],[115.529,-1.6995],[115.5175,-1.724],[115.511,-1.745],[115.5035,-1.759],[115.505,-1.7645],[115.478,-1.801],[115.481,-1.8075],[115.4815,-1.8085],[115.492,-1.806],[115.506,-1.8005],[115.509,-1.7985]]]},"properties":{"code":"63.09.07.2014","name":"Sungai Kumap","latitude":-1.6855682131032732,"longitude":115.54350530905029}},{"type":"Feature","geometry":{"type":"Polygon","coordinates":[[[115.3505,-2.278],[115.3325,-2.265],[115.327,-2.265],[115.3245,-2.2685],[115.3215,-2.285],[115.326,-2.2875],[115.3535,-2.302],[115.3575,-2.298],[115.347,-2.2795],[115.3505,-2.278]]]},"properties":{"code":"63.09.08.2001","name":"Madang","latitude":-2.2827594889282246,"longitude":115.33774292177219}},{"type":"Feature","geometry":{"type":"Polygon","coordinates":[[[115.323,-2.236],[115.3215,-2.241],[115.3205,-2.2465],[115.3185,-2.2495],[115.317,-2.251],[115.328,-2.257],[115.334,-2.2515],[115.33,-2.244],[115.323,-2.236]]]},"properties":{"code":"63.09.08.2002","name":"Tantaringin","latitude":-2.246670756226507,"longitude":115.32570431575023}},{"type":"Feature","geometry":{"type":"Polygon","coordinates":[[[115.323,-2.236],[115.3155,-2.227],[115.3035,-2.229],[115.3085,-2.2395],[115.321,-2.2455],[115.3215,-2.241],[115.323,-2.236]]]},"properties":{"code":"63.09.08.2003","name":"Murung Karangan","latitude":-2.2357081145708366,"longitude":115.314089888775}},{"type":"Feature","geometry":{"type":"Polygon","coordinates":[[[115.3505,-2.246],[115.3455,-2.2445],[115.334,-2.2515],[115.328,-2.257],[115.3275,-2.264],[115.327,-2.265],[115.3325,-2.265],[115.3505,-2.278],[115.3535,-2.2585],[115.3505,-2.246]]]},"properties":{"code":"63.09.08.2004","name":"Padangin","latitude":-2.260000789452667,"longitude":115.34349431910744}},{"type":"Feature","geometry":{"type":"Polygon","coordinates":[[[115.338,-2.229],[115.329,-2.2205],[115.3275,-2.2215],[115.323,-2.236],[115.33,-2.244],[115.338,-2.229]]]},"properties":{"code":"63.09.08.2005","name":"Manduin","latitude":-2.2309262373692818,"longitude":115.33064631647962}},{"type":"Feature","geometry":{"type":"Polygon","coordinates":[[[115.3275,-2.2215],[115.325,-2.22],[115.3205,-2.2185],[115.3155,-2.227],[115.323,-2.236],[115.3275,-2.2215]]]},"properties":{"code":"63.09.08.2006","name":"Mantuil","latitude":-2.226240525191813,"longitude":115.32129466281373}},{"type":"Feature","geometry":{"type":"Polygon","coordinates":[[[115.3455,-2.2445],[115.338,-2.229],[115.33,-2.244],[115.334,-2.2515],[115.3455,-2.2445]]]},"properties":{"code":"63.09.08.2007","name":"Harus","latitude":-2.24129124583606,"longitude":115.3381472103544}},{"type":"Feature","geometry":{"type":"Polygon","coordinates":[[[115.311,-2.326],[115.302,-2.3215],[115.2975,-2.3225],[115.297,-2.337],[115.301,-2.341],[115.3185,-2.3415],[115.317,-2.34],[115.317,-2.3395],[115.316,-2.3385],[115.315,-2.3385],[115.3115,-2.332],[115.311,-2.326]]]},"properties":{"code":"63.09.09.2001","name":"Pugaan","latitude":-2.333083249728189,"longitude":115.30548224709625}},{"type":"Feature","geometry":{"type":"Polygon","coordinates":[[[115.351,-2.31],[115.348,-2.308],[115.3455,-2.308],[115.34,-2.317],[115.3355,-2.3165],[115.333,-2.322],[115.326,-2.3325],[115.327,-2.342],[115.3335,-2.3415],[115.342,-2.338],[115.3515,-2.3405],[115.3555,-2.341],[115.356,-2.3285],[115.358,-2.322],[115.351,-2.31]]]},"properties":{"code":"63.09.09.2002","name":"Pampanan","latitude":-2.3270244148543644,"longitude":115.34372816486581}},{"type":"Feature","geometry":{"type":"Polygon","coordinates":[[[115.31,-2.3125],[115.2985,-2.3095],[115.2995,-2.3105],[115.3045,-2.3155],[115.3055,-2.3165],[115.306,-2.3165],[115.3085,-2.3165],[115.31,-2.3125]]]},"properties":{"code":"63.09.09.2003","name":"Sungai Rukam II","latitude":-2.312084886153074,"longitude":115.3049043327153}},{"type":"Feature","geometry":{"type":"Polygon","coordinates":[[[115.297,-2.306],[115.2955,-2.3055],[115.295,-2.3065],[115.294,-2.3065],[115.294,-2.3085],[115.302,-2.3215],[115.3055,-2.3165],[115.3045,-2.3155],[115.2995,-2.3105],[115.297,-2.308],[115.297,-2.306]]]},"properties":{"code":"63.09.09.2004","name":"Sungai Rukam I","latitude":-2.3146831617978503,"longitude":115.29999527339167}},{"type":"Feature","geometry":{"type":"Polygon","coordinates":[[[115.3535,-2.302],[115.326,-2.2875],[115.3215,-2.285],[115.31,-2.3025],[115.297,-2.306],[115.297,-2.308],[115.2985,-2.3095],[115.31,-2.3125],[115.3215,-2.3145],[115.34,-2.317],[115.3455,-2.308],[115.3535,-2.302]]]},"properties":{"code":"63.09.09.2005","name":"Jirak","latitude":-2.3029841405737774,"longitude":115.32702217217346}},{"type":"Feature","geometry":{"type":"Polygon","coordinates":[[[115.3085,-2.3165],[115.306,-2.3165],[115.3055,-2.3165],[115.302,-2.3215],[115.311,-2.326],[115.3085,-2.3165]]]},"properties":{"code":"63.09.09.2006","name":"Halangan","latitude":-2.322778192658502,"longitude":115.30680155781026}},{"type":"Feature","geometry":{"type":"Polygon","coordinates":[[[115.3355,-2.3165],[115.3215,-2.3145],[115.31,-2.3125],[115.3085,-2.3165],[115.311,-2.326],[115.3115,-2.332],[115.315,-2.3385],[115.316,-2.3385],[115.317,-2.3395],[115.317,-2.34],[115.3185,-2.3415],[115.3195,-2.3415],[115.327,-2.342],[115.326,-2.3325],[115.333,-2.322],[115.3355,-2.3165]]]},"properties":{"code":"63.09.09.2007","name":"Tamunti","latitude":-2.3257135487307568,"longitude":115.3205841509498}},{"type":"Feature","geometry":{"type":"Polygon","coordinates":[[[115.5555,-2.089],[115.5275,-2.086],[115.5525,-2.109],[115.5485,-2.123],[115.555,-2.1335],[115.583,-2.1535],[115.587,-2.153],[115.589,-2.153],[115.5935,-2.148],[115.596,-2.143],[115.597,-2.1335],[115.568,-2.098],[115.5555,-2.089]]]},"properties":{"code":"63.09.10.2001","name":"Bilas","latitude":-2.121718750683707,"longitude":115.56925381919538}},{"type":"Feature","geometry":{"type":"Polygon","coordinates":[[[115.589,-2.05],[115.587,-2.0455],[115.5815,-2.055],[115.5595,-2.0705],[115.5555,-2.089],[115.568,-2.098],[115.597,-2.1335],[115.596,-2.143],[115.608,-2.1335],[115.62,-2.125],[115.621,-2.114],[115.6125,-2.08],[115.589,-2.05]]]},"properties":{"code":"63.09.10.2002","name":"Kaong","latitude":-2.092917511233096,"longitude":115.59080889204574}},{"type":"Feature","geometry":{"type":"Polygon","coordinates":[[[115.6865,-2.078],[115.6665,-2.055],[115.6505,-2.056],[115.6415,-2.068],[115.6315,-2.0605],[115.6245,-2.062],[115.589,-2.05],[115.6125,-2.08],[115.621,-2.114],[115.6345,-2.129],[115.6405,-2.13],[115.6485,-2.118],[115.656,-2.116],[115.6705,-2.0895],[115.686,-2.0785],[115.6865,-2.078]]]},"properties":{"code":"63.09.10.2003","name":"Pangelak","latitude":-2.085802963371264,"longitude":115.64136509917672}},{"type":"Feature","geometry":{"type":"Polygon","coordinates":[[[115.7135,-1.992],[115.7125,-1.9905],[115.7105,-1.98],[115.6975,-1.978],[115.697,-1.979],[115.697,-1.9805],[115.698,-1.982],[115.697,-1.9875],[115.6815,-2.0015],[115.665,-2.0035],[115.648,-2.0195],[115.626,-2.025],[115.6015,-2.0415],[115.589,-2.05],[115.6245,-2.062],[115.6315,-2.0605],[115.6415,-2.068],[115.6505,-2.056],[115.6665,-2.055],[115.6865,-2.078],[115.6875,-2.077],[115.692,-2.067],[115.6895,-2.042],[115.695,-2.0405],[115.695,-2.04],[115.713,-2.0235],[115.719,-1.9975],[115.7135,-1.992]]]},"properties":{"code":"63.09.10.2004","name":"Kinarum","latitude":-2.0307516655556275,"longitude":115.66568008717486}},{"type":"Feature","geometry":{"type":"Polygon","coordinates":[[[115.5525,-2.109],[115.537,-2.105],[115.5285,-2.109],[115.532,-2.118],[115.5485,-2.123],[115.5525,-2.109]]]},"properties":{"code":"63.09.10.2005","name":"Masingai II","latitude":-2.1136957950116466,"longitude":115.54063447105514}},{"type":"Feature","geometry":{"type":"Polygon","coordinates":[[[115.5525,-2.109],[115.5275,-2.086],[115.5215,-2.1015],[115.5285,-2.109],[115.537,-2.105],[115.5525,-2.109]]]},"properties":{"code":"63.09.10.2006","name":"Masingai I","latitude":-2.099434594912915,"longitude":115.53585834428907}},{"type":"Feature","geometry":{"type":"Polygon","coordinates":[[[115.674,-1.875],[115.6555,-1.876],[115.6395,-1.87],[115.6285,-1.873],[115.628,-1.8835],[115.629,-1.8885],[115.631,-1.886],[115.633,-1.886],[115.633,-1.887],[115.6435,-1.8815],[115.656,-1.8855],[115.657,-1.888],[115.658,-1.89],[115.658,-1.8925],[115.66,-1.894],[115.661,-1.894],[115.661,-1.8925],[115.6665,-1.8815],[115.674,-1.875]]]},"properties":{"code":"63.09.11.2001","name":"Teratau","latitude":-1.8797638321837409,"longitude":115.6472114412378}},{"type":"Feature","geometry":{"type":"Polygon","coordinates":[[[115.633,-1.848],[115.6195,-1.848],[115.619,-1.861],[115.6105,-1.8805],[115.628,-1.8835],[115.6285,-1.873],[115.631,-1.868],[115.628,-1.859],[115.6415,-1.853],[115.633,-1.848]]]},"properties":{"code":"63.09.11.2002","name":"Namun","latitude":-1.8643483082323435,"longitude":115.62449087139251}},{"type":"Feature","geometry":{"type":"Polygon","coordinates":[[[115.6485,-1.8335],[115.639,-1.834],[115.622,-1.8255],[115.621,-1.8285],[115.6205,-1.8295],[115.6195,-1.848],[115.633,-1.848],[115.636,-1.84],[115.6485,-1.834],[115.6485,-1.8335]]]},"properties":{"code":"63.09.11.2003","name":"Jaro","latitude":-1.8374236597435465,"longitude":115.62831324393072}},{"type":"Feature","geometry":{"type":"Polygon","coordinates":[[[115.67,-1.6395],[115.67,-1.639],[115.66,-1.64],[115.655,-1.6415],[115.6265,-1.657],[115.6235,-1.6745],[115.6115,-1.6845],[115.604,-1.685],[115.583,-1.7035],[115.5795,-1.723],[115.5975,-1.7335],[115.5995,-1.7405],[115.5945,-1.761],[115.604,-1.7835],[115.62,-1.796],[115.644,-1.798],[115.629,-1.78],[115.639,-1.777],[115.6535,-1.789],[115.6615,-1.7855],[115.666,-1.7855],[115.669,-1.788],[115.6745,-1.789],[115.677,-1.791],[115.679,-1.792],[115.68,-1.792],[115.6805,-1.7905],[115.69,-1.78],[115.687,-1.763],[115.687,-1.7605],[115.679,-1.7605],[115.6755,-1.7605],[115.661,-1.766],[115.656,-1.7595],[115.652,-1.755],[115.645,-1.745],[115.632,-1.74],[115.628,-1.71],[115.6345,-1.6975],[115.649,-1.6855],[115.653,-1.685],[115.66,-1.688],[115.6645,-1.6885],[115.666,-1.689],[115.6665,-1.688],[115.667,-1.687],[115.6675,-1.685],[115.6675,-1.6835],[115.6675,-1.6795],[115.6685,-1.6775],[115.671,-1.6745],[115.677,-1.6565],[115.6695,-1.6435],[115.67,-1.6395]]]},"properties":{"code":"63.09.11.2004","name":"Solan","latitude":-1.725434838687852,"longitude":115.63153618525287}},{"type":"Feature","geometry":{"type":"Polygon","coordinates":[[[115.689,-1.8495],[115.6735,-1.8505],[115.657,-1.848],[115.6415,-1.853],[115.628,-1.859],[115.631,-1.868],[115.6395,-1.87],[115.6555,-1.876],[115.674,-1.875],[115.68,-1.87],[115.689,-1.8495]]]},"properties":{"code":"63.09.11.2005","name":"Muang","latitude":-1.8615455021618896,"longitude":115.66038026287393}},{"type":"Feature","geometry":{"type":"Polygon","coordinates":[[[115.666,-1.689],[115.6645,-1.6885],[115.66,-1.688],[115.653,-1.685],[115.649,-1.6855],[115.6345,-1.6975],[115.628,-1.71],[115.632,-1.74],[115.645,-1.745],[115.652,-1.755],[115.656,-1.7595],[115.661,-1.766],[115.6755,-1.7605],[115.679,-1.7605],[115.687,-1.7605],[115.687,-1.7585],[115.69,-1.751],[115.707,-1.7335],[115.7025,-1.7275],[115.698,-1.7235],[115.697,-1.7225],[115.692,-1.719],[115.6785,-1.7105],[115.667,-1.7085],[115.665,-1.7065],[115.666,-1.705],[115.667,-1.6995],[115.666,-1.6955],[115.6655,-1.689],[115.666,-1.689]]]},"properties":{"code":"63.09.11.2006","name":"Lano","latitude":-1.7272320215265813,"longitude":115.66285042582255}},{"type":"Feature","geometry":{"type":"Polygon","coordinates":[[[115.7325,-1.861],[115.7325,-1.8605],[115.73,-1.846],[115.722,-1.832],[115.7275,-1.8135],[115.727,-1.8115],[115.716,-1.8235],[115.704,-1.8445],[115.689,-1.8495],[115.68,-1.87],[115.6665,-1.8815],[115.661,-1.8925],[115.661,-1.894],[115.6615,-1.8955],[115.6735,-1.901],[115.6745,-1.9075],[115.677,-1.9095],[115.6835,-1.911],[115.6855,-1.9135],[115.691,-1.9125],[115.6935,-1.912],[115.7075,-1.898],[115.7145,-1.8855],[115.717,-1.8685],[115.7325,-1.861]]]},"properties":{"code":"63.09.11.2007","name":"Purui","latitude":-1.872588230342465,"longitude":115.6982749785617}},{"type":"Feature","geometry":{"type":"Polygon","coordinates":[[[115.68,-1.792],[115.679,-1.792],[115.677,-1.791],[115.6745,-1.789],[115.669,-1.788],[115.666,-1.7855],[115.6615,-1.7855],[115.6535,-1.789],[115.639,-1.777],[115.629,-1.78],[115.644,-1.798],[115.62,-1.796],[115.6245,-1.8085],[115.622,-1.8255],[115.639,-1.834],[115.6485,-1.8335],[115.651,-1.8295],[115.6605,-1.812],[115.6765,-1.8095],[115.683,-1.7995],[115.681,-1.7955],[115.6795,-1.7935],[115.68,-1.792]]]},"properties":{"code":"63.09.11.2008","name":"Garagata","latitude":-1.8059465112612014,"longitude":115.64831419195843}},{"type":"Feature","geometry":{"type":"Polygon","coordinates":[[[115.708,-1.7885],[115.6895,-1.8045],[115.685,-1.8015],[115.683,-1.7995],[115.6765,-1.8095],[115.6605,-1.812],[115.651,-1.8295],[115.6485,-1.834],[115.636,-1.84],[115.633,-1.848],[115.6415,-1.853],[115.657,-1.848],[115.6735,-1.8505],[115.689,-1.8495],[115.704,-1.8445],[115.716,-1.8235],[115.727,-1.8115],[115.726,-1.808],[115.7285,-1.799],[115.728,-1.797],[115.72,-1.799],[115.708,-1.7885]]]},"properties":{"code":"63.09.11.2009","name":"Nalui","latitude":-1.8245025731285305,"longitude":115.68540981086042}},{"type":"Feature","geometry":{"type":"Polygon","coordinates":[[[115.4655,-2],[115.4575,-2.002],[115.455,-2.0135],[115.445,-2.015],[115.419,-1.9995],[115.416,-2.001],[115.416,-2.013],[115.397,-2.013],[115.4055,-2.0195],[115.413,-2.0365],[115.431,-2.032],[115.4515,-2.0325],[115.459,-2.0255],[115.4655,-2]]]},"properties":{"code":"63.09.12.2001","name":"Waling","latitude":-2.0193911201900874,"longitude":115.43235959634247}},{"type":"Feature","geometry":{"type":"Polygon","coordinates":[[[115.482,-1.984],[115.482,-1.983],[115.4865,-1.9775],[115.482,-1.966],[115.471,-1.964],[115.473,-1.982],[115.463,-1.989],[115.4525,-1.9845],[115.451,-1.9765],[115.419,-1.9905],[115.416,-1.9915],[115.416,-2.001],[115.419,-1.9995],[115.445,-2.015],[115.455,-2.0135],[115.4575,-2.002],[115.4655,-2],[115.4735,-1.984],[115.482,-1.984]]]},"properties":{"code":"63.09.12.2002","name":"Usih","latitude":-1.9925916967070556,"longitude":115.44886496353145}},{"type":"Feature","geometry":{"type":"Polygon","coordinates":[[[115.5075,-1.862],[115.508,-1.857],[115.4915,-1.852],[115.473,-1.861],[115.4655,-1.871],[115.4505,-1.8815],[115.4635,-1.907],[115.457,-1.923],[115.473,-1.9165],[115.4645,-1.9375],[115.446,-1.9475],[115.443,-1.948],[115.442,-1.9485],[115.4385,-1.9485],[115.4385,-1.9505],[115.4375,-1.957],[115.432,-1.9685],[115.42,-1.974],[115.419,-1.9835],[115.419,-1.9905],[115.451,-1.9765],[115.457,-1.9605],[115.471,-1.964],[115.487,-1.9435],[115.495,-1.936],[115.488,-1.9135],[115.5,-1.905],[115.4965,-1.885],[115.5075,-1.862]]]},"properties":{"code":"63.09.12.2003","name":"Bintang Ara","latitude":-1.9147906904617946,"longitude":115.47110854127149}},{"type":"Feature","geometry":{"type":"Polygon","coordinates":[[[115.4535,-1.856],[115.451,-1.8545],[115.4355,-1.8645],[115.426,-1.857],[115.421,-1.89],[115.4215,-1.892],[115.4205,-1.8925],[115.419,-1.9015],[115.418,-1.904],[115.417,-1.9105],[115.418,-1.9145],[115.4255,-1.914],[115.431,-1.9235],[115.431,-1.926],[115.4285,-1.93],[115.4255,-1.932],[115.4225,-1.932],[115.433,-1.9335],[115.435,-1.939],[115.4335,-1.9415],[115.431,-1.945],[115.432,-1.9465],[115.4385,-1.943],[115.443,-1.948],[115.446,-1.9475],[115.448,-1.9245],[115.439,-1.9165],[115.441,-1.8975],[115.454,-1.8925],[115.4495,-1.8815],[115.4535,-1.856]]]},"properties":{"code":"63.09.12.2004","name":"Burum","latitude":-1.8940783369529304,"longitude":115.43652302982719}},{"type":"Feature","geometry":{"type":"Polygon","coordinates":[[[115.478,-1.801],[115.4725,-1.7955],[115.47,-1.7765],[115.4565,-1.774],[115.4505,-1.759],[115.434,-1.7715],[115.435,-1.781],[115.415,-1.7795],[115.397,-1.795],[115.3725,-1.821],[115.3665,-1.825],[115.313,-1.826],[115.3125,-1.8265],[115.302,-1.8275],[115.309,-1.845],[115.3085,-1.846],[115.31,-1.85],[115.3125,-1.851],[115.3155,-1.8515],[115.316,-1.852],[115.3185,-1.86],[115.3185,-1.861],[115.318,-1.8855],[115.3185,-1.8895],[115.3195,-1.892],[115.3925,-1.893],[115.4045,-1.8865],[115.4085,-1.8995],[115.41,-1.8995],[115.41,-1.899],[115.409,-1.896],[115.4115,-1.893],[115.4175,-1.892],[115.4195,-1.8915],[115.4205,-1.8925],[115.4215,-1.892],[115.421,-1.89],[115.426,-1.857],[115.4355,-1.8645],[115.451,-1.8545],[115.454,-1.856],[115.468,-1.842],[115.472,-1.847],[115.471,-1.841],[115.472,-1.8245],[115.4825,-1.8115],[115.481,-1.8075],[115.478,-1.801]]]},"properties":{"code":"63.09.12.2005","name":"Panaan","latitude":-1.8375417707659207,"longitude":115.39807306938035}},{"type":"Feature","geometry":{"type":"Polygon","coordinates":[[[115.5855,-1.557],[115.584,-1.529],[115.574,-1.5215],[115.5625,-1.535],[115.5455,-1.5365],[115.537,-1.5305],[115.5435,-1.4995],[115.548,-1.486],[115.5625,-1.4835],[115.5865,-1.4865],[115.591,-1.4805],[115.5885,-1.44],[115.5705,-1.4325],[115.5515,-1.4075],[115.5495,-1.41],[115.524,-1.4295],[115.5125,-1.452],[115.4985,-1.452],[115.4845,-1.4465],[115.4745,-1.43],[115.4675,-1.434],[115.464,-1.452],[115.4555,-1.4615],[115.4545,-1.4615],[115.441,-1.4505],[115.431,-1.457],[115.4285,-1.473],[115.437,-1.4885],[115.4275,-1.5025],[115.4045,-1.5095],[115.391,-1.5205],[115.3845,-1.542],[115.3745,-1.564],[115.3635,-1.5785],[115.358,-1.5925],[115.358,-1.611],[115.3645,-1.6255],[115.3685,-1.647],[115.374,-1.6525],[115.3615,-1.6655],[115.347,-1.6745],[115.3425,-1.6895],[115.3415,-1.6915],[115.3405,-1.7045],[115.3385,-1.7065],[115.338,-1.7085],[115.338,-1.7095],[115.351,-1.7175],[115.368,-1.72],[115.369,-1.7265],[115.358,-1.744],[115.344,-1.7385],[115.3345,-1.748],[115.323,-1.7645],[115.3145,-1.7925],[115.3115,-1.796],[115.3095,-1.808],[115.3135,-1.8255],[115.313,-1.826],[115.3665,-1.825],[115.3725,-1.821],[115.397,-1.795],[115.415,-1.7795],[115.435,-1.781],[115.434,-1.7715],[115.4505,-1.759],[115.4565,-1.774],[115.47,-1.7765],[115.4725,-1.7955],[115.478,-1.801],[115.505,-1.7645],[115.5035,-1.759],[115.511,-1.745],[115.5175,-1.724],[115.529,-1.6995],[115.544,-1.675],[115.5465,-1.654],[115.544,-1.6425],[115.552,-1.6335],[115.575,-1.584],[115.5855,-1.557]]]},"properties":{"code":"63.09.12.2006","name":"Dambung Raya","latitude":-1.6229313009138682,"longitude":115.45734957771}},{"type":"Feature","geometry":{"type":"Polygon","coordinates":[[[115.471,-1.964],[115.457,-1.9605],[115.451,-1.9765],[115.4525,-1.9845],[115.463,-1.989],[115.473,-1.982],[115.471,-1.964]]]},"properties":{"code":"63.09.12.2007","name":"Argo Mulyo","latitude":-1.9733243341331586,"longitude":115.46188889301443}},{"type":"Feature","geometry":{"type":"Polygon","coordinates":[[[115.4715,-1.844],[115.472,-1.847],[115.468,-1.842],[115.454,-1.856],[115.4535,-1.856],[115.4495,-1.8815],[115.454,-1.8925],[115.441,-1.8975],[115.439,-1.9165],[115.448,-1.9245],[115.446,-1.9475],[115.4645,-1.9375],[115.473,-1.9165],[115.457,-1.923],[115.4635,-1.907],[115.4505,-1.8815],[115.4655,-1.871],[115.473,-1.861],[115.4915,-1.852],[115.478,-1.8485],[115.4715,-1.844]]]},"properties":{"code":"63.09.12.2008","name":"Bumi Makmur","latitude":-1.8985697903568581,"longitude":115.4584446822024}},{"type":"Feature","geometry":{"type":"Polygon","coordinates":[[[115.3345,-1.748],[115.344,-1.7385],[115.358,-1.744],[115.369,-1.7265],[115.368,-1.72],[115.351,-1.7175],[115.338,-1.7095],[115.3385,-1.7105],[115.333,-1.7235],[115.3345,-1.748]]]},"properties":{"code":"63.09.12.2009","name":"Hegarmanah","latitude":-1.7306623598517314,"longitude":115.35103490974082}}]}