{"type":"FeatureCollection","features":[{"type":"Feature","geometry":{"type":"Polygon","coordinates":[[[115.3105,-2.69],[115.3105,-2.6905],[115.306,-2.694],[115.297,-2.692],[115.294,-2.6925],[115.292,-2.692],[115.292,-2.693],[115.292,-2.694],[115.292,-2.6955],[115.294,-2.699],[115.296,-2.7],[115.2975,-2.7],[115.298,-2.7],[115.3005,-2.699],[115.3025,-2.698],[115.3035,-2.698],[115.3045,-2.698],[115.305,-2.698],[115.3085,-2.7],[115.309,-2.6995],[115.3195,-2.6955],[115.32,-2.695],[115.32,-2.693],[115.3105,-2.69]]]},"properties":{"code":"63.07.01.2001","name":"Pengambau Hilir Luar"}},{"type":"Feature","geometry":{"type":"Polygon","coordinates":[[[115.3195,-2.6785],[115.3115,-2.6765],[115.307,-2.68],[115.3045,-2.6795],[115.2955,-2.6815],[115.3095,-2.689],[115.31,-2.6895],[115.3105,-2.69],[115.32,-2.693],[115.322,-2.6915],[115.324,-2.689],[115.326,-2.6885],[115.3275,-2.6885],[115.328,-2.688],[115.3265,-2.6875],[115.321,-2.6805],[115.321,-2.679],[115.3195,-2.6785]]]},"properties":{"code":"63.07.01.2002","name":"Panggung"}},{"type":"Feature","geometry":{"type":"Polygon","coordinates":[[[115.33,-2.68],[115.332,-2.6725],[115.332,-2.6715],[115.331,-2.6625],[115.33,-2.663],[115.324,-2.6635],[115.3225,-2.6635],[115.3195,-2.6785],[115.321,-2.679],[115.322,-2.6795],[115.3225,-2.68],[115.326,-2.6815],[115.33,-2.68]]]},"properties":{"code":"63.07.01.2003","name":"Barikin"}},{"type":"Feature","geometry":{"type":"Polygon","coordinates":[[[115.33,-2.68],[115.326,-2.6815],[115.3225,-2.68],[115.322,-2.6795],[115.321,-2.6805],[115.3265,-2.6875],[115.3285,-2.6885],[115.329,-2.689],[115.3385,-2.698],[115.339,-2.687],[115.3385,-2.686],[115.3385,-2.6845],[115.337,-2.6855],[115.33,-2.68]]]},"properties":{"code":"63.07.01.2004","name":"Andang"}},{"type":"Feature","geometry":{"type":"Polygon","coordinates":[[[115.3385,-2.698],[115.329,-2.689],[115.3285,-2.6885],[115.328,-2.688],[115.3275,-2.6885],[115.326,-2.6885],[115.324,-2.689],[115.322,-2.6915],[115.32,-2.693],[115.32,-2.695],[115.3205,-2.695],[115.321,-2.6955],[115.3215,-2.6955],[115.327,-2.6965],[115.328,-2.6975],[115.3315,-2.7],[115.3325,-2.701],[115.338,-2.7035],[115.339,-2.7045],[115.3405,-2.7055],[115.3445,-2.713],[115.347,-2.7115],[115.3485,-2.701],[115.3485,-2.7015],[115.3385,-2.698]]]},"properties":{"code":"63.07.01.2005","name":"Pengambau Hilir Dalam"}},{"type":"Feature","geometry":{"type":"Polygon","coordinates":[[[115.3445,-2.685],[115.3425,-2.6835],[115.341,-2.684],[115.3395,-2.6835],[115.3385,-2.6845],[115.3385,-2.686],[115.339,-2.687],[115.3385,-2.698],[115.3485,-2.7015],[115.348,-2.7],[115.349,-2.7],[115.3515,-2.694],[115.3505,-2.6935],[115.3475,-2.69],[115.3455,-2.689],[115.345,-2.6875],[115.345,-2.6865],[115.3435,-2.686],[115.3445,-2.685]]]},"properties":{"code":"63.07.01.2006","name":"Haruyan"}},{"type":"Feature","geometry":{"type":"Polygon","coordinates":[[[115.371,-2.682],[115.361,-2.6855],[115.3545,-2.677],[115.3525,-2.6745],[115.35,-2.6775],[115.35,-2.6785],[115.3495,-2.6795],[115.3445,-2.685],[115.3435,-2.686],[115.345,-2.6865],[115.345,-2.6875],[115.3455,-2.689],[115.3475,-2.69],[115.3505,-2.6935],[115.3515,-2.694],[115.353,-2.693],[115.3535,-2.692],[115.3545,-2.692],[115.3615,-2.6945],[115.363,-2.697],[115.3625,-2.7045],[115.3725,-2.7065],[115.3755,-2.698],[115.3765,-2.695],[115.3745,-2.691],[115.3745,-2.6895],[115.375,-2.6885],[115.375,-2.686],[115.371,-2.682]]]},"properties":{"code":"63.07.01.2007","name":"Haruyan Seberang"}},{"type":"Feature","geometry":{"type":"Polygon","coordinates":[[[115.3625,-2.7045],[115.3555,-2.703],[115.355,-2.717],[115.3595,-2.722],[115.3675,-2.7355],[115.376,-2.74],[115.3765,-2.7145],[115.3725,-2.7065],[115.3625,-2.7045]]]},"properties":{"code":"63.07.01.2008","name":"Pengambau Hulu"}},{"type":"Feature","geometry":{"type":"Polygon","coordinates":[[[115.396,-2.696],[115.3745,-2.6895],[115.3745,-2.691],[115.3765,-2.695],[115.3755,-2.698],[115.3725,-2.7065],[115.3765,-2.7145],[115.376,-2.74],[115.378,-2.7445],[115.4085,-2.7575],[115.408,-2.7635],[115.4085,-2.766],[115.41,-2.7665],[115.409,-2.766],[115.4105,-2.7555],[115.4095,-2.7125],[115.406,-2.7025],[115.396,-2.696]]]},"properties":{"code":"63.07.01.2009","name":"Sungai Harang"}},{"type":"Feature","geometry":{"type":"Polygon","coordinates":[[[115.423,-2.6905],[115.4205,-2.689],[115.418,-2.689],[115.414,-2.686],[115.412,-2.687],[115.4075,-2.6965],[115.396,-2.696],[115.406,-2.7025],[115.4095,-2.7125],[115.4105,-2.7555],[115.409,-2.766],[115.41,-2.7655],[115.4205,-2.7425],[115.4335,-2.735],[115.434,-2.733],[115.4305,-2.7265],[115.43,-2.725],[115.43,-2.724],[115.4295,-2.723],[115.426,-2.7145],[115.425,-2.713],[115.4335,-2.7085],[115.4315,-2.705],[115.4295,-2.697],[115.4295,-2.6955],[115.4245,-2.6945],[115.4235,-2.6935],[115.423,-2.691],[115.423,-2.6905]]]},"properties":{"code":"63.07.01.2010","name":"Batu Panggung"}},{"type":"Feature","geometry":{"type":"Polygon","coordinates":[[[115.3765,-2.648],[115.376,-2.648],[115.375,-2.648],[115.37,-2.6515],[115.365,-2.654],[115.377,-2.661],[115.3765,-2.648]]]},"properties":{"code":"63.07.01.2011","name":"Mangunang"}},{"type":"Feature","geometry":{"type":"Polygon","coordinates":[[[115.4205,-2.6545],[115.4085,-2.65],[115.398,-2.6445],[115.3895,-2.6455],[115.389,-2.645],[115.3885,-2.645],[115.3855,-2.646],[115.378,-2.6475],[115.3765,-2.6475],[115.377,-2.661],[115.39,-2.662],[115.3985,-2.669],[115.416,-2.6665],[115.419,-2.664],[115.4225,-2.6575],[115.421,-2.656],[115.4205,-2.655],[115.4205,-2.6545]]]},"properties":{"code":"63.07.01.2012","name":"Hapulang"}},{"type":"Feature","geometry":{"type":"Polygon","coordinates":[[[115.3625,-2.7045],[115.363,-2.697],[115.3615,-2.6945],[115.3545,-2.692],[115.3535,-2.692],[115.353,-2.693],[115.3515,-2.694],[115.349,-2.7],[115.3555,-2.703],[115.3625,-2.7045]]]},"properties":{"code":"63.07.01.2013","name":"Lok Buntar"}},{"type":"Feature","geometry":{"type":"Polygon","coordinates":[[[115.349,-2.7],[115.348,-2.7],[115.3485,-2.701],[115.347,-2.7115],[115.346,-2.7135],[115.3505,-2.719],[115.352,-2.719],[115.3535,-2.719],[115.355,-2.717],[115.3555,-2.703],[115.349,-2.7]]]},"properties":{"code":"63.07.01.2014","name":"Tabat Padang"}},{"type":"Feature","geometry":{"type":"Polygon","coordinates":[[[115.377,-2.661],[115.365,-2.654],[115.3635,-2.667],[115.371,-2.682],[115.375,-2.686],[115.375,-2.6885],[115.3745,-2.6895],[115.396,-2.696],[115.4075,-2.6965],[115.412,-2.687],[115.414,-2.686],[115.418,-2.689],[115.4205,-2.689],[115.423,-2.6905],[115.423,-2.6895],[115.416,-2.6665],[115.3985,-2.669],[115.39,-2.662],[115.377,-2.661]]]},"properties":{"code":"63.07.01.2015","name":"Mangunang Seberang"}},{"type":"Feature","geometry":{"type":"Polygon","coordinates":[[[115.2955,-2.6815],[115.295,-2.682],[115.287,-2.6815],[115.284,-2.681],[115.2665,-2.6745],[115.2645,-2.674],[115.238,-2.6675],[115.2305,-2.666],[115.211,-2.6635],[115.2315,-2.6825],[115.2395,-2.684],[115.2435,-2.687],[115.2495,-2.6865],[115.253,-2.6875],[115.257,-2.6895],[115.263,-2.6885],[115.2895,-2.6905],[115.292,-2.6905],[115.292,-2.692],[115.294,-2.6925],[115.297,-2.692],[115.306,-2.694],[115.3105,-2.6905],[115.31,-2.6895],[115.3095,-2.689],[115.2955,-2.6815]]]},"properties":{"code":"63.07.01.2016","name":"Pandanu"}},{"type":"Feature","geometry":{"type":"Polygon","coordinates":[[[115.348,-2.66],[115.342,-2.659],[115.3415,-2.6585],[115.341,-2.6585],[115.336,-2.6515],[115.3355,-2.6525],[115.3355,-2.654],[115.3355,-2.656],[115.331,-2.662],[115.331,-2.6625],[115.332,-2.6715],[115.332,-2.6725],[115.33,-2.68],[115.337,-2.6855],[115.3395,-2.6835],[115.341,-2.684],[115.3425,-2.6835],[115.3445,-2.685],[115.3495,-2.6795],[115.35,-2.6785],[115.35,-2.6775],[115.3525,-2.6745],[115.3515,-2.6735],[115.348,-2.66]]]},"properties":{"code":"63.07.01.2017","name":"Teluk Mesjid"}},{"type":"Feature","geometry":{"type":"Polygon","coordinates":[[[115.4235,-2.6335],[115.4125,-2.619],[115.4095,-2.6195],[115.4035,-2.62],[115.4015,-2.624],[115.401,-2.6235],[115.4,-2.6235],[115.398,-2.6445],[115.4085,-2.65],[115.4205,-2.6545],[115.42,-2.6485],[115.4245,-2.6405],[115.4235,-2.6335]]]},"properties":{"code":"63.07.02.2001","name":"Murung A."}},{"type":"Feature","geometry":{"type":"Polygon","coordinates":[[[115.4345,-2.6255],[115.417,-2.616],[115.4135,-2.619],[115.4125,-2.619],[115.4235,-2.6335],[115.424,-2.6315],[115.4255,-2.63],[115.428,-2.6275],[115.43,-2.627],[115.433,-2.626],[115.4345,-2.6255]]]},"properties":{"code":"63.07.02.2002","name":"Pagat"}},{"type":"Feature","geometry":{"type":"Polygon","coordinates":[[[115.479,-2.5995],[115.477,-2.598],[115.461,-2.596],[115.454,-2.5885],[115.4515,-2.5885],[115.4465,-2.61],[115.4545,-2.611],[115.4705,-2.602],[115.4735,-2.6005],[115.4755,-2.6005],[115.4785,-2.5995],[115.479,-2.5995]]]},"properties":{"code":"63.07.02.2003","name":"Kalibaru"}},{"type":"Feature","geometry":{"type":"Polygon","coordinates":[[[115.446,-2.587],[115.445,-2.5845],[115.4425,-2.5835],[115.4375,-2.5825],[115.437,-2.5825],[115.435,-2.584],[115.4345,-2.5845],[115.4325,-2.5845],[115.4335,-2.5875],[115.4345,-2.589],[115.4335,-2.5895],[115.434,-2.5905],[115.4345,-2.591],[115.4415,-2.602],[115.4415,-2.6045],[115.4405,-2.6055],[115.44,-2.607],[115.4395,-2.6075],[115.4405,-2.6075],[115.4465,-2.61],[115.4515,-2.5885],[115.451,-2.588],[115.446,-2.587]]]},"properties":{"code":"63.07.02.2004","name":"Kahakan"}},{"type":"Feature","geometry":{"type":"Polygon","coordinates":[[[115.4465,-2.61],[115.4405,-2.6075],[115.4375,-2.6075],[115.433,-2.6085],[115.4325,-2.608],[115.437,-2.621],[115.44,-2.6245],[115.4405,-2.627],[115.4465,-2.61]]]},"properties":{"code":"63.07.02.2005","name":"Aluan Sumur"}},{"type":"Feature","geometry":{"type":"Polygon","coordinates":[[[115.4115,-2.582],[115.41,-2.582],[115.409,-2.582],[115.4065,-2.5825],[115.404,-2.584],[115.4025,-2.585],[115.401,-2.586],[115.4005,-2.587],[115.4,-2.5875],[115.401,-2.5885],[115.403,-2.6045],[115.4085,-2.6045],[115.4135,-2.59],[115.409,-2.588],[115.4085,-2.5855],[115.4115,-2.582]]]},"properties":{"code":"63.07.02.2006","name":"Aluan Besar"}},{"type":"Feature","geometry":{"type":"Polygon","coordinates":[[[115.435,-2.584],[115.4305,-2.58],[115.4295,-2.5775],[115.428,-2.5735],[115.425,-2.575],[115.4115,-2.582],[115.4085,-2.5855],[115.409,-2.588],[115.4135,-2.59],[115.427,-2.5925],[115.434,-2.5905],[115.4335,-2.5895],[115.4345,-2.589],[115.4335,-2.5875],[115.4325,-2.5845],[115.4345,-2.5845],[115.435,-2.584]]]},"properties":{"code":"63.07.02.2007","name":"Paya Besar"}},{"type":"Feature","geometry":{"type":"Polygon","coordinates":[[[115.427,-2.5925],[115.4135,-2.59],[115.4085,-2.6045],[115.4185,-2.6105],[115.4185,-2.61],[115.4255,-2.6065],[115.427,-2.5925]]]},"properties":{"code":"63.07.02.2008","name":"Bakti"}},{"type":"Feature","geometry":{"type":"Polygon","coordinates":[[[115.4395,-2.6075],[115.44,-2.607],[115.4405,-2.6055],[115.4415,-2.6045],[115.4415,-2.602],[115.4345,-2.591],[115.434,-2.5905],[115.427,-2.5925],[115.4255,-2.6065],[115.4255,-2.607],[115.426,-2.608],[115.432,-2.608],[115.433,-2.6085],[115.4375,-2.6075],[115.4395,-2.6075]]]},"properties":{"code":"63.07.02.2009","name":"Aluan"}},{"type":"Feature","geometry":{"type":"Polygon","coordinates":[[[115.4255,-2.6065],[115.4185,-2.61],[115.4185,-2.612],[115.417,-2.616],[115.4345,-2.6255],[115.4405,-2.627],[115.44,-2.6245],[115.437,-2.621],[115.4325,-2.608],[115.432,-2.608],[115.426,-2.608],[115.4255,-2.607],[115.4255,-2.6065]]]},"properties":{"code":"63.07.02.2010","name":"Aluan Mati"}},{"type":"Feature","geometry":{"type":"Polygon","coordinates":[[[115.441,-2.648],[115.4355,-2.641],[115.4315,-2.64],[115.4295,-2.639],[115.428,-2.6395],[115.429,-2.641],[115.4245,-2.6405],[115.42,-2.6485],[115.4205,-2.655],[115.421,-2.656],[115.424,-2.657],[115.431,-2.6535],[115.4325,-2.6525],[115.434,-2.648],[115.436,-2.646],[115.437,-2.647],[115.4385,-2.6485],[115.4395,-2.6475],[115.441,-2.648]]]},"properties":{"code":"63.07.02.2011","name":"Baru Waki"}},{"type":"Feature","geometry":{"type":"Polygon","coordinates":[[[115.398,-2.6445],[115.4,-2.6235],[115.383,-2.6245],[115.3815,-2.625],[115.3805,-2.6335],[115.3895,-2.6455],[115.398,-2.6445]]]},"properties":{"code":"63.07.02.2013","name":"Pantai Batung"}},{"type":"Feature","geometry":{"type":"Polygon","coordinates":[[[115.509,-2.598],[115.496,-2.5935],[115.4875,-2.603],[115.4805,-2.6],[115.479,-2.5995],[115.4785,-2.5995],[115.4755,-2.6005],[115.4735,-2.6005],[115.4705,-2.602],[115.4545,-2.611],[115.465,-2.6155],[115.471,-2.624],[115.471,-2.625],[115.483,-2.619],[115.4855,-2.615],[115.4915,-2.6065],[115.5075,-2.6],[115.509,-2.598]]]},"properties":{"code":"63.07.02.2014","name":"Layuh"}},{"type":"Feature","geometry":{"type":"Polygon","coordinates":[[[115.4545,-2.611],[115.4465,-2.61],[115.4405,-2.627],[115.4345,-2.6255],[115.433,-2.626],[115.43,-2.627],[115.428,-2.6275],[115.4255,-2.63],[115.424,-2.6315],[115.4235,-2.6335],[115.4245,-2.6405],[115.429,-2.641],[115.428,-2.6395],[115.4295,-2.639],[115.4315,-2.64],[115.4355,-2.641],[115.441,-2.648],[115.4425,-2.6485],[115.443,-2.6475],[115.442,-2.639],[115.451,-2.6385],[115.4695,-2.626],[115.471,-2.625],[115.471,-2.624],[115.465,-2.6155],[115.4545,-2.611]]]},"properties":{"code":"63.07.02.2015","name":"Haliau"}},{"type":"Feature","geometry":{"type":"Polygon","coordinates":[[[115.321,-2.638],[115.3155,-2.641],[115.317,-2.6485],[115.317,-2.649],[115.32,-2.6495],[115.32,-2.6485],[115.321,-2.6485],[115.3355,-2.6525],[115.336,-2.6515],[115.3345,-2.6505],[115.33,-2.645],[115.3215,-2.64],[115.321,-2.638]]]},"properties":{"code":"63.07.03.1001","name":"Pantai Hambawang Barat"}},{"type":"Feature","geometry":{"type":"Polygon","coordinates":[[[115.239,-2.6375],[115.234,-2.6385],[115.2325,-2.6405],[115.219,-2.6445],[115.2145,-2.647],[115.202,-2.653],[115.206,-2.659],[115.239,-2.6605],[115.2595,-2.663],[115.2645,-2.659],[115.265,-2.6585],[115.266,-2.658],[115.2685,-2.659],[115.293,-2.659],[115.2955,-2.659],[115.299,-2.6535],[115.2955,-2.6525],[115.293,-2.652],[115.29,-2.6505],[115.2685,-2.6455],[115.2675,-2.6455],[115.259,-2.644],[115.249,-2.6445],[115.239,-2.6375]]]},"properties":{"code":"63.07.03.2002","name":"Mahang Baru"}},{"type":"Feature","geometry":{"type":"Polygon","coordinates":[[[115.3225,-2.6635],[115.322,-2.664],[115.3135,-2.664],[115.311,-2.6635],[115.3105,-2.667],[115.304,-2.6685],[115.3095,-2.6745],[115.311,-2.676],[115.3115,-2.6765],[115.3195,-2.6785],[115.3225,-2.6635]]]},"properties":{"code":"63.07.03.2003","name":"Mundar"}},{"type":"Feature","geometry":{"type":"Polygon","coordinates":[[[115.314,-2.652],[115.3125,-2.6515],[115.3115,-2.653],[115.3095,-2.653],[115.296,-2.6525],[115.299,-2.6535],[115.2955,-2.659],[115.293,-2.659],[115.2685,-2.659],[115.266,-2.658],[115.2655,-2.658],[115.2685,-2.66],[115.271,-2.6605],[115.2785,-2.66],[115.295,-2.6725],[115.296,-2.673],[115.304,-2.6685],[115.3105,-2.667],[115.311,-2.6635],[115.313,-2.6635],[115.3145,-2.6575],[115.3145,-2.657],[115.314,-2.6525],[115.314,-2.652]]]},"properties":{"code":"63.07.03.2004","name":"Tabudarat Hilir"}},{"type":"Feature","geometry":{"type":"Polygon","coordinates":[[[115.3355,-2.6525],[115.321,-2.6485],[115.32,-2.6485],[115.32,-2.6495],[115.317,-2.649],[115.317,-2.6495],[115.314,-2.651],[115.314,-2.6525],[115.3145,-2.657],[115.3145,-2.6575],[115.313,-2.6635],[115.3135,-2.664],[115.322,-2.664],[115.324,-2.6635],[115.33,-2.663],[115.331,-2.662],[115.3355,-2.656],[115.3355,-2.654],[115.3355,-2.6525]]]},"properties":{"code":"63.07.03.2005","name":"Tabudarat Hulu"}},{"type":"Feature","geometry":{"type":"Polygon","coordinates":[[[115.327,-2.623],[115.326,-2.6225],[115.325,-2.623],[115.324,-2.6235],[115.321,-2.6375],[115.321,-2.638],[115.3215,-2.64],[115.33,-2.645],[115.332,-2.646],[115.333,-2.6455],[115.335,-2.6415],[115.338,-2.6395],[115.338,-2.6385],[115.3365,-2.6375],[115.327,-2.623]]]},"properties":{"code":"63.07.03.2006","name":"Pantai Hambawang Timur"}},{"type":"Feature","geometry":{"type":"Polygon","coordinates":[[[115.3595,-2.6365],[115.3585,-2.637],[115.3555,-2.635],[115.3535,-2.634],[115.3505,-2.641],[115.3485,-2.6425],[115.34,-2.639],[115.3385,-2.6385],[115.338,-2.6385],[115.338,-2.6395],[115.335,-2.6415],[115.333,-2.6455],[115.332,-2.646],[115.3345,-2.6505],[115.336,-2.6515],[115.341,-2.6585],[115.3415,-2.6585],[115.342,-2.659],[115.3495,-2.6595],[115.355,-2.6615],[115.3635,-2.667],[115.365,-2.654],[115.3625,-2.6525],[115.361,-2.651],[115.357,-2.6485],[115.3555,-2.6475],[115.3555,-2.646],[115.3545,-2.645],[115.3595,-2.6365]]]},"properties":{"code":"63.07.03.2007","name":"Banua Kepayang"}},{"type":"Feature","geometry":{"type":"Polygon","coordinates":[[[115.37,-2.638],[115.3625,-2.639],[115.362,-2.6425],[115.362,-2.644],[115.3635,-2.647],[115.364,-2.647],[115.37,-2.6515],[115.375,-2.648],[115.376,-2.648],[115.3765,-2.648],[115.3765,-2.6475],[115.378,-2.6475],[115.3705,-2.638],[115.37,-2.638]]]},"properties":{"code":"63.07.03.2008","name":"Ta'al"}},{"type":"Feature","geometry":{"type":"Polygon","coordinates":[[[115.357,-2.604],[115.3555,-2.604],[115.355,-2.6045],[115.351,-2.604],[115.35,-2.604],[115.341,-2.6195],[115.3435,-2.6215],[115.3445,-2.6225],[115.358,-2.62],[115.3585,-2.6185],[115.3585,-2.619],[115.3595,-2.6175],[115.358,-2.617],[115.354,-2.6085],[115.3555,-2.605],[115.357,-2.6055],[115.357,-2.604]]]},"properties":{"code":"63.07.03.2009","name":"Durian Gantang"}},{"type":"Feature","geometry":{"type":"Polygon","coordinates":[[[115.3775,-2.6075],[115.367,-2.6165],[115.3735,-2.621],[115.3755,-2.6205],[115.377,-2.621],[115.3825,-2.6135],[115.3815,-2.612],[115.378,-2.608],[115.3775,-2.6075]]]},"properties":{"code":"63.07.03.2010","name":"Guha"}},{"type":"Feature","geometry":{"type":"Polygon","coordinates":[[[115.376,-2.5965],[115.3615,-2.6015],[115.361,-2.6025],[115.3605,-2.6025],[115.359,-2.6015],[115.357,-2.6035],[115.357,-2.6055],[115.3555,-2.605],[115.354,-2.6085],[115.358,-2.617],[115.3595,-2.6175],[115.36,-2.617],[115.367,-2.6165],[115.3775,-2.6075],[115.379,-2.6025],[115.379,-2.598],[115.378,-2.598],[115.376,-2.597],[115.376,-2.5965]]]},"properties":{"code":"63.07.03.2011","name":"Bangkal"}},{"type":"Feature","geometry":{"type":"Polygon","coordinates":[[[115.304,-2.6685],[115.296,-2.673],[115.295,-2.6725],[115.2785,-2.66],[115.271,-2.6605],[115.2685,-2.66],[115.2655,-2.658],[115.2645,-2.659],[115.2595,-2.663],[115.239,-2.6605],[115.206,-2.659],[115.211,-2.6635],[115.2305,-2.666],[115.238,-2.6675],[115.2645,-2.674],[115.2665,-2.6745],[115.284,-2.681],[115.287,-2.6815],[115.295,-2.682],[115.2955,-2.6815],[115.3045,-2.6795],[115.307,-2.68],[115.3115,-2.6765],[115.311,-2.676],[115.3095,-2.6745],[115.304,-2.6685]]]},"properties":{"code":"63.07.03.2012","name":"Panggang Marak"}},{"type":"Feature","geometry":{"type":"Polygon","coordinates":[[[115.3155,-2.641],[115.296,-2.6425],[115.2865,-2.6355],[115.2865,-2.636],[115.2855,-2.636],[115.281,-2.642],[115.2675,-2.645],[115.2685,-2.6455],[115.29,-2.6505],[115.293,-2.652],[115.2955,-2.6525],[115.296,-2.6525],[115.3095,-2.653],[115.3115,-2.653],[115.3125,-2.6515],[115.314,-2.652],[115.314,-2.651],[115.317,-2.6495],[115.317,-2.6485],[115.3155,-2.641]]]},"properties":{"code":"63.07.03.2013","name":"Jamil"}},{"type":"Feature","geometry":{"type":"Polygon","coordinates":[[[115.367,-2.6165],[115.36,-2.617],[115.3585,-2.619],[115.3585,-2.6185],[115.358,-2.62],[115.3445,-2.6225],[115.344,-2.622],[115.3525,-2.633],[115.3555,-2.635],[115.3585,-2.637],[115.3595,-2.6365],[115.3625,-2.639],[115.37,-2.638],[115.37,-2.637],[115.376,-2.6245],[115.376,-2.624],[115.3765,-2.623],[115.376,-2.622],[115.376,-2.6205],[115.3735,-2.621],[115.367,-2.6165]]]},"properties":{"code":"63.07.03.2014","name":"Taras Padang"}},{"type":"Feature","geometry":{"type":"Polygon","coordinates":[[[115.3815,-2.625],[115.3765,-2.624],[115.376,-2.6245],[115.37,-2.637],[115.3705,-2.638],[115.378,-2.6475],[115.3855,-2.646],[115.3885,-2.645],[115.389,-2.645],[115.3805,-2.6335],[115.3815,-2.625]]]},"properties":{"code":"63.07.03.2015","name":"Murung Ta'al"}},{"type":"Feature","geometry":{"type":"Polygon","coordinates":[[[115.341,-2.6195],[115.3385,-2.619],[115.335,-2.6195],[115.3285,-2.6235],[115.327,-2.623],[115.3365,-2.6375],[115.338,-2.6385],[115.3385,-2.6385],[115.34,-2.639],[115.3485,-2.6425],[115.3505,-2.641],[115.3535,-2.634],[115.3525,-2.633],[115.344,-2.622],[115.3435,-2.6215],[115.341,-2.6195]]]},"properties":{"code":"63.07.03.2016","name":"Sungai Rangas"}},{"type":"Feature","geometry":{"type":"Polygon","coordinates":[[[115.3625,-2.639],[115.3595,-2.6365],[115.3545,-2.645],[115.3555,-2.646],[115.3555,-2.6475],[115.357,-2.6485],[115.361,-2.651],[115.3625,-2.6525],[115.365,-2.654],[115.37,-2.6515],[115.364,-2.647],[115.3635,-2.647],[115.362,-2.644],[115.362,-2.6425],[115.3625,-2.639]]]},"properties":{"code":"63.07.03.2017","name":"Batang Bahalang"}},{"type":"Feature","geometry":{"type":"Polygon","coordinates":[[[115.3635,-2.667],[115.355,-2.6615],[115.3495,-2.6595],[115.348,-2.66],[115.3515,-2.6735],[115.3525,-2.6745],[115.3545,-2.677],[115.361,-2.6855],[115.371,-2.682],[115.3635,-2.667]]]},"properties":{"code":"63.07.03.2018","name":"Sungai Jaranih"}},{"type":"Feature","geometry":{"type":"Polygon","coordinates":[[[115.288,-2.627],[115.275,-2.631],[115.2715,-2.6305],[115.2605,-2.6265],[115.2585,-2.6255],[115.258,-2.6255],[115.2575,-2.6265],[115.2565,-2.627],[115.2525,-2.6255],[115.252,-2.626],[115.2465,-2.6315],[115.242,-2.632],[115.239,-2.631],[115.2385,-2.6315],[115.238,-2.632],[115.239,-2.6375],[115.249,-2.6445],[115.259,-2.644],[115.2675,-2.6455],[115.2675,-2.645],[115.281,-2.642],[115.2855,-2.636],[115.2865,-2.636],[115.2865,-2.6355],[115.2855,-2.6355],[115.2845,-2.6345],[115.288,-2.627]]]},"properties":{"code":"63.07.04.2001","name":"Parumahan"}},{"type":"Feature","geometry":{"type":"Polygon","coordinates":[[[115.2885,-2.6055],[115.2845,-2.607],[115.2835,-2.608],[115.2885,-2.6195],[115.288,-2.627],[115.2845,-2.6345],[115.2855,-2.6355],[115.2865,-2.6355],[115.301,-2.6235],[115.299,-2.6175],[115.2995,-2.616],[115.299,-2.608],[115.2885,-2.6055]]]},"properties":{"code":"63.07.04.2002","name":"Kasarangan"}},{"type":"Feature","geometry":{"type":"Polygon","coordinates":[[[115.3245,-2.591],[115.309,-2.5835],[115.2965,-2.583],[115.279,-2.569],[115.271,-2.569],[115.2685,-2.57],[115.2965,-2.595],[115.309,-2.5975],[115.317,-2.612],[115.3175,-2.612],[115.3185,-2.611],[115.321,-2.6095],[115.3285,-2.604],[115.3285,-2.599],[115.3245,-2.591]]]},"properties":{"code":"63.07.04.2003","name":"Banua Kupang"}},{"type":"Feature","geometry":{"type":"Polygon","coordinates":[[[115.317,-2.612],[115.309,-2.5975],[115.2965,-2.595],[115.2685,-2.57],[115.269,-2.5725],[115.269,-2.573],[115.2755,-2.578],[115.279,-2.587],[115.29,-2.599],[115.2885,-2.6055],[115.299,-2.608],[115.2995,-2.616],[115.299,-2.6175],[115.2995,-2.618],[115.304,-2.6195],[115.312,-2.6205],[115.3115,-2.619],[115.316,-2.6125],[115.317,-2.612]]]},"properties":{"code":"63.07.04.2004","name":"Rantau Keminting"}},{"type":"Feature","geometry":{"type":"Polygon","coordinates":[[[115.2835,-2.608],[115.2815,-2.609],[115.2745,-2.606],[115.2725,-2.6105],[115.281,-2.621],[115.283,-2.622],[115.2885,-2.6195],[115.2835,-2.608]]]},"properties":{"code":"63.07.04.2005","name":"Pemangkih"}},{"type":"Feature","geometry":{"type":"Polygon","coordinates":[[[115.2725,-2.6105],[115.2625,-2.614],[115.2615,-2.6145],[115.261,-2.6185],[115.2605,-2.6205],[115.258,-2.621],[115.258,-2.6255],[115.2595,-2.626],[115.2605,-2.6265],[115.2715,-2.6305],[115.275,-2.631],[115.288,-2.627],[115.2885,-2.6195],[115.283,-2.622],[115.281,-2.621],[115.2725,-2.6105]]]},"properties":{"code":"63.07.04.2006","name":"Pemangkih Seberang"}},{"type":"Feature","geometry":{"type":"Polygon","coordinates":[[[115.2745,-2.606],[115.273,-2.594],[115.271,-2.5915],[115.2665,-2.595],[115.2645,-2.594],[115.2525,-2.6005],[115.241,-2.6],[115.2615,-2.6145],[115.2625,-2.614],[115.2725,-2.6105],[115.2745,-2.606]]]},"properties":{"code":"63.07.04.2007","name":"Binjai Pemangkih"}},{"type":"Feature","geometry":{"type":"Polygon","coordinates":[[[115.241,-2.6],[115.2365,-2.5965],[115.23,-2.602],[115.2255,-2.606],[115.224,-2.6055],[115.228,-2.6125],[115.231,-2.6175],[115.2315,-2.6215],[115.2375,-2.6295],[115.238,-2.632],[115.2385,-2.6315],[115.239,-2.631],[115.242,-2.632],[115.2465,-2.6315],[115.252,-2.626],[115.2525,-2.6255],[115.2565,-2.627],[115.2575,-2.6265],[115.258,-2.621],[115.2605,-2.6205],[115.261,-2.6185],[115.2615,-2.6145],[115.241,-2.6]]]},"properties":{"code":"63.07.04.2008","name":"Samhurang"}},{"type":"Feature","geometry":{"type":"Polygon","coordinates":[[[115.232,-2.6395],[115.2225,-2.6265],[115.2145,-2.628],[115.206,-2.634],[115.1935,-2.6395],[115.202,-2.653],[115.2145,-2.647],[115.219,-2.6445],[115.2325,-2.6405],[115.232,-2.6395]]]},"properties":{"code":"63.07.04.2009","name":"Pahalatan"}},{"type":"Feature","geometry":{"type":"Polygon","coordinates":[[[115.196,-2.5685],[115.1785,-2.549],[115.1545,-2.5545],[115.175,-2.5575],[115.168,-2.5665],[115.157,-2.568],[115.1615,-2.579],[115.1705,-2.6005],[115.158,-2.6115],[115.163,-2.615],[115.1705,-2.634],[115.1735,-2.637],[115.1785,-2.637],[115.181,-2.6355],[115.185,-2.633],[115.1885,-2.632],[115.189,-2.6325],[115.199,-2.617],[115.204,-2.616],[115.2055,-2.6145],[115.2005,-2.609],[115.2045,-2.6055],[115.21,-2.608],[115.203,-2.5925],[115.189,-2.574],[115.194,-2.5695],[115.196,-2.5685]]]},"properties":{"code":"63.07.04.2010","name":"Mantaas"}},{"type":"Feature","geometry":{"type":"Polygon","coordinates":[[[115.2815,-2.5585],[115.2795,-2.558],[115.249,-2.537],[115.24,-2.535],[115.2285,-2.54],[115.214,-2.5425],[115.1995,-2.544],[115.1785,-2.549],[115.196,-2.5685],[115.197,-2.568],[115.1995,-2.5645],[115.2005,-2.564],[115.2035,-2.563],[115.2195,-2.564],[115.236,-2.578],[115.2385,-2.578],[115.239,-2.578],[115.239,-2.575],[115.241,-2.5595],[115.2525,-2.5585],[115.2735,-2.568],[115.2815,-2.5585]]]},"properties":{"code":"63.07.04.2011","name":"Sungai Buluh"}},{"type":"Feature","geometry":{"type":"Polygon","coordinates":[[[115.312,-2.6205],[115.304,-2.6195],[115.2995,-2.618],[115.299,-2.6175],[115.301,-2.6235],[115.2865,-2.6355],[115.296,-2.6425],[115.3155,-2.641],[115.321,-2.638],[115.321,-2.6375],[115.324,-2.6235],[115.314,-2.623],[115.313,-2.6225],[115.313,-2.6215],[115.312,-2.6205]]]},"properties":{"code":"63.07.04.2012","name":"Kadundung"}},{"type":"Feature","geometry":{"type":"Polygon","coordinates":[[[115.2885,-2.6055],[115.29,-2.599],[115.279,-2.587],[115.2755,-2.578],[115.269,-2.573],[115.27,-2.5755],[115.2715,-2.5785],[115.2705,-2.5845],[115.269,-2.59],[115.2705,-2.5915],[115.273,-2.594],[115.2745,-2.606],[115.2815,-2.609],[115.2845,-2.607],[115.2885,-2.6055]]]},"properties":{"code":"63.07.04.2013","name":"Tungkup"}},{"type":"Feature","geometry":{"type":"Polygon","coordinates":[[[115.21,-2.608],[115.2045,-2.6055],[115.2005,-2.609],[115.2055,-2.6145],[115.204,-2.616],[115.199,-2.617],[115.189,-2.6325],[115.1935,-2.6395],[115.206,-2.634],[115.2145,-2.628],[115.2225,-2.6265],[115.232,-2.6395],[115.234,-2.6385],[115.239,-2.6375],[115.238,-2.632],[115.2375,-2.631],[115.2375,-2.6295],[115.2315,-2.6215],[115.231,-2.6175],[115.228,-2.6125],[115.224,-2.6055],[115.2225,-2.606],[115.2195,-2.6075],[115.21,-2.608]]]},"properties":{"code":"63.07.04.2014","name":"Tabat"}},{"type":"Feature","geometry":{"type":"Polygon","coordinates":[[[115.239,-2.578],[115.2385,-2.578],[115.236,-2.578],[115.2195,-2.564],[115.2035,-2.563],[115.2005,-2.564],[115.1995,-2.5645],[115.197,-2.568],[115.196,-2.5685],[115.194,-2.5695],[115.189,-2.574],[115.203,-2.5925],[115.21,-2.608],[115.2195,-2.6075],[115.2235,-2.606],[115.2255,-2.606],[115.23,-2.602],[115.2385,-2.5945],[115.239,-2.581],[115.239,-2.578]]]},"properties":{"code":"63.07.04.2015","name":"Rantau Bujur"}},{"type":"Feature","geometry":{"type":"Polygon","coordinates":[[[115.2735,-2.568],[115.2525,-2.5585],[115.241,-2.5595],[115.239,-2.575],[115.239,-2.581],[115.2385,-2.5945],[115.2365,-2.5965],[115.241,-2.6],[115.2525,-2.6005],[115.2645,-2.594],[115.2665,-2.595],[115.271,-2.5915],[115.269,-2.59],[115.2705,-2.5845],[115.2715,-2.5785],[115.27,-2.5755],[115.269,-2.573],[115.269,-2.5725],[115.2685,-2.57],[115.271,-2.569],[115.2735,-2.568]]]},"properties":{"code":"63.07.04.2016","name":"Binjai Pirua"}},{"type":"Feature","geometry":{"type":"Polygon","coordinates":[[[115.35,-2.604],[115.3495,-2.6025],[115.349,-2.602],[115.348,-2.6025],[115.3475,-2.602],[115.345,-2.5995],[115.333,-2.602],[115.3315,-2.602],[115.3305,-2.602],[115.33,-2.6025],[115.3315,-2.605],[115.337,-2.619],[115.3385,-2.619],[115.341,-2.6195],[115.35,-2.604]]]},"properties":{"code":"63.07.05.2001","name":"Jaranih"}},{"type":"Feature","geometry":{"type":"Polygon","coordinates":[[[115.334,-2.584],[115.3275,-2.5815],[115.3245,-2.591],[115.3285,-2.599],[115.3285,-2.6015],[115.3305,-2.602],[115.3315,-2.602],[115.333,-2.602],[115.345,-2.5995],[115.3455,-2.5945],[115.345,-2.594],[115.338,-2.589],[115.338,-2.59],[115.337,-2.589],[115.334,-2.584]]]},"properties":{"code":"63.07.05.2002","name":"Banua Hanyar"}},{"type":"Feature","geometry":{"type":"Polygon","coordinates":[[[115.3575,-2.577],[115.3525,-2.5785],[115.3515,-2.5785],[115.3465,-2.5755],[115.3465,-2.5765],[115.3465,-2.578],[115.346,-2.581],[115.3455,-2.582],[115.3465,-2.5815],[115.348,-2.582],[115.35,-2.582],[115.3515,-2.5815],[115.354,-2.582],[115.354,-2.5825],[115.356,-2.588],[115.3565,-2.588],[115.3565,-2.5885],[115.357,-2.5895],[115.358,-2.5895],[115.3605,-2.591],[115.3605,-2.5915],[115.361,-2.587],[115.362,-2.585],[115.362,-2.5845],[115.36,-2.583],[115.358,-2.5765],[115.3575,-2.577]]]},"properties":{"code":"63.07.05.2003","name":"Palajau"}},{"type":"Feature","geometry":{"type":"Polygon","coordinates":[[[115.3665,-2.5495],[115.349,-2.549],[115.3485,-2.552],[115.3485,-2.5535],[115.3495,-2.555],[115.3525,-2.563],[115.354,-2.562],[115.3565,-2.564],[115.357,-2.5655],[115.36,-2.5655],[115.3605,-2.565],[115.363,-2.5635],[115.366,-2.5595],[115.367,-2.558],[115.369,-2.5505],[115.367,-2.5495],[115.3665,-2.5495]]]},"properties":{"code":"63.07.05.2004","name":"Banua Batung"}},{"type":"Feature","geometry":{"type":"Polygon","coordinates":[[[115.376,-2.5385],[115.367,-2.5355],[115.354,-2.542],[115.347,-2.539],[115.346,-2.5395],[115.3485,-2.548],[115.349,-2.549],[115.3665,-2.5495],[115.3665,-2.549],[115.376,-2.5385]]]},"properties":{"code":"63.07.05.2005","name":"Jatuh"}},{"type":"Feature","geometry":{"type":"Polygon","coordinates":[[[115.3525,-2.563],[115.3415,-2.5705],[115.3465,-2.5735],[115.3465,-2.5745],[115.346,-2.5755],[115.3465,-2.5755],[115.3515,-2.5785],[115.3525,-2.5785],[115.3575,-2.577],[115.3565,-2.5655],[115.357,-2.5655],[115.3565,-2.564],[115.354,-2.562],[115.3525,-2.563]]]},"properties":{"code":"63.07.05.2006","name":"Pandawan"}},{"type":"Feature","geometry":{"type":"Polygon","coordinates":[[[115.3275,-2.5815],[115.296,-2.562],[115.2815,-2.5585],[115.2735,-2.568],[115.271,-2.569],[115.279,-2.569],[115.2965,-2.583],[115.309,-2.5835],[115.3245,-2.591],[115.3275,-2.5815]]]},"properties":{"code":"63.07.05.2007","name":"Mahang Matang Landung"}},{"type":"Feature","geometry":{"type":"Polygon","coordinates":[[[115.3435,-2.538],[115.3425,-2.537],[115.341,-2.537],[115.3365,-2.539],[115.3325,-2.5425],[115.3315,-2.546],[115.3435,-2.5555],[115.3485,-2.5535],[115.3485,-2.552],[115.3485,-2.548],[115.346,-2.5395],[115.3445,-2.5385],[115.3435,-2.538]]]},"properties":{"code":"63.07.05.2008","name":"Kambat Selatan"}},{"type":"Feature","geometry":{"type":"Polygon","coordinates":[[[115.321,-2.5065],[115.318,-2.492],[115.3175,-2.488],[115.307,-2.4965],[115.2955,-2.51],[115.2835,-2.515],[115.2485,-2.5325],[115.242,-2.534],[115.24,-2.535],[115.249,-2.537],[115.2795,-2.558],[115.2825,-2.5575],[115.3035,-2.5485],[115.305,-2.5435],[115.3055,-2.5425],[115.3065,-2.5415],[115.31,-2.543],[115.3215,-2.5465],[115.3155,-2.541],[115.314,-2.539],[115.3105,-2.5365],[115.3015,-2.512],[115.321,-2.5065]]]},"properties":{"code":"63.07.05.2009","name":"Kayu Rabah"}},{"type":"Feature","geometry":{"type":"Polygon","coordinates":[[[115.341,-2.537],[115.338,-2.537],[115.3245,-2.514],[115.321,-2.5065],[115.3015,-2.512],[115.3105,-2.5365],[115.314,-2.539],[115.3155,-2.541],[115.3215,-2.5465],[115.3295,-2.547],[115.3315,-2.546],[115.3325,-2.5425],[115.3365,-2.539],[115.341,-2.537]]]},"properties":{"code":"63.07.05.2010","name":"Setiap"}},{"type":"Feature","geometry":{"type":"Polygon","coordinates":[[[115.35,-2.507],[115.3305,-2.5035],[115.3325,-2.493],[115.321,-2.4845],[115.3175,-2.488],[115.318,-2.492],[115.3245,-2.514],[115.338,-2.537],[115.3425,-2.537],[115.3435,-2.538],[115.345,-2.53],[115.3565,-2.5215],[115.35,-2.507]]]},"properties":{"code":"63.07.05.2011","name":"Kambat Utara"}},{"type":"Feature","geometry":{"type":"Polygon","coordinates":[[[115.367,-2.574],[115.367,-2.57],[115.363,-2.568],[115.3615,-2.565],[115.3615,-2.5645],[115.36,-2.5655],[115.357,-2.5655],[115.3565,-2.5655],[115.3575,-2.577],[115.358,-2.5765],[115.3585,-2.5765],[115.367,-2.574]]]},"properties":{"code":"63.07.05.2012","name":"Banua Supanggal"}},{"type":"Feature","geometry":{"type":"Polygon","coordinates":[[[115.3685,-2.5815],[115.367,-2.574],[115.3585,-2.5765],[115.358,-2.5765],[115.36,-2.583],[115.362,-2.5845],[115.362,-2.585],[115.3625,-2.585],[115.368,-2.5815],[115.3685,-2.5815]]]},"properties":{"code":"63.07.05.2013","name":"Hulu Rasau"}},{"type":"Feature","geometry":{"type":"Polygon","coordinates":[[[115.3565,-2.5885],[115.356,-2.588],[115.354,-2.5825],[115.354,-2.582],[115.3515,-2.5815],[115.35,-2.582],[115.348,-2.582],[115.3465,-2.5815],[115.3455,-2.582],[115.345,-2.583],[115.338,-2.5885],[115.338,-2.589],[115.345,-2.594],[115.3455,-2.594],[115.3545,-2.591],[115.355,-2.5885],[115.356,-2.5885],[115.3565,-2.5885]]]},"properties":{"code":"63.07.05.2014","name":"Banua Asam"}},{"type":"Feature","geometry":{"type":"Polygon","coordinates":[[[115.3305,-2.602],[115.3285,-2.6015],[115.3285,-2.604],[115.321,-2.6095],[115.3185,-2.611],[115.3175,-2.612],[115.316,-2.6125],[115.3115,-2.619],[115.313,-2.6215],[115.313,-2.6225],[115.314,-2.623],[115.324,-2.6235],[115.325,-2.623],[115.326,-2.6225],[115.3285,-2.6235],[115.335,-2.6195],[115.337,-2.619],[115.3315,-2.605],[115.33,-2.6025],[115.3305,-2.602]]]},"properties":{"code":"63.07.05.2015","name":"Masiraan"}},{"type":"Feature","geometry":{"type":"Polygon","coordinates":[[[115.3415,-2.5705],[115.3405,-2.5695],[115.334,-2.584],[115.337,-2.589],[115.338,-2.59],[115.338,-2.5885],[115.345,-2.583],[115.3455,-2.5815],[115.346,-2.581],[115.3465,-2.578],[115.3465,-2.5765],[115.3465,-2.5755],[115.346,-2.5755],[115.3465,-2.5745],[115.3465,-2.5735],[115.3415,-2.5705]]]},"properties":{"code":"63.07.05.2016","name":"Mahang Putat"}},{"type":"Feature","geometry":{"type":"Polygon","coordinates":[[[115.311,-2.563],[115.3035,-2.5485],[115.2825,-2.5575],[115.2815,-2.5585],[115.296,-2.562],[115.3275,-2.5815],[115.334,-2.584],[115.3405,-2.5695],[115.337,-2.5685],[115.3265,-2.5625],[115.311,-2.563]]]},"properties":{"code":"63.07.05.2017","name":"Mahang Sungai Hanyar"}},{"type":"Feature","geometry":{"type":"Polygon","coordinates":[[[115.367,-2.5355],[115.3675,-2.5285],[115.3565,-2.5215],[115.345,-2.53],[115.3435,-2.538],[115.3445,-2.5385],[115.347,-2.539],[115.354,-2.542],[115.367,-2.5355]]]},"properties":{"code":"63.07.05.2018","name":"Hilir Banua"}},{"type":"Feature","geometry":{"type":"Polygon","coordinates":[[[115.3525,-2.563],[115.3495,-2.555],[115.3485,-2.5535],[115.3435,-2.5555],[115.3325,-2.56],[115.311,-2.563],[115.3265,-2.5625],[115.337,-2.5685],[115.3405,-2.5695],[115.3415,-2.5705],[115.3525,-2.563]]]},"properties":{"code":"63.07.05.2019","name":"Buluan"}},{"type":"Feature","geometry":{"type":"Polygon","coordinates":[[[115.369,-2.5815],[115.369,-2.581],[115.368,-2.5815],[115.3625,-2.585],[115.362,-2.585],[115.361,-2.587],[115.3605,-2.592],[115.361,-2.592],[115.363,-2.5915],[115.3645,-2.5915],[115.3695,-2.59],[115.3715,-2.5875],[115.3745,-2.5885],[115.377,-2.585],[115.3755,-2.584],[115.375,-2.5835],[115.369,-2.5815]]]},"properties":{"code":"63.07.05.2020","name":"Matang Ginalun"}},{"type":"Feature","geometry":{"type":"Polygon","coordinates":[[[115.3215,-2.5465],[115.31,-2.543],[115.3065,-2.5415],[115.3055,-2.5425],[115.305,-2.5435],[115.3035,-2.5485],[115.311,-2.563],[115.3325,-2.56],[115.3435,-2.5555],[115.3315,-2.546],[115.3295,-2.547],[115.3215,-2.5465]]]},"properties":{"code":"63.07.05.2021","name":"Walatung"}},{"type":"Feature","geometry":{"type":"Polygon","coordinates":[[[115.3925,-2.583],[115.391,-2.5835],[115.3885,-2.5825],[115.3875,-2.583],[115.3885,-2.584],[115.3865,-2.585],[115.3865,-2.5855],[115.3835,-2.588],[115.3825,-2.589],[115.3815,-2.5895],[115.376,-2.593],[115.3765,-2.5945],[115.376,-2.5965],[115.376,-2.597],[115.378,-2.598],[115.379,-2.598],[115.3805,-2.598],[115.3815,-2.598],[115.3895,-2.6025],[115.388,-2.599],[115.3875,-2.5955],[115.3875,-2.5895],[115.3875,-2.589],[115.3925,-2.5875],[115.3955,-2.5865],[115.392,-2.584],[115.3925,-2.583]]]},"properties":{"code":"63.07.06.1001","name":"Barabai Darat"}},{"type":"Feature","geometry":{"type":"Polygon","coordinates":[[[115.3925,-2.583],[115.3925,-2.5825],[115.391,-2.581],[115.388,-2.574],[115.388,-2.573],[115.384,-2.5735],[115.384,-2.5745],[115.3835,-2.576],[115.3835,-2.5775],[115.3825,-2.5795],[115.382,-2.5805],[115.3845,-2.583],[115.3865,-2.585],[115.3885,-2.584],[115.3875,-2.583],[115.3885,-2.5825],[115.391,-2.5835],[115.3925,-2.583]]]},"properties":{"code":"63.07.06.1002","name":"Barabai Timur"}},{"type":"Feature","geometry":{"type":"Polygon","coordinates":[[[115.3865,-2.585],[115.3845,-2.583],[115.38,-2.588],[115.3815,-2.589],[115.3825,-2.589],[115.3835,-2.588],[115.3865,-2.5855],[115.3865,-2.585]]]},"properties":{"code":"63.07.06.1003","name":"Barabai Selatan"}},{"type":"Feature","geometry":{"type":"Polygon","coordinates":[[[115.382,-2.58],[115.3815,-2.58],[115.3815,-2.5805],[115.381,-2.58],[115.3805,-2.5805],[115.3785,-2.5815],[115.3765,-2.582],[115.3755,-2.583],[115.375,-2.5835],[115.3755,-2.584],[115.377,-2.585],[115.3755,-2.5875],[115.38,-2.588],[115.3845,-2.583],[115.382,-2.5805],[115.382,-2.58]]]},"properties":{"code":"63.07.06.1004","name":"Barabai Utara"}},{"type":"Feature","geometry":{"type":"Polygon","coordinates":[[[115.38,-2.588],[115.3755,-2.5875],[115.373,-2.5905],[115.376,-2.593],[115.3815,-2.5895],[115.3815,-2.589],[115.38,-2.588]]]},"properties":{"code":"63.07.06.1005","name":"Barabai Barat"}},{"type":"Feature","geometry":{"type":"Polygon","coordinates":[[[115.3745,-2.5885],[115.3715,-2.5875],[115.3695,-2.59],[115.3645,-2.5915],[115.363,-2.5915],[115.361,-2.592],[115.3605,-2.592],[115.3605,-2.5945],[115.3615,-2.6015],[115.376,-2.5965],[115.3765,-2.5945],[115.373,-2.5905],[115.3745,-2.5885]]]},"properties":{"code":"63.07.06.1006","name":"Bukat"}},{"type":"Feature","geometry":{"type":"Polygon","coordinates":[[[115.403,-2.6045],[115.399,-2.6045],[115.3985,-2.604],[115.3985,-2.6055],[115.399,-2.606],[115.398,-2.6065],[115.3995,-2.616],[115.4035,-2.62],[115.4095,-2.6195],[115.4135,-2.619],[115.417,-2.616],[115.4185,-2.612],[115.4185,-2.6105],[115.4085,-2.6045],[115.403,-2.6045]]]},"properties":{"code":"63.07.06.2007","name":"Gambah"}},{"type":"Feature","geometry":{"type":"Polygon","coordinates":[[[115.3895,-2.6025],[115.3815,-2.598],[115.3805,-2.598],[115.379,-2.6025],[115.3775,-2.6075],[115.378,-2.608],[115.3815,-2.612],[115.382,-2.613],[115.3825,-2.612],[115.382,-2.611],[115.382,-2.6105],[115.383,-2.6105],[115.384,-2.612],[115.3865,-2.613],[115.3995,-2.616],[115.398,-2.6065],[115.399,-2.606],[115.3985,-2.6055],[115.3985,-2.604],[115.3965,-2.6035],[115.395,-2.6035],[115.3935,-2.603],[115.391,-2.6025],[115.39,-2.602],[115.3895,-2.6025]]]},"properties":{"code":"63.07.06.2008","name":"Kayu Bawang"}},{"type":"Feature","geometry":{"type":"Polygon","coordinates":[[[115.4005,-2.5865],[115.4005,-2.586],[115.4,-2.586],[115.3975,-2.5855],[115.3965,-2.587],[115.3925,-2.5875],[115.3875,-2.589],[115.3875,-2.5895],[115.3875,-2.5955],[115.388,-2.599],[115.3895,-2.6025],[115.39,-2.602],[115.391,-2.6025],[115.3935,-2.603],[115.395,-2.6035],[115.3965,-2.6035],[115.3985,-2.604],[115.399,-2.6045],[115.403,-2.6045],[115.401,-2.5885],[115.4,-2.5875],[115.4005,-2.587],[115.4005,-2.5865]]]},"properties":{"code":"63.07.06.2009","name":"Benawa Tengah"}},{"type":"Feature","geometry":{"type":"Polygon","coordinates":[[[115.4105,-2.568],[115.406,-2.5575],[115.4025,-2.5585],[115.392,-2.562],[115.3875,-2.572],[115.388,-2.574],[115.391,-2.581],[115.3925,-2.5825],[115.3925,-2.583],[115.392,-2.584],[115.3955,-2.5865],[115.3965,-2.587],[115.3975,-2.5855],[115.4,-2.586],[115.4005,-2.586],[115.4005,-2.5865],[115.401,-2.586],[115.4025,-2.585],[115.404,-2.584],[115.4065,-2.5825],[115.409,-2.581],[115.412,-2.5775],[115.412,-2.5755],[115.409,-2.571],[115.4105,-2.568]]]},"properties":{"code":"63.07.06.2010","name":"Mandingin"}},{"type":"Feature","geometry":{"type":"Polygon","coordinates":[[[115.3565,-2.5885],[115.356,-2.5885],[115.355,-2.5885],[115.3545,-2.591],[115.3455,-2.594],[115.3455,-2.5945],[115.345,-2.5995],[115.3475,-2.602],[115.348,-2.6025],[115.349,-2.602],[115.3495,-2.6025],[115.35,-2.604],[115.351,-2.604],[115.355,-2.6045],[115.3555,-2.604],[115.357,-2.604],[115.357,-2.6035],[115.359,-2.6015],[115.3605,-2.6025],[115.361,-2.6025],[115.3615,-2.6015],[115.3605,-2.5945],[115.3605,-2.5915],[115.3605,-2.591],[115.358,-2.5895],[115.357,-2.5895],[115.3565,-2.5885]]]},"properties":{"code":"63.07.06.2011","name":"Pajukungan"}},{"type":"Feature","geometry":{"type":"Polygon","coordinates":[[[115.376,-2.564],[115.372,-2.561],[115.371,-2.5605],[115.3675,-2.5605],[115.367,-2.559],[115.3665,-2.5585],[115.366,-2.5595],[115.363,-2.5635],[115.3615,-2.5645],[115.3615,-2.565],[115.363,-2.568],[115.367,-2.57],[115.367,-2.574],[115.3685,-2.5815],[115.369,-2.581],[115.369,-2.5815],[115.376,-2.5645],[115.376,-2.564]]]},"properties":{"code":"63.07.06.2012","name":"Banua Budi"}},{"type":"Feature","geometry":{"type":"Polygon","coordinates":[[[115.384,-2.5735],[115.3815,-2.5745],[115.3815,-2.5725],[115.377,-2.5635],[115.376,-2.5645],[115.369,-2.5815],[115.375,-2.5835],[115.3755,-2.583],[115.3765,-2.582],[115.3785,-2.5815],[115.3805,-2.5805],[115.381,-2.58],[115.3815,-2.5805],[115.3815,-2.58],[115.382,-2.58],[115.3825,-2.5795],[115.3835,-2.5775],[115.3835,-2.576],[115.384,-2.5745],[115.384,-2.5735]]]},"properties":{"code":"63.07.06.2013","name":"Banua Binjai"}},{"type":"Feature","geometry":{"type":"Polygon","coordinates":[[[115.3875,-2.5485],[115.387,-2.5485],[115.3845,-2.5485],[115.377,-2.5635],[115.3815,-2.5725],[115.3815,-2.5745],[115.3835,-2.5735],[115.388,-2.573],[115.3875,-2.572],[115.392,-2.562],[115.395,-2.561],[115.3875,-2.5485]]]},"properties":{"code":"63.07.06.2014","name":"Banua Jingah"}},{"type":"Feature","geometry":{"type":"Polygon","coordinates":[[[115.399,-2.5365],[115.391,-2.5305],[115.382,-2.5385],[115.3845,-2.5485],[115.387,-2.5485],[115.3885,-2.548],[115.394,-2.5405],[115.396,-2.5395],[115.407,-2.541],[115.408,-2.541],[115.408,-2.539],[115.4085,-2.5375],[115.4085,-2.5355],[115.408,-2.536],[115.399,-2.5365]]]},"properties":{"code":"63.07.06.2015","name":"Ayuang"}},{"type":"Feature","geometry":{"type":"Polygon","coordinates":[[[115.382,-2.5385],[115.376,-2.5385],[115.3665,-2.549],[115.3665,-2.5495],[115.367,-2.5495],[115.369,-2.5505],[115.367,-2.558],[115.3665,-2.5585],[115.367,-2.559],[115.3675,-2.5605],[115.371,-2.5605],[115.372,-2.561],[115.376,-2.564],[115.377,-2.5635],[115.3845,-2.5485],[115.382,-2.5385]]]},"properties":{"code":"63.07.06.2016","name":"Babai"}},{"type":"Feature","geometry":{"type":"Polygon","coordinates":[[[115.3995,-2.616],[115.3865,-2.613],[115.384,-2.612],[115.383,-2.6105],[115.382,-2.6105],[115.382,-2.611],[115.3825,-2.612],[115.382,-2.613],[115.3825,-2.6135],[115.377,-2.621],[115.376,-2.6205],[115.376,-2.622],[115.3765,-2.623],[115.376,-2.624],[115.3765,-2.624],[115.3815,-2.625],[115.383,-2.6245],[115.4,-2.6235],[115.401,-2.6235],[115.4015,-2.624],[115.4035,-2.62],[115.3995,-2.616]]]},"properties":{"code":"63.07.06.2017","name":"Awang Besar"}},{"type":"Feature","geometry":{"type":"Polygon","coordinates":[[[115.4075,-2.541],[115.407,-2.541],[115.396,-2.5395],[115.394,-2.5405],[115.3885,-2.548],[115.3875,-2.5485],[115.395,-2.561],[115.4025,-2.5585],[115.406,-2.5575],[115.407,-2.5555],[115.4075,-2.5505],[115.408,-2.5455],[115.408,-2.5445],[115.407,-2.5425],[115.4075,-2.5415],[115.4075,-2.541]]]},"properties":{"code":"63.07.06.2018","name":"Bakapas"}},{"type":"Feature","geometry":{"type":"Polygon","coordinates":[[[115.4535,-2.549],[115.4515,-2.5465],[115.4505,-2.548],[115.4495,-2.5465],[115.4495,-2.545],[115.448,-2.5445],[115.446,-2.545],[115.446,-2.5435],[115.4455,-2.5435],[115.443,-2.5455],[115.4425,-2.5515],[115.4445,-2.5515],[115.4535,-2.5575],[115.4535,-2.549]]]},"properties":{"code":"63.07.07.1001","name":"Birayang"}},{"type":"Feature","geometry":{"type":"Polygon","coordinates":[[[115.429,-2.556],[115.4245,-2.552],[115.422,-2.5525],[115.423,-2.555],[115.4175,-2.5635],[115.4165,-2.5635],[115.4155,-2.564],[115.414,-2.565],[115.4115,-2.5675],[115.409,-2.571],[115.412,-2.5755],[115.412,-2.5775],[115.409,-2.581],[115.409,-2.582],[115.41,-2.582],[115.4115,-2.582],[115.425,-2.575],[115.4285,-2.5735],[115.4325,-2.5705],[115.4325,-2.5695],[115.433,-2.569],[115.43,-2.5625],[115.4295,-2.561],[115.429,-2.556]]]},"properties":{"code":"63.07.07.2002","name":"Kias"}},{"type":"Feature","geometry":{"type":"Polygon","coordinates":[[[115.4195,-2.5505],[115.408,-2.5525],[115.407,-2.5555],[115.406,-2.5575],[115.4105,-2.568],[115.4115,-2.5675],[115.414,-2.565],[115.4155,-2.564],[115.4165,-2.5635],[115.4175,-2.5635],[115.423,-2.555],[115.422,-2.5525],[115.42,-2.5525],[115.4195,-2.5505]]]},"properties":{"code":"63.07.07.2003","name":"Kapar"}},{"type":"Feature","geometry":{"type":"Polygon","coordinates":[[[115.418,-2.536],[115.41,-2.5355],[115.4085,-2.5355],[115.4085,-2.5375],[115.408,-2.539],[115.408,-2.541],[115.4075,-2.541],[115.4075,-2.5415],[115.407,-2.5425],[115.408,-2.5445],[115.408,-2.5455],[115.4075,-2.5505],[115.408,-2.5525],[115.4195,-2.5505],[115.4195,-2.55],[115.42,-2.5495],[115.4195,-2.5485],[115.4195,-2.548],[115.4195,-2.547],[115.4205,-2.546],[115.4205,-2.5445],[115.4205,-2.5435],[115.4205,-2.5405],[115.4215,-2.539],[115.422,-2.538],[115.423,-2.5365],[115.423,-2.535],[115.424,-2.535],[115.424,-2.5345],[115.418,-2.536]]]},"properties":{"code":"63.07.07.2004","name":"Tembok Bahalang"}},{"type":"Feature","geometry":{"type":"Polygon","coordinates":[[[115.4495,-2.535],[115.4515,-2.5275],[115.4355,-2.5385],[115.435,-2.539],[115.4345,-2.539],[115.434,-2.539],[115.4335,-2.539],[115.433,-2.539],[115.433,-2.5395],[115.4345,-2.5405],[115.441,-2.5425],[115.4425,-2.543],[115.443,-2.5455],[115.4455,-2.5435],[115.445,-2.5425],[115.445,-2.541],[115.4465,-2.537],[115.4495,-2.535]]]},"properties":{"code":"63.07.07.2005","name":"Limbar"}},{"type":"Feature","geometry":{"type":"Polygon","coordinates":[[[115.443,-2.5455],[115.4425,-2.543],[115.441,-2.5425],[115.4345,-2.5405],[115.433,-2.5395],[115.433,-2.539],[115.432,-2.5395],[115.43,-2.54],[115.4275,-2.5405],[115.4275,-2.541],[115.4265,-2.5405],[115.4275,-2.542],[115.43,-2.546],[115.4305,-2.5465],[115.4315,-2.5525],[115.432,-2.554],[115.4315,-2.555],[115.4315,-2.5555],[115.4415,-2.556],[115.443,-2.553],[115.443,-2.5515],[115.4425,-2.5515],[115.443,-2.5455]]]},"properties":{"code":"63.07.07.2006","name":"Lok Basar"}},{"type":"Feature","geometry":{"type":"Polygon","coordinates":[[[115.448,-2.5815],[115.445,-2.578],[115.4455,-2.576],[115.4545,-2.5665],[115.4445,-2.5675],[115.4355,-2.5695],[115.434,-2.57],[115.4325,-2.57],[115.4325,-2.5705],[115.4285,-2.5735],[115.428,-2.5735],[115.4295,-2.5775],[115.4305,-2.58],[115.435,-2.584],[115.437,-2.5825],[115.4375,-2.5825],[115.4425,-2.5835],[115.445,-2.5845],[115.446,-2.587],[115.448,-2.5815]]]},"properties":{"code":"63.07.07.2007","name":"Paya"}},{"type":"Feature","geometry":{"type":"Polygon","coordinates":[[[115.464,-2.563],[115.463,-2.563],[115.4615,-2.561],[115.461,-2.56],[115.4575,-2.561],[115.456,-2.561],[115.455,-2.561],[115.4555,-2.5625],[115.457,-2.566],[115.4545,-2.5665],[115.4455,-2.576],[115.445,-2.578],[115.448,-2.5815],[115.449,-2.5815],[115.463,-2.572],[115.464,-2.563]]]},"properties":{"code":"63.07.07.2008","name":"Cukan Lipai"}},{"type":"Feature","geometry":{"type":"Polygon","coordinates":[[[115.459,-2.539],[115.4575,-2.5385],[115.4545,-2.5355],[115.4505,-2.5355],[115.4465,-2.537],[115.445,-2.541],[115.445,-2.5425],[115.4455,-2.5435],[115.446,-2.5435],[115.446,-2.545],[115.448,-2.5445],[115.4495,-2.545],[115.4495,-2.5465],[115.4505,-2.548],[115.4515,-2.5465],[115.4535,-2.549],[115.454,-2.5485],[115.4575,-2.545],[115.459,-2.54],[115.459,-2.539]]]},"properties":{"code":"63.07.07.2009","name":"Birayang Surapati"}},{"type":"Feature","geometry":{"type":"Polygon","coordinates":[[[115.4625,-2.5205],[115.4505,-2.5215],[115.4495,-2.522],[115.4515,-2.5275],[115.4495,-2.535],[115.4505,-2.5355],[115.4545,-2.5355],[115.4575,-2.5385],[115.459,-2.539],[115.46,-2.534],[115.47,-2.5285],[115.4705,-2.526],[115.469,-2.5235],[115.4625,-2.5205]]]},"properties":{"code":"63.07.07.2010","name":"Mahela"}},{"type":"Feature","geometry":{"type":"Polygon","coordinates":[[[115.473,-2.5335],[115.4705,-2.53],[115.47,-2.5285],[115.46,-2.534],[115.459,-2.54],[115.4575,-2.545],[115.458,-2.5455],[115.458,-2.5475],[115.4585,-2.548],[115.4595,-2.548],[115.4625,-2.5475],[115.462,-2.5475],[115.462,-2.548],[115.4625,-2.5485],[115.4655,-2.548],[115.469,-2.5495],[115.469,-2.5475],[115.4695,-2.5475],[115.473,-2.5335]]]},"properties":{"code":"63.07.07.2011","name":"Rangas"}},{"type":"Feature","geometry":{"type":"Polygon","coordinates":[[[115.4905,-2.5435],[115.4755,-2.5495],[115.475,-2.5515],[115.476,-2.5525],[115.477,-2.556],[115.474,-2.5615],[115.4915,-2.5635],[115.494,-2.5635],[115.4905,-2.5435]]]},"properties":{"code":"63.07.07.2012","name":"Wawai Gardu"}},{"type":"Feature","geometry":{"type":"Polygon","coordinates":[[[115.5105,-2.54],[115.5095,-2.539],[115.509,-2.5325],[115.513,-2.525],[115.5,-2.5305],[115.491,-2.531],[115.49,-2.5305],[115.4905,-2.5435],[115.494,-2.5635],[115.501,-2.564],[115.503,-2.5645],[115.509,-2.5545],[115.516,-2.547],[115.5105,-2.54]]]},"properties":{"code":"63.07.07.2013","name":"Labuhan"}},{"type":"Feature","geometry":{"type":"Polygon","coordinates":[[[115.4575,-2.545],[115.454,-2.5485],[115.4535,-2.549],[115.4535,-2.5575],[115.455,-2.5605],[115.455,-2.561],[115.456,-2.561],[115.4575,-2.561],[115.461,-2.56],[115.46,-2.558],[115.461,-2.5485],[115.4625,-2.5475],[115.4595,-2.548],[115.4585,-2.548],[115.458,-2.5475],[115.458,-2.5455],[115.4575,-2.545]]]},"properties":{"code":"63.07.07.2014","name":"Birayang Timur"}},{"type":"Feature","geometry":{"type":"Polygon","coordinates":[[[115.474,-2.5615],[115.466,-2.5625],[115.464,-2.563],[115.463,-2.572],[115.449,-2.5815],[115.448,-2.5815],[115.446,-2.587],[115.451,-2.588],[115.454,-2.5885],[115.461,-2.596],[115.477,-2.598],[115.4805,-2.6],[115.4875,-2.603],[115.496,-2.5935],[115.509,-2.598],[115.51,-2.598],[115.5045,-2.587],[115.492,-2.575],[115.503,-2.5645],[115.501,-2.564],[115.4915,-2.5635],[115.474,-2.5615]]]},"properties":{"code":"63.07.07.2015","name":"Tanah Habang"}},{"type":"Feature","geometry":{"type":"Polygon","coordinates":[[[115.428,-2.5405],[115.422,-2.5385],[115.4215,-2.539],[115.4205,-2.5405],[115.4205,-2.5435],[115.4205,-2.5445],[115.4205,-2.546],[115.4195,-2.547],[115.4195,-2.548],[115.4195,-2.5485],[115.42,-2.5495],[115.4195,-2.55],[115.4195,-2.5505],[115.42,-2.5525],[115.4245,-2.552],[115.429,-2.556],[115.4315,-2.555],[115.432,-2.554],[115.4315,-2.5525],[115.4305,-2.5465],[115.43,-2.546],[115.4275,-2.542],[115.4265,-2.5405],[115.4275,-2.541],[115.4275,-2.5405],[115.428,-2.5405]]]},"properties":{"code":"63.07.07.2016","name":"Banua Rantau"}},{"type":"Feature","geometry":{"type":"Polygon","coordinates":[[[115.49,-2.5305],[115.488,-2.53],[115.473,-2.5335],[115.4695,-2.5475],[115.4725,-2.5495],[115.4745,-2.552],[115.475,-2.552],[115.475,-2.5505],[115.4755,-2.5495],[115.4905,-2.5435],[115.49,-2.5305]]]},"properties":{"code":"63.07.07.2017","name":"Anduhum"}},{"type":"Feature","geometry":{"type":"Polygon","coordinates":[[[115.475,-2.5515],[115.475,-2.552],[115.4745,-2.552],[115.4725,-2.5495],[115.469,-2.5475],[115.469,-2.5495],[115.4655,-2.548],[115.4625,-2.5485],[115.462,-2.5485],[115.462,-2.5475],[115.461,-2.5485],[115.46,-2.558],[115.461,-2.56],[115.4615,-2.561],[115.463,-2.563],[115.466,-2.5625],[115.474,-2.5615],[115.477,-2.556],[115.476,-2.5525],[115.475,-2.5515]]]},"properties":{"code":"63.07.07.2018","name":"Wawai"}},{"type":"Feature","geometry":{"type":"Polygon","coordinates":[[[115.4535,-2.5575],[115.4445,-2.5515],[115.443,-2.5515],[115.443,-2.553],[115.4415,-2.556],[115.4315,-2.5555],[115.429,-2.556],[115.4295,-2.561],[115.43,-2.5625],[115.433,-2.569],[115.4325,-2.57],[115.434,-2.57],[115.4355,-2.5695],[115.4445,-2.5675],[115.457,-2.566],[115.4555,-2.5625],[115.455,-2.5615],[115.455,-2.5605],[115.4535,-2.5575]]]},"properties":{"code":"63.07.07.2019","name":"Lunjuk"}},{"type":"Feature","geometry":{"type":"Polygon","coordinates":[[[115.392,-2.5135],[115.39,-2.5125],[115.3855,-2.5145],[115.3815,-2.514],[115.377,-2.5105],[115.376,-2.5105],[115.375,-2.511],[115.371,-2.5165],[115.3665,-2.5135],[115.377,-2.5275],[115.3785,-2.5275],[115.38,-2.5205],[115.3825,-2.5165],[115.388,-2.516],[115.3915,-2.517],[115.392,-2.5135]]]},"properties":{"code":"63.07.08.2001","name":"Sumanggi Seberang"}},{"type":"Feature","geometry":{"type":"Polygon","coordinates":[[[115.3915,-2.517],[115.388,-2.516],[115.3825,-2.5165],[115.38,-2.5205],[115.385,-2.5235],[115.386,-2.5235],[115.3865,-2.5235],[115.389,-2.5245],[115.3905,-2.5275],[115.397,-2.53],[115.399,-2.53],[115.3995,-2.53],[115.4,-2.5305],[115.4,-2.5295],[115.399,-2.521],[115.3915,-2.517]]]},"properties":{"code":"63.07.08.2002","name":"Sumanggi"}},{"type":"Feature","geometry":{"type":"Polygon","coordinates":[[[115.4225,-2.514],[115.4065,-2.5165],[115.4055,-2.516],[115.4055,-2.5165],[115.4055,-2.519],[115.406,-2.5195],[115.4095,-2.5195],[115.4105,-2.5215],[115.4115,-2.5235],[115.4175,-2.525],[115.418,-2.5235],[115.4195,-2.518],[115.4205,-2.516],[115.4225,-2.514]]]},"properties":{"code":"63.07.08.2003","name":"Ilung"}},{"type":"Feature","geometry":{"type":"Polygon","coordinates":[[[115.4175,-2.505],[115.4095,-2.508],[115.408,-2.5065],[115.395,-2.501],[115.394,-2.5005],[115.3925,-2.5015],[115.391,-2.5005],[115.388,-2.5005],[115.388,-2.499],[115.3855,-2.498],[115.384,-2.4975],[115.383,-2.499],[115.369,-2.505],[115.375,-2.511],[115.376,-2.5105],[115.377,-2.5105],[115.3815,-2.514],[115.3855,-2.5145],[115.39,-2.5125],[115.3935,-2.5135],[115.394,-2.514],[115.395,-2.514],[115.4055,-2.516],[115.4065,-2.5165],[115.4225,-2.514],[115.4175,-2.505]]]},"properties":{"code":"63.07.08.2004","name":"Maringgit"}},{"type":"Feature","geometry":{"type":"Polygon","coordinates":[[[115.423,-2.484],[115.402,-2.4815],[115.3955,-2.4765],[115.394,-2.477],[115.3925,-2.489],[115.392,-2.4905],[115.397,-2.498],[115.4175,-2.4955],[115.4225,-2.495],[115.423,-2.484]]]},"properties":{"code":"63.07.08.2005","name":"Telang"}},{"type":"Feature","geometry":{"type":"Polygon","coordinates":[[[115.4335,-2.4745],[115.423,-2.484],[115.4225,-2.495],[115.419,-2.4955],[115.4175,-2.503],[115.4175,-2.505],[115.4225,-2.514],[115.4265,-2.516],[115.4285,-2.5165],[115.433,-2.5165],[115.435,-2.5175],[115.436,-2.5175],[115.4375,-2.5185],[115.4375,-2.518],[115.4375,-2.5175],[115.4425,-2.516],[115.44,-2.4855],[115.4405,-2.484],[115.4385,-2.483],[115.437,-2.48],[115.435,-2.4785],[115.4345,-2.4775],[115.4335,-2.4775],[115.434,-2.4755],[115.4335,-2.4745]]]},"properties":{"code":"63.07.08.2008","name":"Labunganak"}},{"type":"Feature","geometry":{"type":"Polygon","coordinates":[[[115.4375,-2.5185],[115.436,-2.5175],[115.435,-2.5175],[115.433,-2.5165],[115.4285,-2.5165],[115.4265,-2.516],[115.4225,-2.514],[115.4205,-2.516],[115.4195,-2.518],[115.418,-2.5235],[115.417,-2.527],[115.417,-2.5285],[115.417,-2.5295],[115.417,-2.5315],[115.418,-2.5325],[115.418,-2.5345],[115.418,-2.536],[115.424,-2.5345],[115.4245,-2.5335],[115.4255,-2.5305],[115.4265,-2.528],[115.432,-2.5215],[115.4325,-2.5215],[115.433,-2.5205],[115.434,-2.5205],[115.4365,-2.5185],[115.4375,-2.5185]]]},"properties":{"code":"63.07.08.2009","name":"Hapingin"}},{"type":"Feature","geometry":{"type":"Polygon","coordinates":[[[115.45,-2.522],[115.4425,-2.516],[115.4375,-2.5175],[115.4375,-2.518],[115.4365,-2.5185],[115.434,-2.5205],[115.433,-2.5205],[115.4325,-2.5215],[115.432,-2.5215],[115.4265,-2.528],[115.4255,-2.5305],[115.4245,-2.5335],[115.424,-2.5345],[115.424,-2.535],[115.423,-2.535],[115.423,-2.5365],[115.422,-2.538],[115.422,-2.5385],[115.428,-2.5405],[115.43,-2.54],[115.432,-2.5395],[115.4325,-2.5395],[115.4335,-2.539],[115.434,-2.539],[115.4345,-2.539],[115.435,-2.539],[115.4355,-2.5385],[115.4515,-2.5275],[115.4495,-2.522],[115.45,-2.522]]]},"properties":{"code":"63.07.08.2010","name":"Dangu"}},{"type":"Feature","geometry":{"type":"Polygon","coordinates":[[[115.4055,-2.516],[115.395,-2.514],[115.394,-2.514],[115.3935,-2.5135],[115.392,-2.5135],[115.3915,-2.517],[115.399,-2.521],[115.4115,-2.5235],[115.4105,-2.5215],[115.4095,-2.5195],[115.406,-2.5195],[115.4055,-2.519],[115.4055,-2.5165],[115.4055,-2.516]]]},"properties":{"code":"63.07.08.2013","name":"Ilung Tengah"}},{"type":"Feature","geometry":{"type":"Polygon","coordinates":[[[115.4195,-2.461],[115.4165,-2.4585],[115.3995,-2.4535],[115.3975,-2.456],[115.3905,-2.473],[115.394,-2.477],[115.3955,-2.4765],[115.402,-2.4815],[115.423,-2.484],[115.4335,-2.4745],[115.4355,-2.47],[115.4365,-2.47],[115.4385,-2.466],[115.4195,-2.461]]]},"properties":{"code":"63.07.08.2014","name":"Haur Gading"}},{"type":"Feature","geometry":{"type":"Polygon","coordinates":[[[115.3415,-2.4685],[115.321,-2.4845],[115.3325,-2.493],[115.3305,-2.5035],[115.35,-2.507],[115.361,-2.5085],[115.371,-2.5165],[115.375,-2.511],[115.369,-2.505],[115.3675,-2.5035],[115.367,-2.503],[115.367,-2.502],[115.365,-2.5],[115.3525,-2.492],[115.348,-2.4775],[115.3415,-2.4685]]]},"properties":{"code":"63.07.08.2018","name":"Awang"}},{"type":"Feature","geometry":{"type":"Polygon","coordinates":[[[115.3665,-2.5135],[115.361,-2.5085],[115.35,-2.507],[115.3565,-2.5215],[115.3675,-2.5285],[115.367,-2.5355],[115.376,-2.5385],[115.382,-2.5385],[115.391,-2.5305],[115.399,-2.5365],[115.398,-2.5315],[115.3995,-2.531],[115.4,-2.531],[115.4,-2.5305],[115.3995,-2.53],[115.399,-2.53],[115.397,-2.53],[115.3905,-2.5275],[115.389,-2.5245],[115.3865,-2.5235],[115.386,-2.5235],[115.385,-2.5235],[115.38,-2.5205],[115.3785,-2.5275],[115.377,-2.5275],[115.3665,-2.5135]]]},"properties":{"code":"63.07.08.2019","name":"Awang Baru"}},{"type":"Feature","geometry":{"type":"Polygon","coordinates":[[[115.419,-2.4955],[115.4175,-2.4955],[115.397,-2.498],[115.392,-2.4905],[115.391,-2.4925],[115.386,-2.494],[115.384,-2.4975],[115.3855,-2.498],[115.388,-2.499],[115.388,-2.5005],[115.391,-2.5005],[115.3925,-2.5015],[115.394,-2.5005],[115.395,-2.501],[115.408,-2.5065],[115.4095,-2.508],[115.4175,-2.505],[115.4175,-2.503],[115.419,-2.4955]]]},"properties":{"code":"63.07.08.2020","name":"Muara Rintis"}},{"type":"Feature","geometry":{"type":"Polygon","coordinates":[[[115.4115,-2.5235],[115.399,-2.521],[115.4,-2.5295],[115.4,-2.53],[115.4,-2.531],[115.3995,-2.531],[115.398,-2.5315],[115.399,-2.5365],[115.408,-2.536],[115.4085,-2.5355],[115.41,-2.5355],[115.418,-2.536],[115.418,-2.5345],[115.418,-2.5325],[115.417,-2.5315],[115.417,-2.5295],[115.417,-2.5285],[115.417,-2.527],[115.4175,-2.525],[115.4115,-2.5235]]]},"properties":{"code":"63.07.08.2021","name":"Ilung Pasar Lama"}},{"type":"Feature","geometry":{"type":"Polygon","coordinates":[[[115.4695,-2.626],[115.451,-2.6385],[115.442,-2.639],[115.443,-2.6455],[115.445,-2.646],[115.446,-2.6455],[115.448,-2.643],[115.4505,-2.6415],[115.4525,-2.6415],[115.4555,-2.6425],[115.459,-2.6425],[115.463,-2.642],[115.468,-2.64],[115.4695,-2.626]]]},"properties":{"code":"63.07.09.2001","name":"Hantakan"}},{"type":"Feature","geometry":{"type":"Polygon","coordinates":[[[115.5005,-2.6325],[115.5035,-2.6245],[115.485,-2.6165],[115.483,-2.619],[115.471,-2.625],[115.4695,-2.626],[115.468,-2.64],[115.5005,-2.6325]]]},"properties":{"code":"63.07.09.2002","name":"Alat"}},{"type":"Feature","geometry":{"type":"Polygon","coordinates":[[[115.5015,-2.6385],[115.5005,-2.6325],[115.468,-2.64],[115.463,-2.642],[115.459,-2.6425],[115.4555,-2.6425],[115.451,-2.6605],[115.463,-2.6665],[115.4655,-2.667],[115.468,-2.667],[115.498,-2.6625],[115.5055,-2.645],[115.5015,-2.6385]]]},"properties":{"code":"63.07.09.2003","name":"Murung B."}},{"type":"Feature","geometry":{"type":"Polygon","coordinates":[[[115.4555,-2.6425],[115.4525,-2.6415],[115.452,-2.6415],[115.442,-2.6565],[115.4465,-2.6625],[115.451,-2.6605],[115.4555,-2.6425]]]},"properties":{"code":"63.07.09.2004","name":"Bulayak"}},{"type":"Feature","geometry":{"type":"Polygon","coordinates":[[[115.452,-2.6415],[115.4505,-2.6415],[115.448,-2.643],[115.446,-2.6455],[115.445,-2.646],[115.443,-2.6455],[115.443,-2.6475],[115.4425,-2.6485],[115.4395,-2.6475],[115.4385,-2.6485],[115.437,-2.647],[115.436,-2.646],[115.434,-2.648],[115.4325,-2.6525],[115.431,-2.6535],[115.442,-2.6565],[115.452,-2.6415]]]},"properties":{"code":"63.07.09.2005","name":"Batu Tunggal"}},{"type":"Feature","geometry":{"type":"Polygon","coordinates":[[[115.431,-2.6535],[115.424,-2.657],[115.4225,-2.6575],[115.419,-2.664],[115.416,-2.6665],[115.423,-2.6895],[115.423,-2.691],[115.4235,-2.6935],[115.4245,-2.6945],[115.4295,-2.6955],[115.4305,-2.6905],[115.4465,-2.6625],[115.442,-2.6565],[115.431,-2.6535]]]},"properties":{"code":"63.07.09.2006","name":"Pasting"}},{"type":"Feature","geometry":{"type":"Polygon","coordinates":[[[115.451,-2.6605],[115.4465,-2.6625],[115.4305,-2.6905],[115.4295,-2.697],[115.4315,-2.705],[115.4335,-2.7085],[115.425,-2.713],[115.4265,-2.7145],[115.4285,-2.7145],[115.432,-2.718],[115.4325,-2.72],[115.433,-2.717],[115.4455,-2.7195],[115.4475,-2.7195],[115.4545,-2.721],[115.455,-2.7215],[115.457,-2.722],[115.4665,-2.721],[115.4665,-2.713],[115.467,-2.7095],[115.4635,-2.677],[115.468,-2.667],[115.4655,-2.667],[115.463,-2.6665],[115.451,-2.6605]]]},"properties":{"code":"63.07.09.2007","name":"Tilahan"}},{"type":"Feature","geometry":{"type":"Polygon","coordinates":[[[115.4855,-2.7285],[115.503,-2.707],[115.516,-2.6945],[115.5005,-2.68],[115.498,-2.6625],[115.468,-2.667],[115.4635,-2.677],[115.467,-2.7095],[115.4665,-2.713],[115.4665,-2.721],[115.4855,-2.7285]]]},"properties":{"code":"63.07.09.2008","name":"Haruyan Dayak"}},{"type":"Feature","geometry":{"type":"Polygon","coordinates":[[[115.4665,-2.721],[115.457,-2.722],[115.455,-2.7215],[115.4545,-2.721],[115.4475,-2.7195],[115.4455,-2.7195],[115.433,-2.717],[115.4325,-2.72],[115.432,-2.718],[115.4285,-2.7145],[115.4265,-2.7145],[115.426,-2.7145],[115.4295,-2.723],[115.43,-2.724],[115.43,-2.725],[115.4305,-2.7265],[115.434,-2.733],[115.4335,-2.735],[115.4205,-2.7425],[115.41,-2.7655],[115.41,-2.7665],[115.419,-2.7675],[115.428,-2.777],[115.4325,-2.7755],[115.445,-2.779],[115.452,-2.765],[115.458,-2.7625],[115.4615,-2.753],[115.476,-2.7405],[115.4825,-2.729],[115.4665,-2.721]]]},"properties":{"code":"63.07.09.2009","name":"Kindingan"}},{"type":"Feature","geometry":{"type":"Polygon","coordinates":[[[115.545,-2.617],[115.544,-2.6135],[115.54,-2.6095],[115.535,-2.6175],[115.5205,-2.6195],[115.509,-2.6345],[115.5015,-2.6385],[115.5055,-2.645],[115.5155,-2.6445],[115.54,-2.651],[115.544,-2.656],[115.5615,-2.654],[115.5665,-2.661],[115.568,-2.663],[115.5695,-2.6655],[115.5695,-2.6645],[115.5635,-2.6475],[115.5565,-2.6405],[115.545,-2.617]]]},"properties":{"code":"63.07.09.2010","name":"Datar Ajab"}},{"type":"Feature","geometry":{"type":"Polygon","coordinates":[[[115.5275,-2.603],[115.51,-2.598],[115.5075,-2.6],[115.4915,-2.6065],[115.4855,-2.615],[115.485,-2.6165],[115.5035,-2.6245],[115.5005,-2.6325],[115.5015,-2.6385],[115.509,-2.6345],[115.5205,-2.6195],[115.535,-2.6175],[115.54,-2.6095],[115.5365,-2.6065],[115.5275,-2.603]]]},"properties":{"code":"63.07.09.2011","name":"Hinas Kanan"}},{"type":"Feature","geometry":{"type":"Polygon","coordinates":[[[115.5695,-2.6655],[115.568,-2.663],[115.5665,-2.661],[115.5615,-2.654],[115.544,-2.656],[115.54,-2.651],[115.5155,-2.6445],[115.5055,-2.645],[115.498,-2.6625],[115.5005,-2.68],[115.516,-2.6945],[115.503,-2.707],[115.4855,-2.7285],[115.486,-2.7285],[115.4935,-2.733],[115.505,-2.729],[115.5335,-2.73],[115.548,-2.729],[115.5545,-2.7245],[115.569,-2.7145],[115.5735,-2.712],[115.569,-2.6705],[115.5695,-2.6655]]]},"properties":{"code":"63.07.09.2012","name":"Patikalain"}},{"type":"Feature","geometry":{"type":"Polygon","coordinates":[[[115.565,-2.5435],[115.5625,-2.539],[115.557,-2.528],[115.5515,-2.5225],[115.552,-2.5205],[115.547,-2.534],[115.5455,-2.533],[115.521,-2.523],[115.519,-2.525],[115.5105,-2.54],[115.516,-2.547],[115.5135,-2.5495],[115.5445,-2.5475],[115.554,-2.5505],[115.565,-2.5435]]]},"properties":{"code":"63.07.10.2001","name":"Batu Tangga"}},{"type":"Feature","geometry":{"type":"Polygon","coordinates":[[[115.6075,-2.638],[115.582,-2.6275],[115.581,-2.6135],[115.5535,-2.6145],[115.545,-2.617],[115.5565,-2.6405],[115.5635,-2.6475],[115.5695,-2.6645],[115.569,-2.6705],[115.5735,-2.712],[115.575,-2.7115],[115.584,-2.712],[115.588,-2.7135],[115.598,-2.7215],[115.598,-2.721],[115.621,-2.722],[115.633,-2.7005],[115.642,-2.68],[115.6545,-2.674],[115.666,-2.6555],[115.6535,-2.6645],[115.642,-2.665],[115.6235,-2.6475],[115.6075,-2.638]]]},"properties":{"code":"63.07.10.2002","name":"Hinas Kiri"}},{"type":"Feature","geometry":{"type":"Polygon","coordinates":[[[115.6185,-2.508],[115.6035,-2.5035],[115.5985,-2.4935],[115.5865,-2.503],[115.585,-2.5145],[115.572,-2.5235],[115.553,-2.522],[115.5515,-2.5225],[115.557,-2.528],[115.5625,-2.539],[115.565,-2.5435],[115.5745,-2.538],[115.589,-2.5395],[115.593,-2.545],[115.604,-2.5405],[115.6115,-2.515],[115.6185,-2.508]]]},"properties":{"code":"63.07.10.2003","name":"Pembakulan"}},{"type":"Feature","geometry":{"type":"Polygon","coordinates":[[[115.597,-2.4895],[115.5895,-2.479],[115.569,-2.488],[115.5715,-2.4825],[115.5515,-2.4835],[115.5395,-2.487],[115.5305,-2.4985],[115.5255,-2.506],[115.52,-2.511],[115.519,-2.5135],[115.5145,-2.5235],[115.513,-2.525],[115.509,-2.5325],[115.5095,-2.539],[115.5105,-2.54],[115.519,-2.525],[115.521,-2.523],[115.5455,-2.533],[115.547,-2.534],[115.552,-2.5205],[115.553,-2.522],[115.572,-2.5235],[115.585,-2.5145],[115.5865,-2.503],[115.5985,-2.4935],[115.597,-2.4895]]]},"properties":{"code":"63.07.10.2004","name":"Nateh"}},{"type":"Feature","geometry":{"type":"Polygon","coordinates":[[[115.5435,-2.557],[115.5445,-2.5475],[115.5135,-2.5495],[115.509,-2.5545],[115.503,-2.5645],[115.492,-2.575],[115.5045,-2.587],[115.51,-2.598],[115.5275,-2.603],[115.549,-2.584],[115.5435,-2.5795],[115.548,-2.5635],[115.547,-2.5615],[115.5445,-2.5605],[115.5445,-2.559],[115.543,-2.5575],[115.5435,-2.557]]]},"properties":{"code":"63.07.10.2005","name":"Tandilang"}},{"type":"Feature","geometry":{"type":"Polygon","coordinates":[[[115.7505,-2.5325],[115.7185,-2.5235],[115.7105,-2.5275],[115.6965,-2.5215],[115.692,-2.5225],[115.6795,-2.5235],[115.6645,-2.535],[115.629,-2.546],[115.613,-2.554],[115.5995,-2.557],[115.5985,-2.5625],[115.618,-2.592],[115.638,-2.5775],[115.6435,-2.582],[115.668,-2.574],[115.68,-2.5665],[115.689,-2.576],[115.692,-2.5885],[115.7115,-2.5855],[115.7215,-2.591],[115.7345,-2.5815],[115.7505,-2.5325]]]},"properties":{"code":"63.07.10.2006","name":"Muara Hungi"}},{"type":"Feature","geometry":{"type":"Polygon","coordinates":[[[115.593,-2.545],[115.589,-2.5395],[115.5745,-2.538],[115.5435,-2.557],[115.543,-2.5575],[115.5445,-2.559],[115.5445,-2.5605],[115.547,-2.5615],[115.548,-2.5635],[115.5435,-2.5795],[115.549,-2.584],[115.5275,-2.603],[115.5365,-2.6065],[115.544,-2.6135],[115.545,-2.617],[115.5535,-2.6145],[115.581,-2.6135],[115.582,-2.6275],[115.6075,-2.638],[115.6135,-2.6255],[115.6115,-2.613],[115.618,-2.592],[115.5985,-2.5625],[115.5995,-2.557],[115.593,-2.545]]]},"properties":{"code":"63.07.10.2007","name":"Atiran"}},{"type":"Feature","geometry":{"type":"Polygon","coordinates":[[[115.692,-2.5885],[115.689,-2.576],[115.68,-2.5665],[115.668,-2.574],[115.6435,-2.582],[115.638,-2.5775],[115.618,-2.592],[115.6115,-2.613],[115.6135,-2.6255],[115.6075,-2.638],[115.6235,-2.6475],[115.6435,-2.6405],[115.6715,-2.6285],[115.679,-2.6135],[115.6765,-2.613],[115.6895,-2.5905],[115.691,-2.5905],[115.692,-2.5885]]]},"properties":{"code":"63.07.10.2008","name":"Batu Perahu"}},{"type":"Feature","geometry":{"type":"MultiPolygon","coordinates":[[[[115.7445,-2.6645],[115.734,-2.6575],[115.727,-2.639],[115.709,-2.63],[115.702,-2.6205],[115.688,-2.6145],[115.679,-2.6135],[115.6715,-2.6285],[115.6435,-2.6405],[115.6235,-2.6475],[115.642,-2.665],[115.6535,-2.6645],[115.666,-2.6555],[115.6845,-2.669],[115.694,-2.681],[115.709,-2.6895],[115.7135,-2.6865],[115.713,-2.685],[115.715,-2.6765],[115.732,-2.6845],[115.745,-2.669],[115.747,-2.6665],[115.7445,-2.6645]]],[[[115.762,-2.553],[115.7595,-2.5525],[115.757,-2.5515],[115.755,-2.5495],[115.7505,-2.5325],[115.7345,-2.5815],[115.7215,-2.591],[115.7115,-2.5855],[115.692,-2.5885],[115.691,-2.5905],[115.699,-2.5905],[115.7115,-2.59],[115.7225,-2.601],[115.73,-2.6015],[115.7445,-2.617],[115.757,-2.6165],[115.809,-2.6165],[115.8125,-2.611],[115.8195,-2.6015],[115.8205,-2.566],[115.8165,-2.561],[115.796,-2.568],[115.791,-2.5525],[115.762,-2.553]]]]},"properties":{"code":"63.07.10.2009","name":"Aing Bantai"}},{"type":"Feature","geometry":{"type":"Polygon","coordinates":[[[115.7135,-2.6865],[115.709,-2.6895],[115.694,-2.681],[115.6845,-2.669],[115.666,-2.6555],[115.6545,-2.674],[115.642,-2.68],[115.633,-2.7005],[115.621,-2.722],[115.598,-2.721],[115.5965,-2.7245],[115.5895,-2.76],[115.611,-2.7575],[115.6115,-2.7605],[115.6265,-2.764],[115.644,-2.7595],[115.653,-2.764],[115.655,-2.7645],[115.659,-2.768],[115.66,-2.768],[115.6645,-2.7645],[115.6665,-2.766],[115.661,-2.748],[115.6685,-2.739],[115.665,-2.721],[115.681,-2.71],[115.694,-2.7105],[115.7075,-2.702],[115.7155,-2.6905],[115.7135,-2.6865]]]},"properties":{"code":"63.07.10.2010","name":"Juhu"}},{"type":"Feature","geometry":{"type":"Polygon","coordinates":[[[115.6795,-2.5235],[115.6575,-2.5105],[115.6185,-2.508],[115.6115,-2.515],[115.604,-2.5405],[115.593,-2.545],[115.5995,-2.557],[115.613,-2.554],[115.629,-2.546],[115.6645,-2.535],[115.6795,-2.5235]]]},"properties":{"code":"63.07.10.2011","name":"Datar Batung"}},{"type":"Feature","geometry":{"type":"Polygon","coordinates":[[[115.469,-2.465],[115.4615,-2.463],[115.455,-2.4565],[115.4425,-2.4545],[115.4385,-2.4635],[115.4385,-2.466],[115.4365,-2.47],[115.455,-2.472],[115.475,-2.475],[115.49,-2.488],[115.498,-2.4685],[115.4955,-2.4675],[115.493,-2.4685],[115.4885,-2.468],[115.4815,-2.4665],[115.469,-2.465]]]},"properties":{"code":"63.07.11.2001","name":"Tapuk"}},{"type":"Feature","geometry":{"type":"Polygon","coordinates":[[[115.466,-2.5075],[115.44,-2.4775],[115.4345,-2.4775],[115.435,-2.4785],[115.437,-2.48],[115.4385,-2.483],[115.4405,-2.484],[115.44,-2.4855],[115.4425,-2.516],[115.45,-2.522],[115.4505,-2.5215],[115.4625,-2.5205],[115.466,-2.5075]]]},"properties":{"code":"63.07.11.2002","name":"Karau"}},{"type":"Feature","geometry":{"type":"Polygon","coordinates":[[[115.49,-2.488],[115.475,-2.475],[115.455,-2.472],[115.4635,-2.484],[115.4875,-2.4945],[115.4905,-2.4925],[115.5265,-2.5045],[115.5305,-2.4985],[115.507,-2.488],[115.49,-2.488]]]},"properties":{"code":"63.07.11.2003","name":"Limpasu"}},{"type":"Feature","geometry":{"type":"Polygon","coordinates":[[[115.509,-2.4765],[115.505,-2.474],[115.4995,-2.469],[115.498,-2.4685],[115.49,-2.488],[115.507,-2.488],[115.5305,-2.4985],[115.526,-2.4845],[115.509,-2.4765]]]},"properties":{"code":"63.07.11.2004","name":"Kabang"}},{"type":"Feature","geometry":{"type":"Polygon","coordinates":[[[115.488,-2.53],[115.485,-2.5175],[115.48,-2.523],[115.476,-2.522],[115.4745,-2.5245],[115.4705,-2.5245],[115.4695,-2.524],[115.4705,-2.526],[115.4705,-2.53],[115.473,-2.5335],[115.488,-2.53]]]},"properties":{"code":"63.07.11.2005","name":"Abung Surapati"}},{"type":"Feature","geometry":{"type":"Polygon","coordinates":[[[115.4365,-2.47],[115.4355,-2.47],[115.434,-2.4755],[115.4335,-2.4775],[115.44,-2.4775],[115.466,-2.5075],[115.4815,-2.505],[115.4875,-2.4945],[115.4635,-2.484],[115.455,-2.472],[115.4365,-2.47]]]},"properties":{"code":"63.07.11.2006","name":"Karatungan"}},{"type":"Feature","geometry":{"type":"Polygon","coordinates":[[[115.5265,-2.5045],[115.4905,-2.4925],[115.4875,-2.4945],[115.4815,-2.505],[115.5195,-2.5125],[115.52,-2.511],[115.5255,-2.506],[115.5265,-2.5045]]]},"properties":{"code":"63.07.11.2007","name":"Pauh"}},{"type":"Feature","geometry":{"type":"Polygon","coordinates":[[[115.4815,-2.505],[115.466,-2.5075],[115.4625,-2.5205],[115.469,-2.5235],[115.4695,-2.524],[115.4705,-2.5245],[115.4745,-2.5245],[115.476,-2.522],[115.48,-2.523],[115.485,-2.5175],[115.4815,-2.505]]]},"properties":{"code":"63.07.11.2008","name":"Abung"}},{"type":"Feature","geometry":{"type":"Polygon","coordinates":[[[115.5195,-2.5125],[115.4815,-2.505],[115.485,-2.5175],[115.488,-2.53],[115.491,-2.531],[115.5,-2.5305],[115.5145,-2.5235],[115.519,-2.5135],[115.5195,-2.5125]]]},"properties":{"code":"63.07.11.2009","name":"Hawang"}}]}