{"type":"FeatureCollection","features":[{"type":"Feature","geometry":{"type":"Polygon","coordinates":[[[115.5405,-2.3005],[115.5325,-2.2875],[115.5285,-2.301],[115.5385,-2.305],[115.5405,-2.3005]]]},"properties":{"code":"63.11.01.2001","name":"Muara Ninian","latitude":-2.2972470305752375,"longitude":115.53315128953527}},{"type":"Feature","geometry":{"type":"Polygon","coordinates":[[[115.584,-2.3075],[115.582,-2.3065],[115.5635,-2.301],[115.562,-2.3025],[115.5555,-2.307],[115.5525,-2.3085],[115.556,-2.3135],[115.545,-2.3295],[115.557,-2.3445],[115.57,-2.3335],[115.5755,-2.3205],[115.5815,-2.3195],[115.5815,-2.316],[115.584,-2.3075]]]},"properties":{"code":"63.11.01.2002","name":"Hamarung","latitude":-2.320194604723038,"longitude":115.56434875447323}},{"type":"Feature","geometry":{"type":"Polygon","coordinates":[[[115.5975,-2.247],[115.595,-2.246],[115.5925,-2.246],[115.5895,-2.2465],[115.5895,-2.247],[115.589,-2.2495],[115.5955,-2.26],[115.6125,-2.2895],[115.617,-2.287],[115.621,-2.2845],[115.5975,-2.247]]]},"properties":{"code":"63.11.01.2003","name":"Juai","latitude":-2.2669565789025707,"longitude":115.60490393044374}},{"type":"Feature","geometry":{"type":"Polygon","coordinates":[[[115.5515,-2.252],[115.551,-2.1995],[115.55,-2.1885],[115.5495,-2.187],[115.549,-2.187],[115.5405,-2.192],[115.537,-2.1925],[115.5385,-2.213],[115.531,-2.238],[115.5355,-2.259],[115.538,-2.2645],[115.5445,-2.289],[115.5495,-2.2965],[115.5515,-2.304],[115.5525,-2.3085],[115.5555,-2.307],[115.562,-2.3025],[115.564,-2.294],[115.5625,-2.283],[115.5555,-2.2705],[115.5555,-2.2675],[115.5545,-2.2655],[115.5515,-2.263],[115.5515,-2.252]]]},"properties":{"code":"63.11.01.2004","name":"Buntu Karau","latitude":-2.2492884889460294,"longitude":115.54662300750394}},{"type":"Feature","geometry":{"type":"Polygon","coordinates":[[[115.6155,-2.2395],[115.6105,-2.2335],[115.6065,-2.2255],[115.604,-2.2355],[115.59,-2.2455],[115.5895,-2.2465],[115.5925,-2.246],[115.595,-2.246],[115.5975,-2.247],[115.611,-2.2505],[115.619,-2.2475],[115.6185,-2.246],[115.6195,-2.243],[115.627,-2.244],[115.6155,-2.2395]]]},"properties":{"code":"63.11.01.2005","name":"Bata","latitude":-2.2409984704539325,"longitude":115.6077315048955}},{"type":"Feature","geometry":{"type":"Polygon","coordinates":[[[115.611,-2.2505],[115.5975,-2.247],[115.621,-2.2845],[115.624,-2.283],[115.625,-2.2825],[115.6125,-2.261],[115.611,-2.2505]]]},"properties":{"code":"63.11.01.2006","name":"Galumbang","latitude":-2.2642627742760664,"longitude":115.61202710183224}},{"type":"Feature","geometry":{"type":"Polygon","coordinates":[[[115.6605,-2.34],[115.651,-2.3425],[115.6275,-2.3385],[115.598,-2.323],[115.574,-2.3455],[115.578,-2.352],[115.583,-2.3515],[115.653,-2.365],[115.661,-2.363],[115.661,-2.361],[115.661,-2.345],[115.6605,-2.34]]]},"properties":{"code":"63.11.01.2007","name":"Sungai Batung","latitude":-2.3465345477874138,"longitude":115.61962594070724}},{"type":"Feature","geometry":{"type":"Polygon","coordinates":[[[115.556,-2.2415],[115.554,-2.241],[115.5545,-2.247],[115.5555,-2.251],[115.5515,-2.252],[115.5515,-2.263],[115.5545,-2.2655],[115.5555,-2.2675],[115.5555,-2.2705],[115.5625,-2.283],[115.564,-2.294],[115.5635,-2.301],[115.582,-2.3065],[115.585,-2.308],[115.5835,-2.2965],[115.5825,-2.2935],[115.5795,-2.283],[115.563,-2.259],[115.556,-2.2415]]]},"properties":{"code":"63.11.01.2008","name":"Sirap","latitude":-2.2784122045071684,"longitude":115.56717335180798}},{"type":"Feature","geometry":{"type":"Polygon","coordinates":[[[115.64,-2.301],[115.618,-2.3005],[115.598,-2.323],[115.6275,-2.3385],[115.651,-2.3425],[115.6605,-2.34],[115.66,-2.3375],[115.655,-2.3145],[115.643,-2.3125],[115.64,-2.301]]]},"properties":{"code":"63.11.01.2009","name":"Tigarun","latitude":-2.3218988585777924,"longitude":115.63151815621622}},{"type":"Feature","geometry":{"type":"Polygon","coordinates":[[[115.589,-2.2495],[115.577,-2.2475],[115.576,-2.249],[115.5755,-2.2505],[115.576,-2.2565],[115.6035,-2.2895],[115.6085,-2.2925],[115.6165,-2.2965],[115.5955,-2.26],[115.589,-2.2495]]]},"properties":{"code":"63.11.01.2010","name":"Teluk Bayur","latitude":-2.2691960203822408,"longitude":115.59362596366742}},{"type":"Feature","geometry":{"type":"Polygon","coordinates":[[[115.557,-2.3445],[115.545,-2.3295],[115.539,-2.347],[115.53,-2.3405],[115.529,-2.3395],[115.528,-2.3415],[115.5265,-2.343],[115.5285,-2.345],[115.525,-2.347],[115.5245,-2.3515],[115.5275,-2.355],[115.528,-2.355],[115.5295,-2.355],[115.5335,-2.3595],[115.539,-2.3615],[115.541,-2.361],[115.5435,-2.3595],[115.544,-2.3595],[115.5455,-2.355],[115.552,-2.359],[115.564,-2.352],[115.557,-2.3445]]]},"properties":{"code":"63.11.01.2011","name":"Pamurus","latitude":-2.3487857802772374,"longitude":115.54354034819961}},{"type":"Feature","geometry":{"type":"Polygon","coordinates":[[[115.55,-2.298],[115.5495,-2.2965],[115.5445,-2.289],[115.538,-2.2645],[115.536,-2.2605],[115.5385,-2.2765],[115.5325,-2.2875],[115.5405,-2.3005],[115.5435,-2.299],[115.5465,-2.2985],[115.55,-2.298]]]},"properties":{"code":"63.11.01.2012","name":"Marias","latitude":-2.287472250369342,"longitude":115.54008519169766}},{"type":"Feature","geometry":{"type":"Polygon","coordinates":[[[115.64,-2.1975],[115.635,-2.1955],[115.6265,-2.189],[115.5985,-2.1575],[115.59,-2.153],[115.587,-2.153],[115.583,-2.1535],[115.5795,-2.1555],[115.575,-2.157],[115.572,-2.161],[115.595,-2.178],[115.6075,-2.211],[115.629,-2.2225],[115.6385,-2.2215],[115.6415,-2.2065],[115.64,-2.1975]]]},"properties":{"code":"63.11.01.2013","name":"Lalayau","latitude":-2.1892261475775903,"longitude":115.61123269274677}},{"type":"Feature","geometry":{"type":"Polygon","coordinates":[[[115.629,-2.2225],[115.6075,-2.211],[115.595,-2.178],[115.572,-2.161],[115.5675,-2.162],[115.5605,-2.1745],[115.56,-2.176],[115.576,-2.179],[115.58,-2.1885],[115.6015,-2.212],[115.6065,-2.2255],[115.6105,-2.2335],[115.6155,-2.2395],[115.62,-2.232],[115.621,-2.229],[115.629,-2.2225]]]},"properties":{"code":"63.11.01.2014","name":"Mihu","latitude":-2.195450915614754,"longitude":115.59384536310223}},{"type":"Feature","geometry":{"type":"Polygon","coordinates":[[[115.5525,-2.3085],[115.5515,-2.304],[115.55,-2.298],[115.5465,-2.2985],[115.5435,-2.299],[115.5405,-2.3005],[115.5365,-2.3095],[115.532,-2.322],[115.5295,-2.3255],[115.528,-2.3255],[115.5245,-2.3335],[115.525,-2.3345],[115.5245,-2.3375],[115.527,-2.3385],[115.5285,-2.3395],[115.53,-2.3405],[115.539,-2.347],[115.545,-2.3295],[115.556,-2.3135],[115.5525,-2.3085]]]},"properties":{"code":"63.11.01.2015","name":"Hukai","latitude":-2.3217537904960746,"longitude":115.54073118571243}},{"type":"Feature","geometry":{"type":"Polygon","coordinates":[[[115.661,-2.363],[115.653,-2.365],[115.583,-2.3515],[115.578,-2.352],[115.564,-2.352],[115.552,-2.359],[115.554,-2.362],[115.556,-2.3585],[115.5605,-2.36],[115.58,-2.3715],[115.5935,-2.383],[115.617,-2.386],[115.6135,-2.3775],[115.628,-2.3735],[115.651,-2.3765],[115.6595,-2.3745],[115.661,-2.363]]]},"properties":{"code":"63.11.01.2016","name":"Tawahan","latitude":-2.3668707000221225,"longitude":115.6070374123014}},{"type":"Feature","geometry":{"type":"Polygon","coordinates":[[[115.585,-2.308],[115.584,-2.3075],[115.5815,-2.316],[115.5815,-2.3195],[115.5755,-2.3205],[115.57,-2.3335],[115.557,-2.3445],[115.564,-2.352],[115.578,-2.352],[115.574,-2.3455],[115.598,-2.323],[115.585,-2.308]]]},"properties":{"code":"63.11.01.2017","name":"Gulinggang","latitude":-2.33222709521382,"longitude":115.57794123347799}},{"type":"Feature","geometry":{"type":"Polygon","coordinates":[[[115.577,-2.2475],[115.5755,-2.2475],[115.5725,-2.2365],[115.571,-2.2345],[115.56,-2.2415],[115.556,-2.2415],[115.563,-2.259],[115.5795,-2.283],[115.5825,-2.2935],[115.5825,-2.294],[115.584,-2.2955],[115.6035,-2.2895],[115.576,-2.2565],[115.5755,-2.2505],[115.576,-2.249],[115.577,-2.2475]]]},"properties":{"code":"63.11.01.2018","name":"Mungkur Uyam","latitude":-2.266900147760121,"longitude":115.57789914062725}},{"type":"Feature","geometry":{"type":"Polygon","coordinates":[[[115.639,-2.292],[115.6345,-2.292],[115.623,-2.2845],[115.624,-2.283],[115.621,-2.2845],[115.617,-2.287],[115.6125,-2.2895],[115.6165,-2.2965],[115.6085,-2.2925],[115.6035,-2.2895],[115.584,-2.2955],[115.5825,-2.294],[115.5835,-2.2965],[115.585,-2.308],[115.598,-2.323],[115.618,-2.3005],[115.64,-2.301],[115.641,-2.295],[115.641,-2.294],[115.639,-2.292]]]},"properties":{"code":"63.11.01.2019","name":"Panimbaan","latitude":-2.3015096649145015,"longitude":115.60656752864624}},{"type":"Feature","geometry":{"type":"Polygon","coordinates":[[[115.6015,-2.212],[115.58,-2.1885],[115.576,-2.179],[115.56,-2.176],[115.56,-2.177],[115.5515,-2.1865],[115.5495,-2.187],[115.55,-2.1885],[115.551,-2.1995],[115.5515,-2.252],[115.5555,-2.251],[115.5545,-2.247],[115.554,-2.241],[115.56,-2.2415],[115.571,-2.2345],[115.5735,-2.2325],[115.5785,-2.2275],[115.579,-2.223],[115.5815,-2.219],[115.5835,-2.217],[115.6015,-2.212]]]},"properties":{"code":"63.11.01.2020","name":"Wonorejo","latitude":-2.2077934996114905,"longitude":115.56861251294403}},{"type":"Feature","geometry":{"type":"Polygon","coordinates":[[[115.6015,-2.212],[115.5835,-2.217],[115.5815,-2.219],[115.579,-2.223],[115.5785,-2.2275],[115.5735,-2.2325],[115.5725,-2.2365],[115.5755,-2.2475],[115.577,-2.2475],[115.589,-2.2495],[115.5895,-2.247],[115.5895,-2.2465],[115.59,-2.2455],[115.604,-2.2355],[115.6065,-2.2255],[115.6015,-2.212]]]},"properties":{"code":"63.11.01.2021","name":"Sumber Rejeki","latitude":-2.2309194606844445,"longitude":115.58978836351882}},{"type":"Feature","geometry":{"type":"Polygon","coordinates":[[[115.6755,-2.21],[115.67,-2.2085],[115.6695,-2.208],[115.664,-2.2145],[115.6735,-2.2245],[115.668,-2.2425],[115.656,-2.2475],[115.6565,-2.2535],[115.6635,-2.255],[115.664,-2.256],[115.6645,-2.258],[115.666,-2.2575],[115.6935,-2.247],[115.697,-2.2475],[115.7,-2.247],[115.7005,-2.2435],[115.7005,-2.2425],[115.687,-2.217],[115.6755,-2.21]]]},"properties":{"code":"63.11.02.2001","name":"Hauwai","latitude":-2.2347970520876226,"longitude":115.678305146659}},{"type":"Feature","geometry":{"type":"Polygon","coordinates":[[[115.628,-2.2655],[115.621,-2.2545],[115.619,-2.2475],[115.611,-2.2505],[115.6125,-2.261],[115.625,-2.2825],[115.6275,-2.2775],[115.63,-2.269],[115.632,-2.2665],[115.628,-2.2655]]]},"properties":{"code":"63.11.02.2002","name":"Bangkal","latitude":-2.2637554237555144,"longitude":115.6203045372895}},{"type":"Feature","geometry":{"type":"Polygon","coordinates":[[[115.6875,-2.32],[115.662,-2.3035],[115.655,-2.3145],[115.66,-2.3375],[115.671,-2.336],[115.6915,-2.342],[115.7125,-2.3545],[115.7135,-2.3395],[115.712,-2.3295],[115.699,-2.321],[115.6875,-2.32]]]},"properties":{"code":"63.11.02.2003","name":"Mantuyan","latitude":-2.3288716296731016,"longitude":115.68389580442876}},{"type":"Feature","geometry":{"type":"Polygon","coordinates":[[[115.6805,-2.286],[115.678,-2.2895],[115.6645,-2.2915],[115.6635,-2.2785],[115.6625,-2.2795],[115.653,-2.2805],[115.646,-2.292],[115.639,-2.292],[115.641,-2.294],[115.641,-2.295],[115.64,-2.301],[115.643,-2.3125],[115.655,-2.3145],[115.662,-2.3035],[115.6875,-2.32],[115.6855,-2.318],[115.6845,-2.317],[115.684,-2.315],[115.6835,-2.3135],[115.683,-2.3125],[115.6975,-2.2885],[115.696,-2.288],[115.6885,-2.2935],[115.6805,-2.286]]]},"properties":{"code":"63.11.02.2004","name":"Tabuan","latitude":-2.299121372139852,"longitude":115.66552754377604}},{"type":"Feature","geometry":{"type":"Polygon","coordinates":[[[115.656,-2.2475],[115.649,-2.246],[115.648,-2.246],[115.646,-2.2625],[115.653,-2.275],[115.653,-2.2775],[115.653,-2.2805],[115.6625,-2.2795],[115.665,-2.278],[115.667,-2.2725],[115.6705,-2.2725],[115.671,-2.271],[115.655,-2.2555],[115.6545,-2.2545],[115.6555,-2.2545],[115.6565,-2.2535],[115.656,-2.2475]]]},"properties":{"code":"63.11.02.2005","name":"Halong","latitude":-2.2650707518517286,"longitude":115.6565649142111}},{"type":"Feature","geometry":{"type":"Polygon","coordinates":[[[115.6755,-2.21],[115.6865,-2.188],[115.687,-2.1695],[115.6955,-2.1495],[115.7025,-2.1105],[115.671,-2.1575],[115.67,-2.159],[115.6665,-2.1745],[115.6755,-2.176],[115.67,-2.19],[115.6575,-2.1925],[115.667,-2.206],[115.67,-2.2085],[115.6755,-2.21]]]},"properties":{"code":"63.11.02.2008","name":"Puyun","latitude":-2.1677654545014087,"longitude":115.68059782509901}},{"type":"Feature","geometry":{"type":"Polygon","coordinates":[[[115.712,-2.3295],[115.711,-2.311],[115.698,-2.2885],[115.6975,-2.2885],[115.683,-2.3125],[115.6835,-2.3135],[115.684,-2.315],[115.6845,-2.317],[115.6855,-2.318],[115.6875,-2.32],[115.699,-2.321],[115.712,-2.3295]]]},"properties":{"code":"63.11.02.2009","name":"Buntu Pilanduk","latitude":-2.310382865086235,"longitude":115.69874571827637}},{"type":"Feature","geometry":{"type":"Polygon","coordinates":[[[115.7025,-2.1105],[115.696,-2.098],[115.6855,-2.1055],[115.676,-2.1205],[115.675,-2.1315],[115.6615,-2.142],[115.6555,-2.1545],[115.647,-2.154],[115.6295,-2.1635],[115.629,-2.176],[115.628,-2.1775],[115.628,-2.1805],[115.6285,-2.1815],[115.6235,-2.182],[115.623,-2.179],[115.6225,-2.1765],[115.6195,-2.1755],[115.616,-2.1745],[115.5935,-2.148],[115.589,-2.153],[115.59,-2.153],[115.5985,-2.1575],[115.6265,-2.189],[115.635,-2.1955],[115.6405,-2.1975],[115.6415,-2.183],[115.666,-2.164],[115.671,-2.1575],[115.7025,-2.1105]]]},"properties":{"code":"63.11.02.2010","name":"Gunung Riut","latitude":-2.1522769087113525,"longitude":115.65765786647059}},{"type":"Feature","geometry":{"type":"Polygon","coordinates":[[[115.7005,-2.2435],[115.7,-2.247],[115.697,-2.2475],[115.6935,-2.247],[115.666,-2.2575],[115.6645,-2.258],[115.664,-2.256],[115.6635,-2.255],[115.6565,-2.2535],[115.6555,-2.2545],[115.6545,-2.2545],[115.655,-2.2555],[115.671,-2.271],[115.6705,-2.2725],[115.667,-2.2725],[115.6695,-2.2765],[115.67,-2.276],[115.679,-2.28],[115.678,-2.2815],[115.679,-2.2815],[115.692,-2.2805],[115.7045,-2.2625],[115.707,-2.2515],[115.7065,-2.2505],[115.7065,-2.2515],[115.7015,-2.244],[115.7005,-2.2435]]]},"properties":{"code":"63.11.02.2011","name":"Kapul","latitude":-2.2621469710118416,"longitude":115.68468191205065}},{"type":"Feature","geometry":{"type":"Polygon","coordinates":[[[115.8125,-2.254],[115.811,-2.2375],[115.799,-2.2325],[115.737,-2.249],[115.707,-2.2515],[115.7045,-2.2625],[115.692,-2.2805],[115.679,-2.2815],[115.68,-2.285],[115.6805,-2.286],[115.6885,-2.2935],[115.696,-2.288],[115.698,-2.2885],[115.711,-2.311],[115.712,-2.3295],[115.7375,-2.331],[115.752,-2.3255],[115.759,-2.319],[115.769,-2.32],[115.7775,-2.306],[115.7885,-2.299],[115.7915,-2.284],[115.799,-2.288],[115.811,-2.2795],[115.808,-2.264],[115.8125,-2.254]]]},"properties":{"code":"63.11.02.2012","name":"Mamantang","latitude":-2.2799877293541555,"longitude":115.7515651367547}},{"type":"Feature","geometry":{"type":"Polygon","coordinates":[[[115.648,-2.246],[115.6475,-2.246],[115.6435,-2.247],[115.6425,-2.2475],[115.6365,-2.265],[115.632,-2.2665],[115.63,-2.269],[115.6275,-2.2775],[115.625,-2.2825],[115.623,-2.2845],[115.6345,-2.292],[115.646,-2.292],[115.653,-2.2805],[115.653,-2.2775],[115.653,-2.275],[115.646,-2.2625],[115.648,-2.246]]]},"properties":{"code":"63.11.02.2013","name":"Binjai Punggal","latitude":-2.2764805068583733,"longitude":115.63907675339546}},{"type":"Feature","geometry":{"type":"Polygon","coordinates":[[[115.695,-2.0405],[115.6895,-2.042],[115.692,-2.067],[115.6875,-2.077],[115.686,-2.0785],[115.6705,-2.0895],[115.656,-2.116],[115.6485,-2.118],[115.6405,-2.13],[115.6345,-2.129],[115.621,-2.114],[115.62,-2.125],[115.608,-2.1335],[115.5935,-2.148],[115.616,-2.1745],[115.6195,-2.1755],[115.6225,-2.1765],[115.623,-2.179],[115.6235,-2.182],[115.6285,-2.1815],[115.628,-2.1805],[115.628,-2.1775],[115.629,-2.176],[115.6295,-2.1635],[115.647,-2.154],[115.6555,-2.1545],[115.6615,-2.142],[115.675,-2.1315],[115.676,-2.1205],[115.6855,-2.1055],[115.696,-2.098],[115.749,-2.084],[115.751,-2.0795],[115.75,-2.0755],[115.746,-2.0635],[115.7265,-2.0625],[115.72,-2.062],[115.717,-2.0565],[115.7135,-2.0495],[115.7005,-2.0495],[115.695,-2.041],[115.695,-2.0405]]]},"properties":{"code":"63.11.02.2014","name":"Liyu","latitude":-2.1107210575832505,"longitude":115.66977555535432}},{"type":"Feature","geometry":{"type":"Polygon","coordinates":[[[115.706,-2.3805],[115.6995,-2.38],[115.689,-2.378],[115.6745,-2.365],[115.661,-2.361],[115.661,-2.363],[115.6595,-2.3745],[115.6795,-2.38],[115.682,-2.4305],[115.6905,-2.429],[115.7265,-2.4305],[115.7265,-2.4425],[115.76,-2.444],[115.771,-2.451],[115.7905,-2.457],[115.7905,-2.4355],[115.8045,-2.416],[115.7065,-2.397],[115.706,-2.3805]]]},"properties":{"code":"63.11.02.2015","name":"Binuang Santang","latitude":-2.4159759988769727,"longitude":115.7322952318945}},{"type":"Feature","geometry":{"type":"Polygon","coordinates":[[[115.797,-2.1315],[115.8,-2.104],[115.8145,-2.0985],[115.814,-2.0715],[115.8075,-2.0615],[115.782,-2.0535],[115.769,-2.054],[115.746,-2.0635],[115.75,-2.0755],[115.751,-2.0795],[115.749,-2.084],[115.696,-2.098],[115.7025,-2.1105],[115.6955,-2.1495],[115.687,-2.1695],[115.6865,-2.188],[115.6755,-2.21],[115.687,-2.217],[115.7005,-2.2425],[115.7015,-2.244],[115.7065,-2.2515],[115.7065,-2.2505],[115.707,-2.2515],[115.737,-2.249],[115.799,-2.2325],[115.785,-2.216],[115.785,-2.215],[115.7865,-2.1995],[115.787,-2.192],[115.7925,-2.1765],[115.792,-2.164],[115.797,-2.1315]]]},"properties":{"code":"63.11.02.2016","name":"Aniungan","latitude":-2.156962379923378,"longitude":115.74716081581082}},{"type":"Feature","geometry":{"type":"Polygon","coordinates":[[[115.627,-2.244],[115.6195,-2.243],[115.6185,-2.246],[115.621,-2.2545],[115.628,-2.2655],[115.63,-2.2445],[115.627,-2.244]]]},"properties":{"code":"63.11.02.2017","name":"Binju","latitude":-2.2519905694135787,"longitude":115.62451238122993}},{"type":"Feature","geometry":{"type":"Polygon","coordinates":[[[115.6695,-2.208],[115.667,-2.206],[115.6575,-2.1925],[115.67,-2.19],[115.6755,-2.176],[115.6665,-2.1745],[115.67,-2.159],[115.666,-2.164],[115.6415,-2.183],[115.6405,-2.1975],[115.64,-2.1975],[115.6415,-2.2065],[115.6385,-2.2215],[115.629,-2.2225],[115.6365,-2.2235],[115.6435,-2.22],[115.65,-2.221],[115.652,-2.2205],[115.6525,-2.22],[115.664,-2.2145],[115.6695,-2.208]]]},"properties":{"code":"63.11.02.2018","name":"Karya","latitude":-2.1943949929459863,"longitude":115.65473757609423}},{"type":"Feature","geometry":{"type":"Polygon","coordinates":[[[115.811,-2.2795],[115.799,-2.288],[115.7915,-2.284],[115.7885,-2.299],[115.7775,-2.306],[115.769,-2.32],[115.759,-2.319],[115.752,-2.3255],[115.7375,-2.331],[115.712,-2.3295],[115.7135,-2.3395],[115.7135,-2.3425],[115.731,-2.349],[115.745,-2.349],[115.764,-2.355],[115.7805,-2.344],[115.795,-2.342],[115.8085,-2.3485],[115.8155,-2.3585],[115.836,-2.371],[115.8285,-2.3525],[115.832,-2.336],[115.817,-2.317],[115.8215,-2.306],[115.833,-2.2975],[115.811,-2.2795]]]},"properties":{"code":"63.11.02.2019","name":"Uren","latitude":-2.3260333882836663,"longitude":115.78688215413784}},{"type":"Feature","geometry":{"type":"Polygon","coordinates":[[[115.811,-2.407],[115.794,-2.4115],[115.7745,-2.3965],[115.7605,-2.3925],[115.7555,-2.381],[115.7445,-2.38],[115.738,-2.37],[115.7125,-2.3545],[115.706,-2.3765],[115.7065,-2.397],[115.8045,-2.416],[115.811,-2.407]]]},"properties":{"code":"63.11.02.2020","name":"Marajai","latitude":-2.389308982643335,"longitude":115.74069522950705}},{"type":"Feature","geometry":{"type":"Polygon","coordinates":[[[115.652,-2.2205],[115.65,-2.221],[115.6435,-2.22],[115.6365,-2.2235],[115.629,-2.2225],[115.621,-2.229],[115.62,-2.232],[115.6155,-2.2395],[115.627,-2.244],[115.632,-2.2445],[115.643,-2.247],[115.651,-2.223],[115.652,-2.2205]]]},"properties":{"code":"63.11.02.2021","name":"Suryatama","latitude":-2.2330722838195336,"longitude":115.63503330252507}},{"type":"Feature","geometry":{"type":"Polygon","coordinates":[[[115.643,-2.247],[115.632,-2.2445],[115.63,-2.2445],[115.628,-2.2655],[115.632,-2.2665],[115.6365,-2.265],[115.6425,-2.2475],[115.643,-2.247]]]},"properties":{"code":"63.11.02.2022","name":"Baruh Panyambaran","latitude":-2.2550200630300727,"longitude":115.6341876398602}},{"type":"Feature","geometry":{"type":"Polygon","coordinates":[[[115.7125,-2.3545],[115.6915,-2.342],[115.671,-2.336],[115.66,-2.3375],[115.661,-2.345],[115.661,-2.361],[115.6745,-2.365],[115.689,-2.378],[115.6995,-2.38],[115.706,-2.3805],[115.706,-2.3765],[115.7125,-2.3545]]]},"properties":{"code":"63.11.02.2023","name":"Mauya","latitude":-2.357179148780021,"longitude":115.68642160779801}},{"type":"Feature","geometry":{"type":"Polygon","coordinates":[[[115.679,-2.2815],[115.678,-2.2815],[115.679,-2.28],[115.67,-2.276],[115.6695,-2.2765],[115.667,-2.2725],[115.665,-2.278],[115.6635,-2.2785],[115.6645,-2.2915],[115.678,-2.2895],[115.68,-2.285],[115.679,-2.2815]]]},"properties":{"code":"63.11.02.2024","name":"Padang Raya","latitude":-2.2839946452108855,"longitude":115.67149053165933}},{"type":"Feature","geometry":{"type":"Polygon","coordinates":[[[115.656,-2.2475],[115.668,-2.2425],[115.6735,-2.2245],[115.664,-2.2145],[115.6525,-2.22],[115.651,-2.223],[115.643,-2.247],[115.6435,-2.247],[115.6475,-2.246],[115.649,-2.246],[115.656,-2.2475]]]},"properties":{"code":"63.11.02.2025","name":"Sumber Agung","latitude":-2.2311198730035553,"longitude":115.65902572757021}},{"type":"Feature","geometry":{"type":"Polygon","coordinates":[[[115.836,-2.371],[115.8155,-2.3585],[115.8085,-2.3485],[115.795,-2.342],[115.7805,-2.344],[115.764,-2.355],[115.745,-2.349],[115.731,-2.349],[115.7135,-2.3425],[115.7125,-2.3545],[115.738,-2.37],[115.7445,-2.38],[115.7555,-2.381],[115.7605,-2.3925],[115.7745,-2.3965],[115.794,-2.4115],[115.811,-2.407],[115.8125,-2.405],[115.8215,-2.3955],[115.8355,-2.39],[115.836,-2.371]]]},"properties":{"code":"63.11.02.2026","name":"Mamigang","latitude":-2.3729555218427296,"longitude":115.78316504696389}},{"type":"Feature","geometry":{"type":"Polygon","coordinates":[[[115.539,-2.4435],[115.5405,-2.4415],[115.54,-2.442],[115.539,-2.4435]]]},"properties":{"code":"63.11.03.2004","name":"Bihara","latitude":-2.4432443148733336,"longitude":115.54037161387976}},{"type":"Feature","geometry":{"type":"Polygon","coordinates":[[[115.5175,-2.4385],[115.5095,-2.437],[115.509,-2.442],[115.5135,-2.445],[115.532,-2.4475],[115.5315,-2.447],[115.5325,-2.446],[115.5285,-2.444],[115.5285,-2.4395],[115.5175,-2.4385]]]},"properties":{"code":"63.11.03.2005","name":"Pematang","latitude":-2.44238281941443,"longitude":115.52001239739525}},{"type":"Feature","geometry":{"type":"Polygon","coordinates":[[[115.527,-2.421],[115.5225,-2.421],[115.5115,-2.427],[115.4985,-2.4325],[115.5095,-2.437],[115.5175,-2.4385],[115.522,-2.429],[115.521,-2.427],[115.523,-2.4265],[115.5235,-2.4245],[115.5255,-2.424],[115.5265,-2.422],[115.527,-2.421]]]},"properties":{"code":"63.11.03.2006","name":"Merah","latitude":-2.430643739579451,"longitude":115.51469999184873}},{"type":"Feature","geometry":{"type":"Polygon","coordinates":[[[115.53,-2.411],[115.527,-2.4135],[115.5295,-2.414],[115.53,-2.414],[115.5305,-2.4145],[115.531,-2.4145],[115.5305,-2.4125],[115.53,-2.411]]]},"properties":{"code":"63.11.03.2007","name":"Awayan","latitude":-2.412849064420221,"longitude":115.52913751624872}},{"type":"Feature","geometry":{"type":"Polygon","coordinates":[[[115.5285,-2.3835],[115.5205,-2.376],[115.515,-2.3775],[115.511,-2.381],[115.512,-2.3895],[115.529,-2.3875],[115.5315,-2.3865],[115.5285,-2.3835]]]},"properties":{"code":"63.11.03.2008","name":"Pudak","latitude":-2.3838493996284797,"longitude":115.51927203071818}},{"type":"Feature","geometry":{"type":"Polygon","coordinates":[[[115.545,-2.399],[115.538,-2.3945],[115.54,-2.412],[115.531,-2.4135],[115.531,-2.4145],[115.5305,-2.4145],[115.53,-2.414],[115.5295,-2.4145],[115.5335,-2.4185],[115.534,-2.419],[115.535,-2.4195],[115.5365,-2.421],[115.537,-2.4225],[115.537,-2.4215],[115.5375,-2.4215],[115.538,-2.4215],[115.5395,-2.416],[115.5605,-2.4175],[115.5465,-2.4095],[115.545,-2.399]]]},"properties":{"code":"63.11.03.2009","name":"Badalungga","latitude":-2.4092577687444567,"longitude":115.5416075694376}},{"type":"Feature","geometry":{"type":"Polygon","coordinates":[[[115.617,-2.386],[115.5935,-2.383],[115.58,-2.3715],[115.577,-2.372],[115.566,-2.3855],[115.578,-2.393],[115.5865,-2.4],[115.5875,-2.405],[115.6075,-2.416],[115.6175,-2.4045],[115.6185,-2.3885],[115.617,-2.386]]]},"properties":{"code":"63.11.03.2010","name":"Tundakan","latitude":-2.3930371954642364,"longitude":115.59542984598376}},{"type":"Feature","geometry":{"type":"Polygon","coordinates":[[[115.5655,-2.3865],[115.554,-2.3795],[115.5535,-2.3765],[115.5405,-2.3885],[115.536,-2.386],[115.5355,-2.3825],[115.5345,-2.385],[115.529,-2.3875],[115.529,-2.391],[115.538,-2.3945],[115.545,-2.399],[115.5605,-2.3965],[115.5655,-2.3865]]]},"properties":{"code":"63.11.03.2011","name":"Sikontan","latitude":-2.389201607962333,"longitude":115.55073297029914}},{"type":"Feature","geometry":{"type":"Polygon","coordinates":[[[115.535,-2.4195],[115.5335,-2.4205],[115.5295,-2.418],[115.528,-2.4185],[115.5275,-2.4205],[115.5265,-2.422],[115.5255,-2.424],[115.5235,-2.4245],[115.523,-2.4265],[115.538,-2.4305],[115.5375,-2.423],[115.538,-2.4215],[115.5375,-2.4215],[115.537,-2.4215],[115.537,-2.4225],[115.5365,-2.421],[115.535,-2.4195]]]},"properties":{"code":"63.11.03.2012","name":"Pulantan","latitude":-2.424667589016846,"longitude":115.53264517908846}},{"type":"Feature","geometry":{"type":"Polygon","coordinates":[[[115.58,-2.3715],[115.5605,-2.36],[115.556,-2.3585],[115.554,-2.362],[115.5535,-2.3765],[115.554,-2.3795],[115.5655,-2.3865],[115.577,-2.372],[115.58,-2.3715]]]},"properties":{"code":"63.11.03.2013","name":"Tundi","latitude":-2.3719060555396583,"longitude":115.56379779946599}},{"type":"Feature","geometry":{"type":"Polygon","coordinates":[[[115.538,-2.4305],[115.523,-2.4265],[115.521,-2.427],[115.522,-2.429],[115.5175,-2.4385],[115.5285,-2.4395],[115.5285,-2.4385],[115.5305,-2.436],[115.538,-2.436],[115.538,-2.4355],[115.538,-2.4305]]]},"properties":{"code":"63.11.03.2014","name":"Muara Jaya","latitude":-2.4331584095947556,"longitude":115.52797300200369}},{"type":"Feature","geometry":{"type":"Polygon","coordinates":[[[115.538,-2.436],[115.5305,-2.436],[115.5285,-2.4385],[115.5285,-2.444],[115.534,-2.4465],[115.536,-2.4455],[115.5385,-2.444],[115.54,-2.442],[115.5405,-2.4415],[115.5375,-2.4365],[115.538,-2.436]]]},"properties":{"code":"63.11.03.2016","name":"Bihara Hilir","latitude":-2.441002408702584,"longitude":115.53391972301571}},{"type":"Feature","geometry":{"type":"Polygon","coordinates":[[[115.529,-2.391],[115.529,-2.3875],[115.512,-2.3895],[115.5125,-2.4095],[115.5215,-2.412],[115.531,-2.406],[115.5305,-2.4055],[115.5295,-2.404],[115.53,-2.3975],[115.53,-2.3965],[115.529,-2.391]]]},"properties":{"code":"63.11.03.2018","name":"Baru","latitude":-2.398783141415517,"longitude":115.52118551254247}},{"type":"Feature","geometry":{"type":"Polygon","coordinates":[[[115.53,-2.411],[115.531,-2.406],[115.5215,-2.412],[115.523,-2.413],[115.527,-2.4135],[115.53,-2.411]]]},"properties":{"code":"63.11.03.2020","name":"Awayan Hilir","latitude":-2.4096638642497683,"longitude":115.52691865059724}},{"type":"Feature","geometry":{"type":"Polygon","coordinates":[[[115.527,-2.4135],[115.523,-2.413],[115.5225,-2.421],[115.527,-2.421],[115.5275,-2.4205],[115.528,-2.4185],[115.5295,-2.418],[115.5335,-2.4205],[115.535,-2.4195],[115.5335,-2.4185],[115.5295,-2.4145],[115.5295,-2.414],[115.527,-2.4135]]]},"properties":{"code":"63.11.03.2021","name":"Putat Basiun","latitude":-2.4169625399624923,"longitude":115.52663260165745}},{"type":"Feature","geometry":{"type":"Polygon","coordinates":[[[115.509,-2.442],[115.507,-2.445],[115.5045,-2.4485],[115.506,-2.4485],[115.5065,-2.4485],[115.509,-2.4505],[115.514,-2.4525],[115.5145,-2.4535],[115.5315,-2.458],[115.531,-2.4485],[115.532,-2.4475],[115.5135,-2.445],[115.509,-2.442]]]},"properties":{"code":"63.11.03.2022","name":"Sei Pumpung","latitude":-2.449888743691731,"longitude":115.51948950031037}},{"type":"Feature","geometry":{"type":"Polygon","coordinates":[[[115.538,-2.3945],[115.529,-2.391],[115.53,-2.3965],[115.53,-2.3975],[115.5295,-2.404],[115.5305,-2.4055],[115.531,-2.406],[115.53,-2.411],[115.5305,-2.4125],[115.531,-2.4135],[115.54,-2.412],[115.538,-2.3945]]]},"properties":{"code":"63.11.03.2024","name":"Badalungga Hilir","latitude":-2.402738433348983,"longitude":115.53448641807014}},{"type":"Feature","geometry":{"type":"Polygon","coordinates":[[[115.565,-2.4315],[115.559,-2.427],[115.551,-2.4315],[115.5445,-2.444],[115.5435,-2.444],[115.5405,-2.4415],[115.539,-2.4435],[115.5385,-2.444],[115.536,-2.4455],[115.534,-2.4465],[115.5325,-2.446],[115.5315,-2.447],[115.5315,-2.448],[115.531,-2.4485],[115.5315,-2.458],[115.546,-2.46],[115.5485,-2.46],[115.5555,-2.461],[115.561,-2.4375],[115.565,-2.4315]]]},"properties":{"code":"63.11.03.2025","name":"Nungka","latitude":-2.4472472204599502,"longitude":115.54822353410096}},{"type":"Feature","geometry":{"type":"Polygon","coordinates":[[[115.511,-2.381],[115.4925,-2.381],[115.4815,-2.393],[115.491,-2.404],[115.489,-2.4225],[115.5125,-2.4095],[115.512,-2.3895],[115.511,-2.381]]]},"properties":{"code":"63.11.03.2026","name":"Tangalin","latitude":-2.3983295016240445,"longitude":115.49846219607275}},{"type":"Feature","geometry":{"type":"Polygon","coordinates":[[[115.5215,-2.412],[115.5125,-2.4095],[115.489,-2.4225],[115.4885,-2.429],[115.4985,-2.4325],[115.5115,-2.427],[115.5225,-2.421],[115.523,-2.413],[115.5215,-2.412]]]},"properties":{"code":"63.11.03.2027","name":"Kedondong","latitude":-2.4208862089489154,"longitude":115.50654289103956}},{"type":"Feature","geometry":{"type":"Polygon","coordinates":[[[115.5605,-2.4175],[115.5395,-2.416],[115.5375,-2.423],[115.538,-2.4305],[115.538,-2.4355],[115.5375,-2.4365],[115.5405,-2.4415],[115.5435,-2.444],[115.5445,-2.444],[115.551,-2.4315],[115.559,-2.427],[115.5605,-2.4175]]]},"properties":{"code":"63.11.03.2029","name":"Baramban","latitude":-2.4273948137866244,"longitude":115.54746912635456}},{"type":"Feature","geometry":{"type":"Polygon","coordinates":[[[115.6075,-2.416],[115.5875,-2.405],[115.5865,-2.4],[115.578,-2.393],[115.566,-2.3855],[115.5655,-2.3865],[115.5605,-2.3965],[115.5605,-2.4175],[115.559,-2.427],[115.565,-2.4315],[115.569,-2.426],[115.5815,-2.4225],[115.603,-2.414],[115.6075,-2.416]]]},"properties":{"code":"63.11.03.2031","name":"Ambakiang","latitude":-2.409442499989319,"longitude":115.57614963607034}},{"type":"Feature","geometry":{"type":"Polygon","coordinates":[[[115.5605,-2.4175],[115.5605,-2.3965],[115.545,-2.399],[115.5465,-2.4095],[115.5605,-2.4175]]]},"properties":{"code":"63.11.03.2032","name":"Piyait","latitude":-2.405521823594356,"longitude":115.55391024123855}},{"type":"Feature","geometry":{"type":"Polygon","coordinates":[[[115.511,-2.4635],[115.51,-2.463],[115.4945,-2.464],[115.4955,-2.4675],[115.4995,-2.469],[115.505,-2.474],[115.51,-2.4745],[115.511,-2.471],[115.513,-2.4635],[115.511,-2.4635]]]},"properties":{"code":"63.11.04.2001","name":"Tariwin","latitude":-2.467940155390452,"longitude":115.50467017112567}},{"type":"Feature","geometry":{"type":"Polygon","coordinates":[[[115.5145,-2.4545],[115.514,-2.4525],[115.509,-2.4505],[115.5065,-2.4485],[115.506,-2.4485],[115.5045,-2.4485],[115.496,-2.461],[115.4945,-2.464],[115.51,-2.463],[115.511,-2.4635],[115.513,-2.4635],[115.515,-2.4565],[115.5145,-2.4545]]]},"properties":{"code":"63.11.04.2002","name":"Lok Batu","latitude":-2.457542343928428,"longitude":115.50595478093776}},{"type":"Feature","geometry":{"type":"Polygon","coordinates":[[[115.4915,-2.43],[115.4885,-2.429],[115.4695,-2.4345],[115.456,-2.4445],[115.446,-2.444],[115.4395,-2.4435],[115.437,-2.4525],[115.4425,-2.4545],[115.455,-2.4565],[115.4575,-2.4585],[115.475,-2.4575],[115.4915,-2.4355],[115.4915,-2.43]]]},"properties":{"code":"63.11.04.2003","name":"Munjung","latitude":-2.445444230968003,"longitude":115.46693795196312}},{"type":"Feature","geometry":{"type":"Polygon","coordinates":[[[115.489,-2.4225],[115.4895,-2.4205],[115.4695,-2.421],[115.447,-2.4255],[115.446,-2.444],[115.456,-2.4445],[115.4695,-2.4345],[115.4885,-2.429],[115.489,-2.4225]]]},"properties":{"code":"63.11.04.2004","name":"Pelajau","latitude":-2.4306879243928736,"longitude":115.46437887289193}},{"type":"Feature","geometry":{"type":"Polygon","coordinates":[[[115.407,-2.407],[115.381,-2.4065],[115.373,-2.405],[115.3685,-2.414],[115.3575,-2.4165],[115.354,-2.4205],[115.361,-2.424],[115.364,-2.4305],[115.373,-2.433],[115.376,-2.4285],[115.3875,-2.425],[115.3885,-2.4125],[115.397,-2.4135],[115.396,-2.4225],[115.422,-2.4275],[115.4265,-2.432],[115.4275,-2.4325],[115.428,-2.4315],[115.4285,-2.4315],[115.433,-2.4325],[115.4345,-2.4275],[115.425,-2.425],[115.415,-2.418],[115.416,-2.4175],[115.407,-2.407]]]},"properties":{"code":"63.11.04.2005","name":"Batumandi","latitude":-2.41832091826483,"longitude":115.38877758668501}},{"type":"Feature","geometry":{"type":"Polygon","coordinates":[[[115.447,-2.422],[115.456,-2.4065],[115.4325,-2.4075],[115.407,-2.407],[115.416,-2.4175],[115.417,-2.417],[115.4355,-2.4225],[115.447,-2.422]]]},"properties":{"code":"63.11.04.2006","name":"Riwa","latitude":-2.413483305867927,"longitude":115.43220922172296}},{"type":"Feature","geometry":{"type":"Polygon","coordinates":[[[115.4415,-2.398],[115.4345,-2.4],[115.43,-2.4005],[115.3995,-2.402],[115.388,-2.3985],[115.3855,-2.395],[115.3805,-2.393],[115.378,-2.399],[115.373,-2.405],[115.381,-2.4065],[115.4325,-2.4075],[115.456,-2.4065],[115.46,-2.3995],[115.458,-2.3975],[115.4415,-2.398]]]},"properties":{"code":"63.11.04.2007","name":"Mantimin","latitude":-2.4026844598728463,"longitude":115.4189848871537}},{"type":"Feature","geometry":{"type":"Polygon","coordinates":[[[115.4315,-2.3755],[115.4175,-2.375],[115.4075,-2.37],[115.3925,-2.389],[115.44,-2.388],[115.4415,-2.398],[115.458,-2.3975],[115.46,-2.3995],[115.4815,-2.393],[115.479,-2.39],[115.4725,-2.3845],[115.441,-2.3835],[115.4315,-2.3755]]]},"properties":{"code":"63.11.04.2008","name":"Mampari","latitude":-2.384732605683766,"longitude":115.4338982982738}},{"type":"Feature","geometry":{"type":"Polygon","coordinates":[[[115.4355,-2.4225],[115.417,-2.417],[115.415,-2.418],[115.425,-2.425],[115.4345,-2.4275],[115.4355,-2.4225]]]},"properties":{"code":"63.11.04.2009","name":"Bungur","latitude":-2.4221308317009655,"longitude":115.42636070154762}},{"type":"Feature","geometry":{"type":"Polygon","coordinates":[[[115.4285,-2.4315],[115.428,-2.4315],[115.4275,-2.4325],[115.4265,-2.432],[115.422,-2.4275],[115.396,-2.4225],[115.397,-2.4135],[115.3885,-2.4125],[115.3875,-2.425],[115.376,-2.4285],[115.373,-2.433],[115.3875,-2.4375],[115.421,-2.434],[115.4285,-2.436],[115.429,-2.4345],[115.4295,-2.434],[115.4295,-2.4335],[115.429,-2.433],[115.429,-2.4325],[115.429,-2.432],[115.4285,-2.4315]]]},"properties":{"code":"63.11.04.2010","name":"Teluk Mesjid","latitude":-2.4285919640994327,"longitude":115.39875867537009}},{"type":"Feature","geometry":{"type":"Polygon","coordinates":[[[115.4285,-2.436],[115.421,-2.434],[115.3875,-2.4375],[115.3925,-2.441],[115.4015,-2.44],[115.418,-2.4405],[115.431,-2.4425],[115.428,-2.4365],[115.4285,-2.436]]]},"properties":{"code":"63.11.04.2011","name":"Timbun Tulang","latitude":-2.437912321875998,"longitude":115.41169839100695}},{"type":"Feature","geometry":{"type":"Polygon","coordinates":[[[115.3925,-2.389],[115.3805,-2.385],[115.3805,-2.393],[115.3855,-2.395],[115.388,-2.3985],[115.3995,-2.402],[115.43,-2.4005],[115.4345,-2.4],[115.4415,-2.398],[115.44,-2.388],[115.3925,-2.389]]]},"properties":{"code":"63.11.04.2012","name":"Banua Hanyar","latitude":-2.3941292897172355,"longitude":115.41231472690987}},{"type":"Feature","geometry":{"type":"Polygon","coordinates":[[[115.509,-2.442],[115.5095,-2.437],[115.506,-2.4355],[115.487,-2.46],[115.486,-2.4675],[115.4885,-2.468],[115.493,-2.4685],[115.4945,-2.464],[115.496,-2.461],[115.507,-2.445],[115.509,-2.442]]]},"properties":{"code":"63.11.04.2013","name":"Bakung","latitude":-2.4529168832734123,"longitude":115.49734388557933}},{"type":"Feature","geometry":{"type":"Polygon","coordinates":[[[115.487,-2.46],[115.491,-2.455],[115.506,-2.4355],[115.4915,-2.43],[115.4915,-2.4355],[115.475,-2.4575],[115.4575,-2.4585],[115.4615,-2.463],[115.469,-2.465],[115.4815,-2.4665],[115.486,-2.4675],[115.487,-2.46]]]},"properties":{"code":"63.11.04.2014","name":"Karuh","latitude":-2.4511479945355936,"longitude":115.48468068975986}},{"type":"Feature","geometry":{"type":"Polygon","coordinates":[[[115.4815,-2.393],[115.46,-2.3995],[115.456,-2.4065],[115.447,-2.422],[115.447,-2.4255],[115.4695,-2.421],[115.4895,-2.4205],[115.491,-2.404],[115.4815,-2.393]]]},"properties":{"code":"63.11.04.2015","name":"Guha","latitude":-2.410452651573594,"longitude":115.4701791792402}},{"type":"Feature","geometry":{"type":"Polygon","coordinates":[[[115.5145,-2.4535],[115.5145,-2.4545],[115.515,-2.4565],[115.511,-2.471],[115.51,-2.4745],[115.509,-2.4765],[115.526,-2.4845],[115.5305,-2.4985],[115.5395,-2.487],[115.5455,-2.4805],[115.547,-2.4605],[115.546,-2.46],[115.5315,-2.458],[115.5145,-2.4535]]]},"properties":{"code":"63.11.04.2016","name":"Gunung Manau","latitude":-2.472097854811808,"longitude":115.52945318878318}},{"type":"Feature","geometry":{"type":"Polygon","coordinates":[[[115.437,-2.4525],[115.439,-2.4465],[115.4395,-2.4435],[115.431,-2.4425],[115.418,-2.4405],[115.4015,-2.44],[115.3925,-2.441],[115.398,-2.445],[115.3995,-2.4535],[115.4165,-2.4585],[115.4195,-2.461],[115.4385,-2.466],[115.4385,-2.4635],[115.4425,-2.4545],[115.437,-2.4525]]]},"properties":{"code":"63.11.04.2017","name":"Hampa Raya","latitude":-2.450515953075625,"longitude":115.42066350533406}},{"type":"Feature","geometry":{"type":"Polygon","coordinates":[[[115.447,-2.4255],[115.447,-2.422],[115.4355,-2.4225],[115.4355,-2.424],[115.433,-2.4325],[115.4285,-2.4315],[115.429,-2.432],[115.429,-2.4325],[115.429,-2.433],[115.4295,-2.4335],[115.4295,-2.434],[115.429,-2.4345],[115.429,-2.4355],[115.428,-2.4365],[115.431,-2.4425],[115.446,-2.444],[115.447,-2.4255]]]},"properties":{"code":"63.11.04.2018","name":"Kasai","latitude":-2.433526004585375,"longitude":115.43902245113874}},{"type":"Feature","geometry":{"type":"Polygon","coordinates":[[[115.3335,-2.381],[115.3285,-2.383],[115.3305,-2.3895],[115.334,-2.3855],[115.334,-2.382],[115.3335,-2.381]]]},"properties":{"code":"63.11.05.2001","name":"Tanah Habang Kiri","latitude":-2.3850142113368267,"longitude":115.33165529239862}},{"type":"Feature","geometry":{"type":"Polygon","coordinates":[[[115.3545,-2.341],[115.3515,-2.3405],[115.3485,-2.34],[115.35,-2.345],[115.3405,-2.351],[115.321,-2.355],[115.3185,-2.355],[115.3185,-2.3575],[115.3175,-2.358],[115.3175,-2.36],[115.3415,-2.36],[115.348,-2.3665],[115.348,-2.3655],[115.3495,-2.3645],[115.351,-2.364],[115.359,-2.3605],[115.359,-2.36],[115.3595,-2.3515],[115.356,-2.3495],[115.3555,-2.3465],[115.357,-2.3415],[115.356,-2.3415],[115.3545,-2.341]]]},"properties":{"code":"63.11.05.2002","name":"Panaitan","latitude":-2.354902793372602,"longitude":115.34312931973624}},{"type":"Feature","geometry":{"type":"Polygon","coordinates":[[[115.3805,-2.393],[115.3355,-2.3835],[115.334,-2.384],[115.334,-2.3855],[115.3305,-2.3895],[115.324,-2.3885],[115.323,-2.39],[115.3495,-2.414],[115.3575,-2.4165],[115.3685,-2.414],[115.373,-2.405],[115.378,-2.399],[115.3805,-2.393]]]},"properties":{"code":"63.11.05.2003","name":"Tanah Habang Kanan","latitude":-2.3988609079306737,"longitude":115.35346071840661}},{"type":"Feature","geometry":{"type":"Polygon","coordinates":[[[115.3905,-2.346],[115.387,-2.346],[115.3805,-2.344],[115.378,-2.3455],[115.376,-2.348],[115.3775,-2.361],[115.387,-2.3755],[115.381,-2.383],[115.3805,-2.385],[115.3925,-2.389],[115.4035,-2.375],[115.4045,-2.3735],[115.405,-2.3725],[115.406,-2.3715],[115.407,-2.369],[115.414,-2.361],[115.4145,-2.354],[115.4135,-2.3535],[115.413,-2.3535],[115.4075,-2.356],[115.4055,-2.355],[115.392,-2.3565],[115.3885,-2.3495],[115.3885,-2.3485],[115.389,-2.3475],[115.39,-2.3475],[115.3905,-2.346]]]},"properties":{"code":"63.11.05.2004","name":"Batu Merah","latitude":-2.365211521863476,"longitude":115.39258687320817}},{"type":"Feature","geometry":{"type":"Polygon","coordinates":[[[115.3805,-2.344],[115.376,-2.338],[115.3755,-2.339],[115.374,-2.3415],[115.3725,-2.3425],[115.3725,-2.343],[115.3725,-2.344],[115.373,-2.3445],[115.3765,-2.346],[115.377,-2.3465],[115.378,-2.3455],[115.3805,-2.344]]]},"properties":{"code":"63.11.05.2005","name":"Lampihong Kanan","latitude":-2.342812750474395,"longitude":115.37662406434106}},{"type":"Feature","geometry":{"type":"Polygon","coordinates":[[[115.377,-2.3465],[115.3765,-2.346],[115.373,-2.3445],[115.3725,-2.344],[115.3725,-2.345],[115.372,-2.3455],[115.372,-2.345],[115.37,-2.347],[115.3695,-2.348],[115.3695,-2.349],[115.367,-2.3475],[115.3625,-2.3505],[115.3595,-2.3515],[115.359,-2.36],[115.3615,-2.3625],[115.3775,-2.361],[115.376,-2.348],[115.377,-2.3465]]]},"properties":{"code":"63.11.05.2006","name":"Lampihong Selatan","latitude":-2.3558900897788613,"longitude":115.36833094726735}},{"type":"Feature","geometry":{"type":"Polygon","coordinates":[[[115.3875,-2.332],[115.3835,-2.3295],[115.3805,-2.3255],[115.377,-2.3325],[115.376,-2.3335],[115.3795,-2.334],[115.385,-2.333],[115.3865,-2.333],[115.387,-2.3325],[115.3875,-2.332]]]},"properties":{"code":"63.11.05.2007","name":"Lampihong Kiri","latitude":-2.330450217311459,"longitude":115.38084553520677}},{"type":"Feature","geometry":{"type":"Polygon","coordinates":[[[115.4,-2.2965],[115.3975,-2.2955],[115.3945,-2.2955],[115.3795,-2.298],[115.3885,-2.3155],[115.3935,-2.314],[115.3935,-2.3135],[115.397,-2.307],[115.3965,-2.3045],[115.3965,-2.304],[115.396,-2.303],[115.399,-2.3025],[115.3995,-2.2965],[115.4,-2.2965]]]},"properties":{"code":"63.11.05.2008","name":"Lajar","latitude":-2.3043045597724583,"longitude":115.39006932221184}},{"type":"Feature","geometry":{"type":"Polygon","coordinates":[[[115.4055,-2.298],[115.4,-2.2965],[115.3995,-2.2965],[115.4015,-2.315],[115.405,-2.3305],[115.4105,-2.35],[115.4135,-2.3535],[115.4145,-2.354],[115.408,-2.311],[115.4085,-2.31],[115.4055,-2.298]]]},"properties":{"code":"63.11.05.2009","name":"Kusambi Hulu","latitude":-2.3232189938786605,"longitude":115.40660646986736}},{"type":"Feature","geometry":{"type":"Polygon","coordinates":[[[115.405,-2.3305],[115.4015,-2.315],[115.399,-2.3025],[115.396,-2.303],[115.3965,-2.304],[115.3965,-2.3045],[115.397,-2.307],[115.3935,-2.3135],[115.3945,-2.316],[115.3955,-2.3265],[115.3955,-2.3305],[115.4015,-2.3355],[115.402,-2.3345],[115.405,-2.3305]]]},"properties":{"code":"63.11.05.2010","name":"Kusambi Hilir","latitude":-2.3198672788460786,"longitude":115.39917747446223}},{"type":"Feature","geometry":{"type":"Polygon","coordinates":[[[115.3905,-2.346],[115.3905,-2.345],[115.39,-2.3435],[115.393,-2.339],[115.391,-2.337],[115.391,-2.335],[115.39,-2.332],[115.389,-2.3315],[115.388,-2.33],[115.387,-2.3325],[115.3865,-2.333],[115.385,-2.333],[115.3795,-2.334],[115.3785,-2.335],[115.3765,-2.3365],[115.376,-2.338],[115.3805,-2.344],[115.387,-2.346],[115.3905,-2.346]]]},"properties":{"code":"63.11.05.2011","name":"Simpang Tiga","latitude":-2.3386095585088,"longitude":115.38505837608788}},{"type":"Feature","geometry":{"type":"Polygon","coordinates":[[[115.3285,-2.383],[115.3165,-2.3895],[115.313,-2.3905],[115.3125,-2.4005],[115.3145,-2.4035],[115.321,-2.402],[115.321,-2.398],[115.323,-2.39],[115.324,-2.3885],[115.3305,-2.3895],[115.3285,-2.383]]]},"properties":{"code":"63.11.05.2012","name":"Matang Lurus","latitude":-2.392483950648656,"longitude":115.3198383556782}},{"type":"Feature","geometry":{"type":"Polygon","coordinates":[[[115.3955,-2.327],[115.391,-2.327],[115.388,-2.328],[115.388,-2.33],[115.389,-2.3315],[115.39,-2.332],[115.391,-2.335],[115.391,-2.337],[115.393,-2.339],[115.39,-2.3435],[115.3905,-2.345],[115.391,-2.3465],[115.39,-2.3475],[115.389,-2.3475],[115.3885,-2.3485],[115.3885,-2.3495],[115.392,-2.3565],[115.4055,-2.355],[115.4075,-2.356],[115.413,-2.3535],[115.4105,-2.35],[115.405,-2.3305],[115.402,-2.3345],[115.4015,-2.3355],[115.3955,-2.3305],[115.3955,-2.327]]]},"properties":{"code":"63.11.05.2013","name":"Lok Hamawang","latitude":-2.3435336325370093,"longitude":115.3985227521436}},{"type":"Feature","geometry":{"type":"Polygon","coordinates":[[[115.3955,-2.327],[115.3955,-2.3265],[115.3945,-2.316],[115.3935,-2.314],[115.39,-2.315],[115.391,-2.317],[115.3865,-2.3195],[115.387,-2.325],[115.389,-2.327],[115.391,-2.327],[115.3955,-2.327]]]},"properties":{"code":"63.11.05.2014","name":"Kupang","latitude":-2.321627440727117,"longitude":115.39134284361663}},{"type":"Feature","geometry":{"type":"Polygon","coordinates":[[[115.3775,-2.361],[115.3615,-2.3625],[115.359,-2.36],[115.359,-2.3605],[115.351,-2.364],[115.3495,-2.3645],[115.351,-2.3665],[115.387,-2.3755],[115.3775,-2.361]]]},"properties":{"code":"63.11.05.2015","name":"Tampang","latitude":-2.3671107376210756,"longitude":115.36873850339505}},{"type":"Feature","geometry":{"type":"Polygon","coordinates":[[[115.363,-2.2965],[115.3595,-2.2955],[115.348,-2.308],[115.351,-2.31],[115.356,-2.308],[115.3645,-2.3175],[115.3685,-2.324],[115.3695,-2.327],[115.372,-2.329],[115.3725,-2.329],[115.3755,-2.332],[115.3765,-2.3325],[115.3765,-2.333],[115.377,-2.3325],[115.3805,-2.3255],[115.3825,-2.3235],[115.362,-2.302],[115.363,-2.2965]]]},"properties":{"code":"63.11.05.2016","name":"Matang Hanau","latitude":-2.313715115563135,"longitude":115.36620589263605}},{"type":"Feature","geometry":{"type":"Polygon","coordinates":[[[115.372,-2.345],[115.3715,-2.3445],[115.366,-2.3355],[115.362,-2.3365],[115.357,-2.3375],[115.3555,-2.341],[115.3545,-2.341],[115.356,-2.3415],[115.357,-2.3415],[115.3555,-2.3465],[115.356,-2.3495],[115.3595,-2.3515],[115.3625,-2.3505],[115.367,-2.3475],[115.3695,-2.349],[115.3695,-2.348],[115.3695,-2.3475],[115.3705,-2.3465],[115.372,-2.345]]]},"properties":{"code":"63.11.05.2017","name":"Lok Panginangan","latitude":-2.3441527221181606,"longitude":115.36188226707303}},{"type":"Feature","geometry":{"type":"Polygon","coordinates":[[[115.416,-2.341],[115.414,-2.322],[115.4095,-2.3095],[115.408,-2.311],[115.4145,-2.354],[115.4185,-2.3445],[115.4175,-2.342],[115.416,-2.341]]]},"properties":{"code":"63.11.05.2018","name":"Jungkal","latitude":-2.327452855161578,"longitude":115.41340652492501}},{"type":"Feature","geometry":{"type":"Polygon","coordinates":[[[115.3755,-2.339],[115.372,-2.3345],[115.372,-2.333],[115.371,-2.334],[115.3665,-2.3355],[115.366,-2.3355],[115.3715,-2.3445],[115.372,-2.3455],[115.3725,-2.345],[115.372,-2.343],[115.3725,-2.3425],[115.373,-2.342],[115.374,-2.3415],[115.3755,-2.339]]]},"properties":{"code":"63.11.05.2019","name":"Sungai Tabuk","latitude":-2.339404692133993,"longitude":115.36973091477351}},{"type":"Feature","geometry":{"type":"Polygon","coordinates":[[[115.348,-2.3665],[115.3415,-2.36],[115.3175,-2.36],[115.3175,-2.3605],[115.323,-2.371],[115.334,-2.379],[115.338,-2.3775],[115.3395,-2.3765],[115.34,-2.375],[115.348,-2.367],[115.348,-2.3665]]]},"properties":{"code":"63.11.05.2020","name":"Jimamun","latitude":-2.3676912510310832,"longitude":115.3339540846324}},{"type":"Feature","geometry":{"type":"Polygon","coordinates":[[[115.334,-2.3805],[115.334,-2.379],[115.323,-2.371],[115.3175,-2.3605],[115.317,-2.3715],[115.3175,-2.3855],[115.3165,-2.3895],[115.3285,-2.383],[115.3335,-2.381],[115.334,-2.3805]]]},"properties":{"code":"63.11.05.2021","name":"Pimping","latitude":-2.375852263134283,"longitude":115.32281598351415}},{"type":"Feature","geometry":{"type":"Polygon","coordinates":[[[115.3765,-2.333],[115.3765,-2.3325],[115.3755,-2.332],[115.3725,-2.329],[115.3715,-2.3295],[115.3715,-2.3305],[115.372,-2.3345],[115.3755,-2.339],[115.3765,-2.3365],[115.3785,-2.335],[115.376,-2.3335],[115.3765,-2.333]]]},"properties":{"code":"63.11.05.2022","name":"Hilir Pasar","latitude":-2.334200202180724,"longitude":115.37429359633337}},{"type":"Feature","geometry":{"type":"Polygon","coordinates":[[[115.3575,-2.4165],[115.3495,-2.414],[115.323,-2.39],[115.321,-2.398],[115.3215,-2.406],[115.354,-2.4205],[115.3575,-2.4165]]]},"properties":{"code":"63.11.05.2023","name":"Teluk Karya","latitude":-2.4058017799019717,"longitude":115.33466683207388}},{"type":"Feature","geometry":{"type":"Polygon","coordinates":[[[115.363,-2.2965],[115.362,-2.302],[115.3825,-2.3235],[115.387,-2.325],[115.3865,-2.3195],[115.391,-2.317],[115.39,-2.315],[115.3885,-2.3155],[115.3795,-2.298],[115.3695,-2.2985],[115.363,-2.2965]]]},"properties":{"code":"63.11.05.2024","name":"Pupuyuan","latitude":-2.309138853865514,"longitude":115.37636878821507}},{"type":"Feature","geometry":{"type":"Polygon","coordinates":[[[115.387,-2.325],[115.3825,-2.3235],[115.3805,-2.3255],[115.3835,-2.3295],[115.3875,-2.332],[115.388,-2.33],[115.388,-2.328],[115.389,-2.327],[115.387,-2.325]]]},"properties":{"code":"63.11.05.2025","name":"Sungai Awang","latitude":-2.327336054266963,"longitude":115.38539208371527}},{"type":"Feature","geometry":{"type":"Polygon","coordinates":[[[115.387,-2.3755],[115.351,-2.3665],[115.3495,-2.3645],[115.3485,-2.365],[115.348,-2.3655],[115.348,-2.367],[115.34,-2.375],[115.3395,-2.3765],[115.338,-2.3775],[115.334,-2.3805],[115.3335,-2.381],[115.334,-2.382],[115.334,-2.384],[115.3355,-2.3835],[115.3805,-2.393],[115.3805,-2.3865],[115.381,-2.383],[115.387,-2.3755]]]},"properties":{"code":"63.11.05.2026","name":"Kandang Jaya","latitude":-2.379249372087249,"longitude":115.36124274217849}},{"type":"Feature","geometry":{"type":"Polygon","coordinates":[[[115.372,-2.329],[115.3695,-2.327],[115.3685,-2.324],[115.3645,-2.3175],[115.356,-2.308],[115.351,-2.31],[115.358,-2.322],[115.356,-2.3285],[115.357,-2.3375],[115.362,-2.3365],[115.3665,-2.3355],[115.371,-2.334],[115.372,-2.333],[115.3715,-2.3305],[115.3715,-2.3295],[115.372,-2.329]]]},"properties":{"code":"63.11.05.2027","name":"Mundar","latitude":-2.325498119546198,"longitude":115.36223580479715}},{"type":"Feature","geometry":{"type":"Polygon","coordinates":[[[115.4835,-2.3445],[115.4825,-2.344],[115.481,-2.33],[115.4745,-2.3205],[115.4635,-2.3265],[115.459,-2.337],[115.4615,-2.3405],[115.464,-2.34],[115.467,-2.3415],[115.467,-2.34],[115.4745,-2.344],[115.475,-2.345],[115.4785,-2.3455],[115.4795,-2.3465],[115.4795,-2.347],[115.4785,-2.348],[115.4835,-2.3445]]]},"properties":{"code":"63.11.06.1019","name":"Paringin Timur","latitude":-2.3347065919846646,"longitude":115.47252996720925}},{"type":"Feature","geometry":{"type":"Polygon","coordinates":[[[115.4755,-2.316],[115.47,-2.3105],[115.447,-2.307],[115.4485,-2.3355],[115.4465,-2.338],[115.4465,-2.34],[115.4485,-2.3395],[115.452,-2.3395],[115.4535,-2.34],[115.454,-2.34],[115.4555,-2.3385],[115.459,-2.337],[115.4635,-2.3265],[115.4745,-2.3205],[115.4755,-2.316]]]},"properties":{"code":"63.11.06.1023","name":"Paringin Kota","latitude":-2.3217109788199117,"longitude":115.4583884209383}},{"type":"Feature","geometry":{"type":"Polygon","coordinates":[[[115.5065,-2.316],[115.491,-2.303],[115.4845,-2.307],[115.493,-2.316],[115.4955,-2.317],[115.503,-2.327],[115.5155,-2.3315],[115.5195,-2.332],[115.5225,-2.334],[115.5235,-2.337],[115.5245,-2.3375],[115.525,-2.3345],[115.5245,-2.3335],[115.5235,-2.3305],[115.5065,-2.316]]]},"properties":{"code":"63.11.06.2005","name":"Balang","latitude":-2.320484819044758,"longitude":115.50495797682606}},{"type":"Feature","geometry":{"type":"Polygon","coordinates":[[[115.4365,-2.2975],[115.413,-2.2925],[115.4255,-2.307],[115.4295,-2.329],[115.434,-2.3315],[115.4345,-2.335],[115.4355,-2.335],[115.437,-2.334],[115.4395,-2.333],[115.4365,-2.2975]]]},"properties":{"code":"63.11.06.2006","name":"Kalahiang","latitude":-2.3115333774609015,"longitude":115.43091727073141}},{"type":"Feature","geometry":{"type":"Polygon","coordinates":[[[115.458,-2.2715],[115.449,-2.2715],[115.442,-2.27],[115.4295,-2.28],[115.4275,-2.2805],[115.423,-2.285],[115.413,-2.2925],[115.4365,-2.2975],[115.447,-2.307],[115.47,-2.3105],[115.4755,-2.316],[115.478,-2.311],[115.4845,-2.307],[115.491,-2.303],[115.491,-2.299],[115.4655,-2.286],[115.458,-2.2715]]]},"properties":{"code":"63.11.06.2007","name":"Lasung Batu","latitude":-2.2922669799670206,"longitude":115.45392447503818}},{"type":"Feature","geometry":{"type":"Polygon","coordinates":[[[115.5245,-2.3335],[115.525,-2.3255],[115.5115,-2.306],[115.4965,-2.2555],[115.495,-2.2635],[115.4915,-2.27],[115.492,-2.2935],[115.507,-2.31],[115.5065,-2.316],[115.5235,-2.3305],[115.5245,-2.3335]]]},"properties":{"code":"63.11.06.2008","name":"Paran","latitude":-2.2945674234375373,"longitude":115.5040526887209}},{"type":"Feature","geometry":{"type":"Polygon","coordinates":[[[115.447,-2.307],[115.4365,-2.2975],[115.4395,-2.333],[115.442,-2.3345],[115.443,-2.3345],[115.445,-2.3365],[115.4465,-2.338],[115.4485,-2.3355],[115.447,-2.307]]]},"properties":{"code":"63.11.06.2009","name":"Layap","latitude":-2.317930104738967,"longitude":115.44274231124261}},{"type":"Feature","geometry":{"type":"Polygon","coordinates":[[[115.511,-2.33],[115.503,-2.327],[115.4955,-2.317],[115.493,-2.316],[115.4845,-2.307],[115.478,-2.311],[115.479,-2.3115],[115.4815,-2.311],[115.488,-2.3325],[115.492,-2.3325],[115.5,-2.3335],[115.501,-2.3315],[115.5055,-2.332],[115.511,-2.33]]]},"properties":{"code":"63.11.06.2012","name":"Murung Ilung","latitude":-2.3226509885339786,"longitude":115.49236358990223}},{"type":"Feature","geometry":{"type":"Polygon","coordinates":[[[115.5065,-2.316],[115.507,-2.31],[115.492,-2.2935],[115.491,-2.299],[115.491,-2.303],[115.5065,-2.316]]]},"properties":{"code":"63.11.06.2013","name":"Mangkayahu","latitude":-2.3061071734834546,"longitude":115.49814885888904}},{"type":"Feature","geometry":{"type":"Polygon","coordinates":[[[115.5355,-2.2595],[115.5355,-2.259],[115.531,-2.238],[115.5385,-2.213],[115.537,-2.1925],[115.5355,-2.1935],[115.5245,-2.1955],[115.5105,-2.2045],[115.491,-2.2125],[115.4885,-2.22],[115.4965,-2.227],[115.495,-2.25],[115.515,-2.2605],[115.5165,-2.2715],[115.5125,-2.2935],[115.5305,-2.324],[115.532,-2.322],[115.5335,-2.3175],[115.523,-2.3005],[115.5185,-2.291],[115.5205,-2.273],[115.5355,-2.2595]]]},"properties":{"code":"63.11.06.2014","name":"Lok Batung","latitude":-2.2376362845243696,"longitude":115.51735169721586}},{"type":"Feature","geometry":{"type":"Polygon","coordinates":[[[115.536,-2.2605],[115.5355,-2.2595],[115.5205,-2.273],[115.5185,-2.291],[115.523,-2.3005],[115.5335,-2.3175],[115.5365,-2.3095],[115.5385,-2.305],[115.5285,-2.301],[115.5325,-2.2875],[115.5385,-2.2765],[115.536,-2.2605]]]},"properties":{"code":"63.11.06.2015","name":"Lamida Bawah","latitude":-2.28575355422543,"longitude":115.5287008622623}},{"type":"Feature","geometry":{"type":"Polygon","coordinates":[[[115.495,-2.25],[115.4965,-2.227],[115.4885,-2.22],[115.484,-2.2355],[115.475,-2.2425],[115.4795,-2.251],[115.4625,-2.2675],[115.458,-2.2715],[115.461,-2.2775],[115.481,-2.2765],[115.4915,-2.27],[115.495,-2.2635],[115.4965,-2.2555],[115.495,-2.25]]]},"properties":{"code":"63.11.06.2017","name":"Dahai","latitude":-2.2549297601853024,"longitude":115.48239186993655}},{"type":"Feature","geometry":{"type":"Polygon","coordinates":[[[115.413,-2.2925],[115.4055,-2.298],[115.4085,-2.31],[115.4095,-2.3095],[115.414,-2.322],[115.416,-2.341],[115.423,-2.333],[115.4235,-2.332],[115.4245,-2.3305],[115.4265,-2.3295],[115.4295,-2.329],[115.4255,-2.307],[115.413,-2.2925]]]},"properties":{"code":"63.11.06.2022","name":"Hujan Mas","latitude":-2.3131746672033646,"longitude":115.41833072939092}},{"type":"Feature","geometry":{"type":"Polygon","coordinates":[[[115.5305,-2.324],[115.5125,-2.2935],[115.5165,-2.2715],[115.515,-2.2605],[115.495,-2.25],[115.5115,-2.306],[115.525,-2.3255],[115.5245,-2.3335],[115.528,-2.3255],[115.5295,-2.3255],[115.5305,-2.324]]]},"properties":{"code":"63.11.06.2024","name":"Babayau","latitude":-2.282251125452691,"longitude":115.5109224902246}},{"type":"Feature","geometry":{"type":"MultiPolygon","coordinates":[[[[115.5155,-2.3315],[115.511,-2.33],[115.5055,-2.332],[115.5165,-2.3335],[115.5205,-2.3325],[115.5195,-2.332],[115.5155,-2.3315]]],[[[115.4815,-2.311],[115.479,-2.3115],[115.478,-2.311],[115.4755,-2.316],[115.4745,-2.3205],[115.481,-2.33],[115.4825,-2.344],[115.4855,-2.3455],[115.4885,-2.346],[115.4915,-2.3465],[115.5,-2.3335],[115.492,-2.3325],[115.488,-2.3325],[115.4815,-2.311]]]]},"properties":{"code":"63.11.06.2034","name":"Balida","latitude":-2.330634814661606,"longitude":115.48667747316834}},{"type":"Feature","geometry":{"type":"Polygon","coordinates":[[[115.492,-2.2935],[115.4915,-2.27],[115.481,-2.2765],[115.461,-2.2775],[115.4655,-2.286],[115.491,-2.299],[115.492,-2.2935]]]},"properties":{"code":"63.11.06.2038","name":"Sungai Ketapi","latitude":-2.2837239674405865,"longitude":115.48034320690388}},{"type":"Feature","geometry":{"type":"Polygon","coordinates":[[[115.4835,-2.3445],[115.4785,-2.348],[115.4795,-2.347],[115.4795,-2.3465],[115.4785,-2.3455],[115.475,-2.345],[115.4745,-2.344],[115.467,-2.34],[115.467,-2.3415],[115.464,-2.34],[115.4615,-2.3405],[115.459,-2.337],[115.4555,-2.3385],[115.455,-2.339],[115.456,-2.34],[115.4565,-2.34],[115.456,-2.341],[115.4595,-2.355],[115.4615,-2.367],[115.438,-2.3695],[115.4315,-2.3755],[115.441,-2.3835],[115.4725,-2.3845],[115.479,-2.39],[115.4815,-2.393],[115.4925,-2.381],[115.4965,-2.3775],[115.49,-2.368],[115.479,-2.3675],[115.479,-2.358],[115.4865,-2.351],[115.488,-2.352],[115.489,-2.3505],[115.4915,-2.3465],[115.4885,-2.346],[115.4855,-2.3455],[115.4835,-2.3445]]]},"properties":{"code":"63.11.07.1001","name":"Batu Piring","latitude":-2.3670543408456948,"longitude":115.46831202769464}},{"type":"Feature","geometry":{"type":"Polygon","coordinates":[[[115.5055,-2.332],[115.501,-2.3315],[115.489,-2.3505],[115.488,-2.352],[115.4865,-2.351],[115.479,-2.358],[115.479,-2.3675],[115.49,-2.368],[115.489,-2.359],[115.5165,-2.3335],[115.5055,-2.332]]]},"properties":{"code":"63.11.07.2002","name":"Baruh Bahinu Luar","latitude":-2.348168402767566,"longitude":115.49553589132347}},{"type":"Feature","geometry":{"type":"Polygon","coordinates":[[[115.526,-2.354],[115.525,-2.353],[115.5085,-2.3735],[115.504,-2.3755],[115.4965,-2.3775],[115.4925,-2.381],[115.511,-2.381],[115.515,-2.3775],[115.518,-2.3765],[115.5165,-2.3695],[115.526,-2.3555],[115.526,-2.354]]]},"properties":{"code":"63.11.07.2003","name":"Inan","latitude":-2.3728095273221443,"longitude":115.510928358094}},{"type":"Feature","geometry":{"type":"Polygon","coordinates":[[[115.529,-2.355],[115.528,-2.355],[115.5275,-2.355],[115.526,-2.354],[115.526,-2.3555],[115.5285,-2.3835],[115.5315,-2.3865],[115.532,-2.3865],[115.5335,-2.3725],[115.529,-2.355]]]},"properties":{"code":"63.11.07.2004","name":"Baruh Bahinu Dalam","latitude":-2.3707094088694625,"longitude":115.5300887083956}},{"type":"Feature","geometry":{"type":"Polygon","coordinates":[[[115.525,-2.353],[115.5245,-2.3515],[115.5245,-2.3495],[115.505,-2.3705],[115.5005,-2.3705],[115.494,-2.374],[115.4965,-2.3775],[115.504,-2.3755],[115.5085,-2.3735],[115.525,-2.353]]]},"properties":{"code":"63.11.07.2005","name":"Panggung","latitude":-2.3672541126212927,"longitude":115.5093644442815}},{"type":"Feature","geometry":{"type":"Polygon","coordinates":[[[115.5245,-2.3375],[115.5235,-2.337],[115.523,-2.3345],[115.522,-2.334],[115.518,-2.338],[115.51,-2.3535],[115.499,-2.3655],[115.491,-2.3695],[115.494,-2.374],[115.5005,-2.3705],[115.505,-2.3705],[115.5245,-2.3495],[115.525,-2.347],[115.5285,-2.345],[115.5265,-2.343],[115.528,-2.3415],[115.529,-2.3395],[115.527,-2.3385],[115.5245,-2.3375]]]},"properties":{"code":"63.11.07.2006","name":"Galumbang","latitude":-2.354554509859022,"longitude":115.51281126533102}},{"type":"Feature","geometry":{"type":"Polygon","coordinates":[[[115.424,-2.344],[115.4185,-2.3445],[115.4145,-2.354],[115.414,-2.361],[115.407,-2.369],[115.406,-2.3715],[115.405,-2.3725],[115.4045,-2.3735],[115.4035,-2.375],[115.4075,-2.37],[115.4175,-2.375],[115.4315,-2.3755],[115.438,-2.3695],[115.4395,-2.356],[115.439,-2.3555],[115.4395,-2.3545],[115.439,-2.353],[115.438,-2.352],[115.437,-2.352],[115.437,-2.353],[115.428,-2.3455],[115.424,-2.344]]]},"properties":{"code":"63.11.07.2007","name":"Halubau","latitude":-2.36055960270563,"longitude":115.42618254039475}},{"type":"Feature","geometry":{"type":"Polygon","coordinates":[[[115.544,-2.3595],[115.5435,-2.3595],[115.541,-2.361],[115.539,-2.3615],[115.5335,-2.3595],[115.5295,-2.355],[115.529,-2.355],[115.5335,-2.3725],[115.532,-2.3865],[115.5345,-2.385],[115.5355,-2.3825],[115.5355,-2.376],[115.541,-2.367],[115.544,-2.3595]]]},"properties":{"code":"63.11.07.2008","name":"Binjai","latitude":-2.368165189632353,"longitude":115.53543740954878}},{"type":"Feature","geometry":{"type":"Polygon","coordinates":[[[115.5285,-2.3835],[115.526,-2.3555],[115.5165,-2.3695],[115.518,-2.3765],[115.5205,-2.376],[115.5285,-2.3835]]]},"properties":{"code":"63.11.07.2009","name":"Murung Abuin","latitude":-2.3711254558538863,"longitude":115.52373886084324}},{"type":"Feature","geometry":{"type":"Polygon","coordinates":[[[115.4465,-2.338],[115.4455,-2.337],[115.4415,-2.34],[115.4375,-2.3475],[115.437,-2.352],[115.438,-2.352],[115.439,-2.353],[115.45,-2.3495],[115.4595,-2.355],[115.456,-2.341],[115.456,-2.34],[115.455,-2.339],[115.454,-2.34],[115.4535,-2.34],[115.452,-2.3395],[115.4485,-2.3395],[115.4465,-2.34],[115.4465,-2.338]]]},"properties":{"code":"63.11.07.2010","name":"Bungin","latitude":-2.345912352190419,"longitude":115.44841762787581}},{"type":"Feature","geometry":{"type":"Polygon","coordinates":[[[115.522,-2.334],[115.5205,-2.3325],[115.5165,-2.3335],[115.489,-2.359],[115.49,-2.368],[115.491,-2.3695],[115.499,-2.3655],[115.51,-2.3535],[115.518,-2.338],[115.522,-2.334]]]},"properties":{"code":"63.11.07.2011","name":"Maradap","latitude":-2.352476033874023,"longitude":115.50302719649879}},{"type":"Feature","geometry":{"type":"Polygon","coordinates":[[[115.4395,-2.333],[115.437,-2.334],[115.4355,-2.335],[115.4345,-2.335],[115.434,-2.335],[115.428,-2.3455],[115.437,-2.353],[115.4375,-2.3475],[115.4415,-2.34],[115.4455,-2.337],[115.443,-2.3345],[115.442,-2.3345],[115.4395,-2.333]]]},"properties":{"code":"63.11.07.2012","name":"Halubau Utara","latitude":-2.3420235778628933,"longitude":115.43587214461533}},{"type":"Feature","geometry":{"type":"Polygon","coordinates":[[[115.426,-2.3305],[115.4245,-2.3305],[115.4235,-2.332],[115.423,-2.333],[115.416,-2.341],[115.4175,-2.342],[115.4185,-2.3445],[115.424,-2.344],[115.426,-2.3305]]]},"properties":{"code":"63.11.07.2013","name":"Murung Jambu","latitude":-2.336698624835699,"longitude":115.42099220383555}},{"type":"Feature","geometry":{"type":"Polygon","coordinates":[[[115.552,-2.359],[115.5455,-2.355],[115.541,-2.367],[115.5355,-2.376],[115.536,-2.386],[115.5405,-2.3885],[115.5535,-2.3765],[115.554,-2.362],[115.552,-2.359]]]},"properties":{"code":"63.11.07.2014","name":"Telaga Purun","latitude":-2.3721175793629605,"longitude":115.54502196363084}},{"type":"Feature","geometry":{"type":"Polygon","coordinates":[[[115.4595,-2.355],[115.45,-2.3495],[115.439,-2.353],[115.4395,-2.3545],[115.439,-2.3555],[115.4395,-2.356],[115.438,-2.3695],[115.4615,-2.367],[115.4595,-2.355]]]},"properties":{"code":"63.11.07.2015","name":"Lingsir","latitude":-2.35974801603625,"longitude":115.44979024147918}},{"type":"Feature","geometry":{"type":"Polygon","coordinates":[[[115.4295,-2.329],[115.4265,-2.3295],[115.426,-2.3305],[115.424,-2.344],[115.428,-2.3455],[115.434,-2.335],[115.434,-2.3315],[115.4295,-2.329]]]},"properties":{"code":"63.11.07.2016","name":"Tarangan","latitude":-2.3361877058847935,"longitude":115.4292933938156}},{"type":"Feature","geometry":{"type":"Polygon","coordinates":[[[115.6585,-2.482],[115.6485,-2.461],[115.65,-2.4585],[115.6345,-2.457],[115.632,-2.451],[115.62,-2.4485],[115.6095,-2.455],[115.6095,-2.466],[115.626,-2.482],[115.6585,-2.482]]]},"properties":{"code":"63.11.08.2001","name":"Dayak Pitap","latitude":-2.467069257717229,"longitude":115.6320219787956}},{"type":"Feature","geometry":{"type":"Polygon","coordinates":[[[115.6145,-2.4405],[115.6225,-2.419],[115.6175,-2.4045],[115.6075,-2.416],[115.603,-2.414],[115.5945,-2.4175],[115.6015,-2.4355],[115.6005,-2.4475],[115.6055,-2.447],[115.607,-2.4465],[115.608,-2.4455],[115.6095,-2.4435],[115.6105,-2.4445],[115.6125,-2.444],[115.6135,-2.4405],[115.6145,-2.4405]]]},"properties":{"code":"63.11.08.2002","name":"Tebing Tinggi","latitude":-2.426369083638372,"longitude":115.60885663040509}},{"type":"Feature","geometry":{"type":"Polygon","coordinates":[[[115.6005,-2.4475],[115.6015,-2.4355],[115.5945,-2.4175],[115.591,-2.4215],[115.589,-2.429],[115.583,-2.443],[115.5865,-2.453],[115.5985,-2.453],[115.5985,-2.4515],[115.6005,-2.4475]]]},"properties":{"code":"63.11.08.2003","name":"Sungsum","latitude":-2.4385631767814036,"longitude":115.59302055284498}},{"type":"Feature","geometry":{"type":"Polygon","coordinates":[[[115.589,-2.429],[115.591,-2.4215],[115.5945,-2.4175],[115.5815,-2.4225],[115.569,-2.426],[115.561,-2.4375],[115.5555,-2.461],[115.5485,-2.46],[115.547,-2.4605],[115.5455,-2.4805],[115.5515,-2.4835],[115.5715,-2.4825],[115.57,-2.485],[115.574,-2.482],[115.591,-2.464],[115.591,-2.4625],[115.5865,-2.453],[115.583,-2.443],[115.589,-2.429]]]},"properties":{"code":"63.11.08.2004","name":"Ju'uh","latitude":-2.455794821296466,"longitude":115.5699021627082}},{"type":"Feature","geometry":{"type":"Polygon","coordinates":[[[115.651,-2.3765],[115.628,-2.3735],[115.6135,-2.3775],[115.621,-2.392],[115.629,-2.4025],[115.633,-2.42],[115.6195,-2.437],[115.634,-2.432],[115.651,-2.416],[115.651,-2.3765]]]},"properties":{"code":"63.11.08.2005","name":"Mayanau","latitude":-2.399186294289665,"longitude":115.63559286989022}},{"type":"Feature","geometry":{"type":"Polygon","coordinates":[[[115.6315,-2.4495],[115.6305,-2.442],[115.643,-2.433],[115.641,-2.4255],[115.634,-2.432],[115.6195,-2.437],[115.619,-2.439],[115.621,-2.442],[115.6315,-2.4495]]]},"properties":{"code":"63.11.08.2006","name":"Simpang Bumbuan","latitude":-2.437985654075919,"longitude":115.63451334569652}},{"type":"Feature","geometry":{"type":"Polygon","coordinates":[[[115.597,-2.4595],[115.5985,-2.453],[115.5865,-2.453],[115.591,-2.4625],[115.591,-2.464],[115.574,-2.482],[115.57,-2.485],[115.569,-2.488],[115.5895,-2.479],[115.597,-2.4895],[115.6095,-2.466],[115.597,-2.4595]]]},"properties":{"code":"63.11.08.2007","name":"Auh","latitude":-2.472027919270476,"longitude":115.5921363520462}},{"type":"Feature","geometry":{"type":"Polygon","coordinates":[[[115.6155,-2.441],[115.6135,-2.4405],[115.6125,-2.444],[115.6105,-2.4445],[115.6095,-2.4435],[115.608,-2.4455],[115.607,-2.4465],[115.6055,-2.447],[115.6005,-2.4475],[115.5985,-2.4515],[115.597,-2.4595],[115.6095,-2.466],[115.6095,-2.455],[115.62,-2.4485],[115.632,-2.451],[115.6315,-2.4495],[115.621,-2.442],[115.6215,-2.444],[115.6155,-2.441]]]},"properties":{"code":"63.11.08.2008","name":"Gunung Batu","latitude":-2.4524869005541095,"longitude":115.60890741004748}},{"type":"Feature","geometry":{"type":"Polygon","coordinates":[[[115.682,-2.4305],[115.6795,-2.38],[115.6595,-2.3745],[115.651,-2.3765],[115.651,-2.416],[115.641,-2.4255],[115.643,-2.433],[115.6305,-2.442],[115.6315,-2.4495],[115.6345,-2.457],[115.65,-2.4585],[115.6565,-2.4425],[115.672,-2.434],[115.6755,-2.433],[115.682,-2.4305]]]},"properties":{"code":"63.11.08.2009","name":"Langkap","latitude":-2.4162060871649684,"longitude":115.66070844382833}},{"type":"Feature","geometry":{"type":"Polygon","coordinates":[[[115.6195,-2.437],[115.633,-2.42],[115.629,-2.4025],[115.621,-2.392],[115.6185,-2.3885],[115.6175,-2.4045],[115.6225,-2.419],[115.6145,-2.4405],[115.6155,-2.441],[115.6215,-2.444],[115.619,-2.439],[115.6195,-2.437]]]},"properties":{"code":"63.11.08.2010","name":"Simpang Nadong","latitude":-2.4164671668451962,"longitude":115.62285933388068}},{"type":"Feature","geometry":{"type":"Polygon","coordinates":[[[115.7265,-2.4305],[115.6905,-2.429],[115.682,-2.4305],[115.6755,-2.433],[115.672,-2.434],[115.6565,-2.4425],[115.6485,-2.461],[115.6585,-2.482],[115.6875,-2.507],[115.696,-2.5215],[115.6965,-2.5215],[115.7105,-2.5275],[115.7185,-2.5235],[115.7505,-2.5325],[115.782,-2.514],[115.786,-2.4955],[115.7945,-2.4785],[115.7905,-2.457],[115.771,-2.451],[115.76,-2.444],[115.7265,-2.4425],[115.7265,-2.4305]]]},"properties":{"code":"63.11.08.2011","name":"Ajung","latitude":-2.4783540522182275,"longitude":115.72330208307183}},{"type":"Feature","geometry":{"type":"Polygon","coordinates":[[[115.6585,-2.482],[115.626,-2.482],[115.6095,-2.466],[115.597,-2.4895],[115.6035,-2.5035],[115.6185,-2.508],[115.6575,-2.5105],[115.6795,-2.5235],[115.692,-2.5225],[115.696,-2.5215],[115.6875,-2.507],[115.6585,-2.482]]]},"properties":{"code":"63.11.08.2012","name":"Kambiyain","latitude":-2.497371091147742,"longitude":115.64233439539377}}]}