{"type":"FeatureCollection","features":[{"type":"Feature","geometry":{"type":"Polygon","coordinates":[[[114.5645,-3.3475],[114.563,-3.3475],[114.5615,-3.339],[114.548,-3.3365],[114.539,-3.346],[114.525,-3.3595],[114.5225,-3.3635],[114.5405,-3.3705],[114.5405,-3.3715],[114.543,-3.3715],[114.544,-3.3725],[114.5465,-3.3735],[114.5545,-3.374],[114.559,-3.371],[114.5645,-3.3475]]]},"properties":{"code":"63.71.01.1001","name":"Mantuil"}},{"type":"Feature","geometry":{"type":"Polygon","coordinates":[[[114.5905,-3.337],[114.5865,-3.331],[114.582,-3.333],[114.5815,-3.334],[114.5855,-3.34],[114.586,-3.3415],[114.585,-3.3495],[114.5845,-3.352],[114.5855,-3.355],[114.5875,-3.358],[114.5875,-3.3575],[114.5895,-3.3435],[114.5895,-3.34],[114.5905,-3.337]]]},"properties":{"code":"63.71.01.1002","name":"Kelayan Selatan"}},{"type":"Feature","geometry":{"type":"Polygon","coordinates":[[[114.593,-3.334],[114.593,-3.3335],[114.5915,-3.3325],[114.5915,-3.33],[114.5895,-3.3285],[114.5885,-3.3295],[114.5865,-3.331],[114.5905,-3.337],[114.5915,-3.335],[114.593,-3.334]]]},"properties":{"code":"63.71.01.1003","name":"Pekauman"}},{"type":"Feature","geometry":{"type":"Polygon","coordinates":[[[114.5965,-3.3315],[114.5955,-3.3285],[114.593,-3.3285],[114.5895,-3.3285],[114.5915,-3.33],[114.5915,-3.3325],[114.593,-3.3335],[114.593,-3.334],[114.5935,-3.334],[114.596,-3.3325],[114.5965,-3.3315]]]},"properties":{"code":"63.71.01.1004","name":"Kelayan Barat"}},{"type":"Feature","geometry":{"type":"Polygon","coordinates":[[[114.596,-3.3325],[114.5935,-3.334],[114.593,-3.334],[114.5915,-3.335],[114.5935,-3.3375],[114.595,-3.3375],[114.596,-3.3325]]]},"properties":{"code":"63.71.01.1005","name":"Kelayan Tengah"}},{"type":"Feature","geometry":{"type":"Polygon","coordinates":[[[114.6,-3.333],[114.5965,-3.3315],[114.595,-3.337],[114.6015,-3.3365],[114.5995,-3.3355],[114.6,-3.334],[114.6,-3.333]]]},"properties":{"code":"63.71.01.1006","name":"Kelayan Dalam"}},{"type":"Feature","geometry":{"type":"Polygon","coordinates":[[[114.603,-3.34],[114.6015,-3.336],[114.6015,-3.3365],[114.595,-3.337],[114.595,-3.338],[114.5935,-3.341],[114.593,-3.3425],[114.5935,-3.344],[114.5995,-3.3435],[114.603,-3.3405],[114.603,-3.34]]]},"properties":{"code":"63.71.01.1007","name":"Murung Raya"}},{"type":"Feature","geometry":{"type":"Polygon","coordinates":[[[114.595,-3.3375],[114.5935,-3.3375],[114.5905,-3.337],[114.5895,-3.34],[114.5895,-3.3435],[114.5875,-3.3575],[114.5865,-3.359],[114.5795,-3.3795],[114.586,-3.382],[114.59,-3.376],[114.5875,-3.3725],[114.5985,-3.357],[114.5955,-3.345],[114.5935,-3.344],[114.593,-3.3425],[114.5935,-3.341],[114.595,-3.3375]]]},"properties":{"code":"63.71.01.1008","name":"Kelayan Timur"}},{"type":"Feature","geometry":{"type":"Polygon","coordinates":[[[114.606,-3.3435],[114.6035,-3.3415],[114.603,-3.3405],[114.5995,-3.3435],[114.5955,-3.345],[114.5985,-3.357],[114.5875,-3.3725],[114.59,-3.376],[114.59,-3.3755],[114.5955,-3.367],[114.6055,-3.37],[114.608,-3.3725],[114.6085,-3.3615],[114.611,-3.354],[114.6055,-3.3465],[114.6045,-3.345],[114.606,-3.3435]]]},"properties":{"code":"63.71.01.1009","name":"Tanjung Pagar"}},{"type":"Feature","geometry":{"type":"Polygon","coordinates":[[[114.6205,-3.342],[114.607,-3.345],[114.6045,-3.345],[114.6055,-3.3465],[114.611,-3.354],[114.6085,-3.3615],[114.608,-3.3725],[114.615,-3.369],[114.6175,-3.3665],[114.623,-3.3625],[114.625,-3.354],[114.6265,-3.35],[114.627,-3.35],[114.6205,-3.342]]]},"properties":{"code":"63.71.01.1010","name":"Pemurus Dalam"}},{"type":"Feature","geometry":{"type":"Polygon","coordinates":[[[114.613,-3.337],[114.6125,-3.338],[114.606,-3.337],[114.604,-3.3375],[114.6035,-3.3385],[114.6035,-3.3395],[114.6035,-3.34],[114.6035,-3.3415],[114.606,-3.3435],[114.607,-3.345],[114.6205,-3.342],[114.617,-3.337],[114.615,-3.3375],[114.614,-3.3375],[114.613,-3.337]]]},"properties":{"code":"63.71.01.1011","name":"Pemurus Baru"}},{"type":"Feature","geometry":{"type":"Polygon","coordinates":[[[114.586,-3.3415],[114.5855,-3.3425],[114.5785,-3.3405],[114.5745,-3.3395],[114.565,-3.347],[114.5645,-3.3475],[114.559,-3.371],[114.57,-3.367],[114.5665,-3.3735],[114.5795,-3.3795],[114.5865,-3.359],[114.5875,-3.358],[114.587,-3.357],[114.5855,-3.355],[114.5845,-3.352],[114.585,-3.3495],[114.586,-3.3415]]]},"properties":{"code":"63.71.01.1012","name":"Basirih Selatan"}},{"type":"Feature","geometry":{"type":"Polygon","coordinates":[[[114.625,-3.3265],[114.622,-3.3245],[114.6185,-3.3255],[114.6165,-3.3195],[114.605,-3.32],[114.6045,-3.3205],[114.6045,-3.3225],[114.604,-3.324],[114.6045,-3.3255],[114.607,-3.327],[114.6145,-3.323],[114.6165,-3.328],[114.623,-3.3355],[114.6235,-3.335],[114.6255,-3.334],[114.626,-3.3325],[114.6245,-3.3275],[114.625,-3.3265]]]},"properties":{"code":"63.71.02.1001","name":"Kuripan"}},{"type":"Feature","geometry":{"type":"Polygon","coordinates":[[[114.623,-3.3355],[114.6165,-3.328],[114.6145,-3.323],[114.607,-3.327],[114.613,-3.331],[114.6175,-3.3375],[114.618,-3.337],[114.6185,-3.336],[114.62,-3.3365],[114.623,-3.3355]]]},"properties":{"code":"63.71.02.1002","name":"Kebun Bunga"}},{"type":"Feature","geometry":{"type":"Polygon","coordinates":[[[114.607,-3.327],[114.6035,-3.3285],[114.6045,-3.334],[114.6115,-3.331],[114.613,-3.3325],[114.6135,-3.3355],[114.613,-3.337],[114.614,-3.3375],[114.615,-3.3375],[114.617,-3.337],[114.613,-3.331],[114.607,-3.327]]]},"properties":{"code":"63.71.02.1003","name":"Karang Mekar"}},{"type":"Feature","geometry":{"type":"Polygon","coordinates":[[[114.6165,-3.3195],[114.6165,-3.3185],[114.616,-3.3185],[114.616,-3.3175],[114.609,-3.314],[114.609,-3.3145],[114.606,-3.3165],[114.6045,-3.32],[114.606,-3.32],[114.6165,-3.3195]]]},"properties":{"code":"63.71.02.1004","name":"Sungai Bilu"}},{"type":"Feature","geometry":{"type":"Polygon","coordinates":[[[114.6305,-3.315],[114.6295,-3.3175],[114.6285,-3.3185],[114.627,-3.319],[114.6255,-3.319],[114.6255,-3.325],[114.625,-3.326],[114.6245,-3.3275],[114.626,-3.3325],[114.626,-3.333],[114.627,-3.334],[114.6275,-3.3345],[114.63,-3.336],[114.631,-3.3375],[114.6365,-3.3455],[114.6375,-3.3455],[114.638,-3.346],[114.64,-3.3455],[114.646,-3.344],[114.658,-3.3475],[114.659,-3.339],[114.653,-3.3335],[114.6305,-3.315]]]},"properties":{"code":"63.71.02.1005","name":"Sungai Lulut"}},{"type":"Feature","geometry":{"type":"Polygon","coordinates":[[[114.62,-3.314],[114.621,-3.308],[114.6215,-3.3035],[114.6075,-3.31],[114.609,-3.3135],[114.6165,-3.3145],[114.62,-3.314]]]},"properties":{"code":"63.71.02.1006","name":"Banua Anyar"}},{"type":"Feature","geometry":{"type":"Polygon","coordinates":[[[114.62,-3.314],[114.6165,-3.3145],[114.609,-3.3135],[114.609,-3.314],[114.616,-3.3175],[114.616,-3.3185],[114.6165,-3.3185],[114.6165,-3.3195],[114.6185,-3.3255],[114.622,-3.3245],[114.625,-3.3265],[114.6255,-3.325],[114.6255,-3.319],[114.624,-3.319],[114.621,-3.316],[114.62,-3.314]]]},"properties":{"code":"63.71.02.1007","name":"Pengambangan"}},{"type":"Feature","geometry":{"type":"Polygon","coordinates":[[[114.6035,-3.3285],[114.6015,-3.3285],[114.5995,-3.328],[114.5995,-3.332],[114.6,-3.334],[114.5995,-3.3355],[114.6015,-3.336],[114.603,-3.34],[114.6035,-3.34],[114.6035,-3.3395],[114.6035,-3.3385],[114.604,-3.3375],[114.606,-3.337],[114.6125,-3.338],[114.6135,-3.3355],[114.613,-3.3325],[114.6115,-3.331],[114.6045,-3.334],[114.6035,-3.3285]]]},"properties":{"code":"63.71.02.1008","name":"Pekapuran Raya"}},{"type":"Feature","geometry":{"type":"Polygon","coordinates":[[[114.638,-3.346],[114.6375,-3.3455],[114.6365,-3.3455],[114.631,-3.3375],[114.63,-3.336],[114.6275,-3.3345],[114.627,-3.334],[114.626,-3.333],[114.6255,-3.334],[114.6235,-3.335],[114.622,-3.3365],[114.62,-3.3365],[114.6185,-3.336],[114.618,-3.337],[114.6175,-3.3375],[114.627,-3.35],[114.627,-3.3505],[114.6355,-3.347],[114.638,-3.346]]]},"properties":{"code":"63.71.02.1009","name":"Pemurus Luar"}},{"type":"Feature","geometry":{"type":"Polygon","coordinates":[[[114.5865,-3.3035],[114.587,-3.3045],[114.5755,-3.3025],[114.5825,-3.308],[114.588,-3.3045],[114.588,-3.304],[114.5865,-3.3035]]]},"properties":{"code":"63.71.03.1001","name":"Belitung Utara"}},{"type":"Feature","geometry":{"type":"Polygon","coordinates":[[[114.5895,-3.312],[114.5825,-3.308],[114.5755,-3.3025],[114.572,-3.3095],[114.572,-3.3105],[114.5765,-3.3135],[114.5775,-3.3145],[114.584,-3.3135],[114.5845,-3.3125],[114.5895,-3.312]]]},"properties":{"code":"63.71.03.1002","name":"Belitung Selatan"}},{"type":"Feature","geometry":{"type":"Polygon","coordinates":[[[114.571,-3.3115],[114.5695,-3.311],[114.5685,-3.3115],[114.568,-3.3175],[114.565,-3.3145],[114.5625,-3.3135],[114.562,-3.315],[114.559,-3.3185],[114.56,-3.3255],[114.573,-3.319],[114.571,-3.3125],[114.571,-3.3115]]]},"properties":{"code":"63.71.03.1003","name":"Pelambuan"}},{"type":"Feature","geometry":{"type":"Polygon","coordinates":[[[114.575,-3.328],[114.5745,-3.3275],[114.574,-3.3225],[114.56,-3.3255],[114.5535,-3.3285],[114.5535,-3.329],[114.557,-3.331],[114.558,-3.3315],[114.561,-3.3325],[114.57,-3.3305],[114.571,-3.3315],[114.572,-3.331],[114.575,-3.328]]]},"properties":{"code":"63.71.03.1004","name":"Telaga Biru"}},{"type":"Feature","geometry":{"type":"Polygon","coordinates":[[[114.5885,-3.3295],[114.5865,-3.3265],[114.587,-3.3255],[114.586,-3.3255],[114.584,-3.329],[114.5825,-3.327],[114.5785,-3.3275],[114.5775,-3.33],[114.5775,-3.3305],[114.578,-3.3305],[114.576,-3.3335],[114.578,-3.334],[114.5775,-3.3335],[114.5785,-3.3335],[114.582,-3.333],[114.5885,-3.3295]]]},"properties":{"code":"63.71.03.1005","name":"Telawang"}},{"type":"Feature","geometry":{"type":"Polygon","coordinates":[[[114.5815,-3.334],[114.5785,-3.3335],[114.5775,-3.3335],[114.578,-3.334],[114.578,-3.335],[114.576,-3.3385],[114.5785,-3.3405],[114.5855,-3.3425],[114.5855,-3.34],[114.5815,-3.334]]]},"properties":{"code":"63.71.03.1006","name":"Teluk Tiram"}},{"type":"Feature","geometry":{"type":"Polygon","coordinates":[[[114.5795,-3.296],[114.579,-3.2955],[114.5765,-3.2955],[114.5755,-3.3025],[114.587,-3.3045],[114.5865,-3.3035],[114.585,-3.303],[114.582,-3.3],[114.5795,-3.296]]]},"properties":{"code":"63.71.03.1007","name":"Kuin Selatan"}},{"type":"Feature","geometry":{"type":"Polygon","coordinates":[[[114.5765,-3.2955],[114.5755,-3.2945],[114.572,-3.2935],[114.5635,-3.293],[114.563,-3.295],[114.564,-3.309],[114.5625,-3.3135],[114.565,-3.3145],[114.568,-3.3175],[114.5685,-3.3115],[114.5695,-3.311],[114.571,-3.3115],[114.571,-3.311],[114.572,-3.3095],[114.5755,-3.3025],[114.5765,-3.2955]]]},"properties":{"code":"63.71.03.1008","name":"Kuin Cerucuk"}},{"type":"Feature","geometry":{"type":"Polygon","coordinates":[[[114.5775,-3.3305],[114.577,-3.3305],[114.5765,-3.3285],[114.577,-3.327],[114.575,-3.328],[114.572,-3.331],[114.571,-3.3315],[114.57,-3.3305],[114.561,-3.3325],[114.558,-3.3315],[114.557,-3.331],[114.5535,-3.329],[114.5485,-3.3355],[114.548,-3.3365],[114.5615,-3.339],[114.563,-3.3475],[114.565,-3.347],[114.5745,-3.3395],[114.576,-3.3385],[114.578,-3.335],[114.576,-3.3335],[114.578,-3.3305],[114.5775,-3.3305]]]},"properties":{"code":"63.71.03.1009","name":"Basirih"}},{"type":"Feature","geometry":{"type":"Polygon","coordinates":[[[114.572,-3.268],[114.57,-3.2675],[114.569,-3.2675],[114.5665,-3.271],[114.567,-3.2795],[114.569,-3.2805],[114.5725,-3.2825],[114.572,-3.269],[114.572,-3.268]]]},"properties":{"code":"63.71.04.1001","name":"Alalak Tengah"}},{"type":"Feature","geometry":{"type":"Polygon","coordinates":[[[114.5955,-3.2805],[114.5835,-3.273],[114.5785,-3.2765],[114.5775,-3.276],[114.575,-3.269],[114.572,-3.268],[114.572,-3.269],[114.5725,-3.2825],[114.5755,-3.283],[114.5765,-3.2835],[114.5765,-3.2825],[114.579,-3.284],[114.58,-3.2835],[114.5845,-3.2865],[114.587,-3.287],[114.5885,-3.2875],[114.5885,-3.287],[114.5905,-3.2865],[114.5965,-3.286],[114.5955,-3.2805]]]},"properties":{"code":"63.71.04.1002","name":"Alalak Utara"}},{"type":"Feature","geometry":{"type":"Polygon","coordinates":[[[114.5725,-3.2825],[114.569,-3.2805],[114.5665,-3.2825],[114.564,-3.283],[114.563,-3.2845],[114.563,-3.286],[114.5635,-3.2915],[114.5725,-3.289],[114.576,-3.2855],[114.5765,-3.2835],[114.5755,-3.283],[114.5725,-3.2825]]]},"properties":{"code":"63.71.04.1003","name":"Alalak Selatan"}},{"type":"Feature","geometry":{"type":"Polygon","coordinates":[[[114.6295,-3.3175],[114.6305,-3.3145],[114.636,-3.2945],[114.6365,-3.293],[114.6245,-3.2935],[114.6105,-3.302],[114.6075,-3.2975],[114.602,-3.315],[114.6015,-3.3155],[114.603,-3.316],[114.606,-3.3165],[114.609,-3.3145],[114.6075,-3.31],[114.6215,-3.3035],[114.621,-3.308],[114.62,-3.314],[114.621,-3.316],[114.624,-3.319],[114.627,-3.319],[114.6285,-3.3185],[114.6295,-3.3175]]]},"properties":{"code":"63.71.04.1004","name":"Sungai Jingah"}},{"type":"Feature","geometry":{"type":"Polygon","coordinates":[[[114.5965,-3.286],[114.5905,-3.2865],[114.5895,-3.287],[114.589,-3.303],[114.5885,-3.3045],[114.5915,-3.304],[114.593,-3.301],[114.592,-3.3005],[114.5935,-3.299],[114.5965,-3.2985],[114.5985,-3.2975],[114.601,-3.292],[114.6015,-3.2895],[114.601,-3.2885],[114.5985,-3.2875],[114.5965,-3.286]]]},"properties":{"code":"63.71.04.1005","name":"Sungai Miai"}},{"type":"Feature","geometry":{"type":"Polygon","coordinates":[[[114.6075,-3.2975],[114.6015,-3.2895],[114.601,-3.292],[114.6005,-3.2935],[114.595,-3.309],[114.5955,-3.309],[114.5995,-3.314],[114.601,-3.315],[114.602,-3.315],[114.6075,-3.2975]]]},"properties":{"code":"63.71.04.1006","name":"Surgi Mufti"}},{"type":"Feature","geometry":{"type":"Polygon","coordinates":[[[114.5895,-3.287],[114.5885,-3.287],[114.5885,-3.2875],[114.587,-3.287],[114.5845,-3.2865],[114.58,-3.296],[114.5795,-3.296],[114.582,-3.3],[114.585,-3.303],[114.5865,-3.3035],[114.588,-3.304],[114.589,-3.303],[114.5895,-3.287]]]},"properties":{"code":"63.71.04.1007","name":"Pangeran"}},{"type":"Feature","geometry":{"type":"Polygon","coordinates":[[[114.595,-3.309],[114.6005,-3.2935],[114.5985,-3.2975],[114.5965,-3.2985],[114.5935,-3.299],[114.592,-3.3005],[114.593,-3.301],[114.5915,-3.304],[114.5945,-3.3095],[114.595,-3.309]]]},"properties":{"code":"63.71.04.1008","name":"Antasan Kecil Timur"}},{"type":"Feature","geometry":{"type":"Polygon","coordinates":[[[114.5845,-3.2865],[114.58,-3.2835],[114.579,-3.284],[114.5765,-3.2825],[114.576,-3.2855],[114.5725,-3.289],[114.5635,-3.2915],[114.5635,-3.293],[114.572,-3.2935],[114.5755,-3.2945],[114.5765,-3.2955],[114.579,-3.2955],[114.58,-3.296],[114.5845,-3.2865]]]},"properties":{"code":"63.71.04.1009","name":"Kuin Utara"}},{"type":"Feature","geometry":{"type":"Polygon","coordinates":[[[114.6365,-3.293],[114.6375,-3.292],[114.6385,-3.2755],[114.637,-3.279],[114.6225,-3.285],[114.6135,-3.2795],[114.6055,-3.281],[114.606,-3.2865],[114.6035,-3.2885],[114.601,-3.2885],[114.6105,-3.302],[114.6245,-3.2935],[114.6365,-3.293]]]},"properties":{"code":"63.71.04.1010","name":"Sungai Andai"}},{"type":"Feature","geometry":{"type":"Polygon","coordinates":[[[114.595,-3.326],[114.595,-3.3255],[114.584,-3.324],[114.585,-3.3255],[114.587,-3.3255],[114.5865,-3.3265],[114.5885,-3.3295],[114.5895,-3.3285],[114.593,-3.3285],[114.595,-3.326]]]},"properties":{"code":"63.71.05.1001","name":"Kertak Baru Ilir"}},{"type":"Feature","geometry":{"type":"Polygon","coordinates":[[[114.593,-3.3205],[114.588,-3.3215],[114.5865,-3.3215],[114.5855,-3.3215],[114.5835,-3.322],[114.584,-3.324],[114.595,-3.3255],[114.596,-3.326],[114.597,-3.3245],[114.5965,-3.324],[114.594,-3.322],[114.593,-3.3205]]]},"properties":{"code":"63.71.05.1002","name":"Kertak Baru Ulu"}},{"type":"Feature","geometry":{"type":"Polygon","coordinates":[[[114.584,-3.324],[114.5835,-3.322],[114.5815,-3.3225],[114.5775,-3.325],[114.5765,-3.3285],[114.577,-3.3305],[114.5775,-3.33],[114.5785,-3.3275],[114.5825,-3.327],[114.584,-3.329],[114.586,-3.3255],[114.585,-3.3255],[114.584,-3.324]]]},"properties":{"code":"63.71.05.1003","name":"Mawar"}},{"type":"Feature","geometry":{"type":"Polygon","coordinates":[[[114.584,-3.3135],[114.5775,-3.3145],[114.5765,-3.3135],[114.572,-3.3105],[114.571,-3.311],[114.571,-3.3125],[114.573,-3.319],[114.574,-3.3225],[114.5745,-3.3275],[114.577,-3.327],[114.5775,-3.325],[114.5815,-3.3225],[114.5855,-3.3215],[114.5865,-3.3215],[114.5875,-3.3195],[114.5845,-3.314],[114.584,-3.3135]]]},"properties":{"code":"63.71.05.1004","name":"Teluk Dalam"}},{"type":"Feature","geometry":{"type":"Polygon","coordinates":[[[114.5895,-3.312],[114.5845,-3.3125],[114.5845,-3.314],[114.5875,-3.3195],[114.588,-3.3215],[114.593,-3.3205],[114.593,-3.3195],[114.5925,-3.3165],[114.593,-3.313],[114.5915,-3.3125],[114.5895,-3.312]]]},"properties":{"code":"63.71.05.1005","name":"Antasan Besar"}},{"type":"Feature","geometry":{"type":"Polygon","coordinates":[[[114.5915,-3.304],[114.5885,-3.3045],[114.588,-3.3045],[114.5915,-3.3125],[114.593,-3.313],[114.5945,-3.3095],[114.5915,-3.304]]]},"properties":{"code":"63.71.05.1006","name":"Pasar Lama"}},{"type":"Feature","geometry":{"type":"Polygon","coordinates":[[[114.5995,-3.314],[114.5955,-3.309],[114.5945,-3.3095],[114.593,-3.313],[114.5925,-3.3165],[114.5975,-3.3165],[114.598,-3.3165],[114.5995,-3.314]]]},"properties":{"code":"63.71.05.1007","name":"Seberang Mesjid"}},{"type":"Feature","geometry":{"type":"Polygon","coordinates":[[[114.5975,-3.317],[114.5975,-3.3165],[114.5925,-3.3165],[114.593,-3.3195],[114.593,-3.3205],[114.5935,-3.3215],[114.595,-3.321],[114.596,-3.321],[114.5965,-3.32],[114.599,-3.3185],[114.599,-3.318],[114.5975,-3.317]]]},"properties":{"code":"63.71.05.1008","name":"Gadang"}},{"type":"Feature","geometry":{"type":"Polygon","coordinates":[[[114.6015,-3.3155],[114.601,-3.315],[114.5995,-3.314],[114.598,-3.3165],[114.5975,-3.317],[114.599,-3.318],[114.599,-3.3185],[114.5965,-3.32],[114.596,-3.321],[114.5965,-3.321],[114.5965,-3.3205],[114.597,-3.3205],[114.5975,-3.321],[114.602,-3.321],[114.6045,-3.3255],[114.604,-3.324],[114.6045,-3.3225],[114.6045,-3.3205],[114.605,-3.32],[114.6045,-3.32],[114.603,-3.316],[114.6015,-3.3155]]]},"properties":{"code":"63.71.05.1009","name":"Melayu"}},{"type":"Feature","geometry":{"type":"Polygon","coordinates":[[[114.6045,-3.3255],[114.602,-3.321],[114.5975,-3.321],[114.597,-3.3205],[114.5965,-3.3205],[114.5965,-3.321],[114.596,-3.321],[114.595,-3.321],[114.5935,-3.3215],[114.594,-3.322],[114.5965,-3.324],[114.603,-3.3275],[114.6035,-3.3285],[114.607,-3.327],[114.6045,-3.3255]]]},"properties":{"code":"63.71.05.1010","name":"Sungai Baru"}},{"type":"Feature","geometry":{"type":"Polygon","coordinates":[[[114.6035,-3.3285],[114.603,-3.3275],[114.5965,-3.324],[114.597,-3.3245],[114.596,-3.326],[114.5955,-3.326],[114.6015,-3.3285],[114.6035,-3.3285]]]},"properties":{"code":"63.71.05.1011","name":"Pekapuran Laut"}},{"type":"Feature","geometry":{"type":"Polygon","coordinates":[[[114.5955,-3.326],[114.595,-3.326],[114.5955,-3.3285],[114.5965,-3.3315],[114.6,-3.333],[114.5995,-3.332],[114.5995,-3.328],[114.5955,-3.326]]]},"properties":{"code":"63.71.05.1012","name":"Kelayan Luar"}}]}