{"type":"FeatureCollection","features":[{"type":"Feature","geometry":{"type":"Polygon","coordinates":[[[123.9025,0.834],[123.903,0.8355],[123.9035,0.8365],[123.9025,0.838],[123.8965,0.843],[123.88,0.8395],[123.8885,0.761],[123.891,0.7575],[123.8935,0.755],[123.894,0.7515],[123.9055,0.748],[123.908,0.766],[123.9185,0.769],[123.917,0.775],[123.916,0.777],[123.9155,0.778],[123.915,0.7785],[123.915,0.778],[123.911,0.7805],[123.9075,0.7905],[123.9065,0.7915],[123.905,0.7915],[123.9035,0.7885],[123.8985,0.7915],[123.8905,0.799],[123.89,0.8005],[123.8915,0.806],[123.895,0.8125],[123.897,0.814],[123.893,0.8175],[123.8955,0.8215],[123.8955,0.8225],[123.9025,0.834]]]},"properties":{"code":"71.01.05.2001","name":"Ayong"}},{"type":"Feature","geometry":{"type":"Polygon","coordinates":[[[123.88,0.8395],[123.8585,0.84],[123.847,0.8435],[123.8485,0.8425],[123.854,0.8395],[123.8605,0.8245],[123.852,0.821],[123.8445,0.819],[123.842,0.818],[123.843,0.815],[123.844,0.814],[123.8475,0.811],[123.866,0.805],[123.8685,0.801],[123.864,0.781],[123.874,0.7785],[123.878,0.77],[123.8845,0.766],[123.8885,0.761],[123.88,0.8395]]]},"properties":{"code":"71.01.05.2002","name":"Babo"}},{"type":"Feature","geometry":{"type":"Polygon","coordinates":[[[123.852,0.821],[123.8445,0.842],[123.842,0.841],[123.842,0.84],[123.841,0.84],[123.8415,0.8385],[123.844,0.834],[123.837,0.816],[123.839,0.8035],[123.8535,0.791],[123.85,0.7675],[123.863,0.752],[123.8865,0.746],[123.889,0.746],[123.8995,0.737],[123.9005,0.739],[123.903,0.744],[123.9055,0.747],[123.9055,0.748],[123.894,0.7515],[123.8935,0.755],[123.891,0.7575],[123.8885,0.761],[123.8845,0.766],[123.878,0.77],[123.874,0.7785],[123.864,0.781],[123.8685,0.801],[123.866,0.805],[123.8475,0.811],[123.844,0.814],[123.843,0.815],[123.842,0.818],[123.8445,0.819],[123.852,0.821]]]},"properties":{"code":"71.01.05.2003","name":"Bolangat"}},{"type":"Feature","geometry":{"type":"MultiPolygon","coordinates":[[[[123.841,0.84],[123.842,0.84],[123.842,0.841],[123.841,0.84]]],[[[123.839,0.839],[123.825,0.8425],[123.821,0.833],[123.821,0.831],[123.824,0.8185],[123.8245,0.817],[123.8225,0.814],[123.822,0.813],[123.823,0.81],[123.823,0.8085],[123.819,0.8065],[123.812,0.797],[123.8095,0.795],[123.8005,0.782],[123.802,0.7785],[123.803,0.7735],[123.8035,0.772],[123.803,0.765],[123.8045,0.76],[123.8105,0.75],[123.8115,0.7485],[123.8115,0.7445],[123.8115,0.744],[123.8115,0.7435],[123.8095,0.7425],[123.811,0.7395],[123.807,0.7385],[123.7995,0.732],[123.796,0.7285],[123.7935,0.7265],[123.798,0.7105],[123.7915,0.703],[123.7765,0.6985],[123.7765,0.6975],[123.789,0.689],[123.792,0.688],[123.796,0.6835],[123.7985,0.6805],[123.802,0.6805],[123.8065,0.68],[123.812,0.678],[123.8135,0.676],[123.8135,0.675],[123.814,0.6755],[123.8165,0.678],[123.823,0.6945],[123.827,0.6985],[123.8205,0.7145],[123.818,0.731],[123.8265,0.743],[123.829,0.76],[123.8425,0.762],[123.8445,0.7725],[123.8305,0.7855],[123.8235,0.797],[123.8295,0.814],[123.8285,0.8255],[123.8375,0.8335],[123.8375,0.835],[123.837,0.837],[123.8375,0.838],[123.839,0.839]]]]},"properties":{"code":"71.01.05.2004","name":"Maelang"}},{"type":"Feature","geometry":{"type":"Polygon","coordinates":[[[123.7855,0.831],[123.7755,0.8405],[123.7515,0.83],[123.735,0.815],[123.722,0.8165],[123.7205,0.817],[123.7215,0.831],[123.716,0.839],[123.714,0.837],[123.689,0.794],[123.694,0.778],[123.702,0.7695],[123.703,0.7625],[123.7105,0.759],[123.703,0.7365],[123.702,0.7345],[123.7,0.7335],[123.7005,0.7325],[123.708,0.7315],[123.7205,0.721],[123.7205,0.7175],[123.7295,0.696],[123.7395,0.6875],[123.7415,0.685],[123.7505,0.685],[123.752,0.6845],[123.76,0.6835],[123.7755,0.672],[123.7785,0.6705],[123.7805,0.6715],[123.784,0.6745],[123.832,0.6605],[123.8475,0.658],[123.8355,0.674],[123.8335,0.676],[123.821,0.675],[123.816,0.674],[123.815,0.675],[123.8135,0.675],[123.8135,0.676],[123.812,0.678],[123.8065,0.68],[123.802,0.6805],[123.7985,0.6805],[123.796,0.6835],[123.792,0.688],[123.789,0.689],[123.7765,0.6975],[123.7765,0.6985],[123.7915,0.703],[123.798,0.7105],[123.7935,0.7265],[123.794,0.7395],[123.7885,0.755],[123.7935,0.765],[123.7865,0.7925],[123.793,0.801],[123.787,0.8155],[123.785,0.817],[123.784,0.818],[123.7815,0.8195],[123.781,0.82],[123.781,0.8215],[123.7855,0.831]]]},"properties":{"code":"71.01.05.2005","name":"Domisil Moonow"}},{"type":"Feature","geometry":{"type":"Polygon","coordinates":[[[123.744,0.842],[123.737,0.852],[123.736,0.8655],[123.727,0.864],[123.7285,0.8595],[123.716,0.839],[123.7215,0.831],[123.7205,0.817],[123.721,0.817],[123.731,0.8255],[123.744,0.842]]]},"properties":{"code":"71.01.05.2006","name":"Pangi"}},{"type":"Feature","geometry":{"type":"Polygon","coordinates":[[[123.8415,0.8385],[123.839,0.839],[123.8375,0.838],[123.837,0.837],[123.8375,0.835],[123.8375,0.8335],[123.8285,0.8255],[123.8295,0.814],[123.8235,0.797],[123.8305,0.7855],[123.8445,0.7725],[123.8425,0.762],[123.829,0.76],[123.8265,0.743],[123.818,0.731],[123.8205,0.7145],[123.827,0.6985],[123.823,0.6945],[123.8165,0.678],[123.814,0.6755],[123.8135,0.675],[123.815,0.675],[123.816,0.674],[123.821,0.675],[123.8335,0.676],[123.8355,0.674],[123.8475,0.658],[123.8525,0.657],[123.855,0.658],[123.856,0.66],[123.86,0.663],[123.862,0.6635],[123.8625,0.666],[123.86,0.6805],[123.8625,0.684],[123.865,0.686],[123.866,0.687],[123.88,0.687],[123.88,0.711],[123.895,0.7265],[123.8985,0.7345],[123.9,0.7355],[123.8995,0.737],[123.889,0.746],[123.8865,0.746],[123.863,0.752],[123.85,0.7675],[123.8535,0.791],[123.839,0.8035],[123.837,0.816],[123.844,0.834],[123.8415,0.8385]]]},"properties":{"code":"71.01.05.2012","name":"Lolanan"}},{"type":"Feature","geometry":{"type":"Polygon","coordinates":[[[123.9025,0.834],[123.8955,0.8225],[123.8965,0.8235],[123.8975,0.824],[123.898,0.825],[123.8985,0.8265],[123.9025,0.8325],[123.9025,0.834]]]},"properties":{"code":"71.01.05.2015","name":"Cempaka"}},{"type":"Feature","geometry":{"type":"Polygon","coordinates":[[[123.8025,0.835],[123.7855,0.831],[123.781,0.8215],[123.781,0.82],[123.7815,0.8195],[123.784,0.818],[123.785,0.817],[123.787,0.8155],[123.793,0.801],[123.7865,0.7925],[123.7935,0.765],[123.7885,0.755],[123.794,0.7395],[123.7935,0.7265],[123.796,0.7285],[123.7995,0.732],[123.807,0.7385],[123.811,0.7395],[123.8095,0.7425],[123.8115,0.7435],[123.8115,0.744],[123.8115,0.7445],[123.8115,0.7485],[123.8105,0.75],[123.8045,0.76],[123.803,0.765],[123.8035,0.772],[123.803,0.7735],[123.802,0.7785],[123.8005,0.782],[123.8095,0.795],[123.812,0.797],[123.819,0.8065],[123.823,0.8085],[123.823,0.81],[123.822,0.813],[123.8225,0.814],[123.8235,0.8165],[123.8205,0.8145],[123.8055,0.8215],[123.8035,0.8265],[123.802,0.8315],[123.8025,0.835]]]},"properties":{"code":"71.01.05.2017","name":"Batu Merah"}},{"type":"Feature","geometry":{"type":"Polygon","coordinates":[[[123.825,0.8425],[123.812,0.845],[123.8025,0.835],[123.802,0.8315],[123.8035,0.8265],[123.8055,0.8215],[123.8205,0.8145],[123.8235,0.8165],[123.824,0.8185],[123.821,0.831],[123.821,0.833],[123.825,0.8425]]]},"properties":{"code":"71.01.05.2018","name":"Pasir Putih"}},{"type":"Feature","geometry":{"type":"Polygon","coordinates":[[[123.7515,0.83],[123.744,0.842],[123.731,0.8255],[123.721,0.817],[123.722,0.8165],[123.735,0.815],[123.7515,0.83]]]},"properties":{"code":"71.01.05.2019","name":"Pangi Timur"}},{"type":"Feature","geometry":{"type":"Polygon","coordinates":[[[123.852,0.821],[123.8605,0.8245],[123.854,0.8395],[123.8485,0.8425],[123.847,0.8435],[123.8445,0.842],[123.852,0.821]]]},"properties":{"code":"71.01.05.2020","name":"Bolangat Timur"}},{"type":"Feature","geometry":{"type":"Polygon","coordinates":[[[123.9545,0.4835],[123.933,0.481],[123.9255,0.456],[123.9235,0.453],[123.9165,0.44],[123.9125,0.4335],[123.9155,0.433],[123.93,0.4315],[123.937,0.4375],[123.939,0.4415],[123.949,0.444],[123.95,0.448],[123.9525,0.457],[123.961,0.459],[123.9755,0.464],[123.9775,0.464],[123.976,0.4765],[123.9755,0.479],[123.9545,0.4835]]]},"properties":{"code":"71.01.09.2001","name":"Matayangan"}},{"type":"Feature","geometry":{"type":"Polygon","coordinates":[[[123.9735,0.5075],[123.9655,0.504],[123.9545,0.4835],[123.9755,0.479],[123.976,0.4765],[123.9775,0.464],[123.981,0.4635],[123.99,0.4635],[124.0195,0.4745],[124.021,0.476],[124.024,0.477],[124.024,0.4835],[124.026,0.486],[124.021,0.4935],[124.009,0.4925],[123.9905,0.5045],[123.9885,0.5065],[123.985,0.506],[123.983,0.505],[123.9795,0.505],[123.9775,0.5065],[123.976,0.5065],[123.9755,0.5065],[123.9735,0.5075]]]},"properties":{"code":"71.01.09.2002","name":"Uuan"}},{"type":"Feature","geometry":{"type":"Polygon","coordinates":[[[123.9735,0.5075],[123.9715,0.5085],[123.97,0.509],[123.969,0.5095],[123.9685,0.5115],[123.97,0.5275],[123.969,0.528],[123.9675,0.527],[123.967,0.526],[123.9685,0.5245],[123.966,0.522],[123.962,0.521],[123.9595,0.52],[123.958,0.5195],[123.949,0.516],[123.9485,0.517],[123.948,0.517],[123.941,0.5175],[123.932,0.513],[123.932,0.5125],[123.9315,0.512],[123.93,0.5135],[123.929,0.5125],[123.9105,0.503],[123.9105,0.4985],[123.908,0.497],[123.888,0.475],[123.8825,0.4645],[123.884,0.4555],[123.8815,0.451],[123.894,0.451],[123.9045,0.4375],[123.911,0.434],[123.9125,0.4335],[123.9165,0.44],[123.9235,0.453],[123.9255,0.456],[123.933,0.481],[123.9545,0.4835],[123.9655,0.504],[123.9735,0.5075]]]},"properties":{"code":"71.01.09.2003","name":"Ikhwan"}},{"type":"Feature","geometry":{"type":"Polygon","coordinates":[[[123.9795,0.541],[123.981,0.543],[123.976,0.5475],[123.975,0.5465],[123.971,0.5465],[123.969,0.544],[123.966,0.5425],[123.964,0.5445],[123.963,0.5425],[123.962,0.541],[123.9545,0.546],[123.953,0.547],[123.9445,0.5445],[123.943,0.5445],[123.941,0.546],[123.939,0.544],[123.938,0.5435],[123.9375,0.5435],[123.937,0.543],[123.943,0.5415],[123.945,0.5405],[123.945,0.54],[123.944,0.5385],[123.9445,0.535],[123.945,0.533],[123.945,0.532],[123.945,0.531],[123.9425,0.53],[123.9545,0.5265],[123.9575,0.5235],[123.959,0.5195],[123.962,0.521],[123.966,0.522],[123.9685,0.5245],[123.967,0.526],[123.9675,0.527],[123.969,0.528],[123.9795,0.541]]]},"properties":{"code":"71.01.09.2004","name":"Doloduo"}},{"type":"Feature","geometry":{"type":"Polygon","coordinates":[[[123.9825,0.538],[123.9815,0.5405],[123.9795,0.541],[123.969,0.528],[123.97,0.5275],[123.9685,0.5115],[123.969,0.5095],[123.97,0.509],[123.9715,0.5085],[123.9735,0.5075],[123.9745,0.508],[123.9845,0.521],[123.9825,0.538]]]},"properties":{"code":"71.01.09.2005","name":"Wangga Baru"}},{"type":"Feature","geometry":{"type":"Polygon","coordinates":[[[123.9175,0.533],[123.8675,0.5285],[123.8515,0.515],[123.836,0.5265],[123.825,0.5235],[123.802,0.531],[123.7905,0.5405],[123.786,0.5555],[123.7635,0.5655],[123.754,0.583],[123.7475,0.5865],[123.724,0.583],[123.6815,0.587],[123.6735,0.5945],[123.6715,0.6045],[123.673,0.609],[123.676,0.613],[123.6755,0.6135],[123.664,0.617],[123.6595,0.616],[123.6405,0.6055],[123.635,0.597],[123.6345,0.5945],[123.643,0.5735],[123.649,0.5725],[123.6515,0.5705],[123.656,0.5685],[123.668,0.5665],[123.6735,0.566],[123.676,0.5655],[123.682,0.563],[123.7025,0.5665],[123.7135,0.563],[123.713,0.548],[123.72,0.5265],[123.7105,0.5045],[123.69,0.4865],[123.6905,0.474],[123.6985,0.456],[123.702,0.4555],[123.7135,0.467],[123.72,0.4655],[123.734,0.4645],[123.737,0.4655],[123.738,0.4655],[123.7405,0.462],[123.746,0.461],[123.747,0.4595],[123.7495,0.458],[123.7625,0.4575],[123.7645,0.4565],[123.7765,0.4545],[123.7785,0.4505],[123.7865,0.445],[123.7905,0.4425],[123.797,0.4415],[123.8,0.4415],[123.817,0.4455],[123.8265,0.4435],[123.8325,0.4495],[123.8355,0.453],[123.839,0.455],[123.845,0.4545],[123.8525,0.457],[123.856,0.4585],[123.8575,0.459],[123.875,0.453],[123.8815,0.451],[123.884,0.4555],[123.8825,0.4645],[123.888,0.475],[123.908,0.497],[123.9105,0.4985],[123.9105,0.503],[123.929,0.5125],[123.9295,0.5145],[123.9215,0.5285],[123.9225,0.532],[123.9175,0.533]]]},"properties":{"code":"71.01.09.2010","name":"Toraut"}},{"type":"Feature","geometry":{"type":"Polygon","coordinates":[[[123.938,0.5435],[123.935,0.5465],[123.935,0.547],[123.9265,0.543],[123.924,0.534],[123.923,0.533],[123.9215,0.5285],[123.933,0.5265],[123.935,0.5265],[123.9385,0.528],[123.9415,0.528],[123.942,0.5295],[123.9425,0.53],[123.945,0.531],[123.945,0.532],[123.945,0.533],[123.9445,0.535],[123.944,0.5385],[123.945,0.54],[123.944,0.541],[123.943,0.5415],[123.937,0.543],[123.9375,0.5435],[123.938,0.5435]]]},"properties":{"code":"71.01.09.2011","name":"Mekaruo"}},{"type":"Feature","geometry":{"type":"MultiPolygon","coordinates":[[[[123.9305,0.566],[123.9325,0.5665],[123.9285,0.568],[123.9305,0.566]]],[[[123.8135,0.589],[123.81,0.5905],[123.8065,0.5965],[123.7905,0.6035],[123.774,0.6045],[123.768,0.604],[123.785,0.588],[123.802,0.5865],[123.808,0.5815],[123.805,0.5675],[123.825,0.5525],[123.8375,0.56],[123.8395,0.56],[123.8395,0.5595],[123.8385,0.556],[123.8385,0.554],[123.8465,0.5555],[123.855,0.555],[123.8865,0.545],[123.9185,0.546],[123.926,0.541],[123.9265,0.543],[123.935,0.547],[123.933,0.55],[123.9195,0.5645],[123.909,0.568],[123.8995,0.5585],[123.875,0.579],[123.847,0.5825],[123.8355,0.58],[123.8355,0.579],[123.824,0.579],[123.821,0.58],[123.82,0.582],[123.819,0.5865],[123.8145,0.589],[123.8135,0.589]]]]},"properties":{"code":"71.01.09.2017","name":"Toraut Utara"}},{"type":"Feature","geometry":{"type":"Polygon","coordinates":[[[123.959,0.5195],[123.9575,0.5235],[123.9545,0.5265],[123.949,0.516],[123.958,0.5195],[123.959,0.5195]]]},"properties":{"code":"71.01.09.2018","name":"Doloduo Satu"}},{"type":"Feature","geometry":{"type":"Polygon","coordinates":[[[123.9545,0.5265],[123.9425,0.53],[123.942,0.5295],[123.9415,0.528],[123.9405,0.528],[123.94,0.525],[123.941,0.5235],[123.944,0.5225],[123.941,0.5175],[123.948,0.517],[123.9485,0.517],[123.949,0.516],[123.9545,0.5265]]]},"properties":{"code":"71.01.09.2019","name":"Doloduo Dua"}},{"type":"Feature","geometry":{"type":"Polygon","coordinates":[[[123.9405,0.528],[123.9385,0.528],[123.935,0.5265],[123.933,0.5265],[123.9215,0.5285],[123.9295,0.5145],[123.93,0.5135],[123.9315,0.512],[123.932,0.5125],[123.932,0.513],[123.941,0.5175],[123.944,0.5225],[123.941,0.5235],[123.94,0.525],[123.9405,0.528]]]},"properties":{"code":"71.01.09.2020","name":"Doloduo Tiga"}},{"type":"Feature","geometry":{"type":"Polygon","coordinates":[[[123.6945,0.612],[123.6935,0.6115],[123.6765,0.612],[123.676,0.613],[123.673,0.609],[123.6715,0.6045],[123.6735,0.5945],[123.6815,0.587],[123.724,0.583],[123.7475,0.5865],[123.754,0.583],[123.7635,0.5655],[123.786,0.5555],[123.7905,0.5405],[123.802,0.531],[123.825,0.5235],[123.836,0.5265],[123.8515,0.515],[123.8675,0.5285],[123.9175,0.533],[123.9225,0.532],[123.923,0.533],[123.924,0.534],[123.926,0.541],[123.9185,0.546],[123.8865,0.545],[123.855,0.555],[123.8465,0.5555],[123.8385,0.554],[123.8385,0.556],[123.8395,0.5595],[123.8395,0.56],[123.8375,0.56],[123.825,0.5525],[123.805,0.5675],[123.808,0.5815],[123.802,0.5865],[123.785,0.588],[123.768,0.604],[123.763,0.6035],[123.7415,0.6005],[123.709,0.601],[123.6985,0.6045],[123.6945,0.612]]]},"properties":{"code":"71.01.09.2022","name":"Toraut Tengah"}},{"type":"Feature","geometry":{"type":"Polygon","coordinates":[[[124.0795,0.5775],[124.0785,0.5795],[124.0745,0.584],[124.0715,0.5845],[124.069,0.5875],[124.0675,0.5875],[124.064,0.586],[124.0605,0.584],[124.063,0.5635],[124.0605,0.5535],[124.066,0.562],[124.073,0.566],[124.076,0.574],[124.0775,0.576],[124.0785,0.577],[124.0795,0.5775]]]},"properties":{"code":"71.01.10.1003","name":"Imandi"}},{"type":"Feature","geometry":{"type":"Polygon","coordinates":[[[124.04,0.574],[124.038,0.575],[124.0315,0.5695],[124.031,0.571],[124.0305,0.5715],[124.0295,0.5695],[124.0295,0.5685],[124.0285,0.5675],[124.0325,0.562],[124.0325,0.5605],[124.0335,0.5595],[124.034,0.559],[124.034,0.558],[124.0355,0.5565],[124.036,0.556],[124.0385,0.555],[124.047,0.5545],[124.0405,0.569],[124.041,0.571],[124.041,0.5725],[124.04,0.574]]]},"properties":{"code":"71.01.10.2001","name":"Tonom"}},{"type":"Feature","geometry":{"type":"Polygon","coordinates":[[[124.055,0.5815],[124.0455,0.5795],[124.0455,0.578],[124.0525,0.567],[124.0565,0.5445],[124.061,0.5415],[124.067,0.517],[124.0755,0.514],[124.0785,0.5165],[124.0855,0.517],[124.0865,0.5175],[124.0865,0.518],[124.087,0.519],[124.087,0.5225],[124.087,0.527],[124.0745,0.552],[124.066,0.562],[124.0605,0.5535],[124.0625,0.5615],[124.0595,0.561],[124.056,0.576],[124.057,0.578],[124.0565,0.579],[124.056,0.579],[124.056,0.581],[124.055,0.5815]]]},"properties":{"code":"71.01.10.2002","name":"Mogoyunggung"}},{"type":"Feature","geometry":{"type":"Polygon","coordinates":[[[124.0885,0.584],[124.087,0.6005],[124.078,0.596],[124.0745,0.594],[124.0725,0.593],[124.074,0.592],[124.074,0.5915],[124.07,0.5875],[124.069,0.5875],[124.0715,0.5845],[124.0745,0.584],[124.0785,0.5795],[124.08,0.5775],[124.084,0.5785],[124.0865,0.579],[124.0885,0.584]]]},"properties":{"code":"71.01.10.2004","name":"Modomang"}},{"type":"Feature","geometry":{"type":"Polygon","coordinates":[[[124.114,0.609],[124.1035,0.614],[124.0935,0.615],[124.0875,0.615],[124.087,0.6105],[124.092,0.6105],[124.0965,0.6095],[124.099,0.609],[124.0995,0.6065],[124.1015,0.6015],[124.102,0.5935],[124.111,0.5815],[124.1115,0.571],[124.1245,0.553],[124.132,0.553],[124.133,0.554],[124.137,0.5525],[124.1385,0.5585],[124.1505,0.557],[124.159,0.5625],[124.1605,0.5665],[124.1635,0.569],[124.1665,0.57],[124.1655,0.571],[124.1645,0.5735],[124.165,0.5755],[124.166,0.5765],[124.165,0.578],[124.1515,0.5835],[124.148,0.5915],[124.1445,0.5945],[124.1365,0.598],[124.1345,0.598],[124.132,0.5985],[124.1295,0.598],[124.1165,0.6095],[124.1155,0.609],[124.114,0.609]]]},"properties":{"code":"71.01.10.2005","name":"Kembang Mertha"}},{"type":"Feature","geometry":{"type":"Polygon","coordinates":[[[124.0505,0.6495],[124.0465,0.6585],[124.0405,0.656],[124.0415,0.65],[124.039,0.647],[124.0355,0.644],[124.033,0.6405],[124.0325,0.6365],[124.038,0.6285],[124.0395,0.612],[124.04,0.6115],[124.044,0.617],[124.0505,0.619],[124.061,0.608],[124.048,0.6],[124.048,0.599],[124.0485,0.598],[124.0495,0.597],[124.0505,0.5965],[124.0545,0.595],[124.0585,0.593],[124.064,0.5885],[124.0645,0.588],[124.0655,0.5865],[124.0675,0.5875],[124.0685,0.5875],[124.07,0.5875],[124.074,0.5915],[124.074,0.592],[124.0725,0.593],[124.0745,0.594],[124.078,0.596],[124.087,0.6005],[124.0865,0.602],[124.087,0.6065],[124.067,0.6085],[124.0505,0.6495]]]},"properties":{"code":"71.01.10.2006","name":"Dumoga"}},{"type":"Feature","geometry":{"type":"Polygon","coordinates":[[[124.102,0.5935],[124.0885,0.584],[124.0865,0.579],[124.0855,0.5785],[124.0895,0.552],[124.097,0.547],[124.1105,0.5265],[124.116,0.539],[124.126,0.541],[124.131,0.5455],[124.132,0.548],[124.1325,0.5535],[124.132,0.553],[124.1245,0.553],[124.1115,0.571],[124.111,0.5815],[124.102,0.5935]]]},"properties":{"code":"71.01.10.2013","name":"Pinonobatuan"}},{"type":"Feature","geometry":{"type":"Polygon","coordinates":[[[124.048,0.6],[124.061,0.608],[124.0505,0.619],[124.044,0.617],[124.04,0.6115],[124.041,0.6105],[124.044,0.6065],[124.0445,0.6055],[124.0455,0.603],[124.046,0.6025],[124.046,0.601],[124.048,0.6]]]},"properties":{"code":"71.01.10.2017","name":"Dumoga II"}},{"type":"Feature","geometry":{"type":"Polygon","coordinates":[[[124.1105,0.5265],[124.097,0.547],[124.0895,0.552],[124.0855,0.5785],[124.084,0.5785],[124.08,0.5775],[124.0795,0.5775],[124.0785,0.577],[124.0775,0.576],[124.076,0.574],[124.073,0.566],[124.066,0.562],[124.0745,0.552],[124.087,0.527],[124.087,0.5225],[124.087,0.519],[124.0865,0.518],[124.0865,0.5175],[124.089,0.518],[124.107,0.5255],[124.1105,0.5265]]]},"properties":{"code":"71.01.10.2018","name":"Pinonobatuan Barat"}},{"type":"Feature","geometry":{"type":"Polygon","coordinates":[[[124.1015,0.6015],[124.0915,0.606],[124.087,0.6065],[124.0865,0.602],[124.087,0.6005],[124.0885,0.584],[124.102,0.5935],[124.1015,0.6015]]]},"properties":{"code":"71.01.10.2019","name":"Amertha Sari"}},{"type":"Feature","geometry":{"type":"Polygon","coordinates":[[[124.114,0.609],[124.1125,0.61],[124.1085,0.613],[124.092,0.62],[124.089,0.62],[124.088,0.619],[124.0875,0.615],[124.0935,0.615],[124.1035,0.614],[124.114,0.609]]]},"properties":{"code":"71.01.10.2020","name":"Kembang Sari"}},{"type":"Feature","geometry":{"type":"Polygon","coordinates":[[[124.1015,0.6015],[124.0995,0.6065],[124.099,0.609],[124.0965,0.6095],[124.092,0.6105],[124.087,0.6105],[124.087,0.6065],[124.0915,0.606],[124.1015,0.6015]]]},"properties":{"code":"71.01.10.2021","name":"Amertha Buana"}},{"type":"Feature","geometry":{"type":"Polygon","coordinates":[[[124.0625,0.5615],[124.063,0.5635],[124.0605,0.584],[124.057,0.579],[124.0565,0.579],[124.057,0.578],[124.056,0.576],[124.0595,0.561],[124.0625,0.5615]]]},"properties":{"code":"71.01.10.2023","name":"Mogoyunggung Satu"}},{"type":"Feature","geometry":{"type":"Polygon","coordinates":[[[124.067,0.517],[124.061,0.5415],[124.0565,0.5445],[124.0525,0.567],[124.0455,0.578],[124.0455,0.577],[124.042,0.576],[124.04,0.574],[124.041,0.5725],[124.041,0.571],[124.0405,0.569],[124.047,0.5545],[124.051,0.537],[124.0505,0.526],[124.051,0.513],[124.0525,0.5135],[124.067,0.517]]]},"properties":{"code":"71.01.10.2024","name":"Mogoyunggung Dua"}},{"type":"Feature","geometry":{"type":"Polygon","coordinates":[[[124.0845,0.633],[124.073,0.6435],[124.07,0.645],[124.0675,0.6445],[124.071,0.622],[124.0875,0.612],[124.088,0.619],[124.089,0.62],[124.082,0.6205],[124.0775,0.6215],[124.0775,0.623],[124.0785,0.624],[124.0805,0.626],[124.0795,0.6285],[124.078,0.6295],[124.08,0.6315],[124.0845,0.633]]]},"properties":{"code":"71.01.10.2025","name":"Dumoga Tiga"}},{"type":"Feature","geometry":{"type":"Polygon","coordinates":[[[124.0675,0.6445],[124.0505,0.6495],[124.067,0.6085],[124.087,0.6065],[124.0875,0.612],[124.071,0.622],[124.0675,0.6445]]]},"properties":{"code":"71.01.10.2026","name":"Dumoga Empat"}},{"type":"Feature","geometry":{"type":"Polygon","coordinates":[[[123.9445,0.548],[123.9425,0.547],[123.9345,0.5595],[123.921,0.5665],[123.727,0.645],[123.726,0.643],[123.7265,0.639],[123.7255,0.6375],[123.7185,0.637],[123.7075,0.6195],[123.699,0.613],[123.6945,0.612],[123.6985,0.6045],[123.709,0.601],[123.7415,0.6005],[123.763,0.6035],[123.774,0.6045],[123.7905,0.6035],[123.8065,0.5965],[123.81,0.5905],[123.8135,0.589],[123.8145,0.589],[123.819,0.5865],[123.82,0.582],[123.821,0.58],[123.824,0.579],[123.8355,0.579],[123.8355,0.58],[123.847,0.5825],[123.875,0.579],[123.8995,0.5585],[123.909,0.568],[123.9195,0.5645],[123.933,0.55],[123.935,0.5465],[123.938,0.5435],[123.939,0.544],[123.941,0.546],[123.9425,0.545],[123.945,0.5465],[123.9445,0.548]]]},"properties":{"code":"71.01.11.2001","name":"Tumokang Baru"}},{"type":"Feature","geometry":{"type":"Polygon","coordinates":[[[123.8475,0.658],[123.832,0.6605],[123.784,0.6745],[123.7805,0.6715],[123.7785,0.6705],[123.7755,0.672],[123.76,0.6835],[123.752,0.6845],[123.7505,0.685],[123.7415,0.685],[123.7415,0.6845],[123.738,0.6715],[123.7375,0.6715],[123.75,0.657],[123.766,0.6515],[123.79,0.635],[123.794,0.633],[123.8065,0.6445],[123.823,0.643],[123.8335,0.631],[123.8445,0.6295],[123.857,0.6165],[123.8645,0.615],[123.8775,0.603],[123.8855,0.584],[123.9155,0.5795],[123.9175,0.579],[123.9285,0.568],[123.9325,0.5665],[123.9335,0.567],[123.9375,0.5645],[123.944,0.552],[123.9575,0.5585],[123.9555,0.562],[123.9525,0.5675],[123.944,0.5635],[123.932,0.5905],[123.9245,0.588],[123.9205,0.591],[123.9145,0.601],[123.9115,0.6005],[123.91,0.6025],[123.9085,0.6035],[123.8975,0.609],[123.8955,0.6115],[123.8925,0.6155],[123.89,0.6195],[123.8765,0.64],[123.8735,0.644],[123.872,0.651],[123.874,0.654],[123.8735,0.6545],[123.8725,0.654],[123.8705,0.6575],[123.8685,0.6615],[123.8685,0.6625],[123.8655,0.663],[123.862,0.6625],[123.862,0.6635],[123.86,0.663],[123.856,0.66],[123.855,0.658],[123.8525,0.657],[123.8475,0.658]]]},"properties":{"code":"71.01.11.2002","name":"Mopugad Utara"}},{"type":"Feature","geometry":{"type":"MultiPolygon","coordinates":[[[[123.945,0.54],[123.945,0.5405],[123.944,0.541],[123.945,0.54]]],[[[123.9655,0.544],[123.9575,0.5585],[123.944,0.552],[123.9455,0.5485],[123.9445,0.548],[123.945,0.5465],[123.9425,0.545],[123.9435,0.5445],[123.9445,0.5445],[123.953,0.547],[123.9545,0.546],[123.962,0.541],[123.963,0.5425],[123.964,0.5445],[123.9655,0.544]]]]},"properties":{"code":"71.01.11.2003","name":"Mopugad Selatan"}},{"type":"Feature","geometry":{"type":"Polygon","coordinates":[[[123.9935,0.5745],[123.982,0.607],[123.973,0.615],[123.967,0.628],[123.9475,0.649],[123.946,0.6495],[123.9785,0.581],[123.9825,0.577],[123.9865,0.57],[123.9935,0.5745]]]},"properties":{"code":"71.01.11.2004","name":"Mopuya Utara"}},{"type":"Feature","geometry":{"type":"Polygon","coordinates":[[[124.0015,0.562],[123.9935,0.5745],[123.9855,0.57],[123.9925,0.5565],[124.0005,0.561],[124.0015,0.562]]]},"properties":{"code":"71.01.11.2005","name":"Mopuya Selatan"}},{"type":"Feature","geometry":{"type":"Polygon","coordinates":[[[123.989,0.548],[123.9815,0.5505],[123.976,0.5475],[123.981,0.543],[123.9795,0.541],[123.9815,0.5405],[123.9825,0.538],[123.984,0.539],[123.987,0.5385],[123.9885,0.5385],[123.988,0.5405],[123.992,0.543],[123.989,0.548]]]},"properties":{"code":"71.01.11.2007","name":"Dondomon"}},{"type":"Feature","geometry":{"type":"Polygon","coordinates":[[[123.955,0.563],[123.958,0.5645],[123.9085,0.676],[123.908,0.676],[123.8985,0.665],[123.879,0.6585],[123.8775,0.6545],[123.875,0.6545],[123.874,0.654],[123.872,0.651],[123.8735,0.644],[123.8765,0.64],[123.89,0.6195],[123.8925,0.6155],[123.8955,0.6115],[123.8975,0.609],[123.9085,0.6035],[123.91,0.6025],[123.9115,0.6005],[123.9145,0.601],[123.9205,0.591],[123.9245,0.588],[123.932,0.5905],[123.944,0.5635],[123.9525,0.5675],[123.955,0.563]]]},"properties":{"code":"71.01.11.2014","name":"Mopugad Utara Satu"}},{"type":"Feature","geometry":{"type":"Polygon","coordinates":[[[123.9625,0.5615],[123.96,0.567],[123.9115,0.677],[123.911,0.677],[123.9085,0.676],[123.958,0.5645],[123.955,0.563],[123.9575,0.5585],[123.9625,0.5615]]]},"properties":{"code":"71.01.11.2015","name":"Mopugad Utara Dua"}},{"type":"Feature","geometry":{"type":"Polygon","coordinates":[[[123.9645,0.558],[123.9625,0.5615],[123.9575,0.5585],[123.9655,0.544],[123.969,0.544],[123.9645,0.558]]]},"properties":{"code":"71.01.11.2016","name":"Mopugad Selatan Satu"}},{"type":"Feature","geometry":{"type":"Polygon","coordinates":[[[123.9405,0.6575],[123.9375,0.657],[123.9205,0.671],[123.919,0.673],[123.9175,0.674],[123.9635,0.5695],[123.9795,0.574],[123.983,0.5685],[123.9865,0.57],[123.9825,0.577],[123.9785,0.581],[123.946,0.6495],[123.945,0.6495],[123.9395,0.6545],[123.9405,0.6575]]]},"properties":{"code":"71.01.11.2017","name":"Mopuya Utara Satu"}},{"type":"Feature","geometry":{"type":"Polygon","coordinates":[[[123.9175,0.674],[123.9155,0.675],[123.9115,0.677],[123.96,0.567],[123.9645,0.558],[123.983,0.5685],[123.9795,0.574],[123.9635,0.5695],[123.9175,0.674]]]},"properties":{"code":"71.01.11.2018","name":"Mopuya Utara Dua"}},{"type":"Feature","geometry":{"type":"Polygon","coordinates":[[[123.9925,0.5565],[123.9855,0.57],[123.982,0.568],[123.989,0.555],[123.9925,0.5565]]]},"properties":{"code":"71.01.11.2019","name":"Mopuya Selatan Satu"}},{"type":"Feature","geometry":{"type":"Polygon","coordinates":[[[123.989,0.555],[123.982,0.568],[123.9645,0.558],[123.971,0.5465],[123.975,0.5465],[123.975,0.547],[123.989,0.555]]]},"properties":{"code":"71.01.11.2020","name":"Mopuya Selatan Dua"}},{"type":"Feature","geometry":{"type":"Polygon","coordinates":[[[123.989,0.548],[123.9865,0.553],[123.9815,0.5505],[123.989,0.548]]]},"properties":{"code":"71.01.11.2024","name":"Dondomon Utara"}},{"type":"Feature","geometry":{"type":"Polygon","coordinates":[[[124.0025,0.5415],[124.001,0.549],[123.9925,0.543],[123.99,0.5415],[123.9905,0.541],[123.9905,0.54],[123.99,0.539],[123.9935,0.5355],[123.998,0.5365],[123.998,0.537],[123.9975,0.538],[123.998,0.5385],[123.9985,0.5385],[124.0025,0.5385],[124.002,0.5395],[124.0025,0.5415]]]},"properties":{"code":"71.01.11.2025","name":"Dondomon Selatan"}},{"type":"Feature","geometry":{"type":"Polygon","coordinates":[[[123.9285,0.568],[123.9175,0.579],[123.9155,0.5795],[123.8855,0.584],[123.8775,0.603],[123.8645,0.615],[123.857,0.6165],[123.8445,0.6295],[123.8335,0.631],[123.823,0.643],[123.8065,0.6445],[123.794,0.633],[123.79,0.635],[123.766,0.6515],[123.75,0.657],[123.7375,0.6715],[123.737,0.671],[123.732,0.6675],[123.7275,0.6465],[123.727,0.645],[123.921,0.5665],[123.9345,0.5595],[123.9425,0.547],[123.9455,0.5485],[123.9375,0.5645],[123.9335,0.567],[123.9305,0.566],[123.9285,0.568]]]},"properties":{"code":"71.01.11.2026","name":"Tumokang Timur"}},{"type":"Feature","geometry":{"type":"Polygon","coordinates":[[[124.091,0.8005],[124.0905,0.801],[124.0795,0.8005],[124.0715,0.8065],[124.073,0.7885],[124.0695,0.758],[124.058,0.743],[124.068,0.728],[124.0685,0.7185],[124.0695,0.719],[124.1005,0.7145],[124.1085,0.7225],[124.107,0.7225],[124.1025,0.732],[124.1085,0.7635],[124.109,0.766],[124.103,0.7675],[124.1035,0.775],[124.1015,0.7775],[124.111,0.785],[124.1075,0.7885],[124.1035,0.789],[124.099,0.7885],[124.094,0.7925],[124.092,0.796],[124.089,0.7995],[124.09,0.8],[124.091,0.8005]]]},"properties":{"code":"71.01.12.2001","name":"Totabuan"}},{"type":"Feature","geometry":{"type":"Polygon","coordinates":[[[124.054,0.822],[124.0475,0.825],[124.046,0.8255],[124.0475,0.8185],[124.024,0.8085],[124.0145,0.794],[124.0105,0.791],[124.0055,0.7865],[124.006,0.7855],[124.008,0.7725],[124.031,0.7405],[124.0395,0.726],[124.053,0.7195],[124.057,0.719],[124.0585,0.717],[124.068,0.7175],[124.0685,0.7185],[124.068,0.728],[124.058,0.743],[124.0695,0.758],[124.073,0.7885],[124.0715,0.8065],[124.069,0.8145],[124.054,0.822]]]},"properties":{"code":"71.01.12.2002","name":"Pindol"}},{"type":"Feature","geometry":{"type":"Polygon","coordinates":[[[124.0905,0.923],[124.075,0.921],[124.071,0.908],[124.0775,0.8955],[124.0795,0.892],[124.0955,0.878],[124.0935,0.8625],[124.1015,0.8465],[124.1035,0.8495],[124.1025,0.852],[124.109,0.869],[124.108,0.8695],[124.101,0.88],[124.103,0.884],[124.104,0.886],[124.1035,0.8865],[124.1025,0.8865],[124.1015,0.888],[124.1035,0.8905],[124.105,0.8925],[124.1015,0.8975],[124.0955,0.898],[124.0945,0.8985],[124.0955,0.901],[124.0855,0.914],[124.0855,0.915],[124.0875,0.9165],[124.0905,0.923]]]},"properties":{"code":"71.01.12.2003","name":"Solog"}},{"type":"Feature","geometry":{"type":"Polygon","coordinates":[[[124.075,0.921],[124.0605,0.9155],[124.0655,0.9125],[124.0695,0.884],[124.073,0.877],[124.0755,0.8485],[124.074,0.847],[124.0725,0.8445],[124.0735,0.8425],[124.081,0.835],[124.0815,0.836],[124.0865,0.844],[124.0835,0.879],[124.0795,0.8895],[124.0775,0.8955],[124.071,0.908],[124.075,0.921]]]},"properties":{"code":"71.01.12.2004","name":"Tandu"}},{"type":"Feature","geometry":{"type":"Polygon","coordinates":[[[124.02,0.863],[124.018,0.87],[124.0175,0.871],[124.0135,0.8775],[124.016,0.89],[124.0165,0.892],[124.015,0.892],[124.0055,0.8875],[124.005,0.881],[124.0065,0.878],[124.0045,0.8745],[124.0035,0.873],[124.02,0.8505],[124.023,0.8455],[124.0215,0.8405],[124.0445,0.8265],[124.0475,0.825],[124.054,0.822],[124.048,0.848],[124.03,0.8605],[124.02,0.863]]]},"properties":{"code":"71.01.12.2005","name":"Lolak"}},{"type":"Feature","geometry":{"type":"Polygon","coordinates":[[[124.0065,0.878],[124.005,0.881],[124.0055,0.8875],[123.971,0.875],[123.9675,0.872],[123.968,0.872],[123.9725,0.8755],[123.978,0.8775],[123.99,0.8715],[123.991,0.8695],[124.002,0.8765],[124.0035,0.873],[124.0045,0.8745],[124.0065,0.878]]]},"properties":{"code":"71.01.12.2006","name":"Motabang"}},{"type":"Feature","geometry":{"type":"Polygon","coordinates":[[[124.0035,0.873],[124.002,0.8765],[123.992,0.87],[123.9995,0.864],[124.0005,0.8615],[124.0215,0.8405],[124.023,0.8455],[124.02,0.8505],[124.0035,0.873]]]},"properties":{"code":"71.01.12.2007","name":"Mongkoinit"}},{"type":"Feature","geometry":{"type":"Polygon","coordinates":[[[123.969,0.871],[123.9675,0.872],[123.9535,0.864],[123.93,0.8575],[123.9535,0.8455],[123.962,0.854],[123.9685,0.8515],[123.9735,0.8525],[123.98,0.8565],[123.9795,0.858],[123.969,0.871]]]},"properties":{"code":"71.01.12.2008","name":"Labuan Uki"}},{"type":"Feature","geometry":{"type":"Polygon","coordinates":[[[123.986,0.8535],[123.984,0.853],[123.98,0.8565],[123.9735,0.8525],[123.972,0.852],[123.975,0.844],[123.989,0.8305],[123.9905,0.829],[123.9935,0.844],[123.9925,0.8445],[123.992,0.845],[123.992,0.8455],[123.9935,0.847],[123.9945,0.8485],[123.9895,0.852],[123.986,0.8535]]]},"properties":{"code":"71.01.12.2009","name":"Pinogaluman"}},{"type":"Feature","geometry":{"type":"Polygon","coordinates":[[[123.952,0.8365],[123.927,0.8405],[123.9235,0.828],[123.9235,0.827],[123.9305,0.8215],[123.9375,0.8005],[123.937,0.781],[123.948,0.7435],[123.9555,0.7325],[123.9655,0.706],[123.9665,0.6815],[123.9675,0.6805],[123.969,0.68],[123.9755,0.6795],[123.9865,0.687],[123.99,0.687],[123.9915,0.6875],[123.99,0.691],[123.9905,0.693],[123.9885,0.706],[123.9885,0.708],[123.9935,0.713],[123.9935,0.715],[123.99,0.7275],[123.99,0.728],[123.977,0.743],[123.9625,0.7515],[123.9525,0.7795],[123.9545,0.7955],[123.9505,0.8255],[123.952,0.8365]]]},"properties":{"code":"71.01.12.2010","name":"Sauk"}},{"type":"Feature","geometry":{"type":"Polygon","coordinates":[[[124.0475,0.873],[124.0485,0.875],[124.0485,0.8775],[124.0525,0.89],[124.0465,0.9075],[124.0245,0.8955],[124.027,0.8905],[124.027,0.887],[124.0255,0.886],[124.0245,0.8855],[124.0195,0.879],[124.0205,0.8635],[124.0215,0.8635],[124.0295,0.8665],[124.029,0.8675],[124.0275,0.877],[124.037,0.8755],[124.042,0.879],[124.046,0.876],[124.0475,0.873]]]},"properties":{"code":"71.01.12.2011","name":"Lalow"}},{"type":"Feature","geometry":{"type":"Polygon","coordinates":[[[123.927,0.8405],[123.9165,0.8465],[123.8965,0.843],[123.9025,0.838],[123.9035,0.8365],[123.903,0.8355],[123.9025,0.8325],[123.8985,0.8265],[123.9025,0.8245],[123.9055,0.824],[123.9055,0.825],[123.9165,0.8245],[123.922,0.8265],[123.9225,0.8275],[123.9235,0.8275],[123.9235,0.828],[123.927,0.8405]]]},"properties":{"code":"71.01.12.2012","name":"Buntalo"}},{"type":"Feature","geometry":{"type":"Polygon","coordinates":[[[123.8975,0.812],[123.895,0.8125],[123.8915,0.806],[123.89,0.8005],[123.8905,0.799],[123.8985,0.7915],[123.9035,0.7885],[123.905,0.7915],[123.9065,0.7915],[123.907,0.791],[123.909,0.796],[123.909,0.7985],[123.8975,0.812]]]},"properties":{"code":"71.01.12.2013","name":"Bumbung"}},{"type":"Feature","geometry":{"type":"Polygon","coordinates":[[[123.972,0.852],[123.9685,0.8515],[123.962,0.854],[123.9535,0.8455],[123.961,0.842],[123.973,0.837],[123.975,0.8335],[123.979,0.8145],[123.9855,0.8015],[123.984,0.775],[123.9935,0.7555],[124.0125,0.7285],[124.019,0.725],[124.026,0.7285],[124.0295,0.7285],[124.038,0.7255],[124.0395,0.726],[124.031,0.7405],[124.008,0.7725],[124.006,0.7855],[124.0055,0.789],[124.005,0.798],[123.9965,0.82],[123.993,0.826],[123.992,0.828],[123.989,0.8305],[123.975,0.844],[123.972,0.852]]]},"properties":{"code":"71.01.12.2014","name":"Baturapa"}},{"type":"Feature","geometry":{"type":"Polygon","coordinates":[[[124.0725,0.8445],[124.074,0.847],[124.0755,0.8485],[124.073,0.877],[124.0695,0.884],[124.0655,0.9125],[124.0605,0.9155],[124.0465,0.9075],[124.0525,0.89],[124.0485,0.8775],[124.0485,0.875],[124.047,0.8725],[124.05,0.861],[124.072,0.845],[124.0725,0.8445]]]},"properties":{"code":"71.01.12.2015","name":"Tuyat"}},{"type":"Feature","geometry":{"type":"Polygon","coordinates":[[[124.0215,0.8405],[124.0085,0.845],[124.0085,0.8455],[124.008,0.846],[124.008,0.8455],[124.0065,0.8445],[124.009,0.8405],[123.9955,0.8215],[123.9965,0.82],[124.005,0.798],[124.0055,0.789],[124.0055,0.7865],[124.0105,0.791],[124.0145,0.794],[124.024,0.8085],[124.0475,0.8185],[124.046,0.8255],[124.0445,0.8265],[124.0215,0.8405]]]},"properties":{"code":"71.01.12.2016","name":"Pindolili"}},{"type":"Feature","geometry":{"type":"Polygon","coordinates":[[[124.0205,0.8635],[124.0195,0.879],[124.0245,0.8855],[124.0255,0.886],[124.027,0.887],[124.027,0.8905],[124.0245,0.8955],[124.015,0.892],[124.0165,0.892],[124.016,0.89],[124.0135,0.8775],[124.0175,0.871],[124.018,0.87],[124.02,0.863],[124.0205,0.8635]]]},"properties":{"code":"71.01.12.2017","name":"Lolak Tombolango"}},{"type":"Feature","geometry":{"type":"Polygon","coordinates":[[[124.05,0.861],[124.0395,0.8675],[124.0305,0.8645],[124.0295,0.8665],[124.0215,0.8635],[124.0205,0.8635],[124.02,0.863],[124.03,0.8605],[124.048,0.848],[124.054,0.822],[124.069,0.8145],[124.0715,0.8065],[124.0805,0.8135],[124.0805,0.8335],[124.081,0.835],[124.0735,0.8425],[124.072,0.845],[124.05,0.861]]]},"properties":{"code":"71.01.12.2018","name":"Lolak II"}},{"type":"Feature","geometry":{"type":"Polygon","coordinates":[[[123.9665,0.6815],[123.9655,0.706],[123.9555,0.7325],[123.948,0.7435],[123.937,0.781],[123.9375,0.8005],[123.9305,0.8215],[123.9235,0.827],[123.9235,0.8275],[123.9225,0.8275],[123.922,0.8265],[123.9165,0.8245],[123.9055,0.825],[123.9055,0.8235],[123.912,0.8175],[123.9225,0.796],[123.922,0.784],[123.9155,0.779],[123.915,0.7785],[123.916,0.7775],[123.917,0.775],[123.9185,0.769],[123.908,0.766],[123.9055,0.748],[123.9055,0.747],[123.903,0.744],[123.9005,0.739],[123.9,0.7355],[123.8985,0.7345],[123.895,0.7265],[123.88,0.711],[123.88,0.687],[123.866,0.687],[123.865,0.686],[123.8625,0.684],[123.86,0.6805],[123.8625,0.666],[123.862,0.6625],[123.8655,0.663],[123.8685,0.6625],[123.8685,0.6615],[123.8705,0.6575],[123.8725,0.654],[123.8735,0.6545],[123.875,0.6545],[123.8775,0.6545],[123.879,0.6585],[123.8985,0.665],[123.908,0.676],[123.911,0.677],[123.9115,0.677],[123.9155,0.675],[123.9185,0.673],[123.9205,0.671],[123.9375,0.657],[123.941,0.6575],[123.947,0.677],[123.9485,0.678],[123.966,0.6805],[123.9665,0.6815]]]},"properties":{"code":"71.01.12.2019","name":"Buntalo Timur"}},{"type":"Feature","geometry":{"type":"Polygon","coordinates":[[[123.9055,0.824],[123.9025,0.8245],[123.8985,0.8265],[123.898,0.825],[123.8975,0.824],[123.8965,0.8235],[123.8955,0.8215],[123.893,0.8175],[123.897,0.814],[123.8975,0.812],[123.909,0.7985],[123.909,0.796],[123.907,0.791],[123.9075,0.7905],[123.911,0.7805],[123.915,0.778],[123.9155,0.779],[123.922,0.784],[123.9225,0.796],[123.912,0.8175],[123.9055,0.8235],[123.9055,0.824]]]},"properties":{"code":"71.01.12.2020","name":"Buntalo Selatan"}},{"type":"Feature","geometry":{"type":"Polygon","coordinates":[[[124.0125,0.7285],[123.9935,0.7555],[123.984,0.775],[123.9855,0.8015],[123.979,0.8145],[123.975,0.8335],[123.973,0.837],[123.961,0.842],[123.952,0.8365],[123.9505,0.8255],[123.9545,0.7955],[123.9525,0.7795],[123.9625,0.7515],[123.977,0.743],[123.99,0.728],[123.9905,0.7285],[123.997,0.73],[123.9985,0.7295],[124.0025,0.728],[124.01,0.728],[124.0125,0.7285]]]},"properties":{"code":"71.01.12.2021","name":"Baturapa II"}},{"type":"Feature","geometry":{"type":"Polygon","coordinates":[[[124.1015,0.8465],[124.0935,0.8625],[124.0955,0.878],[124.0795,0.892],[124.0795,0.8895],[124.0835,0.879],[124.0865,0.844],[124.0815,0.836],[124.0805,0.8335],[124.0805,0.8135],[124.0715,0.8065],[124.0795,0.8005],[124.0905,0.801],[124.0915,0.8],[124.0935,0.802],[124.0925,0.807],[124.093,0.8115],[124.096,0.814],[124.0875,0.828],[124.0875,0.83],[124.098,0.83],[124.1015,0.8465]]]},"properties":{"code":"71.01.12.2022","name":"Diat"}},{"type":"Feature","geometry":{"type":"Polygon","coordinates":[[[124.008,0.846],[124.0075,0.8465],[123.995,0.845],[123.9935,0.844],[123.9905,0.829],[123.992,0.828],[123.993,0.826],[123.9955,0.8215],[124.009,0.8405],[124.0065,0.8445],[124.008,0.8455],[124.008,0.846]]]},"properties":{"code":"71.01.12.2023","name":"Pinogaluman Timur"}},{"type":"Feature","geometry":{"type":"Polygon","coordinates":[[[123.992,0.87],[123.991,0.8695],[123.99,0.8715],[123.978,0.8775],[123.9725,0.8755],[123.968,0.872],[123.969,0.871],[123.9795,0.858],[123.984,0.853],[123.986,0.8535],[123.9945,0.8545],[123.9975,0.8595],[123.996,0.8615],[123.9985,0.862],[123.9985,0.8625],[123.9995,0.8635],[124,0.8635],[123.9995,0.864],[123.992,0.87]]]},"properties":{"code":"71.01.12.2024","name":"Mongkoinit Barat"}},{"type":"Feature","geometry":{"type":"Polygon","coordinates":[[[124.0215,0.8405],[124.0005,0.8615],[124,0.8635],[123.9995,0.8635],[123.9985,0.8625],[123.9985,0.862],[123.996,0.8615],[123.9975,0.8595],[123.9945,0.8545],[123.986,0.8535],[123.9895,0.852],[123.9945,0.8485],[123.9935,0.847],[123.992,0.8455],[123.992,0.845],[123.9925,0.8445],[123.995,0.845],[124.0075,0.8465],[124.0085,0.8455],[124.0085,0.845],[124.0215,0.8405]]]},"properties":{"code":"71.01.12.2025","name":"Dulangon"}},{"type":"Feature","geometry":{"type":"Polygon","coordinates":[[[124.0475,0.873],[124.046,0.876],[124.042,0.879],[124.037,0.8755],[124.0275,0.877],[124.029,0.8675],[124.0305,0.8645],[124.0395,0.8675],[124.05,0.861],[124.047,0.8725],[124.0475,0.873]]]},"properties":{"code":"71.01.12.2026","name":"Padang Lalow"}},{"type":"Feature","geometry":{"type":"Polygon","coordinates":[[[124.1005,0.919],[124.0905,0.923],[124.0875,0.9165],[124.0855,0.915],[124.0855,0.914],[124.0955,0.901],[124.0945,0.8985],[124.0955,0.898],[124.1015,0.8975],[124.1035,0.8975],[124.1045,0.8995],[124.108,0.8985],[124.1105,0.9],[124.1125,0.9025],[124.1115,0.903],[124.111,0.904],[124.109,0.9055],[124.107,0.9065],[124.1045,0.908],[124.1005,0.919]]]},"properties":{"code":"71.01.13.1006","name":"Inobonto"}},{"type":"Feature","geometry":{"type":"Polygon","coordinates":[[[124.223,0.856],[124.209,0.862],[124.207,0.8615],[124.1955,0.8515],[124.1965,0.8445],[124.195,0.8385],[124.1935,0.8355],[124.1895,0.834],[124.1835,0.818],[124.1685,0.7965],[124.17,0.7535],[124.176,0.7475],[124.1715,0.736],[124.1705,0.734],[124.169,0.733],[124.17,0.7325],[124.174,0.7335],[124.176,0.7325],[124.186,0.7265],[124.189,0.727],[124.19,0.727],[124.194,0.743],[124.1975,0.7435],[124.197,0.764],[124.2015,0.788],[124.209,0.7975],[124.21,0.814],[124.2195,0.828],[124.2175,0.837],[124.2255,0.842],[124.227,0.8435],[124.2285,0.8465],[124.229,0.847],[124.2315,0.849],[124.2315,0.8505],[124.227,0.8515],[124.223,0.856]]]},"properties":{"code":"71.01.13.2001","name":"Komangaan"}},{"type":"Feature","geometry":{"type":"Polygon","coordinates":[[[124.1915,0.867],[124.191,0.868],[124.18,0.874],[124.177,0.8745],[124.175,0.8755],[124.174,0.8755],[124.1645,0.8405],[124.1525,0.835],[124.1415,0.822],[124.1265,0.814],[124.1255,0.813],[124.122,0.8005],[124.112,0.7875],[124.111,0.785],[124.1015,0.7775],[124.1035,0.775],[124.103,0.7675],[124.109,0.766],[124.1085,0.7635],[124.1025,0.732],[124.107,0.7225],[124.108,0.7225],[124.109,0.7225],[124.1115,0.7235],[124.1155,0.725],[124.116,0.726],[124.1165,0.728],[124.1275,0.7355],[124.143,0.733],[124.154,0.737],[124.1535,0.7395],[124.153,0.7435],[124.1505,0.743],[124.15,0.745],[124.1495,0.7475],[124.15,0.7495],[124.152,0.7535],[124.1515,0.7545],[124.147,0.761],[124.1475,0.763],[124.1535,0.7705],[124.144,0.7865],[124.161,0.8025],[124.161,0.828],[124.1725,0.845],[124.1795,0.85],[124.1915,0.867]]]},"properties":{"code":"71.01.13.2002","name":"Solimandungan II"}},{"type":"Feature","geometry":{"type":"Polygon","coordinates":[[[124.172,0.8765],[124.1655,0.8815],[124.158,0.88],[124.1495,0.8725],[124.1445,0.858],[124.132,0.842],[124.123,0.847],[124.1215,0.8455],[124.122,0.844],[124.1215,0.8435],[124.1215,0.8425],[124.1195,0.835],[124.119,0.834],[124.121,0.831],[124.119,0.8295],[124.1175,0.83],[124.118,0.829],[124.1215,0.827],[124.122,0.826],[124.119,0.824],[124.12,0.8235],[124.1195,0.82],[124.124,0.817],[124.1255,0.8175],[124.1255,0.8135],[124.1265,0.814],[124.1415,0.822],[124.1525,0.835],[124.1645,0.8405],[124.174,0.8755],[124.172,0.8765]]]},"properties":{"code":"71.01.13.2003","name":"Solimandungan I"}},{"type":"Feature","geometry":{"type":"Polygon","coordinates":[[[124.154,0.8855],[124.143,0.8855],[124.1375,0.8695],[124.1305,0.8665],[124.123,0.8535],[124.121,0.852],[124.1175,0.8475],[124.1175,0.8465],[124.121,0.846],[124.123,0.847],[124.132,0.842],[124.1445,0.858],[124.1495,0.8725],[124.158,0.88],[124.154,0.8855]]]},"properties":{"code":"71.01.13.2004","name":"Bangomulunow"}},{"type":"Feature","geometry":{"type":"Polygon","coordinates":[[[124.136,0.888],[124.13,0.891],[124.122,0.881],[124.105,0.8805],[124.1025,0.8825],[124.101,0.88],[124.108,0.8695],[124.1095,0.868],[124.109,0.865],[124.1095,0.8645],[124.115,0.8615],[124.1165,0.8625],[124.126,0.8675],[124.136,0.888]]]},"properties":{"code":"71.01.13.2005","name":"Langagon"}},{"type":"Feature","geometry":{"type":"Polygon","coordinates":[[[124.116,0.9005],[124.1145,0.9215],[124.104,0.92],[124.106,0.915],[124.1045,0.908],[124.107,0.9065],[124.109,0.9055],[124.111,0.904],[124.1115,0.903],[124.114,0.902],[124.116,0.9005]]]},"properties":{"code":"71.01.13.2007","name":"Inobonto II"}},{"type":"Feature","geometry":{"type":"Polygon","coordinates":[[[124.1045,0.908],[124.106,0.915],[124.104,0.92],[124.1005,0.919],[124.1045,0.908]]]},"properties":{"code":"71.01.13.2014","name":"Inobonto"}},{"type":"Feature","geometry":{"type":"Polygon","coordinates":[[[124.116,0.9005],[124.114,0.902],[124.1125,0.9025],[124.1105,0.9],[124.108,0.8985],[124.1045,0.8995],[124.1035,0.8975],[124.105,0.8925],[124.1035,0.8905],[124.1015,0.888],[124.1025,0.8865],[124.1035,0.8865],[124.104,0.886],[124.103,0.884],[124.1025,0.8825],[124.105,0.8805],[124.122,0.881],[124.13,0.891],[124.121,0.8975],[124.116,0.9005]]]},"properties":{"code":"71.01.13.2015","name":"Langagon Satu"}},{"type":"Feature","geometry":{"type":"Polygon","coordinates":[[[124.143,0.8855],[124.1405,0.887],[124.136,0.888],[124.126,0.8675],[124.1165,0.8625],[124.115,0.8615],[124.1095,0.8645],[124.109,0.865],[124.1095,0.868],[124.109,0.869],[124.1025,0.852],[124.1035,0.8495],[124.1015,0.8465],[124.098,0.83],[124.0875,0.83],[124.0875,0.828],[124.096,0.814],[124.093,0.8115],[124.0925,0.807],[124.0935,0.802],[124.0915,0.8],[124.091,0.8005],[124.0905,0.8005],[124.089,0.7995],[124.092,0.796],[124.094,0.7925],[124.099,0.7885],[124.1035,0.789],[124.1075,0.7885],[124.112,0.7875],[124.122,0.8005],[124.1255,0.813],[124.1255,0.8135],[124.1255,0.8175],[124.124,0.817],[124.1195,0.82],[124.12,0.8235],[124.119,0.824],[124.122,0.826],[124.1215,0.827],[124.118,0.829],[124.1175,0.83],[124.119,0.8295],[124.121,0.831],[124.119,0.834],[124.1195,0.835],[124.1215,0.8425],[124.1215,0.8435],[124.122,0.844],[124.1215,0.8455],[124.121,0.846],[124.1175,0.8465],[124.1175,0.8475],[124.121,0.852],[124.123,0.8535],[124.1305,0.8665],[124.1375,0.8695],[124.143,0.8855]]]},"properties":{"code":"71.01.13.2016","name":"Langagon Dua"}},{"type":"Feature","geometry":{"type":"Polygon","coordinates":[[[124.2015,0.8645],[124.1935,0.865],[124.1915,0.867],[124.1795,0.85],[124.1725,0.845],[124.161,0.828],[124.161,0.8025],[124.144,0.7865],[124.1535,0.7705],[124.1475,0.763],[124.147,0.761],[124.1515,0.7545],[124.152,0.7535],[124.15,0.7495],[124.1495,0.7475],[124.15,0.745],[124.1505,0.743],[124.153,0.7435],[124.1535,0.7395],[124.154,0.737],[124.1555,0.7365],[124.166,0.7325],[124.167,0.732],[124.169,0.733],[124.1705,0.734],[124.1715,0.736],[124.176,0.7475],[124.17,0.7535],[124.1685,0.7965],[124.1835,0.818],[124.1895,0.834],[124.1935,0.8355],[124.195,0.8385],[124.1965,0.8445],[124.1955,0.8515],[124.207,0.8615],[124.206,0.8625],[124.2015,0.8645]]]},"properties":{"code":"71.01.13.2017","name":"Solimandungan Baru"}},{"type":"Feature","geometry":{"type":"Polygon","coordinates":[[[124.192,0.6435],[124.193,0.644],[124.1945,0.648],[124.1985,0.653],[124.2095,0.672],[124.208,0.6735],[124.2065,0.672],[124.205,0.6725],[124.1895,0.6595],[124.192,0.6435]]]},"properties":{"code":"71.01.14.2001","name":"Bombanon"}},{"type":"Feature","geometry":{"type":"Polygon","coordinates":[[[124.221,0.677],[124.2195,0.678],[124.218,0.6765],[124.2105,0.676],[124.21,0.6755],[124.2095,0.672],[124.1985,0.653],[124.1945,0.648],[124.193,0.644],[124.1915,0.6405],[124.1915,0.6365],[124.191,0.6335],[124.1935,0.635],[124.1965,0.6345],[124.203,0.639],[124.212,0.651],[124.22,0.675],[124.221,0.677]]]},"properties":{"code":"71.01.14.2002","name":"Abak"}},{"type":"Feature","geometry":{"type":"Polygon","coordinates":[[[124.225,0.6745],[124.2235,0.6765],[124.221,0.677],[124.22,0.675],[124.212,0.651],[124.203,0.639],[124.1965,0.6345],[124.1935,0.635],[124.191,0.6335],[124.191,0.63],[124.1895,0.627],[124.1895,0.6245],[124.191,0.612],[124.1915,0.611],[124.2175,0.614],[124.236,0.629],[124.2415,0.638],[124.224,0.6615],[124.225,0.6745]]]},"properties":{"code":"71.01.14.2003","name":"Tapa Aog"}},{"type":"Feature","geometry":{"type":"Polygon","coordinates":[[[124.2745,0.591],[124.27,0.5975],[124.269,0.5975],[124.2625,0.5865],[124.2455,0.5725],[124.2425,0.57],[124.242,0.57],[124.235,0.5675],[124.2245,0.555],[124.222,0.547],[124.2215,0.546],[124.219,0.5415],[124.234,0.531],[124.2365,0.522],[124.246,0.5165],[124.2475,0.516],[124.249,0.5155],[124.2465,0.5215],[124.246,0.524],[124.246,0.5245],[124.2455,0.525],[124.245,0.5345],[124.254,0.5435],[124.2535,0.541],[124.2535,0.537],[124.252,0.533],[124.255,0.531],[124.2555,0.5305],[124.2555,0.5295],[124.256,0.527],[124.267,0.5285],[124.2705,0.5265],[124.277,0.529],[124.2785,0.5295],[124.2805,0.5325],[124.294,0.532],[124.299,0.543],[124.3105,0.5425],[124.3105,0.5435],[124.311,0.544],[124.313,0.545],[124.3165,0.5455],[124.319,0.545],[124.3195,0.5465],[124.32,0.5525],[124.3185,0.5535],[124.3095,0.568],[124.308,0.5685],[124.307,0.5665],[124.3075,0.5595],[124.3065,0.553],[124.2985,0.5515],[124.2735,0.5365],[124.265,0.543],[124.26,0.5545],[124.2675,0.559],[124.262,0.573],[124.262,0.5755],[124.2615,0.5775],[124.262,0.58],[124.2715,0.5905],[124.2745,0.591]]]},"properties":{"code":"71.01.14.2004","name":"Mopusi"}},{"type":"Feature","geometry":{"type":"Polygon","coordinates":[[[124.277,0.59],[124.276,0.5915],[124.276,0.591],[124.2715,0.5905],[124.262,0.58],[124.2615,0.5775],[124.262,0.5755],[124.262,0.573],[124.2675,0.559],[124.26,0.5545],[124.265,0.543],[124.2735,0.5365],[124.2985,0.5515],[124.3065,0.553],[124.3075,0.5595],[124.307,0.5665],[124.308,0.5685],[124.307,0.569],[124.306,0.5685],[124.303,0.5605],[124.302,0.5595],[124.301,0.5675],[124.301,0.5685],[124.2985,0.5705],[124.296,0.5725],[124.295,0.5725],[124.291,0.576],[124.287,0.584],[124.2845,0.586],[124.277,0.59]]]},"properties":{"code":"71.01.14.2005","name":"Matali Baru"}},{"type":"Feature","geometry":{"type":"Polygon","coordinates":[[[124.2865,0.6215],[124.286,0.619],[124.2855,0.618],[124.2835,0.6105],[124.2835,0.6095],[124.283,0.607],[124.283,0.604],[124.2815,0.6025],[124.28,0.6015],[124.279,0.6015],[124.2705,0.598],[124.27,0.5975],[124.2745,0.591],[124.276,0.591],[124.276,0.5915],[124.277,0.59],[124.2845,0.586],[124.287,0.584],[124.291,0.576],[124.295,0.5725],[124.296,0.5725],[124.2985,0.5705],[124.301,0.5685],[124.3015,0.571],[124.3085,0.576],[124.312,0.5725],[124.315,0.574],[124.3165,0.5745],[124.3165,0.576],[124.3155,0.5765],[124.3155,0.577],[124.3165,0.5775],[124.3165,0.5795],[124.3155,0.5805],[124.317,0.5825],[124.3205,0.5825],[124.321,0.584],[124.3215,0.5885],[124.325,0.596],[124.326,0.5985],[124.327,0.601],[124.335,0.612],[124.3365,0.614],[124.336,0.614],[124.3355,0.6145],[124.334,0.6165],[124.315,0.6115],[124.3025,0.6115],[124.294,0.619],[124.291,0.6195],[124.2865,0.6215]]]},"properties":{"code":"71.01.14.2006","name":"Bakan"}},{"type":"Feature","geometry":{"type":"Polygon","coordinates":[[[124.279,0.6015],[124.2755,0.605],[124.265,0.613],[124.25,0.6135],[124.2425,0.627],[124.236,0.629],[124.2175,0.614],[124.1915,0.611],[124.1905,0.61],[124.185,0.5955],[124.182,0.5925],[124.181,0.5905],[124.1785,0.588],[124.169,0.578],[124.166,0.5765],[124.165,0.5755],[124.1645,0.574],[124.165,0.573],[124.165,0.5725],[124.168,0.5725],[124.172,0.5725],[124.1905,0.5815],[124.1905,0.578],[124.1905,0.573],[124.195,0.5725],[124.226,0.5775],[124.2385,0.569],[124.242,0.57],[124.2425,0.57],[124.2455,0.5725],[124.2625,0.5865],[124.269,0.5975],[124.2705,0.598],[124.279,0.6015]]]},"properties":{"code":"71.01.14.2007","name":"Tanoyan Selatan"}},{"type":"Feature","geometry":{"type":"Polygon","coordinates":[[[124.2785,0.6735],[124.2775,0.6755],[124.279,0.677],[124.26,0.6795],[124.247,0.6745],[124.2265,0.674],[124.225,0.6745],[124.224,0.6615],[124.2415,0.638],[124.242,0.639],[124.244,0.641],[124.2455,0.641],[124.2475,0.6415],[124.2505,0.6425],[124.2505,0.6435],[124.2515,0.6435],[124.256,0.64],[124.269,0.65],[124.274,0.67],[124.275,0.6715],[124.2785,0.6735]]]},"properties":{"code":"71.01.14.2008","name":"Tungoi I"}},{"type":"Feature","geometry":{"type":"Polygon","coordinates":[[[124.3225,0.664],[124.313,0.666],[124.31,0.666],[124.304,0.662],[124.2995,0.664],[124.299,0.6635],[124.299,0.6615],[124.299,0.661],[124.301,0.6595],[124.3025,0.6565],[124.297,0.639],[124.2865,0.624],[124.2855,0.6235],[124.2865,0.6215],[124.291,0.6195],[124.294,0.619],[124.3025,0.6115],[124.315,0.6115],[124.334,0.6165],[124.3345,0.6155],[124.336,0.614],[124.3365,0.614],[124.3375,0.615],[124.337,0.6225],[124.3365,0.6335],[124.3415,0.6485],[124.329,0.652],[124.3225,0.664]]]},"properties":{"code":"71.01.14.2009","name":"Lolayan"}},{"type":"Feature","geometry":{"type":"Polygon","coordinates":[[[124.2625,0.755],[124.2635,0.756],[124.251,0.754],[124.2425,0.746],[124.241,0.747],[124.239,0.7475],[124.2335,0.748],[124.2315,0.7465],[124.231,0.746],[124.2245,0.748],[124.223,0.749],[124.223,0.746],[124.2175,0.744],[124.213,0.743],[124.212,0.7415],[124.211,0.7395],[124.21,0.737],[124.209,0.737],[124.208,0.738],[124.2055,0.7405],[124.205,0.7435],[124.204,0.7435],[124.202,0.744],[124.2,0.743],[124.1975,0.7435],[124.194,0.743],[124.19,0.727],[124.1905,0.7255],[124.211,0.719],[124.2135,0.702],[124.2135,0.7],[124.2125,0.698],[124.208,0.6915],[124.2075,0.69],[124.2075,0.6885],[124.207,0.687],[124.2085,0.6805],[124.216,0.6785],[124.22,0.6775],[124.221,0.677],[124.2235,0.6765],[124.2265,0.674],[124.247,0.6745],[124.26,0.6795],[124.279,0.677],[124.2775,0.6755],[124.2785,0.6735],[124.2935,0.6595],[124.294,0.6735],[124.2915,0.69],[124.29,0.693],[124.288,0.693],[124.282,0.6915],[124.2775,0.693],[124.2735,0.6915],[124.2675,0.701],[124.258,0.703],[124.256,0.705],[124.2555,0.706],[124.2555,0.7075],[124.2525,0.707],[124.2535,0.7205],[124.2545,0.7325],[124.2555,0.7505],[124.2625,0.755]]]},"properties":{"code":"71.01.14.2010","name":"Mopait"}},{"type":"Feature","geometry":{"type":"Polygon","coordinates":[[[124.2715,0.7125],[124.261,0.7085],[124.2555,0.7075],[124.2555,0.706],[124.256,0.705],[124.258,0.703],[124.2675,0.701],[124.2735,0.6915],[124.2775,0.693],[124.282,0.6915],[124.288,0.693],[124.29,0.693],[124.2895,0.6935],[124.283,0.7045],[124.2715,0.7125]]]},"properties":{"code":"71.01.14.2017","name":"Kopandakan II"}},{"type":"Feature","geometry":{"type":"Polygon","coordinates":[[[124.256,0.64],[124.2515,0.6435],[124.2505,0.6435],[124.2505,0.6425],[124.2475,0.6415],[124.2455,0.641],[124.244,0.641],[124.242,0.639],[124.2415,0.638],[124.236,0.629],[124.2425,0.627],[124.25,0.6135],[124.265,0.613],[124.2755,0.605],[124.28,0.6015],[124.2815,0.6025],[124.283,0.604],[124.283,0.607],[124.2835,0.6095],[124.2835,0.6105],[124.2855,0.618],[124.286,0.619],[124.2865,0.6215],[124.2855,0.6235],[124.2865,0.624],[124.272,0.626],[124.256,0.64]]]},"properties":{"code":"71.01.14.2019","name":"Tanoyan Utara"}},{"type":"Feature","geometry":{"type":"Polygon","coordinates":[[[124.2935,0.6595],[124.2785,0.6735],[124.275,0.6715],[124.274,0.67],[124.269,0.65],[124.256,0.64],[124.272,0.626],[124.2865,0.624],[124.297,0.639],[124.3025,0.6565],[124.301,0.6595],[124.299,0.661],[124.298,0.6605],[124.2975,0.6605],[124.294,0.659],[124.2935,0.6595]]]},"properties":{"code":"71.01.14.2020","name":"Tungoi II"}},{"type":"Feature","geometry":{"type":"Polygon","coordinates":[[[124.1905,0.578],[124.1905,0.5815],[124.172,0.5725],[124.168,0.5725],[124.165,0.5725],[124.1655,0.572],[124.1655,0.571],[124.1665,0.57],[124.1635,0.569],[124.1605,0.5665],[124.159,0.5625],[124.1705,0.5465],[124.181,0.5395],[124.178,0.5235],[124.179,0.5225],[124.193,0.5285],[124.195,0.5285],[124.2085,0.5365],[124.2125,0.538],[124.217,0.538],[124.2205,0.536],[124.2305,0.512],[124.233,0.5105],[124.249,0.5155],[124.2475,0.516],[124.246,0.5165],[124.2365,0.522],[124.234,0.531],[124.219,0.5415],[124.2215,0.546],[124.222,0.547],[124.2245,0.555],[124.235,0.5675],[124.2385,0.569],[124.226,0.5775],[124.195,0.5725],[124.1905,0.573],[124.1905,0.578]]]},"properties":{"code":"71.01.14.2021","name":"Mengkang"}},{"type":"Feature","geometry":{"type":"Polygon","coordinates":[[[124.2225,0.749],[124.223,0.766],[124.2425,0.79],[124.247,0.808],[124.252,0.8155],[124.2485,0.8295],[124.2595,0.8445],[124.2495,0.8425],[124.246,0.8425],[124.2455,0.842],[124.2435,0.842],[124.2385,0.844],[124.24,0.828],[124.236,0.818],[124.241,0.8065],[124.2335,0.7995],[124.2195,0.774],[124.2125,0.7715],[124.215,0.753],[124.216,0.7515],[124.2135,0.7435],[124.2175,0.744],[124.223,0.746],[124.2225,0.749]]]},"properties":{"code":"71.01.19.2001","name":"Muntoi"}},{"type":"Feature","geometry":{"type":"Polygon","coordinates":[[[124.272,0.782],[124.262,0.7945],[124.243,0.7785],[124.2465,0.778],[124.247,0.773],[124.2695,0.775],[124.272,0.782]]]},"properties":{"code":"71.01.19.2002","name":"Poyuyanan"}},{"type":"Feature","geometry":{"type":"Polygon","coordinates":[[[124.2695,0.775],[124.247,0.773],[124.2465,0.778],[124.2425,0.7785],[124.233,0.7625],[124.235,0.749],[124.239,0.7475],[124.241,0.747],[124.2425,0.746],[124.251,0.754],[124.2635,0.756],[124.265,0.7575],[124.2685,0.763],[124.2695,0.7635],[124.269,0.7645],[124.2685,0.765],[124.2675,0.7655],[124.2665,0.767],[124.2695,0.775]]]},"properties":{"code":"71.01.19.2003","name":"Lobong"}},{"type":"Feature","geometry":{"type":"Polygon","coordinates":[[[124.302,0.768],[124.2945,0.7695],[124.292,0.7605],[124.2665,0.7505],[124.2665,0.7455],[124.2675,0.744],[124.2695,0.743],[124.28,0.747],[124.281,0.748],[124.2835,0.7495],[124.2885,0.7555],[124.304,0.762],[124.302,0.768]]]},"properties":{"code":"71.01.19.2004","name":"Passi"}},{"type":"Feature","geometry":{"type":"Polygon","coordinates":[[[124.308,0.77],[124.305,0.776],[124.302,0.768],[124.304,0.762],[124.309,0.763],[124.3085,0.7645],[124.308,0.7645],[124.308,0.765],[124.308,0.7675],[124.3075,0.769],[124.307,0.7695],[124.308,0.77]]]},"properties":{"code":"71.01.19.2017","name":"Bintau"}},{"type":"Feature","geometry":{"type":"Polygon","coordinates":[[[124.3115,0.794],[124.3155,0.8145],[124.315,0.8155],[124.297,0.7765],[124.295,0.774],[124.2965,0.774],[124.2945,0.7695],[124.302,0.768],[124.305,0.776],[124.3115,0.794]]]},"properties":{"code":"71.01.19.2018","name":"Bulud"}},{"type":"Feature","geometry":{"type":"Polygon","coordinates":[[[124.315,0.8155],[124.314,0.8165],[124.3115,0.8335],[124.315,0.8485],[124.3085,0.853],[124.308,0.8525],[124.2915,0.8415],[124.286,0.8315],[124.292,0.807],[124.2845,0.787],[124.292,0.774],[124.295,0.774],[124.297,0.7765],[124.315,0.8155]]]},"properties":{"code":"71.01.19.2019","name":"Otam"}},{"type":"Feature","geometry":{"type":"Polygon","coordinates":[[[124.2935,0.7675],[124.2665,0.767],[124.2675,0.7655],[124.2685,0.765],[124.269,0.7645],[124.2695,0.7635],[124.2685,0.763],[124.265,0.7575],[124.265,0.7535],[124.2655,0.751],[124.2665,0.7505],[124.292,0.7605],[124.2935,0.7675]]]},"properties":{"code":"71.01.19.2020","name":"Wangga"}},{"type":"Feature","geometry":{"type":"Polygon","coordinates":[[[124.2385,0.844],[124.2325,0.8505],[124.2315,0.8505],[124.2315,0.849],[124.229,0.847],[124.2285,0.8465],[124.227,0.8435],[124.2255,0.842],[124.2175,0.837],[124.2195,0.828],[124.21,0.814],[124.209,0.7975],[124.2015,0.788],[124.197,0.764],[124.1975,0.7435],[124.2,0.743],[124.202,0.744],[124.204,0.7435],[124.205,0.7435],[124.2055,0.7405],[124.208,0.738],[124.209,0.737],[124.21,0.737],[124.211,0.7395],[124.212,0.7415],[124.213,0.743],[124.2135,0.7435],[124.216,0.7515],[124.215,0.753],[124.2125,0.7715],[124.2195,0.774],[124.2335,0.7995],[124.241,0.8065],[124.236,0.818],[124.24,0.828],[124.2385,0.844]]]},"properties":{"code":"71.01.19.2022","name":"Inuai"}},{"type":"Feature","geometry":{"type":"Polygon","coordinates":[[[124.304,0.762],[124.2885,0.7555],[124.2835,0.7495],[124.281,0.748],[124.28,0.747],[124.2955,0.7525],[124.306,0.7525],[124.305,0.7535],[124.304,0.762]]]},"properties":{"code":"71.01.19.2023","name":"Passi II"}},{"type":"Feature","geometry":{"type":"Polygon","coordinates":[[[124.2685,0.843],[124.261,0.845],[124.2595,0.845],[124.2595,0.8445],[124.2485,0.8295],[124.252,0.8155],[124.247,0.808],[124.2425,0.79],[124.223,0.766],[124.2225,0.749],[124.223,0.749],[124.2245,0.748],[124.231,0.746],[124.2315,0.7465],[124.2335,0.748],[124.235,0.749],[124.233,0.7625],[124.2425,0.7785],[124.243,0.7785],[124.262,0.7945],[124.26,0.7985],[124.268,0.8305],[124.2675,0.8325],[124.267,0.8375],[124.2685,0.843]]]},"properties":{"code":"71.01.19.2024","name":"Muntoi Timur"}},{"type":"Feature","geometry":{"type":"Polygon","coordinates":[[[124.286,0.8315],[124.268,0.8305],[124.26,0.7985],[124.262,0.7945],[124.272,0.782],[124.292,0.774],[124.2845,0.787],[124.292,0.807],[124.286,0.8315]]]},"properties":{"code":"71.01.19.2025","name":"Otam Barat"}},{"type":"Feature","geometry":{"type":"Polygon","coordinates":[[[124.292,0.774],[124.272,0.782],[124.2695,0.775],[124.2665,0.767],[124.2935,0.7675],[124.2945,0.7695],[124.2965,0.774],[124.292,0.774]]]},"properties":{"code":"71.01.19.2026","name":"Wangga Satu"}},{"type":"Feature","geometry":{"type":"Polygon","coordinates":[[[124.2255,0.9605],[124.213,0.9655],[124.198,0.9835],[124.1945,0.976],[124.191,0.9735],[124.192,0.972],[124.193,0.9685],[124.1945,0.9665],[124.198,0.963],[124.2005,0.957],[124.213,0.9545],[124.22,0.935],[124.231,0.9215],[124.232,0.9185],[124.233,0.915],[124.233,0.913],[124.232,0.907],[124.233,0.8985],[124.232,0.896],[124.23,0.896],[124.229,0.895],[124.236,0.891],[124.237,0.8885],[124.2395,0.8765],[124.235,0.8695],[124.235,0.865],[124.232,0.8635],[124.2285,0.8635],[124.2265,0.8635],[124.223,0.856],[124.227,0.8515],[124.2315,0.8505],[124.2325,0.8505],[124.2385,0.844],[124.2435,0.842],[124.2455,0.842],[124.246,0.8425],[124.2495,0.8425],[124.2595,0.8445],[124.2595,0.845],[124.261,0.845],[124.2685,0.843],[124.272,0.851],[124.275,0.8545],[124.2695,0.874],[124.268,0.88],[124.2595,0.9055],[124.261,0.9195],[124.256,0.94],[124.2575,0.9585],[124.2445,0.959],[124.2255,0.9605]]]},"properties":{"code":"71.01.20.2001","name":"Mariri Lama"}},{"type":"Feature","geometry":{"type":"Polygon","coordinates":[[[124.2245,0.9905],[124.2125,0.992],[124.1955,0.985],[124.198,0.9835],[124.213,0.9655],[124.2255,0.9605],[124.2245,0.9905]]]},"properties":{"code":"71.01.20.2002","name":"Mariri Baru"}},{"type":"Feature","geometry":{"type":"Polygon","coordinates":[[[124.2365,0.9895],[124.235,0.993],[124.2245,0.9905],[124.2255,0.9605],[124.2445,0.959],[124.2365,0.9895]]]},"properties":{"code":"71.01.20.2003","name":"Nonapan II"}},{"type":"Feature","geometry":{"type":"Polygon","coordinates":[[[124.24,0.989],[124.2365,0.9895],[124.2445,0.959],[124.2575,0.9585],[124.256,0.94],[124.261,0.9195],[124.2595,0.9055],[124.268,0.88],[124.2695,0.874],[124.275,0.8545],[124.2795,0.86],[124.2885,0.8695],[124.2905,0.8855],[124.2905,0.8895],[124.29,0.9075],[124.2815,0.9225],[124.2805,0.9245],[124.282,0.9285],[124.283,0.931],[124.2715,0.9315],[124.2635,0.9495],[124.2635,0.9535],[124.2625,0.9545],[124.2595,0.963],[124.259,0.9655],[124.2585,0.9675],[124.255,0.9675],[124.2515,0.969],[124.2505,0.9765],[124.25,0.9825],[124.2495,0.9845],[124.2485,0.985],[124.2475,0.9855],[124.2445,0.9865],[124.2425,0.9875],[124.24,0.989]]]},"properties":{"code":"71.01.20.2004","name":"Nonapan I"}},{"type":"Feature","geometry":{"type":"Polygon","coordinates":[[[124.258,1.002],[124.2515,1],[124.25,0.9875],[124.2495,0.9855],[124.25,0.9845],[124.25,0.9825],[124.2505,0.9765],[124.2515,0.969],[124.255,0.9675],[124.2585,0.9675],[124.259,0.9655],[124.2595,0.963],[124.2625,0.9545],[124.2635,0.9535],[124.2635,0.9565],[124.258,1.002]]]},"properties":{"code":"71.01.20.2005","name":"Wineru"}},{"type":"Feature","geometry":{"type":"Polygon","coordinates":[[[124.266,1],[124.258,1.002],[124.2635,0.9565],[124.2635,0.9495],[124.2715,0.9315],[124.283,0.931],[124.282,0.9285],[124.2805,0.9245],[124.2815,0.9225],[124.29,0.9075],[124.2905,0.8895],[124.2905,0.8855],[124.2885,0.8695],[124.2795,0.86],[124.272,0.851],[124.2685,0.843],[124.267,0.8375],[124.2675,0.8325],[124.268,0.8305],[124.286,0.8315],[124.2915,0.8415],[124.308,0.8525],[124.31,0.859],[124.326,0.86],[124.3285,0.8635],[124.33,0.8635],[124.3315,0.8605],[124.3335,0.8575],[124.335,0.865],[124.3445,0.8805],[124.3445,0.883],[124.3395,0.8855],[124.34,0.891],[124.34,0.8915],[124.341,0.896],[124.341,0.899],[124.339,0.9055],[124.335,0.9045],[124.3285,0.9035],[124.3265,0.904],[124.3295,0.9075],[124.327,0.9205],[124.312,0.9365],[124.2965,0.937],[124.2725,0.9555],[124.266,1]]]},"properties":{"code":"71.01.20.2006","name":"Gogaluman"}},{"type":"Feature","geometry":{"type":"Polygon","coordinates":[[[124.2985,1.0095],[124.2985,1.01],[124.298,1.011],[124.2865,1.003],[124.292,0.99],[124.305,0.9735],[124.306,0.974],[124.303,0.9815],[124.302,0.9835],[124.2935,0.9925],[124.2985,1.0095]]]},"properties":{"code":"71.01.20.2007","name":"Poigar I"}},{"type":"Feature","geometry":{"type":"Polygon","coordinates":[[[124.3055,1.0015],[124.3015,1.0025],[124.301,0.9945],[124.309,0.9835],[124.3095,0.98],[124.311,0.9825],[124.3165,0.99],[124.307,1.0015],[124.3055,1.0015]]]},"properties":{"code":"71.01.20.2008","name":"Nanasi"}},{"type":"Feature","geometry":{"type":"Polygon","coordinates":[[[124.3665,0.923],[124.3725,0.9495],[124.374,0.952],[124.3755,0.952],[124.375,0.9545],[124.3725,0.9565],[124.3705,0.9575],[124.3565,0.976],[124.3555,0.985],[124.352,0.986],[124.336,0.988],[124.334,0.988],[124.3335,0.99],[124.329,0.994],[124.3275,0.995],[124.3255,0.995],[124.3225,0.993],[124.321,0.991],[124.32,0.9885],[124.3195,0.9795],[124.32,0.974],[124.3255,0.952],[124.3205,0.9435],[124.3225,0.942],[124.324,0.9415],[124.327,0.934],[124.333,0.918],[124.3295,0.9075],[124.3265,0.904],[124.3285,0.9035],[124.335,0.9045],[124.339,0.9055],[124.341,0.9],[124.3465,0.9025],[124.3475,0.904],[124.352,0.9175],[124.353,0.9205],[124.359,0.9215],[124.3665,0.923]]]},"properties":{"code":"71.01.20.2009","name":"Pomoman"}},{"type":"Feature","geometry":{"type":"Polygon","coordinates":[[[124.2725,0.9555],[124.2935,0.962],[124.303,0.9715],[124.2805,1.0005],[124.266,1],[124.2725,0.9555]]]},"properties":{"code":"71.01.20.2010","name":"Tiberias"}},{"type":"Feature","geometry":{"type":"Polygon","coordinates":[[[124.3255,0.997],[124.3235,1.003],[124.322,1.001],[124.3175,1.004],[124.3185,1.0075],[124.316,1.0085],[124.306,1.006],[124.3055,1.0015],[124.308,1.0015],[124.309,1.001],[124.3105,1],[124.319,0.999],[124.3245,0.997],[124.3255,0.997]]]},"properties":{"code":"71.01.20.2011","name":"Mondatong"}},{"type":"Feature","geometry":{"type":"Polygon","coordinates":[[[124.305,0.9735],[124.292,0.99],[124.2865,1.003],[124.2805,1.0005],[124.303,0.9715],[124.2935,0.962],[124.2725,0.9555],[124.2965,0.937],[124.312,0.9365],[124.327,0.9205],[124.3295,0.9075],[124.333,0.918],[124.327,0.934],[124.324,0.9415],[124.3225,0.942],[124.3205,0.9435],[124.32,0.944],[124.3155,0.9455],[124.31,0.9485],[124.307,0.953],[124.3055,0.96],[124.305,0.9735]]]},"properties":{"code":"71.01.20.2012","name":"Poigar II"}},{"type":"Feature","geometry":{"type":"Polygon","coordinates":[[[124.2985,1.0095],[124.2935,0.9925],[124.302,0.9835],[124.303,0.9815],[124.306,0.974],[124.3075,0.977],[124.3095,0.98],[124.309,0.9835],[124.301,0.9945],[124.3015,1.0025],[124.2975,1.0025],[124.2985,1.0095]]]},"properties":{"code":"71.01.20.2013","name":"Poigar III"}},{"type":"Feature","geometry":{"type":"Polygon","coordinates":[[[124.1845,0.966],[124.1815,0.961],[124.181,0.96],[124.1785,0.9595],[124.178,0.9585],[124.1775,0.9555],[124.1795,0.9535],[124.1785,0.9435],[124.1985,0.937],[124.21,0.927],[124.2145,0.914],[124.23,0.8955],[124.23,0.896],[124.232,0.896],[124.233,0.8985],[124.232,0.907],[124.233,0.913],[124.2165,0.935],[124.2025,0.9485],[124.1945,0.9615],[124.1845,0.966]]]},"properties":{"code":"71.01.20.2014","name":"Mariri II"}},{"type":"Feature","geometry":{"type":"Polygon","coordinates":[[[124.233,0.913],[124.233,0.915],[124.232,0.9185],[124.231,0.9215],[124.22,0.935],[124.213,0.9545],[124.2005,0.957],[124.198,0.963],[124.1945,0.9665],[124.193,0.9685],[124.192,0.972],[124.191,0.9735],[124.1875,0.971],[124.1845,0.966],[124.1945,0.9615],[124.2025,0.9485],[124.2165,0.935],[124.233,0.913]]]},"properties":{"code":"71.01.20.2015","name":"Mariri I"}},{"type":"Feature","geometry":{"type":"Polygon","coordinates":[[[124.247,1.0005],[124.235,0.993],[124.2365,0.9895],[124.24,0.989],[124.247,1.0005]]]},"properties":{"code":"71.01.20.2016","name":"Nonapan Baru"}},{"type":"Feature","geometry":{"type":"Polygon","coordinates":[[[124.3105,1],[124.309,1.001],[124.308,1.0015],[124.307,1.0015],[124.3165,0.99],[124.311,0.9825],[124.309,0.9785],[124.3075,0.977],[124.306,0.974],[124.305,0.9735],[124.3055,0.96],[124.307,0.953],[124.31,0.9485],[124.3155,0.9455],[124.32,0.944],[124.3205,0.9435],[124.3255,0.952],[124.32,0.974],[124.3195,0.9795],[124.32,0.9885],[124.3205,0.99],[124.3105,1]]]},"properties":{"code":"71.01.20.2017","name":"Nanasi Timur"}},{"type":"Feature","geometry":{"type":"Polygon","coordinates":[[[124.2515,1],[124.247,1.0005],[124.24,0.989],[124.2425,0.9875],[124.2445,0.9865],[124.2475,0.9855],[124.2485,0.985],[124.2495,0.9845],[124.2495,0.9855],[124.25,0.9875],[124.2515,1]]]},"properties":{"code":"71.01.20.2018","name":"Nonapan"}},{"type":"Feature","geometry":{"type":"Polygon","coordinates":[[[124.1955,0.985],[124.1875,0.9795],[124.175,0.958],[124.1775,0.9555],[124.178,0.9585],[124.1785,0.9595],[124.181,0.96],[124.1815,0.961],[124.1845,0.966],[124.1875,0.971],[124.191,0.974],[124.1945,0.976],[124.198,0.9835],[124.1955,0.985]]]},"properties":{"code":"71.01.20.2019","name":"Tanjung Mariri"}},{"type":"Feature","geometry":{"type":"Polygon","coordinates":[[[124.3255,0.997],[124.3245,0.997],[124.319,0.999],[124.3105,1],[124.3205,0.99],[124.321,0.991],[124.3225,0.993],[124.3255,0.995],[124.325,0.996],[124.3255,0.997]]]},"properties":{"code":"71.01.20.2020","name":"Mondatong Baru"}},{"type":"Feature","geometry":{"type":"Polygon","coordinates":[[[124.387,0.865],[124.386,0.865],[124.383,0.8655],[124.381,0.868],[124.3795,0.871],[124.378,0.87],[124.376,0.8675],[124.371,0.862],[124.37,0.8595],[124.3695,0.857],[124.349,0.8325],[124.3485,0.8215],[124.348,0.82],[124.348,0.8185],[124.337,0.795],[124.334,0.7935],[124.333,0.7925],[124.3315,0.7885],[124.331,0.788],[124.3295,0.787],[124.328,0.7855],[124.328,0.7845],[124.3295,0.7835],[124.3315,0.782],[124.334,0.7795],[124.3365,0.7785],[124.339,0.7755],[124.344,0.777],[124.3465,0.7805],[124.3475,0.7815],[124.3515,0.806],[124.3585,0.814],[124.3805,0.847],[124.381,0.8535],[124.381,0.856],[124.3835,0.8605],[124.387,0.865]]]},"properties":{"code":"71.01.22.2003","name":"Pangian"}},{"type":"Feature","geometry":{"type":"Polygon","coordinates":[[[124.4025,0.776],[124.3965,0.7915],[124.388,0.7905],[124.3735,0.8015],[124.356,0.783],[124.3475,0.7815],[124.349,0.7765],[124.3565,0.7655],[124.36,0.765],[124.362,0.7565],[124.3665,0.758],[124.38,0.7615],[124.3815,0.7625],[124.383,0.765],[124.397,0.769],[124.418,0.769],[124.413,0.7735],[124.4125,0.7765],[124.4025,0.776]]]},"properties":{"code":"71.01.22.2004","name":"Poopo"}},{"type":"Feature","geometry":{"type":"Polygon","coordinates":[[[124.3945,0.8435],[124.392,0.845],[124.381,0.8535],[124.3805,0.847],[124.3585,0.814],[124.3515,0.806],[124.3475,0.7815],[124.356,0.783],[124.3735,0.8015],[124.3815,0.8145],[124.3825,0.8185],[124.3915,0.829],[124.394,0.84],[124.3945,0.8435]]]},"properties":{"code":"71.01.22.2005","name":"Manembo"}},{"type":"Feature","geometry":{"type":"Polygon","coordinates":[[[124.415,0.8025],[124.409,0.804],[124.41,0.809],[124.409,0.819],[124.394,0.84],[124.3915,0.829],[124.3825,0.8185],[124.382,0.817],[124.3855,0.816],[124.387,0.8155],[124.3915,0.814],[124.4055,0.804],[124.408,0.8],[124.41,0.799],[124.412,0.798],[124.413,0.7995],[124.4125,0.801],[124.415,0.8025]]]},"properties":{"code":"71.01.22.2006","name":"Sinsingon"}},{"type":"Feature","geometry":{"type":"Polygon","coordinates":[[[124.419,0.8075],[124.417,0.804],[124.4155,0.8035],[124.415,0.8025],[124.4125,0.801],[124.413,0.8005],[124.4125,0.799],[124.4115,0.7965],[124.4105,0.795],[124.409,0.79],[124.4025,0.776],[124.4125,0.7765],[124.412,0.779],[124.4125,0.7805],[124.4135,0.783],[124.424,0.8025],[124.423,0.8035],[124.421,0.8035],[124.4195,0.8065],[124.419,0.8075]]]},"properties":{"code":"71.01.22.2007","name":"Insil"}},{"type":"Feature","geometry":{"type":"Polygon","coordinates":[[[124.404,0.8585],[124.3985,0.8605],[124.3945,0.8605],[124.3925,0.861],[124.3915,0.8615],[124.3905,0.8615],[124.3895,0.863],[124.387,0.865],[124.3835,0.8605],[124.381,0.856],[124.381,0.8535],[124.392,0.845],[124.3965,0.843],[124.402,0.844],[124.4115,0.827],[124.415,0.8255],[124.435,0.822],[124.4355,0.823],[124.436,0.825],[124.4355,0.8275],[124.435,0.83],[124.435,0.8315],[124.4345,0.832],[124.4315,0.833],[124.427,0.8365],[124.424,0.8385],[124.4075,0.8505],[124.404,0.8585]]]},"properties":{"code":"71.01.22.2009","name":"Mobuya"}},{"type":"Feature","geometry":{"type":"Polygon","coordinates":[[[124.429,0.8],[124.4245,0.8],[124.424,0.8005],[124.424,0.8025],[124.4135,0.783],[124.4125,0.7805],[124.412,0.779],[124.413,0.7735],[124.418,0.769],[124.4235,0.7755],[124.4245,0.7785],[124.425,0.7795],[124.43,0.783],[124.434,0.786],[124.436,0.786],[124.435,0.7885],[124.434,0.7895],[124.4335,0.791],[124.4335,0.7955],[124.433,0.796],[124.4325,0.7965],[124.429,0.8]]]},"properties":{"code":"71.01.22.2012","name":"Insil Baru"}},{"type":"Feature","geometry":{"type":"Polygon","coordinates":[[[124.344,0.777],[124.339,0.7755],[124.3365,0.7785],[124.334,0.7795],[124.3315,0.782],[124.3295,0.7835],[124.328,0.7845],[124.3275,0.7835],[124.3275,0.7825],[124.3275,0.7795],[124.327,0.777],[124.3285,0.7775],[124.3295,0.7765],[124.33,0.7745],[124.344,0.7715],[124.344,0.776],[124.344,0.777]]]},"properties":{"code":"71.01.22.2013","name":"Pangian Tengah"}},{"type":"Feature","geometry":{"type":"Polygon","coordinates":[[[124.344,0.7715],[124.33,0.7745],[124.3295,0.7765],[124.3285,0.7775],[124.327,0.777],[124.3275,0.7745],[124.327,0.7745],[124.3255,0.7725],[124.3325,0.7695],[124.3375,0.769],[124.344,0.7685],[124.344,0.7715]]]},"properties":{"code":"71.01.22.2014","name":"Pangian Barat"}},{"type":"Feature","geometry":{"type":"Polygon","coordinates":[[[124.349,0.7765],[124.3475,0.7815],[124.3465,0.7805],[124.344,0.776],[124.344,0.7715],[124.344,0.7685],[124.346,0.7685],[124.3465,0.7665],[124.349,0.7765]]]},"properties":{"code":"71.01.22.2015","name":"Poopo Barat"}},{"type":"Feature","geometry":{"type":"Polygon","coordinates":[[[124.362,0.7565],[124.36,0.765],[124.3565,0.7655],[124.349,0.7765],[124.3465,0.7665],[124.3475,0.764],[124.351,0.761],[124.3545,0.758],[124.357,0.7555],[124.359,0.756],[124.362,0.7565]]]},"properties":{"code":"71.01.22.2016","name":"Poopo Selatan"}},{"type":"Feature","geometry":{"type":"Polygon","coordinates":[[[124.412,0.798],[124.41,0.799],[124.408,0.8],[124.4055,0.804],[124.3915,0.814],[124.387,0.8155],[124.3855,0.816],[124.382,0.817],[124.3815,0.8145],[124.3735,0.8015],[124.388,0.7905],[124.3965,0.7915],[124.4025,0.776],[124.409,0.79],[124.4105,0.795],[124.4115,0.7965],[124.412,0.798]]]},"properties":{"code":"71.01.22.2017","name":"Sinsingon Barat"}},{"type":"Feature","geometry":{"type":"Polygon","coordinates":[[[124.435,0.822],[124.415,0.8255],[124.4115,0.827],[124.402,0.844],[124.3965,0.843],[124.3945,0.8435],[124.394,0.84],[124.409,0.819],[124.41,0.809],[124.409,0.804],[124.415,0.8025],[124.4155,0.8035],[124.417,0.804],[124.419,0.8075],[124.4245,0.8125],[124.428,0.813],[124.4315,0.8155],[124.433,0.818],[124.432,0.818],[124.433,0.821],[124.435,0.8215],[124.435,0.822]]]},"properties":{"code":"71.01.22.2018","name":"Sinsingon Timur"}},{"type":"Feature","geometry":{"type":"Polygon","coordinates":[[[124.1505,0.914],[124.142,0.931],[124.132,0.9265],[124.132,0.9235],[124.154,0.8855],[124.158,0.88],[124.1655,0.8815],[124.1565,0.907],[124.1505,0.914]]]},"properties":{"code":"71.01.31.2001","name":"Ambang I"}},{"type":"Feature","geometry":{"type":"Polygon","coordinates":[[[124.154,0.8855],[124.132,0.9235],[124.132,0.9265],[124.1145,0.9215],[124.116,0.9005],[124.121,0.8975],[124.1405,0.887],[124.143,0.8855],[124.154,0.8855]]]},"properties":{"code":"71.01.31.2002","name":"Ambang II"}},{"type":"Feature","geometry":{"type":"Polygon","coordinates":[[[124.153,0.936],[124.1515,0.938],[124.1485,0.9355],[124.1505,0.914],[124.1565,0.907],[124.1655,0.8815],[124.172,0.8765],[124.174,0.8975],[124.17,0.905],[124.1615,0.915],[124.1605,0.917],[124.153,0.936]]]},"properties":{"code":"71.01.31.2003","name":"Tadoy"}},{"type":"Feature","geometry":{"type":"Polygon","coordinates":[[[124.16,0.942],[124.153,0.936],[124.1605,0.917],[124.1615,0.915],[124.17,0.905],[124.174,0.8975],[124.1795,0.9015],[124.181,0.904],[124.172,0.9235],[124.1615,0.928],[124.161,0.9295],[124.1615,0.9385],[124.16,0.9395],[124.16,0.9405],[124.16,0.942]]]},"properties":{"code":"71.01.31.2004","name":"Bolaang"}},{"type":"Feature","geometry":{"type":"Polygon","coordinates":[[[124.166,0.942],[124.165,0.943],[124.163,0.9445],[124.1655,0.9445],[124.166,0.9445],[124.165,0.947],[124.164,0.947],[124.162,0.9465],[124.161,0.944],[124.16,0.9405],[124.16,0.9395],[124.1615,0.9385],[124.161,0.9295],[124.1615,0.928],[124.172,0.9235],[124.181,0.904],[124.1795,0.9015],[124.174,0.8975],[124.172,0.8765],[124.175,0.8755],[124.177,0.8745],[124.18,0.874],[124.191,0.868],[124.1935,0.865],[124.2015,0.8645],[124.2045,0.866],[124.2065,0.8945],[124.1965,0.916],[124.1855,0.932],[124.166,0.942]]]},"properties":{"code":"71.01.31.2005","name":"Bantik"}},{"type":"Feature","geometry":{"type":"Polygon","coordinates":[[[124.1775,0.9555],[124.175,0.958],[124.164,0.947],[124.165,0.947],[124.166,0.9445],[124.1655,0.9445],[124.163,0.9445],[124.165,0.943],[124.166,0.942],[124.178,0.9545],[124.1775,0.9555]]]},"properties":{"code":"71.01.31.2006","name":"Lolan"}},{"type":"Feature","geometry":{"type":"Polygon","coordinates":[[[124.1505,0.914],[124.1485,0.9355],[124.142,0.931],[124.1505,0.914]]]},"properties":{"code":"71.01.31.2007","name":"Tadoy I"}},{"type":"Feature","geometry":{"type":"Polygon","coordinates":[[[124.16,0.942],[124.161,0.944],[124.162,0.9465],[124.1515,0.938],[124.153,0.936],[124.16,0.942]]]},"properties":{"code":"71.01.31.2008","name":"Bolaang Satu"}},{"type":"Feature","geometry":{"type":"Polygon","coordinates":[[[124.178,0.9545],[124.166,0.942],[124.1855,0.932],[124.1965,0.916],[124.2065,0.8945],[124.2045,0.866],[124.2015,0.8645],[124.206,0.8625],[124.209,0.862],[124.223,0.856],[124.2265,0.8635],[124.2285,0.8635],[124.232,0.8635],[124.235,0.865],[124.235,0.8695],[124.2395,0.8765],[124.237,0.8885],[124.236,0.891],[124.229,0.895],[124.23,0.8955],[124.2145,0.914],[124.21,0.927],[124.1985,0.937],[124.1785,0.9435],[124.1795,0.9535],[124.178,0.9545]]]},"properties":{"code":"71.01.31.2009","name":"Lolan Dua"}},{"type":"Feature","geometry":{"type":"Polygon","coordinates":[[[124.3125,0.7665],[124.308,0.766],[124.308,0.7665],[124.308,0.7695],[124.3075,0.769],[124.308,0.7675],[124.308,0.765],[124.308,0.7645],[124.3085,0.7645],[124.309,0.763],[124.312,0.7635],[124.3135,0.7645],[124.3125,0.7665]]]},"properties":{"code":"71.01.32.2001","name":"Bilalang III"}},{"type":"Feature","geometry":{"type":"Polygon","coordinates":[[[124.3165,0.771],[124.3135,0.769],[124.3125,0.7665],[124.3135,0.7645],[124.315,0.7655],[124.3165,0.771]]]},"properties":{"code":"71.01.32.2002","name":"Bilalang IV"}},{"type":"Feature","geometry":{"type":"Polygon","coordinates":[[[124.332,0.7895],[124.333,0.7925],[124.334,0.7935],[124.337,0.795],[124.348,0.8185],[124.3245,0.8015],[124.323,0.7915],[124.332,0.7895]]]},"properties":{"code":"71.01.32.2003","name":"Tudu Aog"}},{"type":"Feature","geometry":{"type":"Polygon","coordinates":[[[124.3695,0.857],[124.35,0.859],[124.3325,0.8575],[124.325,0.8495],[124.327,0.822],[124.318,0.7965],[124.323,0.7915],[124.3245,0.8015],[124.348,0.8185],[124.348,0.82],[124.3485,0.8215],[124.349,0.8325],[124.3695,0.857]]]},"properties":{"code":"71.01.32.2004","name":"Tudu Aog Baru"}},{"type":"Feature","geometry":{"type":"Polygon","coordinates":[[[124.3665,0.923],[124.359,0.9215],[124.353,0.9205],[124.352,0.9175],[124.3475,0.904],[124.3465,0.9025],[124.341,0.9],[124.341,0.899],[124.341,0.896],[124.34,0.8915],[124.34,0.891],[124.3395,0.8855],[124.3445,0.883],[124.3445,0.8805],[124.335,0.865],[124.3335,0.8575],[124.35,0.859],[124.3695,0.857],[124.37,0.8595],[124.371,0.862],[124.376,0.8675],[124.378,0.87],[124.3795,0.871],[124.3795,0.8735],[124.38,0.888],[124.3795,0.89],[124.3775,0.901],[124.378,0.904],[124.3775,0.9075],[124.3725,0.918],[124.3705,0.9185],[124.369,0.919],[124.366,0.921],[124.3665,0.923]]]},"properties":{"code":"71.01.32.2005","name":"Kolinganga'an"}},{"type":"Feature","geometry":{"type":"Polygon","coordinates":[[[124.313,0.7685],[124.31,0.771],[124.307,0.7695],[124.308,0.7695],[124.308,0.7665],[124.308,0.766],[124.3125,0.7665],[124.313,0.7685]]]},"properties":{"code":"71.01.32.2006","name":"Bilalang III Utara"}},{"type":"Feature","geometry":{"type":"Polygon","coordinates":[[[124.323,0.7915],[124.318,0.7965],[124.3115,0.794],[124.305,0.776],[124.308,0.77],[124.31,0.771],[124.313,0.7685],[124.3135,0.769],[124.3165,0.771],[124.3165,0.772],[124.321,0.7745],[124.3255,0.7725],[124.327,0.7745],[124.3275,0.775],[124.327,0.776],[124.327,0.7775],[124.3275,0.779],[124.3275,0.7825],[124.3275,0.7835],[124.328,0.7855],[124.3295,0.787],[124.331,0.788],[124.332,0.7895],[124.323,0.7915]]]},"properties":{"code":"71.01.32.2007","name":"Bilalang Baru"}},{"type":"Feature","geometry":{"type":"Polygon","coordinates":[[[124.3335,0.8575],[124.3315,0.8605],[124.33,0.8635],[124.3285,0.8635],[124.326,0.86],[124.31,0.859],[124.3085,0.853],[124.315,0.8485],[124.3115,0.8335],[124.314,0.8165],[124.3155,0.8145],[124.3115,0.794],[124.318,0.7965],[124.327,0.822],[124.325,0.8495],[124.3325,0.8575],[124.3335,0.8575]]]},"properties":{"code":"71.01.32.2008","name":"Apado"}},{"type":"Feature","geometry":{"type":"Polygon","coordinates":[[[124.154,0.737],[124.143,0.733],[124.1275,0.7355],[124.1165,0.728],[124.116,0.726],[124.1155,0.725],[124.1115,0.7235],[124.109,0.7225],[124.111,0.7085],[124.1165,0.7035],[124.118,0.7005],[124.117,0.699],[124.1185,0.699],[124.1215,0.698],[124.1225,0.6965],[124.1235,0.695],[124.1225,0.6935],[124.126,0.693],[124.127,0.693],[124.1305,0.695],[124.13,0.6955],[124.131,0.7],[124.132,0.7005],[124.149,0.6985],[124.165,0.7275],[124.1655,0.7305],[124.167,0.7315],[124.1665,0.732],[124.166,0.7325],[124.1555,0.7365],[124.154,0.737]]]},"properties":{"code":"71.01.33.2001","name":"Serasi"}},{"type":"Feature","geometry":{"type":"Polygon","coordinates":[[[124.19,0.727],[124.189,0.727],[124.186,0.7265],[124.176,0.7325],[124.174,0.7335],[124.17,0.7325],[124.167,0.732],[124.1665,0.732],[124.167,0.7315],[124.1655,0.7305],[124.165,0.7275],[124.149,0.6985],[124.168,0.692],[124.1735,0.686],[124.179,0.6815],[124.189,0.6785],[124.1925,0.681],[124.195,0.682],[124.1995,0.6825],[124.203,0.6845],[124.2065,0.6865],[124.2075,0.6885],[124.2075,0.69],[124.208,0.6915],[124.2125,0.698],[124.2135,0.7],[124.2135,0.702],[124.211,0.719],[124.1905,0.7255],[124.19,0.727]]]},"properties":{"code":"71.01.33.2002","name":"Kanaan"}},{"type":"Feature","geometry":{"type":"Polygon","coordinates":[[[124.2195,0.678],[124.216,0.6785],[124.2085,0.6805],[124.207,0.687],[124.2065,0.6865],[124.203,0.6845],[124.1995,0.6825],[124.195,0.682],[124.1925,0.681],[124.189,0.6785],[124.179,0.6815],[124.176,0.68],[124.177,0.6795],[124.178,0.6765],[124.178,0.6755],[124.1765,0.6745],[124.1725,0.6555],[124.1705,0.652],[124.1695,0.6205],[124.18,0.5895],[124.1815,0.591],[124.182,0.5925],[124.185,0.5955],[124.1905,0.61],[124.191,0.612],[124.1895,0.6245],[124.1895,0.627],[124.191,0.63],[124.191,0.6335],[124.1905,0.6345],[124.1905,0.635],[124.1915,0.6365],[124.1915,0.6405],[124.192,0.6435],[124.1895,0.6595],[124.205,0.6725],[124.2065,0.672],[124.208,0.6735],[124.21,0.6755],[124.2105,0.676],[124.218,0.6765],[124.2195,0.678]]]},"properties":{"code":"71.01.33.2003","name":"Toruakat"}},{"type":"Feature","geometry":{"type":"Polygon","coordinates":[[[124.149,0.6985],[124.132,0.7005],[124.131,0.7],[124.13,0.6955],[124.1305,0.695],[124.129,0.6935],[124.129,0.69],[124.1265,0.6895],[124.121,0.6865],[124.118,0.684],[124.12,0.683],[124.1205,0.6815],[124.128,0.6795],[124.129,0.677],[124.1365,0.6765],[124.147,0.6735],[124.1495,0.673],[124.1505,0.6705],[124.1575,0.6665],[124.164,0.656],[124.171,0.6535],[124.1725,0.6555],[124.1765,0.6745],[124.178,0.6755],[124.178,0.6765],[124.177,0.6795],[124.176,0.68],[124.1735,0.686],[124.168,0.692],[124.149,0.6985]]]},"properties":{"code":"71.01.33.2004","name":"Pusian"}},{"type":"Feature","geometry":{"type":"Polygon","coordinates":[[[124.144,0.6365],[124.141,0.648],[124.1495,0.6555],[124.153,0.668],[124.129,0.676],[124.129,0.6685],[124.1265,0.642],[124.1385,0.6335],[124.1395,0.6355],[124.1395,0.636],[124.1405,0.636],[124.143,0.6355],[124.144,0.6365]]]},"properties":{"code":"71.01.33.2005","name":"Ponompiaan"}},{"type":"Feature","geometry":{"type":"Polygon","coordinates":[[[124.1265,0.642],[124.129,0.6685],[124.129,0.673],[124.123,0.672],[124.123,0.6715],[124.1195,0.667],[124.1215,0.6475],[124.1265,0.642]]]},"properties":{"code":"71.01.33.2006","name":"Mototabian"}},{"type":"Feature","geometry":{"type":"Polygon","coordinates":[[[124.129,0.6935],[124.127,0.693],[124.126,0.693],[124.1225,0.6935],[124.1235,0.695],[124.1225,0.6965],[124.1215,0.698],[124.1185,0.699],[124.117,0.699],[124.118,0.7005],[124.1165,0.7035],[124.111,0.7085],[124.109,0.7225],[124.108,0.7225],[124.1085,0.7225],[124.1005,0.7145],[124.0695,0.719],[124.068,0.7175],[124.0585,0.717],[124.057,0.7],[124.057,0.6985],[124.0575,0.6975],[124.059,0.697],[124.0595,0.696],[124.0595,0.6905],[124.0615,0.6855],[124.066,0.6785],[124.083,0.664],[124.0895,0.663],[124.093,0.661],[124.0975,0.6605],[124.0985,0.6635],[124.1165,0.648],[124.118,0.646],[124.1215,0.6475],[124.1195,0.667],[124.123,0.6715],[124.123,0.6725],[124.1205,0.6735],[124.1175,0.6825],[124.118,0.684],[124.121,0.6865],[124.1265,0.6895],[124.129,0.69],[124.129,0.6935]]]},"properties":{"code":"71.01.33.2007","name":"Bumbungon"}},{"type":"Feature","geometry":{"type":"MultiPolygon","coordinates":[[[[124.0975,0.6605],[124.093,0.661],[124.0895,0.663],[124.083,0.664],[124.066,0.6785],[124.0615,0.6855],[124.0595,0.6905],[124.0595,0.696],[124.059,0.697],[124.0575,0.6975],[124.0585,0.696],[124.059,0.6945],[124.057,0.6905],[124.0555,0.6895],[124.0515,0.6895],[124.047,0.687],[124.05,0.6695],[124.0505,0.667],[124.047,0.659],[124.0465,0.6585],[124.0505,0.6495],[124.0675,0.6445],[124.07,0.645],[124.073,0.6435],[124.0845,0.633],[124.109,0.6305],[124.116,0.6215],[124.1165,0.609],[124.1165,0.6095],[124.1295,0.598],[124.132,0.5985],[124.1235,0.622],[124.1295,0.626],[124.1105,0.6445],[124.095,0.6505],[124.093,0.65],[124.0915,0.6515],[124.0985,0.6585],[124.097,0.66],[124.0975,0.6605]]],[[[124.01,0.728],[124.0025,0.728],[123.998,0.73],[123.9975,0.7275],[123.999,0.727],[124,0.7225],[124.0035,0.7205],[124.001,0.708],[124.009,0.7045],[124.0155,0.688],[124.0205,0.687],[124.022,0.6855],[124.0225,0.6855],[124.022,0.6875],[124.02,0.693],[124.0335,0.7085],[124.034,0.7245],[124.0295,0.7285],[124.026,0.7285],[124.019,0.725],[124.0125,0.7285],[124.01,0.728]]]]},"properties":{"code":"71.01.33.2008","name":"Siniyung"}},{"type":"Feature","geometry":{"type":"Polygon","coordinates":[[[124.1215,0.6475],[124.118,0.646],[124.1165,0.648],[124.0985,0.6635],[124.0985,0.6615],[124.097,0.66],[124.0985,0.6585],[124.0915,0.6515],[124.093,0.65],[124.095,0.6505],[124.1105,0.6445],[124.1295,0.626],[124.143,0.6355],[124.1405,0.636],[124.1395,0.636],[124.1395,0.6355],[124.1385,0.6335],[124.1265,0.642],[124.1215,0.6475]]]},"properties":{"code":"71.01.33.2009","name":"Siniyung Satu"}},{"type":"Feature","geometry":{"type":"Polygon","coordinates":[[[124.1165,0.609],[124.116,0.6215],[124.109,0.6305],[124.0845,0.633],[124.08,0.6315],[124.078,0.6295],[124.0795,0.6285],[124.0805,0.626],[124.0785,0.624],[124.0775,0.623],[124.0775,0.6215],[124.082,0.6205],[124.092,0.62],[124.1085,0.613],[124.1125,0.61],[124.114,0.609],[124.1155,0.609],[124.1165,0.609]]]},"properties":{"code":"71.01.33.2010","name":"Dumoga Satu"}},{"type":"Feature","geometry":{"type":"Polygon","coordinates":[[[124.171,0.6535],[124.164,0.656],[124.1585,0.643],[124.149,0.64],[124.1235,0.622],[124.132,0.5985],[124.1345,0.598],[124.1365,0.598],[124.1445,0.5945],[124.148,0.5915],[124.1515,0.5835],[124.165,0.578],[124.169,0.578],[124.1785,0.588],[124.18,0.5895],[124.1695,0.6205],[124.1705,0.652],[124.171,0.6535]]]},"properties":{"code":"71.01.33.2011","name":"Pusian Selatan"}},{"type":"Feature","geometry":{"type":"Polygon","coordinates":[[[124.164,0.656],[124.1575,0.6665],[124.1505,0.6705],[124.1495,0.673],[124.147,0.6735],[124.1365,0.6765],[124.129,0.677],[124.128,0.6795],[124.1205,0.6815],[124.12,0.683],[124.118,0.684],[124.1175,0.6825],[124.1205,0.6735],[124.123,0.6725],[124.123,0.672],[124.129,0.673],[124.129,0.676],[124.153,0.668],[124.1495,0.6555],[124.141,0.648],[124.144,0.6365],[124.149,0.64],[124.1585,0.643],[124.164,0.656]]]},"properties":{"code":"71.01.33.2012","name":"Pusian Barat"}},{"type":"Feature","geometry":{"type":"MultiPolygon","coordinates":[[[[123.998,0.537],[123.998,0.538],[123.9975,0.538],[123.998,0.5385],[123.9975,0.538],[123.998,0.537]]],[[[124.0005,0.5545],[124.001,0.555],[124.0015,0.562],[124.0005,0.561],[123.9865,0.553],[123.992,0.543],[123.9925,0.543],[124.001,0.549],[124.0005,0.5545]]]]},"properties":{"code":"71.01.34.2001","name":"Bonawang"}},{"type":"Feature","geometry":{"type":"Polygon","coordinates":[[[124.005,0.575],[124.004,0.575],[124.004,0.5765],[124.0015,0.579],[124.002,0.58],[123.9995,0.5775],[123.9935,0.5745],[124.0015,0.562],[124.001,0.555],[124.0005,0.5545],[124.001,0.549],[124.0025,0.5415],[124.003,0.544],[124.006,0.5445],[124.0065,0.545],[124.0095,0.548],[124.0125,0.5525],[124.0125,0.553],[124.0125,0.5535],[124.014,0.5545],[124.016,0.552],[124.018,0.5535],[124.0185,0.5545],[124.018,0.556],[124.015,0.5635],[124.0135,0.5635],[124.0085,0.5635],[124.0065,0.564],[124.004,0.5705],[124.005,0.575]]]},"properties":{"code":"71.01.34.2002","name":"Tapadaka Satu"}},{"type":"Feature","geometry":{"type":"Polygon","coordinates":[[[123.966,0.6805],[123.9485,0.678],[123.947,0.677],[123.941,0.6575],[123.9405,0.6575],[123.9395,0.6545],[123.945,0.6495],[123.9475,0.649],[123.967,0.628],[123.973,0.615],[123.982,0.607],[123.9935,0.5745],[123.9995,0.5775],[124.002,0.58],[124.001,0.582],[123.9985,0.5905],[123.9975,0.5925],[123.998,0.594],[123.997,0.598],[123.995,0.6005],[123.9945,0.603],[123.9885,0.6135],[123.9845,0.6335],[123.976,0.641],[123.975,0.644],[123.9745,0.6465],[123.9735,0.653],[123.9745,0.659],[123.966,0.6805]]]},"properties":{"code":"71.01.34.2003","name":"Tapadaka Utara"}},{"type":"Feature","geometry":{"type":"Polygon","coordinates":[[[124.017,0.5805],[124.0095,0.587],[124.0035,0.587],[124,0.592],[123.9985,0.592],[123.998,0.5925],[123.9975,0.5925],[123.9985,0.5905],[124.001,0.582],[124.002,0.58],[124.0015,0.579],[124.004,0.5765],[124.004,0.575],[124.005,0.575],[124.0065,0.573],[124.013,0.577],[124.0175,0.5795],[124.017,0.5805]]]},"properties":{"code":"71.01.34.2004","name":"Tapadaka Timur"}},{"type":"Feature","geometry":{"type":"Polygon","coordinates":[[[124.042,0.592],[124.0395,0.595],[124.0245,0.59],[124.0295,0.5805],[124.0295,0.5795],[124.0305,0.58],[124.03,0.5805],[124.031,0.5805],[124.0305,0.582],[124.0325,0.583],[124.0315,0.5845],[124.042,0.592]]]},"properties":{"code":"71.01.34.2005","name":"Konarom"}},{"type":"Feature","geometry":{"type":"Polygon","coordinates":[[[124.0245,0.59],[124.016,0.615],[124.0015,0.62],[123.999,0.629],[123.987,0.646],[123.991,0.6525],[123.989,0.676],[123.991,0.687],[123.99,0.687],[123.9865,0.687],[123.9755,0.6795],[123.969,0.68],[123.9675,0.6805],[123.966,0.6805],[123.9745,0.659],[123.9735,0.653],[123.9745,0.6465],[123.975,0.644],[123.976,0.641],[123.9845,0.6335],[123.9885,0.6135],[123.9945,0.603],[123.995,0.6005],[123.997,0.598],[123.998,0.594],[123.9975,0.5925],[123.998,0.5925],[123.9985,0.592],[124,0.592],[124.0035,0.587],[124.0095,0.587],[124.017,0.5805],[124.0245,0.569],[124.0265,0.5715],[124.03,0.5715],[124.031,0.575],[124.0295,0.5805],[124.0245,0.59]]]},"properties":{"code":"71.01.34.2006","name":"Konarom Barat"}},{"type":"Feature","geometry":{"type":"Polygon","coordinates":[[[123.998,0.73],[123.997,0.73],[123.9905,0.7285],[123.99,0.7275],[123.9935,0.715],[123.9935,0.713],[123.9885,0.708],[123.9885,0.706],[123.9905,0.693],[123.99,0.691],[123.9915,0.6875],[123.991,0.687],[123.989,0.676],[123.991,0.6525],[123.987,0.646],[123.999,0.629],[124.0015,0.62],[124.016,0.615],[124.0245,0.59],[124.0395,0.595],[124.0405,0.5965],[124.0345,0.5975],[124.0165,0.6205],[124.014,0.623],[124.0135,0.623],[124.0135,0.6255],[124.0075,0.6465],[124.009,0.6525],[124.01,0.6545],[124.009,0.659],[124.0055,0.663],[124.0065,0.665],[124.019,0.676],[124.0205,0.678],[124.0225,0.685],[124.0225,0.6855],[124.022,0.6855],[124.0205,0.687],[124.0155,0.688],[124.009,0.7045],[124.001,0.708],[124.0035,0.7205],[124,0.7225],[123.999,0.727],[123.9975,0.7275],[123.998,0.73]]]},"properties":{"code":"71.01.34.2007","name":"Konarom Utara"}},{"type":"Feature","geometry":{"type":"Polygon","coordinates":[[[124.055,0.5815],[124.051,0.5845],[124.0425,0.591],[124.042,0.592],[124.0315,0.5845],[124.0325,0.583],[124.0305,0.582],[124.031,0.5805],[124.03,0.5805],[124.0305,0.58],[124.0295,0.5795],[124.031,0.575],[124.03,0.5715],[124.0305,0.5715],[124.031,0.571],[124.0315,0.5695],[124.038,0.575],[124.042,0.576],[124.0455,0.577],[124.0455,0.5795],[124.055,0.5815]]]},"properties":{"code":"71.01.34.2008","name":"Osion"}},{"type":"Feature","geometry":{"type":"Polygon","coordinates":[[[124.0395,0.726],[124.038,0.7255],[124.0295,0.7285],[124.034,0.7245],[124.0335,0.7085],[124.02,0.693],[124.022,0.6875],[124.0225,0.685],[124.0205,0.678],[124.019,0.676],[124.0065,0.665],[124.0055,0.663],[124.009,0.659],[124.01,0.6545],[124.009,0.6525],[124.0075,0.6465],[124.0135,0.6255],[124.0135,0.623],[124.014,0.623],[124.0165,0.6205],[124.0345,0.5975],[124.0405,0.5965],[124.0425,0.6005],[124.046,0.6025],[124.0455,0.603],[124.0445,0.6055],[124.044,0.6065],[124.041,0.6105],[124.0395,0.6115],[124.0395,0.612],[124.038,0.6285],[124.0325,0.6365],[124.033,0.6405],[124.0355,0.644],[124.039,0.647],[124.0415,0.65],[124.0405,0.656],[124.047,0.659],[124.0505,0.667],[124.05,0.6695],[124.047,0.687],[124.0515,0.6895],[124.0555,0.6895],[124.057,0.6905],[124.059,0.6945],[124.0585,0.696],[124.057,0.698],[124.057,0.699],[124.057,0.7],[124.0585,0.717],[124.057,0.719],[124.053,0.7195],[124.0395,0.726]]]},"properties":{"code":"71.01.34.2009","name":"Ikuna"}},{"type":"Feature","geometry":{"type":"Polygon","coordinates":[[[124.048,0.6],[124.046,0.601],[124.0425,0.6005],[124.0405,0.5965],[124.0395,0.595],[124.0425,0.591],[124.051,0.5845],[124.055,0.5815],[124.056,0.581],[124.056,0.579],[124.057,0.579],[124.0605,0.584],[124.064,0.586],[124.0655,0.5865],[124.0645,0.588],[124.064,0.5885],[124.0585,0.593],[124.0545,0.595],[124.0505,0.5965],[124.0495,0.597],[124.0485,0.598],[124.048,0.599],[124.048,0.6]]]},"properties":{"code":"71.01.34.2010","name":"Dumara"}},{"type":"Feature","geometry":{"type":"Polygon","coordinates":[[[124.03,0.56],[124.018,0.5645],[124.0205,0.5685],[124.013,0.577],[124.0065,0.573],[124.005,0.575],[124.004,0.5705],[124.0065,0.564],[124.0085,0.5635],[124.0135,0.5635],[124.015,0.5635],[124.018,0.556],[124.0185,0.5545],[124.018,0.5535],[124.0175,0.5515],[124.022,0.5455],[124.0255,0.549],[124.0265,0.549],[124.03,0.56]]]},"properties":{"code":"71.01.35.2001","name":"Ibolian"}},{"type":"Feature","geometry":{"type":"Polygon","coordinates":[[[124.03,0.5715],[124.0265,0.5715],[124.0245,0.569],[124.017,0.5805],[124.0175,0.5795],[124.013,0.577],[124.0205,0.5685],[124.018,0.5645],[124.03,0.56],[124.033,0.561],[124.0325,0.562],[124.0285,0.5675],[124.0295,0.5685],[124.0295,0.5695],[124.0305,0.5715],[124.03,0.5715]]]},"properties":{"code":"71.01.35.2002","name":"Ibolian Satu"}},{"type":"Feature","geometry":{"type":"Polygon","coordinates":[[[124.0175,0.5515],[124.016,0.552],[124.014,0.5545],[124.0125,0.5535],[124.0125,0.553],[124.0125,0.5525],[124.0095,0.548],[124.0065,0.545],[124.006,0.5445],[124.0165,0.523],[124.0345,0.5085],[124.046,0.5075],[124.0495,0.512],[124.051,0.513],[124.0505,0.526],[124.048,0.5315],[124.045,0.533],[124.038,0.5355],[124.0255,0.5255],[124.0115,0.5375],[124.022,0.5455],[124.0175,0.5515]]]},"properties":{"code":"71.01.35.2003","name":"Kinomaligan"}},{"type":"Feature","geometry":{"type":"Polygon","coordinates":[[[123.9995,0.538],[123.9985,0.5385],[123.998,0.5385],[123.9975,0.538],[123.998,0.538],[123.998,0.537],[123.998,0.5365],[123.9935,0.5355],[123.9915,0.536],[123.985,0.506],[123.9885,0.5065],[123.9905,0.5045],[124.009,0.4925],[124.021,0.4935],[124.026,0.486],[124.0265,0.4865],[124.032,0.487],[124.0325,0.4875],[124.033,0.4925],[124.033,0.493],[124.034,0.4935],[124.004,0.52],[123.9995,0.538]]]},"properties":{"code":"71.01.35.2004","name":"Kosio"}},{"type":"Feature","geometry":{"type":"Polygon","coordinates":[[[124.046,0.5075],[124.0345,0.5085],[124.0165,0.523],[124.006,0.5445],[124.003,0.544],[124.002,0.5395],[124.0025,0.5385],[123.9995,0.538],[124.004,0.52],[124.034,0.4935],[124.0355,0.4945],[124.0405,0.496],[124.046,0.4965],[124.0475,0.5045],[124.046,0.5075]]]},"properties":{"code":"71.01.35.2005","name":"Kosio Timur"}},{"type":"Feature","geometry":{"type":"Polygon","coordinates":[[[123.9915,0.536],[123.99,0.539],[123.9905,0.54],[123.9905,0.541],[123.99,0.5415],[123.988,0.5405],[123.9885,0.5385],[123.987,0.5385],[123.984,0.539],[123.9825,0.538],[123.9845,0.521],[123.9745,0.508],[123.9735,0.5075],[123.9755,0.5065],[123.976,0.5065],[123.9775,0.5065],[123.9795,0.505],[123.983,0.505],[123.985,0.506],[123.9915,0.536]]]},"properties":{"code":"71.01.35.2006","name":"Kasio Barat"}},{"type":"Feature","geometry":{"type":"Polygon","coordinates":[[[124.0385,0.555],[124.036,0.556],[124.0265,0.549],[124.0255,0.549],[124.027,0.548],[124.038,0.5355],[124.045,0.533],[124.048,0.5315],[124.0505,0.526],[124.051,0.537],[124.0365,0.5425],[124.0385,0.555]]]},"properties":{"code":"71.01.35.2007","name":"Werdhi Agung"}},{"type":"Feature","geometry":{"type":"Polygon","coordinates":[[[124.038,0.5355],[124.027,0.548],[124.0255,0.549],[124.022,0.5455],[124.0115,0.5375],[124.0255,0.5255],[124.038,0.5355]]]},"properties":{"code":"71.01.35.2008","name":"Werdhi Agung Selatan"}},{"type":"Feature","geometry":{"type":"Polygon","coordinates":[[[124.036,0.556],[124.0355,0.5565],[124.034,0.558],[124.034,0.559],[124.0335,0.5595],[124.0325,0.5605],[124.033,0.561],[124.03,0.56],[124.0265,0.549],[124.036,0.556]]]},"properties":{"code":"71.01.35.2009","name":"Werdhi Agung Utara"}},{"type":"Feature","geometry":{"type":"Polygon","coordinates":[[[124.047,0.5545],[124.0385,0.555],[124.0365,0.5425],[124.051,0.537],[124.047,0.5545]]]},"properties":{"code":"71.01.35.2010","name":"Werdhi Agung Timur"}}]}