{"type":"FeatureCollection","features":[{"type":"Feature","geometry":{"type":"MultiPolygon","coordinates":[[[[124.798,1.0455],[124.798,1.0465],[124.7965,1.0465],[124.7875,1.039],[124.7875,1.037],[124.7865,1.0365],[124.7855,1.0365],[124.778,1.0205],[124.7865,1.0165],[124.7795,0.999],[124.7795,0.995],[124.7845,0.991],[124.792,0.9905],[124.795,0.993],[124.795,0.995],[124.795,0.9965],[124.7945,0.998],[124.7955,1.003],[124.792,1.0075],[124.7895,1.038],[124.798,1.0455]]],[[[124.803,1.049],[124.804,1.055],[124.8015,1.057],[124.7995,1.053],[124.801,1.0505],[124.803,1.049]]]]},"properties":{"code":"71.07.01.1004","name":"Tosuraya","latitude":1.0164325975376505,"longitude":124.7879763547081}},{"type":"Feature","geometry":{"type":"Polygon","coordinates":[[[124.803,1.049],[124.801,1.0505],[124.8,1.05],[124.7985,1.049],[124.798,1.0475],[124.798,1.0465],[124.8035,1.0405],[124.8075,1.0155],[124.8035,1.006],[124.803,1.001],[124.8005,1.0005],[124.802,0.9985],[124.8025,0.997],[124.8055,0.9985],[124.809,1.0005],[124.809,1.0025],[124.808,1.0035],[124.808,1.006],[124.8145,1.013],[124.81,1.032],[124.8165,1.046],[124.8165,1.047],[124.803,1.049]]]},"properties":{"code":"71.07.01.1005","name":"Wawali","latitude":1.028455412344968,"longitude":124.80784404856584}},{"type":"Feature","geometry":{"type":"Polygon","coordinates":[[[124.8385,1.0555],[124.838,1.0585],[124.836,1.0605],[124.832,1.0615],[124.8305,1.062],[124.82,1.0575],[124.8045,1.0595],[124.8045,1.058],[124.8035,1.056],[124.803,1.056],[124.804,1.055],[124.803,1.049],[124.8165,1.047],[124.817,1.0485],[124.8175,1.049],[124.8165,1.053],[124.82,1.0545],[124.8385,1.0555]]]},"properties":{"code":"71.07.01.1008","name":"Lowu Dua","latitude":1.0556112169375145,"longitude":124.81816813308295}},{"type":"Feature","geometry":{"type":"Polygon","coordinates":[[[124.8045,1.0595],[124.7955,1.0835],[124.783,1.103],[124.7775,1.1015],[124.77,1.0965],[124.767,1.098],[124.767,1.097],[124.768,1.0935],[124.767,1.091],[124.78,1.0775],[124.7805,1.059],[124.7895,1.05],[124.8005,1.0575],[124.803,1.056],[124.8035,1.056],[124.8045,1.058],[124.8045,1.0595]]]},"properties":{"code":"71.07.01.1009","name":"Lowu Satu","latitude":1.0758084594224153,"longitude":124.78643946739572}},{"type":"Feature","geometry":{"type":"Polygon","coordinates":[[[124.8135,1.0955],[124.812,1.096],[124.81,1.098],[124.8085,1.0985],[124.802,1.1035],[124.7915,1.1125],[124.7855,1.1065],[124.7845,1.1035],[124.783,1.103],[124.7955,1.0835],[124.8045,1.0595],[124.8095,1.069],[124.8125,1.0685],[124.8125,1.069],[124.8125,1.0695],[124.813,1.0715],[124.8125,1.075],[124.8135,1.0785],[124.8135,1.0805],[124.813,1.082],[124.807,1.0935],[124.8135,1.0955]]]},"properties":{"code":"71.07.01.1016","name":"Lowu Utara","latitude":1.0892291964499243,"longitude":124.80000466560298}},{"type":"Feature","geometry":{"type":"Polygon","coordinates":[[[124.8365,1.0675],[124.83,1.0745],[124.8305,1.071],[124.825,1.0735],[124.813,1.0705],[124.8125,1.069],[124.8125,1.0685],[124.8095,1.069],[124.8045,1.0595],[124.82,1.0575],[124.8305,1.062],[124.831,1.062],[124.8365,1.0675]]]},"properties":{"code":"71.07.01.1017","name":"Nataan","latitude":1.0659029956605879,"longitude":124.82088692734071}},{"type":"Feature","geometry":{"type":"Polygon","coordinates":[[[124.8015,1.057],[124.8005,1.0575],[124.7895,1.05],[124.7805,1.059],[124.78,1.0775],[124.767,1.091],[124.7665,1.09],[124.7675,1.088],[124.7755,1.074],[124.7775,1.0685],[124.7765,1.0535],[124.7775,1.0485],[124.7785,1.048],[124.778,1.0465],[124.7865,1.046],[124.788,1.044],[124.7885,1.044],[124.789,1.045],[124.791,1.048],[124.7945,1.0485],[124.7945,1.0495],[124.7955,1.051],[124.7995,1.053],[124.8015,1.057]]]},"properties":{"code":"71.07.01.1018","name":"Tosuraya Barat","latitude":1.0617965197102286,"longitude":124.78174375156192}},{"type":"Feature","geometry":{"type":"Polygon","coordinates":[[[124.7995,1.053],[124.7955,1.051],[124.7945,1.0495],[124.7945,1.0485],[124.791,1.048],[124.789,1.045],[124.7885,1.043],[124.7875,1.0415],[124.7865,1.0405],[124.7865,1.039],[124.786,1.0365],[124.7875,1.037],[124.7875,1.039],[124.7965,1.0465],[124.798,1.0465],[124.798,1.0475],[124.7985,1.049],[124.8,1.05],[124.801,1.0505],[124.7995,1.053]]]},"properties":{"code":"71.07.01.1019","name":"Tosuraya Selatan","latitude":1.0465992443330736,"longitude":124.79372161314997}},{"type":"Feature","geometry":{"type":"Polygon","coordinates":[[[124.8025,0.997],[124.802,0.9985],[124.8005,1.0005],[124.803,1.001],[124.8035,1.006],[124.8075,1.0155],[124.8035,1.0405],[124.798,1.0465],[124.798,1.0455],[124.7895,1.038],[124.792,1.0075],[124.7955,1.003],[124.7945,0.998],[124.795,0.9965],[124.795,0.995],[124.795,0.993],[124.799,0.996],[124.8025,0.997]]]},"properties":{"code":"71.07.01.1020","name":"Wawali Pasan","latitude":1.0205035388276573,"longitude":124.79859217285345}},{"type":"Feature","geometry":{"type":"Polygon","coordinates":[[[124.767,1.098],[124.7655,1.0985],[124.7635,1.0965],[124.7605,1.091],[124.7555,1.0615],[124.764,1.046],[124.7675,1.0225],[124.7625,1.017],[124.7615,1.0135],[124.761,1.012],[124.7605,1.01],[124.7615,1.008],[124.7615,1.006],[124.761,1.0015],[124.7635,1.007],[124.7645,1.0075],[124.769,1.005],[124.7735,1.022],[124.7745,1.0415],[124.7735,1.043],[124.7755,1.049],[124.7765,1.0505],[124.7695,1.0725],[124.769,1.082],[124.7665,1.09],[124.767,1.091],[124.768,1.0935],[124.767,1.097],[124.767,1.098]]]},"properties":{"code":"71.07.01.2003","name":"Rasi","latitude":1.0521787740299262,"longitude":124.76618578502017}},{"type":"Feature","geometry":{"type":"Polygon","coordinates":[[[124.7885,1.044],[124.788,1.044],[124.7865,1.046],[124.778,1.0465],[124.7785,1.048],[124.7775,1.0485],[124.7765,1.0535],[124.7775,1.0685],[124.7755,1.074],[124.7675,1.088],[124.769,1.082],[124.7695,1.0725],[124.7765,1.0505],[124.7755,1.049],[124.7735,1.043],[124.7745,1.0415],[124.7735,1.022],[124.769,1.005],[124.7685,0.998],[124.771,0.9975],[124.7795,0.999],[124.7865,1.0165],[124.778,1.0205],[124.7855,1.0365],[124.786,1.0365],[124.7865,1.039],[124.7865,1.0405],[124.7885,1.0425],[124.7885,1.044]]]},"properties":{"code":"71.07.01.2021","name":"Rasi Satu","latitude":1.0342794744782704,"longitude":124.77655111121156}},{"type":"Feature","geometry":{"type":"Polygon","coordinates":[[[124.8935,0.9895],[124.8875,0.9925],[124.873,0.986],[124.8725,0.9845],[124.8715,0.9845],[124.868,0.9855],[124.867,0.9835],[124.867,0.9805],[124.872,0.98],[124.874,0.974],[124.884,0.9775],[124.8885,0.985],[124.894,0.986],[124.8935,0.9895]]]},"properties":{"code":"71.07.02.2001","name":"Tatengesan","latitude":0.9828452988469745,"longitude":124.87981006119053}},{"type":"Feature","geometry":{"type":"Polygon","coordinates":[[[124.8955,1.034],[124.8905,1.0425],[124.874,1.0575],[124.873,1.0605],[124.8645,1.0525],[124.864,1.0515],[124.864,1.0465],[124.863,1.0475],[124.8625,1.0465],[124.863,1.0455],[124.8635,1.044],[124.8645,1.0425],[124.866,1.042],[124.866,1.041],[124.8655,1.041],[124.865,1.04],[124.8685,1.036],[124.8705,1.032],[124.872,1.0305],[124.8885,1.031],[124.8955,1.034]]]},"properties":{"code":"71.07.02.2002","name":"Wiau","latitude":1.0419492879512176,"longitude":124.87739660788611}},{"type":"Feature","geometry":{"type":"Polygon","coordinates":[[[124.8925,1.0095],[124.8875,1.0235],[124.887,1.0265],[124.8885,1.0285],[124.8885,1.031],[124.872,1.0305],[124.8745,1.028],[124.8815,1.019],[124.8895,0.9965],[124.8875,0.9925],[124.8935,0.9895],[124.8925,1.0045],[124.8925,1.0095]]]},"properties":{"code":"71.07.02.2003","name":"Bentenan","latitude":1.015783482478047,"longitude":124.88610867398552}},{"type":"Feature","geometry":{"type":"Polygon","coordinates":[[[124.9045,0.978],[124.903,0.971],[124.9145,0.9705],[124.91,0.976],[124.9045,0.978]]]},"properties":{"code":"71.07.02.2004","name":"Tumbak","latitude":0.975167889482311,"longitude":124.90472443761993}},{"type":"Feature","geometry":{"type":"MultiPolygon","coordinates":[[[[124.8665,1.026],[124.866,1.026],[124.866,1.025],[124.866,1.024],[124.866,1.022],[124.8595,1.023],[124.859,1.023],[124.8595,1.0165],[124.859,1.01],[124.861,1.005],[124.861,0.988],[124.867,0.986],[124.868,0.9855],[124.8685,0.9875],[124.8685,0.9885],[124.8685,0.9905],[124.8695,0.9915],[124.873,1.008],[124.8665,1.026]]],[[[124.866,1.028],[124.866,1.0275],[124.866,1.027],[124.8665,1.027],[124.866,1.028]]],[[[124.866,1.029],[124.866,1.0295],[124.865,1.031],[124.8645,1.031],[124.864,1.03],[124.864,1.0295],[124.865,1.03],[124.8655,1.029],[124.866,1.029]]]]},"properties":{"code":"71.07.02.2005","name":"Makalu","latitude":1.005823709463554,"longitude":124.86559210004698}},{"type":"Feature","geometry":{"type":"Polygon","coordinates":[[[124.8455,1.02],[124.844,1.0225],[124.8435,1.0235],[124.842,1.023],[124.841,1.0225],[124.84,1.0205],[124.8375,1.018],[124.834,0.998],[124.8395,0.9645],[124.843,0.965],[124.8475,0.9755],[124.849,0.976],[124.851,0.978],[124.849,0.981],[124.846,0.982],[124.846,0.985],[124.846,1.013],[124.8455,1.0155],[124.8445,1.0165],[124.845,1.0195],[124.8455,1.02]]]},"properties":{"code":"71.07.02.2006","name":"Minanga","latitude":0.994368162570976,"longitude":124.84076022084699}},{"type":"Feature","geometry":{"type":"Polygon","coordinates":[[[124.861,0.988],[124.861,1.005],[124.859,1.01],[124.8595,1.0165],[124.859,1.023],[124.8585,1.022],[124.8535,1.0185],[124.8525,1.003],[124.851,1.001],[124.857,0.9865],[124.852,0.9765],[124.8505,0.976],[124.8515,0.9675],[124.853,0.968],[124.8635,0.978],[124.8625,0.9795],[124.8635,0.9855],[124.862,0.9855],[124.861,0.988]]]},"properties":{"code":"71.07.02.2007","name":"Minanga Satu","latitude":0.9926025037686597,"longitude":124.85752021898688}},{"type":"Feature","geometry":{"type":"Polygon","coordinates":[[[124.8995,1.028],[124.8955,1.034],[124.8885,1.031],[124.8885,1.0285],[124.887,1.0265],[124.8875,1.0235],[124.8925,1.0095],[124.895,1.0075],[124.8965,1.008],[124.897,1.007],[124.909,1.0185],[124.8995,1.028]]]},"properties":{"code":"71.07.02.2008","name":"Bentenan Indah","latitude":1.020706635115051,"longitude":124.89650035968957}},{"type":"Feature","geometry":{"type":"Polygon","coordinates":[[[124.8535,1.0185],[124.8455,1.02],[124.845,1.0195],[124.8445,1.0165],[124.8455,1.0155],[124.846,1.013],[124.846,0.985],[124.846,0.982],[124.849,0.981],[124.851,0.978],[124.849,0.976],[124.852,0.9765],[124.857,0.9865],[124.851,1.001],[124.8525,1.003],[124.8535,1.0185]]]},"properties":{"code":"71.07.02.2009","name":"Minanga Timur","latitude":0.9984242839634085,"longitude":124.85003779877977}},{"type":"Feature","geometry":{"type":"Polygon","coordinates":[[[124.8505,0.976],[124.8475,0.9755],[124.843,0.965],[124.8515,0.9675],[124.8505,0.976]]]},"properties":{"code":"71.07.02.2010","name":"Minanga Dua","latitude":0.9703224903714472,"longitude":124.84779013209138}},{"type":"Feature","geometry":{"type":"Polygon","coordinates":[[[124.876,0.9705],[124.872,0.9725],[124.8635,0.978],[124.853,0.968],[124.876,0.9705]]]},"properties":{"code":"71.07.02.2011","name":"Minanga Tiga","latitude":0.971706419130436,"longitude":124.86478534973695}},{"type":"Feature","geometry":{"type":"Polygon","coordinates":[[[124.868,0.9855],[124.867,0.986],[124.861,0.988],[124.862,0.9855],[124.8635,0.9855],[124.8625,0.9795],[124.8635,0.978],[124.872,0.9725],[124.876,0.9705],[124.8775,0.9705],[124.874,0.974],[124.872,0.98],[124.867,0.9805],[124.867,0.9835],[124.868,0.9855]]]},"properties":{"code":"71.07.02.2012","name":"Makalu Selatan","latitude":0.9788267104454742,"longitude":124.86868788781894}},{"type":"Feature","geometry":{"type":"MultiPolygon","coordinates":[[[[124.8685,1.036],[124.8645,1.0365],[124.865,1.033],[124.8645,1.032],[124.866,1.029],[124.8665,1.029],[124.867,1.0285],[124.866,1.028],[124.8665,1.027],[124.867,1.0265],[124.8665,1.026],[124.873,1.008],[124.8695,0.9915],[124.8685,0.9905],[124.8685,0.9885],[124.8685,0.9875],[124.868,0.9855],[124.8725,0.9845],[124.8725,0.985],[124.873,0.986],[124.8875,0.9925],[124.8895,0.9965],[124.8815,1.019],[124.8745,1.028],[124.8715,1.0305],[124.8705,1.032],[124.8685,1.036]]],[[[124.865,1.04],[124.8655,1.041],[124.865,1.041],[124.865,1.04]]],[[[124.8645,1.0425],[124.8635,1.044],[124.863,1.0455],[124.8625,1.0455],[124.862,1.045],[124.8635,1.0435],[124.864,1.0425],[124.8645,1.0425]]]]},"properties":{"code":"71.07.02.2013","name":"Tatengesan Satu","latitude":1.0076800578634222,"longitude":124.8767655530731}},{"type":"Feature","geometry":{"type":"Polygon","coordinates":[[[124.897,1.007],[124.8965,1.008],[124.895,1.0075],[124.8925,1.0095],[124.8925,1.0045],[124.897,1.007]]]},"properties":{"code":"71.07.02.2014","name":"Bentenan Satu","latitude":1.0067100725119262,"longitude":124.89384506843405}},{"type":"Feature","geometry":{"type":"Polygon","coordinates":[[[124.8835,0.9745],[124.884,0.9775],[124.874,0.974],[124.8775,0.9705],[124.8855,0.9715],[124.8835,0.9745]]]},"properties":{"code":"71.07.02.2015","name":"Tumbak Madani","latitude":0.9729294542636089,"longitude":124.88022203718182}},{"type":"Feature","geometry":{"type":"Polygon","coordinates":[[[124.763,0.928],[124.759,0.9285],[124.7505,0.927],[124.7485,0.927],[124.747,0.9265],[124.7495,0.9255],[124.7505,0.918],[124.7615,0.9045],[124.7625,0.8915],[124.7735,0.917],[124.7725,0.922],[124.7715,0.924],[124.7695,0.927],[124.7685,0.928],[124.763,0.928]]]},"properties":{"code":"71.07.03.2001","name":"Mangkit","latitude":0.9140561332661747,"longitude":124.7625611626994}},{"type":"Feature","geometry":{"type":"Polygon","coordinates":[[[124.7735,0.917],[124.7875,0.9225],[124.786,0.938],[124.7815,0.935],[124.7705,0.932],[124.7665,0.9325],[124.766,0.932],[124.763,0.93],[124.7595,0.9295],[124.7505,0.9295],[124.7475,0.9285],[124.747,0.9265],[124.749,0.927],[124.7505,0.927],[124.759,0.9285],[124.763,0.928],[124.7685,0.928],[124.7695,0.927],[124.7715,0.924],[124.7725,0.922],[124.7735,0.917]]]},"properties":{"code":"71.07.03.2002","name":"Borgo","latitude":0.9264113627952623,"longitude":124.77708694483937}},{"type":"Feature","geometry":{"type":"Polygon","coordinates":[[[124.7865,0.946],[124.7845,0.9465],[124.776,0.9495],[124.767,0.9475],[124.7485,0.949],[124.7325,0.9485],[124.73,0.948],[124.7295,0.9475],[124.73,0.947],[124.7305,0.946],[124.7295,0.946],[124.7295,0.945],[124.735,0.9445],[124.738,0.9445],[124.7415,0.945],[124.743,0.9465],[124.745,0.946],[124.7595,0.9395],[124.7755,0.9475],[124.787,0.9425],[124.7885,0.9445],[124.7865,0.946]]]},"properties":{"code":"71.07.03.2003","name":"Belang","latitude":0.9453408343227321,"longitude":124.75612792101211}},{"type":"Feature","geometry":{"type":"MultiPolygon","coordinates":[[[[124.79,0.947],[124.7875,0.947],[124.7895,0.945],[124.7905,0.946],[124.79,0.947]]],[[[124.784,0.9575],[124.7785,0.9595],[124.778,0.959],[124.777,0.9575],[124.787,0.9515],[124.784,0.9575]]]]},"properties":{"code":"71.07.03.2004","name":"Buku","latitude":0.9547955682752226,"longitude":124.78339715631915}},{"type":"Feature","geometry":{"type":"Polygon","coordinates":[[[124.7785,0.9595],[124.754,0.9715],[124.7445,0.965],[124.7415,0.9645],[124.735,0.9715],[124.7335,0.9725],[124.732,0.9715],[124.724,0.97],[124.7215,0.97],[124.7155,0.9705],[124.7185,0.9635],[124.722,0.957],[124.723,0.9555],[124.7395,0.959],[124.748,0.954],[124.7595,0.958],[124.775,0.9545],[124.7765,0.957],[124.778,0.959],[124.7785,0.9595]]]},"properties":{"code":"71.07.03.2005","name":"Beringin","latitude":0.963337362596213,"longitude":124.74431592727719}},{"type":"Feature","geometry":{"type":"Polygon","coordinates":[[[124.801,0.966],[124.802,0.9675],[124.802,0.9685],[124.802,0.9705],[124.7995,0.971],[124.7985,0.9805],[124.797,0.9885],[124.7965,0.994],[124.792,0.9905],[124.7845,0.991],[124.7875,0.9865],[124.788,0.98],[124.785,0.978],[124.7875,0.969],[124.788,0.9665],[124.801,0.966]]]},"properties":{"code":"71.07.03.2006","name":"Tababo","latitude":0.9781014025258287,"longitude":124.79305684016755}},{"type":"Feature","geometry":{"type":"Polygon","coordinates":[[[124.8115,0.959],[124.811,0.961],[124.8105,0.961],[124.81,0.9645],[124.8075,0.97],[124.806,0.9775],[124.807,0.9805],[124.8075,0.9825],[124.8065,0.984],[124.802,0.997],[124.799,0.996],[124.7965,0.994],[124.797,0.9885],[124.7985,0.9805],[124.7995,0.971],[124.802,0.9705],[124.802,0.9685],[124.802,0.9675],[124.802,0.966],[124.803,0.9645],[124.804,0.9645],[124.8065,0.9665],[124.8075,0.966],[124.8085,0.9625],[124.808,0.96],[124.809,0.9595],[124.8115,0.959]]]},"properties":{"code":"71.07.03.2007","name":"Watuliney","latitude":0.9798158658220566,"longitude":124.80283145061173}},{"type":"Feature","geometry":{"type":"Polygon","coordinates":[[[124.815,0.9565],[124.825,0.961],[124.828,0.984],[124.8265,1.013],[124.8285,1.0195],[124.8245,1.0165],[124.823,1.016],[124.8225,1.0135],[124.8225,1.0085],[124.8235,0.9995],[124.8255,0.991],[124.823,0.98],[124.8235,0.978],[124.8245,0.9765],[124.824,0.9735],[124.823,0.9695],[124.822,0.9675],[124.8195,0.9675],[124.819,0.967],[124.813,0.96],[124.813,0.959],[124.814,0.9585],[124.8145,0.9575],[124.815,0.9565]]]},"properties":{"code":"71.07.03.2008","name":"Molompar","latitude":0.9854304999060317,"longitude":124.82409846381493}},{"type":"Feature","geometry":{"type":"Polygon","coordinates":[[[124.779,0.9765],[124.765,0.979],[124.7635,0.9815],[124.762,0.9815],[124.7575,0.978],[124.746,0.9765],[124.7435,0.976],[124.7415,0.974],[124.737,0.974],[124.7335,0.9725],[124.735,0.9715],[124.7415,0.9645],[124.7445,0.965],[124.754,0.9715],[124.7785,0.9595],[124.784,0.9575],[124.7875,0.953],[124.7915,0.9465],[124.795,0.9485],[124.792,0.9525],[124.7855,0.959],[124.779,0.9765]]]},"properties":{"code":"71.07.03.2009","name":"Buku Utara","latitude":0.969210406418906,"longitude":124.7663138113326}},{"type":"Feature","geometry":{"type":"Polygon","coordinates":[[[124.775,0.9545],[124.7595,0.958],[124.748,0.954],[124.7395,0.959],[124.723,0.9555],[124.725,0.9535],[124.729,0.948],[124.7295,0.9475],[124.73,0.948],[124.7325,0.9485],[124.7485,0.949],[124.767,0.9475],[124.776,0.9495],[124.7845,0.9465],[124.7875,0.947],[124.7885,0.948],[124.7785,0.9505],[124.775,0.954],[124.775,0.9545]]]},"properties":{"code":"71.07.03.2010","name":"Buku Selatan","latitude":0.9529168219372481,"longitude":124.75229119942445}},{"type":"Feature","geometry":{"type":"Polygon","coordinates":[[[124.812,0.959],[124.811,0.967],[124.811,0.9695],[124.81,1.0005],[124.809,1.0005],[124.8055,0.9985],[124.802,0.997],[124.8065,0.984],[124.8075,0.9825],[124.807,0.9805],[124.806,0.9775],[124.8075,0.97],[124.81,0.9645],[124.8105,0.961],[124.811,0.961],[124.8115,0.959],[124.812,0.959]]]},"properties":{"code":"71.07.03.2011","name":"Watuliney Tengah","latitude":0.9828224089058499,"longitude":124.80866081926172}},{"type":"Feature","geometry":{"type":"Polygon","coordinates":[[[124.813,0.96],[124.818,0.977],[124.817,0.9935],[124.8195,1.0145],[124.8145,1.013],[124.808,1.006],[124.808,1.0035],[124.809,1.0025],[124.81,1.0005],[124.811,0.9695],[124.811,0.967],[124.812,0.959],[124.813,0.959],[124.813,0.96]]]},"properties":{"code":"71.07.03.2012","name":"Watuliney Indah","latitude":0.992791719497851,"longitude":124.81410708526096}},{"type":"Feature","geometry":{"type":"Polygon","coordinates":[[[124.813,0.96],[124.819,0.967],[124.8195,0.9675],[124.822,0.9675],[124.823,0.9695],[124.824,0.9735],[124.8245,0.9765],[124.8235,0.978],[124.823,0.98],[124.8255,0.991],[124.8235,0.9995],[124.8225,1.0085],[124.8225,1.0135],[124.823,1.016],[124.821,1.015],[124.8195,1.0145],[124.817,0.9935],[124.818,0.977],[124.813,0.96]]]},"properties":{"code":"71.07.03.2013","name":"Molompar Utara","latitude":0.9851405491739442,"longitude":124.8203094132862}},{"type":"Feature","geometry":{"type":"Polygon","coordinates":[[[124.84,1.0205],[124.836,1.0225],[124.8285,1.0195],[124.8265,1.013],[124.828,0.984],[124.825,0.961],[124.815,0.9565],[124.816,0.9555],[124.8395,0.9645],[124.834,0.998],[124.8375,1.018],[124.84,1.0205]]]},"properties":{"code":"71.07.03.2014","name":"Molompar Timur","latitude":0.9885476990956288,"longitude":124.83120564268907}},{"type":"Feature","geometry":{"type":"Polygon","coordinates":[[[124.801,0.966],[124.788,0.9665],[124.8015,0.951],[124.816,0.9555],[124.815,0.9565],[124.8145,0.9575],[124.8135,0.959],[124.8125,0.959],[124.811,0.9585],[124.8085,0.9595],[124.808,0.96],[124.8085,0.9625],[124.8075,0.966],[124.8065,0.9665],[124.804,0.9645],[124.803,0.9645],[124.802,0.966],[124.801,0.966]]]},"properties":{"code":"71.07.03.2015","name":"Tababo Selatan","latitude":0.959553216060101,"longitude":124.80238086156619}},{"type":"Feature","geometry":{"type":"Polygon","coordinates":[[[124.7875,0.953],[124.787,0.9515],[124.777,0.9575],[124.7765,0.957],[124.775,0.954],[124.7785,0.9505],[124.7885,0.948],[124.79,0.947],[124.7905,0.946],[124.7915,0.9465],[124.7875,0.953]]]},"properties":{"code":"71.07.03.2016","name":"Buku Tengah","latitude":0.952393299821441,"longitude":124.78199260344289}},{"type":"Feature","geometry":{"type":"Polygon","coordinates":[[[124.788,0.9665],[124.7875,0.969],[124.785,0.978],[124.779,0.9765],[124.7855,0.959],[124.792,0.9525],[124.795,0.9485],[124.8015,0.951],[124.788,0.9665]]]},"properties":{"code":"71.07.03.2017","name":"Ponosakan Indah","latitude":0.9614668796158834,"longitude":124.78991852035854}},{"type":"Feature","geometry":{"type":"Polygon","coordinates":[[[124.7895,0.945],[124.7875,0.947],[124.7865,0.946],[124.7885,0.9445],[124.7895,0.945]]]},"properties":{"code":"71.07.03.2018","name":"Buku Tenggara","latitude":0.9456705389331959,"longitude":124.78800489615128}},{"type":"Feature","geometry":{"type":"Polygon","coordinates":[[[124.787,0.9425],[124.7755,0.9475],[124.7595,0.9395],[124.745,0.946],[124.743,0.9465],[124.7415,0.945],[124.738,0.9445],[124.735,0.9445],[124.7295,0.945],[124.738,0.942],[124.739,0.942],[124.7475,0.936],[124.7485,0.935],[124.7485,0.9345],[124.7475,0.9335],[124.7465,0.932],[124.759,0.936],[124.7645,0.9315],[124.766,0.932],[124.7665,0.9325],[124.766,0.933],[124.7655,0.935],[124.78,0.9375],[124.7825,0.9395],[124.7865,0.9415],[124.787,0.9425]]]},"properties":{"code":"71.07.03.2019","name":"Ponosakan Belang","latitude":0.9398696046837024,"longitude":124.76257844903915}},{"type":"Feature","geometry":{"type":"MultiPolygon","coordinates":[[[[124.763,0.93],[124.7645,0.9315],[124.759,0.936],[124.7465,0.932],[124.7475,0.931],[124.7475,0.9285],[124.7505,0.9295],[124.7595,0.9295],[124.763,0.93]]],[[[124.786,0.938],[124.7865,0.9415],[124.7825,0.9395],[124.78,0.9375],[124.7655,0.935],[124.766,0.933],[124.7665,0.9325],[124.7705,0.932],[124.7815,0.935],[124.786,0.938]]]]},"properties":{"code":"71.07.03.2020","name":"Borgo Satu","latitude":0.9338303802985315,"longitude":124.76578283813198}},{"type":"Feature","geometry":{"type":"MultiPolygon","coordinates":[[[[124.7105,0.868],[124.7185,0.894],[124.709,0.887],[124.7085,0.876],[124.7075,0.874],[124.7085,0.8735],[124.709,0.873],[124.7105,0.868]]],[[[124.6975,0.9135],[124.693,0.913],[124.6925,0.913],[124.69,0.9095],[124.685,0.913],[124.682,0.9125],[124.6815,0.9115],[124.6805,0.9105],[124.6785,0.9105],[124.6775,0.9085],[124.691,0.8865],[124.6915,0.885],[124.6985,0.875],[124.701,0.8735],[124.703,0.8755],[124.7015,0.886],[124.708,0.8915],[124.7055,0.904],[124.6975,0.9135]]]]},"properties":{"code":"71.07.04.2001","name":"Ratatotok Satu","latitude":0.8961460967370147,"longitude":124.69672822002416}},{"type":"Feature","geometry":{"type":"MultiPolygon","coordinates":[[[[124.703,0.869],[124.7035,0.868],[124.705,0.8695],[124.7055,0.8705],[124.708,0.874],[124.7075,0.874],[124.707,0.8755],[124.704,0.8735],[124.703,0.8715],[124.7015,0.87],[124.6995,0.866],[124.7005,0.8655],[124.703,0.869]]],[[[124.67,0.8915],[124.67,0.8925],[124.6685,0.892],[124.667,0.8915],[124.664,0.8915],[124.6575,0.891],[124.644,0.8815],[124.645,0.8795],[124.662,0.869],[124.665,0.8695],[124.6675,0.8695],[124.6695,0.8695],[124.673,0.8775],[124.6745,0.88],[124.674,0.883],[124.6755,0.884],[124.6755,0.885],[124.675,0.8855],[124.674,0.8865],[124.6725,0.886],[124.6715,0.885],[124.671,0.8845],[124.67,0.8845],[124.6685,0.8855],[124.668,0.886],[124.669,0.888],[124.669,0.889],[124.669,0.891],[124.67,0.8915]]]]},"properties":{"code":"71.07.04.2002","name":"Ratatotok Dua","latitude":0.8799049551763168,"longitude":124.66420384375868}},{"type":"Feature","geometry":{"type":"MultiPolygon","coordinates":[[[[124.6745,0.9075],[124.6765,0.908],[124.677,0.908],[124.6765,0.908],[124.674,0.9075],[124.6715,0.9055],[124.671,0.905],[124.6715,0.9045],[124.6715,0.904],[124.6725,0.9035],[124.672,0.9035],[124.6715,0.9035],[124.67,0.9035],[124.67,0.9025],[124.6595,0.892],[124.664,0.8915],[124.667,0.8915],[124.6685,0.892],[124.67,0.8925],[124.67,0.8915],[124.669,0.891],[124.669,0.889],[124.669,0.888],[124.668,0.886],[124.6685,0.8855],[124.67,0.8845],[124.671,0.8845],[124.6715,0.885],[124.6725,0.886],[124.674,0.8865],[124.6745,0.8855],[124.675,0.885],[124.6755,0.885],[124.677,0.8855],[124.678,0.885],[124.679,0.885],[124.68,0.885],[124.682,0.887],[124.694,0.8745],[124.695,0.8725],[124.6955,0.872],[124.699,0.875],[124.6985,0.875],[124.6915,0.885],[124.691,0.886],[124.6905,0.8855],[124.687,0.887],[124.685,0.887],[124.6825,0.8875],[124.68,0.885],[124.679,0.885],[124.678,0.885],[124.677,0.8855],[124.6755,0.885],[124.6745,0.8855],[124.674,0.8865],[124.6725,0.8865],[124.6715,0.8845],[124.67,0.8845],[124.6685,0.886],[124.669,0.888],[124.669,0.889],[124.6695,0.891],[124.67,0.8915],[124.67,0.892],[124.67,0.8925],[124.671,0.8995],[124.67,0.9015],[124.6705,0.9035],[124.6725,0.903],[124.6725,0.9035],[124.6715,0.9045],[124.6715,0.9055],[124.672,0.9055],[124.673,0.9065],[124.6745,0.9075]]],[[[124.6725,0.9425],[124.663,0.95],[124.652,0.9515],[124.647,0.939],[124.6485,0.93],[124.64,0.92],[124.639,0.9185],[124.64,0.917],[124.6415,0.9165],[124.645,0.916],[124.6575,0.918],[124.6765,0.9115],[124.685,0.913],[124.69,0.9095],[124.691,0.911],[124.686,0.9205],[124.685,0.9215],[124.685,0.9225],[124.682,0.933],[124.6815,0.935],[124.6805,0.936],[124.682,0.937],[124.6825,0.937],[124.6845,0.9375],[124.6845,0.939],[124.685,0.9405],[124.6855,0.9415],[124.6825,0.941],[124.6765,0.9415],[124.6725,0.9425]]]]},"properties":{"code":"71.07.04.2003","name":"Ratatotok Selatan","latitude":0.9248002072082848,"longitude":124.66621643943614}},{"type":"Feature","geometry":{"type":"Polygon","coordinates":[[[124.705,0.87],[124.699,0.862],[124.696,0.8575],[124.695,0.857],[124.6955,0.8565],[124.696,0.856],[124.6965,0.85],[124.6975,0.8495],[124.697,0.847],[124.6985,0.847],[124.6985,0.8445],[124.699,0.844],[124.7095,0.8475],[124.7095,0.866],[124.709,0.8665],[124.709,0.867],[124.705,0.87]]]},"properties":{"code":"71.07.04.2004","name":"Ratatotok Timur","latitude":0.8545411370898429,"longitude":124.7048462808719}},{"type":"Feature","geometry":{"type":"Polygon","coordinates":[[[124.748,0.897],[124.7435,0.9095],[124.743,0.911],[124.743,0.9115],[124.742,0.9125],[124.7415,0.912],[124.7395,0.91],[124.7415,0.907],[124.7425,0.905],[124.747,0.8985],[124.7475,0.897],[124.748,0.897]]]},"properties":{"code":"71.07.04.2005","name":"Basaan","latitude":0.9040400437415748,"longitude":124.74419444108767}},{"type":"Feature","geometry":{"type":"Polygon","coordinates":[[[124.7465,0.932],[124.7475,0.9335],[124.7485,0.9345],[124.7485,0.935],[124.7475,0.936],[124.739,0.942],[124.7375,0.941],[124.7365,0.9355],[124.737,0.933],[124.737,0.928],[124.74,0.926],[124.743,0.9205],[124.743,0.9175],[124.742,0.9135],[124.742,0.9125],[124.743,0.9115],[124.743,0.911],[124.7435,0.9095],[124.748,0.897],[124.7605,0.888],[124.7625,0.8915],[124.7615,0.9045],[124.7505,0.918],[124.7495,0.9255],[124.747,0.9265],[124.7475,0.9285],[124.7475,0.931],[124.7465,0.932]]]},"properties":{"code":"71.07.04.2006","name":"Basaan Satu","latitude":0.9142955022848134,"longitude":124.74923090969256}},{"type":"Feature","geometry":{"type":"Polygon","coordinates":[[[124.73,0.933],[124.719,0.935],[124.707,0.9355],[124.695,0.9395],[124.6845,0.938],[124.6845,0.9375],[124.6825,0.937],[124.682,0.937],[124.6805,0.936],[124.6815,0.935],[124.682,0.933],[124.685,0.9225],[124.685,0.9215],[124.686,0.9215],[124.688,0.921],[124.7055,0.9305],[124.7215,0.925],[124.725,0.9235],[124.729,0.9295],[124.729,0.93],[124.73,0.9315],[124.73,0.9325],[124.73,0.933]]]},"properties":{"code":"71.07.04.2007","name":"Morea","latitude":0.930196968000415,"longitude":124.70109882317284}},{"type":"Feature","geometry":{"type":"Polygon","coordinates":[[[124.7295,0.945],[124.7295,0.946],[124.71,0.9445],[124.692,0.945],[124.688,0.9425],[124.6855,0.9415],[124.685,0.9405],[124.6845,0.939],[124.6845,0.938],[124.695,0.9395],[124.707,0.9355],[124.719,0.935],[124.73,0.933],[124.7285,0.9355],[124.7295,0.945]]]},"properties":{"code":"71.07.04.2008","name":"Morea Satu","latitude":0.9399136792555721,"longitude":124.71003686599362}},{"type":"Feature","geometry":{"type":"Polygon","coordinates":[[[124.723,0.9245],[124.7215,0.925],[124.7055,0.9305],[124.688,0.921],[124.686,0.9215],[124.685,0.9215],[124.686,0.9205],[124.691,0.911],[124.6925,0.913],[124.693,0.913],[124.701,0.9135],[124.704,0.914],[124.706,0.915],[124.708,0.9145],[124.7105,0.915],[124.716,0.9175],[124.7195,0.9215],[124.722,0.9235],[124.723,0.9245]]]},"properties":{"code":"71.07.04.2009","name":"Soyoan","latitude":0.921324897360473,"longitude":124.70421732925337}},{"type":"Feature","geometry":{"type":"Polygon","coordinates":[[[124.738,0.942],[124.7295,0.945],[124.7285,0.9355],[124.73,0.932],[124.73,0.931],[124.729,0.9295],[124.725,0.9235],[124.7245,0.9225],[124.7235,0.9205],[124.721,0.9075],[124.722,0.903],[124.722,0.8975],[124.722,0.896],[124.7225,0.8955],[124.7355,0.887],[124.7475,0.897],[124.747,0.8985],[124.7425,0.905],[124.7415,0.907],[124.7395,0.91],[124.7415,0.912],[124.742,0.9135],[124.743,0.9175],[124.743,0.9205],[124.74,0.926],[124.737,0.928],[124.737,0.933],[124.7365,0.9355],[124.7375,0.941],[124.738,0.942]]]},"properties":{"code":"71.07.04.2010","name":"Basaan Dua","latitude":0.9110664861641116,"longitude":124.73294278736574}},{"type":"Feature","geometry":{"type":"Polygon","coordinates":[[[124.725,0.9235],[124.723,0.9245],[124.722,0.9235],[124.7195,0.9215],[124.716,0.9175],[124.7105,0.915],[124.708,0.9145],[124.706,0.915],[124.704,0.914],[124.701,0.9135],[124.6975,0.9135],[124.7055,0.904],[124.708,0.8915],[124.7015,0.886],[124.703,0.8755],[124.704,0.8735],[124.707,0.8755],[124.7085,0.876],[124.709,0.887],[124.7185,0.894],[124.7225,0.8955],[124.722,0.896],[124.722,0.8975],[124.722,0.903],[124.721,0.9075],[124.7235,0.9205],[124.7245,0.9225],[124.725,0.9235]]]},"properties":{"code":"71.07.04.2011","name":"Ratatotok Utara","latitude":0.9009499421856414,"longitude":124.71129901747786}},{"type":"Feature","geometry":{"type":"MultiPolygon","coordinates":[[[[124.698,0.8695],[124.701,0.8735],[124.699,0.875],[124.6955,0.872],[124.698,0.8695]]],[[[124.6775,0.9085],[124.677,0.908],[124.6765,0.908],[124.6745,0.9075],[124.673,0.9065],[124.672,0.9055],[124.6715,0.9055],[124.6715,0.9045],[124.6725,0.9035],[124.6725,0.903],[124.6705,0.9035],[124.67,0.9015],[124.671,0.8995],[124.67,0.8925],[124.67,0.892],[124.67,0.8915],[124.6695,0.891],[124.669,0.889],[124.669,0.888],[124.6685,0.886],[124.67,0.8845],[124.6715,0.8845],[124.6725,0.8865],[124.674,0.8865],[124.6745,0.8855],[124.6755,0.885],[124.677,0.8855],[124.678,0.885],[124.679,0.885],[124.68,0.885],[124.6825,0.8875],[124.685,0.887],[124.687,0.887],[124.6905,0.8855],[124.691,0.886],[124.691,0.8865],[124.6775,0.9085]]]]},"properties":{"code":"71.07.04.2012","name":"Ratatotok Tenggara","latitude":0.8937175441983649,"longitude":124.67886216998355}},{"type":"Feature","geometry":{"type":"MultiPolygon","coordinates":[[[[124.699,0.862],[124.703,0.869],[124.7005,0.8655],[124.6995,0.866],[124.699,0.8655],[124.699,0.862]]],[[[124.704,0.8735],[124.701,0.8735],[124.703,0.8715],[124.704,0.8735]]],[[[124.645,0.916],[124.6415,0.9165],[124.64,0.917],[124.639,0.9185],[124.6375,0.917],[124.634,0.911],[124.633,0.904],[124.633,0.9035],[124.6345,0.9005],[124.6345,0.891],[124.643,0.8825],[124.644,0.8815],[124.6575,0.891],[124.6595,0.892],[124.67,0.9025],[124.67,0.9035],[124.6705,0.904],[124.672,0.9035],[124.6725,0.9035],[124.6715,0.904],[124.6715,0.905],[124.6715,0.9055],[124.674,0.9075],[124.6765,0.908],[124.6785,0.9105],[124.6805,0.9105],[124.6815,0.9115],[124.682,0.9125],[124.6765,0.9115],[124.6575,0.918],[124.645,0.916]]]]},"properties":{"code":"71.07.04.2013","name":"Ratatotok Tengah","latitude":0.9021872725367555,"longitude":124.65198114612328}},{"type":"Feature","geometry":{"type":"Polygon","coordinates":[[[124.6955,0.872],[124.695,0.8725],[124.694,0.8745],[124.682,0.887],[124.68,0.885],[124.678,0.885],[124.677,0.8855],[124.6755,0.885],[124.6755,0.884],[124.674,0.883],[124.6745,0.88],[124.673,0.8775],[124.6695,0.8695],[124.6695,0.869],[124.6835,0.8695],[124.6855,0.863],[124.686,0.8615],[124.686,0.861],[124.687,0.8605],[124.6885,0.8595],[124.6905,0.86],[124.6905,0.8595],[124.691,0.858],[124.6915,0.858],[124.6925,0.8595],[124.695,0.859],[124.694,0.858],[124.695,0.857],[124.696,0.8575],[124.699,0.8655],[124.7015,0.87],[124.703,0.8715],[124.701,0.8735],[124.698,0.8695],[124.6955,0.872]]]},"properties":{"code":"71.07.04.2014","name":"Ratatotok","latitude":0.8723224153531253,"longitude":124.68602903677268}},{"type":"Feature","geometry":{"type":"MultiPolygon","coordinates":[[[[124.7365,0.8585],[124.7225,0.853],[124.7255,0.85],[124.729,0.854],[124.7365,0.8585]]],[[[124.7095,0.866],[124.7105,0.868],[124.709,0.873],[124.7085,0.8735],[124.708,0.874],[124.7075,0.873],[124.705,0.87],[124.709,0.867],[124.709,0.8665],[124.7095,0.866]]]]},"properties":{"code":"71.07.04.2015","name":"Ratatotok Muara","latitude":0.8600022130431889,"longitude":124.7229604533942}},{"type":"Feature","geometry":{"type":"Polygon","coordinates":[[[124.688,0.998],[124.6875,0.9985],[124.687,0.9975],[124.684,0.967],[124.6845,0.961],[124.6855,0.958],[124.6855,0.9555],[124.685,0.9485],[124.6865,0.948],[124.686,0.9455],[124.6845,0.943],[124.6855,0.9425],[124.6855,0.9415],[124.688,0.9425],[124.6925,0.9455],[124.694,0.9495],[124.6995,0.9565],[124.7045,0.963],[124.704,0.975],[124.6945,0.981],[124.696,0.9915],[124.6955,0.992],[124.695,0.9955],[124.696,0.9965],[124.6905,0.998],[124.6885,0.998],[124.688,0.998]]]},"properties":{"code":"71.07.05.2006","name":"Tonsawang","latitude":0.9697274720169693,"longitude":124.69250476573268}},{"type":"Feature","geometry":{"type":"Polygon","coordinates":[[[124.6835,1.0435],[124.681,1.044],[124.6745,1.0325],[124.671,1.019],[124.664,0.9965],[124.6555,0.981],[124.659,0.959],[124.6585,0.9585],[124.651,0.9645],[124.6505,0.965],[124.65,0.965],[124.65,0.964],[124.65,0.9615],[124.6495,0.9585],[124.649,0.9565],[124.651,0.9565],[124.652,0.9515],[124.663,0.95],[124.6725,0.9425],[124.6765,0.9415],[124.6825,0.941],[124.683,0.941],[124.6835,0.9435],[124.683,0.9455],[124.676,0.964],[124.6665,0.9625],[124.66,0.972],[124.66,0.9885],[124.6715,1.001],[124.6765,1.03],[124.681,1.0425],[124.6845,1.041],[124.685,1.0425],[124.6835,1.0435]]]},"properties":{"code":"71.07.05.2008","name":"Betelan","latitude":0.9753520365177724,"longitude":124.6683431779561}},{"type":"Feature","geometry":{"type":"Polygon","coordinates":[[[124.683,1.042],[124.681,1.0425],[124.6765,1.03],[124.6715,1.001],[124.66,0.9885],[124.66,0.972],[124.6665,0.9625],[124.676,0.964],[124.677,0.9675],[124.676,0.9705],[124.6795,0.987],[124.687,1.0065],[124.683,1.0315],[124.684,1.0375],[124.682,1.0385],[124.682,1.0395],[124.683,1.042]]]},"properties":{"code":"71.07.05.2009","name":"Tombatu Satu","latitude":0.9947594509050868,"longitude":124.67443165700965}},{"type":"Feature","geometry":{"type":"Polygon","coordinates":[[[124.647,1.005],[124.6495,1.0135],[124.6625,1.0165],[124.6605,1.026],[124.671,1.038],[124.6695,1.0425],[124.6715,1.0445],[124.6695,1.0465],[124.668,1.0465],[124.669,1.0485],[124.665,1.0485],[124.6655,1.048],[124.6645,1.0475],[124.646,1.0225],[124.6435,1.015],[124.64,1.014],[124.645,1.0075],[124.647,1.005]]]},"properties":{"code":"71.07.05.2012","name":"Kali","latitude":1.02773151430413,"longitude":124.65681817919133}},{"type":"Feature","geometry":{"type":"Polygon","coordinates":[[[124.6495,0.9705],[124.648,0.97],[124.643,0.9705],[124.6235,0.961],[124.621,0.964],[124.6195,0.9505],[124.6195,0.948],[124.6195,0.9475],[124.622,0.949],[124.633,0.948],[124.6455,0.9565],[124.649,0.9565],[124.6495,0.9585],[124.65,0.9615],[124.65,0.964],[124.65,0.965],[124.6495,0.97],[124.6495,0.9705]]]},"properties":{"code":"71.07.05.2014","name":"Pisa","latitude":0.9587981924155773,"longitude":124.63466969901951}},{"type":"Feature","geometry":{"type":"Polygon","coordinates":[[[124.6845,1.041],[124.683,1.042],[124.682,1.0395],[124.682,1.0385],[124.684,1.0375],[124.683,1.0315],[124.687,1.0065],[124.6795,0.987],[124.676,0.9705],[124.677,0.9675],[124.676,0.964],[124.683,0.9455],[124.6835,0.9435],[124.683,0.941],[124.6855,0.9415],[124.6855,0.9425],[124.6845,0.943],[124.686,0.9455],[124.6865,0.948],[124.685,0.9485],[124.6855,0.9555],[124.6855,0.958],[124.6845,0.961],[124.684,0.967],[124.687,0.9975],[124.6875,0.9985],[124.688,1],[124.69,1.013],[124.6905,1.016],[124.6935,1.033],[124.6925,1.0335],[124.6925,1.0355],[124.691,1.038],[124.6885,1.0385],[124.6875,1.0375],[124.6835,1.039],[124.6845,1.041]]]},"properties":{"code":"71.07.05.2015","name":"Tombatu","latitude":0.9943047474876873,"longitude":124.68484668682196}},{"type":"Feature","geometry":{"type":"MultiPolygon","coordinates":[[[[124.6555,0.981],[124.6495,0.97],[124.65,0.965],[124.6505,0.965],[124.651,0.9645],[124.6585,0.9585],[124.659,0.959],[124.6555,0.981]]],[[[124.6555,0.981],[124.664,0.9965],[124.6645,0.998],[124.664,0.998],[124.6625,0.9955],[124.655,0.9845],[124.6555,0.981]]],[[[124.6745,1.0325],[124.681,1.044],[124.6775,1.0455],[124.6755,1.0485],[124.675,1.047],[124.6745,1.0325]]]]},"properties":{"code":"71.07.05.2016","name":"Betelan Satu","latitude":0.9920811965930544,"longitude":124.66124652657653}},{"type":"Feature","geometry":{"type":"Polygon","coordinates":[[[124.675,1.047],[124.675,1.0475],[124.6755,1.0485],[124.6735,1.05],[124.6725,1.049],[124.669,1.0485],[124.668,1.0465],[124.6695,1.0465],[124.6715,1.0445],[124.6695,1.0425],[124.671,1.038],[124.6605,1.026],[124.6625,1.0165],[124.6495,1.0135],[124.647,1.005],[124.6485,1],[124.65,0.9975],[124.651,0.9885],[124.651,0.983],[124.6495,0.9705],[124.6495,0.97],[124.6555,0.981],[124.655,0.9845],[124.6625,0.9955],[124.664,0.998],[124.6645,0.998],[124.671,1.0195],[124.6745,1.0325],[124.675,1.047]]]},"properties":{"code":"71.07.05.2017","name":"Kali Oki","latitude":1.0109605306196943,"longitude":124.6609183589969}},{"type":"Feature","geometry":{"type":"Polygon","coordinates":[[[124.6875,1.04],[124.6865,1.0405],[124.685,1.042],[124.6835,1.039],[124.6875,1.0375],[124.6885,1.0385],[124.6885,1.0395],[124.6875,1.04]]]},"properties":{"code":"71.07.05.2018","name":"Tombatu Tiga Selatan","latitude":1.039575637279287,"longitude":124.68604846406649}},{"type":"Feature","geometry":{"type":"Polygon","coordinates":[[[124.6945,1.041],[124.6885,1.043],[124.6885,1.0415],[124.6875,1.04],[124.6885,1.0395],[124.6885,1.0385],[124.691,1.038],[124.6925,1.036],[124.6945,1.041]]]},"properties":{"code":"71.07.05.2019","name":"Tombatu Tiga Timur","latitude":1.0398663257017111,"longitude":124.6913417620416}},{"type":"Feature","geometry":{"type":"Polygon","coordinates":[[[124.7065,0.98],[124.697,0.991],[124.696,0.9915],[124.6945,0.981],[124.704,0.975],[124.7045,0.963],[124.6995,0.9565],[124.694,0.9495],[124.6925,0.9455],[124.692,0.945],[124.71,0.9445],[124.7305,0.946],[124.73,0.947],[124.729,0.948],[124.725,0.9535],[124.722,0.957],[124.7185,0.9635],[124.7155,0.97],[124.7145,0.974],[124.7125,0.9745],[124.711,0.979],[124.707,0.98],[124.7065,0.98]]]},"properties":{"code":"71.07.05.2020","name":"Tonsawang Satu","latitude":0.9604988052200476,"longitude":124.7092858345645}},{"type":"Feature","geometry":{"type":"Polygon","coordinates":[[[124.661,1.055],[124.6605,1.056],[124.6575,1.0545],[124.658,1.048],[124.653,1.0455],[124.6465,1.037],[124.6325,1.026],[124.6325,1.0185],[124.64,1.014],[124.6435,1.015],[124.646,1.0225],[124.6645,1.0475],[124.6655,1.048],[124.665,1.0485],[124.664,1.048],[124.6635,1.0505],[124.6635,1.051],[124.662,1.053],[124.66,1.0545],[124.661,1.055]]]},"properties":{"code":"71.07.06.2003","name":"Ranoketang Atas","latitude":1.0315522235448016,"longitude":124.64642261180819}},{"type":"Feature","geometry":{"type":"MultiPolygon","coordinates":[[[[124.645,1.0535],[124.6425,1.0545],[124.64,1.054],[124.6385,1.0535],[124.6385,1.0455],[124.6405,1.0405],[124.645,1.0435],[124.6555,1.053],[124.6545,1.054],[124.6525,1.0535],[124.6505,1.054],[124.6495,1.053],[124.649,1.053],[124.648,1.053],[124.645,1.0535]]],[[[124.627,1.064],[124.61,1.063],[124.5965,1.0725],[124.5935,1.0825],[124.585,1.0905],[124.5815,1.092],[124.58,1.0945],[124.5775,1.097],[124.5745,1.0985],[124.5735,1.097],[124.5745,1.093],[124.574,1.093],[124.5745,1.089],[124.5795,1.0775],[124.5895,1.074],[124.5915,1.0705],[124.592,1.067],[124.595,1.057],[124.601,1.0535],[124.611,1.044],[124.6135,1.0435],[124.62,1.0455],[124.6245,1.0475],[124.637,1.056],[124.6365,1.057],[124.636,1.0575],[124.6315,1.0635],[124.627,1.064]]]]},"properties":{"code":"71.07.06.2004","name":"Tondanauw","latitude":1.0631142233855932,"longitude":124.60935941518618}},{"type":"Feature","geometry":{"type":"Polygon","coordinates":[[[124.6535,1.0775],[124.641,1.1015],[124.634,1.098],[124.641,1.0895],[124.651,1.0625],[124.652,1.0615],[124.653,1.06],[124.6535,1.059],[124.6485,1.054],[124.6495,1.053],[124.65,1.053],[124.6505,1.054],[124.6525,1.0535],[124.654,1.0545],[124.6545,1.061],[124.6535,1.068],[124.6535,1.0775]]]},"properties":{"code":"71.07.06.2005","name":"Lobu Satu","latitude":1.0811212182060297,"longitude":124.64634445556575}},{"type":"Feature","geometry":{"type":"Polygon","coordinates":[[[124.634,1.098],[124.633,1.0995],[124.6195,1.0795],[124.6345,1.0705],[124.636,1.0575],[124.639,1.059],[124.6405,1.0605],[124.6435,1.06],[124.647,1.0585],[124.648,1.0575],[124.6505,1.0595],[124.652,1.0615],[124.651,1.0625],[124.641,1.0895],[124.634,1.098]]]},"properties":{"code":"71.07.06.2006","name":"Lobu Dua","latitude":1.0771814399474298,"longitude":124.63604342479819}},{"type":"Feature","geometry":{"type":"MultiPolygon","coordinates":[[[[124.636,1.0575],[124.6365,1.057],[124.6385,1.0535],[124.64,1.054],[124.6425,1.0545],[124.645,1.0535],[124.648,1.053],[124.6495,1.053],[124.6485,1.054],[124.6485,1.0545],[124.6485,1.055],[124.648,1.0555],[124.6485,1.056],[124.648,1.0575],[124.6475,1.058],[124.647,1.0585],[124.6435,1.06],[124.6405,1.0605],[124.639,1.059],[124.636,1.0575]]],[[[124.636,1.0575],[124.6345,1.0705],[124.6195,1.0795],[124.6175,1.0775],[124.6155,1.0765],[124.6125,1.076],[124.6075,1.0775],[124.584,1.0965],[124.58,1.108],[124.578,1.106],[124.5755,1.1005],[124.5745,1.0985],[124.5775,1.097],[124.58,1.0945],[124.5815,1.092],[124.585,1.0905],[124.5935,1.0825],[124.5965,1.0725],[124.61,1.063],[124.627,1.064],[124.6315,1.0635],[124.636,1.0575]]]]},"properties":{"code":"71.07.06.2017","name":"Tondanouw Satu","latitude":1.0757056471282627,"longitude":124.60956930201746}},{"type":"Feature","geometry":{"type":"MultiPolygon","coordinates":[[[[124.6405,1.0405],[124.6385,1.0455],[124.6385,1.0535],[124.637,1.056],[124.6245,1.0475],[124.62,1.0455],[124.6135,1.0435],[124.61,1.0435],[124.614,1.034],[124.6165,1.032],[124.617,1.031],[124.6185,1.0285],[124.6195,1.0285],[124.62,1.029],[124.6245,1.0305],[124.6405,1.0405]]],[[[124.6555,1.053],[124.6565,1.054],[124.6605,1.056],[124.6595,1.0585],[124.6545,1.054],[124.6555,1.053]]]]},"properties":{"code":"71.07.06.2018","name":"Toundanouw Atas","latitude":1.0417414309992004,"longitude":124.62678653535396}},{"type":"Feature","geometry":{"type":"Polygon","coordinates":[[[124.6325,1.0185],[124.6325,1.026],[124.6465,1.037],[124.653,1.0455],[124.658,1.048],[124.6575,1.0545],[124.6555,1.053],[124.645,1.0435],[124.6245,1.0305],[124.62,1.029],[124.6195,1.0285],[124.6185,1.0285],[124.617,1.031],[124.6155,1.0325],[124.615,1.0325],[124.614,1.0305],[124.613,1.03],[124.625,1.024],[124.626,1.023],[124.627,1.0215],[124.6325,1.0185]]]},"properties":{"code":"71.07.06.2019","name":"Ranoketang Atas Satu","latitude":1.0347536532497081,"longitude":124.6363020483508}},{"type":"Feature","geometry":{"type":"Polygon","coordinates":[[[124.6485,1.054],[124.6535,1.059],[124.6525,1.0605],[124.652,1.06],[124.6525,1.0585],[124.6495,1.0555],[124.6485,1.0555],[124.6485,1.0545],[124.6485,1.054]]]},"properties":{"code":"71.07.06.2020","name":"Lobu Kota","latitude":1.0569371966106766,"longitude":124.65145571784048}},{"type":"Feature","geometry":{"type":"Polygon","coordinates":[[[124.6595,1.0585],[124.6545,1.061],[124.654,1.0545],[124.6595,1.0585]]]},"properties":{"code":"71.07.06.2021","name":"Lobu Atas","latitude":1.058046193723468,"longitude":124.65618213877755}},{"type":"Feature","geometry":{"type":"MultiPolygon","coordinates":[[[[124.6485,1.0555],[124.6495,1.0555],[124.6525,1.0585],[124.652,1.06],[124.6525,1.0605],[124.652,1.0615],[124.6505,1.0595],[124.648,1.0575],[124.6485,1.056],[124.6485,1.0555]]],[[[124.595,1.1055],[124.587,1.114],[124.585,1.1145],[124.5805,1.1145],[124.582,1.1105],[124.58,1.108],[124.584,1.0965],[124.6075,1.0775],[124.6125,1.076],[124.6155,1.0765],[124.6175,1.0775],[124.6195,1.0795],[124.633,1.0995],[124.6265,1.1055],[124.621,1.1125],[124.6205,1.1145],[124.6095,1.1105],[124.595,1.1055]]]]},"properties":{"code":"71.07.06.2022","name":"Lobu","latitude":1.0959459170284254,"longitude":124.60771890844325}},{"type":"Feature","geometry":{"type":"Polygon","coordinates":[[[124.5845,1.0285],[124.582,1.027],[124.5805,1.0265],[124.566,1.083],[124.568,1.0945],[124.5655,1.0945],[124.552,1.0855],[124.5505,1.079],[124.554,1.064],[124.556,1.061],[124.566,1.044],[124.573,1.033],[124.5765,1.0255],[124.58,1.025],[124.5855,1.0265],[124.5855,1.028],[124.5845,1.0285]]]},"properties":{"code":"71.07.07.2001","name":"Kalait","latitude":1.0625307333874834,"longitude":124.56493906435617}},{"type":"Feature","geometry":{"type":"Polygon","coordinates":[[[124.566,1.044],[124.554,1.04],[124.566,1.011],[124.579,1.007],[124.585,1.0075],[124.59,1.0055],[124.591,1.02],[124.5895,1.022],[124.5875,1.0225],[124.5865,1.027],[124.5855,1.028],[124.5855,1.0265],[124.58,1.025],[124.5765,1.0255],[124.573,1.033],[124.566,1.044]]]},"properties":{"code":"71.07.07.2002","name":"Kalait Satu","latitude":1.0229032373422886,"longitude":124.57231571199344}},{"type":"Feature","geometry":{"type":"Polygon","coordinates":[[[124.595,1.0565],[124.595,1.057],[124.592,1.067],[124.591,1.0695],[124.5805,1.06],[124.584,1.029],[124.5845,1.029],[124.5865,1.027],[124.5875,1.0225],[124.5895,1.022],[124.5905,1.021],[124.595,1.02],[124.6005,1.045],[124.595,1.0565]]]},"properties":{"code":"71.07.07.2003","name":"Kalait Dua","latitude":1.043312998795543,"longitude":124.59043129269507}},{"type":"Feature","geometry":{"type":"Polygon","coordinates":[[[124.574,1.093],[124.5725,1.0925],[124.57,1.0955],[124.568,1.0945],[124.566,1.083],[124.5805,1.0265],[124.582,1.027],[124.5845,1.0285],[124.584,1.029],[124.5805,1.06],[124.591,1.0695],[124.5915,1.0705],[124.5895,1.074],[124.5795,1.0775],[124.5745,1.089],[124.574,1.093]]]},"properties":{"code":"71.07.07.2004","name":"Kalait Tiga","latitude":1.0658867426650949,"longitude":124.57713981631723}},{"type":"Feature","geometry":{"type":"Polygon","coordinates":[[[124.59,1.0055],[124.5875,1.006],[124.5965,0.985],[124.6075,0.9715],[124.621,0.964],[124.6235,0.961],[124.643,0.9705],[124.6355,0.9805],[124.625,0.9845],[124.624,0.986],[124.6225,0.987],[124.617,0.993],[124.614,0.994],[124.5985,0.998],[124.59,1.0055]]]},"properties":{"code":"71.07.07.2005","name":"Lowatag","latitude":0.9818968227370763,"longitude":124.61487909506535}},{"type":"Feature","geometry":{"type":"Polygon","coordinates":[[[124.6325,1.0185],[124.627,1.0215],[124.626,1.023],[124.624,1.018],[124.6235,1.0165],[124.621,1.011],[124.6155,1.0025],[124.616,1.0015],[124.616,1.001],[124.618,0.9995],[124.619,1.0005],[124.623,0.998],[124.633,0.9895],[124.6335,0.988],[124.635,0.988],[124.649,0.999],[124.6485,1],[124.645,1.0075],[124.64,1.014],[124.6325,1.0185]]]},"properties":{"code":"71.07.07.2006","name":"Bunag","latitude":1.0044771209976224,"longitude":124.63148391730952}},{"type":"Feature","geometry":{"type":"Polygon","coordinates":[[[124.649,0.999],[124.635,0.988],[124.6335,0.988],[124.633,0.9895],[124.623,0.998],[124.619,1.0005],[124.618,0.9995],[124.616,1.001],[124.616,1.002],[124.616,1.001],[124.616,1],[124.6165,0.9985],[124.6225,0.9905],[124.6225,0.988],[124.624,0.986],[124.625,0.9845],[124.6355,0.9805],[124.643,0.9705],[124.648,0.97],[124.6495,0.9705],[124.651,0.983],[124.651,0.9885],[124.65,0.9975],[124.649,0.999]]]},"properties":{"code":"71.07.07.2007","name":"Banga","latitude":0.985357735451854,"longitude":124.63880542330871}},{"type":"Feature","geometry":{"type":"Polygon","coordinates":[[[124.626,1.023],[124.625,1.024],[124.613,1.03],[124.6105,1.029],[124.6095,1.029],[124.6075,1.0295],[124.605,1.03],[124.6025,1.0275],[124.6025,1.0265],[124.606,1.0145],[124.6055,1.0135],[124.602,1.0135],[124.6,1.015],[124.598,1.0155],[124.596,1.0165],[124.595,1.0195],[124.595,1.02],[124.5905,1.021],[124.591,1.02],[124.59,1.0055],[124.5985,0.998],[124.614,0.994],[124.617,0.993],[124.6225,0.987],[124.624,0.986],[124.6225,0.988],[124.6225,0.9905],[124.6165,0.9985],[124.616,1],[124.616,1.001],[124.616,1.002],[124.6155,1.0025],[124.621,1.011],[124.6215,1.011],[124.622,1.0125],[124.6235,1.0165],[124.624,1.018],[124.626,1.023]]]},"properties":{"code":"71.07.07.2008","name":"Tambelang","latitude":1.011656713233319,"longitude":124.60831757821799}},{"type":"Feature","geometry":{"type":"Polygon","coordinates":[[[124.611,1.044],[124.601,1.0535],[124.595,1.0565],[124.6005,1.045],[124.595,1.02],[124.595,1.0195],[124.596,1.0165],[124.598,1.0155],[124.6,1.015],[124.602,1.0135],[124.6055,1.0135],[124.606,1.0145],[124.6025,1.0265],[124.6025,1.0275],[124.605,1.03],[124.6075,1.0295],[124.6095,1.029],[124.61,1.029],[124.6135,1.0305],[124.615,1.0325],[124.6155,1.0325],[124.614,1.034],[124.61,1.0435],[124.611,1.044]]]},"properties":{"code":"71.07.07.2009","name":"Ranoako","latitude":1.035475930383323,"longitude":124.60366121767943}},{"type":"Feature","geometry":{"type":"Polygon","coordinates":[[[124.5875,1.006],[124.585,1.0075],[124.579,1.007],[124.5735,0.996],[124.576,0.9865],[124.566,0.9695],[124.569,0.9645],[124.571,0.9625],[124.5785,0.934],[124.5955,0.937],[124.5985,0.942],[124.6185,0.9465],[124.6195,0.9475],[124.6195,0.948],[124.6195,0.9505],[124.621,0.964],[124.6075,0.9715],[124.5965,0.985],[124.5875,1.006]]]},"properties":{"code":"71.07.07.2010","name":"Suhuyon","latitude":0.9659348116817846,"longitude":124.59130992273964}},{"type":"Feature","geometry":{"type":"Polygon","coordinates":[[[124.6715,1.06],[124.6705,1.0605],[124.6695,1.059],[124.6635,1.0505],[124.664,1.048],[124.6725,1.049],[124.674,1.051],[124.682,1.054],[124.671,1.0595],[124.6715,1.06]]]},"properties":{"code":"71.07.08.2001","name":"Silian","latitude":1.0535162577592647,"longitude":124.67116996781463}},{"type":"Feature","geometry":{"type":"Polygon","coordinates":[[[124.68,1.0685],[124.7365,1.115],[124.7145,1.117],[124.674,1.068],[124.6705,1.0605],[124.6715,1.06],[124.677,1.066],[124.679,1.0665],[124.68,1.0685]]]},"properties":{"code":"71.07.08.2002","name":"Silian Utara","latitude":1.096093669862002,"longitude":124.70536545578035}},{"type":"Feature","geometry":{"type":"Polygon","coordinates":[[[124.7145,1.117],[124.7045,1.118],[124.6935,1.1195],[124.6645,1.1345],[124.669,1.0985],[124.673,1.0935],[124.668,1.062],[124.6705,1.0605],[124.674,1.068],[124.7145,1.117]]]},"properties":{"code":"71.07.08.2003","name":"Silian Satu","latitude":1.1035663424360145,"longitude":124.68303130284838}},{"type":"Feature","geometry":{"type":"Polygon","coordinates":[[[124.6705,1.0605],[124.668,1.062],[124.6675,1.0615],[124.6655,1.0565],[124.6645,1.0545],[124.662,1.0545],[124.66,1.0545],[124.662,1.053],[124.6635,1.051],[124.6695,1.059],[124.6705,1.0605]]]},"properties":{"code":"71.07.08.2004","name":"Silian Selatan","latitude":1.0565973732272083,"longitude":124.66595652587378}},{"type":"Feature","geometry":{"type":"Polygon","coordinates":[[[124.664,1.0745],[124.666,1.0985],[124.653,1.1185],[124.6415,1.118],[124.638,1.1175],[124.6595,1.0795],[124.666,1.058],[124.6665,1.0605],[124.664,1.0745]]]},"properties":{"code":"71.07.08.2005","name":"Silian Dua","latitude":1.096904773973929,"longitude":124.65628489974951}},{"type":"Feature","geometry":{"type":"Polygon","coordinates":[[[124.668,1.062],[124.673,1.0935],[124.669,1.0985],[124.6645,1.1345],[124.6555,1.13],[124.653,1.1185],[124.666,1.0985],[124.664,1.0745],[124.6665,1.063],[124.6675,1.0615],[124.668,1.062]]]},"properties":{"code":"71.07.08.2006","name":"Silian Tengah","latitude":1.1053401787460286,"longitude":124.6637287647952}},{"type":"Feature","geometry":{"type":"Polygon","coordinates":[[[124.665,1.056],[124.661,1.0625],[124.6535,1.0775],[124.6535,1.068],[124.6545,1.061],[124.6595,1.0585],[124.6605,1.056],[124.661,1.055],[124.662,1.0545],[124.6645,1.0545],[124.665,1.056]]]},"properties":{"code":"71.07.08.2007","name":"Silian Tiga","latitude":1.0640173267772983,"longitude":124.65784493397223}},{"type":"Feature","geometry":{"type":"Polygon","coordinates":[[[124.638,1.1175],[124.636,1.118],[124.634,1.118],[124.622,1.115],[124.6205,1.1145],[124.621,1.1125],[124.6265,1.1055],[124.633,1.0995],[124.634,1.098],[124.641,1.1015],[124.661,1.0625],[124.665,1.056],[124.6655,1.0565],[124.666,1.058],[124.6595,1.0795],[124.638,1.1175]]]},"properties":{"code":"71.07.08.2008","name":"Silian Barat","latitude":1.0979866925711312,"longitude":124.64219660591387}},{"type":"Feature","geometry":{"type":"Polygon","coordinates":[[[124.6675,1.0615],[124.6665,1.063],[124.664,1.0745],[124.6665,1.0605],[124.6675,1.0615]]]},"properties":{"code":"71.07.08.2009","name":"Silian Kota","latitude":1.0668883887194067,"longitude":124.66536092464723}},{"type":"Feature","geometry":{"type":"Polygon","coordinates":[[[124.682,1.054],[124.6835,1.055],[124.688,1.0595],[124.707,1.0695],[124.7125,1.081],[124.7225,1.087],[124.733,1.1],[124.7365,1.115],[124.68,1.0685],[124.679,1.0665],[124.677,1.066],[124.671,1.0595],[124.682,1.054]]]},"properties":{"code":"71.07.08.2010","name":"Silian Timur","latitude":1.0806389632115474,"longitude":124.704597456282}},{"type":"Feature","geometry":{"type":"MultiPolygon","coordinates":[[[[124.7345,1.0165],[124.7295,1.018],[124.7305,1.0155],[124.731,1.0115],[124.7305,1.01],[124.7295,1.0085],[124.727,1.0045],[124.733,1.007],[124.7355,1.0125],[124.7365,1.014],[124.737,1.015],[124.7345,1.0165]]],[[[124.73,1.0275],[124.7285,1.028],[124.727,1.0235],[124.728,1.023],[124.7325,1.025],[124.7305,1.028],[124.73,1.0275]]]]},"properties":{"code":"71.07.09.2001","name":"Molompar","latitude":1.013790423287401,"longitude":124.73176642904139}},{"type":"Feature","geometry":{"type":"Polygon","coordinates":[[[124.7325,1.025],[124.728,1.023],[124.7295,1.018],[124.7345,1.0165],[124.737,1.015],[124.7375,1.0165],[124.7375,1.018],[124.734,1.023],[124.7325,1.025]]]},"properties":{"code":"71.07.09.2002","name":"Molompar Satu","latitude":1.02028646784059,"longitude":124.7326365263556}},{"type":"Feature","geometry":{"type":"MultiPolygon","coordinates":[[[[124.708,0.9795],[124.717,0.984],[124.724,1.0025],[124.727,1.0045],[124.7295,1.0085],[124.728,1.0085],[124.723,1.0065],[124.722,1.006],[124.718,1.0055],[124.7065,0.98],[124.707,0.98],[124.708,0.9795]]],[[[124.737,1.0285],[124.7325,1.0335],[124.727,1.029],[124.727,1.027],[124.727,1.0265],[124.728,1.0265],[124.7285,1.028],[124.73,1.0275],[124.7305,1.028],[124.732,1.0285],[124.737,1.0285]]]]},"properties":{"code":"71.07.09.2003","name":"Molompar Atas","latitude":1.0019967208779799,"longitude":124.72078468388375}},{"type":"Feature","geometry":{"type":"MultiPolygon","coordinates":[[[[124.718,1.0055],[124.714,1.0055],[124.708,1.0055],[124.707,1.004],[124.7055,1.0005],[124.7055,1],[124.705,0.999],[124.7045,0.998],[124.7015,0.996],[124.6985,0.9955],[124.6965,0.9965],[124.695,0.9955],[124.6955,0.992],[124.697,0.991],[124.7065,0.98],[124.718,1.0055]]],[[[124.727,1.028],[124.7245,1.028],[124.7245,1.027],[124.724,1.0265],[124.7245,1.0255],[124.725,1.025],[124.726,1.025],[124.727,1.0265],[124.727,1.027],[124.727,1.028]]]]},"properties":{"code":"71.07.09.2004","name":"Molompar Dua","latitude":0.9951899147084756,"longitude":124.7077491057386}},{"type":"Feature","geometry":{"type":"Polygon","coordinates":[[[124.7325,1.0335],[124.728,1.034],[124.7265,1.034],[124.7235,1.034],[124.7245,1.0335],[124.724,1.031],[124.7245,1.028],[124.727,1.028],[124.727,1.029],[124.7325,1.0335]]]},"properties":{"code":"71.07.09.2005","name":"Molompar Dua Utara","latitude":1.0314098680319488,"longitude":124.72709778241995}},{"type":"Feature","geometry":{"type":"Polygon","coordinates":[[[124.727,1.0265],[124.726,1.025],[124.725,1.025],[124.725,1.0245],[124.727,1.017],[124.724,1.011],[124.7215,1.0105],[124.713,1.0105],[124.7095,1.0105],[124.71,1.0085],[124.708,1.0055],[124.714,1.0055],[124.722,1.006],[124.723,1.0065],[124.728,1.0085],[124.7295,1.0085],[124.7305,1.01],[124.731,1.0115],[124.7305,1.0155],[124.7295,1.018],[124.728,1.023],[124.727,1.0235],[124.728,1.0265],[124.727,1.0265]]]},"properties":{"code":"71.07.09.2006","name":"Molompar Dua Selatan","latitude":1.0113116154750277,"longitude":124.72174795963564}},{"type":"Feature","geometry":{"type":"Polygon","coordinates":[[[124.7245,1.028],[124.724,1.031],[124.7245,1.0335],[124.7235,1.034],[124.7145,1.0325],[124.716,1.032],[124.7215,1.0305],[124.7205,1.0275],[124.7115,1.0195],[124.7115,1.0185],[124.7135,1.0185],[124.717,1.02],[124.7205,1.025],[124.7215,1.026],[124.724,1.0265],[124.7245,1.027],[124.7245,1.028]]]},"properties":{"code":"71.07.09.2007","name":"Mundung","latitude":1.0274723384189868,"longitude":124.7195116399985}},{"type":"Feature","geometry":{"type":"Polygon","coordinates":[[[124.7155,1.032],[124.7135,1.0325],[124.7105,1.031],[124.707,1.03],[124.7065,1.0265],[124.7055,1.0235],[124.7065,1.0195],[124.705,1.0095],[124.703,1.0045],[124.7045,1.003],[124.705,1.0025],[124.7055,1.0005],[124.707,1.004],[124.71,1.0085],[124.7095,1.0105],[124.7115,1.015],[124.7115,1.0195],[124.7205,1.0275],[124.7215,1.0305],[124.716,1.032],[124.7155,1.032]]]},"properties":{"code":"71.07.09.2008","name":"Mundung Satu","latitude":1.0210446793899641,"longitude":124.711112742206}},{"type":"Feature","geometry":{"type":"Polygon","coordinates":[[[124.713,1.0105],[124.7215,1.0105],[124.724,1.011],[124.727,1.017],[124.725,1.0245],[124.724,1.0245],[124.7255,1.019],[124.719,1.017],[124.7175,1.015],[124.716,1.014],[124.713,1.0105]]]},"properties":{"code":"71.07.09.2009","name":"Esandom","latitude":1.0146498704254168,"longitude":124.72194901850524}},{"type":"Feature","geometry":{"type":"Polygon","coordinates":[[[124.724,1.0265],[124.7215,1.026],[124.7205,1.025],[124.717,1.02],[124.7135,1.0185],[124.7185,1.0195],[124.722,1.0205],[124.723,1.024],[124.725,1.0245],[124.7245,1.0255],[124.724,1.0265]]]},"properties":{"code":"71.07.09.2010","name":"Esandom Satu","latitude":1.0225604475323116,"longitude":124.72028185621018}},{"type":"Feature","geometry":{"type":"Polygon","coordinates":[[[124.713,1.0105],[124.716,1.014],[124.7175,1.015],[124.719,1.017],[124.7255,1.019],[124.724,1.0245],[124.723,1.024],[124.722,1.0205],[124.7185,1.0195],[124.716,1.0185],[124.7115,1.0185],[124.7115,1.015],[124.7095,1.0105],[124.713,1.0105]]]},"properties":{"code":"71.07.09.2011","name":"Esandom Dua","latitude":1.016780184534812,"longitude":124.71729290821598}},{"type":"Feature","geometry":{"type":"MultiPolygon","coordinates":[[[[124.686,1.046],[124.6845,1.0465],[124.6835,1.0435],[124.6855,1.044],[124.6865,1.044],[124.687,1.0455],[124.686,1.046]]],[[[124.711,1.068],[124.7105,1.0705],[124.7105,1.0715],[124.717,1.0725],[124.718,1.0735],[124.7195,1.0755],[124.722,1.079],[124.7315,1.0855],[124.7365,1.115],[124.733,1.1],[124.7225,1.087],[124.7125,1.081],[124.707,1.0695],[124.688,1.0595],[124.6835,1.055],[124.682,1.054],[124.674,1.051],[124.676,1.0495],[124.6775,1.049],[124.679,1.0505],[124.711,1.068]]]]},"properties":{"code":"71.07.10.2001","name":"Tombatu Dua","latitude":1.0779961850892914,"longitude":124.71463304605184}},{"type":"Feature","geometry":{"type":"Polygon","coordinates":[[[124.7035,1.06],[124.6905,1.054],[124.6845,1.0465],[124.686,1.046],[124.6875,1.0455],[124.688,1.045],[124.7035,1.06]]]},"properties":{"code":"71.07.10.2002","name":"Tombatu Dua Utara","latitude":1.053603277208018,"longitude":124.6944423768867}},{"type":"Feature","geometry":{"type":"Polygon","coordinates":[[[124.7035,1.06],[124.718,1.0735],[124.717,1.0725],[124.7105,1.0715],[124.7105,1.0705],[124.711,1.068],[124.679,1.0505],[124.677,1.0485],[124.681,1.0475],[124.6835,1.047],[124.6845,1.0465],[124.6905,1.054],[124.7035,1.06]]]},"properties":{"code":"71.07.10.2003","name":"Tombatu Dua Barat","latitude":1.0603447871796696,"longitude":124.69944071027116}},{"type":"Feature","geometry":{"type":"Polygon","coordinates":[[[124.6775,1.049],[124.676,1.0495],[124.674,1.051],[124.6735,1.05],[124.6755,1.048],[124.6775,1.0455],[124.6835,1.0435],[124.6845,1.0465],[124.6835,1.047],[124.681,1.0475],[124.677,1.0485],[124.6775,1.049]]]},"properties":{"code":"71.07.10.2004","name":"Tombatu Dua Tengah","latitude":1.0466702874358944,"longitude":124.67965041664372}},{"type":"Feature","geometry":{"type":"Polygon","coordinates":[[[124.7205,1.051],[124.7335,1.0745],[124.7365,1.079],[124.739,1.0985],[124.7365,1.115],[124.7315,1.0855],[124.722,1.079],[124.7195,1.0755],[124.718,1.0735],[124.7035,1.06],[124.688,1.045],[124.687,1.0455],[124.6865,1.044],[124.6945,1.041],[124.7005,1.038],[124.7015,1.037],[124.7025,1.0365],[124.7045,1.036],[124.707,1.036],[124.708,1.0355],[124.7065,1.0375],[124.719,1.049],[124.7205,1.051]]]},"properties":{"code":"71.07.10.2005","name":"Tombatu Tiga","latitude":1.0622073684409619,"longitude":124.71585982582789}},{"type":"Feature","geometry":{"type":"Polygon","coordinates":[[[124.6865,1.044],[124.6855,1.044],[124.685,1.042],[124.6865,1.0405],[124.6885,1.0415],[124.6885,1.043],[124.6865,1.044]]]},"properties":{"code":"71.07.10.2006","name":"Tombatu Tiga Tengah","latitude":1.0419782003920783,"longitude":124.68686685866777}},{"type":"Feature","geometry":{"type":"Polygon","coordinates":[[[124.7005,1.038],[124.6945,1.041],[124.6925,1.036],[124.6925,1.0355],[124.6925,1.0335],[124.6935,1.033],[124.6905,1.016],[124.69,1.013],[124.688,1],[124.6875,0.9985],[124.6885,0.998],[124.6905,0.9985],[124.701,1.0255],[124.699,1.0375],[124.7005,1.038]]]},"properties":{"code":"71.07.10.2007","name":"Kuyanga","latitude":1.0215892587462272,"longitude":124.69489660838804}},{"type":"Feature","geometry":{"type":"Polygon","coordinates":[[[124.708,1.0355],[124.707,1.036],[124.7045,1.036],[124.7025,1.0365],[124.7015,1.037],[124.699,1.0375],[124.701,1.0255],[124.6905,0.9985],[124.688,0.998],[124.6885,0.998],[124.6905,0.998],[124.696,0.9965],[124.6965,0.9965],[124.6985,0.9955],[124.7015,0.996],[124.7045,0.998],[124.705,0.999],[124.7055,1],[124.705,1.0025],[124.7045,1.003],[124.703,1.0045],[124.705,1.0095],[124.7065,1.0195],[124.7055,1.0235],[124.7065,1.0265],[124.707,1.03],[124.7105,1.031],[124.7135,1.0325],[124.708,1.0345],[124.708,1.0355]]]},"properties":{"code":"71.07.10.2008","name":"Kuyanga Satu","latitude":1.0156896104028594,"longitude":124.70121770545991}},{"type":"Feature","geometry":{"type":"Polygon","coordinates":[[[124.7365,1.115],[124.739,1.0985],[124.7365,1.079],[124.7335,1.0745],[124.7205,1.051],[124.7215,1.0485],[124.718,1.038],[124.7215,1.0385],[124.735,1.0585],[124.7375,1.0605],[124.739,1.066],[124.739,1.071],[124.7415,1.0755],[124.741,1.078],[124.7425,1.0915],[124.7445,1.095],[124.75,1.1005],[124.7525,1.1035],[124.7495,1.1055],[124.7365,1.115]]]},"properties":{"code":"71.07.10.2009","name":"Winorangian","latitude":1.0750721397206138,"longitude":124.73482231058371}},{"type":"Feature","geometry":{"type":"Polygon","coordinates":[[[124.7215,1.0385],[124.718,1.038],[124.7215,1.0485],[124.7205,1.051],[124.719,1.049],[124.7065,1.0375],[124.708,1.0345],[124.7135,1.0325],[124.7155,1.032],[124.7145,1.0325],[124.724,1.034],[124.725,1.034],[124.7215,1.0385]]]},"properties":{"code":"71.07.10.2010","name":"Winorangian Satu","latitude":1.0391376646534838,"longitude":124.71544629248474}},{"type":"Feature","geometry":{"type":"MultiPolygon","coordinates":[[[[124.7335,0.9785],[124.736,0.9795],[124.737,0.9795],[124.753,0.996],[124.7415,0.996],[124.733,0.9785],[124.7335,0.9785]]],[[[124.7575,1.099],[124.7525,1.1035],[124.75,1.1005],[124.7445,1.095],[124.7425,1.0915],[124.741,1.078],[124.7415,1.0755],[124.7415,1.075],[124.7515,1.075],[124.747,1.0695],[124.745,1.055],[124.747,1.0395],[124.749,1.027],[124.749,1.022],[124.75,1.0225],[124.75,1.0235],[124.7545,1.033],[124.75,1.065],[124.7495,1.07],[124.753,1.0765],[124.7535,1.0845],[124.756,1.089],[124.7625,1.096],[124.7645,1.099],[124.764,1.099],[124.7575,1.099]]]]},"properties":{"code":"71.07.11.2001","name":"Towuntu","latitude":1.0596919744531232,"longitude":124.74872306859676}},{"type":"Feature","geometry":{"type":"Polygon","coordinates":[[[124.7655,1.0985],[124.7645,1.099],[124.7625,1.096],[124.756,1.089],[124.7535,1.0845],[124.753,1.0765],[124.7495,1.07],[124.75,1.065],[124.7545,1.033],[124.75,1.0235],[124.7505,1.022],[124.754,1.0175],[124.761,1.012],[124.7615,1.0135],[124.7625,1.017],[124.7675,1.0225],[124.764,1.046],[124.7555,1.0615],[124.7605,1.091],[124.7635,1.0965],[124.7655,1.0985]]]},"properties":{"code":"71.07.11.2002","name":"Towuntu Timur","latitude":1.0463359769491565,"longitude":124.75784927440988}},{"type":"Feature","geometry":{"type":"MultiPolygon","coordinates":[[[[124.7555,0.9865],[124.756,0.988],[124.7505,0.985],[124.747,0.977],[124.746,0.9765],[124.7575,0.978],[124.7545,0.981],[124.757,0.984],[124.7575,0.9855],[124.7575,0.986],[124.7555,0.986],[124.7555,0.9865]]],[[[124.749,1.022],[124.749,1.027],[124.747,1.0395],[124.745,1.037],[124.7465,1.025],[124.7475,1.023],[124.7475,1.0225],[124.748,1.0225],[124.749,1.022]]]]},"properties":{"code":"71.07.11.2003","name":"Towuntu Barat","latitude":1.0071661643640577,"longitude":124.74876065776573}},{"type":"Feature","geometry":{"type":"MultiPolygon","coordinates":[[[[124.761,1.0015],[124.7605,1.0015],[124.759,1.0015],[124.757,0.992],[124.7555,0.9865],[124.7555,0.986],[124.7575,0.986],[124.7575,0.9895],[124.759,0.9975],[124.7605,0.9975],[124.761,1.0015]]],[[[124.744,1.0215],[124.744,1.022],[124.7425,1.0275],[124.741,1.0225],[124.743,1.021],[124.7435,1.0215],[124.744,1.0215]]]]},"properties":{"code":"71.07.11.2004","name":"Tolombukan","latitude":1.0037881634653893,"longitude":124.75295324473228}},{"type":"Feature","geometry":{"type":"Polygon","coordinates":[[[124.742,1.0285],[124.735,1.0455],[124.735,1.0585],[124.7215,1.0385],[124.725,1.034],[124.7265,1.034],[124.728,1.034],[124.7325,1.0335],[124.737,1.0285],[124.732,1.0285],[124.7305,1.028],[124.734,1.023],[124.7375,1.018],[124.7385,1.0245],[124.741,1.0225],[124.7425,1.0275],[124.742,1.0285]]]},"properties":{"code":"71.07.11.2005","name":"Tolombukan Satu","latitude":1.0384498347063964,"longitude":124.73250174474188}},{"type":"Feature","geometry":{"type":"Polygon","coordinates":[[[124.741,1.0225],[124.7385,1.0245],[124.7375,1.0165],[124.7365,1.014],[124.7355,1.0125],[124.733,1.007],[124.727,1.0045],[124.724,1.0025],[124.717,0.984],[124.708,0.9795],[124.711,0.979],[124.7125,0.9745],[124.72,0.974],[124.7345,0.999],[124.742,1.0155],[124.743,1.021],[124.741,1.0225]]]},"properties":{"code":"71.07.11.2006","name":"Tolombukan Barat","latitude":0.9953756163236026,"longitude":124.7268676297859}},{"type":"Feature","geometry":{"type":"Polygon","coordinates":[[[124.749,1.022],[124.748,1.0225],[124.7435,1.0215],[124.743,1.021],[124.742,1.0155],[124.7345,0.999],[124.72,0.974],[124.722,0.974],[124.724,0.9755],[124.7285,0.976],[124.7325,0.979],[124.733,0.9785],[124.7415,0.996],[124.753,0.996],[124.7515,0.9945],[124.7515,0.993],[124.7505,0.985],[124.756,0.988],[124.757,0.992],[124.759,1.0015],[124.757,1.0015],[124.754,1.0175],[124.7505,1.022],[124.75,1.0225],[124.749,1.022]]]},"properties":{"code":"71.07.11.2007","name":"Liwutung","latitude":0.9988114713951894,"longitude":124.74250087457987}},{"type":"Feature","geometry":{"type":"MultiPolygon","coordinates":[[[[124.7515,0.993],[124.7515,0.9945],[124.753,0.996],[124.737,0.9795],[124.736,0.9795],[124.7335,0.9785],[124.7325,0.979],[124.7285,0.976],[124.724,0.9755],[124.722,0.974],[124.7145,0.974],[124.7155,0.9705],[124.7215,0.97],[124.724,0.97],[124.732,0.9715],[124.7345,0.9735],[124.737,0.974],[124.7415,0.974],[124.7435,0.976],[124.747,0.977],[124.7505,0.985],[124.7515,0.993]]],[[[124.7455,1.0225],[124.745,1.024],[124.742,1.0285],[124.7425,1.0275],[124.744,1.022],[124.744,1.0215],[124.7455,1.022],[124.7455,1.0225]]]]},"properties":{"code":"71.07.11.2008","name":"Liwutung Satu","latitude":0.9809667538297705,"longitude":124.73805758659903}},{"type":"Feature","geometry":{"type":"MultiPolygon","coordinates":[[[[124.761,1.0015],[124.7615,1.006],[124.7615,1.008],[124.7605,1.01],[124.761,1.012],[124.754,1.0175],[124.757,1.0015],[124.76,1.0015],[124.761,1.0015]]],[[[124.7475,1.023],[124.7465,1.025],[124.745,1.037],[124.747,1.0395],[124.745,1.055],[124.747,1.0695],[124.7515,1.075],[124.7415,1.075],[124.739,1.071],[124.739,1.066],[124.7375,1.0605],[124.735,1.0585],[124.735,1.0455],[124.742,1.0285],[124.745,1.024],[124.7455,1.0225],[124.7455,1.022],[124.7475,1.0225],[124.7475,1.023]]]]},"properties":{"code":"71.07.11.2009","name":"Liwutung Dua","latitude":1.04463392072734,"longitude":124.74487710241335}},{"type":"Feature","geometry":{"type":"Polygon","coordinates":[[[124.7795,0.999],[124.771,0.9975],[124.7685,0.998],[124.768,0.9965],[124.7595,0.9935],[124.7605,0.9975],[124.759,0.9975],[124.7575,0.9895],[124.7575,0.987],[124.7575,0.985],[124.757,0.984],[124.7565,0.9835],[124.755,0.982],[124.7545,0.981],[124.7575,0.978],[124.762,0.9815],[124.7635,0.9815],[124.765,0.979],[124.779,0.9765],[124.785,0.978],[124.788,0.98],[124.7875,0.9865],[124.7845,0.991],[124.7795,0.995],[124.7795,0.999]]]},"properties":{"code":"71.07.11.2010","name":"Poniki","latitude":0.9871011753204975,"longitude":124.77233641834117}},{"type":"Feature","geometry":{"type":"Polygon","coordinates":[[[124.769,1.005],[124.7645,1.0075],[124.7635,1.007],[124.761,1.0015],[124.7595,0.9935],[124.768,0.9965],[124.769,1.005]]]},"properties":{"code":"71.07.11.2011","name":"Maulit","latitude":0.9998718850503167,"longitude":124.76476173226112}},{"type":"Feature","geometry":{"type":"MultiPolygon","coordinates":[[[[124.827,1.0455],[124.826,1.0465],[124.825,1.0465],[124.818,1.0465],[124.818,1.0435],[124.8225,1.043],[124.8255,1.0445],[124.826,1.0455],[124.827,1.0455]]],[[[124.8475,1.0435],[124.847,1.045],[124.846,1.0455],[124.8445,1.0485],[124.831,1.0455],[124.8275,1.0455],[124.832,1.0265],[124.8425,1.0255],[124.844,1.0225],[124.8455,1.02],[124.8535,1.0185],[124.85,1.0405],[124.8475,1.0435]]]]},"properties":{"code":"71.07.12.2001","name":"Wioi","latitude":1.0346123807307162,"longitude":124.84157690656825}},{"type":"Feature","geometry":{"type":"Polygon","coordinates":[[[124.8445,1.0485],[124.8425,1.0505],[124.841,1.0525],[124.8405,1.0555],[124.84,1.056],[124.82,1.0545],[124.8165,1.053],[124.8175,1.049],[124.818,1.0465],[124.825,1.0465],[124.826,1.0465],[124.827,1.0455],[124.8275,1.0455],[124.831,1.0455],[124.8445,1.0485]]]},"properties":{"code":"71.07.12.2002","name":"Wioi Satu","latitude":1.0503403040066452,"longitude":124.83018208981187}},{"type":"Feature","geometry":{"type":"Polygon","coordinates":[[[124.8435,1.0235],[124.8425,1.0255],[124.832,1.0265],[124.8275,1.0455],[124.826,1.0455],[124.8255,1.0445],[124.8225,1.043],[124.821,1.043],[124.8215,1.0395],[124.827,1.036],[124.8225,1.0325],[124.8225,1.0295],[124.8285,1.0195],[124.836,1.0225],[124.84,1.0205],[124.841,1.0225],[124.842,1.023],[124.8435,1.0235]]]},"properties":{"code":"71.07.12.2003","name":"Wioi Dua","latitude":1.0300666567904644,"longitude":124.82944698802501}},{"type":"Feature","geometry":{"type":"Polygon","coordinates":[[[124.818,1.0465],[124.8175,1.049],[124.817,1.0485],[124.8165,1.046],[124.81,1.032],[124.8145,1.013],[124.821,1.015],[124.8245,1.0165],[124.8285,1.0195],[124.8225,1.0295],[124.8225,1.0325],[124.827,1.036],[124.8215,1.0395],[124.821,1.043],[124.818,1.0435],[124.818,1.0465]]]},"properties":{"code":"71.07.12.2004","name":"Wioi Tiga","latitude":1.0295217170341608,"longitude":124.81880946325688}},{"type":"Feature","geometry":{"type":"Polygon","coordinates":[[[124.863,1.0475],[124.862,1.048],[124.856,1.057],[124.841,1.0565],[124.8405,1.0555],[124.841,1.0525],[124.8425,1.0505],[124.8445,1.0485],[124.846,1.0455],[124.847,1.045],[124.8475,1.0435],[124.85,1.0405],[124.8535,1.0185],[124.8585,1.022],[124.859,1.0225],[124.8595,1.023],[124.866,1.022],[124.866,1.024],[124.866,1.025],[124.866,1.026],[124.8665,1.026],[124.867,1.0265],[124.8665,1.027],[124.866,1.027],[124.866,1.0275],[124.866,1.028],[124.867,1.0285],[124.8665,1.029],[124.8655,1.029],[124.865,1.03],[124.864,1.0295],[124.864,1.03],[124.865,1.031],[124.8645,1.032],[124.865,1.033],[124.8645,1.0365],[124.865,1.041],[124.8655,1.041],[124.866,1.041],[124.866,1.042],[124.8645,1.0425],[124.864,1.0435],[124.8625,1.044],[124.862,1.045],[124.8625,1.0455],[124.8625,1.0465],[124.863,1.0475]]]},"properties":{"code":"71.07.12.2005","name":"Wioi Timur","latitude":1.0411017351927252,"longitude":124.85526898679595}},{"type":"Feature","geometry":{"type":"Polygon","coordinates":[[[124.838,1.1205],[124.8375,1.121],[124.8335,1.1205],[124.8285,1.116],[124.828,1.1155],[124.8405,1.0985],[124.8415,1.088],[124.831,1.087],[124.828,1.088],[124.815,1.0965],[124.813,1.0955],[124.807,1.0935],[124.813,1.082],[124.8195,1.0915],[124.8235,1.09],[124.8255,1.087],[124.826,1.0855],[124.83,1.0745],[124.8365,1.0675],[124.854,1.07],[124.8545,1.0705],[124.851,1.08],[124.8505,1.083],[124.8495,1.0985],[124.848,1.1085],[124.838,1.1205]]]},"properties":{"code":"71.07.12.2006","name":"Pangu","latitude":1.0911785804077387,"longitude":124.83699030729842}},{"type":"Feature","geometry":{"type":"Polygon","coordinates":[[[124.8165,1.1155],[124.7915,1.1125],[124.802,1.1035],[124.8085,1.0985],[124.81,1.098],[124.8115,1.0965],[124.812,1.096],[124.8135,1.0955],[124.815,1.0965],[124.828,1.088],[124.831,1.087],[124.8415,1.088],[124.8405,1.0985],[124.828,1.1155],[124.8255,1.1145],[124.8225,1.113],[124.8165,1.1155]]]},"properties":{"code":"71.07.12.2007","name":"Pangu Satu","latitude":1.1027597710706332,"longitude":124.82091328540406}},{"type":"Feature","geometry":{"type":"Polygon","coordinates":[[[124.83,1.0745],[124.826,1.0855],[124.8255,1.087],[124.8235,1.09],[124.8195,1.0915],[124.813,1.082],[124.8135,1.0805],[124.8135,1.0785],[124.8125,1.075],[124.813,1.0715],[124.813,1.0705],[124.825,1.0735],[124.8305,1.071],[124.83,1.0745]]]},"properties":{"code":"71.07.12.2008","name":"Pangu Dua","latitude":1.0804663011877467,"longitude":124.82103489825799}},{"type":"Feature","geometry":{"type":"Polygon","coordinates":[[[124.873,1.0605],[124.86,1.074],[124.854,1.07],[124.8365,1.0675],[124.831,1.062],[124.832,1.0615],[124.836,1.0605],[124.838,1.0585],[124.8385,1.0555],[124.84,1.056],[124.841,1.0565],[124.856,1.057],[124.862,1.048],[124.863,1.0475],[124.864,1.0465],[124.864,1.0515],[124.8645,1.0525],[124.873,1.0605]]]},"properties":{"code":"71.07.12.2009","name":"Wongkai","latitude":1.0621024722941124,"longitude":124.85563046503906}},{"type":"Feature","geometry":{"type":"Polygon","coordinates":[[[124.8725,1.064],[124.871,1.0735],[124.8545,1.0885],[124.8495,1.0985],[124.8505,1.083],[124.851,1.08],[124.8545,1.0705],[124.86,1.074],[124.873,1.0605],[124.8725,1.064]]]},"properties":{"code":"71.07.12.2010","name":"Wongkai Satu","latitude":1.0796011203971232,"longitude":124.85767476734122}}]}