{"type":"FeatureCollection","features":[{"type":"Feature","geometry":{"type":"Polygon","coordinates":[[[124.331,0.7515],[124.3245,0.754],[124.3185,0.754],[124.318,0.7525],[124.3155,0.7495],[124.314,0.7485],[124.3135,0.748],[124.315,0.746],[124.3215,0.7465],[124.3215,0.7455],[124.322,0.746],[124.329,0.7485],[124.3295,0.7495],[124.331,0.7515]]]},"properties":{"code":"71.74.01.1005","name":"Biga"}},{"type":"Feature","geometry":{"type":"Polygon","coordinates":[[[124.345,0.7585],[124.34,0.7595],[124.337,0.761],[124.335,0.7655],[124.329,0.7625],[124.3275,0.7605],[124.325,0.7595],[124.319,0.7585],[124.3185,0.758],[124.318,0.756],[124.318,0.7545],[124.3185,0.754],[124.3245,0.754],[124.331,0.7515],[124.331,0.752],[124.3315,0.7525],[124.332,0.753],[124.334,0.754],[124.334,0.753],[124.3335,0.752],[124.3365,0.7505],[124.337,0.7515],[124.3385,0.7575],[124.3395,0.758],[124.345,0.7585]]]},"properties":{"code":"71.74.01.1006","name":"Upai"}},{"type":"Feature","geometry":{"type":"Polygon","coordinates":[[[124.3185,0.758],[124.316,0.7595],[124.3145,0.758],[124.312,0.7565],[124.3095,0.7535],[124.307,0.7525],[124.3075,0.7515],[124.3075,0.751],[124.31,0.7485],[124.309,0.7475],[124.31,0.7465],[124.3105,0.746],[124.311,0.745],[124.3115,0.7455],[124.3135,0.748],[124.314,0.7485],[124.3155,0.7495],[124.318,0.7525],[124.3185,0.754],[124.318,0.7545],[124.318,0.756],[124.3185,0.758]]]},"properties":{"code":"71.74.01.1007","name":"Genggulang"}},{"type":"Feature","geometry":{"type":"Polygon","coordinates":[[[124.3155,0.759],[124.315,0.7615],[124.3145,0.762],[124.314,0.7635],[124.3135,0.7645],[124.312,0.7635],[124.304,0.762],[124.305,0.7535],[124.306,0.7525],[124.3075,0.7515],[124.307,0.7525],[124.3095,0.7535],[124.312,0.7565],[124.3145,0.758],[124.3155,0.759]]]},"properties":{"code":"71.74.01.2001","name":"Bilalang Satu"}},{"type":"Feature","geometry":{"type":"Polygon","coordinates":[[[124.3245,0.7725],[124.321,0.7745],[124.3165,0.772],[124.315,0.7655],[124.3135,0.7645],[124.314,0.7635],[124.3145,0.762],[124.315,0.7615],[124.3155,0.759],[124.316,0.7595],[124.319,0.762],[124.321,0.7635],[124.3215,0.7655],[124.322,0.7665],[124.322,0.7675],[124.322,0.7685],[124.3235,0.77],[124.3235,0.7705],[124.3245,0.7725]]]},"properties":{"code":"71.74.01.2002","name":"Bilalang Dua"}},{"type":"Feature","geometry":{"type":"Polygon","coordinates":[[[124.329,0.7625],[124.327,0.763],[124.3255,0.762],[124.325,0.7625],[124.324,0.7635],[124.322,0.7655],[124.3215,0.7655],[124.321,0.7635],[124.319,0.762],[124.316,0.7595],[124.3185,0.758],[124.319,0.7585],[124.325,0.7595],[124.3275,0.7605],[124.329,0.7625]]]},"properties":{"code":"71.74.01.2003","name":"Pontodon"}},{"type":"Feature","geometry":{"type":"Polygon","coordinates":[[[124.344,0.7685],[124.3375,0.769],[124.3345,0.769],[124.335,0.7655],[124.337,0.761],[124.34,0.7595],[124.345,0.7585],[124.353,0.7595],[124.351,0.761],[124.3475,0.764],[124.346,0.7685],[124.344,0.7685]]]},"properties":{"code":"71.74.01.2004","name":"Sia"}},{"type":"Feature","geometry":{"type":"Polygon","coordinates":[[[124.3255,0.7725],[124.3245,0.7725],[124.3235,0.7705],[124.3235,0.77],[124.322,0.7685],[124.322,0.7675],[124.322,0.7665],[124.322,0.7655],[124.324,0.7635],[124.325,0.7625],[124.3255,0.762],[124.327,0.763],[124.329,0.7625],[124.335,0.7655],[124.3345,0.769],[124.3325,0.7695],[124.3255,0.7725]]]},"properties":{"code":"71.74.01.2008","name":"Pontodon Timur"}},{"type":"Feature","geometry":{"type":"Polygon","coordinates":[[[124.329,0.7485],[124.322,0.746],[124.3205,0.7455],[124.3125,0.736],[124.313,0.734],[124.3135,0.7345],[124.3145,0.7345],[124.317,0.733],[124.318,0.733],[124.32,0.7325],[124.3315,0.732],[124.331,0.7325],[124.329,0.7485]]]},"properties":{"code":"71.74.02.1003","name":"Kotobangun"}},{"type":"Feature","geometry":{"type":"Polygon","coordinates":[[[124.3315,0.732],[124.32,0.7325],[124.3185,0.7325],[124.316,0.7245],[124.3185,0.724],[124.32,0.723],[124.3205,0.7235],[124.3335,0.727],[124.3355,0.727],[124.3335,0.7295],[124.332,0.731],[124.3315,0.732]]]},"properties":{"code":"71.74.02.1004","name":"Tumubui"}},{"type":"Feature","geometry":{"type":"Polygon","coordinates":[[[124.3185,0.7325],[124.318,0.733],[124.317,0.733],[124.3145,0.7345],[124.3135,0.7345],[124.313,0.734],[124.3105,0.7335],[124.31,0.7335],[124.3085,0.7315],[124.3075,0.7295],[124.3065,0.729],[124.3065,0.728],[124.3085,0.7275],[124.3095,0.7275],[124.314,0.7265],[124.316,0.7245],[124.3185,0.7325]]]},"properties":{"code":"71.74.02.1005","name":"Sinindian"}},{"type":"Feature","geometry":{"type":"Polygon","coordinates":[[[124.316,0.7245],[124.314,0.7265],[124.3095,0.7275],[124.3085,0.7275],[124.3065,0.728],[124.306,0.7275],[124.3065,0.726],[124.3055,0.7255],[124.3045,0.7235],[124.305,0.7235],[124.306,0.721],[124.306,0.72],[124.3065,0.72],[124.309,0.719],[124.311,0.7185],[124.3125,0.7175],[124.313,0.7155],[124.318,0.719],[124.321,0.721],[124.3205,0.721],[124.32,0.7215],[124.32,0.723],[124.3185,0.724],[124.316,0.7245]]]},"properties":{"code":"71.74.02.1006","name":"Matali"}},{"type":"Feature","geometry":{"type":"Polygon","coordinates":[[[124.344,0.719],[124.3215,0.7215],[124.3215,0.7225],[124.32,0.7225],[124.3205,0.721],[124.321,0.721],[124.318,0.719],[124.313,0.7155],[124.313,0.714],[124.319,0.7145],[124.321,0.714],[124.323,0.7145],[124.3245,0.717],[124.3275,0.7165],[124.344,0.7105],[124.3565,0.711],[124.3565,0.713],[124.355,0.716],[124.354,0.7185],[124.3525,0.722],[124.351,0.7215],[124.3505,0.7215],[124.3495,0.721],[124.349,0.721],[124.3465,0.7195],[124.344,0.719]]]},"properties":{"code":"71.74.02.1007","name":"Motoboi Besar"}},{"type":"Feature","geometry":{"type":"Polygon","coordinates":[[[124.344,0.719],[124.335,0.727],[124.3355,0.727],[124.3345,0.727],[124.3335,0.727],[124.3205,0.7235],[124.32,0.723],[124.32,0.7225],[124.3215,0.7225],[124.3215,0.7215],[124.344,0.719]]]},"properties":{"code":"71.74.02.1008","name":"Kobo Besar"}},{"type":"Feature","geometry":{"type":"Polygon","coordinates":[[[124.357,0.7555],[124.3545,0.758],[124.353,0.7595],[124.345,0.7585],[124.3395,0.758],[124.3385,0.7575],[124.337,0.7515],[124.337,0.7495],[124.336,0.748],[124.3425,0.737],[124.343,0.7355],[124.3435,0.736],[124.346,0.7365],[124.349,0.737],[124.349,0.743],[124.357,0.7555]]]},"properties":{"code":"71.74.02.2001","name":"Moyag"}},{"type":"Feature","geometry":{"type":"Polygon","coordinates":[[[124.3565,0.711],[124.344,0.7105],[124.3275,0.7165],[124.3245,0.717],[124.323,0.7145],[124.346,0.7005],[124.353,0.693],[124.357,0.676],[124.369,0.6765],[124.3715,0.687],[124.3635,0.691],[124.361,0.702],[124.357,0.708],[124.357,0.71],[124.3565,0.711]]]},"properties":{"code":"71.74.02.2002","name":"Kobo Kecil"}},{"type":"Feature","geometry":{"type":"Polygon","coordinates":[[[124.3365,0.7505],[124.3335,0.752],[124.334,0.753],[124.334,0.754],[124.332,0.753],[124.3315,0.752],[124.3305,0.751],[124.3295,0.7495],[124.329,0.7485],[124.331,0.7325],[124.332,0.731],[124.3335,0.7295],[124.3355,0.727],[124.3365,0.7275],[124.343,0.735],[124.3425,0.737],[124.336,0.748],[124.337,0.7495],[124.3365,0.7505]]]},"properties":{"code":"71.74.02.2009","name":"Moyag Tampoan"}},{"type":"Feature","geometry":{"type":"Polygon","coordinates":[[[124.349,0.7305],[124.349,0.737],[124.346,0.7365],[124.3435,0.736],[124.343,0.7355],[124.343,0.735],[124.3365,0.7275],[124.335,0.727],[124.344,0.719],[124.3465,0.7195],[124.349,0.721],[124.3495,0.721],[124.3505,0.7215],[124.351,0.7215],[124.3525,0.722],[124.3515,0.7235],[124.3495,0.7275],[124.349,0.7305]]]},"properties":{"code":"71.74.02.2010","name":"Moyag Todulan"}},{"type":"Feature","geometry":{"type":"Polygon","coordinates":[[[124.301,0.728],[124.2975,0.7295],[124.2945,0.7265],[124.294,0.726],[124.2945,0.725],[124.2945,0.724],[124.294,0.7235],[124.2975,0.709],[124.2975,0.7075],[124.301,0.7055],[124.3015,0.707],[124.3055,0.7195],[124.306,0.721],[124.305,0.7235],[124.3045,0.7235],[124.3055,0.7255],[124.3055,0.7265],[124.305,0.726],[124.301,0.728]]]},"properties":{"code":"71.74.03.1007","name":"Motoboi Kecil"}},{"type":"Feature","geometry":{"type":"Polygon","coordinates":[[[124.2835,0.7265],[124.271,0.7255],[124.2705,0.7255],[124.263,0.7265],[124.261,0.728],[124.259,0.728],[124.257,0.726],[124.254,0.7255],[124.254,0.7235],[124.267,0.718],[124.279,0.722],[124.2865,0.7235],[124.2925,0.722],[124.2935,0.724],[124.2945,0.7235],[124.2945,0.724],[124.2945,0.725],[124.294,0.726],[124.294,0.7255],[124.292,0.726],[124.2885,0.728],[124.2845,0.726],[124.2835,0.7265]]]},"properties":{"code":"71.74.03.1008","name":"Mongondow"}},{"type":"Feature","geometry":{"type":"Polygon","coordinates":[[[124.313,0.7155],[124.3125,0.7175],[124.311,0.7185],[124.309,0.719],[124.3065,0.72],[124.306,0.72],[124.3055,0.7195],[124.3015,0.707],[124.3005,0.7045],[124.3045,0.7045],[124.3045,0.705],[124.3055,0.7055],[124.3065,0.706],[124.312,0.7085],[124.312,0.709],[124.3135,0.7125],[124.313,0.714],[124.313,0.7155]]]},"properties":{"code":"71.74.03.1009","name":"Pobundayan"}},{"type":"Feature","geometry":{"type":"Polygon","coordinates":[[[124.369,0.6765],[124.357,0.676],[124.353,0.693],[124.346,0.7005],[124.323,0.7145],[124.321,0.714],[124.32,0.714],[124.328,0.7005],[124.328,0.6895],[124.3345,0.673],[124.35,0.6555],[124.3515,0.654],[124.353,0.6545],[124.3655,0.6565],[124.369,0.6565],[124.372,0.6565],[124.375,0.6655],[124.37,0.669],[124.369,0.6765]]]},"properties":{"code":"71.74.03.2001","name":"Poyowa Besar Satu"}},{"type":"Feature","geometry":{"type":"Polygon","coordinates":[[[124.32,0.714],[124.319,0.7145],[124.313,0.714],[124.3135,0.7125],[124.312,0.709],[124.312,0.708],[124.318,0.706],[124.322,0.665],[124.3225,0.664],[124.329,0.652],[124.3415,0.6485],[124.347,0.653],[124.3515,0.654],[124.35,0.6555],[124.3345,0.673],[124.328,0.6895],[124.328,0.7005],[124.32,0.714]]]},"properties":{"code":"71.74.03.2002","name":"Poyowa Besar Dua"}},{"type":"Feature","geometry":{"type":"Polygon","coordinates":[[[124.322,0.665],[124.318,0.706],[124.312,0.708],[124.312,0.7085],[124.3065,0.706],[124.3055,0.7055],[124.3055,0.705],[124.305,0.704],[124.306,0.703],[124.305,0.7025],[124.3045,0.6995],[124.3085,0.667],[124.31,0.666],[124.313,0.666],[124.322,0.665]]]},"properties":{"code":"71.74.03.2003","name":"Tabang"}},{"type":"Feature","geometry":{"type":"Polygon","coordinates":[[[124.301,0.7055],[124.2975,0.7075],[124.2975,0.7065],[124.2965,0.7035],[124.293,0.6995],[124.29,0.693],[124.2915,0.69],[124.294,0.6735],[124.294,0.659],[124.2975,0.6605],[124.298,0.6605],[124.299,0.6615],[124.299,0.6635],[124.2995,0.664],[124.304,0.662],[124.3085,0.667],[124.3045,0.6995],[124.305,0.7025],[124.306,0.703],[124.305,0.704],[124.3055,0.705],[124.3055,0.7055],[124.3045,0.7045],[124.3005,0.7045],[124.301,0.7055]]]},"properties":{"code":"71.74.03.2004","name":"Bungko"}},{"type":"Feature","geometry":{"type":"Polygon","coordinates":[[[124.2975,0.7075],[124.297,0.7085],[124.2965,0.708],[124.2935,0.708],[124.274,0.7145],[124.2715,0.7125],[124.283,0.7045],[124.2895,0.6935],[124.29,0.693],[124.293,0.6995],[124.2965,0.7035],[124.2975,0.7065],[124.2975,0.7075]]]},"properties":{"code":"71.74.03.2005","name":"Kopandakan Satu"}},{"type":"Feature","geometry":{"type":"Polygon","coordinates":[[[124.2945,0.7235],[124.2935,0.724],[124.2925,0.722],[124.2865,0.7235],[124.279,0.722],[124.267,0.718],[124.254,0.7235],[124.2535,0.7205],[124.2525,0.707],[124.261,0.7085],[124.2715,0.7125],[124.274,0.7145],[124.2935,0.708],[124.2965,0.708],[124.297,0.7085],[124.2975,0.709],[124.294,0.7235],[124.2945,0.7235]]]},"properties":{"code":"71.74.03.2006","name":"Poyowa Kecil"}},{"type":"Feature","geometry":{"type":"Polygon","coordinates":[[[124.2885,0.728],[124.2915,0.7345],[124.291,0.7345],[124.2895,0.7345],[124.288,0.7375],[124.287,0.7365],[124.286,0.7335],[124.2835,0.7265],[124.2845,0.726],[124.2885,0.728]]]},"properties":{"code":"71.74.04.1001","name":"Mongkonai"}},{"type":"Feature","geometry":{"type":"Polygon","coordinates":[[[124.302,0.7385],[124.3015,0.74],[124.2885,0.7375],[124.288,0.7375],[124.2895,0.7345],[124.291,0.7345],[124.2915,0.7345],[124.2885,0.728],[124.292,0.726],[124.294,0.7255],[124.2945,0.7265],[124.2975,0.7295],[124.301,0.728],[124.3015,0.735],[124.302,0.738],[124.302,0.7385]]]},"properties":{"code":"71.74.04.1002","name":"Molinow"}},{"type":"Feature","geometry":{"type":"Polygon","coordinates":[[[124.309,0.739],[124.303,0.7385],[124.302,0.7385],[124.302,0.738],[124.3015,0.735],[124.301,0.728],[124.305,0.726],[124.3055,0.7265],[124.3065,0.726],[124.306,0.7275],[124.3065,0.729],[124.3075,0.7295],[124.3085,0.7315],[124.31,0.7335],[124.3105,0.7335],[124.311,0.734],[124.3105,0.737],[124.3095,0.7385],[124.309,0.739]]]},"properties":{"code":"71.74.04.1003","name":"Mogolaing"}},{"type":"Feature","geometry":{"type":"Polygon","coordinates":[[[124.306,0.7525],[124.2955,0.7525],[124.2835,0.748],[124.2885,0.7375],[124.3015,0.74],[124.302,0.7385],[124.303,0.7385],[124.309,0.739],[124.3105,0.745],[124.311,0.745],[124.3105,0.746],[124.31,0.7465],[124.309,0.7475],[124.31,0.7485],[124.3075,0.751],[124.306,0.7525]]]},"properties":{"code":"71.74.04.1004","name":"Gogagoman"}},{"type":"Feature","geometry":{"type":"Polygon","coordinates":[[[124.3215,0.7455],[124.3215,0.7465],[124.315,0.746],[124.3135,0.748],[124.3115,0.7455],[124.3105,0.745],[124.309,0.739],[124.3095,0.7385],[124.3105,0.737],[124.311,0.734],[124.3125,0.736],[124.3205,0.7455],[124.3215,0.7455]]]},"properties":{"code":"71.74.04.1005","name":"Kotamobagu"}},{"type":"Feature","geometry":{"type":"Polygon","coordinates":[[[124.2665,0.7505],[124.2655,0.751],[124.265,0.7535],[124.265,0.7575],[124.2625,0.755],[124.2555,0.7505],[124.2545,0.7325],[124.254,0.7255],[124.257,0.726],[124.259,0.728],[124.261,0.728],[124.263,0.7265],[124.2705,0.7255],[124.271,0.7255],[124.2835,0.7265],[124.286,0.7335],[124.287,0.7365],[124.2885,0.7375],[124.2835,0.748],[124.2695,0.743],[124.2675,0.744],[124.2665,0.7455],[124.2665,0.7505]]]},"properties":{"code":"71.74.04.1006","name":"Mongkonai Barat"}}]}