{"type":"FeatureCollection","features":[{"type":"Feature","geometry":{"type":"Polygon","coordinates":[[[120.1715,0.754],[120.161,0.754],[120.137,0.747],[120.138,0.744],[120.1385,0.7435],[120.14,0.745],[120.1395,0.7385],[120.152,0.724],[120.164,0.7195],[120.1655,0.7195],[120.166,0.7185],[120.196,0.701],[120.196,0.699],[120.199,0.6835],[120.199,0.6645],[120.1925,0.6305],[120.1925,0.616],[120.2115,0.6065],[120.229,0.608],[120.2355,0.611],[120.2405,0.613],[120.2465,0.617],[120.2465,0.619],[120.246,0.6235],[120.2385,0.6315],[120.229,0.6495],[120.2315,0.6575],[120.2235,0.6905],[120.223,0.691],[120.2175,0.7065],[120.2175,0.7085],[120.197,0.7085],[120.1865,0.7095],[120.163,0.728],[120.1615,0.734],[120.182,0.736],[120.1715,0.754]]]},"properties":{"code":"72.04.01.2001","name":"Kombo","latitude":0.6695956582693916,"longitude":120.20291259603532}},{"type":"Feature","geometry":{"type":"Polygon","coordinates":[[[120.1895,0.7645],[120.182,0.7585],[120.203,0.74],[120.21,0.7305],[120.215,0.732],[120.2275,0.7045],[120.2325,0.706],[120.2315,0.7065],[120.2315,0.7075],[120.231,0.7105],[120.228,0.7175],[120.228,0.72],[120.225,0.7245],[120.2245,0.726],[120.2105,0.7455],[120.1985,0.755],[120.2,0.756],[120.2,0.7565],[120.1935,0.7625],[120.1925,0.764],[120.1915,0.764],[120.1895,0.7645]]]},"properties":{"code":"72.04.01.2002","name":"Tampiala","latitude":0.7391493199708048,"longitude":120.20757175307892}},{"type":"Feature","geometry":{"type":"Polygon","coordinates":[[[120.3005,0.649],[120.298,0.651],[120.2955,0.6535],[120.2915,0.664],[120.279,0.668],[120.272,0.685],[120.25,0.7],[120.2415,0.7255],[120.2345,0.73],[120.2175,0.754],[120.206,0.775],[120.1895,0.7645],[120.1915,0.764],[120.1925,0.764],[120.1935,0.7625],[120.2,0.7565],[120.215,0.749],[120.2285,0.731],[120.2365,0.7095],[120.2465,0.6975],[120.2575,0.685],[120.2595,0.6745],[120.268,0.661],[120.271,0.6555],[120.2725,0.654],[120.2855,0.648],[120.289,0.6395],[120.2995,0.6455],[120.3005,0.649]]]},"properties":{"code":"72.04.01.2003","name":"Soni","latitude":0.6978523296561129,"longitude":120.2528157205517}},{"type":"Feature","geometry":{"type":"Polygon","coordinates":[[[120.234,0.794],[120.219,0.784],[120.241,0.744],[120.247,0.723],[120.268,0.706],[120.291,0.6735],[120.3015,0.673],[120.3015,0.6735],[120.276,0.7045],[120.275,0.718],[120.253,0.7245],[120.245,0.7315],[120.247,0.74],[120.245,0.767],[120.247,0.7775],[120.247,0.781],[120.245,0.7845],[120.2445,0.7845],[120.244,0.785],[120.243,0.785],[120.2435,0.7855],[120.2425,0.7855],[120.238,0.79],[120.2365,0.791],[120.2365,0.792],[120.236,0.793],[120.234,0.794]]]},"properties":{"code":"72.04.01.2004","name":"Bangkir","latitude":0.7441529972631719,"longitude":120.25050564211372}},{"type":"Feature","geometry":{"type":"Polygon","coordinates":[[[120.283,0.838],[120.2815,0.8375],[120.279,0.838],[120.274,0.8395],[120.25,0.8415],[120.244,0.84],[120.2445,0.821],[120.234,0.794],[120.236,0.793],[120.2365,0.792],[120.2365,0.791],[120.2375,0.7905],[120.264,0.795],[120.276,0.7685],[120.3025,0.755],[120.314,0.7605],[120.3205,0.749],[120.341,0.7385],[120.3465,0.7375],[120.352,0.738],[120.356,0.738],[120.3575,0.7435],[120.343,0.7665],[120.3405,0.776],[120.338,0.78],[120.33,0.8005],[120.323,0.7965],[120.3095,0.8165],[120.3085,0.818],[120.3065,0.82],[120.297,0.829],[120.285,0.828],[120.2835,0.836],[120.283,0.838]]]},"properties":{"code":"72.04.01.2005","name":"Dongko","latitude":0.7920851897371186,"longitude":120.29384376014814}},{"type":"Feature","geometry":{"type":"Polygon","coordinates":[[[120.284,0.864],[120.271,0.87],[120.241,0.8735],[120.244,0.84],[120.25,0.8415],[120.274,0.8395],[120.279,0.838],[120.2815,0.8375],[120.283,0.838],[120.2815,0.841],[120.2805,0.844],[120.2815,0.846],[120.286,0.848],[120.2865,0.8485],[120.286,0.85],[120.283,0.852],[120.2825,0.8585],[120.284,0.8615],[120.284,0.864]]]},"properties":{"code":"72.04.01.2006","name":"Mimbala","latitude":0.8554331097327695,"longitude":120.26226755090606}},{"type":"Feature","geometry":{"type":"Polygon","coordinates":[[[120.305,0.6715],[120.3015,0.673],[120.291,0.6735],[120.268,0.706],[120.247,0.723],[120.241,0.744],[120.219,0.784],[120.206,0.775],[120.2175,0.754],[120.2345,0.73],[120.2415,0.7255],[120.25,0.7],[120.272,0.685],[120.279,0.668],[120.2915,0.664],[120.2955,0.6535],[120.298,0.651],[120.3005,0.649],[120.301,0.6505],[120.31,0.657],[120.3115,0.6585],[120.3115,0.661],[120.3105,0.664],[120.305,0.6715]]]},"properties":{"code":"72.04.01.2007","name":"Lempe","latitude":0.7149940450722139,"longitude":120.25529748625877}},{"type":"Feature","geometry":{"type":"Polygon","coordinates":[[[120.289,0.6395],[120.2855,0.648],[120.2725,0.654],[120.271,0.6555],[120.268,0.661],[120.2595,0.6745],[120.2575,0.685],[120.2465,0.6975],[120.2365,0.7095],[120.2285,0.731],[120.215,0.749],[120.2,0.7565],[120.2,0.756],[120.1985,0.755],[120.2105,0.7455],[120.2245,0.726],[120.225,0.7245],[120.228,0.72],[120.228,0.7175],[120.231,0.7105],[120.2315,0.7075],[120.2315,0.7065],[120.2325,0.706],[120.2325,0.705],[120.241,0.6955],[120.247,0.668],[120.2615,0.6445],[120.267,0.6405],[120.2695,0.6315],[120.269,0.6305],[120.283,0.6305],[120.289,0.6395]]]},"properties":{"code":"72.04.01.2008","name":"Paddumpu","latitude":0.680053265225537,"longitude":120.25142772962698}},{"type":"Feature","geometry":{"type":"Polygon","coordinates":[[[120.21,0.7305],[120.203,0.74],[120.182,0.7585],[120.1715,0.754],[120.182,0.736],[120.182,0.724],[120.197,0.7085],[120.2175,0.7085],[120.2175,0.711],[120.21,0.7175],[120.21,0.7305]]]},"properties":{"code":"72.04.01.2009","name":"Abbajareng","latitude":0.7312445011399865,"longitude":120.1939933896658}},{"type":"Feature","geometry":{"type":"Polygon","coordinates":[[[120.356,0.738],[120.352,0.738],[120.3465,0.7375],[120.341,0.7385],[120.3205,0.749],[120.314,0.7605],[120.3025,0.755],[120.276,0.7685],[120.264,0.795],[120.2375,0.7905],[120.238,0.79],[120.2425,0.7855],[120.2435,0.7855],[120.243,0.785],[120.244,0.785],[120.2445,0.7845],[120.245,0.7845],[120.247,0.781],[120.247,0.7775],[120.245,0.767],[120.247,0.74],[120.245,0.7315],[120.253,0.7245],[120.275,0.718],[120.276,0.7045],[120.3015,0.6735],[120.305,0.6715],[120.3105,0.664],[120.3115,0.661],[120.3115,0.6585],[120.314,0.6595],[120.33,0.668],[120.3405,0.6665],[120.334,0.689],[120.348,0.709],[120.3535,0.729],[120.356,0.738]]]},"properties":{"code":"72.04.01.2010","name":"Puse","latitude":0.7266261323600706,"longitude":120.2969134249094}},{"type":"Feature","geometry":{"type":"Polygon","coordinates":[[[120.197,0.7085],[120.182,0.724],[120.182,0.736],[120.1615,0.734],[120.163,0.728],[120.1865,0.7095],[120.197,0.7085]]]},"properties":{"code":"72.04.01.2011","name":"Pallakawe","latitude":0.7245522035560541,"longitude":120.1773951722279}},{"type":"Feature","geometry":{"type":"Polygon","coordinates":[[[120.2915,0.87],[120.2915,0.8705],[120.2905,0.872],[120.2845,0.8755],[120.281,0.8825],[120.26,0.887],[120.2585,0.888],[120.2455,0.9005],[120.2405,0.8995],[120.2345,0.8845],[120.241,0.8735],[120.271,0.87],[120.284,0.864],[120.2845,0.8655],[120.2855,0.867],[120.287,0.868],[120.291,0.8695],[120.2915,0.87]]]},"properties":{"code":"72.04.01.2012","name":"Simuntu","latitude":0.8809570111783982,"longitude":120.2586443086821}},{"type":"Feature","geometry":{"type":"Polygon","coordinates":[[[120.2325,0.706],[120.2275,0.7045],[120.215,0.732],[120.21,0.7305],[120.21,0.7175],[120.2175,0.711],[120.2175,0.7085],[120.2175,0.7065],[120.223,0.691],[120.2235,0.6905],[120.2315,0.6575],[120.229,0.6495],[120.2385,0.6315],[120.246,0.6235],[120.2465,0.619],[120.2465,0.617],[120.25,0.6195],[120.259,0.6235],[120.269,0.6305],[120.2695,0.6315],[120.267,0.6405],[120.2615,0.6445],[120.247,0.668],[120.241,0.6955],[120.2325,0.705],[120.2325,0.706]]]},"properties":{"code":"72.04.01.2013","name":"Lemba Harapan","latitude":0.6658623669184205,"longitude":120.23972695277493}},{"type":"Feature","geometry":{"type":"Polygon","coordinates":[[[120.34,0.929],[120.321,0.931],[120.3065,0.929],[120.307,0.9265],[120.3035,0.92],[120.304,0.9195],[120.3045,0.9185],[120.3045,0.917],[120.2995,0.9005],[120.304,0.8965],[120.303,0.8945],[120.2935,0.8755],[120.2915,0.8695],[120.29,0.869],[120.287,0.868],[120.2855,0.867],[120.2845,0.8655],[120.284,0.8615],[120.2825,0.8585],[120.283,0.852],[120.286,0.85],[120.2865,0.8485],[120.286,0.848],[120.2815,0.846],[120.2805,0.844],[120.2815,0.841],[120.283,0.8385],[120.283,0.838],[120.2835,0.836],[120.285,0.828],[120.297,0.829],[120.2985,0.846],[120.304,0.851],[120.307,0.8535],[120.327,0.8565],[120.33,0.8785],[120.3365,0.885],[120.34,0.8985],[120.3375,0.9085],[120.34,0.929]]]},"properties":{"code":"72.04.02.2001","name":"Banagan","latitude":0.8844838524408284,"longitude":120.31277627157013}},{"type":"Feature","geometry":{"type":"Polygon","coordinates":[[[120.2955,0.938],[120.2935,0.9375],[120.264,0.935],[120.252,0.939],[120.246,0.926],[120.2845,0.9035],[120.2995,0.9005],[120.3045,0.917],[120.3045,0.9185],[120.304,0.9195],[120.302,0.9195],[120.296,0.937],[120.2955,0.938]]]},"properties":{"code":"72.04.02.2002","name":"Kabinuang","latitude":0.9218107864196573,"longitude":120.27832484243173}},{"type":"Feature","geometry":{"type":"Polygon","coordinates":[[[120.295,0.9405],[120.2865,0.9615],[120.284,0.9765],[120.2745,0.968],[120.266,0.968],[120.257,0.9565],[120.2475,0.9575],[120.252,0.939],[120.264,0.935],[120.2935,0.9375],[120.2955,0.938],[120.295,0.9405]]]},"properties":{"code":"72.04.02.2003","name":"Ogotua","latitude":0.9538389167309053,"longitude":120.27004732272334}},{"type":"Feature","geometry":{"type":"Polygon","coordinates":[[[120.3265,0.961],[120.3175,0.9545],[120.317,0.954],[120.32,0.9465],[120.3065,0.9375],[120.3065,0.931],[120.3065,0.929],[120.321,0.931],[120.34,0.929],[120.34,0.942],[120.347,0.9505],[120.34,0.9505],[120.3385,0.95],[120.3375,0.9525],[120.327,0.9605],[120.3265,0.961]]]},"properties":{"code":"72.04.02.2004","name":"Tompoh","latitude":0.9421336764727812,"longitude":120.3267643322354}},{"type":"Feature","geometry":{"type":"Polygon","coordinates":[[[120.3365,0.9815],[120.32,0.9855],[120.298,0.9815],[120.2835,0.9865],[120.284,0.9765],[120.2865,0.9615],[120.295,0.9405],[120.296,0.937],[120.302,0.9195],[120.3035,0.92],[120.307,0.9265],[120.3065,0.931],[120.3065,0.9375],[120.3065,0.939],[120.308,0.951],[120.316,0.954],[120.3175,0.9545],[120.3265,0.961],[120.3275,0.962],[120.3275,0.9645],[120.3315,0.967],[120.3365,0.9815]]]},"properties":{"code":"72.04.02.2005","name":"Bambapula","latitude":0.9627893848275285,"longitude":120.30644608968721}},{"type":"Feature","geometry":{"type":"Polygon","coordinates":[[[120.347,0.9505],[120.3465,0.974],[120.3365,0.9815],[120.3315,0.967],[120.3275,0.9645],[120.3275,0.962],[120.327,0.9605],[120.3375,0.9525],[120.3385,0.95],[120.34,0.9505],[120.347,0.9505]]]},"properties":{"code":"72.04.02.2006","name":"Malambigu","latitude":0.9676303092521243,"longitude":120.34110894538178}},{"type":"Feature","geometry":{"type":"Polygon","coordinates":[[[120.368,1.0385],[120.3665,1.03],[120.3735,1.0105],[120.3855,1.007],[120.392,1.011],[120.399,1.0445],[120.383,1.037],[120.368,1.0385]]]},"properties":{"code":"72.04.02.2007","name":"Simatang Tanjung","latitude":1.0250087821684235,"longitude":120.38232650232281}},{"type":"Feature","geometry":{"type":"Polygon","coordinates":[[[120.399,1.0445],[120.402,1.056],[120.399,1.0715],[120.3885,1.0775],[120.3785,1.074],[120.371,1.0605],[120.368,1.0385],[120.383,1.037],[120.399,1.0445]]]},"properties":{"code":"72.04.02.2008","name":"Simatang Utara","latitude":1.0565707071185588,"longitude":120.38495390551597}},{"type":"Feature","geometry":{"type":"Polygon","coordinates":[[[120.2995,0.9005],[120.2845,0.9035],[120.246,0.926],[120.2405,0.921],[120.2405,0.8995],[120.2455,0.9005],[120.2585,0.888],[120.26,0.887],[120.281,0.8825],[120.2845,0.8755],[120.2905,0.872],[120.2915,0.8705],[120.2915,0.87],[120.2935,0.8755],[120.303,0.8945],[120.304,0.8965],[120.2995,0.9005]]]},"properties":{"code":"72.04.02.2009","name":"Sese","latitude":0.898824756662071,"longitude":120.27075223358494}},{"type":"Feature","geometry":{"type":"Polygon","coordinates":[[[120.3315,0.84],[120.3125,0.829],[120.3125,0.8205],[120.309,0.817],[120.3095,0.8165],[120.323,0.7965],[120.33,0.8005],[120.33,0.8015],[120.325,0.8085],[120.324,0.81],[120.325,0.8185],[120.324,0.8215],[120.3245,0.822],[120.324,0.8245],[120.324,0.8265],[120.3245,0.827],[120.324,0.83],[120.325,0.8305],[120.3265,0.831],[120.331,0.8395],[120.3315,0.84]]]},"properties":{"code":"72.04.02.2010","name":"Ogolali","latitude":0.8194879426694546,"longitude":120.3210293816082}},{"type":"Feature","geometry":{"type":"Polygon","coordinates":[[[120.3065,0.9375],[120.32,0.9465],[120.317,0.954],[120.316,0.954],[120.308,0.951],[120.3065,0.939],[120.3065,0.9375]]]},"properties":{"code":"72.04.02.2011","name":"Balaroa","latitude":0.9469935500415723,"longitude":120.31259519024523}},{"type":"Feature","geometry":{"type":"Polygon","coordinates":[[[120.327,0.8565],[120.307,0.8535],[120.304,0.851],[120.2985,0.846],[120.297,0.829],[120.3065,0.82],[120.309,0.817],[120.3125,0.8205],[120.3125,0.829],[120.3315,0.84],[120.3325,0.84],[120.333,0.8405],[120.337,0.8445],[120.327,0.8565]]]},"properties":{"code":"72.04.02.2012","name":"Stadong","latitude":0.8396967874039857,"longitude":120.31239276530377}},{"type":"Feature","geometry":{"type":"Polygon","coordinates":[[[120.3275,0.824],[120.3245,0.8255],[120.324,0.8245],[120.3245,0.822],[120.324,0.8215],[120.325,0.8185],[120.324,0.81],[120.325,0.8085],[120.33,0.8015],[120.33,0.8005],[120.338,0.78],[120.3405,0.776],[120.343,0.7665],[120.3575,0.7435],[120.3535,0.729],[120.348,0.709],[120.334,0.689],[120.3405,0.6665],[120.3535,0.678],[120.36,0.6775],[120.368,0.6975],[120.378,0.705],[120.3795,0.7275],[120.3845,0.7385],[120.383,0.7595],[120.377,0.7715],[120.3725,0.7765],[120.3695,0.784],[120.369,0.7915],[120.3695,0.7935],[120.3695,0.796],[120.37,0.7985],[120.3695,0.7995],[120.3515,0.808],[120.3495,0.81],[120.3425,0.811],[120.3355,0.824],[120.3275,0.824]]]},"properties":{"code":"72.04.03.2001","name":"Luok Manipi","latitude":0.7489775730114142,"longitude":120.35681439099716}},{"type":"Feature","geometry":{"type":"Polygon","coordinates":[[[120.3765,0.826],[120.373,0.844],[120.3755,0.8635],[120.3675,0.865],[120.3655,0.839],[120.343,0.841],[120.3275,0.824],[120.3355,0.824],[120.3425,0.811],[120.3495,0.81],[120.3515,0.808],[120.3695,0.7995],[120.3735,0.8155],[120.3765,0.826]]]},"properties":{"code":"72.04.03.2002","name":"Salumbia","latitude":0.827832281174784,"longitude":120.35814717140501}},{"type":"Feature","geometry":{"type":"Polygon","coordinates":[[[120.424,0.7905],[120.4025,0.79],[120.3945,0.7945],[120.4045,0.7815],[120.415,0.778],[120.415,0.779],[120.42,0.783],[120.422,0.7845],[120.4235,0.7885],[120.424,0.7905]]]},"properties":{"code":"72.04.03.2003","name":"Bambapun","latitude":0.7860662499459685,"longitude":120.41164712570367}},{"type":"Feature","geometry":{"type":"Polygon","coordinates":[[[120.4335,0.771],[120.421,0.784],[120.42,0.783],[120.415,0.779],[120.416,0.7775],[120.417,0.777],[120.417,0.774],[120.4155,0.772],[120.4155,0.769],[120.4155,0.7615],[120.4145,0.7605],[120.413,0.76],[120.41,0.742],[120.4005,0.712],[120.3915,0.7015],[120.393,0.6905],[120.3935,0.6855],[120.3875,0.6705],[120.389,0.6705],[120.408,0.669],[120.417,0.6615],[120.417,0.677],[120.4225,0.686],[120.4235,0.6875],[120.429,0.703],[120.4295,0.7085],[120.429,0.709],[120.43,0.71],[120.431,0.713],[120.43,0.7145],[120.4305,0.7255],[120.4325,0.728],[120.4325,0.7365],[120.433,0.7405],[120.434,0.7435],[120.4295,0.7615],[120.437,0.761],[120.433,0.77],[120.4335,0.771]]]},"properties":{"code":"72.04.03.2004","name":"Ogowele","latitude":0.7169748866574047,"longitude":120.4141465260417}},{"type":"Feature","geometry":{"type":"Polygon","coordinates":[[[120.4385,0.7855],[120.424,0.7905],[120.4235,0.7885],[120.422,0.7845],[120.421,0.784],[120.4335,0.771],[120.437,0.7815],[120.4385,0.7855]]]},"properties":{"code":"72.04.03.2005","name":"Lais","latitude":0.7820743476806915,"longitude":120.42988416099637}},{"type":"Feature","geometry":{"type":"Polygon","coordinates":[[[120.4505,0.7815],[120.4385,0.7855],[120.437,0.7815],[120.433,0.77],[120.437,0.761],[120.445,0.756],[120.4505,0.7815]]]},"properties":{"code":"72.04.03.2006","name":"Ogogasang","latitude":0.7715130242393675,"longitude":120.44216367238519}},{"type":"Feature","geometry":{"type":"Polygon","coordinates":[[[120.4915,0.768],[120.4885,0.79],[120.478,0.7795],[120.468,0.7775],[120.4505,0.7815],[120.445,0.756],[120.457,0.7515],[120.462,0.733],[120.458,0.6995],[120.463,0.6675],[120.467,0.6615],[120.4775,0.66],[120.4795,0.6655],[120.486,0.685],[120.4955,0.6945],[120.49,0.722],[120.484,0.7315],[120.4875,0.741],[120.483,0.7475],[120.4825,0.7505],[120.4825,0.7515],[120.4865,0.7535],[120.4915,0.768]]]},"properties":{"code":"72.04.03.2007","name":"Malomba","latitude":0.7275649303971938,"longitude":120.47299982643561}},{"type":"Feature","geometry":{"type":"Polygon","coordinates":[[[120.513,0.793],[120.4955,0.7935],[120.4885,0.79],[120.4915,0.768],[120.5,0.7685],[120.511,0.781],[120.513,0.793]]]},"properties":{"code":"72.04.03.2008","name":"Ogogili","latitude":0.7824160180484548,"longitude":120.49982633985879}},{"type":"Feature","geometry":{"type":"Polygon","coordinates":[[[120.5455,0.781],[120.536,0.791],[120.513,0.793],[120.511,0.781],[120.52,0.7795],[120.518,0.766],[120.521,0.74],[120.524,0.75],[120.5235,0.7525],[120.5235,0.7535],[120.5245,0.757],[120.5245,0.7585],[120.5255,0.77],[120.5265,0.7715],[120.536,0.77],[120.5455,0.781]]]},"properties":{"code":"72.04.03.2009","name":"Tinabogan","latitude":0.7764743209997231,"longitude":120.52624546222174}},{"type":"Feature","geometry":{"type":"Polygon","coordinates":[[[120.511,0.781],[120.5,0.7685],[120.4915,0.768],[120.4865,0.7535],[120.4825,0.7515],[120.4825,0.7505],[120.483,0.7475],[120.4875,0.741],[120.484,0.7315],[120.49,0.722],[120.4955,0.6945],[120.486,0.685],[120.4795,0.6655],[120.4775,0.66],[120.4905,0.652],[120.4955,0.6365],[120.503,0.6355],[120.5145,0.636],[120.5165,0.6365],[120.52,0.635],[120.538,0.635],[120.5435,0.62],[120.541,0.614],[120.5455,0.5965],[120.557,0.5945],[120.5595,0.601],[120.5685,0.607],[120.586,0.605],[120.593,0.6015],[120.592,0.6205],[120.5915,0.626],[120.5885,0.6305],[120.586,0.639],[120.585,0.6445],[120.5675,0.6515],[120.5465,0.6535],[120.539,0.667],[120.5315,0.672],[120.5335,0.6815],[120.523,0.69],[120.527,0.7165],[120.5245,0.725],[120.522,0.727],[120.5215,0.7285],[120.525,0.734],[120.523,0.734],[120.523,0.7345],[120.5215,0.735],[120.521,0.7365],[120.521,0.74],[120.518,0.766],[120.52,0.7795],[120.511,0.781]]]},"properties":{"code":"72.04.03.2010","name":"Malulu","latitude":0.6759428425305102,"longitude":120.52496005752083}},{"type":"Feature","geometry":{"type":"Polygon","coordinates":[[[120.569,0.753],[120.5465,0.758],[120.554,0.77],[120.5455,0.781],[120.536,0.77],[120.539,0.7555],[120.5465,0.75],[120.54,0.7315],[120.5245,0.725],[120.527,0.7165],[120.523,0.69],[120.5335,0.6815],[120.5315,0.672],[120.539,0.667],[120.5465,0.6535],[120.5675,0.6515],[120.585,0.6445],[120.5785,0.668],[120.566,0.6985],[120.5635,0.7225],[120.5725,0.7475],[120.569,0.753]]]},"properties":{"code":"72.04.03.2011","name":"Malala","latitude":0.7037726839892435,"longitude":120.551674655019}},{"type":"Feature","geometry":{"type":"Polygon","coordinates":[[[120.445,0.756],[120.437,0.761],[120.434,0.7435],[120.433,0.7405],[120.4325,0.7365],[120.4325,0.728],[120.4305,0.7255],[120.43,0.7145],[120.431,0.713],[120.43,0.71],[120.429,0.709],[120.4295,0.7085],[120.429,0.703],[120.4235,0.6875],[120.4225,0.686],[120.417,0.677],[120.417,0.6615],[120.443,0.667],[120.445,0.6665],[120.463,0.6675],[120.458,0.6995],[120.462,0.733],[120.457,0.7515],[120.445,0.756]]]},"properties":{"code":"72.04.03.2012","name":"Anggasan","latitude":0.7050538001397006,"longitude":120.442745984352}},{"type":"Feature","geometry":{"type":"Polygon","coordinates":[[[120.536,0.77],[120.5265,0.7715],[120.5255,0.77],[120.5245,0.7585],[120.5245,0.757],[120.5235,0.7535],[120.5235,0.7525],[120.524,0.75],[120.521,0.74],[120.521,0.7365],[120.5215,0.735],[120.523,0.7345],[120.523,0.734],[120.525,0.734],[120.5215,0.7285],[120.522,0.727],[120.5245,0.725],[120.54,0.7315],[120.5465,0.75],[120.539,0.7555],[120.536,0.77]]]},"properties":{"code":"72.04.03.2013","name":"Betengon","latitude":0.7481464325847053,"longitude":120.53230235951614}},{"type":"Feature","geometry":{"type":"Polygon","coordinates":[[[120.343,0.841],[120.337,0.8445],[120.333,0.8405],[120.3325,0.84],[120.331,0.8395],[120.3265,0.831],[120.325,0.8305],[120.324,0.83],[120.3245,0.827],[120.324,0.8265],[120.3245,0.8255],[120.3275,0.824],[120.343,0.841]]]},"properties":{"code":"72.04.03.2014","name":"Pangkung","latitude":0.8349682757102227,"longitude":120.33290623876326}},{"type":"Feature","geometry":{"type":"Polygon","coordinates":[[[120.437,0.761],[120.4295,0.7615],[120.434,0.7435],[120.437,0.761]]]},"properties":{"code":"72.04.03.2015","name":"Ogowele Buga","latitude":0.7530625523151853,"longitude":120.43225998703252}},{"type":"Feature","geometry":{"type":"Polygon","coordinates":[[[120.3945,0.7945],[120.384,0.807],[120.384,0.817],[120.3765,0.826],[120.3735,0.8155],[120.37,0.7985],[120.3695,0.796],[120.3695,0.7935],[120.369,0.7915],[120.3695,0.784],[120.3725,0.7765],[120.377,0.7715],[120.383,0.7595],[120.3845,0.7385],[120.3795,0.7275],[120.378,0.705],[120.368,0.6975],[120.36,0.6775],[120.366,0.6765],[120.373,0.6755],[120.3875,0.6705],[120.3935,0.6855],[120.393,0.6905],[120.3915,0.7015],[120.4005,0.712],[120.41,0.742],[120.413,0.76],[120.4145,0.7605],[120.4155,0.7615],[120.4155,0.769],[120.4155,0.772],[120.417,0.774],[120.417,0.777],[120.416,0.7775],[120.415,0.778],[120.4045,0.7815],[120.3945,0.7945]]]},"properties":{"code":"72.04.03.2016","name":"Lobuo","latitude":0.7451228518328328,"longitude":120.38845562340572}},{"type":"Feature","geometry":{"type":"Polygon","coordinates":[[[120.5885,0.782],[120.5835,0.7825],[120.5755,0.776],[120.591,0.757],[120.5855,0.752],[120.569,0.753],[120.5725,0.7475],[120.5635,0.7225],[120.566,0.6985],[120.5785,0.668],[120.599,0.6835],[120.604,0.6955],[120.6335,0.6995],[120.6535,0.6925],[120.6625,0.694],[120.67,0.6845],[120.6695,0.686],[120.674,0.6945],[120.6765,0.7005],[120.6785,0.707],[120.6605,0.72],[120.659,0.721],[120.6525,0.728],[120.65,0.7295],[120.6455,0.7385],[120.6305,0.7435],[120.6145,0.76],[120.612,0.777],[120.611,0.7775],[120.596,0.7825],[120.5925,0.7815],[120.5915,0.7815],[120.5885,0.782]]]},"properties":{"code":"72.04.04.2001","name":"Sibaluton","latitude":0.7230958805532871,"longitude":120.609563308314}},{"type":"Feature","geometry":{"type":"Polygon","coordinates":[[[120.783,0.6785],[120.777,0.686],[120.7735,0.71],[120.7605,0.7055],[120.745,0.717],[120.7285,0.7375],[120.734,0.752],[120.7175,0.7585],[120.7155,0.7635],[120.712,0.765],[120.7065,0.7655],[120.703,0.7615],[120.6975,0.756],[120.6965,0.753],[120.6965,0.7525],[120.6895,0.752],[120.678,0.752],[120.6755,0.7595],[120.6545,0.761],[120.653,0.7615],[120.6515,0.762],[120.6475,0.763],[120.646,0.762],[120.6485,0.76],[120.653,0.7525],[120.6455,0.7385],[120.65,0.7295],[120.6525,0.728],[120.659,0.721],[120.6605,0.72],[120.6785,0.707],[120.6765,0.7005],[120.674,0.6945],[120.6695,0.686],[120.67,0.6845],[120.676,0.681],[120.688,0.6765],[120.695,0.677],[120.6975,0.675],[120.701,0.6715],[120.705,0.6665],[120.7235,0.6635],[120.7265,0.663],[120.7525,0.662],[120.7545,0.662],[120.7555,0.663],[120.7565,0.665],[120.783,0.6785]]]},"properties":{"code":"72.04.04.2002","name":"Kayu Lompa","latitude":0.7108793078457364,"longitude":120.7119452352766}},{"type":"Feature","geometry":{"type":"Polygon","coordinates":[[[120.67,0.6845],[120.6625,0.694],[120.6535,0.6925],[120.6335,0.6995],[120.604,0.6955],[120.599,0.6835],[120.5785,0.668],[120.585,0.6445],[120.586,0.639],[120.5885,0.6305],[120.5915,0.626],[120.592,0.6205],[120.593,0.6015],[120.5955,0.598],[120.6105,0.602],[120.6135,0.601],[120.6195,0.5875],[120.625,0.5885],[120.6305,0.5945],[120.632,0.596],[120.6335,0.596],[120.6375,0.5975],[120.638,0.598],[120.638,0.599],[120.6415,0.6115],[120.6495,0.617],[120.6585,0.6165],[120.66,0.6165],[120.666,0.6275],[120.668,0.637],[120.6815,0.6475],[120.686,0.65],[120.695,0.658],[120.706,0.6635],[120.705,0.6665],[120.701,0.6715],[120.6975,0.675],[120.695,0.677],[120.688,0.6765],[120.676,0.681],[120.67,0.6845]]]},"properties":{"code":"72.04.04.2003","name":"Labonu","latitude":0.650579224806399,"longitude":120.63244461373289}},{"type":"Feature","geometry":{"type":"Polygon","coordinates":[[[120.763,0.8195],[120.7705,0.832],[120.772,0.8375],[120.765,0.8375],[120.759,0.838],[120.7585,0.8385],[120.758,0.8385],[120.756,0.8355],[120.7505,0.8335],[120.7485,0.834],[120.7465,0.834],[120.732,0.8295],[120.7225,0.829],[120.7215,0.826],[120.722,0.823],[120.728,0.816],[120.729,0.8165],[120.7315,0.8155],[120.732,0.8145],[120.7315,0.813],[120.732,0.8125],[120.7335,0.812],[120.738,0.8155],[120.7395,0.8145],[120.753,0.7975],[120.7555,0.787],[120.76,0.791],[120.775,0.791],[120.7795,0.793],[120.78,0.794],[120.7815,0.795],[120.7815,0.797],[120.7825,0.799],[120.7785,0.7995],[120.7775,0.8025],[120.777,0.804],[120.7755,0.8065],[120.7745,0.8085],[120.774,0.808],[120.775,0.81],[120.7705,0.8145],[120.763,0.8195]]]},"properties":{"code":"72.04.04.2004","name":"Silondou","latitude":0.8141253280883435,"longitude":120.75423322818104}},{"type":"Feature","geometry":{"type":"Polygon","coordinates":[[[120.834,0.8085],[120.8135,0.8135],[120.773,0.816],[120.763,0.8195],[120.7705,0.8145],[120.775,0.81],[120.774,0.808],[120.7745,0.8085],[120.7755,0.8065],[120.777,0.804],[120.7775,0.8025],[120.7785,0.7995],[120.7825,0.799],[120.7815,0.797],[120.7815,0.795],[120.78,0.794],[120.7805,0.79],[120.785,0.7875],[120.7875,0.7845],[120.787,0.7805],[120.7885,0.779],[120.7895,0.7775],[120.794,0.775],[120.809,0.768],[120.8115,0.752],[120.8105,0.7475],[120.8115,0.7435],[120.817,0.736],[120.817,0.7325],[120.8165,0.7245],[120.8145,0.722],[120.814,0.7195],[120.8145,0.7165],[120.8185,0.711],[120.8205,0.709],[120.8205,0.7065],[120.8225,0.704],[120.8295,0.69],[120.8355,0.691],[120.8375,0.688],[120.8385,0.6885],[120.839,0.689],[120.8445,0.6955],[120.8675,0.711],[120.8825,0.7045],[120.8805,0.7105],[120.8785,0.7345],[120.8725,0.7435],[120.87,0.765],[120.854,0.7835],[120.8335,0.7805],[120.8275,0.7915],[120.834,0.803],[120.834,0.8085]]]},"properties":{"code":"72.04.04.2005","name":"Kinapasan","latitude":0.7557790460517376,"longitude":120.83151846949889}},{"type":"Feature","geometry":{"type":"Polygon","coordinates":[[[120.7125,0.8035],[120.71,0.8085],[120.7095,0.809],[120.708,0.8085],[120.7075,0.8085],[120.706,0.808],[120.6895,0.805],[120.6885,0.805],[120.6695,0.801],[120.666,0.7995],[120.6655,0.8015],[120.6645,0.803],[120.66,0.8025],[120.652,0.7975],[120.651,0.7975],[120.648,0.7895],[120.639,0.7875],[120.6375,0.7855],[120.6355,0.7795],[120.6505,0.766],[120.6495,0.765],[120.649,0.7655],[120.6485,0.7655],[120.6485,0.765],[120.6475,0.765],[120.647,0.765],[120.6475,0.764],[120.6475,0.763],[120.6515,0.762],[120.653,0.7615],[120.6545,0.761],[120.6755,0.7595],[120.678,0.752],[120.6895,0.752],[120.6965,0.7525],[120.6965,0.753],[120.6975,0.756],[120.703,0.7615],[120.707,0.7665],[120.7105,0.769],[120.712,0.768],[120.714,0.767],[120.7165,0.767],[120.721,0.7655],[120.725,0.7655],[120.7275,0.768],[120.7325,0.769],[120.737,0.7705],[120.738,0.774],[120.738,0.7775],[120.721,0.798],[120.7125,0.803],[120.7125,0.8035]]]},"properties":{"code":"72.04.04.2006","name":"Kongkomos","latitude":0.7812623076423735,"longitude":120.6872138899305}},{"type":"Feature","geometry":{"type":"Polygon","coordinates":[[[120.7795,0.793],[120.775,0.791],[120.76,0.791],[120.7555,0.787],[120.755,0.786],[120.754,0.7855],[120.741,0.7775],[120.738,0.7775],[120.738,0.774],[120.737,0.7705],[120.7325,0.769],[120.7275,0.768],[120.725,0.7655],[120.721,0.7655],[120.7165,0.767],[120.714,0.767],[120.712,0.768],[120.7105,0.769],[120.707,0.7665],[120.7065,0.7655],[120.712,0.765],[120.7155,0.7635],[120.7175,0.7585],[120.734,0.752],[120.7285,0.7375],[120.745,0.717],[120.7605,0.7055],[120.7735,0.71],[120.777,0.686],[120.783,0.6785],[120.8085,0.68],[120.814,0.6755],[120.8295,0.69],[120.8225,0.704],[120.8205,0.7065],[120.8205,0.709],[120.8185,0.711],[120.8145,0.7165],[120.814,0.7195],[120.8145,0.722],[120.8165,0.7245],[120.817,0.7325],[120.817,0.736],[120.8115,0.7435],[120.8105,0.7475],[120.8115,0.752],[120.809,0.768],[120.794,0.775],[120.7895,0.7775],[120.7885,0.779],[120.787,0.7805],[120.7875,0.7845],[120.785,0.7875],[120.7805,0.79],[120.7795,0.793]]]},"properties":{"code":"72.04.04.2007","name":"Ogosipat","latitude":0.736556454493159,"longitude":120.77695190984187}},{"type":"Feature","geometry":{"type":"Polygon","coordinates":[[[120.7225,0.829],[120.721,0.8295],[120.7145,0.829],[120.709,0.829],[120.7045,0.826],[120.702,0.825],[120.6895,0.818],[120.6875,0.815],[120.6885,0.805],[120.6895,0.805],[120.706,0.808],[120.7075,0.8085],[120.708,0.8085],[120.7095,0.809],[120.71,0.8085],[120.7125,0.8035],[120.7135,0.804],[120.732,0.8115],[120.732,0.8125],[120.7315,0.813],[120.732,0.8145],[120.7315,0.8155],[120.729,0.8165],[120.728,0.816],[120.722,0.823],[120.7215,0.826],[120.7225,0.829]]]},"properties":{"code":"72.04.04.2008","name":"Galandau","latitude":0.8159116432623559,"longitude":120.70982865277257}},{"type":"Feature","geometry":{"type":"Polygon","coordinates":[[[120.7555,0.787],[120.753,0.7975],[120.7395,0.8145],[120.738,0.8155],[120.7335,0.812],[120.732,0.8115],[120.7135,0.804],[120.7125,0.803],[120.721,0.798],[120.738,0.7775],[120.741,0.7775],[120.754,0.7855],[120.755,0.786],[120.7555,0.787]]]},"properties":{"code":"72.04.04.2009","name":"Marisa","latitude":0.7965160642525211,"longitude":120.7360333754295}},{"type":"Feature","geometry":{"type":"Polygon","coordinates":[[[120.6355,0.8015],[120.635,0.8015],[120.632,0.8005],[120.619,0.8],[120.619,0.7915],[120.6165,0.7855],[120.6135,0.781],[120.615,0.7785],[120.6145,0.778],[120.612,0.777],[120.6145,0.76],[120.6305,0.7435],[120.6455,0.7385],[120.653,0.7525],[120.6485,0.76],[120.646,0.762],[120.6475,0.763],[120.6475,0.764],[120.647,0.765],[120.6475,0.765],[120.6485,0.765],[120.6485,0.7655],[120.649,0.7655],[120.6495,0.765],[120.6505,0.766],[120.6355,0.7795],[120.6375,0.7855],[120.639,0.7875],[120.648,0.7895],[120.651,0.7975],[120.6465,0.798],[120.646,0.797],[120.6445,0.797],[120.6355,0.8015]]]},"properties":{"code":"72.04.04.2010","name":"Basi","latitude":0.7706021310385409,"longitude":120.63289378435454}},{"type":"Feature","geometry":{"type":"Polygon","coordinates":[[[120.6555,0.8575],[120.653,0.8565],[120.651,0.8545],[120.6465,0.852],[120.6375,0.8495],[120.636,0.8495],[120.627,0.8565],[120.615,0.8555],[120.6155,0.8705],[120.604,0.8725],[120.6095,0.8615],[120.6055,0.847],[120.597,0.837],[120.61,0.8085],[120.591,0.794],[120.5835,0.7825],[120.5885,0.782],[120.5915,0.7815],[120.5925,0.7815],[120.596,0.7825],[120.611,0.7775],[120.6145,0.778],[120.615,0.7785],[120.6135,0.781],[120.6165,0.7855],[120.619,0.7915],[120.619,0.8],[120.632,0.8005],[120.635,0.8015],[120.6355,0.8015],[120.642,0.818],[120.6545,0.8325],[120.651,0.839],[120.653,0.846],[120.6555,0.8575]]]},"properties":{"code":"72.04.05.2001","name":"Buga","latitude":0.8243127290697247,"longitude":120.62094168179419}},{"type":"Feature","geometry":{"type":"Polygon","coordinates":[[[120.6885,0.844],[120.6875,0.845],[120.683,0.8455],[120.68,0.845],[120.6745,0.8405],[120.671,0.8415],[120.659,0.839],[120.657,0.8385],[120.6545,0.8415],[120.653,0.8415],[120.653,0.843],[120.653,0.846],[120.651,0.839],[120.6545,0.8325],[120.642,0.818],[120.6355,0.8015],[120.6445,0.797],[120.646,0.797],[120.6465,0.798],[120.652,0.7975],[120.66,0.8025],[120.6645,0.803],[120.6655,0.8015],[120.666,0.7995],[120.6695,0.801],[120.6885,0.805],[120.6875,0.815],[120.6895,0.82],[120.6915,0.8365],[120.6885,0.844]]]},"properties":{"code":"72.04.05.2002","name":"Batuilo","latitude":0.820523542630136,"longitude":120.66671692634753}},{"type":"Feature","geometry":{"type":"Polygon","coordinates":[[[120.699,0.904],[120.689,0.905],[120.685,0.896],[120.671,0.902],[120.6685,0.9035],[120.6635,0.8885],[120.6645,0.8695],[120.6595,0.8655],[120.656,0.865],[120.6545,0.8645],[120.6545,0.8625],[120.655,0.8605],[120.6555,0.8575],[120.653,0.846],[120.653,0.843],[120.653,0.8415],[120.6545,0.8415],[120.657,0.8385],[120.659,0.839],[120.671,0.8415],[120.6745,0.8405],[120.68,0.845],[120.683,0.8455],[120.6875,0.845],[120.6885,0.8465],[120.694,0.848],[120.696,0.845],[120.713,0.845],[120.7155,0.841],[120.7235,0.8415],[120.7235,0.84],[120.7225,0.8375],[120.7255,0.837],[120.7375,0.8385],[120.7395,0.8395],[120.7415,0.843],[120.7405,0.846],[120.72,0.8585],[120.716,0.8715],[120.699,0.876],[120.696,0.879],[120.696,0.8805],[120.6945,0.8875],[120.6935,0.889],[120.694,0.891],[120.697,0.8975],[120.698,0.902],[120.699,0.904]]]},"properties":{"code":"72.04.05.2003","name":"Kamalu","latitude":0.864690274986554,"longitude":120.68921903692349}},{"type":"Feature","geometry":{"type":"Polygon","coordinates":[[[120.6545,0.8645],[120.638,0.876],[120.636,0.888],[120.6365,0.89],[120.6335,0.8915],[120.623,0.887],[120.621,0.8895],[120.617,0.89],[120.604,0.8725],[120.6155,0.8705],[120.615,0.8555],[120.627,0.8565],[120.636,0.8495],[120.6375,0.8495],[120.6465,0.852],[120.651,0.8545],[120.653,0.8565],[120.655,0.8605],[120.6545,0.8625],[120.6545,0.8645]]]},"properties":{"code":"72.04.05.2004","name":"Muara Besar","latitude":0.8692388211048889,"longitude":120.63046752974246}},{"type":"Feature","geometry":{"type":"Polygon","coordinates":[[[120.6685,0.9035],[120.667,0.905],[120.6715,0.9225],[120.642,0.932],[120.639,0.934],[120.6375,0.9345],[120.6355,0.9355],[120.6375,0.919],[120.624,0.905],[120.617,0.89],[120.621,0.8895],[120.623,0.887],[120.6335,0.8915],[120.6365,0.89],[120.636,0.888],[120.638,0.876],[120.6545,0.8645],[120.656,0.865],[120.6595,0.8655],[120.6645,0.8695],[120.6635,0.8885],[120.6685,0.9035]]]},"properties":{"code":"72.04.05.2005","name":"Bilo","latitude":0.8999634323414277,"longitude":120.64811392060487}},{"type":"Feature","geometry":{"type":"Polygon","coordinates":[[[120.672,0.966],[120.6575,0.9425],[120.641,0.9425],[120.6355,0.9355],[120.6375,0.9345],[120.639,0.934],[120.642,0.932],[120.6715,0.9225],[120.667,0.905],[120.671,0.902],[120.685,0.896],[120.689,0.905],[120.699,0.904],[120.6995,0.905],[120.696,0.9105],[120.6935,0.921],[120.6775,0.947],[120.6745,0.9555],[120.674,0.963],[120.6715,0.965],[120.672,0.966]]]},"properties":{"code":"72.04.05.2006","name":"Labuan Lobo","latitude":0.9268230440227421,"longitude":120.6716394916485}},{"type":"Feature","geometry":{"type":"MultiPolygon","coordinates":[[[[120.704,0.986],[120.6965,0.987],[120.6825,0.9755],[120.6915,0.9645],[120.6885,0.953],[120.6785,0.9535],[120.675,0.9595],[120.6765,0.963],[120.672,0.966],[120.6715,0.965],[120.674,0.963],[120.6745,0.9555],[120.6775,0.947],[120.6935,0.921],[120.696,0.9105],[120.6995,0.905],[120.7,0.9065],[120.702,0.91],[120.703,0.9175],[120.7015,0.923],[120.702,0.925],[120.7075,0.939],[120.705,0.9445],[120.703,0.946],[120.699,0.947],[120.699,0.9495],[120.7,0.9595],[120.7,0.965],[120.7035,0.978],[120.7025,0.982],[120.704,0.986]]],[[[120.7055,0.997],[120.7085,0.9905],[120.707,0.9945],[120.7055,0.997]]]]},"properties":{"code":"72.04.05.2007","name":"Sambujan","latitude":0.9507358610010433,"longitude":120.69354968360896}},{"type":"Feature","geometry":{"type":"MultiPolygon","coordinates":[[[[120.7475,0.99],[120.737,0.984],[120.736,0.975],[120.7195,0.962],[120.721,0.975],[120.7075,0.974],[120.704,0.986],[120.7025,0.982],[120.7035,0.978],[120.7,0.965],[120.7,0.9595],[120.699,0.9495],[120.699,0.947],[120.703,0.946],[120.705,0.9445],[120.7075,0.939],[120.702,0.925],[120.7015,0.923],[120.703,0.9175],[120.703,0.9135],[120.7065,0.916],[120.7105,0.9175],[120.7125,0.919],[120.7135,0.9185],[120.716,0.916],[120.7165,0.9155],[120.7215,0.918],[120.726,0.9235],[120.729,0.927],[120.7305,0.928],[120.7345,0.9325],[120.749,0.944],[120.7505,0.9445],[120.753,0.9605],[120.748,0.966],[120.7505,0.9815],[120.7455,0.988],[120.7465,0.9895],[120.7475,0.99]]],[[[120.7085,0.9905],[120.723,0.9855],[120.7345,0.993],[120.728,1.0025],[120.7055,0.997],[120.707,0.9945],[120.7085,0.9905]]]]},"properties":{"code":"72.04.05.2008","name":"Pulias","latitude":0.9571408082255521,"longitude":120.72413768397311}},{"type":"Feature","geometry":{"type":"Polygon","coordinates":[[[120.6105,1.068],[120.6115,1.0625],[120.625,1.047],[120.635,1.05],[120.6445,1.0425],[120.657,1.023],[120.6645,1.0275],[120.665,1.0405],[120.648,1.041],[120.6285,1.063],[120.6105,1.068]]]},"properties":{"code":"72.04.05.2009","name":"Kabetan","latitude":1.047404372864311,"longitude":120.64065821327517}},{"type":"Feature","geometry":{"type":"Polygon","coordinates":[[[120.7405,0.846],[120.7495,0.8805],[120.7415,0.891],[120.728,0.8935],[120.7235,0.9045],[120.7115,0.9185],[120.7105,0.9175],[120.7065,0.916],[120.703,0.9135],[120.702,0.91],[120.7,0.9065],[120.7,0.9055],[120.699,0.903],[120.698,0.902],[120.697,0.8975],[120.694,0.891],[120.6935,0.889],[120.6945,0.8875],[120.696,0.8805],[120.696,0.879],[120.699,0.876],[120.716,0.8715],[120.72,0.8585],[120.7405,0.846]]]},"properties":{"code":"72.04.05.2010","name":"Pagaitan","latitude":0.8821014824141068,"longitude":120.72195947646797}},{"type":"Feature","geometry":{"type":"Polygon","coordinates":[[[120.7415,0.843],[120.7395,0.8395],[120.7375,0.8385],[120.7255,0.837],[120.7225,0.8375],[120.7235,0.84],[120.7235,0.8415],[120.7155,0.841],[120.713,0.845],[120.696,0.845],[120.694,0.848],[120.6885,0.8465],[120.6885,0.844],[120.6915,0.8365],[120.6895,0.82],[120.6895,0.818],[120.702,0.825],[120.7045,0.826],[120.709,0.829],[120.7145,0.829],[120.721,0.8295],[120.732,0.8295],[120.7465,0.834],[120.7475,0.8345],[120.745,0.8395],[120.7415,0.843]]]},"properties":{"code":"72.04.05.2011","name":"Bambalaga","latitude":0.8349008409220076,"longitude":120.7110019269042}},{"type":"Feature","geometry":{"type":"Polygon","coordinates":[[[120.9365,0.825],[120.9275,0.8275],[120.927,0.8265],[120.926,0.8265],[120.9235,0.828],[120.9155,0.824],[120.91,0.8245],[120.906,0.826],[120.907,0.8285],[120.902,0.831],[120.8985,0.8355],[120.8925,0.8425],[120.8915,0.8445],[120.8895,0.848],[120.8975,0.885],[120.8735,0.886],[120.8725,0.888],[120.8725,0.891],[120.8725,0.892],[120.818,0.8915],[120.8035,0.8735],[120.8035,0.8635],[120.835,0.8515],[120.838,0.8335],[120.844,0.8245],[120.834,0.8175],[120.8345,0.8105],[120.834,0.803],[120.8275,0.7915],[120.8335,0.7805],[120.854,0.7835],[120.87,0.765],[120.8725,0.7435],[120.8785,0.7345],[120.8805,0.7105],[120.882,0.7205],[120.8985,0.7435],[120.914,0.7375],[120.9135,0.7475],[120.923,0.7595],[120.9235,0.7795],[120.941,0.7835],[120.941,0.789],[120.958,0.8],[120.9725,0.796],[120.9905,0.7995],[120.9965,0.8065],[120.997,0.808],[120.9965,0.809],[120.996,0.809],[120.9925,0.809],[120.989,0.8125],[120.9835,0.815],[120.9775,0.8165],[120.958,0.8195],[120.957,0.819],[120.953,0.8205],[120.9485,0.8205],[120.9355,0.819],[120.9365,0.82],[120.9365,0.825]]]},"properties":{"code":"72.04.06.2001","name":"Janja","latitude":0.816355360902334,"longitude":120.88370071646705}},{"type":"Feature","geometry":{"type":"Polygon","coordinates":[[[121.021,0.969],[121.0025,0.967],[120.97,0.956],[120.94,0.959],[120.9245,0.9655],[120.9125,0.962],[120.903,0.9685],[120.8905,0.9685],[120.883,0.975],[120.883,0.9755],[120.882,0.975],[120.879,0.973],[120.873,0.9715],[120.8665,0.963],[120.861,0.9685],[120.8415,0.9575],[120.841,0.957],[120.849,0.9335],[120.85,0.929],[120.8515,0.926],[120.8545,0.924],[120.8585,0.9205],[120.8605,0.9175],[120.8585,0.913],[120.875,0.9085],[120.876,0.908],[120.8725,0.892],[120.8725,0.891],[120.8725,0.888],[120.8735,0.886],[120.8975,0.885],[120.8895,0.848],[120.8915,0.8445],[120.8925,0.8425],[120.8985,0.8355],[120.902,0.831],[120.907,0.8285],[120.906,0.826],[120.91,0.8245],[120.9155,0.824],[120.9235,0.828],[120.926,0.8265],[120.927,0.8265],[120.9275,0.8275],[120.9365,0.825],[120.9365,0.8315],[120.9335,0.8345],[120.931,0.836],[120.915,0.843],[120.915,0.846],[120.9105,0.862],[120.918,0.8705],[120.918,0.872],[120.9155,0.879],[120.9145,0.8795],[120.913,0.881],[120.9105,0.88],[120.9105,0.881],[120.9095,0.8825],[120.9085,0.884],[120.9105,0.8855],[120.9245,0.8915],[120.9455,0.8855],[120.962,0.895],[120.9735,0.913],[120.9905,0.926],[121.0135,0.932],[121.0195,0.9645],[121.0205,0.968],[121.021,0.969]]]},"properties":{"code":"72.04.06.2002","name":"Oyom","latitude":0.9220160301410518,"longitude":120.92241304454268}},{"type":"Feature","geometry":{"type":"Polygon","coordinates":[[[120.8585,0.913],[120.8605,0.9175],[120.8585,0.9205],[120.8545,0.924],[120.8515,0.926],[120.85,0.929],[120.849,0.9335],[120.841,0.957],[120.838,0.955],[120.832,0.9455],[120.83,0.94],[120.828,0.936],[120.822,0.9125],[120.819,0.912],[120.818,0.9115],[120.818,0.8915],[120.844,0.8915],[120.8445,0.909],[120.8585,0.913]]]},"properties":{"code":"72.04.06.2003","name":"Salugan","latitude":0.9188206612588828,"longitude":120.83749557505999}},{"type":"Feature","geometry":{"type":"Polygon","coordinates":[[[120.7665,0.948],[120.7655,0.9485],[120.7535,0.945],[120.752,0.9445],[120.749,0.944],[120.7345,0.9325],[120.7305,0.928],[120.729,0.927],[120.726,0.9235],[120.7215,0.918],[120.7165,0.9155],[120.716,0.916],[120.7135,0.9185],[120.7125,0.919],[120.7115,0.9185],[120.7235,0.9045],[120.728,0.8935],[120.7415,0.891],[120.7495,0.8805],[120.7405,0.846],[120.745,0.8395],[120.7475,0.8345],[120.7485,0.834],[120.7505,0.8335],[120.756,0.8355],[120.758,0.8385],[120.76,0.8385],[120.766,0.8485],[120.779,0.8585],[120.7825,0.86],[120.784,0.861],[120.7885,0.8635],[120.7925,0.863],[120.8035,0.8635],[120.8035,0.8735],[120.818,0.8915],[120.818,0.9115],[120.8155,0.91],[120.81,0.9065],[120.8,0.903],[120.782,0.9085],[120.7725,0.9225],[120.772,0.938],[120.766,0.9395],[120.7675,0.943],[120.7665,0.948]]]},"properties":{"code":"72.04.06.2004","name":"Lampasio","latitude":0.8935160477880174,"longitude":120.76518416922312}},{"type":"Feature","geometry":{"type":"Polygon","coordinates":[[[120.838,0.955],[120.828,0.9505],[120.824,0.95],[120.8205,0.9525],[120.818,0.954],[120.8,0.9525],[120.793,0.948],[120.791,0.948],[120.7895,0.949],[120.7875,0.951],[120.781,0.956],[120.7795,0.9555],[120.778,0.955],[120.7755,0.954],[120.774,0.9545],[120.7715,0.952],[120.7675,0.9485],[120.7665,0.948],[120.7675,0.943],[120.766,0.9395],[120.772,0.938],[120.7725,0.9225],[120.782,0.9085],[120.8,0.903],[120.81,0.9065],[120.8155,0.91],[120.819,0.912],[120.822,0.9125],[120.828,0.936],[120.83,0.94],[120.832,0.9455],[120.838,0.955]]]},"properties":{"code":"72.04.06.2005","name":"Tinading","latitude":0.9317608958915856,"longitude":120.80034503434356}},{"type":"Feature","geometry":{"type":"Polygon","coordinates":[[[120.8725,0.892],[120.876,0.908],[120.875,0.9085],[120.8585,0.913],[120.8445,0.909],[120.844,0.8915],[120.8725,0.892]]]},"properties":{"code":"72.04.06.2006","name":"Sibea","latitude":0.9004756998176052,"longitude":120.85993703146009}},{"type":"Feature","geometry":{"type":"Polygon","coordinates":[[[120.957,0.82],[120.956,0.859],[120.962,0.895],[120.9455,0.8855],[120.9245,0.8915],[120.9105,0.8855],[120.9085,0.884],[120.9095,0.8825],[120.9105,0.881],[120.9105,0.88],[120.913,0.881],[120.9145,0.8795],[120.9155,0.879],[120.918,0.872],[120.918,0.8705],[120.9105,0.862],[120.915,0.846],[120.915,0.843],[120.931,0.836],[120.9335,0.8345],[120.9365,0.8315],[120.9365,0.825],[120.9365,0.82],[120.9355,0.819],[120.9485,0.8205],[120.953,0.8205],[120.957,0.82]]]},"properties":{"code":"72.04.06.2007","name":"Maibua","latitude":0.8591844274620885,"longitude":120.93729431963416}},{"type":"Feature","geometry":{"type":"Polygon","coordinates":[[[120.997,0.808],[120.997,0.8105],[121,0.8265],[120.9835,0.832],[120.992,0.841],[121.01,0.871],[121.004,0.88],[121.0115,0.9205],[121.0135,0.932],[120.9905,0.926],[120.9735,0.913],[120.962,0.895],[120.956,0.859],[120.957,0.82],[120.957,0.819],[120.958,0.8195],[120.9775,0.8165],[120.9835,0.815],[120.989,0.8125],[120.9925,0.809],[120.9965,0.809],[120.997,0.8085],[120.997,0.808]]]},"properties":{"code":"72.04.06.2008","name":"Mulya Sari","latitude":0.8714418139055625,"longitude":120.98340035371008}},{"type":"Feature","geometry":{"type":"Polygon","coordinates":[[[120.8035,0.8635],[120.7925,0.863],[120.7885,0.8635],[120.784,0.861],[120.7825,0.86],[120.779,0.8585],[120.766,0.8485],[120.76,0.8385],[120.7585,0.8385],[120.759,0.838],[120.765,0.8375],[120.772,0.8375],[120.7705,0.832],[120.763,0.8195],[120.773,0.816],[120.8135,0.8135],[120.834,0.8085],[120.8345,0.8105],[120.834,0.8175],[120.844,0.8245],[120.838,0.8335],[120.835,0.8515],[120.8035,0.8635]]]},"properties":{"code":"72.04.06.2009","name":"Ogomatanang","latitude":0.8362002936840521,"longitude":120.80318648850671}},{"type":"Feature","geometry":{"type":"Polygon","coordinates":[[[120.7885,1.0055],[120.79,1.008],[120.775,1.0215],[120.7725,1.018],[120.7705,1.0155],[120.7685,1.0105],[120.7665,1.007],[120.7655,1.003],[120.763,1.002],[120.7615,1.0015],[120.7615,1],[120.7645,0.999],[120.766,0.999],[120.767,1],[120.7675,1],[120.7695,0.9985],[120.786,0.9955],[120.786,0.9965],[120.785,1.001],[120.7865,1.004],[120.7885,1.0055]]]},"properties":{"code":"72.04.07.1001","name":"Tambun","latitude":1.0063609987823579,"longitude":120.7763568388246}},{"type":"Feature","geometry":{"type":"Polygon","coordinates":[[[121.0515,1.0675],[121.028,1.0835],[121.018,1.0775],[121.0065,1.078],[120.982,1.0725],[120.945,1.0555],[120.935,1.06],[120.9345,1.06],[120.9225,1.055],[120.9135,1.046],[120.892,1.054],[120.8845,1.061],[120.86,1.069],[120.8425,1.067],[120.8405,1.066],[120.8375,1.067],[120.834,1.0675],[120.8335,1.0685],[120.8265,1.0465],[120.8245,1.0455],[120.823,1.0455],[120.8205,1.0455],[120.8195,1.045],[120.8205,1.0425],[120.822,1.0375],[120.8335,1.0305],[120.836,1.022],[120.848,1.009],[120.8485,1.0075],[120.849,1.006],[120.8495,1.0055],[120.8505,1.006],[120.8995,1.017],[120.904,1.0135],[120.9315,1.0135],[120.954,1.022],[120.9575,1.037],[120.971,1.0325],[120.977,1.0285],[120.979,1.0285],[120.98,1.03],[121.004,1.0275],[121.0085,1.0285],[121.0105,1.028],[121.0425,1.046],[121.048,1.064],[121.05,1.0665],[121.051,1.0675],[121.0515,1.0675]]]},"properties":{"code":"72.04.07.1003","name":"Tuweley","latitude":1.0439038573506587,"longitude":120.93168242194419}},{"type":"Feature","geometry":{"type":"MultiPolygon","coordinates":[[[[120.7685,1.0105],[120.7705,1.0155],[120.7725,1.018],[120.765,1.0125],[120.7685,1.0105]]],[[[120.8085,1.0285],[120.787,1.031],[120.775,1.0215],[120.79,1.008],[120.79,1.006],[120.8135,1.0065],[120.8285,1.0015],[120.8315,1.0015],[120.8345,1.0025],[120.8365,1.0035],[120.823,1.0235],[120.812,1.028],[120.811,1.028],[120.8085,1.0285]]]]},"properties":{"code":"72.04.07.1004","name":"Nalu","latitude":1.0169966595732047,"longitude":120.80366779103022}},{"type":"Feature","geometry":{"type":"Polygon","coordinates":[[[120.8195,1.045],[120.8185,1.044],[120.81,1.0445],[120.8085,1.0285],[120.811,1.028],[120.812,1.028],[120.823,1.0235],[120.8365,1.0035],[120.838,1.004],[120.8425,1.004],[120.847,1.0055],[120.8475,1.0055],[120.8495,1.0055],[120.849,1.006],[120.8485,1.0075],[120.848,1.009],[120.836,1.022],[120.8335,1.0305],[120.822,1.0375],[120.8205,1.0425],[120.8195,1.045]]]},"properties":{"code":"72.04.07.1005","name":"Baru","latitude":1.0244019122200356,"longitude":120.82719381037904}},{"type":"Feature","geometry":{"type":"Polygon","coordinates":[[[120.8335,1.0685],[120.8325,1.0695],[120.8225,1.065],[120.8175,1.063],[120.8155,1.0625],[120.814,1.0625],[120.8135,1.063],[120.8125,1.05],[120.811,1.05],[120.8085,1.0505],[120.81,1.0445],[120.8185,1.044],[120.8205,1.0455],[120.823,1.0455],[120.8245,1.0455],[120.8265,1.0465],[120.8335,1.0685]]]},"properties":{"code":"72.04.07.1006","name":"Panasakan","latitude":1.0555013615569646,"longitude":120.82117311982026}},{"type":"Feature","geometry":{"type":"Polygon","coordinates":[[[120.8135,1.063],[120.801,1.066],[120.7975,1.066],[120.796,1.0535],[120.8085,1.0505],[120.811,1.05],[120.8125,1.05],[120.8135,1.063]]]},"properties":{"code":"72.04.07.1007","name":"Sidoarjo","latitude":1.0573829016569791,"longitude":120.80480645525473}},{"type":"Feature","geometry":{"type":"Polygon","coordinates":[[[121.0105,1.028],[121.0085,1.0285],[121.004,1.0275],[120.98,1.03],[120.979,1.0285],[120.977,1.0285],[120.971,1.0325],[120.9575,1.037],[120.954,1.022],[120.9315,1.0135],[120.904,1.0135],[120.8995,1.017],[120.8505,1.006],[120.8495,1.0055],[120.8475,1.0055],[120.847,1.0055],[120.8425,1.004],[120.838,1.004],[120.8345,1.0025],[120.8315,1.0015],[120.8285,1.0015],[120.8135,1.0065],[120.808,0.9915],[120.8105,0.9865],[120.811,0.985],[120.82,0.9825],[120.825,0.9815],[120.829,0.981],[120.831,0.982],[120.834,0.983],[120.8375,0.9845],[120.8395,0.9855],[120.847,0.9905],[120.8515,0.991],[120.876,0.991],[120.8825,0.9765],[120.883,0.975],[120.8905,0.9685],[120.903,0.9685],[120.9125,0.962],[120.9245,0.9655],[120.94,0.959],[120.97,0.956],[121.0025,0.967],[121.021,0.969],[121.022,0.9705],[121.0235,0.9935],[121.0295,1],[121.025,1.0145],[121.0205,1.0135],[121.0105,1.028]]]},"properties":{"code":"72.04.07.2002","name":"Dadakitan","latitude":0.9935653893768497,"longitude":120.94089694840274}},{"type":"Feature","geometry":{"type":"Polygon","coordinates":[[[120.8135,1.0065],[120.79,1.006],[120.7885,1.0055],[120.7865,1.004],[120.785,1.001],[120.786,0.9965],[120.787,0.9925],[120.7895,0.9895],[120.79,0.989],[120.7935,0.986],[120.797,0.971],[120.804,0.9715],[120.811,0.985],[120.8105,0.9865],[120.808,0.9915],[120.8135,1.0065]]]},"properties":{"code":"72.04.07.2008","name":"Buntuna","latitude":0.9916316479657785,"longitude":120.80034388748786}},{"type":"Feature","geometry":{"type":"Polygon","coordinates":[[[120.765,1.0125],[120.749,1.001],[120.7475,0.99],[120.7465,0.9895],[120.7455,0.988],[120.7505,0.9815],[120.748,0.966],[120.753,0.9605],[120.7505,0.9445],[120.752,0.9445],[120.7535,0.945],[120.7655,0.9485],[120.7675,0.9485],[120.7715,0.952],[120.774,0.9545],[120.7755,0.954],[120.778,0.955],[120.7795,0.9555],[120.7815,0.9565],[120.792,0.9665],[120.7935,0.969],[120.797,0.971],[120.7935,0.986],[120.79,0.989],[120.7895,0.9895],[120.787,0.9925],[120.786,0.9955],[120.7695,0.9985],[120.7675,1],[120.767,1],[120.766,0.999],[120.7645,0.999],[120.7615,1],[120.7615,1.0015],[120.763,1.002],[120.7655,1.003],[120.7665,1.007],[120.7685,1.0105],[120.765,1.0125]]]},"properties":{"code":"72.04.07.2009","name":"Lelean Nono","latitude":0.9763820985227116,"longitude":120.76882350713844}},{"type":"Feature","geometry":{"type":"Polygon","coordinates":[[[120.883,0.9755],[120.8825,0.9765],[120.876,0.991],[120.8515,0.991],[120.847,0.9905],[120.8395,0.9855],[120.8375,0.9845],[120.834,0.983],[120.831,0.982],[120.829,0.981],[120.825,0.9815],[120.82,0.9825],[120.811,0.985],[120.804,0.9715],[120.797,0.971],[120.7935,0.969],[120.792,0.9665],[120.7815,0.9565],[120.781,0.956],[120.7875,0.951],[120.7895,0.949],[120.791,0.948],[120.793,0.948],[120.8,0.9525],[120.818,0.954],[120.8205,0.9525],[120.824,0.95],[120.828,0.9505],[120.838,0.955],[120.8415,0.9575],[120.861,0.9685],[120.8665,0.963],[120.873,0.9715],[120.879,0.973],[120.882,0.975],[120.883,0.9755]]]},"properties":{"code":"72.04.07.2010","name":"Pangi","latitude":0.970527835613295,"longitude":120.83373864083268}},{"type":"Feature","geometry":{"type":"Polygon","coordinates":[[[120.9345,1.06],[120.9345,1.0605],[120.9265,1.0625],[120.921,1.0655],[120.9145,1.0665],[120.9065,1.065],[120.885,1.0735],[120.871,1.095],[120.87,1.097],[120.867,1.098],[120.865,1.101],[120.8645,1.102],[120.8605,1.102],[120.8565,1.0975],[120.8535,1.096],[120.8455,1.087],[120.842,1.0875],[120.8355,1.0875],[120.827,1.086],[120.8235,1.086],[120.819,1.083],[120.813,1.081],[120.813,1.08],[120.81,1.0775],[120.807,1.075],[120.8055,1.075],[120.8025,1.0755],[120.801,1.0725],[120.8005,1.0715],[120.7975,1.066],[120.801,1.066],[120.8135,1.063],[120.814,1.0625],[120.8155,1.0625],[120.8175,1.063],[120.8225,1.065],[120.8325,1.0695],[120.834,1.0675],[120.8375,1.067],[120.8405,1.066],[120.8425,1.067],[120.86,1.069],[120.8845,1.061],[120.892,1.054],[120.9135,1.046],[120.9225,1.055],[120.9345,1.06]]]},"properties":{"code":"72.04.08.2001","name":"Ogomoli","latitude":1.0729307104742385,"longitude":120.86250696885628}},{"type":"Feature","geometry":{"type":"Polygon","coordinates":[[[120.817,1.087],[120.8155,1.087],[120.814,1.0875],[120.8085,1.0875],[120.8025,1.082],[120.8015,1.08],[120.801,1.079],[120.8015,1.077],[120.802,1.0765],[120.8025,1.0755],[120.8055,1.075],[120.807,1.075],[120.81,1.0775],[120.813,1.08],[120.813,1.081],[120.817,1.0835],[120.817,1.087]]]},"properties":{"code":"72.04.08.2002","name":"Sandana","latitude":1.0815531323694483,"longitude":120.80865035053304}},{"type":"Feature","geometry":{"type":"Polygon","coordinates":[[[120.8255,1.1145],[120.825,1.1145],[120.82,1.1175],[120.819,1.116],[120.806,1.1015],[120.804,1.102],[120.797,1.096],[120.7975,1.0935],[120.7975,1.0915],[120.8005,1.0715],[120.801,1.0725],[120.802,1.0765],[120.8015,1.077],[120.801,1.079],[120.8015,1.08],[120.8025,1.082],[120.8085,1.0875],[120.814,1.0875],[120.8155,1.087],[120.817,1.087],[120.817,1.0895],[120.815,1.1005],[120.8245,1.1065],[120.8255,1.1145]]]},"properties":{"code":"72.04.08.2003","name":"Kalangkangan","latitude":1.0965778705731262,"longitude":120.80968035866515}},{"type":"Feature","geometry":{"type":"Polygon","coordinates":[[[120.845,1.116],[120.826,1.1145],[120.8255,1.1145],[120.8245,1.1065],[120.815,1.1005],[120.817,1.0895],[120.817,1.0835],[120.819,1.083],[120.8235,1.086],[120.827,1.086],[120.828,1.087],[120.8345,1.1035],[120.8455,1.1155],[120.845,1.116]]]},"properties":{"code":"72.04.08.2004","name":"Lantapan","latitude":1.1017266768635907,"longitude":120.82769019414687}},{"type":"Feature","geometry":{"type":"Polygon","coordinates":[[[120.8555,1.1135],[120.8515,1.1155],[120.846,1.116],[120.8455,1.1155],[120.8345,1.1035],[120.828,1.087],[120.8355,1.0875],[120.842,1.0875],[120.8455,1.087],[120.8535,1.096],[120.849,1.101],[120.8515,1.1065],[120.8515,1.1075],[120.8555,1.1135]]]},"properties":{"code":"72.04.08.2005","name":"Lakatan","latitude":1.0995021754762262,"longitude":120.84228344352816}},{"type":"Feature","geometry":{"type":"Polygon","coordinates":[[[120.8625,1.1145],[120.8605,1.1155],[120.8535,1.123],[120.893,1.165],[120.897,1.1715],[120.897,1.173],[120.893,1.17],[120.89,1.1695],[120.886,1.169],[120.884,1.17],[120.873,1.16],[120.8595,1.1615],[120.857,1.16],[120.8545,1.158],[120.852,1.1585],[120.846,1.158],[120.845,1.1575],[120.8435,1.157],[120.842,1.1565],[120.8395,1.1575],[120.838,1.1565],[120.8375,1.157],[120.835,1.156],[120.835,1.1555],[120.8345,1.1545],[120.8325,1.152],[120.832,1.151],[120.8305,1.1475],[120.83,1.147],[120.8275,1.142],[120.8235,1.1315],[120.8205,1.1265],[120.8185,1.123],[120.818,1.12],[120.82,1.1175],[120.825,1.1145],[120.826,1.1145],[120.845,1.116],[120.846,1.116],[120.8515,1.1155],[120.8595,1.1145],[120.8605,1.1145],[120.862,1.1145],[120.8625,1.1145]]]},"properties":{"code":"72.04.08.2006","name":"Tinigi","latitude":1.1407213935203244,"longitude":120.85082740234414}},{"type":"Feature","geometry":{"type":"Polygon","coordinates":[[[120.8205,1.1265],[120.8095,1.1215],[120.8055,1.1195],[120.7855,1.1085],[120.7865,1.1045],[120.7975,1.0915],[120.7975,1.0935],[120.797,1.096],[120.804,1.102],[120.806,1.1015],[120.819,1.116],[120.818,1.12],[120.8185,1.123],[120.8205,1.1265]]]},"properties":{"code":"72.04.08.2007","name":"Ginunggung","latitude":1.1103135023030133,"longitude":120.80405364435333}},{"type":"Feature","geometry":{"type":"Polygon","coordinates":[[[120.8235,1.1315],[120.8045,1.1355],[120.8015,1.137],[120.8005,1.143],[120.8,1.1435],[120.79,1.141],[120.7855,1.124],[120.777,1.107],[120.7865,1.1045],[120.7855,1.1085],[120.8055,1.1195],[120.8095,1.1215],[120.8205,1.1265],[120.8235,1.1315]]]},"properties":{"code":"72.04.08.2008","name":"Lalos","latitude":1.1249085162063317,"longitude":120.79726691079023}},{"type":"Feature","geometry":{"type":"Polygon","coordinates":[[[120.835,1.156],[120.835,1.1565],[120.8345,1.157],[120.8345,1.161],[120.8295,1.1685],[120.8275,1.17],[120.825,1.171],[120.8195,1.168],[120.818,1.167],[120.8175,1.1655],[120.8065,1.149],[120.8035,1.148],[120.801,1.1465],[120.8005,1.146],[120.8005,1.143],[120.8015,1.137],[120.8045,1.1355],[120.8235,1.1315],[120.8275,1.142],[120.83,1.147],[120.8305,1.1475],[120.832,1.151],[120.8325,1.152],[120.8345,1.1545],[120.835,1.1555],[120.835,1.156]]]},"properties":{"code":"72.04.08.2009","name":"Tende","latitude":1.1496523977754565,"longitude":120.81924630706705}},{"type":"Feature","geometry":{"type":"Polygon","coordinates":[[[120.825,1.1725],[120.8225,1.1725],[120.797,1.1575],[120.79,1.141],[120.8,1.1435],[120.8005,1.146],[120.801,1.1465],[120.8035,1.148],[120.8065,1.149],[120.8175,1.1655],[120.818,1.167],[120.8195,1.168],[120.825,1.171],[120.8245,1.171],[120.825,1.1725]]]},"properties":{"code":"72.04.08.2010","name":"Sabang","latitude":1.15573111365636,"longitude":120.80244833772036}},{"type":"Feature","geometry":{"type":"Polygon","coordinates":[[[120.919,1.177],[120.9185,1.179],[120.917,1.1845],[120.9025,1.1895],[120.8815,1.2045],[120.8805,1.2115],[120.8655,1.2155],[120.862,1.2215],[120.8455,1.2135],[120.841,1.2125],[120.821,1.2165],[120.8165,1.2115],[120.8275,1.203],[120.8265,1.1815],[120.8425,1.176],[120.866,1.1775],[120.8795,1.1715],[120.8815,1.171],[120.886,1.169],[120.89,1.1695],[120.893,1.17],[120.8965,1.173],[120.8995,1.1745],[120.9085,1.177],[120.9155,1.1745],[120.919,1.177]]]},"properties":{"code":"72.04.08.2011","name":"Bajugan","latitude":1.193681736835475,"longitude":120.86415585902988}},{"type":"Feature","geometry":{"type":"Polygon","coordinates":[[[120.884,1.17],[120.8815,1.171],[120.8795,1.1715],[120.866,1.1775],[120.8425,1.176],[120.8265,1.1815],[120.8225,1.1725],[120.825,1.1725],[120.8245,1.171],[120.8275,1.17],[120.8295,1.1685],[120.8345,1.161],[120.8345,1.157],[120.835,1.1565],[120.8375,1.157],[120.838,1.1565],[120.8395,1.1575],[120.842,1.1565],[120.8435,1.157],[120.845,1.1575],[120.846,1.158],[120.852,1.1585],[120.8545,1.158],[120.857,1.16],[120.8595,1.1615],[120.873,1.16],[120.884,1.17]]]},"properties":{"code":"72.04.08.2012","name":"Aung","latitude":1.1687815209592438,"longitude":120.85213417526413}},{"type":"Feature","geometry":{"type":"Polygon","coordinates":[[[121.06,1.145],[121.053,1.1455],[121.0505,1.147],[121.044,1.1455],[121.0405,1.143],[121.0375,1.143],[121.033,1.1445],[121.039,1.1565],[121.0305,1.178],[121.02,1.186],[121.0175,1.1875],[121.017,1.1875],[121.0135,1.1865],[120.986,1.182],[120.9685,1.1845],[120.9655,1.1845],[120.9605,1.184],[120.9595,1.1815],[120.9485,1.1815],[120.946,1.1815],[120.926,1.18],[120.9235,1.1795],[120.921,1.1775],[120.9195,1.1765],[120.919,1.177],[120.9155,1.1745],[120.9085,1.177],[120.8995,1.1745],[120.897,1.173],[120.897,1.1715],[120.893,1.165],[120.8535,1.123],[120.8605,1.1155],[120.8625,1.1145],[120.864,1.1135],[120.8665,1.114],[120.872,1.112],[120.8805,1.109],[120.8835,1.1085],[120.9025,1.11],[120.9065,1.108],[120.907,1.1065],[120.9125,1.107],[120.915,1.11],[120.9255,1.126],[120.9395,1.124],[120.9495,1.1175],[120.962,1.117],[120.9685,1.1045],[120.977,1.114],[120.9845,1.1055],[121.0165,1.101],[121.0285,1.1015],[121.03,1.1025],[121.0405,1.1055],[121.053,1.1195],[121.0535,1.139],[121.06,1.145]]]},"properties":{"code":"72.04.08.2013","name":"Malangga","latitude":1.1431284743152867,"longitude":120.96278196844958}},{"type":"Feature","geometry":{"type":"Polygon","coordinates":[[[121.085,1.1355],[121.076,1.133],[121.0605,1.145],[121.06,1.145],[121.0535,1.139],[121.053,1.1195],[121.0405,1.1055],[121.03,1.1025],[121.0285,1.1015],[121.0165,1.101],[120.9845,1.1055],[120.977,1.114],[120.9685,1.1045],[120.962,1.117],[120.9495,1.1175],[120.9395,1.124],[120.9255,1.126],[120.915,1.11],[120.9125,1.107],[120.907,1.1065],[120.9065,1.108],[120.9025,1.11],[120.8835,1.1085],[120.8805,1.109],[120.872,1.112],[120.8665,1.114],[120.864,1.1135],[120.8625,1.1145],[120.862,1.1145],[120.8605,1.1145],[120.8595,1.1145],[120.8555,1.1135],[120.8515,1.1075],[120.8515,1.1065],[120.849,1.101],[120.8535,1.096],[120.8565,1.0975],[120.8605,1.102],[120.8645,1.102],[120.865,1.101],[120.867,1.098],[120.87,1.097],[120.871,1.095],[120.885,1.0735],[120.9065,1.065],[120.9145,1.0665],[120.921,1.0655],[120.9265,1.0625],[120.9345,1.0605],[120.935,1.06],[120.945,1.0555],[120.982,1.0725],[121.0065,1.078],[121.018,1.0775],[121.028,1.0835],[121.0515,1.0675],[121.052,1.0675],[121.059,1.076],[121.0965,1.0925],[121.0985,1.099],[121.099,1.1075],[121.1005,1.109],[121.0975,1.12],[121.096,1.1215],[121.095,1.1265],[121.089,1.134],[121.085,1.1355]]]},"properties":{"code":"72.04.08.2014","name":"Kinopasan","latitude":1.0955761422955212,"longitude":120.98106205519798}},{"type":"Feature","geometry":{"type":"Polygon","coordinates":[[[120.8855,1.3165],[120.8995,1.3245],[120.8975,1.334],[120.9135,1.341],[120.9085,1.353],[120.899,1.35],[120.8835,1.323],[120.883,1.319],[120.8775,1.317],[120.875,1.314],[120.8775,1.307],[120.8785,1.3075],[120.8855,1.3165]]]},"properties":{"code":"72.04.09.2005","name":"Santigi","latitude":1.3402632167878799,"longitude":120.89455716499722}},{"type":"Feature","geometry":{"type":"Polygon","coordinates":[[[120.9655,1.342],[120.942,1.35],[120.931,1.3395],[120.9275,1.318],[120.916,1.3195],[120.912,1.3105],[120.914,1.311],[120.919,1.3105],[120.92,1.307],[120.9245,1.3055],[120.925,1.303],[120.9265,1.302],[120.928,1.3],[120.9285,1.302],[120.936,1.3135],[120.939,1.3165],[120.9445,1.322],[120.951,1.326],[120.9655,1.342]]]},"properties":{"code":"72.04.09.2006","name":"Laulalang","latitude":1.3275028983885764,"longitude":120.9377139878179}},{"type":"Feature","geometry":{"type":"Polygon","coordinates":[[[121.0085,1.3275],[120.973,1.344],[120.9655,1.342],[120.951,1.326],[120.9445,1.322],[120.939,1.3165],[120.936,1.3135],[120.9285,1.302],[120.9275,1.2995],[120.9245,1.296],[120.925,1.292],[120.9255,1.288],[120.9265,1.285],[120.9095,1.259],[120.9255,1.2595],[120.9445,1.253],[120.949,1.2455],[120.9585,1.2485],[120.957,1.265],[120.9635,1.278],[120.9605,1.2885],[120.9705,1.301],[120.99,1.3105],[120.99,1.316],[120.994,1.3205],[121.0085,1.3275]]]},"properties":{"code":"72.04.09.2007","name":"Salumpaga","latitude":1.296992322152466,"longitude":120.95403213903069}},{"type":"Feature","geometry":{"type":"Polygon","coordinates":[[[121.0375,1.322],[121.0085,1.3275],[120.994,1.3205],[120.99,1.316],[120.99,1.3105],[120.9705,1.301],[120.9605,1.2885],[120.9635,1.278],[120.957,1.265],[120.9585,1.2485],[120.949,1.2455],[120.958,1.2375],[120.959,1.237],[120.961,1.2365],[120.962,1.2355],[120.963,1.232],[120.956,1.218],[120.959,1.213],[120.96,1.2115],[120.976,1.2365],[120.975,1.239],[120.9765,1.245],[120.9765,1.2475],[120.9775,1.2485],[120.9805,1.2485],[120.9855,1.252],[120.989,1.253],[120.998,1.261],[121.001,1.2625],[121.0065,1.2635],[121.028,1.2905],[121.025,1.3105],[121.026,1.312],[121.0305,1.3155],[121.0335,1.3175],[121.0375,1.322]]]},"properties":{"code":"72.04.09.2008","name":"Diule","latitude":1.2814480765446115,"longitude":120.99047468800539}},{"type":"Feature","geometry":{"type":"Polygon","coordinates":[[[121.1015,1.3155],[121.08,1.319],[121.065,1.302],[121.0545,1.311],[121.0385,1.3135],[121.0375,1.322],[121.0335,1.3175],[121.0305,1.3155],[121.026,1.312],[121.025,1.3105],[121.028,1.2905],[121.0065,1.2635],[121.001,1.2625],[120.998,1.261],[120.989,1.253],[120.9855,1.252],[120.9805,1.2485],[120.9775,1.2485],[120.9765,1.2475],[120.9765,1.245],[120.975,1.239],[120.976,1.2365],[120.96,1.2115],[120.9605,1.211],[120.9565,1.195],[120.959,1.185],[120.9605,1.184],[120.9655,1.1845],[120.9685,1.1845],[120.986,1.182],[121.0135,1.1865],[121.017,1.1875],[121.025,1.193],[121.0275,1.195],[121.037,1.2045],[121.0455,1.2055],[121.061,1.222],[121.0625,1.2225],[121.063,1.222],[121.0635,1.222],[121.0645,1.2215],[121.065,1.221],[121.065,1.222],[121.0645,1.2235],[121.0655,1.224],[121.066,1.2265],[121.062,1.2375],[121.0695,1.2535],[121.0705,1.2555],[121.0745,1.255],[121.075,1.255],[121.0775,1.2565],[121.0785,1.2565],[121.0805,1.256],[121.081,1.2565],[121.083,1.2575],[121.0835,1.259],[121.091,1.2615],[121.0915,1.262],[121.092,1.262],[121.092,1.2615],[121.092,1.2625],[121.088,1.275],[121.0875,1.2905],[121.0935,1.307],[121.1015,1.3155]]]},"properties":{"code":"72.04.09.2009","name":"Pinjan","latitude":1.2458833356245922,"longitude":121.02774752363236}},{"type":"Feature","geometry":{"type":"Polygon","coordinates":[[[121.1425,1.2915],[121.1015,1.3155],[121.0935,1.307],[121.0875,1.2905],[121.088,1.275],[121.092,1.2625],[121.092,1.2615],[121.0925,1.262],[121.093,1.2625],[121.094,1.2625],[121.0945,1.263],[121.0955,1.2645],[121.098,1.2645],[121.0995,1.2635],[121.101,1.2635],[121.1025,1.2635],[121.1025,1.264],[121.103,1.2625],[121.1025,1.2625],[121.103,1.262],[121.1025,1.2615],[121.122,1.2585],[121.123,1.259],[121.124,1.264],[121.125,1.265],[121.1255,1.265],[121.125,1.2665],[121.126,1.2675],[121.127,1.268],[121.1285,1.2695],[121.1285,1.274],[121.1375,1.2825],[121.1385,1.2835],[121.1425,1.2915]]]},"properties":{"code":"72.04.09.2010","name":"Binontoan","latitude":1.285353702727237,"longitude":121.11026497892017}},{"type":"Feature","geometry":{"type":"Polygon","coordinates":[[[121.1775,1.269],[121.1555,1.2835],[121.1495,1.2795],[121.147,1.2635],[121.1455,1.258],[121.1445,1.256],[121.1425,1.2535],[121.136,1.251],[121.127,1.242],[121.125,1.24],[121.124,1.235],[121.123,1.2305],[121.124,1.2295],[121.122,1.2275],[121.124,1.227],[121.128,1.2255],[121.1295,1.223],[121.133,1.223],[121.1315,1.222],[121.103,1.2155],[121.0855,1.208],[121.0715,1.19],[121.0725,1.167],[121.0735,1.1635],[121.0815,1.1515],[121.085,1.137],[121.089,1.134],[121.095,1.1265],[121.096,1.1215],[121.0975,1.12],[121.1005,1.109],[121.1015,1.11],[121.113,1.123],[121.1285,1.132],[121.1315,1.1455],[121.128,1.162],[121.1325,1.1785],[121.1445,1.189],[121.1555,1.2065],[121.1575,1.2185],[121.1745,1.217],[121.1695,1.229],[121.1705,1.245],[121.1755,1.248],[121.1775,1.269]]]},"properties":{"code":"72.04.09.2011","name":"Lakuan Tolitoli","latitude":1.1951290451315653,"longitude":121.12243966795205}},{"type":"Feature","geometry":{"type":"Polygon","coordinates":[[[121.1555,1.2835],[121.1425,1.2915],[121.1385,1.2835],[121.1375,1.2825],[121.1285,1.274],[121.1295,1.2685],[121.13,1.265],[121.117,1.248],[121.1175,1.245],[121.121,1.244],[121.122,1.243],[121.121,1.241],[121.1235,1.2415],[121.124,1.2395],[121.125,1.2405],[121.125,1.24],[121.127,1.242],[121.136,1.251],[121.1425,1.2535],[121.1445,1.256],[121.1455,1.258],[121.147,1.2635],[121.1495,1.2795],[121.1555,1.2835]]]},"properties":{"code":"72.04.09.2012","name":"Timbolo","latitude":1.2665899502235514,"longitude":121.13697457728809}},{"type":"Feature","geometry":{"type":"Polygon","coordinates":[[[120.912,1.3105],[120.8855,1.3165],[120.8785,1.3075],[120.879,1.3045],[120.888,1.2805],[120.9025,1.2675],[120.9055,1.2615],[120.9075,1.2605],[120.9065,1.2585],[120.9095,1.259],[120.9265,1.285],[120.9255,1.288],[120.925,1.292],[120.9245,1.296],[120.9275,1.2995],[120.928,1.3],[120.9265,1.302],[120.925,1.303],[120.9245,1.3055],[120.92,1.307],[120.919,1.3105],[120.914,1.311],[120.912,1.3105]]]},"properties":{"code":"72.04.09.2013","name":"Teluk Jaya","latitude":1.2911627462373245,"longitude":120.9033490680729}},{"type":"Feature","geometry":{"type":"Polygon","coordinates":[[[121.125,1.24],[121.125,1.2405],[121.124,1.2395],[121.1235,1.2415],[121.121,1.241],[121.122,1.243],[121.121,1.244],[121.1175,1.245],[121.117,1.248],[121.13,1.265],[121.1295,1.2685],[121.1285,1.2695],[121.127,1.268],[121.126,1.2675],[121.125,1.2665],[121.1255,1.265],[121.125,1.265],[121.124,1.264],[121.123,1.259],[121.122,1.2585],[121.1025,1.2615],[121.103,1.262],[121.1025,1.2625],[121.103,1.2625],[121.1025,1.264],[121.1025,1.2635],[121.101,1.2635],[121.0995,1.2635],[121.098,1.2645],[121.0955,1.2645],[121.0945,1.263],[121.094,1.2625],[121.093,1.2625],[121.0925,1.262],[121.0925,1.2615],[121.092,1.2615],[121.092,1.262],[121.0915,1.262],[121.0915,1.2615],[121.091,1.2615],[121.0835,1.259],[121.083,1.2575],[121.081,1.2565],[121.0805,1.256],[121.0785,1.2565],[121.0775,1.2565],[121.075,1.255],[121.0745,1.255],[121.0705,1.2555],[121.0695,1.2535],[121.062,1.2375],[121.066,1.2265],[121.0655,1.224],[121.0645,1.2235],[121.065,1.222],[121.065,1.221],[121.0645,1.2215],[121.0635,1.222],[121.063,1.222],[121.0625,1.2225],[121.061,1.222],[121.0455,1.2055],[121.037,1.2045],[121.0275,1.195],[121.025,1.193],[121.017,1.1875],[121.0175,1.1875],[121.02,1.186],[121.0305,1.178],[121.039,1.1565],[121.033,1.1445],[121.0375,1.143],[121.0405,1.143],[121.044,1.1455],[121.0505,1.147],[121.053,1.1455],[121.0605,1.145],[121.076,1.133],[121.085,1.1355],[121.085,1.137],[121.0815,1.1515],[121.0735,1.1635],[121.0725,1.167],[121.0715,1.19],[121.0855,1.208],[121.103,1.2155],[121.1315,1.222],[121.133,1.223],[121.1295,1.223],[121.128,1.2255],[121.124,1.227],[121.122,1.2275],[121.124,1.2295],[121.123,1.2305],[121.124,1.235],[121.125,1.24]]]},"properties":{"code":"72.04.09.2014","name":"Gio","latitude":1.2045846062802847,"longitude":121.07385223440917}},{"type":"Feature","geometry":{"type":"Polygon","coordinates":[[[120.949,1.2455],[120.9445,1.253],[120.9255,1.2595],[120.9095,1.259],[120.9065,1.2585],[120.906,1.2575],[120.901,1.2495],[120.9005,1.244],[120.9,1.2385],[120.901,1.2365],[120.903,1.2295],[120.9035,1.2285],[120.905,1.227],[120.892,1.2255],[120.8745,1.2405],[120.8635,1.2335],[120.8415,1.233],[120.8175,1.242],[120.8105,1.2175],[120.8165,1.2115],[120.821,1.2165],[120.841,1.2125],[120.8455,1.2135],[120.862,1.2215],[120.8655,1.2155],[120.8805,1.2115],[120.8815,1.2045],[120.9025,1.1895],[120.917,1.1845],[120.9185,1.179],[120.919,1.177],[120.9195,1.1765],[120.921,1.1775],[120.9235,1.1795],[120.926,1.18],[120.946,1.1815],[120.9485,1.1815],[120.9595,1.1815],[120.9605,1.184],[120.959,1.185],[120.9565,1.195],[120.9605,1.211],[120.959,1.213],[120.956,1.218],[120.963,1.232],[120.962,1.2355],[120.961,1.2365],[120.959,1.237],[120.958,1.2375],[120.949,1.2455]]]},"properties":{"code":"72.04.10.2001","name":"Galumpang","latitude":1.2196666620862286,"longitude":120.90601721166816}},{"type":"Feature","geometry":{"type":"Polygon","coordinates":[[[120.837,1.2665],[120.8355,1.2675],[120.826,1.2705],[120.814,1.2675],[120.814,1.2715],[120.811,1.2805],[120.808,1.2665],[120.8205,1.253],[120.8175,1.242],[120.8415,1.233],[120.8635,1.2335],[120.8745,1.2405],[120.892,1.2255],[120.905,1.227],[120.9035,1.2285],[120.903,1.2295],[120.901,1.2365],[120.9,1.2385],[120.9005,1.244],[120.901,1.2495],[120.906,1.2575],[120.9065,1.2585],[120.9075,1.2605],[120.9055,1.2615],[120.9025,1.2675],[120.8915,1.265],[120.856,1.2655],[120.8475,1.271],[120.837,1.2665]]]},"properties":{"code":"72.04.10.2002","name":"Dungingis","latitude":1.2507613191497549,"longitude":120.86048945163878}},{"type":"Feature","geometry":{"type":"Polygon","coordinates":[[[120.8095,1.325],[120.812,1.2985],[120.822,1.2945],[120.811,1.2805],[120.814,1.2715],[120.814,1.2675],[120.826,1.2705],[120.8355,1.2675],[120.837,1.2665],[120.837,1.2675],[120.8375,1.2705],[120.8415,1.291],[120.832,1.297],[120.826,1.309],[120.8095,1.325]]]},"properties":{"code":"72.04.10.2003","name":"Kapas","latitude":1.290443056693372,"longitude":120.82430442138319}},{"type":"Feature","geometry":{"type":"Polygon","coordinates":[[[120.8835,1.323],[120.839,1.3125],[120.8225,1.3235],[120.8095,1.325],[120.826,1.309],[120.832,1.297],[120.8415,1.291],[120.8375,1.2705],[120.837,1.2675],[120.837,1.2665],[120.8475,1.271],[120.856,1.2655],[120.8915,1.265],[120.9025,1.2675],[120.888,1.2805],[120.879,1.3045],[120.8775,1.307],[120.875,1.314],[120.8775,1.317],[120.883,1.319],[120.8835,1.323]]]},"properties":{"code":"72.04.10.2004","name":"Lingadan","latitude":1.2932346891276356,"longitude":120.85869885830928}}]}