{"type":"FeatureCollection","features":[{"type":"Feature","geometry":{"type":"Polygon","coordinates":[[[123.5205,-1.4395],[123.5105,-1.4375],[123.4765,-1.423],[123.4685,-1.422],[123.47,-1.426],[123.486,-1.4505],[123.5015,-1.456],[123.505,-1.458],[123.5135,-1.4535],[123.5205,-1.4395]]]},"properties":{"code":"72.07.03.2007","name":"Sobonon","latitude":-1.440868081930746,"longitude":123.49598053800115}},{"type":"Feature","geometry":{"type":"Polygon","coordinates":[[[123.507,-1.4235],[123.498,-1.412],[123.479,-1.404],[123.468,-1.4195],[123.4685,-1.422],[123.4765,-1.423],[123.5105,-1.4375],[123.5205,-1.4395],[123.5235,-1.431],[123.5215,-1.431],[123.507,-1.4235]]]},"properties":{"code":"72.07.03.2008","name":"Bolonan","latitude":-1.4221357812133502,"longitude":123.49470095783363}},{"type":"Feature","geometry":{"type":"Polygon","coordinates":[[[123.4655,-1.407],[123.466,-1.406],[123.4825,-1.378],[123.4715,-1.307],[123.432,-1.3275],[123.4445,-1.344],[123.4535,-1.363],[123.4565,-1.3785],[123.4605,-1.391],[123.4655,-1.407]]]},"properties":{"code":"72.07.03.2009","name":"Batang Babasal","latitude":-1.3506117871425058,"longitude":123.46256633040461}},{"type":"Feature","geometry":{"type":"Polygon","coordinates":[[[123.4985,-1.3595],[123.4945,-1.336],[123.4715,-1.307],[123.4865,-1.3365],[123.488,-1.3445],[123.488,-1.3465],[123.4855,-1.368],[123.49,-1.385],[123.502,-1.3895],[123.51,-1.3855],[123.516,-1.3815],[123.515,-1.3765],[123.507,-1.3725],[123.4985,-1.3595]]]},"properties":{"code":"72.07.03.2010","name":"Sampaka","latitude":-1.3616653031434478,"longitude":123.49460153444957}},{"type":"Feature","geometry":{"type":"Polygon","coordinates":[[[123.49,-1.385],[123.4855,-1.368],[123.488,-1.3465],[123.488,-1.3445],[123.4865,-1.3365],[123.4715,-1.307],[123.4825,-1.378],[123.466,-1.406],[123.465,-1.408],[123.465,-1.4105],[123.4675,-1.417],[123.468,-1.4195],[123.479,-1.404],[123.49,-1.385]]]},"properties":{"code":"72.07.03.2011","name":"Salangano","latitude":-1.3700572377074853,"longitude":123.47897045641434}},{"type":"Feature","geometry":{"type":"Polygon","coordinates":[[[123.502,-1.3895],[123.49,-1.385],[123.479,-1.404],[123.498,-1.412],[123.507,-1.4235],[123.5135,-1.4195],[123.526,-1.424],[123.529,-1.4145],[123.5045,-1.4025],[123.5045,-1.4005],[123.505,-1.396],[123.5055,-1.3945],[123.5045,-1.3925],[123.502,-1.3895]]]},"properties":{"code":"72.07.03.2012","name":"Sambiut","latitude":-1.4055634734628903,"longitude":123.50189365275861}},{"type":"Feature","geometry":{"type":"Polygon","coordinates":[[[123.526,-1.424],[123.5135,-1.4195],[123.507,-1.4235],[123.5215,-1.431],[123.5235,-1.431],[123.526,-1.424]]]},"properties":{"code":"72.07.03.2013","name":"Sakay","latitude":-1.4248051730682678,"longitude":123.51724678130793}},{"type":"Feature","geometry":{"type":"Polygon","coordinates":[[[123.532,-1.4095],[123.505,-1.396],[123.5045,-1.4005],[123.5045,-1.4025],[123.529,-1.4145],[123.532,-1.4095]]]},"properties":{"code":"72.07.03.2014","name":"Tone","latitude":-1.40596866848263,"longitude":123.51733266851933}},{"type":"Feature","geometry":{"type":"Polygon","coordinates":[[[123.5395,-1.38],[123.5325,-1.3795],[123.5155,-1.378],[123.516,-1.3815],[123.51,-1.3855],[123.502,-1.3895],[123.5045,-1.3925],[123.5055,-1.3945],[123.505,-1.396],[123.532,-1.4095],[123.5395,-1.3955],[123.5395,-1.38]]]},"properties":{"code":"72.07.03.2015","name":"Abason","latitude":-1.3919124487522856,"longitude":123.52364339234714}},{"type":"Feature","geometry":{"type":"Polygon","coordinates":[[[123.534,-1.3615],[123.4985,-1.3595],[123.507,-1.3725],[123.515,-1.3765],[123.5155,-1.378],[123.5325,-1.3795],[123.5395,-1.38],[123.534,-1.3615]]]},"properties":{"code":"72.07.03.2016","name":"Lopito","latitude":-1.368674483908103,"longitude":123.52026734098776}},{"type":"Feature","geometry":{"type":"Polygon","coordinates":[[[123.534,-1.3615],[123.552,-1.342],[123.5575,-1.3295],[123.5595,-1.309],[123.556,-1.278],[123.5305,-1.274],[123.5225,-1.2655],[123.4715,-1.307],[123.4945,-1.336],[123.4985,-1.3595],[123.534,-1.3615]]]},"properties":{"code":"72.07.03.2017","name":"Kombutokan","latitude":-1.31480276656502,"longitude":123.5213058046234}},{"type":"Feature","geometry":{"type":"Polygon","coordinates":[[[123.3545,-1.3065],[123.337,-1.303],[123.316,-1.301],[123.3045,-1.3075],[123.29,-1.3085],[123.29,-1.3105],[123.3055,-1.3165],[123.3245,-1.3205],[123.3505,-1.329],[123.3525,-1.3115],[123.3545,-1.3065]]]},"properties":{"code":"72.07.04.1015","name":"Salakan","latitude":-1.3128313625874877,"longitude":123.32891705035065}},{"type":"Feature","geometry":{"type":"Polygon","coordinates":[[[123.284,-1.4195],[123.269,-1.411],[123.2405,-1.402],[123.2295,-1.3945],[123.222,-1.3935],[123.2165,-1.3915],[123.214,-1.391],[123.2095,-1.3905],[123.21,-1.393],[123.2155,-1.405],[123.24,-1.4355],[123.2475,-1.448],[123.2525,-1.44],[123.282,-1.437],[123.284,-1.4195]]]},"properties":{"code":"72.07.04.2009","name":"Manggalai","latitude":-1.4187853472481642,"longitude":123.24861285184559}},{"type":"Feature","geometry":{"type":"Polygon","coordinates":[[[123.268,-1.3825],[123.2605,-1.389],[123.247,-1.39],[123.2445,-1.398],[123.2305,-1.3895],[123.236,-1.3805],[123.2295,-1.371],[123.2045,-1.375],[123.207,-1.3805],[123.2095,-1.3905],[123.214,-1.391],[123.2165,-1.3915],[123.222,-1.3935],[123.2295,-1.3945],[123.2405,-1.402],[123.269,-1.411],[123.284,-1.4195],[123.2955,-1.4105],[123.2925,-1.398],[123.28,-1.3855],[123.268,-1.3825]]]},"properties":{"code":"72.07.04.2010","name":"Ambelang","latitude":-1.3947300317925315,"longitude":123.25488022884537}},{"type":"Feature","geometry":{"type":"Polygon","coordinates":[[[123.347,-1.3745],[123.332,-1.3685],[123.3,-1.346],[123.287,-1.3475],[123.2835,-1.3585],[123.2735,-1.369],[123.268,-1.3825],[123.28,-1.3855],[123.2925,-1.398],[123.2955,-1.4105],[123.299,-1.41],[123.311,-1.4045],[123.3365,-1.3995],[123.347,-1.3745]]]},"properties":{"code":"72.07.04.2011","name":"Saiyong","latitude":-1.378259185735616,"longitude":123.30667034684166}},{"type":"Feature","geometry":{"type":"Polygon","coordinates":[[[123.2865,-1.3215],[123.279,-1.3315],[123.287,-1.3475],[123.3,-1.346],[123.332,-1.3685],[123.347,-1.3745],[123.3585,-1.355],[123.356,-1.351],[123.354,-1.346],[123.292,-1.3325],[123.2865,-1.3215]]]},"properties":{"code":"72.07.04.2012","name":"Tompudau","latitude":-1.349209687208129,"longitude":123.32191580644441}},{"type":"Feature","geometry":null,"properties":{"code":"72.07.04.2013","name":"Bongganan","latitude":-1.3149026876711178,"longitude":123.28547339533596}},{"type":"Feature","geometry":{"type":"Polygon","coordinates":[[[123.3505,-1.329],[123.3245,-1.3205],[123.3055,-1.3165],[123.29,-1.3105],[123.29,-1.311],[123.2865,-1.3215],[123.292,-1.3325],[123.354,-1.346],[123.353,-1.3435],[123.3505,-1.329]]]},"properties":{"code":"72.07.04.2014","name":"Baka","latitude":-1.3285742225728137,"longitude":123.31837345849979}},{"type":"Feature","geometry":{"type":"Polygon","coordinates":[[[123.306,-1.279],[123.3015,-1.244],[123.3145,-1.2125],[123.3125,-1.213],[123.29,-1.2255],[123.283,-1.2325],[123.295,-1.2705],[123.306,-1.279]]]},"properties":{"code":"72.07.04.2016","name":"Bulungkobit","latitude":-1.2453125200591522,"longitude":123.29791486187318}},{"type":"Feature","geometry":{"type":"Polygon","coordinates":[[[123.306,-1.279],[123.311,-1.2725],[123.316,-1.249],[123.316,-1.232],[123.324,-1.2115],[123.3255,-1.1885],[123.318,-1.176],[123.3185,-1.191],[123.3145,-1.2125],[123.3015,-1.244],[123.306,-1.279]]]},"properties":{"code":"72.07.04.2017","name":"Bakalan","latitude":-1.2310744737468182,"longitude":123.31347024501615}},{"type":"Feature","geometry":{"type":"Polygon","coordinates":[[[123.384,-1.222],[123.364,-1.2275],[123.327,-1.2735],[123.323,-1.2925],[123.316,-1.301],[123.337,-1.303],[123.3545,-1.3065],[123.3635,-1.2855],[123.375,-1.2545],[123.384,-1.222]]]},"properties":{"code":"72.07.04.2018","name":"Kautu","latitude":-1.268090871838773,"longitude":123.35240738674786}},{"type":"Feature","geometry":{"type":"MultiPolygon","coordinates":[[[[123.29,-1.2255],[123.3125,-1.213],[123.3145,-1.2125],[123.3185,-1.191],[123.318,-1.176],[123.3035,-1.177],[123.2825,-1.192],[123.275,-1.2155],[123.283,-1.2325],[123.29,-1.2255]]],[[[123.3,-1.146],[123.283,-1.153],[123.278,-1.162],[123.2785,-1.1765],[123.2855,-1.1775],[123.302,-1.1595],[123.3,-1.146]]]]},"properties":{"code":"72.07.04.2022","name":"Bungin","latitude":-1.1909334166279948,"longitude":123.29587077153364}},{"type":"Feature","geometry":{"type":"Polygon","coordinates":[[[123.248,-1.618],[123.2455,-1.6165],[123.243,-1.614],[123.2325,-1.6205],[123.2365,-1.643],[123.2435,-1.647],[123.2545,-1.639],[123.2565,-1.6185],[123.248,-1.618]]]},"properties":{"code":"72.07.05.2001","name":"Tangkop","latitude":-1.6299665544336186,"longitude":123.24512138977794}},{"type":"Feature","geometry":{"type":"Polygon","coordinates":[[[123.2565,-1.6185],[123.258,-1.609],[123.242,-1.593],[123.245,-1.577],[123.2385,-1.575],[123.234,-1.5945],[123.2405,-1.611],[123.2455,-1.6165],[123.248,-1.618],[123.2565,-1.6185]]]},"properties":{"code":"72.07.05.2002","name":"Binuntuli","latitude":-1.600714541488466,"longitude":123.24502296077955}},{"type":"Feature","geometry":{"type":"Polygon","coordinates":[[[123.2405,-1.611],[123.234,-1.5945],[123.2385,-1.575],[123.2335,-1.573],[123.2185,-1.567],[123.214,-1.566],[123.2185,-1.593],[123.2215,-1.6025],[123.2315,-1.6015],[123.2325,-1.6205],[123.243,-1.614],[123.2405,-1.611]]]},"properties":{"code":"72.07.05.2003","name":"Popidolon","latitude":-1.5887316762662613,"longitude":123.22783287897101}},{"type":"Feature","geometry":{"type":"Polygon","coordinates":[[[123.1825,-1.5875],[123.181,-1.585],[123.179,-1.5805],[123.1755,-1.574],[123.174,-1.575],[123.17,-1.5775],[123.1725,-1.5895],[123.1735,-1.59],[123.1775,-1.6025],[123.1835,-1.614],[123.187,-1.617],[123.1885,-1.6175],[123.206,-1.6105],[123.189,-1.5955],[123.1825,-1.5875]]]},"properties":{"code":"72.07.05.2004","name":"Okumel","latitude":-1.600801389574115,"longitude":123.1870182025169}},{"type":"Feature","geometry":{"type":"Polygon","coordinates":[[[123.1735,-1.59],[123.1725,-1.5895],[123.17,-1.5775],[123.1685,-1.5785],[123.1645,-1.579],[123.163,-1.592],[123.167,-1.6145],[123.1635,-1.6235],[123.16,-1.636],[123.1585,-1.6385],[123.17,-1.6305],[123.177,-1.6335],[123.1885,-1.6175],[123.187,-1.617],[123.1835,-1.614],[123.1775,-1.6025],[123.1735,-1.59]]]},"properties":{"code":"72.07.05.2005","name":"Tomboniki","latitude":-1.6140636537301039,"longitude":123.17178376511673}},{"type":"Feature","geometry":{"type":"Polygon","coordinates":[[[123.1645,-1.579],[123.163,-1.579],[123.1555,-1.5785],[123.154,-1.587],[123.152,-1.593],[123.146,-1.614],[123.153,-1.6215],[123.1585,-1.6385],[123.16,-1.636],[123.1635,-1.6235],[123.167,-1.6145],[123.163,-1.592],[123.1645,-1.579]]]},"properties":{"code":"72.07.05.2006","name":"Kindandal","latitude":-1.6075422010776643,"longitude":123.1578816190693}},{"type":"Feature","geometry":{"type":"Polygon","coordinates":[[[123.152,-1.593],[123.154,-1.587],[123.1555,-1.5785],[123.151,-1.5775],[123.149,-1.578],[123.1445,-1.5785],[123.112,-1.588],[123.101,-1.6025],[123.115,-1.6115],[123.1265,-1.613],[123.1325,-1.607],[123.146,-1.614],[123.152,-1.593]]]},"properties":{"code":"72.07.05.2007","name":"Mamulusan","latitude":-1.5960667687493542,"longitude":123.13164905563542}},{"type":"Feature","geometry":{"type":"Polygon","coordinates":[[[123.2065,-1.541],[123.206,-1.541],[123.2065,-1.5385],[123.2055,-1.537],[123.205,-1.5365],[123.203,-1.5435],[123.21,-1.5645],[123.2185,-1.567],[123.2335,-1.573],[123.245,-1.577],[123.238,-1.5515],[123.228,-1.551],[123.2195,-1.5475],[123.2115,-1.542],[123.209,-1.5415],[123.2065,-1.541]]]},"properties":{"code":"72.07.05.2010","name":"Saleati","latitude":-1.5587116649403001,"longitude":123.22367644540257}},{"type":"Feature","geometry":{"type":"Polygon","coordinates":[[[123.2305,-1.515],[123.2105,-1.5115],[123.206,-1.532],[123.205,-1.5365],[123.2055,-1.537],[123.2065,-1.5385],[123.206,-1.541],[123.2065,-1.541],[123.209,-1.5415],[123.2115,-1.542],[123.2195,-1.5475],[123.228,-1.551],[123.238,-1.5515],[123.2465,-1.5385],[123.2465,-1.5285],[123.2385,-1.525],[123.235,-1.521],[123.2325,-1.5165],[123.2305,-1.515]]]},"properties":{"code":"72.07.05.2011","name":"Liang","latitude":-1.5325957263932803,"longitude":123.22541022597981}},{"type":"Feature","geometry":{"type":"Polygon","coordinates":[[[123.2405,-1.556],[123.2405,-1.555],[123.24,-1.555],[123.2395,-1.556],[123.2405,-1.556]]]},"properties":{"code":"72.07.05.2012","name":"Bajo","latitude":-1.5557773864137252,"longitude":123.24155946162303}},{"type":"Feature","geometry":{"type":"Polygon","coordinates":[[[123.2465,-1.5285],[123.248,-1.5055],[123.2355,-1.504],[123.232,-1.5],[123.2275,-1.512],[123.2305,-1.515],[123.2325,-1.5165],[123.235,-1.521],[123.2385,-1.525],[123.2465,-1.5285]]]},"properties":{"code":"72.07.05.2013","name":"Balayon","latitude":-1.5135943251152402,"longitude":123.23949793683406}},{"type":"Feature","geometry":{"type":"Polygon","coordinates":[[[123.2295,-1.501],[123.225,-1.4855],[123.2185,-1.477],[123.212,-1.4705],[123.2115,-1.4705],[123.2115,-1.4815],[123.2115,-1.5],[123.2105,-1.5115],[123.2305,-1.515],[123.2275,-1.512],[123.2295,-1.501]]]},"properties":{"code":"72.07.05.2016","name":"Basosol","latitude":-1.4962661812563287,"longitude":123.21895689369605}},{"type":"Feature","geometry":{"type":"Polygon","coordinates":[[[123.2325,-1.4715],[123.225,-1.471],[123.2195,-1.4705],[123.212,-1.4705],[123.2185,-1.477],[123.225,-1.4855],[123.2295,-1.501],[123.232,-1.5],[123.2355,-1.504],[123.2475,-1.5055],[123.2505,-1.4885],[123.2575,-1.487],[123.237,-1.471],[123.2325,-1.4715]]]},"properties":{"code":"72.07.05.2017","name":"Boyoumoute","latitude":-1.4863364680960784,"longitude":123.23613612239652}},{"type":"Feature","geometry":{"type":"Polygon","coordinates":[[[123.2575,-1.487],[123.253,-1.4715],[123.2585,-1.468],[123.2565,-1.4425],[123.2755,-1.4425],[123.282,-1.437],[123.2525,-1.44],[123.245,-1.4535],[123.237,-1.471],[123.2575,-1.487]]]},"properties":{"code":"72.07.05.2018","name":"Apal","latitude":-1.45910597470403,"longitude":123.25319795346242}},{"type":"Feature","geometry":{"type":"Polygon","coordinates":[[[123.214,-1.566],[123.21,-1.5645],[123.203,-1.5435],[123.197,-1.5515],[123.192,-1.5565],[123.1905,-1.5585],[123.2055,-1.5975],[123.2125,-1.6085],[123.2215,-1.6025],[123.2185,-1.593],[123.214,-1.566]]]},"properties":{"code":"72.07.05.2025","name":"Selekan","latitude":-1.5764071705864233,"longitude":123.20652764983534}},{"type":"Feature","geometry":{"type":"Polygon","coordinates":[[[123.2125,-1.6085],[123.2055,-1.5975],[123.1905,-1.5585],[123.1865,-1.5625],[123.1835,-1.5655],[123.1755,-1.574],[123.179,-1.5805],[123.181,-1.585],[123.1825,-1.5875],[123.189,-1.5955],[123.206,-1.6105],[123.2125,-1.6085]]]},"properties":{"code":"72.07.05.2026","name":"Loolong","latitude":-1.5840573034382925,"longitude":123.19237385082486}},{"type":"Feature","geometry":{"type":"Polygon","coordinates":[[[123.104,-1.329],[123.0935,-1.3205],[123.071,-1.293],[123.069,-1.296],[123.059,-1.31],[123.0575,-1.312],[123.0835,-1.338],[123.0965,-1.344],[123.104,-1.329]]]},"properties":{"code":"72.07.06.1018","name":"Bulagi I","latitude":-1.3196220509059622,"longitude":123.08033634410025}},{"type":"Feature","geometry":{"type":"Polygon","coordinates":[[[123.0575,-1.3895],[123.0615,-1.385],[123.0525,-1.38],[123.0475,-1.3755],[123.0575,-1.3895]]]},"properties":{"code":"72.07.06.2014","name":"Tolo","latitude":-1.3829633471464393,"longitude":123.05352170118613}},{"type":"Feature","geometry":{"type":"Polygon","coordinates":[[[123.0615,-1.385],[123.069,-1.3765],[123.0345,-1.342],[123.0315,-1.345],[123.0245,-1.352],[123.023,-1.3535],[123.0345,-1.364],[123.0525,-1.38],[123.0615,-1.385]]]},"properties":{"code":"72.07.06.2015","name":"Lalandai","latitude":-1.363840155357692,"longitude":123.046495882792}},{"type":"Feature","geometry":{"type":"Polygon","coordinates":[[[123.079,-1.362],[123.0445,-1.33],[123.0345,-1.342],[123.069,-1.3765],[123.079,-1.362]]]},"properties":{"code":"72.07.06.2016","name":"Montomisan","latitude":-1.3525545361674394,"longitude":123.05721633370905}},{"type":"Feature","geometry":{"type":"Polygon","coordinates":[[[123.0845,-1.3575],[123.0965,-1.344],[123.0835,-1.338],[123.0575,-1.312],[123.0505,-1.322],[123.0845,-1.3575]]]},"properties":{"code":"72.07.06.2017","name":"Sosom","latitude":-1.33500773498327,"longitude":123.07249396457523}},{"type":"Feature","geometry":{"type":"Polygon","coordinates":[[[123.104,-1.329],[123.11,-1.315],[123.079,-1.2835],[123.0745,-1.2885],[123.071,-1.293],[123.0935,-1.3205],[123.104,-1.329]]]},"properties":{"code":"72.07.06.2019","name":"Bulagi II","latitude":-1.3075793101988256,"longitude":123.09270247088185}},{"type":"Feature","geometry":{"type":"Polygon","coordinates":[[[123.1145,-1.3065],[123.085,-1.2725],[123.082,-1.2785],[123.079,-1.2835],[123.11,-1.315],[123.1145,-1.3065]]]},"properties":{"code":"72.07.06.2020","name":"Boloy","latitude":-1.294000452578036,"longitude":123.09643835985088}},{"type":"Feature","geometry":{"type":"Polygon","coordinates":[[[123.12,-1.2975],[123.108,-1.286],[123.096,-1.27],[123.086,-1.27],[123.085,-1.2725],[123.1145,-1.3065],[123.12,-1.2975]]]},"properties":{"code":"72.07.06.2021","name":"Meselesek","latitude":-1.2870892354107326,"longitude":123.10303506173516}},{"type":"Feature","geometry":{"type":"Polygon","coordinates":[[[123.1075,-1.27],[123.096,-1.27],[123.108,-1.286],[123.12,-1.2975],[123.1205,-1.2975],[123.1335,-1.306],[123.1385,-1.299],[123.1375,-1.297],[123.134,-1.293],[123.1175,-1.2835],[123.1075,-1.27]]]},"properties":{"code":"72.07.06.2022","name":"Oluno","latitude":-1.2879422432776584,"longitude":123.11792150125514}},{"type":"Feature","geometry":{"type":"Polygon","coordinates":[[[123.1335,-1.306],[123.1205,-1.2975],[123.123,-1.3165],[123.1335,-1.306]]]},"properties":{"code":"72.07.06.2023","name":"Sumondung","latitude":-1.3080975729816462,"longitude":123.12483984017078}},{"type":"Feature","geometry":{"type":"Polygon","coordinates":[[[123.1655,-1.2735],[123.117,-1.2705],[123.1075,-1.27],[123.1175,-1.2835],[123.134,-1.293],[123.1375,-1.297],[123.1385,-1.299],[123.151,-1.2965],[123.166,-1.3025],[123.1705,-1.3005],[123.1655,-1.2735]]]},"properties":{"code":"72.07.06.2024","name":"Pelingseasa","latitude":-1.2835463328871073,"longitude":123.14320013514345}},{"type":"Feature","geometry":{"type":"Polygon","coordinates":[[[123.2295,-1.371],[123.2275,-1.359],[123.2125,-1.352],[123.2065,-1.3365],[123.184,-1.3195],[123.191,-1.301],[123.1705,-1.3005],[123.1815,-1.327],[123.185,-1.3455],[123.199,-1.366],[123.2045,-1.375],[123.2295,-1.371]]]},"properties":{"code":"72.07.06.2025","name":"Komba-komba","latitude":-1.3420387927617636,"longitude":123.20008069914711}},{"type":"Feature","geometry":{"type":"Polygon","coordinates":[[[123.0845,-1.27],[123.075,-1.27],[123.0355,-1.2705],[123.0065,-1.278],[123,-1.2805],[122.971,-1.2885],[122.9435,-1.294],[122.921,-1.3015],[122.92,-1.315],[122.9195,-1.3205],[122.9185,-1.331],[122.9155,-1.3545],[122.9215,-1.355],[122.9445,-1.3555],[122.978,-1.3555],[122.995,-1.3555],[123,-1.3555],[123.016,-1.3625],[123.0215,-1.355],[123.0245,-1.352],[123.0315,-1.345],[123.0445,-1.33],[123.0505,-1.322],[123.059,-1.31],[123.069,-1.296],[123.0745,-1.2885],[123.079,-1.2835],[123.082,-1.2785],[123.086,-1.27],[123.0845,-1.27]]]},"properties":{"code":"72.07.06.2035","name":"Alul","latitude":-1.3152142514156704,"longitude":122.99469027876938}},{"type":"Feature","geometry":{"type":"Polygon","coordinates":[[[123.0845,-1.3575],[123.0505,-1.322],[123.0445,-1.33],[123.079,-1.362],[123.0845,-1.3575]]]},"properties":{"code":"72.07.06.2038","name":"Toolon","latitude":-1.3421029400491873,"longitude":123.0639087707041}},{"type":"Feature","geometry":{"type":"Polygon","coordinates":[[[123.0475,-1.3755],[123.0345,-1.364],[123.023,-1.3535],[123.0215,-1.355],[123.016,-1.3625],[123.055,-1.3945],[123.0575,-1.3895],[123.0475,-1.3755]]]},"properties":{"code":"72.07.06.2039","name":"Kambal","latitude":-1.3715720762988852,"longitude":123.03512428559362}},{"type":"Feature","geometry":{"type":"Polygon","coordinates":[[[123.199,-1.366],[123.185,-1.3455],[123.1815,-1.327],[123.1705,-1.3005],[123.166,-1.3025],[123.1585,-1.308],[123.161,-1.319],[123.1555,-1.335],[123.1585,-1.3525],[123.1565,-1.3665],[123.199,-1.366]]]},"properties":{"code":"72.07.06.2040","name":"Kayubet","latitude":-1.340602504099821,"longitude":123.17164228019622}},{"type":"Feature","geometry":{"type":"Polygon","coordinates":[[[122.905,-1.3905],[122.793,-1.3865],[122.793,-1.401],[122.794,-1.401],[122.799,-1.403],[122.809,-1.4035],[122.854,-1.41],[122.8885,-1.411],[122.8905,-1.4105],[122.893,-1.4105],[122.8935,-1.4105],[122.896,-1.4065],[122.905,-1.3905]]]},"properties":{"code":"72.07.07.2008","name":"Paisubatu","latitude":-1.398084046797853,"longitude":122.84922724036755}},{"type":"Feature","geometry":{"type":"Polygon","coordinates":[[[122.9125,-1.3735],[122.9135,-1.3705],[122.9145,-1.362],[122.9155,-1.3545],[122.84,-1.348],[122.808,-1.3435],[122.795,-1.372],[122.8155,-1.374],[122.863,-1.3735],[122.912,-1.375],[122.9125,-1.3735]]]},"properties":{"code":"72.07.07.2009","name":"Batangono","latitude":-1.3614080999495526,"longitude":122.85346122936865}},{"type":"Feature","geometry":{"type":"Polygon","coordinates":[[[122.9185,-1.331],[122.8945,-1.33],[122.857,-1.3255],[122.813,-1.3185],[122.816,-1.33],[122.808,-1.3435],[122.84,-1.348],[122.9155,-1.3545],[122.9185,-1.331]]]},"properties":{"code":"72.07.07.2010","name":"Lalengan","latitude":-1.337679020493198,"longitude":122.86368274636963}},{"type":"Feature","geometry":{"type":"Polygon","coordinates":[[[122.825,-1.308],[122.816,-1.307],[122.813,-1.3185],[122.857,-1.3255],[122.8945,-1.33],[122.9185,-1.331],[122.9195,-1.3205],[122.9195,-1.3185],[122.869,-1.3165],[122.845,-1.314],[122.831,-1.313],[122.828,-1.314],[122.825,-1.308]]]},"properties":{"code":"72.07.07.2011","name":"Peling Lalomo","latitude":-1.3208826748466174,"longitude":122.86992034011108}},{"type":"Feature","geometry":{"type":"Polygon","coordinates":[[[122.921,-1.3015],[122.9005,-1.3],[122.832,-1.301],[122.8225,-1.299],[122.816,-1.307],[122.825,-1.308],[122.841,-1.3055],[122.845,-1.314],[122.869,-1.3165],[122.9195,-1.3185],[122.92,-1.315],[122.921,-1.3015]]]},"properties":{"code":"72.07.07.2012","name":"Labasiano","latitude":-1.3079280943578542,"longitude":122.87830247830108}},{"type":"Feature","geometry":{"type":"Polygon","coordinates":[[[122.9215,-1.291],[122.9135,-1.2915],[122.904,-1.291],[122.8825,-1.291],[122.8705,-1.292],[122.833,-1.2915],[122.825,-1.2875],[122.8225,-1.299],[122.832,-1.301],[122.9005,-1.3],[122.921,-1.3015],[122.921,-1.295],[122.9215,-1.291]]]},"properties":{"code":"72.07.07.2013","name":"Tataba","latitude":-1.295750998123616,"longitude":122.87277338021381}},{"type":"Feature","geometry":{"type":"Polygon","coordinates":[[[122.9205,-1.282],[122.8515,-1.28],[122.8315,-1.2775],[122.825,-1.2875],[122.833,-1.2915],[122.8705,-1.292],[122.8825,-1.291],[122.904,-1.291],[122.9135,-1.2915],[122.9215,-1.291],[122.9215,-1.2875],[122.9205,-1.282]]]},"properties":{"code":"72.07.07.2014","name":"Malanggong","latitude":-1.2859374873670335,"longitude":122.87146720635027}},{"type":"Feature","geometry":{"type":"Polygon","coordinates":[[[122.919,-1.273],[122.8455,-1.272],[122.842,-1.271],[122.8315,-1.2775],[122.8515,-1.28],[122.9205,-1.282],[122.919,-1.273]]]},"properties":{"code":"72.07.07.2015","name":"Leme-leme bungin","latitude":-1.2765110127370745,"longitude":122.8792491099874}},{"type":"Feature","geometry":{"type":"Polygon","coordinates":[[[122.918,-1.2645],[122.891,-1.2635],[122.8795,-1.2625],[122.8745,-1.261],[122.863,-1.259],[122.8625,-1.258],[122.842,-1.271],[122.8455,-1.272],[122.919,-1.273],[122.9185,-1.268],[122.918,-1.2645]]]},"properties":{"code":"72.07.07.2016","name":"Leme-leme darat","latitude":-1.2673162804707583,"longitude":122.87990865993908}},{"type":"Feature","geometry":{"type":"Polygon","coordinates":[[[122.912,-1.375],[122.863,-1.3735],[122.8155,-1.374],[122.795,-1.372],[122.793,-1.3865],[122.905,-1.3905],[122.911,-1.379],[122.912,-1.375]]]},"properties":{"code":"72.07.07.2017","name":"Talas-talas","latitude":-1.3813329609195084,"longitude":122.85355541932715}},{"type":"Feature","geometry":{"type":"Polygon","coordinates":[[[122.915,-1.25],[122.9145,-1.2455],[122.9115,-1.217],[122.9085,-1.1885],[122.9055,-1.182],[122.892,-1.2065],[122.882,-1.2145],[122.8825,-1.226],[122.8745,-1.2405],[122.907,-1.249],[122.915,-1.25]]]},"properties":{"code":"72.07.07.2018","name":"Okulo Potil","latitude":-1.223048079830786,"longitude":122.89825968646828}},{"type":"Feature","geometry":{"type":"Polygon","coordinates":[[[122.8745,-1.2405],[122.8625,-1.258],[122.863,-1.259],[122.8745,-1.261],[122.8795,-1.2625],[122.891,-1.2635],[122.918,-1.2645],[122.9175,-1.2625],[122.916,-1.258],[122.915,-1.25],[122.907,-1.249],[122.8745,-1.2405]]]},"properties":{"code":"72.07.07.2019","name":"Tatendeng","latitude":-1.2545059016066438,"longitude":122.89085235795409}},{"type":"Feature","geometry":{"type":"Polygon","coordinates":[[[122.845,-1.314],[122.841,-1.3055],[122.825,-1.308],[122.828,-1.314],[122.831,-1.313],[122.845,-1.314]]]},"properties":{"code":"72.07.07.2020","name":"Olusi","latitude":-1.3096666767881648,"longitude":122.83510844291229}},{"type":"Feature","geometry":{"type":"Polygon","coordinates":[[[122.8885,-1.559],[122.879,-1.5645],[122.8705,-1.555],[122.875,-1.5695],[122.884,-1.6005],[122.9045,-1.6],[122.9155,-1.593],[122.914,-1.591],[122.8915,-1.5565],[122.8885,-1.559]]]},"properties":{"code":"72.07.09.2001","name":"Bonepuso","latitude":-1.5817429649959664,"longitude":122.89278844095449}},{"type":"Feature","geometry":{"type":"Polygon","coordinates":[[[122.8885,-1.559],[122.887,-1.549],[122.869,-1.5285],[122.864,-1.5325],[122.864,-1.539],[122.868,-1.551],[122.8705,-1.555],[122.879,-1.5645],[122.8885,-1.559]]]},"properties":{"code":"72.07.09.2002","name":"Palabatu II","latitude":-1.5483511159463943,"longitude":122.8765371219955}},{"type":"Feature","geometry":{"type":"Polygon","coordinates":[[[122.909,-1.5145],[122.905,-1.5],[122.905,-1.477],[122.9035,-1.486],[122.903,-1.4895],[122.9,-1.4895],[122.889,-1.492],[122.881,-1.48],[122.8635,-1.495],[122.865,-1.5],[122.866,-1.508],[122.8655,-1.512],[122.865,-1.516],[122.8645,-1.5205],[122.864,-1.5325],[122.869,-1.5285],[122.887,-1.549],[122.8885,-1.559],[122.8915,-1.5565],[122.893,-1.5525],[122.8945,-1.5485],[122.9105,-1.5325],[122.9125,-1.531],[122.9185,-1.531],[122.9175,-1.5295],[122.909,-1.5145]]]},"properties":{"code":"72.07.09.2003","name":"Tatarandang","latitude":-1.5164771864325344,"longitude":122.88826732976027}},{"type":"Feature","geometry":{"type":"Polygon","coordinates":[[[122.9415,-1.551],[122.9185,-1.5315],[122.9185,-1.531],[122.9125,-1.531],[122.9105,-1.5325],[122.8945,-1.5485],[122.893,-1.5525],[122.8915,-1.5565],[122.914,-1.591],[122.9155,-1.593],[122.924,-1.585],[122.931,-1.566],[122.9415,-1.551]]]},"properties":{"code":"72.07.09.2004","name":"Pandaluk","latitude":-1.558931943116721,"longitude":122.9157016299059}},{"type":"Feature","geometry":{"type":"Polygon","coordinates":[[[122.957,-1.426],[122.9225,-1.4025],[122.922,-1.414],[122.9075,-1.424],[122.9035,-1.432],[122.903,-1.433],[122.905,-1.477],[122.922,-1.4785],[122.9255,-1.4955],[122.9295,-1.494],[122.939,-1.49],[122.9405,-1.4885],[122.945,-1.486],[122.952,-1.4795],[122.972,-1.455],[122.9635,-1.4485],[122.949,-1.436],[122.957,-1.426]]]},"properties":{"code":"72.07.09.2005","name":"Osan","latitude":-1.4507691828912157,"longitude":122.93246947853086}},{"type":"Feature","geometry":{"type":"Polygon","coordinates":[[[122.9635,-1.5445],[122.962,-1.5435],[122.9605,-1.539],[122.9535,-1.515],[122.9405,-1.488],[122.939,-1.49],[122.9295,-1.494],[122.928,-1.495],[122.9495,-1.54],[122.952,-1.5415],[122.9635,-1.5445]]]},"properties":{"code":"72.07.09.2006","name":"Balalon","latitude":-1.5156434336440965,"longitude":122.94529296405864}},{"type":"Feature","geometry":{"type":"Polygon","coordinates":[[[122.9835,-1.4635],[122.972,-1.455],[122.952,-1.4795],[122.9485,-1.483],[122.9845,-1.5205],[122.9995,-1.511],[122.992,-1.5045],[122.9765,-1.483],[122.976,-1.4795],[122.977,-1.474],[122.9835,-1.4635]]]},"properties":{"code":"72.07.09.2007","name":"Sabelak","latitude":-1.4890518423444576,"longitude":122.97288225361153}},{"type":"Feature","geometry":{"type":"Polygon","coordinates":[[[122.9935,-1.469],[122.9835,-1.4635],[122.977,-1.474],[122.976,-1.4795],[122.9765,-1.483],[122.992,-1.5045],[122.9995,-1.511],[123.0085,-1.503],[123.0115,-1.4875],[122.9935,-1.469]]]},"properties":{"code":"72.07.09.2008","name":"Suit","latitude":-1.4866990395101642,"longitude":122.99389965895494}},{"type":"Feature","geometry":{"type":"Polygon","coordinates":[[[123.0285,-1.4405],[123.018,-1.439],[123.011,-1.432],[122.9995,-1.436],[122.9985,-1.4365],[122.999,-1.438],[122.999,-1.439],[122.999,-1.4425],[122.994,-1.4445],[123,-1.452],[123.002,-1.452],[123.0125,-1.452],[123.028,-1.448],[123.0285,-1.4405]]]},"properties":{"code":"72.07.09.2009","name":"Lolantang","latitude":-1.444172232635591,"longitude":123.0115624249805}},{"type":"Feature","geometry":{"type":"Polygon","coordinates":[[[123.0115,-1.4875],[123.0225,-1.476],[123.028,-1.448],[123.0125,-1.452],[123.002,-1.452],[123,-1.452],[122.9935,-1.469],[123.0115,-1.4875]]]},"properties":{"code":"72.07.09.2010","name":"Toi-Toi","latitude":-1.4665534399454407,"longitude":123.0121317698732}},{"type":"Feature","geometry":{"type":"Polygon","coordinates":[[[122.968,-1.385],[122.914,-1.3695],[122.9135,-1.3695],[122.9195,-1.3765],[122.9225,-1.379],[122.934,-1.3855],[122.9345,-1.395],[122.946,-1.404],[122.967,-1.4045],[123.0065,-1.4225],[123.011,-1.432],[123.018,-1.439],[123.0285,-1.4405],[123.0355,-1.4385],[123.038,-1.4225],[123.0295,-1.42],[123.011,-1.406],[122.975,-1.3925],[122.968,-1.385]]]},"properties":{"code":"72.07.09.2011","name":"Palabatu I","latitude":-1.4050035060983852,"longitude":122.98193217098405}},{"type":"Feature","geometry":{"type":"Polygon","coordinates":[[[122.9445,-1.3555],[122.9215,-1.355],[122.9155,-1.3545],[122.9145,-1.362],[122.9135,-1.3695],[122.968,-1.385],[122.975,-1.3925],[123.011,-1.406],[123.0295,-1.42],[123.038,-1.4225],[123.041,-1.417],[123.0095,-1.3975],[122.993,-1.3955],[122.9855,-1.3645],[122.987,-1.3605],[122.9905,-1.3555],[122.9445,-1.3555]]]},"properties":{"code":"72.07.09.2012","name":"Mangais","latitude":-1.3761679572197132,"longitude":122.96784303507424}},{"type":"Feature","geometry":{"type":"Polygon","coordinates":[[[123.016,-1.3625],[123,-1.3555],[122.9905,-1.3555],[122.987,-1.3605],[122.9855,-1.3645],[122.993,-1.3955],[123.0095,-1.3975],[123.041,-1.417],[123.052,-1.401],[123.007,-1.375],[123.016,-1.3625]]]},"properties":{"code":"72.07.09.2013","name":"Unu","latitude":-1.3857450700439053,"longitude":123.01351950978692}},{"type":"Feature","geometry":{"type":"Polygon","coordinates":[[[122.9225,-1.4025],[122.917,-1.398],[122.9035,-1.403],[122.905,-1.3905],[122.896,-1.4065],[122.89,-1.4165],[122.8845,-1.4245],[122.869,-1.446],[122.8655,-1.4515],[122.8625,-1.4625],[122.8605,-1.4705],[122.8585,-1.481],[122.8585,-1.484],[122.8635,-1.495],[122.881,-1.48],[122.889,-1.492],[122.9,-1.4895],[122.903,-1.4895],[122.9035,-1.486],[122.905,-1.477],[122.903,-1.433],[122.9035,-1.432],[122.9075,-1.424],[122.922,-1.414],[122.9225,-1.4025]]]},"properties":{"code":"72.07.09.2014","name":"Lemelu","latitude":-1.4501259595792695,"longitude":122.889315665203}},{"type":"Feature","geometry":{"type":"Polygon","coordinates":[[[122.9415,-1.551],[122.952,-1.5415],[122.9495,-1.54],[122.928,-1.495],[122.9255,-1.4955],[122.909,-1.5145],[122.9175,-1.5295],[122.9185,-1.5315],[122.9415,-1.551]]]},"properties":{"code":"72.07.09.2015","name":"Babang","latitude":-1.5242255343172444,"longitude":122.92988907541337}},{"type":"Feature","geometry":{"type":"Polygon","coordinates":[[[122.994,-1.4445],[122.9865,-1.4435],[122.9585,-1.429],[122.957,-1.426],[122.949,-1.436],[122.9635,-1.4485],[122.9835,-1.4635],[122.9935,-1.469],[123,-1.452],[122.994,-1.4445]]]},"properties":{"code":"72.07.09.2016","name":"Momotan","latitude":-1.447882281988261,"longitude":122.9767126363122}},{"type":"Feature","geometry":{"type":"Polygon","coordinates":[[[123.055,-1.3945],[123.016,-1.3625],[123.007,-1.375],[123.052,-1.401],[123.055,-1.3945]]]},"properties":{"code":"72.07.09.2017","name":"Boluni","latitude":-1.3816902776686562,"longitude":123.03037267550906}},{"type":"Feature","geometry":{"type":"Polygon","coordinates":[[[122.9255,-1.4955],[122.922,-1.4785],[122.905,-1.477],[122.905,-1.5],[122.909,-1.5145],[122.9255,-1.4955]]]},"properties":{"code":"72.07.09.2018","name":"Labotankandi","latitude":-1.492860454825856,"longitude":122.91364586984189}},{"type":"Feature","geometry":{"type":"Polygon","coordinates":[[[122.9635,-1.5445],[122.978,-1.5245],[122.9845,-1.5205],[122.9485,-1.483],[122.945,-1.486],[122.9405,-1.488],[122.9535,-1.515],[122.9605,-1.539],[122.962,-1.5435],[122.9635,-1.5445]]]},"properties":{"code":"72.07.09.2019","name":"Alasan Nggolobuton","latitude":-1.5131126517240776,"longitude":122.96207352947748}},{"type":"Feature","geometry":{"type":"Polygon","coordinates":[[[123.011,-1.432],[123.0065,-1.4225],[122.967,-1.4045],[122.946,-1.404],[122.9345,-1.395],[122.934,-1.3855],[122.9225,-1.379],[122.9195,-1.3765],[122.9135,-1.3695],[122.9135,-1.3705],[122.9125,-1.3735],[122.911,-1.379],[122.905,-1.3905],[122.9035,-1.403],[122.917,-1.398],[122.9225,-1.4025],[122.957,-1.426],[122.9585,-1.429],[122.9865,-1.4435],[122.994,-1.4445],[122.999,-1.4425],[122.999,-1.439],[122.999,-1.438],[122.9985,-1.4365],[122.9995,-1.436],[123.011,-1.432]]]},"properties":{"code":"72.07.09.2020","name":"Pipilogot Paipaisu","latitude":-1.4131945059118396,"longitude":122.95891458896598}},{"type":"Feature","geometry":{"type":"Polygon","coordinates":[[[123.4295,-1.4685],[123.4105,-1.4635],[123.4105,-1.465],[123.414,-1.4765],[123.411,-1.492],[123.41,-1.493],[123.41,-1.4965],[123.4095,-1.4975],[123.416,-1.513],[123.4185,-1.52],[123.433,-1.5185],[123.4325,-1.512],[123.441,-1.4955],[123.4415,-1.4925],[123.4395,-1.4885],[123.432,-1.4775],[123.4295,-1.4685]]]},"properties":{"code":"72.07.11.2001","name":"Tobing","latitude":-1.4921737053076192,"longitude":123.42404726712952}},{"type":"Feature","geometry":{"type":"Polygon","coordinates":[[[123.4095,-1.4975],[123.41,-1.4965],[123.41,-1.493],[123.4085,-1.494],[123.3935,-1.5095],[123.404,-1.5215],[123.4185,-1.52],[123.416,-1.513],[123.4095,-1.4975]]]},"properties":{"code":"72.07.11.2002","name":"Paisumusoni","latitude":-1.5126568356983539,"longitude":123.40638596822423}},{"type":"Feature","geometry":{"type":"Polygon","coordinates":[[[123.407,-1.4625],[123.41,-1.46],[123.409,-1.457],[123.396,-1.458],[123.3845,-1.46],[123.3635,-1.462],[123.355,-1.4595],[123.3395,-1.4645],[123.3525,-1.481],[123.3555,-1.506],[123.371,-1.497],[123.3705,-1.493],[123.388,-1.475],[123.407,-1.4625]]]},"properties":{"code":"72.07.11.2003","name":"Tobungin","latitude":-1.4782790114396178,"longitude":123.3693455923048}},{"type":"Feature","geometry":{"type":"Polygon","coordinates":[[[123.407,-1.451],[123.407,-1.45],[123.402,-1.434],[123.374,-1.4375],[123.3675,-1.4425],[123.325,-1.443],[123.329,-1.4525],[123.337,-1.4535],[123.363,-1.452],[123.375,-1.452],[123.4045,-1.4505],[123.407,-1.451]]]},"properties":{"code":"72.07.11.2004","name":"Mansamat A","latitude":-1.4453799561256497,"longitude":123.37089566365411}},{"type":"Feature","geometry":{"type":"Polygon","coordinates":[[[123.407,-1.451],[123.4045,-1.4505],[123.375,-1.452],[123.363,-1.452],[123.337,-1.4535],[123.329,-1.4525],[123.3395,-1.4645],[123.355,-1.4595],[123.3635,-1.462],[123.3845,-1.46],[123.396,-1.458],[123.409,-1.457],[123.4085,-1.453],[123.407,-1.451]]]},"properties":{"code":"72.07.11.2005","name":"Mansamat B","latitude":-1.4561355660846098,"longitude":123.36944805892963}},{"type":"Feature","geometry":{"type":"Polygon","coordinates":[[[123.4165,-1.406],[123.401,-1.404],[123.375,-1.416],[123.34,-1.4205],[123.3345,-1.4265],[123.3245,-1.4425],[123.325,-1.443],[123.3675,-1.4425],[123.374,-1.4375],[123.402,-1.434],[123.415,-1.4325],[123.419,-1.4265],[123.4175,-1.4145],[123.417,-1.4085],[123.4165,-1.406]]]},"properties":{"code":"72.07.11.2006","name":"Kampung Baru","latitude":-1.4258036667316083,"longitude":123.37692426653649}},{"type":"Feature","geometry":{"type":"MultiPolygon","coordinates":[[[[123.328,-1.421],[123.3215,-1.427],[123.3245,-1.4425],[123.3345,-1.4265],[123.337,-1.4215],[123.328,-1.421]]],[[[123.3265,-1.411],[123.3365,-1.3995],[123.311,-1.4045],[123.299,-1.41],[123.322,-1.4195],[123.3265,-1.411]]]]},"properties":{"code":"72.07.11.2007","name":"Tinangkung","latitude":-1.4174412206736777,"longitude":123.32141970496781}},{"type":"Feature","geometry":{"type":"Polygon","coordinates":[[[123.414,-1.3865],[123.3685,-1.3855],[123.376,-1.36],[123.3755,-1.341],[123.369,-1.345],[123.3585,-1.355],[123.347,-1.3745],[123.3365,-1.3995],[123.3265,-1.411],[123.328,-1.421],[123.337,-1.4215],[123.34,-1.4205],[123.375,-1.416],[123.401,-1.404],[123.4165,-1.406],[123.414,-1.3865]]]},"properties":{"code":"72.07.11.2008","name":"Gansal","latitude":-1.3925812850828017,"longitude":123.36706401564582}},{"type":"Feature","geometry":{"type":"Polygon","coordinates":[[[123.4085,-1.494],[123.411,-1.492],[123.414,-1.4765],[123.4105,-1.465],[123.4105,-1.463],[123.41,-1.46],[123.407,-1.4625],[123.388,-1.475],[123.3705,-1.493],[123.371,-1.497],[123.391,-1.5045],[123.3935,-1.5095],[123.4085,-1.494]]]},"properties":{"code":"72.07.11.2009","name":"Bobu","latitude":-1.486324729716135,"longitude":123.39544209566546}},{"type":"Feature","geometry":{"type":"Polygon","coordinates":[[[123.484,-1.467],[123.487,-1.47],[123.5015,-1.4605],[123.484,-1.467]]]},"properties":{"code":"72.07.15.2001","name":"Kalumbatan","latitude":-1.4656684301736593,"longitude":123.49145927309812}},{"type":"Feature","geometry":{"type":"Polygon","coordinates":[[[123.47,-1.493],[123.46,-1.4935],[123.4355,-1.4825],[123.4395,-1.4885],[123.4415,-1.4925],[123.441,-1.4955],[123.4325,-1.512],[123.433,-1.5185],[123.4565,-1.5175],[123.47,-1.493]]]},"properties":{"code":"72.07.15.2002","name":"Tonuson","latitude":-1.5019306417380294,"longitude":123.45009198857359}},{"type":"Feature","geometry":{"type":"MultiPolygon","coordinates":[[[[123.471,-1.47],[123.473,-1.463],[123.466,-1.4595],[123.4575,-1.4435],[123.4525,-1.4635],[123.4295,-1.4685],[123.432,-1.4775],[123.4355,-1.4825],[123.46,-1.4935],[123.47,-1.493],[123.473,-1.4805],[123.47,-1.48],[123.471,-1.47]]],[[[123.4675,-1.417],[123.465,-1.418],[123.457,-1.43],[123.472,-1.4505],[123.4715,-1.457],[123.474,-1.461],[123.476,-1.461],[123.475,-1.443],[123.47,-1.429],[123.4675,-1.417]]]]},"properties":{"code":"72.07.15.2003","name":"Tobungku","latitude":-1.4648391795197102,"longitude":123.45832136604488}},{"type":"Feature","geometry":{"type":"Polygon","coordinates":[[[123.4575,-1.4435],[123.43,-1.4205],[123.4175,-1.4135],[123.419,-1.4265],[123.415,-1.4325],[123.402,-1.434],[123.407,-1.45],[123.4085,-1.453],[123.4105,-1.463],[123.4105,-1.4635],[123.4295,-1.4685],[123.4525,-1.4635],[123.4575,-1.4435]]]},"properties":{"code":"72.07.15.2004","name":"Nulion","latitude":-1.4464892547010941,"longitude":123.43002770415633}},{"type":"Feature","geometry":{"type":"Polygon","coordinates":[[[123.4655,-1.407],[123.4605,-1.391],[123.458,-1.3825],[123.414,-1.3865],[123.4165,-1.406],[123.417,-1.4085],[123.4175,-1.4135],[123.43,-1.4205],[123.4575,-1.4435],[123.466,-1.4595],[123.473,-1.463],[123.474,-1.461],[123.4715,-1.457],[123.472,-1.4505],[123.457,-1.43],[123.465,-1.418],[123.465,-1.4105],[123.465,-1.408],[123.4655,-1.407]]]},"properties":{"code":"72.07.15.2005","name":"Peley","latitude":-1.4108371943738223,"longitude":123.44428337009987}},{"type":"Feature","geometry":{"type":"Polygon","coordinates":[[[123.5015,-1.4605],[123.505,-1.458],[123.5015,-1.456],[123.486,-1.4505],[123.47,-1.426],[123.47,-1.429],[123.475,-1.443],[123.476,-1.461],[123.484,-1.467],[123.5015,-1.4605]]]},"properties":{"code":"72.07.15.2006","name":"Kanali","latitude":-1.4521863575198157,"longitude":123.48435764904855}},{"type":"Feature","geometry":{"type":"Polygon","coordinates":[[[123.458,-1.3825],[123.4565,-1.3785],[123.4535,-1.363],[123.4445,-1.344],[123.432,-1.3275],[123.421,-1.3315],[123.4165,-1.332],[123.3915,-1.3375],[123.377,-1.3405],[123.3755,-1.341],[123.376,-1.36],[123.3685,-1.3855],[123.414,-1.3865],[123.458,-1.3825]]]},"properties":{"code":"72.07.15.2007","name":"Mata","latitude":-1.3610712972321457,"longitude":123.41290722746758}},{"type":"Feature","geometry":{"type":"Polygon","coordinates":[[[123.473,-1.4805],[123.471,-1.47],[123.47,-1.48],[123.473,-1.4805]]]},"properties":{"code":"72.07.15.2008","name":"Lobuton","latitude":-1.4771187708407305,"longitude":123.4745289428324}},{"type":"Feature","geometry":{"type":"Polygon","coordinates":[[[123.2105,-1.417],[123.1765,-1.4155],[123.167,-1.4165],[123.1725,-1.4275],[123.1635,-1.447],[123.1765,-1.446],[123.199,-1.451],[123.2125,-1.45],[123.2125,-1.432],[123.213,-1.4265],[123.214,-1.4175],[123.2105,-1.417]]]},"properties":{"code":"72.07.16.2001","name":"Patukuki","latitude":-1.4324289654393931,"longitude":123.19049260468319}},{"type":"Feature","geometry":{"type":"Polygon","coordinates":[[[123.199,-1.366],[123.1565,-1.3665],[123.163,-1.383],[123.1755,-1.3795],[123.1865,-1.3795],[123.192,-1.38],[123.2065,-1.38],[123.199,-1.366]]]},"properties":{"code":"72.07.16.2002","name":"Balombong","latitude":-1.3733454568719132,"longitude":123.18033916553365}},{"type":"Feature","geometry":{"type":"Polygon","coordinates":[[[123.1865,-1.3795],[123.1755,-1.3795],[123.163,-1.383],[123.168,-1.396],[123.182,-1.3945],[123.211,-1.3955],[123.21,-1.393],[123.2075,-1.3835],[123.2065,-1.38],[123.192,-1.38],[123.1865,-1.3795]]]},"properties":{"code":"72.07.16.2003","name":"Kolak","latitude":-1.38747206568638,"longitude":123.18677031433607}},{"type":"Feature","geometry":{"type":"Polygon","coordinates":[[[123.211,-1.3955],[123.182,-1.3945],[123.168,-1.396],[123.1635,-1.4],[123.167,-1.4165],[123.1765,-1.4155],[123.2105,-1.417],[123.214,-1.4175],[123.2145,-1.4085],[123.2155,-1.405],[123.211,-1.3955]]]},"properties":{"code":"72.07.16.2004","name":"Koyobunga","latitude":-1.4060321989238214,"longitude":123.18847602485788}},{"type":"Feature","geometry":{"type":"Polygon","coordinates":[[[123.2475,-1.448],[123.24,-1.4355],[123.2155,-1.405],[123.2145,-1.4105],[123.214,-1.4165],[123.213,-1.4265],[123.2125,-1.432],[123.2125,-1.4535],[123.2125,-1.458],[123.212,-1.4665],[123.2115,-1.4705],[123.2195,-1.4705],[123.225,-1.471],[123.2325,-1.4715],[123.237,-1.471],[123.245,-1.4535],[123.2475,-1.448]]]},"properties":{"code":"72.07.16.2005","name":"Alakasing","latitude":-1.4450726106884635,"longitude":123.22618972480126}},{"type":"Feature","geometry":{"type":"Polygon","coordinates":[[[123.2125,-1.45],[123.199,-1.451],[123.1765,-1.446],[123.1635,-1.447],[123.1715,-1.4525],[123.1745,-1.475],[123.188,-1.4745],[123.188,-1.4615],[123.212,-1.4615],[123.2125,-1.458],[123.2125,-1.4535],[123.2125,-1.45]]]},"properties":{"code":"72.07.16.2006","name":"Tombos","latitude":-1.4577397398626675,"longitude":123.18712746302502}},{"type":"Feature","geometry":{"type":"Polygon","coordinates":[[[123.188,-1.4745],[123.1745,-1.475],[123.1785,-1.499],[123.187,-1.4985],[123.188,-1.4745]]]},"properties":{"code":"72.07.16.2007","name":"Luk","latitude":-1.4866032377586413,"longitude":123.18199130285034}},{"type":"Feature","geometry":{"type":"Polygon","coordinates":[[[123.2105,-1.5115],[123.2115,-1.5],[123.2115,-1.496],[123.187,-1.4985],[123.1785,-1.499],[123.184,-1.5095],[123.1755,-1.526],[123.1815,-1.5285],[123.182,-1.548],[123.183,-1.5495],[123.188,-1.554],[123.192,-1.557],[123.197,-1.5515],[123.203,-1.5435],[123.206,-1.532],[123.2105,-1.5115]]]},"properties":{"code":"72.07.16.2008","name":"Labibi","latitude":-1.5228559962585464,"longitude":123.19471113893766}},{"type":"Feature","geometry":{"type":"Polygon","coordinates":[[[123.192,-1.557],[123.188,-1.554],[123.183,-1.5495],[123.182,-1.548],[123.1815,-1.5285],[123.1755,-1.526],[123.166,-1.5375],[123.144,-1.548],[123.1525,-1.554],[123.16,-1.5635],[123.1665,-1.5735],[123.1675,-1.576],[123.169,-1.5785],[123.1725,-1.576],[123.174,-1.575],[123.1835,-1.5655],[123.1865,-1.5625],[123.192,-1.557]]]},"properties":{"code":"72.07.16.2009","name":"Popisi","latitude":-1.55221963442045,"longitude":123.16998045454477}},{"type":"Feature","geometry":{"type":"Polygon","coordinates":[[[123.1525,-1.554],[123.144,-1.548],[123.123,-1.5645],[123.1075,-1.5655],[123.098,-1.587],[123.101,-1.6025],[123.112,-1.588],[123.1445,-1.5785],[123.149,-1.578],[123.151,-1.5775],[123.163,-1.579],[123.1645,-1.579],[123.169,-1.5785],[123.1675,-1.576],[123.1665,-1.5735],[123.16,-1.5635],[123.1525,-1.554]]]},"properties":{"code":"72.07.16.2010","name":"Tolulos","latitude":-1.5723389245316188,"longitude":123.13146813937522}},{"type":"Feature","geometry":{"type":"Polygon","coordinates":[[[123.2115,-1.4705],[123.212,-1.4665],[123.212,-1.4615],[123.188,-1.4615],[123.188,-1.4745],[123.187,-1.4985],[123.2115,-1.496],[123.2115,-1.4815],[123.2115,-1.4705]]]},"properties":{"code":"72.07.16.2011","name":"Tunggaling","latitude":-1.4793326946051,"longitude":123.19936129736647}},{"type":"Feature","geometry":{"type":"Polygon","coordinates":[[[123.12,-1.178],[123.105,-1.1605],[123.085,-1.17],[123.047,-1.178],[123.041,-1.177],[123.04,-1.2265],[123.045,-1.27],[123.075,-1.27],[123.0845,-1.27],[123.084,-1.247],[123.087,-1.225],[123.0935,-1.211],[123.1005,-1.198],[123.12,-1.178]]]},"properties":{"code":"72.07.17.1009","name":"Sabang","latitude":-1.2134880863795916,"longitude":123.07083396693181}},{"type":"Feature","geometry":{"type":"Polygon","coordinates":[[[123.1535,-1.1955],[123.1485,-1.2095],[123.1405,-1.208],[123.13,-1.2185],[123.1255,-1.2205],[123.102,-1.2105],[123.095,-1.2085],[123.087,-1.225],[123.084,-1.247],[123.167,-1.2365],[123.164,-1.2225],[123.164,-1.215],[123.1645,-1.204],[123.1575,-1.21],[123.1535,-1.1955]]]},"properties":{"code":"72.07.17.2001","name":"Sambulangan","latitude":-1.2260273635909222,"longitude":123.12593644993137}},{"type":"Feature","geometry":{"type":"Polygon","coordinates":[[[123.1655,-1.2735],[123.167,-1.2365],[123.084,-1.247],[123.0845,-1.27],[123.096,-1.27],[123.117,-1.2705],[123.1655,-1.2735]]]},"properties":{"code":"72.07.17.2002","name":"Bangunemo","latitude":-1.2559555775401356,"longitude":123.12818799053767}},{"type":"Feature","geometry":{"type":"Polygon","coordinates":[[[123.199,-1.26],[123.214,-1.272],[123.221,-1.267],[123.2275,-1.2345],[123.1945,-1.2385],[123.201,-1.2565],[123.199,-1.26]]]},"properties":{"code":"72.07.17.2003","name":"Paisuluno","latitude":-1.250570300611415,"longitude":123.2137185048997}},{"type":"Feature","geometry":{"type":"Polygon","coordinates":[[[123.2275,-1.2345],[123.2415,-1.233],[123.2465,-1.2245],[123.2275,-1.2155],[123.205,-1.22],[123.1895,-1.2285],[123.1945,-1.2385],[123.2275,-1.2345]]]},"properties":{"code":"72.07.17.2004","name":"Montop","latitude":-1.2273412297071513,"longitude":123.21875663115688}},{"type":"Feature","geometry":{"type":"Polygon","coordinates":[[[123.2275,-1.2155],[123.22,-1.206],[123.217,-1.192],[123.205,-1.1785],[123.1805,-1.1905],[123.1645,-1.204],[123.164,-1.215],[123.164,-1.2225],[123.167,-1.2365],[123.1895,-1.2285],[123.205,-1.22],[123.2275,-1.2155]]]},"properties":{"code":"72.07.17.2005","name":"Bolubung","latitude":-1.2076398611661825,"longitude":123.1920480414907}},{"type":"Feature","geometry":{"type":"Polygon","coordinates":[[[123.1965,-1.165],[123.1885,-1.15],[123.164,-1.151],[123.1615,-1.1835],[123.1535,-1.1955],[123.1575,-1.21],[123.1805,-1.1905],[123.18,-1.165],[123.1965,-1.165]]]},"properties":{"code":"72.07.17.2006","name":"Bakalinga","latitude":-1.1742531788653536,"longitude":123.17250900073773}},{"type":"Feature","geometry":{"type":"Polygon","coordinates":[[[122.9985,-1.1955],[122.985,-1.2035],[122.9775,-1.2035],[122.9655,-1.215],[122.9555,-1.195],[122.9475,-1.1865],[122.936,-1.182],[122.9055,-1.182],[122.9085,-1.1885],[122.9115,-1.217],[122.9145,-1.2455],[122.9155,-1.2535],[122.916,-1.258],[122.9175,-1.2625],[122.9185,-1.268],[122.919,-1.273],[122.9205,-1.282],[122.9215,-1.2875],[122.921,-1.295],[122.921,-1.3015],[122.9435,-1.294],[122.971,-1.2885],[123,-1.2805],[123.0025,-1.2795],[123.0005,-1.199],[122.9985,-1.1955]]]},"properties":{"code":"72.07.17.2007","name":"Lukpanenteng","latitude":-1.2404999144100677,"longitude":122.9541018564352}},{"type":"Feature","geometry":{"type":"Polygon","coordinates":[[[123.1405,-1.208],[123.1355,-1.194],[123.12,-1.178],[123.1005,-1.198],[123.095,-1.2085],[123.102,-1.2105],[123.1255,-1.2205],[123.13,-1.2185],[123.1405,-1.208]]]},"properties":{"code":"72.07.17.2008","name":"Koyobunga","latitude":-1.2014290571715944,"longitude":123.1190567106386}},{"type":"Feature","geometry":{"type":"Polygon","coordinates":[[[123.041,-1.177],[123.0335,-1.177],[123.0205,-1.188],[122.9985,-1.1955],[123.0005,-1.199],[123.0025,-1.2795],[123.0065,-1.278],[123.0355,-1.2705],[123.045,-1.27],[123.04,-1.2265],[123.041,-1.177]]]},"properties":{"code":"72.07.17.2010","name":"Ombuli","latitude":-1.2300018847090015,"longitude":123.02184277347658}},{"type":"Feature","geometry":{"type":"Polygon","coordinates":[[[123.199,-1.26],[123.201,-1.2565],[123.1945,-1.2385],[123.1895,-1.2285],[123.167,-1.2365],[123.1655,-1.2735],[123.1705,-1.3005],[123.191,-1.301],[123.198,-1.2885],[123.196,-1.2695],[123.199,-1.26]]]},"properties":{"code":"72.07.17.2011","name":"Minanga","latitude":-1.2662790266511368,"longitude":123.1818213540406}},{"type":"Feature","geometry":{"type":"Polygon","coordinates":[[[123.205,-1.1785],[123.1965,-1.165],[123.18,-1.165],[123.1805,-1.1905],[123.205,-1.1785]]]},"properties":{"code":"72.07.17.2012","name":"Mandok","latitude":-1.1757512862846227,"longitude":123.1896166566733}},{"type":"Feature","geometry":{"type":"Polygon","coordinates":[[[122.868,-1.448],[122.8575,-1.4485],[122.845,-1.449],[122.823,-1.481],[122.8205,-1.4825],[122.8225,-1.49],[122.8405,-1.4855],[122.848,-1.4845],[122.858,-1.4835],[122.8585,-1.483],[122.8585,-1.481],[122.8605,-1.4705],[122.8625,-1.4625],[122.8655,-1.4515],[122.868,-1.448]]]},"properties":{"code":"72.07.18.2001","name":"Lumbi-lumbia","latitude":-1.468906655849769,"longitude":122.84586538128515}},{"type":"Feature","geometry":{"type":"Polygon","coordinates":[[[122.884,-1.6005],[122.875,-1.5695],[122.8575,-1.5835],[122.8685,-1.5955],[122.884,-1.6005]]]},"properties":{"code":"72.07.18.2002","name":"Kambani","latitude":-1.586662535254257,"longitude":122.87032984378574}},{"type":"Feature","geometry":{"type":"Polygon","coordinates":[[[122.864,-1.5325],[122.8645,-1.5205],[122.8645,-1.5175],[122.8395,-1.526],[122.8425,-1.5295],[122.841,-1.5315],[122.849,-1.5445],[122.8645,-1.5415],[122.864,-1.539],[122.864,-1.5325]]]},"properties":{"code":"72.07.18.2003","name":"Tatabau","latitude":-1.5317405826302732,"longitude":122.85448373735646}},{"type":"Feature","geometry":{"type":"Polygon","coordinates":[[[122.8655,-1.512],[122.866,-1.508],[122.865,-1.5],[122.8585,-1.484],[122.8585,-1.483],[122.858,-1.4835],[122.8455,-1.4845],[122.846,-1.4865],[122.846,-1.4955],[122.8305,-1.516],[122.8395,-1.526],[122.8645,-1.5175],[122.865,-1.516],[122.8655,-1.512]]]},"properties":{"code":"72.07.18.2004","name":"Buko","latitude":-1.5063662102492772,"longitude":122.85085902512346}},{"type":"Feature","geometry":{"type":"Polygon","coordinates":[[[122.8305,-1.516],[122.846,-1.4955],[122.846,-1.492],[122.8415,-1.4935],[122.837,-1.4945],[122.8305,-1.496],[122.825,-1.4985],[122.8305,-1.516]]]},"properties":{"code":"72.07.18.2005","name":"Palapat","latitude":-1.5020195434393615,"longitude":122.83334216850908}},{"type":"Feature","geometry":{"type":"Polygon","coordinates":[[[122.8795,-1.431],[122.8455,-1.4295],[122.7905,-1.4235],[122.794,-1.429],[122.7895,-1.449],[122.8295,-1.4495],[122.845,-1.449],[122.8575,-1.4485],[122.868,-1.448],[122.869,-1.446],[122.8795,-1.431]]]},"properties":{"code":"72.07.18.2006","name":"Labangun","latitude":-1.4381915505225131,"longitude":122.8295271613419}},{"type":"Feature","geometry":{"type":"Polygon","coordinates":[[[122.809,-1.4035],[122.799,-1.403],[122.794,-1.401],[122.793,-1.401],[122.7905,-1.4235],[122.8455,-1.4295],[122.8795,-1.431],[122.8845,-1.4245],[122.89,-1.4165],[122.8935,-1.4105],[122.8885,-1.411],[122.854,-1.41],[122.809,-1.4035]]]},"properties":{"code":"72.07.18.2007","name":"Seano","latitude":-1.4171600665206068,"longitude":122.83802020842353}},{"type":"Feature","geometry":{"type":"Polygon","coordinates":[[[122.868,-1.551],[122.8645,-1.5415],[122.849,-1.5445],[122.854,-1.56],[122.849,-1.5775],[122.8575,-1.5835],[122.875,-1.5695],[122.8705,-1.555],[122.868,-1.551]]]},"properties":{"code":"72.07.18.2008","name":"Lelang Matamaling","latitude":-1.5640065962175143,"longitude":122.85960045400378}},{"type":"Feature","geometry":{"type":"Polygon","coordinates":[[[122.845,-1.449],[122.8295,-1.4495],[122.8165,-1.45],[122.8165,-1.4645],[122.7895,-1.4755],[122.797,-1.488],[122.805,-1.482],[122.8205,-1.4825],[122.823,-1.481],[122.845,-1.449]]]},"properties":{"code":"72.07.18.2009","name":"Apal","latitude":-1.4689614772304769,"longitude":122.8170910754269}},{"type":"Feature","geometry":{"type":"Polygon","coordinates":[[[122.8165,-1.45],[122.7895,-1.449],[122.785,-1.456],[122.7925,-1.4685],[122.7895,-1.4755],[122.8165,-1.4645],[122.8165,-1.45]]]},"properties":{"code":"72.07.18.2010","name":"Sapelang","latitude":-1.4596011845640566,"longitude":122.8011765807574}},{"type":"Feature","geometry":{"type":"Polygon","coordinates":[[[122.846,-1.492],[122.846,-1.4865],[122.8455,-1.4845],[122.8405,-1.4855],[122.8225,-1.49],[122.825,-1.4985],[122.8305,-1.496],[122.837,-1.4945],[122.8415,-1.4935],[122.846,-1.492]]]},"properties":{"code":"72.07.18.2011","name":"Landonan Bebeau","latitude":-1.50157667133522,"longitude":122.8054412579269}},{"type":"Feature","geometry":{"type":"Polygon","coordinates":[[[123.423,-1.266],[123.4125,-1.257],[123.398,-1.2935],[123.3915,-1.3375],[123.4165,-1.332],[123.421,-1.3315],[123.432,-1.3275],[123.423,-1.3015],[123.4175,-1.277],[123.423,-1.266]]]},"properties":{"code":"72.07.19.2001","name":"Tatakalai","latitude":-1.3029462955972193,"longitude":123.41089469960374}},{"type":"Feature","geometry":{"type":"Polygon","coordinates":[[[123.407,-1.221],[123.398,-1.2345],[123.384,-1.222],[123.375,-1.2545],[123.3635,-1.2855],[123.3595,-1.2955],[123.3525,-1.3115],[123.3505,-1.329],[123.353,-1.3435],[123.356,-1.351],[123.3585,-1.355],[123.369,-1.345],[123.372,-1.343],[123.373,-1.302],[123.3975,-1.246],[123.4055,-1.234],[123.407,-1.221]]]},"properties":{"code":"72.07.19.2002","name":"Lalong","latitude":-1.2877785582934365,"longitude":123.37340305352976}},{"type":"Feature","geometry":{"type":"Polygon","coordinates":[[[123.4125,-1.257],[123.403,-1.246],[123.4115,-1.2355],[123.407,-1.221],[123.4055,-1.234],[123.3975,-1.246],[123.373,-1.302],[123.372,-1.343],[123.375,-1.3415],[123.377,-1.3405],[123.3915,-1.3375],[123.398,-1.2935],[123.4125,-1.257]]]},"properties":{"code":"72.07.19.2003","name":"Ponding-ponding","latitude":-1.2929095059927338,"longitude":123.39035615327262}},{"type":"Feature","geometry":{"type":"Polygon","coordinates":[[[123.462,-1.2435],[123.4445,-1.237],[123.4395,-1.247],[123.446,-1.2635],[123.439,-1.269],[123.423,-1.266],[123.4175,-1.277],[123.423,-1.3015],[123.435,-1.288],[123.455,-1.287],[123.4645,-1.291],[123.46,-1.2755],[123.457,-1.253],[123.462,-1.2435]]]},"properties":{"code":"72.07.19.2004","name":"Luksagu","latitude":-1.2699924841892107,"longitude":123.44260097472583}},{"type":"Feature","geometry":{"type":"Polygon","coordinates":[[[123.5225,-1.2655],[123.4965,-1.27],[123.4805,-1.264],[123.473,-1.2495],[123.462,-1.2435],[123.457,-1.253],[123.46,-1.2755],[123.4645,-1.291],[123.4715,-1.307],[123.5225,-1.2655]]]},"properties":{"code":"72.07.19.2005","name":"Palam","latitude":-1.2752056411758037,"longitude":123.47947551667654}},{"type":"Feature","geometry":{"type":"Polygon","coordinates":[[[123.4645,-1.291],[123.455,-1.287],[123.435,-1.288],[123.423,-1.3015],[123.432,-1.3275],[123.4715,-1.307],[123.4645,-1.291]]]},"properties":{"code":"72.07.19.2006","name":"Bampanga","latitude":-1.3042540409805936,"longitude":123.44471609935754}}]}