{"type":"FeatureCollection","features":[{"type":"Feature","geometry":{"type":"Polygon","coordinates":[[[121.972,-2.548],[121.9715,-2.548],[121.9705,-2.5475],[121.9685,-2.548],[121.969,-2.548],[121.969,-2.5515],[121.969,-2.554],[121.9705,-2.5585],[121.9725,-2.5575],[121.9725,-2.556],[121.9735,-2.5555],[121.9745,-2.5535],[121.974,-2.5515],[121.972,-2.548]]]},"properties":{"code":"72.06.05.1014","name":"Mendui","latitude":-2.552778563074089,"longitude":121.97120355340132}},{"type":"Feature","geometry":{"type":"Polygon","coordinates":[[[121.964,-2.5425],[121.957,-2.543],[121.9295,-2.557],[121.913,-2.5565],[121.775,-2.624],[121.764,-2.628],[121.7725,-2.634],[121.7795,-2.631],[121.9135,-2.56],[121.9315,-2.561],[121.9495,-2.558],[121.961,-2.552],[121.967,-2.552],[121.969,-2.5515],[121.969,-2.548],[121.968,-2.548],[121.9675,-2.5465],[121.968,-2.5445],[121.9695,-2.543],[121.964,-2.5425]]]},"properties":{"code":"72.06.05.1015","name":"Lamberea","latitude":-2.5878080447809357,"longitude":121.8612294846615}},{"type":"Feature","geometry":{"type":"Polygon","coordinates":[[[121.9765,-2.5515],[121.974,-2.547],[121.972,-2.548],[121.974,-2.5515],[121.9745,-2.553],[121.9765,-2.5515]]]},"properties":{"code":"72.06.05.1016","name":"Tofoiso","latitude":-2.550016077035605,"longitude":121.97425509804557}},{"type":"Feature","geometry":{"type":"Polygon","coordinates":[[[121.974,-2.547],[121.9705,-2.5425],[121.968,-2.5445],[121.9675,-2.5465],[121.968,-2.5475],[121.9685,-2.548],[121.9705,-2.5475],[121.9715,-2.548],[121.974,-2.547]]]},"properties":{"code":"72.06.05.1017","name":"Marsaoleh","latitude":-2.5454271814797162,"longitude":121.97055253561169}},{"type":"Feature","geometry":{"type":"Polygon","coordinates":[[[121.964,-2.5425],[121.9645,-2.5355],[121.957,-2.543],[121.964,-2.5425]]]},"properties":{"code":"72.06.05.1020","name":"Bungi","latitude":-2.539641117342244,"longitude":121.96168355186062}},{"type":"Feature","geometry":{"type":"Polygon","coordinates":[[[121.988,-2.5935],[121.9565,-2.637],[121.9375,-2.656],[121.91,-2.6645],[121.885,-2.665],[121.865,-2.651],[121.8565,-2.6645],[121.858,-2.6685],[121.862,-2.6735],[121.863,-2.6735],[121.8675,-2.677],[121.871,-2.6785],[121.876,-2.679],[121.907,-2.6725],[121.911,-2.6745],[121.9415,-2.667],[121.969,-2.6405],[121.977,-2.625],[121.992,-2.6075],[121.993,-2.607],[121.988,-2.5935]]]},"properties":{"code":"72.06.05.2010","name":"Puungkoilu","latitude":-2.651125191647976,"longitude":121.92662040272543}},{"type":"Feature","geometry":{"type":"Polygon","coordinates":[[[121.9855,-2.5815],[121.9765,-2.565],[121.9725,-2.574],[121.9685,-2.5865],[121.959,-2.591],[121.9405,-2.6105],[121.912,-2.631],[121.8745,-2.633],[121.869,-2.644],[121.883,-2.6525],[121.909,-2.649],[121.9335,-2.6375],[121.953,-2.616],[121.979,-2.587],[121.9855,-2.5815]]]},"properties":{"code":"72.06.05.2011","name":"Bahontobungku","latitude":-2.620882984111208,"longitude":121.92848653809236}},{"type":"Feature","geometry":{"type":"Polygon","coordinates":[[[121.9765,-2.565],[121.9765,-2.5515],[121.9745,-2.553],[121.9745,-2.5535],[121.9735,-2.5555],[121.9725,-2.556],[121.9725,-2.5575],[121.9705,-2.5585],[121.9725,-2.574],[121.9765,-2.565]]]},"properties":{"code":"72.06.05.2012","name":"Tofuti","latitude":-2.5616816065727286,"longitude":121.97441866729581}},{"type":"Feature","geometry":{"type":"MultiPolygon","coordinates":[[[[121.783,-2.6315],[121.7855,-2.6275],[121.7795,-2.631],[121.7725,-2.634],[121.779,-2.6385],[121.78,-2.635],[121.783,-2.6315]]],[[[121.969,-2.554],[121.969,-2.5515],[121.967,-2.552],[121.961,-2.552],[121.9495,-2.558],[121.9315,-2.561],[121.9135,-2.56],[121.9,-2.567],[121.901,-2.567],[121.9015,-2.5675],[121.901,-2.5685],[121.902,-2.5735],[121.9025,-2.5755],[121.9005,-2.5775],[121.8985,-2.5785],[121.898,-2.5905],[121.883,-2.617],[121.8745,-2.633],[121.912,-2.631],[121.9405,-2.6105],[121.959,-2.591],[121.9685,-2.5865],[121.9725,-2.574],[121.9705,-2.5585],[121.969,-2.554]]]]},"properties":{"code":"72.06.05.2013","name":"Sakita","latitude":-2.5917694869813848,"longitude":121.92422595444314}},{"type":"Feature","geometry":{"type":"MultiPolygon","coordinates":[[[[121.775,-2.624],[121.7925,-2.6155],[121.797,-2.608],[121.7975,-2.6055],[121.77,-2.618],[121.759,-2.6225],[121.7615,-2.6265],[121.764,-2.628],[121.775,-2.624]]],[[[121.968,-2.532],[121.9615,-2.5205],[121.9515,-2.526],[121.9285,-2.5465],[121.916,-2.552],[121.897,-2.5605],[121.8975,-2.5605],[121.8985,-2.56],[121.899,-2.561],[121.898,-2.5625],[121.896,-2.5645],[121.896,-2.565],[121.913,-2.5565],[121.9295,-2.557],[121.957,-2.543],[121.9645,-2.5355],[121.968,-2.532]]]]},"properties":{"code":"72.06.05.2019","name":"Matansala","latitude":-2.5615710363522615,"longitude":121.90044663517986}},{"type":"Feature","geometry":{"type":"MultiPolygon","coordinates":[[[[121.759,-2.6225],[121.77,-2.618],[121.7975,-2.6055],[121.8015,-2.5985],[121.802,-2.5965],[121.803,-2.595],[121.755,-2.617],[121.759,-2.6225]]],[[[121.955,-2.5095],[121.938,-2.5115],[121.935,-2.514],[121.9275,-2.521],[121.915,-2.543],[121.8975,-2.5505],[121.8965,-2.5515],[121.8985,-2.5545],[121.8985,-2.5575],[121.8975,-2.559],[121.897,-2.56],[121.897,-2.5605],[121.916,-2.552],[121.9285,-2.5465],[121.9515,-2.526],[121.9615,-2.5205],[121.955,-2.5095]]]]},"properties":{"code":"72.06.05.2021","name":"Bahoruru","latitude":-2.550648351867647,"longitude":121.8952634773303}},{"type":"Feature","geometry":{"type":"MultiPolygon","coordinates":[[[[121.7305,-2.919],[121.7345,-2.909],[121.732,-2.897],[121.72,-2.8865],[121.7035,-2.899],[121.707,-2.92],[121.709,-2.9195],[121.7095,-2.9215],[121.7305,-2.919]]],[[[121.8985,-2.5785],[121.9005,-2.5775],[121.9025,-2.5755],[121.902,-2.5735],[121.901,-2.5685],[121.9015,-2.5675],[121.901,-2.567],[121.9,-2.567],[121.7855,-2.6275],[121.783,-2.6315],[121.78,-2.635],[121.779,-2.6385],[121.784,-2.6415],[121.7735,-2.683],[121.7505,-2.679],[121.7355,-2.6985],[121.7475,-2.718],[121.7675,-2.7255],[121.7795,-2.722],[121.7965,-2.7095],[121.8185,-2.701],[121.8285,-2.7005],[121.8395,-2.6915],[121.8445,-2.6835],[121.865,-2.651],[121.869,-2.644],[121.875,-2.632],[121.883,-2.617],[121.898,-2.5905],[121.8985,-2.5785]]],[[[121.9485,-2.4975],[121.9415,-2.482],[121.9355,-2.477],[121.9265,-2.482],[121.9205,-2.4945],[121.9065,-2.5125],[121.8905,-2.5115],[121.88,-2.52],[121.88,-2.547],[121.8585,-2.558],[121.823,-2.5675],[121.814,-2.576],[121.8065,-2.5895],[121.802,-2.5965],[121.8015,-2.5985],[121.797,-2.608],[121.7925,-2.6155],[121.896,-2.565],[121.896,-2.5645],[121.898,-2.5625],[121.899,-2.561],[121.8985,-2.56],[121.8975,-2.5605],[121.897,-2.5605],[121.897,-2.56],[121.8975,-2.559],[121.8985,-2.5575],[121.8985,-2.5545],[121.8965,-2.5515],[121.898,-2.5485],[121.899,-2.5495],[121.898,-2.5475],[121.8975,-2.5465],[121.899,-2.5435],[121.9005,-2.5425],[121.9035,-2.544],[121.9045,-2.5395],[121.911,-2.532],[121.9105,-2.5285],[121.912,-2.5265],[121.9155,-2.5245],[121.919,-2.5225],[121.9295,-2.505],[121.9485,-2.4975]]]]},"properties":{"code":"72.06.05.2022","name":"Bente","latitude":-2.6372504468650098,"longitude":121.82976812395886}},{"type":"Feature","geometry":{"type":"Polygon","coordinates":[[[121.955,-2.5095],[121.9485,-2.4975],[121.9295,-2.505],[121.919,-2.5225],[121.9155,-2.5245],[121.912,-2.5265],[121.9105,-2.5285],[121.911,-2.532],[121.9045,-2.5395],[121.9035,-2.544],[121.9005,-2.5425],[121.899,-2.5435],[121.8975,-2.5465],[121.898,-2.5475],[121.899,-2.5495],[121.898,-2.5485],[121.8975,-2.5505],[121.915,-2.543],[121.9275,-2.521],[121.935,-2.514],[121.938,-2.5115],[121.955,-2.5095]]]},"properties":{"code":"72.06.05.2023","name":"Ipi","latitude":-2.521003656880206,"longitude":121.92657897869618}},{"type":"Feature","geometry":{"type":"Polygon","coordinates":[[[121.9355,-2.477],[121.9225,-2.46],[121.9205,-2.461],[121.9195,-2.462],[121.9015,-2.487],[121.885,-2.5035],[121.8585,-2.522],[121.8255,-2.534],[121.8175,-2.5345],[121.783,-2.5545],[121.7605,-2.5765],[121.7445,-2.603],[121.7415,-2.606],[121.748,-2.6065],[121.755,-2.617],[121.803,-2.595],[121.8065,-2.5895],[121.814,-2.576],[121.823,-2.5675],[121.8585,-2.558],[121.88,-2.547],[121.88,-2.52],[121.8905,-2.5115],[121.9065,-2.5125],[121.9205,-2.4945],[121.9265,-2.482],[121.9355,-2.477]]]},"properties":{"code":"72.06.05.2024","name":"Bahomohoni","latitude":-2.5494775137064836,"longitude":121.83033791374991}},{"type":"Feature","geometry":{"type":"Polygon","coordinates":[[[121.9225,-2.46],[121.912,-2.4485],[121.911,-2.439],[121.8895,-2.446],[121.8845,-2.454],[121.8745,-2.457],[121.8305,-2.5065],[121.8275,-2.5095],[121.826,-2.5105],[121.8245,-2.514],[121.8195,-2.5245],[121.817,-2.524],[121.8155,-2.5235],[121.7795,-2.5345],[121.7715,-2.5335],[121.7455,-2.543],[121.7425,-2.545],[121.7375,-2.5545],[121.7145,-2.565],[121.706,-2.574],[121.702,-2.576],[121.701,-2.578],[121.6985,-2.582],[121.72,-2.604],[121.7415,-2.606],[121.7445,-2.603],[121.7605,-2.5765],[121.783,-2.5545],[121.8175,-2.5345],[121.8255,-2.534],[121.8585,-2.522],[121.885,-2.5035],[121.9015,-2.487],[121.9195,-2.462],[121.9205,-2.461],[121.9225,-2.46]]]},"properties":{"code":"72.06.05.2025","name":"Bahomoleo","latitude":-2.525678464358509,"longitude":121.81280389833076}},{"type":"Feature","geometry":{"type":"Polygon","coordinates":[[[121.911,-2.439],[121.9045,-2.431],[121.8905,-2.44],[121.883,-2.452],[121.854,-2.457],[121.843,-2.475],[121.8335,-2.4835],[121.8295,-2.5035],[121.8305,-2.506],[121.8305,-2.5065],[121.8745,-2.457],[121.8845,-2.454],[121.8895,-2.446],[121.911,-2.439]]]},"properties":{"code":"72.06.05.2026","name":"Bahomante","latitude":-2.468225075473494,"longitude":121.85992141718363}},{"type":"Feature","geometry":{"type":"Polygon","coordinates":[[[121.9045,-2.431],[121.896,-2.4255],[121.882,-2.409],[121.8745,-2.425],[121.8665,-2.4295],[121.864,-2.43],[121.8535,-2.431],[121.845,-2.4425],[121.828,-2.4535],[121.802,-2.483],[121.789,-2.4935],[121.7895,-2.496],[121.7915,-2.5075],[121.792,-2.5125],[121.7885,-2.52],[121.7715,-2.5335],[121.7795,-2.5345],[121.8155,-2.5235],[121.817,-2.524],[121.8195,-2.5245],[121.8245,-2.514],[121.826,-2.5105],[121.8275,-2.5095],[121.8305,-2.506],[121.8295,-2.5035],[121.8335,-2.4835],[121.843,-2.475],[121.854,-2.457],[121.883,-2.452],[121.8905,-2.44],[121.9045,-2.431]]]},"properties":{"code":"72.06.05.2027","name":"Lanona","latitude":-2.473254646138274,"longitude":121.83532856457927}},{"type":"Feature","geometry":{"type":"Polygon","coordinates":[[[121.988,-2.5935],[121.9855,-2.5815],[121.979,-2.587],[121.953,-2.616],[121.9335,-2.6375],[121.909,-2.649],[121.883,-2.6525],[121.869,-2.644],[121.865,-2.651],[121.885,-2.665],[121.91,-2.6645],[121.9375,-2.656],[121.9565,-2.637],[121.988,-2.5935]]]},"properties":{"code":"72.06.05.2029","name":"Tudua","latitude":-2.636502641397695,"longitude":121.9332245058252}},{"type":"Feature","geometry":{"type":"Polygon","coordinates":[[[122.6135,-3.1295],[122.6095,-3.125],[122.608,-3.131],[122.6135,-3.1295]]]},"properties":{"code":"72.06.06.2001","name":"Sainoa","latitude":-3.1226360735414076,"longitude":122.59610842108114}},{"type":"Feature","geometry":{"type":"MultiPolygon","coordinates":[[[[122.489,-3.0755],[122.4955,-3.087],[122.5045,-3.088],[122.498,-3.0785],[122.489,-3.0755]]],[[[122.4665,-3.066],[122.465,-3.067],[122.4795,-3.079],[122.485,-3.074],[122.4665,-3.066]]]]},"properties":{"code":"72.06.06.2002","name":"Polewali","latitude":-3.0778597360376208,"longitude":122.48623939916001}},{"type":"Feature","geometry":{"type":"Polygon","coordinates":[[[122.4665,-3.066],[122.4625,-3.0605],[122.465,-3.067],[122.4665,-3.066]]]},"properties":{"code":"72.06.06.2003","name":"Umbele","latitude":-3.0635374572159533,"longitude":122.46368976195765}},{"type":"Feature","geometry":{"type":"MultiPolygon","coordinates":[[[[122.498,-3.0785],[122.4985,-3.073],[122.489,-3.071],[122.489,-3.0755],[122.498,-3.0785]]],[[[122.4685,-3.0605],[122.4625,-3.0605],[122.4665,-3.066],[122.485,-3.074],[122.478,-3.063],[122.4685,-3.0605]]]]},"properties":{"code":"72.06.06.2004","name":"Pulau Dua","latitude":-3.068176274815475,"longitude":122.47915286285827}},{"type":"Feature","geometry":{"type":"Polygon","coordinates":[[[122.413,-3.032],[122.3985,-3.023],[122.3935,-3.0285],[122.3995,-3.033],[122.4045,-3.0365],[122.413,-3.032]]]},"properties":{"code":"72.06.06.2005","name":"Bakala","latitude":-3.028453388838255,"longitude":122.4026749659372}},{"type":"Feature","geometry":{"type":"Polygon","coordinates":[[[122.413,-3.032],[122.4045,-3.0365],[122.4025,-3.039],[122.403,-3.0435],[122.4055,-3.044],[122.419,-3.0415],[122.413,-3.032]]]},"properties":{"code":"72.06.06.2006","name":"Paku","latitude":-3.0387946275234516,"longitude":122.4088610255677}},{"type":"Feature","geometry":{"type":"Polygon","coordinates":[[[122.426,-3.051],[122.419,-3.0415],[122.4055,-3.044],[122.4085,-3.0495],[122.426,-3.051]]]},"properties":{"code":"72.06.06.2007","name":"Koburu","latitude":-3.046935607885585,"longitude":122.41592616832466}},{"type":"Feature","geometry":{"type":"Polygon","coordinates":[[[122.426,-3.051],[122.4085,-3.0495],[122.41,-3.052],[122.4145,-3.0605],[122.426,-3.051]]]},"properties":{"code":"72.06.06.2008","name":"Buton","latitude":-3.0549123467443327,"longitude":122.4182942202486}},{"type":"Feature","geometry":{"type":"Polygon","coordinates":[[[122.4145,-3.0605],[122.41,-3.052],[122.4005,-3.0545],[122.4145,-3.0605]]]},"properties":{"code":"72.06.06.2009","name":"Jawi-Jawi","latitude":-3.056699333974858,"longitude":122.40785928343446}},{"type":"Feature","geometry":{"type":"Polygon","coordinates":[[[122.389,-3.0515],[122.382,-3.0535],[122.387,-3.06],[122.389,-3.0515]]]},"properties":{"code":"72.06.06.2010","name":"Kaleroang","latitude":-3.055937536914784,"longitude":122.38469855977749}},{"type":"Feature","geometry":{"type":"Polygon","coordinates":[[[122.4085,-3.0495],[122.4055,-3.044],[122.4035,-3.046],[122.4015,-3.047],[122.399,-3.047],[122.4005,-3.0545],[122.41,-3.052],[122.4085,-3.0495]]]},"properties":{"code":"72.06.06.2011","name":"Bungingkela","latitude":-3.0499547544053582,"longitude":122.40332919856725}},{"type":"Feature","geometry":{"type":"Polygon","coordinates":[[[122.4045,-3.0365],[122.3995,-3.033],[122.3915,-3.041],[122.399,-3.047],[122.4015,-3.047],[122.4035,-3.046],[122.4055,-3.044],[122.403,-3.0435],[122.4025,-3.039],[122.4045,-3.0365]]]},"properties":{"code":"72.06.06.2012","name":"Lokombulo","latitude":-3.0403268347683365,"longitude":122.39896301416378}},{"type":"Feature","geometry":{"type":"MultiPolygon","coordinates":[[[[122.385,-3.0365],[122.3785,-3.03],[122.382,-3.0345],[122.385,-3.0365]]],[[[122.3915,-3.041],[122.3995,-3.033],[122.3935,-3.0285],[122.3915,-3.041]]]]},"properties":{"code":"72.06.06.2013","name":"Buajangka","latitude":-3.033769091893214,"longitude":122.39047486594919}},{"type":"Feature","geometry":{"type":"Polygon","coordinates":[[[122.3785,-3.03],[122.3665,-3.031],[122.3645,-3.034],[122.363,-3.0355],[122.376,-3.0375],[122.3815,-3.035],[122.382,-3.0345],[122.3785,-3.03]]]},"properties":{"code":"72.06.06.2014","name":"Waru-Waru","latitude":-3.03423013311407,"longitude":122.37266047827617}},{"type":"Feature","geometry":{"type":"MultiPolygon","coordinates":[[[[122.3645,-3.034],[122.3665,-3.031],[122.358,-3.036],[122.36,-3.0425],[122.361,-3.039],[122.363,-3.0355],[122.3645,-3.034]]],[[[122.3535,-3.022],[122.34,-3.0175],[122.3405,-3.021],[122.3535,-3.022]]]]},"properties":{"code":"72.06.06.2015","name":"Padabale","latitude":-3.028477938111492,"longitude":122.35484339492264}},{"type":"Feature","geometry":{"type":"Polygon","coordinates":[[[122.3535,-3.022],[122.361,-3.0155],[122.356,-3.0075],[122.338,-3.004],[122.34,-3.0175],[122.3535,-3.022]]]},"properties":{"code":"72.06.06.2016","name":"Pado-Pado","latitude":-3.0122699039895675,"longitude":122.34840959283682}},{"type":"Feature","geometry":{"type":"Polygon","coordinates":[[[122.338,-3.004],[122.3205,-2.9985],[122.324,-3.0105],[122.3405,-3.021],[122.34,-3.0175],[122.338,-3.004]]]},"properties":{"code":"72.06.06.2017","name":"Pulaubapa","latitude":-3.0083431561501164,"longitude":122.32977309502104}},{"type":"Feature","geometry":{"type":"Polygon","coordinates":[[[122.55,-3.2835],[122.5475,-3.2925],[122.5545,-3.2905],[122.55,-3.2835]]]},"properties":{"code":"72.06.06.2018","name":"Pulau Dua Darat","latitude":-3.2849846822048883,"longitude":122.5434769957365}},{"type":"Feature","geometry":{"type":"Polygon","coordinates":[[[122.6345,-3.222],[122.6355,-3.2205],[122.633,-3.218],[122.631,-3.2215],[122.6345,-3.222]]]},"properties":{"code":"72.06.06.2041","name":"Bungintende","latitude":-3.2057897047996593,"longitude":122.62526775203828}},{"type":"Feature","geometry":{"type":"Polygon","coordinates":[[[122.5145,-3.0745],[122.51,-3.061],[122.497,-3.0655],[122.4985,-3.073],[122.498,-3.0785],[122.5105,-3.0755],[122.512,-3.0755],[122.5135,-3.075],[122.5145,-3.0745]]]},"properties":{"code":"72.06.06.2043","name":"Panimbawang","latitude":-3.0677575676581963,"longitude":122.50744848859674}},{"type":"Feature","geometry":{"type":"Polygon","coordinates":[[[122.3785,-3.037],[122.376,-3.0375],[122.363,-3.0355],[122.361,-3.039],[122.36,-3.0425],[122.3785,-3.043],[122.3795,-3.039],[122.3785,-3.037]]]},"properties":{"code":"72.06.06.2044","name":"Po'o","latitude":-3.040076148238214,"longitude":122.3699522414015}},{"type":"Feature","geometry":{"type":"Polygon","coordinates":[[[122.512,-3.0755],[122.5105,-3.0755],[122.498,-3.0785],[122.5045,-3.088],[122.514,-3.0895],[122.5145,-3.0745],[122.5135,-3.075],[122.512,-3.0755]]]},"properties":{"code":"72.06.06.2045","name":"Boelimau","latitude":-3.0855171952944755,"longitude":122.51860376428372}},{"type":"Feature","geometry":{"type":"Polygon","coordinates":[[[122.385,-3.0365],[122.382,-3.0345],[122.3815,-3.035],[122.3785,-3.037],[122.3795,-3.039],[122.3785,-3.043],[122.385,-3.0365]]]},"properties":{"code":"72.06.06.2046","name":"Poaro","latitude":-3.0393681675576114,"longitude":122.3820335597832}},{"type":"Feature","geometry":{"type":"Polygon","coordinates":[[[122.497,-3.0655],[122.489,-3.071],[122.4985,-3.073],[122.497,-3.0655]]]},"properties":{"code":"72.06.06.2047","name":"Umbele Lama","latitude":-3.0641632889606027,"longitude":122.48767708518659}},{"type":"Feature","geometry":{"type":"Polygon","coordinates":[[[123.1435,-3.56],[123.143,-3.559],[123.128,-3.567],[123.111,-3.5695],[123.1045,-3.5775],[123.111,-3.583],[123.1255,-3.5875],[123.1385,-3.59],[123.1455,-3.586],[123.1465,-3.5825],[123.141,-3.5735],[123.1435,-3.56]]]},"properties":{"code":"72.06.07.1007","name":"Ulunambo","latitude":-3.5766313825149174,"longitude":123.12804973522672}},{"type":"Feature","geometry":{"type":"Polygon","coordinates":[[[123.1645,-3.622],[123.177,-3.6205],[123.182,-3.6125],[123.18,-3.601],[123.1635,-3.602],[123.1645,-3.622]]]},"properties":{"code":"72.06.07.2001","name":"Terebino","latitude":-3.6107726053393825,"longitude":123.17224049269421}},{"type":"Feature","geometry":{"type":"Polygon","coordinates":[[[123.178,-3.596],[123.169,-3.595],[123.1665,-3.589],[123.166,-3.5865],[123.1645,-3.578],[123.151,-3.58],[123.1465,-3.5825],[123.1455,-3.586],[123.159,-3.597],[123.1635,-3.602],[123.18,-3.601],[123.178,-3.596]]]},"properties":{"code":"72.06.07.2002","name":"Torukuno","latitude":-3.590018441569483,"longitude":123.16078392882129}},{"type":"Feature","geometry":{"type":"Polygon","coordinates":[[[123.178,-3.596],[123.1695,-3.577],[123.1645,-3.578],[123.166,-3.5865],[123.1665,-3.589],[123.169,-3.595],[123.178,-3.596]]]},"properties":{"code":"72.06.07.2003","name":"Ngapaea","latitude":-3.587187291327275,"longitude":123.17022559055731}},{"type":"Feature","geometry":{"type":"Polygon","coordinates":[[[123.1655,-3.573],[123.1435,-3.56],[123.141,-3.5735],[123.1465,-3.5825],[123.151,-3.58],[123.1695,-3.577],[123.1655,-3.573]]]},"properties":{"code":"72.06.07.2004","name":"Padala'a","latitude":-3.5725952514335493,"longitude":123.1516384719983}},{"type":"Feature","geometry":{"type":"Polygon","coordinates":[[[123.131,-3.612],[123.1425,-3.599],[123.135,-3.5915],[123.117,-3.6015],[123.111,-3.6175],[123.091,-3.6015],[123.0585,-3.61],[123.072,-3.6235],[123.107,-3.6395],[123.1205,-3.6325],[123.1195,-3.6155],[123.131,-3.612]]]},"properties":{"code":"72.06.07.2005","name":"Morompaitonga","latitude":-3.61678303870189,"longitude":123.10150441768307}},{"type":"Feature","geometry":{"type":"MultiPolygon","coordinates":[[[[123.1045,-3.5775],[123.1025,-3.585],[123.111,-3.5965],[123.091,-3.6015],[123.111,-3.6175],[123.117,-3.6015],[123.1385,-3.59],[123.1255,-3.5875],[123.111,-3.583],[123.1045,-3.5775]]],[[[123.1045,-3.5775],[123.111,-3.5695],[123.1005,-3.5705],[123.1045,-3.5775]]]]},"properties":{"code":"72.06.07.2006","name":"Kofalagadi","latitude":-3.595390332406869,"longitude":123.11190258141002}},{"type":"Feature","geometry":{"type":"MultiPolygon","coordinates":[[[[122.949,-3.5285],[122.9675,-3.5455],[122.968,-3.5355],[122.949,-3.5285]]],[[[122.9585,-3.499],[122.9495,-3.519],[122.958,-3.519],[122.9625,-3.5055],[122.9585,-3.499]]]]},"properties":{"code":"72.06.07.2008","name":"Padei Laut","latitude":-3.5203379392519287,"longitude":122.96216398497987}},{"type":"Feature","geometry":{"type":"MultiPolygon","coordinates":[[[[123.101,-3.5035],[123.0695,-3.5155],[123.061,-3.514],[123.0585,-3.5255],[123.076,-3.525],[123.101,-3.5035]]],[[[122.9815,-3.4475],[122.972,-3.448],[122.9945,-3.4735],[122.9985,-3.46],[122.9875,-3.448],[122.9815,-3.4475]]],[[[122.9425,-3.4045],[122.933,-3.4165],[122.9425,-3.422],[122.9525,-3.415],[122.9425,-3.4045]]],[[[122.9515,-3.3805],[122.942,-3.3835],[122.9435,-3.394],[122.963,-3.3895],[122.9515,-3.3805]]]]},"properties":{"code":"72.06.07.2009","name":"Padei Darat","latitude":-3.46152317121449,"longitude":122.99737866142765}},{"type":"Feature","geometry":{"type":"MultiPolygon","coordinates":[[[[122.8945,-3.3965],[122.8925,-3.42],[122.9,-3.4175],[122.9005,-3.401],[122.8945,-3.3965]]],[[[122.82,-3.4035],[122.8235,-3.384],[122.815,-3.3805],[122.811,-3.3975],[122.82,-3.4035]]],[[[122.7805,-3.36],[122.781,-3.371],[122.7745,-3.3785],[122.7555,-3.381],[122.7555,-3.39],[122.769,-3.392],[122.787,-3.3795],[122.7805,-3.36]]],[[[122.847,-3.354],[122.8385,-3.364],[122.853,-3.388],[122.8585,-3.3795],[122.847,-3.3725],[122.841,-3.3625],[122.847,-3.354]]]]},"properties":{"code":"72.06.07.2010","name":"Samarengga","latitude":-3.3957165206137927,"longitude":122.83320146911338}},{"type":"Feature","geometry":{"type":"Polygon","coordinates":[[[122.4285,-3.193],[122.4275,-3.191],[122.425,-3.191],[122.4195,-3.189],[122.416,-3.189],[122.41,-3.1945],[122.3965,-3.194],[122.3965,-3.195],[122.397,-3.2005],[122.4,-3.2205],[122.4115,-3.234],[122.425,-3.261],[122.4305,-3.263],[122.428,-3.251],[122.4335,-3.241],[122.4255,-3.209],[122.4285,-3.193]]]},"properties":{"code":"72.06.07.2013","name":"Matano","latitude":-3.2198183432095258,"longitude":122.41625118483108}},{"type":"Feature","geometry":{"type":"Polygon","coordinates":[[[123.1655,-3.573],[123.16,-3.5595],[123.143,-3.559],[123.1435,-3.56],[123.1655,-3.573]]]},"properties":{"code":"72.06.07.2015","name":"Ulunipa","latitude":-3.5630255741146004,"longitude":123.15510334407223}},{"type":"Feature","geometry":{"type":"Polygon","coordinates":[[[123.1635,-3.602],[123.159,-3.597],[123.146,-3.6185],[123.1645,-3.622],[123.1635,-3.602]]]},"properties":{"code":"72.06.07.2016","name":"Wawangkolono","latitude":-3.611153382960712,"longitude":123.1574781376148}},{"type":"Feature","geometry":{"type":"Polygon","coordinates":[[[123.1045,-3.5775],[123.1005,-3.5705],[123.0725,-3.577],[123.069,-3.5835],[123.0445,-3.5915],[123.046,-3.598],[123.0585,-3.61],[123.111,-3.5965],[123.1025,-3.585],[123.1045,-3.5775]]]},"properties":{"code":"72.06.07.2017","name":"Buranga","latitude":-3.5911326897353106,"longitude":123.0785114522191}},{"type":"Feature","geometry":{"type":"Polygon","coordinates":[[[123.159,-3.597],[123.1455,-3.586],[123.135,-3.5915],[123.1425,-3.599],[123.131,-3.612],[123.146,-3.6185],[123.159,-3.597]]]},"properties":{"code":"72.06.07.2019","name":"Tafagapi","latitude":-3.6022321464065588,"longitude":123.14541378547186}},{"type":"Feature","geometry":{"type":"Polygon","coordinates":[[[121.875,-2.3935],[121.859,-2.391],[121.857,-2.3995],[121.858,-2.4025],[121.8425,-2.412],[121.8125,-2.4165],[121.8115,-2.419],[121.81,-2.43],[121.775,-2.473],[121.783,-2.4775],[121.786,-2.4795],[121.7885,-2.4925],[121.789,-2.4935],[121.802,-2.483],[121.828,-2.4535],[121.845,-2.4425],[121.8535,-2.431],[121.864,-2.43],[121.8665,-2.4295],[121.8745,-2.425],[121.882,-2.409],[121.875,-2.3935]]]},"properties":{"code":"72.06.08.2001","name":"Bahoea Reko- Reko","latitude":-2.4392515752977726,"longitude":121.82671975714159}},{"type":"Feature","geometry":{"type":"Polygon","coordinates":[[[121.8305,-2.3415],[121.829,-2.3405],[121.825,-2.343],[121.8245,-2.3435],[121.8045,-2.3415],[121.8055,-2.352],[121.78,-2.3885],[121.779,-2.3975],[121.759,-2.4015],[121.753,-2.4095],[121.7535,-2.42],[121.7475,-2.445],[121.743,-2.4475],[121.723,-2.4535],[121.725,-2.4545],[121.726,-2.456],[121.726,-2.4575],[121.7325,-2.4655],[121.735,-2.467],[121.7345,-2.4695],[121.7205,-2.4765],[121.719,-2.4775],[121.7165,-2.481],[121.7175,-2.482],[121.7235,-2.4925],[121.721,-2.5055],[121.7345,-2.521],[121.73,-2.5275],[121.7035,-2.533],[121.6885,-2.541],[121.68,-2.5515],[121.697,-2.5805],[121.6985,-2.582],[121.701,-2.578],[121.702,-2.576],[121.706,-2.574],[121.7145,-2.565],[121.7375,-2.5545],[121.7425,-2.545],[121.7455,-2.543],[121.7715,-2.5335],[121.7885,-2.52],[121.792,-2.5125],[121.7915,-2.5075],[121.7895,-2.496],[121.7885,-2.4925],[121.786,-2.4795],[121.783,-2.4775],[121.775,-2.473],[121.81,-2.43],[121.8115,-2.419],[121.8125,-2.4165],[121.8425,-2.412],[121.858,-2.4025],[121.857,-2.3995],[121.859,-2.391],[121.875,-2.3935],[121.8545,-2.3545],[121.841,-2.3475],[121.84,-2.34],[121.8305,-2.3415]]]},"properties":{"code":"72.06.08.2002","name":"Wosu","latitude":-2.4514268320363946,"longitude":121.77716076790223}},{"type":"Feature","geometry":{"type":"Polygon","coordinates":[[[121.84,-2.34],[121.828,-2.3],[121.811,-2.315],[121.7985,-2.318],[121.7445,-2.3485],[121.749,-2.352],[121.742,-2.3785],[121.737,-2.3835],[121.7355,-2.3855],[121.7135,-2.3925],[121.7135,-2.4035],[121.7115,-2.4245],[121.7075,-2.436],[121.705,-2.4375],[121.7055,-2.439],[121.7075,-2.4455],[121.709,-2.4465],[121.717,-2.452],[121.718,-2.4535],[121.7185,-2.4535],[121.7185,-2.451],[121.7205,-2.451],[121.7205,-2.4515],[121.7215,-2.453],[121.723,-2.4535],[121.743,-2.4475],[121.7475,-2.445],[121.7535,-2.42],[121.753,-2.4095],[121.759,-2.4015],[121.779,-2.3975],[121.78,-2.3885],[121.8055,-2.352],[121.8045,-2.3415],[121.8245,-2.3435],[121.825,-2.343],[121.829,-2.3405],[121.8305,-2.3415],[121.84,-2.34]]]},"properties":{"code":"72.06.08.2003","name":"Larobenu","latitude":-2.3775704433220475,"longitude":121.76529655974574}},{"type":"Feature","geometry":{"type":"Polygon","coordinates":[[[121.828,-2.3],[121.818,-2.291],[121.7995,-2.29],[121.787,-2.306],[121.778,-2.312],[121.754,-2.317],[121.7455,-2.3315],[121.749,-2.3355],[121.7485,-2.337],[121.7475,-2.3395],[121.746,-2.341],[121.7445,-2.341],[121.7435,-2.3425],[121.743,-2.3455],[121.744,-2.3485],[121.7445,-2.3485],[121.7985,-2.318],[121.811,-2.315],[121.828,-2.3]]]},"properties":{"code":"72.06.08.2004","name":"Umpanga","latitude":-2.3155149025852397,"longitude":121.78497294656776}},{"type":"Feature","geometry":{"type":"Polygon","coordinates":[[[121.7635,-2.291],[121.7695,-2.284],[121.777,-2.2775],[121.777,-2.262],[121.7745,-2.258],[121.754,-2.281],[121.758,-2.2875],[121.7455,-2.2995],[121.746,-2.302],[121.7445,-2.3035],[121.745,-2.305],[121.755,-2.304],[121.7635,-2.291]]]},"properties":{"code":"72.06.08.2005","name":"Tondo","latitude":-2.284679590162516,"longitude":121.76159269047629}},{"type":"Feature","geometry":{"type":"Polygon","coordinates":[[[121.7995,-2.29],[121.7835,-2.273],[121.777,-2.262],[121.777,-2.2775],[121.7695,-2.284],[121.7635,-2.291],[121.755,-2.304],[121.745,-2.305],[121.7425,-2.3055],[121.741,-2.307],[121.739,-2.306],[121.7385,-2.306],[121.7375,-2.3045],[121.737,-2.3055],[121.7365,-2.3045],[121.735,-2.3065],[121.7345,-2.306],[121.731,-2.306],[121.7295,-2.307],[121.7285,-2.308],[121.728,-2.31],[121.727,-2.3105],[121.7285,-2.3115],[121.734,-2.3175],[121.733,-2.3185],[121.7325,-2.3205],[121.734,-2.321],[121.733,-2.322],[121.7225,-2.3425],[121.724,-2.3445],[121.7275,-2.3735],[121.729,-2.375],[121.7385,-2.3815],[121.742,-2.3785],[121.749,-2.352],[121.744,-2.3485],[121.743,-2.3455],[121.7435,-2.3425],[121.7445,-2.341],[121.746,-2.341],[121.7475,-2.3395],[121.7485,-2.337],[121.749,-2.3355],[121.7455,-2.3315],[121.754,-2.317],[121.778,-2.312],[121.787,-2.306],[121.7995,-2.29]]]},"properties":{"code":"72.06.08.2006","name":"Topogaro","latitude":-2.321039464770788,"longitude":121.75449939620196}},{"type":"Feature","geometry":{"type":"Polygon","coordinates":[[[121.7745,-2.258],[121.7585,-2.2505],[121.7565,-2.2585],[121.746,-2.2745],[121.7255,-2.286],[121.7235,-2.287],[121.721,-2.2875],[121.7195,-2.289],[121.717,-2.291],[121.7215,-2.2995],[121.7205,-2.3125],[121.7105,-2.332],[121.7115,-2.357],[121.7045,-2.378],[121.706,-2.3785],[121.707,-2.3805],[121.7115,-2.3895],[121.7135,-2.3925],[121.7355,-2.3855],[121.737,-2.3835],[121.7385,-2.3815],[121.729,-2.375],[121.7275,-2.3735],[121.724,-2.3445],[121.7225,-2.3425],[121.733,-2.322],[121.734,-2.321],[121.7325,-2.3205],[121.733,-2.3185],[121.734,-2.3175],[121.7285,-2.3115],[121.727,-2.3105],[121.728,-2.31],[121.7285,-2.308],[121.7295,-2.307],[121.731,-2.306],[121.7345,-2.306],[121.735,-2.3065],[121.7365,-2.3045],[121.737,-2.3055],[121.7375,-2.3045],[121.7385,-2.306],[121.739,-2.306],[121.741,-2.307],[121.7425,-2.3055],[121.7445,-2.3035],[121.746,-2.302],[121.7455,-2.2995],[121.758,-2.2875],[121.754,-2.281],[121.7745,-2.258]]]},"properties":{"code":"72.06.08.2007","name":"Ambunu","latitude":-2.321355791365031,"longitude":121.73112740929415}},{"type":"Feature","geometry":{"type":"Polygon","coordinates":[[[121.7575,-2.249],[121.7555,-2.24],[121.7445,-2.233],[121.739,-2.2345],[121.7395,-2.238],[121.7405,-2.2405],[121.7405,-2.2445],[121.7405,-2.2455],[121.739,-2.248],[121.739,-2.2485],[121.7365,-2.2495],[121.7285,-2.254],[121.722,-2.275],[121.7205,-2.2755],[121.722,-2.2835],[121.722,-2.2845],[121.7235,-2.2845],[121.725,-2.285],[121.725,-2.2855],[121.7255,-2.286],[121.733,-2.256],[121.7365,-2.254],[121.7575,-2.249]]]},"properties":{"code":"72.06.08.2008","name":"Wata","latitude":-2.2547249731947994,"longitude":121.73808527130745}},{"type":"Feature","geometry":{"type":"Polygon","coordinates":[[[121.7585,-2.2505],[121.7575,-2.249],[121.7365,-2.254],[121.7565,-2.2585],[121.7585,-2.2505]]]},"properties":{"code":"72.06.08.2012","name":"Uedago","latitude":-2.2538635066672525,"longitude":121.74819992331008}},{"type":"Feature","geometry":{"type":"Polygon","coordinates":[[[121.7565,-2.2585],[121.7365,-2.254],[121.733,-2.256],[121.7255,-2.286],[121.746,-2.2745],[121.7565,-2.2585]]]},"properties":{"code":"72.06.08.2029","name":"Marga Mulya","latitude":-2.267425372380255,"longitude":121.73913777294811}},{"type":"Feature","geometry":{"type":"Polygon","coordinates":[[[121.7445,-2.233],[121.7345,-2.22],[121.7235,-2.237],[121.723,-2.239],[121.7255,-2.24],[121.7405,-2.2415],[121.7405,-2.24],[121.7395,-2.238],[121.739,-2.2345],[121.7445,-2.233]]]},"properties":{"code":"72.06.09.2001","name":"Parilangke","latitude":-2.231804548294231,"longitude":121.734211686712}},{"type":"Feature","geometry":{"type":"Polygon","coordinates":[[[121.7345,-2.22],[121.7265,-2.203],[121.717,-2.2195],[121.7125,-2.222],[121.707,-2.2295],[121.715,-2.2415],[121.7155,-2.2415],[121.7225,-2.2395],[121.7235,-2.237],[121.7345,-2.22]]]},"properties":{"code":"72.06.09.2002","name":"Bahonsuai","latitude":-2.224868017314177,"longitude":121.72147097654728}},{"type":"Feature","geometry":{"type":"Polygon","coordinates":[[[121.7065,-2.2225],[121.6935,-2.2025],[121.691,-2.204],[121.6835,-2.204],[121.6825,-2.232],[121.692,-2.2315],[121.706,-2.223],[121.7065,-2.2225]]]},"properties":{"code":"72.06.09.2003","name":"Atananga","latitude":-2.2190928667041763,"longitude":121.69142216820781}},{"type":"Feature","geometry":{"type":"Polygon","coordinates":[[[121.6825,-2.232],[121.6835,-2.204],[121.667,-2.21],[121.664,-2.2185],[121.6625,-2.219],[121.6625,-2.22],[121.664,-2.2215],[121.664,-2.222],[121.663,-2.223],[121.6635,-2.224],[121.665,-2.224],[121.6705,-2.2365],[121.6715,-2.2375],[121.6715,-2.239],[121.6705,-2.241],[121.67,-2.2425],[121.6725,-2.242],[121.673,-2.2435],[121.674,-2.2465],[121.6755,-2.2475],[121.6765,-2.248],[121.678,-2.245],[121.6825,-2.232]]]},"properties":{"code":"72.06.09.2004","name":"Pebatae","latitude":-2.224431814210279,"longitude":121.67533696576184}},{"type":"Feature","geometry":{"type":"Polygon","coordinates":[[[121.6875,-2.1865],[121.683,-2.1795],[121.6715,-2.185],[121.6445,-2.188],[121.642,-2.1905],[121.641,-2.1905],[121.6395,-2.1905],[121.639,-2.1905],[121.64,-2.1925],[121.643,-2.201],[121.6415,-2.2015],[121.6425,-2.2045],[121.643,-2.2045],[121.6435,-2.203],[121.645,-2.203],[121.647,-2.206],[121.6485,-2.206],[121.6575,-2.2125],[121.667,-2.21],[121.6835,-2.204],[121.6875,-2.1865]]]},"properties":{"code":"72.06.09.2005","name":"Umbele","latitude":-2.1953652092104528,"longitude":121.66481364562821}},{"type":"Feature","geometry":{"type":"Polygon","coordinates":[[[121.707,-2.2295],[121.7125,-2.222],[121.7065,-2.222],[121.706,-2.223],[121.692,-2.2315],[121.6825,-2.232],[121.678,-2.245],[121.6765,-2.248],[121.677,-2.2485],[121.6775,-2.2545],[121.6805,-2.256],[121.682,-2.2565],[121.68,-2.2435],[121.6955,-2.244],[121.696,-2.2415],[121.707,-2.2295]]]},"properties":{"code":"72.06.09.2006","name":"Lambelu","latitude":-2.2364839198822155,"longitude":121.69204991256557}},{"type":"Feature","geometry":{"type":"Polygon","coordinates":[[[121.6955,-2.244],[121.68,-2.2435],[121.682,-2.2565],[121.6825,-2.257],[121.6775,-2.2625],[121.6765,-2.2795],[121.6695,-2.279],[121.6655,-2.293],[121.6525,-2.2895],[121.648,-2.3],[121.658,-2.3075],[121.659,-2.3155],[121.6505,-2.323],[121.653,-2.338],[121.6385,-2.3595],[121.642,-2.382],[121.6625,-2.4005],[121.6625,-2.4115],[121.6605,-2.417],[121.6515,-2.429],[121.645,-2.4555],[121.638,-2.473],[121.6345,-2.4935],[121.63,-2.5055],[121.673,-2.52],[121.673,-2.525],[121.689,-2.5015],[121.686,-2.48],[121.68,-2.4715],[121.6825,-2.4495],[121.6785,-2.4355],[121.683,-2.4095],[121.6795,-2.392],[121.6805,-2.3895],[121.681,-2.3875],[121.6825,-2.3865],[121.6825,-2.384],[121.684,-2.381],[121.685,-2.3785],[121.6855,-2.376],[121.688,-2.3735],[121.6855,-2.373],[121.679,-2.351],[121.678,-2.3465],[121.675,-2.3465],[121.6685,-2.3365],[121.674,-2.3305],[121.6845,-2.3015],[121.686,-2.2835],[121.6805,-2.274],[121.682,-2.2725],[121.6925,-2.264],[121.6945,-2.261],[121.6955,-2.2435],[121.6955,-2.244]]]},"properties":{"code":"72.06.09.2007","name":"Limbo Makmur","latitude":-2.4036119962854077,"longitude":121.66516220993397}},{"type":"Feature","geometry":{"type":"Polygon","coordinates":[[[121.715,-2.2415],[121.707,-2.2295],[121.696,-2.2415],[121.6955,-2.2435],[121.6945,-2.261],[121.6925,-2.264],[121.682,-2.2725],[121.6805,-2.274],[121.686,-2.2835],[121.6845,-2.3015],[121.674,-2.3305],[121.6685,-2.3365],[121.675,-2.3465],[121.678,-2.3465],[121.679,-2.351],[121.6855,-2.373],[121.688,-2.3735],[121.6885,-2.374],[121.6955,-2.361],[121.69,-2.3415],[121.69,-2.3395],[121.6965,-2.3255],[121.693,-2.315],[121.6935,-2.3135],[121.694,-2.3065],[121.694,-2.306],[121.6955,-2.304],[121.696,-2.303],[121.6975,-2.302],[121.6985,-2.3],[121.6985,-2.2985],[121.706,-2.2905],[121.7065,-2.276],[121.7135,-2.2425],[121.715,-2.2415]]]},"properties":{"code":"72.06.09.2008","name":"Beringin Jaya","latitude":-2.2996583549820686,"longitude":121.69249832780382}},{"type":"Feature","geometry":{"type":"Polygon","coordinates":[[[121.7265,-2.203],[121.709,-2.1915],[121.6985,-2.1995],[121.6935,-2.2025],[121.7065,-2.2225],[121.7065,-2.222],[121.717,-2.2195],[121.7265,-2.203]]]},"properties":{"code":"72.06.09.2009","name":"Samarenda","latitude":-2.207254673849997,"longitude":121.70963927221058}},{"type":"Feature","geometry":{"type":"MultiPolygon","coordinates":[[[[121.6625,-2.4115],[121.6625,-2.4005],[121.642,-2.382],[121.6385,-2.3595],[121.653,-2.338],[121.6505,-2.323],[121.659,-2.3155],[121.658,-2.3075],[121.648,-2.3],[121.6525,-2.2895],[121.6655,-2.293],[121.6695,-2.279],[121.6765,-2.2795],[121.6775,-2.2625],[121.6825,-2.257],[121.6805,-2.256],[121.6775,-2.2545],[121.6765,-2.2535],[121.663,-2.261],[121.6615,-2.263],[121.646,-2.2615],[121.6205,-2.2575],[121.62,-2.2575],[121.618,-2.274],[121.6095,-2.283],[121.609,-2.285],[121.607,-2.2875],[121.607,-2.288],[121.606,-2.2875],[121.601,-2.2865],[121.6,-2.287],[121.5955,-2.2895],[121.5955,-2.2915],[121.5945,-2.299],[121.593,-2.301],[121.593,-2.3015],[121.5925,-2.3055],[121.5965,-2.317],[121.598,-2.3405],[121.615,-2.358],[121.614,-2.3595],[121.614,-2.3735],[121.608,-2.38],[121.584,-2.388],[121.5775,-2.424],[121.567,-2.446],[121.548,-2.4755],[121.5705,-2.491],[121.5795,-2.5075],[121.5855,-2.528],[121.6205,-2.535],[121.63,-2.5055],[121.6345,-2.4935],[121.638,-2.473],[121.645,-2.4555],[121.6515,-2.429],[121.6605,-2.417],[121.6625,-2.4115]]],[[[121.664,-2.2215],[121.6625,-2.22],[121.6625,-2.219],[121.661,-2.2195],[121.659,-2.222],[121.659,-2.2245],[121.6585,-2.225],[121.6555,-2.225],[121.6525,-2.2255],[121.6515,-2.2275],[121.651,-2.23],[121.67,-2.246],[121.677,-2.2485],[121.6755,-2.2475],[121.674,-2.2465],[121.673,-2.2435],[121.6725,-2.242],[121.67,-2.2425],[121.6705,-2.241],[121.6715,-2.239],[121.6715,-2.2375],[121.6705,-2.2365],[121.665,-2.224],[121.6635,-2.224],[121.663,-2.223],[121.664,-2.222],[121.664,-2.2215]]]]},"properties":{"code":"72.06.09.2010","name":"Lasampi","latitude":-2.3984249352292655,"longitude":121.6171108972524}},{"type":"Feature","geometry":{"type":"Polygon","coordinates":[[[121.723,-2.239],[121.7225,-2.2395],[121.7155,-2.2415],[121.7135,-2.2425],[121.7065,-2.276],[121.706,-2.2905],[121.6985,-2.2985],[121.6985,-2.3],[121.6975,-2.302],[121.696,-2.303],[121.6955,-2.304],[121.694,-2.306],[121.694,-2.3065],[121.6935,-2.3135],[121.693,-2.315],[121.6965,-2.3255],[121.69,-2.3395],[121.69,-2.3415],[121.6955,-2.361],[121.6885,-2.374],[121.6855,-2.376],[121.685,-2.3785],[121.684,-2.381],[121.6825,-2.384],[121.6825,-2.3865],[121.681,-2.3875],[121.6805,-2.3895],[121.6795,-2.392],[121.683,-2.4095],[121.6785,-2.4355],[121.6825,-2.4495],[121.68,-2.4715],[121.686,-2.48],[121.689,-2.5015],[121.673,-2.525],[121.674,-2.5415],[121.68,-2.5515],[121.6885,-2.541],[121.7035,-2.533],[121.73,-2.5275],[121.7345,-2.521],[121.721,-2.5055],[121.7235,-2.4925],[121.7175,-2.482],[121.7165,-2.481],[121.719,-2.4775],[121.7205,-2.4765],[121.7345,-2.4695],[121.735,-2.467],[121.7325,-2.4655],[121.726,-2.4575],[121.726,-2.456],[121.725,-2.4545],[121.7215,-2.453],[121.7205,-2.4515],[121.7205,-2.451],[121.7185,-2.451],[121.7185,-2.4535],[121.718,-2.4535],[121.717,-2.452],[121.709,-2.4465],[121.7075,-2.4455],[121.7055,-2.439],[121.705,-2.4375],[121.7075,-2.436],[121.7115,-2.4245],[121.7135,-2.4035],[121.7115,-2.3895],[121.707,-2.3805],[121.706,-2.3785],[121.7045,-2.378],[121.7115,-2.357],[121.7105,-2.332],[121.7205,-2.3125],[121.7215,-2.2995],[121.717,-2.291],[121.7195,-2.289],[121.721,-2.2875],[121.7235,-2.287],[121.725,-2.2855],[121.725,-2.285],[121.7235,-2.2845],[121.722,-2.2845],[121.722,-2.2835],[121.7205,-2.2755],[121.722,-2.275],[121.7285,-2.254],[121.7365,-2.2495],[121.739,-2.2485],[121.739,-2.248],[121.7405,-2.2455],[121.7405,-2.2445],[121.7405,-2.2415],[121.7255,-2.24],[121.723,-2.239]]]},"properties":{"code":"72.06.09.2011","name":"Harapan Jaya","latitude":-2.4184087407263584,"longitude":121.70288973212031}},{"type":"Feature","geometry":{"type":"Polygon","coordinates":[[[121.709,-2.1915],[121.6955,-2.1915],[121.6875,-2.1865],[121.6835,-2.204],[121.691,-2.204],[121.6985,-2.1995],[121.709,-2.1915]]]},"properties":{"code":"72.06.09.2012","name":"Pebotoa","latitude":-2.195639290669103,"longitude":121.69335801712366}},{"type":"Feature","geometry":{"type":"Polygon","coordinates":[[[121.667,-2.21],[121.6575,-2.2125],[121.6485,-2.206],[121.647,-2.206],[121.645,-2.203],[121.6435,-2.203],[121.643,-2.2045],[121.642,-2.22],[121.652,-2.226],[121.6525,-2.2255],[121.6555,-2.225],[121.6585,-2.225],[121.659,-2.2245],[121.659,-2.222],[121.661,-2.2195],[121.664,-2.2185],[121.667,-2.21]]]},"properties":{"code":"72.06.09.2013","name":"Karaupa","latitude":-2.215141258750404,"longitude":121.65502696046593}},{"type":"Feature","geometry":{"type":"Polygon","coordinates":[[[122.22,-2.9005],[122.212,-2.9005],[122.2055,-2.9175],[122.1965,-2.9235],[122.1755,-2.9495],[122.174,-2.959],[122.154,-2.961],[122.145,-2.974],[122.146,-2.9815],[122.134,-2.9895],[122.1315,-2.9925],[122.131,-3.0035],[122.122,-3.0085],[122.109,-3.027],[122.096,-3.0725],[122.096,-3.0895],[122.1115,-3.0875],[122.1175,-3.085],[122.1265,-3.0825],[122.1505,-3.0395],[122.1615,-3.029],[122.1615,-3.0045],[122.174,-2.9925],[122.175,-2.9825],[122.184,-2.978],[122.1885,-2.965],[122.1885,-2.962],[122.192,-2.959],[122.1965,-2.958],[122.202,-2.9565],[122.2125,-2.948],[122.221,-2.927],[122.22,-2.924],[122.214,-2.9165],[122.2155,-2.906],[122.2165,-2.904],[122.219,-2.9025],[122.22,-2.9005]]]},"properties":{"code":"72.06.10.2001","name":"Bete-Bete","latitude":-3.005063551207193,"longitude":122.15090555625414}},{"type":"Feature","geometry":{"type":"Polygon","coordinates":[[[122.212,-2.9005],[122.207,-2.8945],[122.2065,-2.8955],[122.2055,-2.896],[122.199,-2.8955],[122.1975,-2.8955],[122.197,-2.895],[122.194,-2.8955],[122.1915,-2.8955],[122.1905,-2.8955],[122.1825,-2.9115],[122.1585,-2.9055],[122.158,-2.906],[122.1585,-2.908],[122.1575,-2.913],[122.1565,-2.9155],[122.145,-2.931],[122.143,-2.9405],[122.1405,-2.943],[122.1335,-2.949],[122.129,-2.9505],[122.124,-2.9505],[122.0945,-2.986],[122.0695,-3.0245],[122.044,-3.073],[122.068,-3.082],[122.08,-3.092],[122.096,-3.0895],[122.096,-3.0725],[122.109,-3.027],[122.122,-3.0085],[122.131,-3.0035],[122.1315,-2.9925],[122.134,-2.9895],[122.146,-2.9815],[122.145,-2.974],[122.154,-2.961],[122.174,-2.959],[122.1755,-2.9495],[122.1965,-2.9235],[122.2055,-2.9175],[122.212,-2.9005]]]},"properties":{"code":"72.06.10.2002","name":"Padabahao","latitude":-2.9947698856125795,"longitude":122.11913535601418}},{"type":"Feature","geometry":{"type":"Polygon","coordinates":[[[122.207,-2.8945],[122.185,-2.874],[122.1855,-2.854],[122.192,-2.844],[122.1815,-2.8215],[122.1345,-2.897],[122.1325,-2.899],[122.1235,-2.9095],[122.107,-2.9165],[122.0955,-2.928],[122.093,-2.9515],[122.079,-2.962],[122.0535,-2.9855],[122.0365,-3.0095],[122.0195,-3.047],[122.0385,-3.0525],[122.039,-3.064],[122.044,-3.073],[122.0695,-3.0245],[122.0945,-2.986],[122.124,-2.9505],[122.129,-2.9505],[122.1335,-2.949],[122.1405,-2.943],[122.143,-2.9405],[122.145,-2.931],[122.1565,-2.9155],[122.1575,-2.913],[122.1585,-2.908],[122.158,-2.906],[122.1585,-2.9055],[122.153,-2.8925],[122.175,-2.884],[122.1825,-2.8855],[122.1905,-2.8955],[122.1915,-2.8955],[122.194,-2.8955],[122.197,-2.895],[122.1975,-2.8955],[122.199,-2.8955],[122.2055,-2.896],[122.2065,-2.8955],[122.207,-2.8945]]]},"properties":{"code":"72.06.10.2003","name":"Labota","latitude":-2.9498727869417722,"longitude":122.10788851339933}},{"type":"Feature","geometry":{"type":"Polygon","coordinates":[[[122.155,-2.8045],[122.1525,-2.8035],[122.151,-2.807],[122.1495,-2.8055],[122.1485,-2.8055],[122.1485,-2.8085],[122.1465,-2.841],[122.1435,-2.8465],[122.136,-2.8595],[122.133,-2.868],[122.124,-2.8745],[122.1225,-2.877],[122.1025,-2.9025],[122.073,-2.914],[122.05,-2.9275],[122.05,-2.953],[122.0265,-2.9745],[121.9965,-3.0085],[121.978,-3.0335],[121.9775,-3.041],[121.982,-3.048],[122.0025,-3.043],[122.0195,-3.047],[122.0365,-3.0095],[122.0535,-2.9855],[122.079,-2.962],[122.093,-2.9515],[122.0955,-2.928],[122.107,-2.9165],[122.1235,-2.9095],[122.1325,-2.899],[122.1345,-2.897],[122.1815,-2.8215],[122.168,-2.8215],[122.155,-2.8045]]]},"properties":{"code":"72.06.10.2004","name":"Fatufia","latitude":-2.9427995451157356,"longitude":122.07284835884779}},{"type":"Feature","geometry":{"type":"MultiPolygon","coordinates":[[[[122.091,-2.8735],[122.088,-2.874],[122.0875,-2.8735],[122.087,-2.8755],[122.0855,-2.876],[122.081,-2.8765],[122.0765,-2.877],[122.07,-2.8825],[122.0665,-2.8845],[122.0605,-2.88],[122.0585,-2.879],[122.0565,-2.8795],[122.056,-2.8805],[122.0525,-2.8835],[122.0485,-2.886],[122.0455,-2.8885],[122.0355,-2.8995],[122.0155,-2.907],[122.0125,-2.9135],[121.995,-2.928],[121.9955,-2.9295],[122.0005,-2.934],[122.0025,-2.934],[122.0055,-2.9335],[122.008,-2.933],[122.0065,-2.9385],[122.005,-2.94],[122.0035,-2.9405],[122.002,-2.939],[121.9985,-2.9395],[121.9955,-2.9395],[121.9805,-2.953],[121.9725,-2.958],[121.944,-2.973],[121.9195,-2.9885],[121.894,-3.01],[121.91,-3.015],[121.911,-3.0155],[121.9155,-3.015],[121.9165,-3.016],[121.92,-3.0235],[121.9375,-3.0275],[121.95,-3.047],[121.952,-3.0495],[121.9525,-3.051],[121.955,-3.05],[121.9625,-3.043],[121.9775,-3.041],[121.978,-3.0335],[121.9965,-3.0085],[122.0265,-2.9745],[122.05,-2.953],[122.05,-2.9275],[122.073,-2.914],[122.1025,-2.9025],[122.1225,-2.877],[122.124,-2.8745],[122.091,-2.8735]]],[[[122.155,-2.8045],[122.1395,-2.789],[122.126,-2.788],[122.124,-2.797],[122.122,-2.798],[122.117,-2.8015],[122.1175,-2.8025],[122.119,-2.803],[122.12,-2.805],[122.126,-2.806],[122.1425,-2.806],[122.1435,-2.806],[122.1445,-2.8065],[122.1455,-2.8065],[122.1465,-2.805],[122.1465,-2.8065],[122.1465,-2.807],[122.1485,-2.8055],[122.1495,-2.8055],[122.151,-2.807],[122.1525,-2.8035],[122.155,-2.8045]]]]},"properties":{"code":"72.06.10.2005","name":"Keurea","latitude":-2.9553021114076357,"longitude":122.00696806410751}},{"type":"Feature","geometry":{"type":"Polygon","coordinates":[[[122.126,-2.788],[122.0975,-2.7885],[122.0895,-2.801],[122.085,-2.8165],[122.074,-2.8195],[122.071,-2.83],[122.0545,-2.838],[122.047,-2.837],[122.0265,-2.8505],[122.003,-2.8605],[121.987,-2.8795],[121.978,-2.878],[121.968,-2.893],[121.9455,-2.8985],[121.925,-2.907],[121.9255,-2.9185],[121.9165,-2.931],[121.9025,-2.925],[121.899,-2.942],[121.884,-2.9375],[121.879,-2.9425],[121.867,-2.969],[121.8705,-2.972],[121.877,-2.996],[121.894,-3.01],[121.9195,-2.9885],[121.944,-2.973],[121.9725,-2.958],[121.9805,-2.953],[121.9955,-2.9395],[121.9985,-2.9395],[122.002,-2.939],[122.0035,-2.9405],[122.005,-2.94],[122.0065,-2.9385],[122.008,-2.933],[122.0055,-2.9335],[122.0025,-2.934],[122.0005,-2.934],[121.9955,-2.9295],[121.995,-2.928],[122.0125,-2.9135],[122.0155,-2.907],[122.0355,-2.8995],[122.0455,-2.8885],[122.0485,-2.886],[122.0525,-2.8835],[122.056,-2.8805],[122.0565,-2.8795],[122.0585,-2.879],[122.0605,-2.88],[122.0665,-2.8845],[122.07,-2.8825],[122.0765,-2.877],[122.081,-2.8765],[122.0855,-2.876],[122.087,-2.8755],[122.0875,-2.8735],[122.088,-2.874],[122.0915,-2.873],[122.1035,-2.8585],[122.1065,-2.8475],[122.119,-2.8295],[122.1075,-2.826],[122.1035,-2.813],[122.117,-2.8015],[122.122,-2.798],[122.124,-2.797],[122.126,-2.788]]]},"properties":{"code":"72.06.10.2006","name":"Bahodopi","latitude":-2.9056970286145383,"longitude":121.98893954583211}},{"type":"Feature","geometry":{"type":"Polygon","coordinates":[[[122.0975,-2.7885],[122.0875,-2.79],[122.072,-2.7705],[122.068,-2.7715],[122.068,-2.772],[122.058,-2.7815],[122.049,-2.806],[122.044,-2.813],[122.0215,-2.8205],[122.0025,-2.8455],[121.9915,-2.843],[121.986,-2.8505],[121.9545,-2.8615],[121.9335,-2.866],[121.9305,-2.8775],[121.9195,-2.874],[121.9045,-2.877],[121.8855,-2.887],[121.8815,-2.897],[121.865,-2.898],[121.8425,-2.9095],[121.8335,-2.921],[121.81,-2.928],[121.799,-2.949],[121.8,-2.9505],[121.802,-2.951],[121.809,-2.9555],[121.811,-2.9565],[121.812,-2.957],[121.816,-2.958],[121.826,-2.97],[121.842,-2.972],[121.858,-2.965],[121.8605,-2.9655],[121.862,-2.967],[121.867,-2.969],[121.879,-2.9425],[121.884,-2.9375],[121.899,-2.942],[121.9025,-2.925],[121.9165,-2.931],[121.9255,-2.9185],[121.925,-2.907],[121.9455,-2.8985],[121.968,-2.893],[121.978,-2.878],[121.987,-2.8795],[122.003,-2.8605],[122.0265,-2.8505],[122.047,-2.837],[122.0545,-2.838],[122.071,-2.83],[122.074,-2.8195],[122.085,-2.8165],[122.0895,-2.801],[122.0975,-2.7885]]]},"properties":{"code":"72.06.10.2007","name":"Lalampu","latitude":-2.886401713703785,"longitude":121.93557867463245}},{"type":"Feature","geometry":{"type":"Polygon","coordinates":[[[122.072,-2.7705],[122.0645,-2.764],[122.06,-2.75],[122.0305,-2.7635],[122.025,-2.7775],[122.017,-2.779],[121.998,-2.805],[121.9725,-2.808],[121.963,-2.818],[121.957,-2.814],[121.946,-2.821],[121.933,-2.839],[121.911,-2.8385],[121.876,-2.8515],[121.873,-2.8625],[121.8465,-2.869],[121.829,-2.8775],[121.8095,-2.8925],[121.792,-2.895],[121.786,-2.9105],[121.765,-2.9115],[121.7535,-2.9175],[121.7435,-2.921],[121.738,-2.924],[121.7365,-2.924],[121.737,-2.925],[121.752,-2.9235],[121.7665,-2.9325],[121.779,-2.9465],[121.78,-2.9465],[121.789,-2.945],[121.7925,-2.9455],[121.796,-2.947],[121.799,-2.949],[121.81,-2.928],[121.8335,-2.921],[121.8425,-2.9095],[121.865,-2.898],[121.8815,-2.897],[121.8855,-2.887],[121.9045,-2.877],[121.9195,-2.874],[121.9305,-2.8775],[121.9335,-2.866],[121.9545,-2.8615],[121.986,-2.8505],[121.9915,-2.843],[122.0025,-2.8455],[122.0215,-2.8205],[122.044,-2.813],[122.049,-2.806],[122.058,-2.7815],[122.068,-2.772],[122.068,-2.7715],[122.072,-2.7705]]]},"properties":{"code":"72.06.10.2008","name":"Siumbatu","latitude":-2.8556954657148412,"longitude":121.91614158096208}},{"type":"Feature","geometry":{"type":"Polygon","coordinates":[[[122.06,-2.75],[122.0445,-2.7395],[122.028,-2.7595],[122.0205,-2.762],[122.002,-2.7825],[121.9875,-2.7865],[121.971,-2.797],[121.935,-2.8075],[121.9165,-2.806],[121.906,-2.823],[121.884,-2.8225],[121.873,-2.834],[121.854,-2.839],[121.844,-2.8485],[121.8285,-2.842],[121.821,-2.8505],[121.8015,-2.8635],[121.792,-2.8615],[121.7675,-2.881],[121.7595,-2.8785],[121.742,-2.882],[121.713,-2.861],[121.7105,-2.8505],[121.682,-2.8415],[121.667,-2.8465],[121.661,-2.8435],[121.659,-2.8445],[121.653,-2.846],[121.651,-2.8465],[121.6525,-2.8505],[121.6575,-2.854],[121.659,-2.8555],[121.659,-2.8595],[121.66,-2.861],[121.6685,-2.8655],[121.669,-2.8685],[121.6695,-2.869],[121.671,-2.871],[121.6835,-2.8665],[121.6855,-2.8655],[121.689,-2.8865],[121.6885,-2.889],[121.67,-2.9005],[121.6825,-2.9025],[121.69,-2.9175],[121.707,-2.92],[121.7035,-2.899],[121.72,-2.8865],[121.732,-2.897],[121.7345,-2.909],[121.7305,-2.919],[121.735,-2.9215],[121.7365,-2.924],[121.738,-2.924],[121.7435,-2.921],[121.7535,-2.9175],[121.765,-2.9115],[121.786,-2.9105],[121.792,-2.895],[121.8095,-2.8925],[121.829,-2.8775],[121.8465,-2.869],[121.873,-2.8625],[121.876,-2.8515],[121.911,-2.8385],[121.933,-2.839],[121.946,-2.821],[121.957,-2.814],[121.963,-2.818],[121.9725,-2.808],[121.998,-2.805],[122.017,-2.779],[122.025,-2.7775],[122.0305,-2.7635],[122.06,-2.75]]]},"properties":{"code":"72.06.10.2009","name":"Dampala","latitude":-2.855259565096683,"longitude":121.82054091493673}},{"type":"Feature","geometry":{"type":"Polygon","coordinates":[[[122.041,-2.736],[122.036,-2.7355],[122.0185,-2.754],[122.0135,-2.752],[121.993,-2.77],[121.9795,-2.7685],[121.9505,-2.7825],[121.932,-2.776],[121.92,-2.7905],[121.907,-2.7975],[121.9,-2.7965],[121.8765,-2.8025],[121.853,-2.798],[121.8395,-2.8025],[121.831,-2.7985],[121.8035,-2.799],[121.797,-2.804],[121.7745,-2.804],[121.7695,-2.807],[121.741,-2.803],[121.7215,-2.7975],[121.7155,-2.799],[121.712,-2.793],[121.707,-2.8075],[121.684,-2.8205],[121.6775,-2.8205],[121.6745,-2.8235],[121.676,-2.8275],[121.675,-2.831],[121.6745,-2.833],[121.674,-2.836],[121.6645,-2.8435],[121.661,-2.8435],[121.667,-2.8465],[121.682,-2.8415],[121.7105,-2.8505],[121.713,-2.861],[121.742,-2.882],[121.7595,-2.8785],[121.7675,-2.881],[121.792,-2.8615],[121.8015,-2.8635],[121.821,-2.8505],[121.8285,-2.842],[121.844,-2.8485],[121.854,-2.839],[121.873,-2.834],[121.884,-2.8225],[121.906,-2.823],[121.9165,-2.806],[121.935,-2.8075],[121.971,-2.797],[121.9875,-2.7865],[122.002,-2.7825],[122.0205,-2.762],[122.028,-2.7595],[122.0445,-2.7395],[122.041,-2.736]]]},"properties":{"code":"72.06.10.2010","name":"Le-Le","latitude":-2.8218868280774725,"longitude":121.8161039178116}},{"type":"Feature","geometry":{"type":"Polygon","coordinates":[[[122.117,-2.8015],[122.1035,-2.813],[122.1075,-2.826],[122.119,-2.8295],[122.1065,-2.8475],[122.1035,-2.8585],[122.0915,-2.873],[122.091,-2.8735],[122.124,-2.8745],[122.133,-2.868],[122.136,-2.8595],[122.1435,-2.8465],[122.1465,-2.841],[122.1485,-2.8085],[122.1465,-2.807],[122.1465,-2.8065],[122.1465,-2.805],[122.1455,-2.8065],[122.1445,-2.8065],[122.1435,-2.806],[122.1425,-2.806],[122.126,-2.806],[122.12,-2.805],[122.119,-2.803],[122.1175,-2.8025],[122.117,-2.8015]]]},"properties":{"code":"72.06.10.2011","name":"Baho Makmur","latitude":-2.8386126135779586,"longitude":122.12401501818022}},{"type":"Feature","geometry":{"type":"Polygon","coordinates":[[[122.1905,-2.8955],[122.1825,-2.8855],[122.175,-2.884],[122.153,-2.8925],[122.1585,-2.9055],[122.1825,-2.9115],[122.1905,-2.8955]]]},"properties":{"code":"72.06.10.2012","name":"Makartijaya","latitude":-2.897797053806628,"longitude":122.17307372547315}},{"type":"Feature","geometry":{"type":"Polygon","coordinates":[[[121.6445,-2.188],[121.6185,-2.1845],[121.615,-2.1875],[121.6155,-2.188],[121.6165,-2.1895],[121.618,-2.191],[121.62,-2.1925],[121.619,-2.215],[121.6215,-2.2165],[121.6255,-2.2225],[121.651,-2.23],[121.6515,-2.2275],[121.652,-2.226],[121.642,-2.22],[121.643,-2.2045],[121.6425,-2.2045],[121.6415,-2.2015],[121.643,-2.201],[121.64,-2.1925],[121.639,-2.1905],[121.6395,-2.1905],[121.641,-2.1905],[121.642,-2.1905],[121.6445,-2.188]]]},"properties":{"code":"72.06.12.2001","name":"Sampeantaba","latitude":-2.204717358450854,"longitude":121.63234617414915}},{"type":"Feature","geometry":{"type":"Polygon","coordinates":[[[121.62,-2.1925],[121.6155,-2.191],[121.615,-2.1895],[121.612,-2.1895],[121.606,-2.191],[121.604,-2.1915],[121.6025,-2.196],[121.603,-2.1975],[121.6025,-2.1985],[121.6025,-2.2],[121.603,-2.2],[121.603,-2.2005],[121.6025,-2.201],[121.603,-2.202],[121.607,-2.2125],[121.593,-2.2125],[121.5915,-2.224],[121.599,-2.2345],[121.593,-2.2475],[121.593,-2.25],[121.593,-2.2505],[121.593,-2.2525],[121.592,-2.2535],[121.5925,-2.2545],[121.5995,-2.255],[121.6015,-2.238],[121.599,-2.2235],[121.617,-2.2265],[121.618,-2.22],[121.62,-2.2205],[121.6205,-2.216],[121.619,-2.215],[121.62,-2.1925]]]},"properties":{"code":"72.06.12.2002","name":"Emea","latitude":-2.2157271083163144,"longitude":121.60672497541485}},{"type":"Feature","geometry":{"type":"Polygon","coordinates":[[[121.615,-2.1875],[121.592,-2.1795],[121.584,-2.1795],[121.582,-2.181],[121.5825,-2.1825],[121.587,-2.183],[121.5875,-2.184],[121.5875,-2.212],[121.5925,-2.214],[121.593,-2.2125],[121.607,-2.2125],[121.603,-2.202],[121.6025,-2.201],[121.603,-2.2005],[121.603,-2.2],[121.6025,-2.2],[121.6025,-2.1985],[121.603,-2.1975],[121.6025,-2.196],[121.604,-2.1915],[121.606,-2.191],[121.612,-2.1895],[121.615,-2.1895],[121.6155,-2.191],[121.618,-2.191],[121.6165,-2.1895],[121.6155,-2.188],[121.615,-2.1875]]]},"properties":{"code":"72.06.12.2006","name":"Moahino","latitude":-2.1962141831619006,"longitude":121.59690691178892}},{"type":"Feature","geometry":{"type":"Polygon","coordinates":[[[121.57,-2.176],[121.551,-2.168],[121.544,-2.1495],[121.534,-2.153],[121.497,-2.178],[121.486,-2.1785],[121.4785,-2.201],[121.4915,-2.208],[121.4855,-2.2205],[121.493,-2.252],[121.479,-2.262],[121.4795,-2.274],[121.4745,-2.29],[121.4675,-2.293],[121.467,-2.294],[121.4645,-2.295],[121.4595,-2.304],[121.467,-2.3095],[121.4665,-2.3125],[121.467,-2.314],[121.4665,-2.3155],[121.462,-2.3175],[121.46,-2.322],[121.4595,-2.323],[121.4605,-2.3285],[121.461,-2.3315],[121.484,-2.317],[121.5,-2.302],[121.5175,-2.297],[121.523,-2.2855],[121.531,-2.282],[121.5455,-2.2575],[121.5465,-2.257],[121.547,-2.257],[121.547,-2.256],[121.5435,-2.2475],[121.5425,-2.2455],[121.534,-2.239],[121.534,-2.236],[121.5385,-2.2325],[121.5395,-2.2275],[121.544,-2.215],[121.547,-2.2175],[121.5485,-2.219],[121.549,-2.2155],[121.5465,-2.208],[121.5375,-2.196],[121.542,-2.192],[121.5505,-2.2035],[121.569,-2.1795],[121.568,-2.1785],[121.5695,-2.1765],[121.57,-2.176]]]},"properties":{"code":"72.06.12.2007","name":"Solonsa","latitude":-2.2340123365209403,"longitude":121.51245796770002}},{"type":"Feature","geometry":{"type":"Polygon","coordinates":[[[121.6475,-2.229],[121.6255,-2.2225],[121.6215,-2.2165],[121.6205,-2.216],[121.62,-2.2205],[121.618,-2.22],[121.617,-2.2265],[121.6135,-2.2565],[121.62,-2.2575],[121.6205,-2.2575],[121.637,-2.26],[121.642,-2.242],[121.6475,-2.229]]]},"properties":{"code":"72.06.12.2008","name":"Lantula Jaya","latitude":-2.239896597855373,"longitude":121.62846989334184}},{"type":"Feature","geometry":{"type":"Polygon","coordinates":[[[121.651,-2.23],[121.6475,-2.229],[121.642,-2.242],[121.637,-2.26],[121.646,-2.2615],[121.6615,-2.263],[121.663,-2.261],[121.6765,-2.2535],[121.67,-2.246],[121.651,-2.23]]]},"properties":{"code":"72.06.12.2009","name":"Puntari Makmur","latitude":-2.2510136784091195,"longitude":121.65527341977051}},{"type":"Feature","geometry":{"type":"Polygon","coordinates":[[[121.617,-2.2265],[121.599,-2.2235],[121.6015,-2.238],[121.5995,-2.255],[121.5925,-2.2545],[121.5925,-2.256],[121.592,-2.276],[121.5805,-2.297],[121.571,-2.302],[121.5425,-2.3385],[121.535,-2.3415],[121.5165,-2.35],[121.5055,-2.3685],[121.4915,-2.375],[121.4815,-2.3885],[121.4645,-2.393],[121.4485,-2.401],[121.4455,-2.4025],[121.442,-2.405],[121.451,-2.418],[121.469,-2.4155],[121.4975,-2.4465],[121.5215,-2.461],[121.548,-2.4755],[121.567,-2.446],[121.5775,-2.424],[121.584,-2.388],[121.608,-2.38],[121.614,-2.3735],[121.614,-2.3595],[121.615,-2.358],[121.598,-2.3405],[121.5965,-2.317],[121.5925,-2.3055],[121.593,-2.3015],[121.593,-2.301],[121.5945,-2.299],[121.5955,-2.2915],[121.5955,-2.2895],[121.6,-2.287],[121.601,-2.2865],[121.606,-2.2875],[121.607,-2.288],[121.607,-2.2875],[121.609,-2.285],[121.6095,-2.283],[121.618,-2.274],[121.62,-2.2575],[121.6135,-2.2565],[121.617,-2.2265]]]},"properties":{"code":"72.06.12.2010","name":"Bumi Harapan","latitude":-2.378325826970378,"longitude":121.54680241923407}},{"type":"Feature","geometry":{"type":"Polygon","coordinates":[[[121.5505,-2.2035],[121.542,-2.192],[121.5375,-2.196],[121.5465,-2.208],[121.5505,-2.2035]]]},"properties":{"code":"72.06.12.2011","name":"Solonsa Jaya","latitude":-2.2002016222169,"longitude":121.54422147652123}},{"type":"Feature","geometry":{"type":"Polygon","coordinates":[[[121.584,-2.1795],[121.57,-2.176],[121.5695,-2.1765],[121.568,-2.1785],[121.569,-2.1795],[121.5505,-2.2035],[121.5465,-2.208],[121.549,-2.2155],[121.5485,-2.219],[121.547,-2.2175],[121.544,-2.215],[121.5395,-2.2275],[121.5385,-2.2325],[121.534,-2.236],[121.534,-2.239],[121.5425,-2.2455],[121.5435,-2.2475],[121.547,-2.256],[121.547,-2.257],[121.5465,-2.257],[121.5455,-2.2575],[121.531,-2.282],[121.523,-2.2855],[121.5175,-2.297],[121.5,-2.302],[121.484,-2.317],[121.461,-2.3315],[121.4595,-2.334],[121.456,-2.3655],[121.45,-2.3695],[121.448,-2.389],[121.4425,-2.398],[121.4425,-2.404],[121.442,-2.405],[121.4455,-2.4025],[121.4485,-2.401],[121.4645,-2.393],[121.4815,-2.3885],[121.4915,-2.375],[121.5055,-2.3685],[121.5165,-2.35],[121.535,-2.3415],[121.5425,-2.3385],[121.571,-2.302],[121.5805,-2.297],[121.592,-2.276],[121.5925,-2.256],[121.592,-2.2535],[121.593,-2.2525],[121.593,-2.2505],[121.593,-2.25],[121.593,-2.2475],[121.599,-2.2345],[121.5915,-2.224],[121.5925,-2.214],[121.5875,-2.212],[121.5875,-2.184],[121.587,-2.183],[121.5825,-2.1825],[121.582,-2.181],[121.584,-2.1795]]]},"properties":{"code":"72.06.12.2012","name":"Ungkaya","latitude":-2.2946349928744016,"longitude":121.53169040411538}},{"type":"Feature","geometry":{"type":"Polygon","coordinates":[[[122.3155,-2.915],[122.3035,-2.9005],[122.278,-2.8865],[122.254,-2.888],[122.2455,-2.8795],[122.227,-2.8895],[122.219,-2.9025],[122.2165,-2.904],[122.2155,-2.906],[122.214,-2.9165],[122.22,-2.924],[122.221,-2.927],[122.2125,-2.948],[122.202,-2.9565],[122.1965,-2.958],[122.192,-2.959],[122.1885,-2.962],[122.1885,-2.965],[122.184,-2.978],[122.175,-2.9825],[122.174,-2.9925],[122.1615,-3.0045],[122.1615,-3.029],[122.1505,-3.0395],[122.158,-3.043],[122.172,-3.0215],[122.1765,-3.0025],[122.1895,-2.9935],[122.202,-2.9755],[122.215,-2.9685],[122.2195,-2.9625],[122.23,-2.9605],[122.2295,-2.958],[122.23,-2.9575],[122.2485,-2.9375],[122.2505,-2.937],[122.2545,-2.9375],[122.2835,-2.9225],[122.3155,-2.915]]]},"properties":{"code":"72.06.15.2001","name":"Puungkeu","latitude":-2.9324477660614017,"longitude":122.23762718930703}},{"type":"Feature","geometry":{"type":"Polygon","coordinates":[[[122.295,-2.9705],[122.307,-2.957],[122.308,-2.9465],[122.3195,-2.926],[122.3155,-2.915],[122.2835,-2.9225],[122.2545,-2.9375],[122.2505,-2.937],[122.2485,-2.9375],[122.23,-2.9575],[122.2295,-2.958],[122.2315,-2.9605],[122.232,-2.9605],[122.2375,-2.9595],[122.2505,-2.9525],[122.253,-2.9525],[122.26,-2.955],[122.295,-2.9705]]]},"properties":{"code":"72.06.15.2002","name":"Tangofa","latitude":-2.942811714042041,"longitude":122.28257334995736}},{"type":"Feature","geometry":{"type":"Polygon","coordinates":[[[122.295,-2.9705],[122.26,-2.955],[122.253,-2.9525],[122.2505,-2.9525],[122.2375,-2.9595],[122.232,-2.9605],[122.2315,-2.9605],[122.2295,-2.958],[122.23,-2.9605],[122.2195,-2.9625],[122.2175,-2.965],[122.225,-2.9685],[122.2645,-2.9655],[122.274,-2.975],[122.2885,-2.9785],[122.295,-2.9705]]]},"properties":{"code":"72.06.15.2003","name":"One Ete","latitude":-2.96457246587608,"longitude":122.25927243825267}},{"type":"Feature","geometry":{"type":"Polygon","coordinates":[[[122.2805,-2.988],[122.2885,-2.9785],[122.274,-2.975],[122.2645,-2.9655],[122.225,-2.9685],[122.2175,-2.965],[122.215,-2.9685],[122.202,-2.9755],[122.1895,-2.9935],[122.1765,-3.0025],[122.172,-3.0215],[122.158,-3.043],[122.161,-3.0445],[122.172,-3.03],[122.187,-3.024],[122.1945,-3.0035],[122.204,-2.9895],[122.221,-2.9825],[122.233,-2.9845],[122.2515,-2.9745],[122.2625,-2.977],[122.272,-2.985],[122.2805,-2.988]]]},"properties":{"code":"72.06.15.2004","name":"Tandaoleo","latitude":-2.9897107213098626,"longitude":122.21783046389362}},{"type":"Feature","geometry":{"type":"Polygon","coordinates":[[[122.2805,-2.988],[122.272,-2.985],[122.2625,-2.977],[122.2515,-2.9745],[122.233,-2.9845],[122.221,-2.9825],[122.204,-2.9895],[122.1945,-3.0035],[122.187,-3.024],[122.172,-3.03],[122.161,-3.0445],[122.168,-3.0485],[122.1715,-3.0515],[122.172,-3.05],[122.1725,-3.047],[122.176,-3.047],[122.1795,-3.041],[122.187,-3.039],[122.191,-3.0345],[122.202,-3.0235],[122.211,-3.0085],[122.2115,-3.0085],[122.219,-2.998],[122.231,-2.9955],[122.234,-2.9955],[122.251,-3],[122.254,-3.011],[122.2675,-3.0005],[122.279,-2.999],[122.2805,-2.988]]]},"properties":{"code":"72.06.15.2005","name":"Lafeu","latitude":-3.0036646461875796,"longitude":122.22344750677155}},{"type":"Feature","geometry":{"type":"Polygon","coordinates":[[[122.254,-3.011],[122.251,-3],[122.234,-2.9955],[122.231,-2.9955],[122.219,-2.998],[122.2115,-3.0085],[122.2135,-3.0115],[122.2245,-3.0085],[122.226,-3.008],[122.2305,-3.011],[122.232,-3.012],[122.235,-3.0195],[122.24,-3.022],[122.241,-3.0225],[122.2425,-3.022],[122.2505,-3.022],[122.254,-3.011]]]},"properties":{"code":"72.06.15.2006","name":"Torete","latitude":-3.00724919847758,"longitude":122.2357335571616}},{"type":"Feature","geometry":{"type":"Polygon","coordinates":[[[122.2505,-3.022],[122.2425,-3.022],[122.241,-3.0225],[122.24,-3.022],[122.235,-3.0195],[122.232,-3.012],[122.2305,-3.011],[122.226,-3.008],[122.2245,-3.0085],[122.2135,-3.0115],[122.211,-3.0085],[122.202,-3.0235],[122.191,-3.0345],[122.187,-3.039],[122.1795,-3.041],[122.176,-3.047],[122.1725,-3.047],[122.172,-3.05],[122.1715,-3.0515],[122.1825,-3.06],[122.1945,-3.0755],[122.193,-3.084],[122.2085,-3.0955],[122.209,-3.0955],[122.2095,-3.0945],[122.21,-3.0945],[122.212,-3.0945],[122.2145,-3.093],[122.216,-3.0905],[122.2175,-3.088],[122.216,-3.087],[122.219,-3.0725],[122.2385,-3.0675],[122.2455,-3.047],[122.2565,-3.031],[122.2505,-3.022]]]},"properties":{"code":"72.06.15.2007","name":"Buleleng","latitude":-3.0478264603790306,"longitude":122.21462989617265}},{"type":"Feature","geometry":{"type":"Polygon","coordinates":[[[122.2565,-3.031],[122.2455,-3.047],[122.2385,-3.0675],[122.219,-3.0725],[122.216,-3.087],[122.2175,-3.088],[122.216,-3.0905],[122.2145,-3.093],[122.212,-3.0945],[122.21,-3.0945],[122.2095,-3.0945],[122.209,-3.0955],[122.2095,-3.096],[122.225,-3.102],[122.244,-3.0925],[122.261,-3.1005],[122.2645,-3.101],[122.2675,-3.1005],[122.2735,-3.101],[122.286,-3.0965],[122.288,-3.0945],[122.2885,-3.0935],[122.2905,-3.091],[122.294,-3.076],[122.296,-3.0725],[122.307,-3.0645],[122.2935,-3.0545],[122.275,-3.0495],[122.2565,-3.031]]]},"properties":{"code":"72.06.15.2008","name":"Laroenai","latitude":-3.0733742983135226,"longitude":122.25950129789008}},{"type":"Feature","geometry":{"type":"Polygon","coordinates":[[[122.3385,-3.093],[122.3355,-3.0865],[122.3195,-3.0785],[122.307,-3.0645],[122.296,-3.0725],[122.294,-3.076],[122.2905,-3.091],[122.2885,-3.0935],[122.288,-3.0945],[122.286,-3.0965],[122.2735,-3.101],[122.2675,-3.1005],[122.2645,-3.101],[122.265,-3.101],[122.2605,-3.108],[122.258,-3.112],[122.2535,-3.124],[122.253,-3.131],[122.2565,-3.1405],[122.274,-3.1465],[122.282,-3.1455],[122.3025,-3.159],[122.3035,-3.147],[122.305,-3.1445],[122.3265,-3.1425],[122.3295,-3.1395],[122.3295,-3.1385],[122.328,-3.137],[122.33,-3.1295],[122.3395,-3.111],[122.334,-3.1065],[122.3385,-3.093]]]},"properties":{"code":"72.06.15.2009","name":"Sambalagi","latitude":-3.114666631481813,"longitude":122.29866947244007}},{"type":"Feature","geometry":{"type":"Polygon","coordinates":[[[122.3385,-3.093],[122.334,-3.1065],[122.3395,-3.111],[122.33,-3.1295],[122.328,-3.137],[122.3295,-3.1385],[122.3295,-3.1395],[122.3265,-3.1425],[122.305,-3.1445],[122.3035,-3.147],[122.3025,-3.159],[122.303,-3.1595],[122.315,-3.166],[122.338,-3.1685],[122.3435,-3.1595],[122.3435,-3.1585],[122.346,-3.154],[122.3505,-3.152],[122.3625,-3.137],[122.366,-3.1325],[122.354,-3.1205],[122.3495,-3.104],[122.3385,-3.093]]]},"properties":{"code":"72.06.15.2010","name":"Were'a","latitude":-3.1389760356592937,"longitude":122.33669529135351}},{"type":"Feature","geometry":{"type":"Polygon","coordinates":[[[122.0025,-2.7225],[121.991,-2.7295],[121.984,-2.7435],[121.986,-2.751],[122.0105,-2.7505],[122.0225,-2.739],[122.0125,-2.723],[122.0025,-2.7225]]]},"properties":{"code":"72.06.18.2001","name":"Oneputeh Jaya","latitude":-2.737422071193656,"longitude":122.00331960083247}},{"type":"Feature","geometry":{"type":"Polygon","coordinates":[[[122.007,-2.7105],[121.9905,-2.7075],[121.978,-2.7095],[121.9915,-2.723],[121.98,-2.736],[121.975,-2.738],[121.9575,-2.732],[121.951,-2.7425],[121.9425,-2.7395],[121.929,-2.7435],[121.923,-2.7395],[121.89,-2.755],[121.882,-2.7625],[121.8495,-2.771],[121.825,-2.765],[121.8075,-2.765],[121.7925,-2.766],[121.77,-2.758],[121.755,-2.7375],[121.747,-2.735],[121.7415,-2.7365],[121.737,-2.7355],[121.736,-2.737],[121.7155,-2.7535],[121.717,-2.777],[121.712,-2.793],[121.7155,-2.799],[121.7215,-2.7975],[121.741,-2.803],[121.7695,-2.807],[121.7745,-2.804],[121.797,-2.804],[121.8035,-2.799],[121.831,-2.7985],[121.8395,-2.8025],[121.853,-2.798],[121.8765,-2.8025],[121.9,-2.7965],[121.907,-2.7975],[121.92,-2.7905],[121.932,-2.776],[121.9505,-2.7825],[121.9795,-2.7685],[121.993,-2.77],[122.0135,-2.752],[122.0185,-2.754],[122.036,-2.7355],[122.041,-2.736],[122.0285,-2.7245],[122.0105,-2.7195],[122.007,-2.7105]],[[122.0025,-2.7225],[122.0125,-2.723],[122.0225,-2.739],[122.0105,-2.7505],[121.986,-2.751],[121.984,-2.7435],[121.991,-2.7295],[122.0025,-2.7225]]]},"properties":{"code":"72.06.18.2002","name":"Bahomotefe","latitude":-2.769821974792642,"longitude":121.85648885669158}},{"type":"Feature","geometry":{"type":"Polygon","coordinates":[[[122.007,-2.7105],[122.0065,-2.695],[121.978,-2.697],[121.9705,-2.7],[121.8465,-2.723],[121.837,-2.742],[121.8075,-2.765],[121.825,-2.765],[121.8495,-2.771],[121.882,-2.7625],[121.89,-2.755],[121.923,-2.7395],[121.929,-2.7435],[121.9425,-2.7395],[121.951,-2.7425],[121.9575,-2.732],[121.975,-2.738],[121.98,-2.736],[121.9915,-2.723],[121.978,-2.7095],[121.9905,-2.7075],[122.007,-2.7105]]]},"properties":{"code":"72.06.18.2003","name":"Bahomoahi","latitude":-2.732188554485636,"longitude":121.90672988018503}},{"type":"Feature","geometry":{"type":"Polygon","coordinates":[[[121.9785,-2.6815],[121.962,-2.678],[121.951,-2.6865],[121.934,-2.6925],[121.9215,-2.701],[121.8655,-2.7015],[121.8565,-2.706],[121.843,-2.706],[121.8285,-2.7005],[121.8185,-2.701],[121.7965,-2.7095],[121.7795,-2.722],[121.7675,-2.7255],[121.7475,-2.718],[121.737,-2.7355],[121.7415,-2.7365],[121.747,-2.735],[121.755,-2.7375],[121.77,-2.758],[121.7925,-2.766],[121.8075,-2.765],[121.837,-2.742],[121.8465,-2.723],[121.9705,-2.7],[121.978,-2.697],[121.9785,-2.6815]]]},"properties":{"code":"72.06.18.2004","name":"Ululere","latitude":-2.723231073429308,"longitude":121.83730355932141}},{"type":"Feature","geometry":{"type":"Polygon","coordinates":[[[122.01,-2.675],[122.007,-2.667],[121.9845,-2.6775],[121.9785,-2.6815],[121.978,-2.697],[122.0065,-2.695],[122.01,-2.675]]]},"properties":{"code":"72.06.18.2005","name":"Kolono","latitude":-2.684296810368113,"longitude":121.99424166562957}},{"type":"Feature","geometry":{"type":"Polygon","coordinates":[[[122.01,-2.675],[122.02,-2.669],[122.0315,-2.674],[122.0355,-2.66],[122.02,-2.6605],[122.007,-2.665],[121.997,-2.662],[121.986,-2.666],[122.007,-2.667],[122.01,-2.675]]]},"properties":{"code":"72.06.18.2006","name":"Geresa","latitude":-2.6661984270756447,"longitude":122.01922917819492}},{"type":"Feature","geometry":{"type":"MultiPolygon","coordinates":[[[[121.9845,-2.6775],[122.007,-2.667],[121.986,-2.666],[121.962,-2.678],[121.9785,-2.6815],[121.9845,-2.6775]]],[[[122.0355,-2.66],[122.0245,-2.646],[122.017,-2.647],[121.997,-2.662],[122.007,-2.665],[122.02,-2.6605],[122.0355,-2.66]]]]},"properties":{"code":"72.06.18.2007","name":"Laroue","latitude":-2.662829676531021,"longitude":122.00364851955763}},{"type":"Feature","geometry":{"type":"Polygon","coordinates":[[[122.0125,-2.64],[122,-2.6375],[121.9895,-2.651],[121.968,-2.6655],[121.962,-2.678],[121.986,-2.666],[121.997,-2.662],[122.017,-2.647],[122.0125,-2.64]]]},"properties":{"code":"72.06.18.2008","name":"Nambo","latitude":-2.6557085370808546,"longitude":121.9912132677304}},{"type":"Feature","geometry":{"type":"Polygon","coordinates":[[[122.0125,-2.64],[122.002,-2.619],[121.991,-2.6365],[121.9805,-2.6435],[121.966,-2.662],[121.9465,-2.681],[121.9385,-2.6825],[121.937,-2.683],[121.9315,-2.6865],[121.914,-2.687],[121.909,-2.687],[121.909,-2.689],[121.869,-2.692],[121.8575,-2.6945],[121.8395,-2.6915],[121.8285,-2.7005],[121.843,-2.706],[121.8565,-2.706],[121.8655,-2.7015],[121.9215,-2.701],[121.934,-2.6925],[121.951,-2.6865],[121.962,-2.678],[121.968,-2.6655],[121.9895,-2.651],[122,-2.6375],[122.0125,-2.64]]]},"properties":{"code":"72.06.18.2009","name":"Unsongi","latitude":-2.679703718970628,"longitude":121.92209259741432}},{"type":"Feature","geometry":{"type":"Polygon","coordinates":[[[122.002,-2.619],[121.993,-2.607],[121.992,-2.6075],[121.977,-2.625],[121.969,-2.6405],[121.9415,-2.667],[121.911,-2.6745],[121.907,-2.6725],[121.876,-2.679],[121.871,-2.6785],[121.8675,-2.677],[121.863,-2.6735],[121.862,-2.6735],[121.858,-2.6685],[121.8565,-2.6645],[121.8445,-2.6835],[121.8395,-2.6915],[121.8575,-2.6945],[121.869,-2.692],[121.909,-2.689],[121.909,-2.687],[121.914,-2.687],[121.9315,-2.6865],[121.937,-2.683],[121.9385,-2.6825],[121.9465,-2.681],[121.966,-2.662],[121.9805,-2.6435],[121.991,-2.6365],[122.002,-2.619]]]},"properties":{"code":"72.06.18.2010","name":"Lahuafu","latitude":-2.666040285804801,"longitude":121.9244544105231}},{"type":"Feature","geometry":{"type":"Polygon","coordinates":[[[122.464,-3.19],[122.4865,-3.1795],[122.4735,-3.1685],[122.463,-3.1775],[122.4615,-3.1775],[122.464,-3.19]]]},"properties":{"code":"72.06.20.2001","name":"Tanjung Harapan","latitude":-3.1800356599699375,"longitude":122.47324701868479}},{"type":"Feature","geometry":{"type":"Polygon","coordinates":[[[121.9705,-2.5425],[121.968,-2.532],[121.9645,-2.5355],[121.964,-2.5425],[121.9695,-2.543],[121.9705,-2.5425]]]},"properties":{"code":"72.06.20.2002","name":"Matano","latitude":-2.538827413597063,"longitude":121.96714555145574}},{"type":"Feature","geometry":{"type":"Polygon","coordinates":[[[122.4735,-3.1685],[122.4615,-3.163],[122.453,-3.1645],[122.4455,-3.1535],[122.444,-3.153],[122.435,-3.1545],[122.4265,-3.166],[122.436,-3.1785],[122.4485,-3.179],[122.4545,-3.178],[122.46,-3.177],[122.463,-3.1775],[122.4735,-3.1685]]]},"properties":{"code":"72.06.20.2003","name":"Tanona","latitude":-3.167040854800473,"longitude":122.44970446819377}},{"type":"Feature","geometry":{"type":"Polygon","coordinates":[[[122.4615,-3.1775],[122.46,-3.177],[122.4545,-3.178],[122.4485,-3.179],[122.436,-3.1785],[122.4265,-3.166],[122.422,-3.1755],[122.396,-3.181],[122.3965,-3.194],[122.41,-3.1945],[122.416,-3.189],[122.4195,-3.189],[122.425,-3.191],[122.4275,-3.191],[122.4285,-3.193],[122.4375,-3.1885],[122.464,-3.19],[122.4615,-3.1775]]]},"properties":{"code":"72.06.20.2004","name":"Tanjung Tiram","latitude":-3.183826197238031,"longitude":122.42700125692181}},{"type":"Feature","geometry":{"type":"Polygon","coordinates":[[[122.396,-3.181],[122.381,-3.172],[122.368,-3.17],[122.347,-3.1615],[122.3435,-3.1595],[122.338,-3.1685],[122.315,-3.166],[122.3185,-3.174],[122.312,-3.19],[122.3145,-3.196],[122.3165,-3.203],[122.3015,-3.2115],[122.31,-3.2225],[122.2955,-3.226],[122.302,-3.2485],[122.3125,-3.264],[122.321,-3.254],[122.3255,-3.235],[122.3475,-3.237],[122.3515,-3.233],[122.368,-3.239],[122.356,-3.2505],[122.385,-3.256],[122.3955,-3.25],[122.4,-3.24],[122.422,-3.2685],[122.4305,-3.263],[122.425,-3.261],[122.4115,-3.234],[122.4,-3.2205],[122.397,-3.2005],[122.3965,-3.195],[122.3965,-3.194],[122.396,-3.181]]]},"properties":{"code":"72.06.20.2005","name":"Matarape","latitude":-3.2143374414647194,"longitude":122.35771407154489}},{"type":"Feature","geometry":{"type":"Polygon","coordinates":[[[122.392,-3.2775],[122.3835,-3.283],[122.392,-3.2885],[122.392,-3.2775]]]},"properties":{"code":"72.06.20.2006","name":"Mbokita","latitude":-3.284228426095038,"longitude":122.38922858129875}},{"type":"Feature","geometry":{"type":"Polygon","coordinates":[[[122.4015,-3.312],[122.3955,-3.3275],[122.4065,-3.3295],[122.4015,-3.312]]]},"properties":{"code":"72.06.20.2007","name":"Dongkalan","latitude":-3.325874227866058,"longitude":122.3961012227685}},{"type":"Feature","geometry":{"type":"Polygon","coordinates":[[[122.721,-3.381],[122.7265,-3.3565],[122.719,-3.355],[122.711,-3.3785],[122.721,-3.381]]]},"properties":{"code":"72.06.20.2008","name":"Pulau Tengah","latitude":-3.368382381298572,"longitude":122.70754471403477}},{"type":"Feature","geometry":{"type":"Polygon","coordinates":[[[122.711,-3.3785],[122.6995,-3.393],[122.7135,-3.4005],[122.721,-3.381],[122.711,-3.3785]]]},"properties":{"code":"72.06.20.2009","name":"Masadian","latitude":-3.3901647866072766,"longitude":122.69007939474027}},{"type":"Feature","geometry":{"type":"Polygon","coordinates":[[[122.5735,-3.3375],[122.574,-3.3435],[122.582,-3.339],[122.5735,-3.3375]]]},"properties":{"code":"72.06.20.2010","name":"Pulau Tiga","latitude":-3.3448655553597324,"longitude":122.57738575470715}},{"type":"Feature","geometry":{"type":"Polygon","coordinates":[[[122.4455,-3.1535],[122.443,-3.1415],[122.434,-3.1415],[122.4205,-3.127],[122.407,-3.1315],[122.4085,-3.133],[122.396,-3.181],[122.422,-3.1755],[122.4265,-3.166],[122.435,-3.1545],[122.444,-3.153],[122.4455,-3.1535]]]},"properties":{"code":"72.06.20.2011","name":"La Lemo","latitude":-3.1539106566683754,"longitude":122.41827840682159}},{"type":"Feature","geometry":{"type":"Polygon","coordinates":[[[122.396,-3.181],[122.4085,-3.133],[122.407,-3.1315],[122.3995,-3.141],[122.383,-3.1455],[122.366,-3.1325],[122.3625,-3.137],[122.3505,-3.152],[122.346,-3.154],[122.3435,-3.1585],[122.3435,-3.1595],[122.347,-3.1615],[122.368,-3.17],[122.381,-3.172],[122.396,-3.181]]]},"properties":{"code":"72.06.20.2012","name":"Lamontoli","latitude":-3.155760295964798,"longitude":122.37961020357463}}]}