{"type":"FeatureCollection","features":[{"type":"Feature","geometry":{"type":"Polygon","coordinates":[[[120.0225,-5.201],[120.023,-5.199],[120.0155,-5.1985],[120.0145,-5.1995],[120.0105,-5.198],[120.01,-5.1975],[120.0075,-5.197],[120.007,-5.198],[120.004,-5.1975],[119.9955,-5.203],[119.9925,-5.2045],[119.9925,-5.205],[119.9905,-5.206],[119.9915,-5.2075],[119.991,-5.209],[119.99,-5.2095],[119.9925,-5.2175],[119.993,-5.218],[119.9935,-5.2175],[119.995,-5.218],[119.9955,-5.218],[119.9965,-5.231],[119.9965,-5.2315],[119.9965,-5.231],[120.0005,-5.233],[120.003,-5.2345],[120.0035,-5.235],[120.005,-5.236],[120.0065,-5.239],[120.0055,-5.2265],[120.014,-5.2105],[120.02,-5.207],[120.019,-5.206],[120.018,-5.206],[120.0185,-5.205],[120.0205,-5.2045],[120.0225,-5.201]]]},"properties":{"code":"73.07.01.1001","name":"Tassililu","latitude":-5.212240973569276,"longitude":120.0045211009847}},{"type":"Feature","geometry":{"type":"Polygon","coordinates":[[[120.0045,-5.235],[120.0005,-5.233],[119.9965,-5.231],[119.9965,-5.2315],[119.995,-5.2315],[119.993,-5.234],[119.9935,-5.2355],[119.993,-5.236],[119.987,-5.2415],[119.985,-5.2435],[119.9835,-5.2445],[119.9825,-5.2455],[119.981,-5.247],[119.9795,-5.2495],[119.976,-5.257],[119.9765,-5.261],[119.9765,-5.2625],[119.999,-5.2435],[120.002,-5.24],[120.0045,-5.235]]]},"properties":{"code":"73.07.01.1002","name":"Balakia","latitude":-5.244963329818645,"longitude":119.98996663396674}},{"type":"Feature","geometry":{"type":"Polygon","coordinates":[[[120.0065,-5.239],[120.005,-5.236],[120.0045,-5.235],[120.0035,-5.2365],[120.003,-5.2375],[120.002,-5.24],[119.999,-5.2435],[119.9765,-5.2625],[119.9765,-5.2635],[119.9745,-5.2775],[119.968,-5.2805],[119.9655,-5.283],[119.964,-5.2815],[119.962,-5.284],[119.9485,-5.304],[119.9445,-5.3165],[119.943,-5.317],[119.941,-5.321],[119.931,-5.339],[119.9285,-5.3425],[119.932,-5.3475],[119.9355,-5.3535],[119.9375,-5.356],[119.9415,-5.3545],[119.9445,-5.3555],[119.9475,-5.3545],[119.95,-5.355],[119.952,-5.3545],[119.9555,-5.3545],[119.9555,-5.3535],[119.9545,-5.353],[119.9545,-5.352],[119.9545,-5.351],[119.9565,-5.3455],[119.9635,-5.339],[119.963,-5.325],[119.971,-5.3085],[119.984,-5.2935],[119.996,-5.2895],[119.9975,-5.288],[119.993,-5.268],[119.999,-5.2525],[120.004,-5.2505],[120.0055,-5.248],[120.0065,-5.2475],[120.009,-5.2485],[120.0095,-5.247],[120.01,-5.246],[120.0065,-5.239]]]},"properties":{"code":"73.07.01.2003","name":"Gunung Perak","latitude":-5.302860523340701,"longitude":119.96645378462222}},{"type":"Feature","geometry":{"type":"Polygon","coordinates":[[[120.044,-5.208],[120.0365,-5.2195],[120.024,-5.2185],[120.023,-5.216],[120.0225,-5.2135],[120.0235,-5.2115],[120.0225,-5.201],[120.0205,-5.2045],[120.0185,-5.205],[120.018,-5.206],[120.019,-5.206],[120.02,-5.207],[120.014,-5.2105],[120.0055,-5.2265],[120.0065,-5.239],[120.01,-5.246],[120.009,-5.248],[120.0075,-5.249],[120.0145,-5.2555],[120.015,-5.254],[120.042,-5.2315],[120.046,-5.2295],[120.053,-5.2245],[120.058,-5.219],[120.061,-5.216],[120.063,-5.215],[120.063,-5.214],[120.0555,-5.2115],[120.045,-5.2085],[120.044,-5.208]]]},"properties":{"code":"73.07.01.2004","name":"Arabika","latitude":-5.227159187464475,"longitude":120.02799027397641}},{"type":"Feature","geometry":{"type":"Polygon","coordinates":[[[120.063,-5.1785],[120.0625,-5.1775],[120.062,-5.1765],[120.0575,-5.172],[120.054,-5.1695],[120.055,-5.144],[120.0545,-5.1445],[120.039,-5.162],[120.038,-5.163],[120.0355,-5.1685],[120.036,-5.17],[120.038,-5.1705],[120.0375,-5.1725],[120.036,-5.179],[120.035,-5.1805],[120.0325,-5.183],[120.032,-5.1845],[120.031,-5.1875],[120.027,-5.193],[120.026,-5.1955],[120.026,-5.196],[120.0255,-5.199],[120.0245,-5.2],[120.0225,-5.201],[120.0235,-5.2115],[120.0225,-5.2135],[120.023,-5.216],[120.024,-5.2185],[120.0365,-5.2195],[120.044,-5.208],[120.0435,-5.208],[120.0425,-5.206],[120.046,-5.204],[120.0495,-5.1945],[120.048,-5.1905],[120.0475,-5.1865],[120.06,-5.181],[120.063,-5.1785]]]},"properties":{"code":"73.07.01.2005","name":"Bonto Salama","latitude":-5.18622472323484,"longitude":120.04130803569986}},{"type":"Feature","geometry":{"type":"Polygon","coordinates":[[[120.086,-5.1525],[120.0755,-5.143],[120.075,-5.1195],[120.068,-5.116],[120.0645,-5.1155],[120.0605,-5.1155],[120.0605,-5.117],[120.061,-5.1235],[120.0605,-5.1235],[120.0615,-5.1255],[120.0615,-5.1305],[120.0625,-5.131],[120.0625,-5.134],[120.056,-5.1405],[120.055,-5.144],[120.054,-5.1695],[120.0575,-5.172],[120.062,-5.1765],[120.0625,-5.1775],[120.063,-5.1785],[120.064,-5.1775],[120.0735,-5.167],[120.077,-5.1635],[120.08,-5.16],[120.084,-5.1545],[120.086,-5.1525]]]},"properties":{"code":"73.07.01.2006","name":"Turungan Baji","latitude":-5.147627350587919,"longitude":120.067137031097}},{"type":"Feature","geometry":{"type":"Polygon","coordinates":[[[120.009,-5.2485],[120.0065,-5.2475],[120.0055,-5.248],[120.004,-5.2505],[119.999,-5.2525],[119.993,-5.268],[119.9975,-5.288],[119.998,-5.288],[120.004,-5.286],[120.005,-5.286],[120.006,-5.2855],[120.009,-5.2865],[120.011,-5.284],[120.0125,-5.2825],[120.013,-5.282],[120.012,-5.281],[120.0115,-5.278],[120.014,-5.257],[120.0145,-5.2555],[120.0075,-5.249],[120.009,-5.2485]]]},"properties":{"code":"73.07.01.2007","name":"Barania","latitude":-5.2694869003095715,"longitude":120.00425692260664}},{"type":"Feature","geometry":{"type":"Polygon","coordinates":[[[120.043,-5.2355],[120.0435,-5.231],[120.042,-5.2315],[120.015,-5.254],[120.014,-5.257],[120.0115,-5.278],[120.012,-5.281],[120.013,-5.282],[120.0135,-5.2815],[120.0145,-5.2805],[120.0145,-5.2795],[120.016,-5.278],[120.0195,-5.277],[120.0495,-5.2525],[120.0505,-5.252],[120.043,-5.246],[120.043,-5.2355]]]},"properties":{"code":"73.07.01.2008","name":"Boto Lempangan","latitude":-5.256536814372325,"longitude":120.0288012946763}},{"type":"Feature","geometry":{"type":"Polygon","coordinates":[[[120.0305,-5.1305],[120.0235,-5.132],[120.0235,-5.133],[120.0225,-5.131],[120.0205,-5.131],[120.0135,-5.1215],[119.9965,-5.131],[119.984,-5.123],[119.971,-5.131],[119.97,-5.1375],[119.9705,-5.1385],[119.9715,-5.141],[119.973,-5.1545],[119.9725,-5.1575],[119.976,-5.1605],[119.979,-5.1625],[119.998,-5.1645],[120.0205,-5.177],[120.022,-5.183],[120.0285,-5.1835],[120.032,-5.1845],[120.0325,-5.183],[120.035,-5.1805],[120.036,-5.179],[120.0375,-5.1725],[120.038,-5.1705],[120.036,-5.17],[120.0355,-5.1685],[120.038,-5.163],[120.039,-5.162],[120.0545,-5.1445],[120.056,-5.1405],[120.0625,-5.134],[120.0625,-5.131],[120.0615,-5.1305],[120.0615,-5.1255],[120.0605,-5.1235],[120.0575,-5.1245],[120.0305,-5.1305]]]},"properties":{"code":"73.07.01.2009","name":"Terasa","latitude":-5.148181102536184,"longitude":120.0140767640131}},{"type":"Feature","geometry":{"type":"Polygon","coordinates":[[[120.159,-5.252],[120.149,-5.2455],[120.1485,-5.2435],[120.148,-5.2425],[120.1475,-5.241],[120.148,-5.241],[120.1465,-5.239],[120.1445,-5.238],[120.142,-5.238],[120.14,-5.24],[120.138,-5.2435],[120.133,-5.243],[120.131,-5.2475],[120.133,-5.249],[120.1325,-5.2495],[120.13,-5.251],[120.13,-5.2515],[120.1325,-5.2525],[120.1415,-5.2565],[120.1425,-5.259],[120.1425,-5.2595],[120.137,-5.263],[120.1355,-5.2655],[120.133,-5.267],[120.1285,-5.282],[120.1315,-5.288],[120.136,-5.29],[120.139,-5.2915],[120.139,-5.291],[120.141,-5.2895],[120.1405,-5.2885],[120.141,-5.2885],[120.1425,-5.2875],[120.1465,-5.2875],[120.15,-5.2855],[120.158,-5.277],[120.16,-5.27],[120.1605,-5.2675],[120.1615,-5.264],[120.162,-5.2615],[120.163,-5.258],[120.1625,-5.258],[120.159,-5.252]]]},"properties":{"code":"73.07.02.1001","name":"Sangiaseri","latitude":-5.265688572780747,"longitude":120.14460161716903}},{"type":"Feature","geometry":{"type":"Polygon","coordinates":[[[120.1285,-5.282],[120.133,-5.267],[120.1355,-5.2655],[120.137,-5.263],[120.1425,-5.2595],[120.1425,-5.259],[120.1415,-5.2565],[120.1325,-5.2525],[120.1305,-5.252],[120.1305,-5.2535],[120.13,-5.254],[120.1235,-5.2585],[120.1235,-5.261],[120.122,-5.2615],[120.1215,-5.2605],[120.118,-5.26],[120.103,-5.2635],[120.1,-5.2605],[120.1005,-5.258],[120.0985,-5.258],[120.0895,-5.262],[120.0745,-5.256],[120.074,-5.2585],[120.074,-5.2605],[120.075,-5.263],[120.0895,-5.2725],[120.0905,-5.273],[120.091,-5.273],[120.086,-5.2815],[120.082,-5.283],[120.081,-5.284],[120.081,-5.2855],[120.082,-5.286],[120.084,-5.286],[120.0875,-5.288],[120.089,-5.2905],[120.0905,-5.291],[120.0925,-5.2915],[120.1075,-5.28],[120.1185,-5.286],[120.1285,-5.282]]]},"properties":{"code":"73.07.02.2002","name":"Puncak","latitude":-5.27105417011644,"longitude":120.1071135335011}},{"type":"Feature","geometry":{"type":"Polygon","coordinates":[[[120.131,-5.23],[120.129,-5.23],[120.111,-5.2295],[120.1055,-5.231],[120.12,-5.241],[120.1155,-5.253],[120.103,-5.256],[120.101,-5.2575],[120.1005,-5.258],[120.1,-5.2605],[120.103,-5.2635],[120.118,-5.26],[120.1215,-5.2605],[120.122,-5.2615],[120.1235,-5.261],[120.1235,-5.2585],[120.13,-5.254],[120.1305,-5.2535],[120.1305,-5.252],[120.13,-5.2515],[120.13,-5.251],[120.1325,-5.2495],[120.133,-5.249],[120.131,-5.2475],[120.133,-5.243],[120.135,-5.2415],[120.134,-5.241],[120.131,-5.23]]]},"properties":{"code":"73.07.02.2003","name":"Songing","latitude":-5.246969051004571,"longitude":120.11724968032216}},{"type":"Feature","geometry":{"type":"Polygon","coordinates":[[[120.2325,-5.1755],[120.2325,-5.176],[120.231,-5.1785],[120.2295,-5.1765],[120.2255,-5.175],[120.2225,-5.1745],[120.214,-5.2],[120.2025,-5.2075],[120.1975,-5.218],[120.2045,-5.225],[120.205,-5.227],[120.206,-5.2265],[120.207,-5.2255],[120.2075,-5.2255],[120.2105,-5.228],[120.2215,-5.2265],[120.2225,-5.227],[120.227,-5.2295],[120.228,-5.229],[120.23,-5.2295],[120.2305,-5.2305],[120.2335,-5.2305],[120.234,-5.2295],[120.236,-5.2275],[120.238,-5.2255],[120.2365,-5.209],[120.236,-5.207],[120.2375,-5.2035],[120.2385,-5.201],[120.2425,-5.1875],[120.241,-5.185],[120.24,-5.182],[120.2395,-5.181],[120.237,-5.18],[120.2325,-5.1755]]]},"properties":{"code":"73.07.02.2004","name":"Aska","latitude":-5.205367424639197,"longitude":120.2231630169265}},{"type":"Feature","geometry":{"type":"Polygon","coordinates":[[[120.165,-5.1705],[120.1645,-5.169],[120.159,-5.1705],[120.157,-5.1705],[120.149,-5.1765],[120.1475,-5.186],[120.137,-5.2095],[120.1355,-5.224],[120.1405,-5.2275],[120.141,-5.2285],[120.1425,-5.228],[120.1455,-5.2285],[120.147,-5.228],[120.159,-5.226],[120.1615,-5.224],[120.168,-5.222],[120.1655,-5.2175],[120.172,-5.216],[120.1775,-5.2145],[120.1755,-5.2135],[120.177,-5.2145],[120.177,-5.2115],[120.177,-5.2065],[120.179,-5.2055],[120.1825,-5.2025],[120.184,-5.202],[120.1825,-5.1995],[120.182,-5.195],[120.1795,-5.197],[120.174,-5.194],[120.1695,-5.1905],[120.166,-5.1875],[120.1655,-5.186],[120.163,-5.181],[120.1625,-5.1785],[120.162,-5.1765],[120.1625,-5.1745],[120.163,-5.173],[120.165,-5.1705]]]},"properties":{"code":"73.07.02.2005","name":"Talle","latitude":-5.203496242265659,"longitude":120.15675234540818}},{"type":"Feature","geometry":{"type":"Polygon","coordinates":[[[120.221,-5.1735],[120.2075,-5.185],[120.207,-5.1885],[120.2055,-5.1895],[120.2025,-5.1905],[120.192,-5.1945],[120.1905,-5.1975],[120.1875,-5.1985],[120.186,-5.2005],[120.1845,-5.2015],[120.184,-5.202],[120.1825,-5.2025],[120.179,-5.2055],[120.177,-5.2065],[120.177,-5.2115],[120.177,-5.2145],[120.1755,-5.2135],[120.1775,-5.2145],[120.179,-5.2155],[120.177,-5.219],[120.178,-5.2195],[120.1875,-5.217],[120.1965,-5.2215],[120.198,-5.221],[120.1975,-5.218],[120.2025,-5.2075],[120.214,-5.2],[120.2225,-5.1745],[120.221,-5.1735]]]},"properties":{"code":"73.07.02.2006","name":"Palae","latitude":-5.201264862550786,"longitude":120.19871621405572}},{"type":"Feature","geometry":{"type":"Polygon","coordinates":[[[120.219,-5.1705],[120.216,-5.1735],[120.2125,-5.174],[120.208,-5.174],[120.21,-5.1735],[120.212,-5.173],[120.2125,-5.1705],[120.212,-5.1705],[120.209,-5.171],[120.2045,-5.16],[120.2035,-5.159],[120.198,-5.1575],[120.1965,-5.159],[120.1945,-5.1585],[120.191,-5.157],[120.1905,-5.1595],[120.1905,-5.161],[120.1915,-5.1615],[120.1895,-5.166],[120.1745,-5.163],[120.1695,-5.1675],[120.168,-5.167],[120.1675,-5.1665],[120.166,-5.1705],[120.165,-5.1705],[120.163,-5.173],[120.1625,-5.175],[120.1625,-5.1775],[120.163,-5.18],[120.1635,-5.182],[120.165,-5.1855],[120.166,-5.187],[120.1695,-5.1905],[120.174,-5.194],[120.1795,-5.197],[120.182,-5.195],[120.1825,-5.1995],[120.184,-5.202],[120.1855,-5.201],[120.1875,-5.1985],[120.1905,-5.1975],[120.192,-5.1945],[120.2025,-5.1905],[120.2055,-5.1895],[120.207,-5.1885],[120.2075,-5.185],[120.221,-5.1735],[120.22,-5.1725],[120.219,-5.1705]]]},"properties":{"code":"73.07.02.2007","name":"Bulu Kamase","latitude":-5.178380646312152,"longitude":120.18850945356394}},{"type":"Feature","geometry":{"type":"Polygon","coordinates":[[[120.1285,-5.282],[120.1185,-5.286],[120.1075,-5.28],[120.0925,-5.2915],[120.0905,-5.291],[120.089,-5.2905],[120.0875,-5.288],[120.084,-5.286],[120.082,-5.286],[120.081,-5.2855],[120.081,-5.287],[120.0815,-5.2885],[120.083,-5.2915],[120.0835,-5.2925],[120.0855,-5.298],[120.088,-5.301],[120.088,-5.3025],[120.0875,-5.3035],[120.0865,-5.304],[120.085,-5.3045],[120.0845,-5.3075],[120.085,-5.3085],[120.086,-5.308],[120.0875,-5.309],[120.0895,-5.3095],[120.103,-5.3165],[120.1225,-5.3105],[120.124,-5.3115],[120.125,-5.3115],[120.1255,-5.311],[120.126,-5.3065],[120.128,-5.307],[120.13,-5.308],[120.1365,-5.2945],[120.139,-5.2915],[120.136,-5.29],[120.1315,-5.288],[120.1285,-5.282]]]},"properties":{"code":"73.07.02.2008","name":"Palangka","latitude":-5.297834344594903,"longitude":120.1103384025151}},{"type":"Feature","geometry":{"type":"Polygon","coordinates":[[[120.1005,-5.258],[120.101,-5.2575],[120.103,-5.256],[120.1155,-5.253],[120.12,-5.241],[120.1055,-5.231],[120.103,-5.2315],[120.0905,-5.233],[120.0815,-5.244],[120.0815,-5.245],[120.081,-5.245],[120.0745,-5.253],[120.0745,-5.256],[120.0895,-5.262],[120.0985,-5.258],[120.1005,-5.258]]]},"properties":{"code":"73.07.02.2009","name":"Polewali","latitude":-5.246505074636123,"longitude":120.09668704536104}},{"type":"Feature","geometry":{"type":"Polygon","coordinates":[[[120.1735,-5.216],[120.172,-5.216],[120.1655,-5.2175],[120.168,-5.222],[120.1615,-5.224],[120.159,-5.226],[120.147,-5.228],[120.1455,-5.2285],[120.1425,-5.228],[120.141,-5.2285],[120.1405,-5.2275],[120.136,-5.227],[120.131,-5.23],[120.134,-5.241],[120.135,-5.2415],[120.138,-5.2435],[120.14,-5.24],[120.142,-5.238],[120.1445,-5.238],[120.1465,-5.239],[120.148,-5.241],[120.1475,-5.241],[120.148,-5.2425],[120.1485,-5.2435],[120.149,-5.2455],[120.159,-5.252],[120.16,-5.246],[120.171,-5.229],[120.1715,-5.218],[120.1735,-5.2165],[120.1735,-5.216]]]},"properties":{"code":"73.07.02.2010","name":"Gareccing","latitude":-5.23432604150597,"longitude":120.15180879817903}},{"type":"Feature","geometry":{"type":"Polygon","coordinates":[[[120.1975,-5.218],[120.198,-5.221],[120.1965,-5.2215],[120.1875,-5.217],[120.178,-5.2195],[120.177,-5.219],[120.179,-5.2155],[120.1735,-5.216],[120.1735,-5.2165],[120.1715,-5.218],[120.171,-5.229],[120.16,-5.246],[120.159,-5.252],[120.1625,-5.258],[120.165,-5.255],[120.1755,-5.239],[120.1745,-5.238],[120.176,-5.2365],[120.1785,-5.232],[120.18,-5.234],[120.18,-5.2305],[120.1825,-5.2305],[120.185,-5.229],[120.1865,-5.228],[120.1915,-5.229],[120.1935,-5.228],[120.1975,-5.225],[120.2015,-5.2275],[120.202,-5.227],[120.2055,-5.2275],[120.207,-5.226],[120.206,-5.2265],[120.205,-5.227],[120.2045,-5.225],[120.1975,-5.218]]]},"properties":{"code":"73.07.02.2011","name":"Alenangka","latitude":-5.232499346112796,"longitude":120.1768909306031}},{"type":"Feature","geometry":{"type":"Polygon","coordinates":[[[120.26,-5.127],[120.2475,-5.1405],[120.246,-5.141],[120.241,-5.157],[120.2585,-5.1545],[120.2715,-5.1455],[120.2745,-5.1365],[120.262,-5.128],[120.26,-5.127]]]},"properties":{"code":"73.07.03.1001","name":"Samataring","latitude":-5.141798542954643,"longitude":120.25816732071321}},{"type":"Feature","geometry":{"type":"Polygon","coordinates":[[[120.3135,-5.2265],[120.3115,-5.217],[120.2925,-5.197],[120.285,-5.199],[120.2765,-5.2145],[120.2775,-5.2155],[120.279,-5.2155],[120.28,-5.2135],[120.281,-5.2145],[120.2845,-5.2175],[120.2895,-5.2185],[120.301,-5.2275],[120.3035,-5.227],[120.3055,-5.2265],[120.3135,-5.2265]]]},"properties":{"code":"73.07.03.2002","name":"Sanjai","latitude":-5.213850748332351,"longitude":120.29577634202558}},{"type":"Feature","geometry":{"type":"Polygon","coordinates":[[[120.2605,-5.166],[120.254,-5.1685],[120.241,-5.163],[120.2425,-5.173],[120.242,-5.1775],[120.24,-5.181],[120.24,-5.182],[120.241,-5.185],[120.2425,-5.1875],[120.2385,-5.201],[120.2375,-5.2035],[120.236,-5.207],[120.236,-5.2075],[120.2465,-5.2095],[120.251,-5.211],[120.2575,-5.2175],[120.2655,-5.218],[120.265,-5.2165],[120.2575,-5.196],[120.2585,-5.1845],[120.2605,-5.1805],[120.26,-5.1795],[120.2605,-5.1765],[120.261,-5.176],[120.263,-5.174],[120.2635,-5.171],[120.263,-5.17],[120.2605,-5.166]]]},"properties":{"code":"73.07.03.2003","name":"Pattalassang","latitude":-5.190036671452593,"longitude":120.2508820227038}},{"type":"Feature","geometry":{"type":"Polygon","coordinates":[[[120.28,-5.1745],[120.2755,-5.158],[120.2695,-5.1665],[120.261,-5.1635],[120.2605,-5.165],[120.2605,-5.166],[120.263,-5.17],[120.2635,-5.171],[120.2655,-5.1715],[120.2695,-5.1735],[120.28,-5.1745]]]},"properties":{"code":"73.07.03.2004","name":"Panaikang","latitude":-5.168532939032336,"longitude":120.27161257767364}},{"type":"Feature","geometry":{"type":"Polygon","coordinates":[[[120.246,-5.141],[120.245,-5.142],[120.2445,-5.1415],[120.2455,-5.138],[120.241,-5.1385],[120.2395,-5.1375],[120.2415,-5.134],[120.2395,-5.1335],[120.2315,-5.131],[120.2295,-5.132],[120.222,-5.133],[120.2205,-5.14],[120.219,-5.146],[120.23,-5.155],[120.241,-5.157],[120.246,-5.141]]]},"properties":{"code":"73.07.03.2005","name":"Saukang","latitude":-5.142236394445101,"longitude":120.2331521732836}},{"type":"Feature","geometry":{"type":"Polygon","coordinates":[[[120.205,-5.1425],[120.1995,-5.143],[120.199,-5.1415],[120.1835,-5.1515],[120.183,-5.152],[120.189,-5.1545],[120.19,-5.1565],[120.191,-5.157],[120.1945,-5.1585],[120.1965,-5.159],[120.198,-5.1575],[120.2035,-5.159],[120.2045,-5.16],[120.209,-5.171],[120.212,-5.1705],[120.2125,-5.1705],[120.212,-5.173],[120.21,-5.1735],[120.208,-5.174],[120.2125,-5.174],[120.216,-5.1735],[120.219,-5.1705],[120.218,-5.158],[120.23,-5.155],[120.219,-5.146],[120.205,-5.1425]]]},"properties":{"code":"73.07.03.2006","name":"Kampala","latitude":-5.1536508450137415,"longitude":120.20800663651269}},{"type":"Feature","geometry":{"type":"Polygon","coordinates":[[[120.285,-5.199],[120.281,-5.2015],[120.277,-5.2005],[120.274,-5.1995],[120.271,-5.1965],[120.2605,-5.182],[120.26,-5.1815],[120.2585,-5.1845],[120.2575,-5.196],[120.265,-5.2165],[120.2655,-5.2185],[120.266,-5.2215],[120.2665,-5.223],[120.2665,-5.2235],[120.267,-5.224],[120.2665,-5.226],[120.2685,-5.2285],[120.271,-5.2285],[120.273,-5.2265],[120.275,-5.221],[120.2755,-5.2195],[120.2795,-5.22],[120.28,-5.2165],[120.279,-5.2155],[120.2775,-5.2155],[120.2765,-5.2145],[120.285,-5.199]]]},"properties":{"code":"73.07.03.2007","name":"Lasiai","latitude":-5.204848008002466,"longitude":120.2688002253959}},{"type":"Feature","geometry":{"type":"Polygon","coordinates":[[[120.2655,-5.218],[120.2575,-5.2175],[120.251,-5.211],[120.2465,-5.2095],[120.236,-5.2075],[120.2365,-5.209],[120.238,-5.2255],[120.2395,-5.225],[120.242,-5.232],[120.243,-5.2315],[120.243,-5.2295],[120.2445,-5.2285],[120.2475,-5.232],[120.2505,-5.2315],[120.253,-5.229],[120.254,-5.226],[120.258,-5.2265],[120.26,-5.2285],[120.2605,-5.2345],[120.264,-5.23],[120.263,-5.222],[120.264,-5.222],[120.265,-5.222],[120.2665,-5.223],[120.266,-5.2215],[120.2655,-5.218]]]},"properties":{"code":"73.07.03.2008","name":"Biroro","latitude":-5.220174289340604,"longitude":120.24829248047752}},{"type":"Feature","geometry":{"type":"Polygon","coordinates":[[[120.2585,-5.1545],[120.241,-5.157],[120.23,-5.155],[120.233,-5.174],[120.2325,-5.1755],[120.237,-5.18],[120.2395,-5.181],[120.24,-5.181],[120.242,-5.1775],[120.2425,-5.173],[120.241,-5.163],[120.254,-5.1685],[120.2605,-5.166],[120.2605,-5.165],[120.2605,-5.163],[120.26,-5.163],[120.257,-5.1625],[120.254,-5.1585],[120.254,-5.158],[120.2585,-5.1545]]]},"properties":{"code":"73.07.03.2009","name":"Kaloling","latitude":-5.1644151617143015,"longitude":120.24332168789022}},{"type":"Feature","geometry":{"type":"Polygon","coordinates":[[[120.28,-5.1745],[120.2695,-5.1735],[120.2655,-5.1715],[120.263,-5.174],[120.261,-5.176],[120.2605,-5.1765],[120.26,-5.1795],[120.2605,-5.1805],[120.26,-5.1815],[120.2605,-5.182],[120.271,-5.1965],[120.274,-5.1995],[120.277,-5.2005],[120.281,-5.2015],[120.285,-5.199],[120.2925,-5.197],[120.28,-5.1745]]]},"properties":{"code":"73.07.03.2010","name":"Pasimarannu","latitude":-5.186544338166244,"longitude":120.27605210184772}},{"type":"Feature","geometry":{"type":"Polygon","coordinates":[[[120.2755,-5.158],[120.2715,-5.1455],[120.2585,-5.1545],[120.254,-5.158],[120.254,-5.1585],[120.257,-5.1625],[120.26,-5.163],[120.2605,-5.163],[120.261,-5.1635],[120.2695,-5.1665],[120.2755,-5.158]]]},"properties":{"code":"73.07.03.2011","name":"Tongke-Tongke","latitude":-5.156685245751628,"longitude":120.26675840087576}},{"type":"Feature","geometry":{"type":"Polygon","coordinates":[[[120.23,-5.155],[120.218,-5.158],[120.219,-5.1705],[120.22,-5.1725],[120.2255,-5.175],[120.2295,-5.1765],[120.231,-5.1785],[120.2325,-5.176],[120.233,-5.174],[120.23,-5.155]]]},"properties":{"code":"73.07.03.2012","name":"Salohe","latitude":-5.165633843611785,"longitude":120.22603960655066}},{"type":"Feature","geometry":{"type":"Polygon","coordinates":[[[120.22,-5.1315],[120.214,-5.129],[120.213,-5.1285],[120.2115,-5.1275],[120.2075,-5.1265],[120.2,-5.1265],[120.198,-5.126],[120.1935,-5.126],[120.1905,-5.1255],[120.186,-5.1255],[120.1805,-5.132],[120.198,-5.1345],[120.2065,-5.141],[120.205,-5.1425],[120.219,-5.146],[120.2205,-5.14],[120.2215,-5.134],[120.22,-5.1315]]]},"properties":{"code":"73.07.03.2013","name":"Bongki Lengkese","latitude":-5.13387189875722,"longitude":120.20440188503423}},{"type":"Feature","geometry":{"type":"Polygon","coordinates":[[[120.183,-5.152],[120.182,-5.151],[120.182,-5.15],[120.1825,-5.1475],[120.1645,-5.1445],[120.1485,-5.148],[120.1495,-5.151],[120.147,-5.152],[120.167,-5.1675],[120.1675,-5.1665],[120.168,-5.167],[120.1695,-5.1675],[120.1745,-5.163],[120.1895,-5.166],[120.1915,-5.1615],[120.1905,-5.161],[120.1905,-5.1595],[120.19,-5.1565],[120.189,-5.1545],[120.183,-5.152]]]},"properties":{"code":"73.07.04.1001","name":"Samaenre","latitude":-5.155717422418427,"longitude":120.17068970348349}},{"type":"Feature","geometry":{"type":"Polygon","coordinates":[[[120.182,-5.121],[120.18,-5.121],[120.176,-5.121],[120.1745,-5.119],[120.165,-5.121],[120.1555,-5.1235],[120.1525,-5.123],[120.136,-5.1295],[120.122,-5.133],[120.128,-5.141],[120.138,-5.1395],[120.1415,-5.1405],[120.1435,-5.144],[120.1455,-5.145],[120.1455,-5.146],[120.1455,-5.1485],[120.1445,-5.1505],[120.145,-5.152],[120.146,-5.152],[120.1495,-5.151],[120.1485,-5.148],[120.1645,-5.1445],[120.1825,-5.1475],[120.182,-5.15],[120.182,-5.151],[120.183,-5.152],[120.1835,-5.1515],[120.199,-5.1415],[120.1995,-5.143],[120.205,-5.1425],[120.2065,-5.141],[120.198,-5.1345],[120.1805,-5.132],[120.186,-5.1255],[120.1905,-5.1255],[120.1865,-5.125],[120.183,-5.1235],[120.182,-5.121]]]},"properties":{"code":"73.07.04.2002","name":"Mattunreng Tellue","latitude":-5.13540891189487,"longitude":120.16333687018796}},{"type":"Feature","geometry":{"type":"Polygon","coordinates":[[[120.088,-5.216],[120.077,-5.2045],[120.0665,-5.2045],[120.049,-5.193],[120.0495,-5.1945],[120.046,-5.204],[120.0425,-5.206],[120.0435,-5.208],[120.045,-5.2085],[120.0555,-5.2115],[120.063,-5.214],[120.063,-5.215],[120.061,-5.216],[120.057,-5.22],[120.0595,-5.224],[120.065,-5.227],[120.0755,-5.2255],[120.077,-5.226],[120.078,-5.2265],[120.0825,-5.225],[120.084,-5.2235],[120.0875,-5.2175],[120.088,-5.216]]]},"properties":{"code":"73.07.04.2003","name":"Kompang","latitude":-5.212147464826696,"longitude":120.06641963685615}},{"type":"Feature","geometry":{"type":"Polygon","coordinates":[[[120.157,-5.1705],[120.155,-5.1705],[120.153,-5.1725],[120.15,-5.172],[120.1435,-5.1725],[120.145,-5.1745],[120.145,-5.1755],[120.1385,-5.176],[120.1345,-5.1755],[120.131,-5.18],[120.1285,-5.1825],[120.127,-5.1835],[120.1245,-5.1845],[120.122,-5.188],[120.11,-5.2035],[120.1105,-5.206],[120.11,-5.2065],[120.107,-5.206],[120.106,-5.2055],[120.106,-5.206],[120.1065,-5.21],[120.133,-5.222],[120.136,-5.227],[120.1355,-5.224],[120.137,-5.2095],[120.1475,-5.186],[120.149,-5.1765],[120.157,-5.1705]]]},"properties":{"code":"73.07.04.2004","name":"Baru","latitude":-5.197197453800904,"longitude":120.13086446251613}},{"type":"Feature","geometry":{"type":"Polygon","coordinates":[[[120.098,-5.1855],[120.096,-5.1835],[120.085,-5.1815],[120.0795,-5.178],[120.0765,-5.1755],[120.077,-5.1695],[120.0765,-5.1665],[120.076,-5.1645],[120.0735,-5.167],[120.064,-5.1775],[120.06,-5.181],[120.0475,-5.1865],[120.048,-5.1905],[120.049,-5.193],[120.0665,-5.2045],[120.077,-5.2045],[120.088,-5.216],[120.0915,-5.217],[120.106,-5.2105],[120.106,-5.206],[120.106,-5.2055],[120.1055,-5.2055],[120.0985,-5.198],[120.0965,-5.1955],[120.092,-5.1925],[120.0905,-5.1905],[120.092,-5.19],[120.093,-5.189],[120.0965,-5.1865],[120.0975,-5.1855],[120.098,-5.1855]]]},"properties":{"code":"73.07.04.2005","name":"Pattongko","latitude":-5.19358990557251,"longitude":120.07798856836662}},{"type":"Feature","geometry":{"type":"Polygon","coordinates":[[[120.1285,-5.181],[120.1295,-5.17],[120.122,-5.1665],[120.114,-5.1795],[120.111,-5.1825],[120.1,-5.183],[120.099,-5.185],[120.0975,-5.1855],[120.0965,-5.1865],[120.093,-5.189],[120.092,-5.19],[120.0905,-5.1905],[120.092,-5.1925],[120.0965,-5.1955],[120.0985,-5.198],[120.1055,-5.2055],[120.107,-5.206],[120.11,-5.2065],[120.1105,-5.206],[120.11,-5.2035],[120.122,-5.188],[120.1245,-5.1845],[120.127,-5.1835],[120.1285,-5.1825],[120.1285,-5.181]]]},"properties":{"code":"73.07.04.2006","name":"Saotengnga","latitude":-5.186890667525836,"longitude":120.11195936508433}},{"type":"Feature","geometry":{"type":"Polygon","coordinates":[[[120.128,-5.141],[120.122,-5.133],[120.092,-5.141],[120.086,-5.1525],[120.0915,-5.1515],[120.1005,-5.157],[120.1015,-5.159],[120.121,-5.165],[120.122,-5.1665],[120.124,-5.166],[120.124,-5.1645],[120.132,-5.1605],[120.135,-5.161],[120.1375,-5.1505],[120.136,-5.1495],[120.134,-5.146],[120.132,-5.1435],[120.128,-5.141]]]},"properties":{"code":"73.07.04.2007","name":"Saohiring","latitude":-5.149934972880485,"longitude":120.11386239392839}},{"type":"Feature","geometry":{"type":"Polygon","coordinates":[[[120.147,-5.152],[120.146,-5.152],[120.145,-5.152],[120.1445,-5.1505],[120.1455,-5.1485],[120.1455,-5.146],[120.1455,-5.145],[120.1435,-5.144],[120.1415,-5.1405],[120.138,-5.1395],[120.128,-5.141],[120.132,-5.1435],[120.134,-5.146],[120.136,-5.1495],[120.1375,-5.1505],[120.135,-5.161],[120.132,-5.1605],[120.124,-5.1645],[120.124,-5.166],[120.122,-5.1665],[120.1295,-5.17],[120.1285,-5.181],[120.131,-5.18],[120.1345,-5.1755],[120.1385,-5.176],[120.145,-5.1755],[120.145,-5.1745],[120.1435,-5.1725],[120.15,-5.172],[120.153,-5.1725],[120.155,-5.1705],[120.159,-5.1705],[120.1645,-5.169],[120.166,-5.1705],[120.167,-5.1675],[120.147,-5.152]]]},"properties":{"code":"73.07.04.2008","name":"Kanrung","latitude":-5.161617324229209,"longitude":120.1426199687017}},{"type":"Feature","geometry":{"type":"Polygon","coordinates":[[[120.136,-5.227],[120.133,-5.222],[120.1065,-5.21],[120.106,-5.2105],[120.0915,-5.217],[120.088,-5.216],[120.0875,-5.2175],[120.084,-5.2235],[120.0825,-5.225],[120.078,-5.2265],[120.0765,-5.232],[120.075,-5.235],[120.0715,-5.2365],[120.07,-5.237],[120.064,-5.243],[120.064,-5.2435],[120.0795,-5.2415],[120.0805,-5.243],[120.0815,-5.245],[120.0815,-5.244],[120.0905,-5.233],[120.103,-5.2315],[120.111,-5.2295],[120.129,-5.23],[120.136,-5.227]]]},"properties":{"code":"73.07.04.2009","name":"Saotanre","latitude":-5.225062107122348,"longitude":120.10149126933871}},{"type":"Feature","geometry":{"type":"Polygon","coordinates":[[[120.122,-5.1665],[120.121,-5.165],[120.1015,-5.159],[120.1005,-5.157],[120.0915,-5.1515],[120.086,-5.1525],[120.084,-5.1545],[120.08,-5.16],[120.077,-5.1635],[120.076,-5.1645],[120.0765,-5.1665],[120.077,-5.1695],[120.0765,-5.1755],[120.0795,-5.178],[120.085,-5.1815],[120.096,-5.1835],[120.098,-5.1855],[120.1,-5.183],[120.111,-5.1825],[120.114,-5.1795],[120.122,-5.1665]]]},"properties":{"code":"73.07.04.2010","name":"Bonto","latitude":-5.169383048700984,"longitude":120.09567083687725}},{"type":"Feature","geometry":{"type":"Polygon","coordinates":[[[120.078,-5.2265],[120.077,-5.226],[120.0755,-5.2255],[120.065,-5.227],[120.0595,-5.224],[120.057,-5.22],[120.053,-5.2245],[120.046,-5.2295],[120.0435,-5.231],[120.043,-5.2355],[120.045,-5.2365],[120.0485,-5.2405],[120.049,-5.242],[120.05,-5.243],[120.058,-5.245],[120.064,-5.2435],[120.064,-5.243],[120.07,-5.237],[120.0715,-5.2365],[120.075,-5.235],[120.0765,-5.232],[120.078,-5.2265]]]},"properties":{"code":"73.07.04.2011","name":"Gantarang","latitude":-5.233690033599357,"longitude":120.05956060826098}},{"type":"Feature","geometry":{"type":"Polygon","coordinates":[[[120.2505,-5.1245],[120.2495,-5.1235],[120.2445,-5.118],[120.242,-5.118],[120.22,-5.1315],[120.2215,-5.134],[120.222,-5.133],[120.2295,-5.132],[120.2315,-5.131],[120.2395,-5.1335],[120.2415,-5.134],[120.2395,-5.1375],[120.241,-5.1385],[120.2455,-5.138],[120.2445,-5.1415],[120.245,-5.142],[120.2475,-5.1405],[120.26,-5.127],[120.26,-5.1255],[120.2555,-5.1245],[120.2535,-5.1235],[120.2525,-5.124],[120.2505,-5.1245]]]},"properties":{"code":"73.07.05.1001","name":"Biringere","latitude":-5.128916937570782,"longitude":120.2421170671184}},{"type":"Feature","geometry":{"type":"Polygon","coordinates":[[[120.242,-5.093],[120.2405,-5.092],[120.239,-5.0905],[120.2355,-5.0885],[120.233,-5.0875],[120.2315,-5.0875],[120.2315,-5.0935],[120.23,-5.0945],[120.2265,-5.093],[120.2255,-5.0925],[120.2235,-5.0935],[120.2225,-5.0935],[120.222,-5.0935],[120.221,-5.096],[120.221,-5.0975],[120.2155,-5.1],[120.215,-5.0995],[120.215,-5.099],[120.2145,-5.0985],[120.214,-5.101],[120.2135,-5.103],[120.2135,-5.105],[120.213,-5.1055],[120.2345,-5.112],[120.242,-5.093]]]},"properties":{"code":"73.07.05.1002","name":"Lamatti Rilau","latitude":-5.100990974537187,"longitude":120.22865289714171}},{"type":"Feature","geometry":{"type":"Polygon","coordinates":[[[120.2655,-5.1145],[120.2645,-5.1155],[120.2575,-5.111],[120.255,-5.1065],[120.2515,-5.121],[120.2505,-5.1245],[120.2525,-5.124],[120.2535,-5.1235],[120.2555,-5.1245],[120.26,-5.1255],[120.26,-5.127],[120.2605,-5.1275],[120.2655,-5.1145]]]},"properties":{"code":"73.07.05.1003","name":"Balangnipa","latitude":-5.11815235945558,"longitude":120.2577949678833}},{"type":"Feature","geometry":{"type":"Polygon","coordinates":[[[120.2895,-5.1135],[120.271,-5.106],[120.266,-5.102],[120.2635,-5.1025],[120.2635,-5.105],[120.2655,-5.1145],[120.2605,-5.1275],[120.262,-5.128],[120.2745,-5.1365],[120.287,-5.122],[120.2895,-5.1135]]]},"properties":{"code":"73.07.05.1004","name":"Lappa","latitude":-5.118952362187361,"longitude":120.2741297097451}},{"type":"Feature","geometry":{"type":"Polygon","coordinates":[[[120.255,-5.1065],[120.2495,-5.094],[120.242,-5.093],[120.2345,-5.112],[120.2385,-5.1155],[120.2445,-5.118],[120.2495,-5.1235],[120.2515,-5.121],[120.255,-5.1065]]]},"properties":{"code":"73.07.05.1005","name":"Bongki","latitude":-5.107379596975327,"longitude":120.24602367598814}},{"type":"Feature","geometry":{"type":"Polygon","coordinates":[[[120.2345,-5.112],[120.213,-5.1055],[120.2105,-5.107],[120.192,-5.115],[120.191,-5.1155],[120.1895,-5.116],[120.1865,-5.1165],[120.1835,-5.116],[120.1825,-5.1175],[120.1815,-5.119],[120.183,-5.1195],[120.182,-5.121],[120.183,-5.1235],[120.1865,-5.125],[120.1925,-5.125],[120.1935,-5.126],[120.198,-5.126],[120.2,-5.1265],[120.2075,-5.1265],[120.2115,-5.1275],[120.213,-5.1285],[120.214,-5.129],[120.22,-5.1315],[120.242,-5.118],[120.2385,-5.1155],[120.2345,-5.112]]]},"properties":{"code":"73.07.05.1006","name":"Alehanuae","latitude":-5.1185379717412,"longitude":120.21289683671152}},{"type":"Feature","geometry":{"type":"Polygon","coordinates":[[[120.1645,-5.0785],[120.1635,-5.078],[120.1605,-5.0745],[120.16,-5.073],[120.1455,-5.0765],[120.1415,-5.082],[120.15,-5.1035],[120.1455,-5.107],[120.1525,-5.123],[120.1555,-5.1235],[120.165,-5.121],[120.1745,-5.119],[120.176,-5.121],[120.18,-5.121],[120.183,-5.1195],[120.1815,-5.119],[120.1825,-5.1175],[120.183,-5.1165],[120.1775,-5.1145],[120.169,-5.114],[120.1675,-5.112],[120.167,-5.1055],[120.1675,-5.1055],[120.159,-5.099],[120.1645,-5.0785]]]},"properties":{"code":"73.07.06.2001","name":"Lamatti Riattang","latitude":-5.0988245411587085,"longitude":120.15756826201549}},{"type":"Feature","geometry":{"type":"Polygon","coordinates":[[[120.2145,-5.0985],[120.2145,-5.098],[120.214,-5.098],[120.2125,-5.0995],[120.212,-5.0995],[120.202,-5.0965],[120.2005,-5.094],[120.1985,-5.092],[120.191,-5.0965],[120.188,-5.098],[120.189,-5.099],[120.1865,-5.102],[120.186,-5.102],[120.1855,-5.103],[120.1835,-5.1035],[120.182,-5.105],[120.168,-5.106],[120.167,-5.1055],[120.1675,-5.112],[120.169,-5.114],[120.1775,-5.1145],[120.183,-5.1165],[120.1835,-5.116],[120.1865,-5.1165],[120.1895,-5.116],[120.191,-5.1155],[120.192,-5.115],[120.2105,-5.107],[120.2135,-5.105],[120.2135,-5.103],[120.214,-5.101],[120.2145,-5.0985]]]},"properties":{"code":"73.07.06.2002","name":"Lamatti Riaja","latitude":-5.1056928288137655,"longitude":120.19213122983639}},{"type":"Feature","geometry":{"type":"Polygon","coordinates":[[[120.1525,-5.123],[120.1455,-5.107],[120.15,-5.1035],[120.1415,-5.082],[120.13,-5.0875],[120.1285,-5.0875],[120.12,-5.095],[120.1185,-5.0955],[120.118,-5.0955],[120.11,-5.111],[120.103,-5.115],[120.1005,-5.1305],[120.0955,-5.1365],[120.092,-5.1395],[120.092,-5.141],[120.122,-5.133],[120.136,-5.1295],[120.1525,-5.123]]]},"properties":{"code":"73.07.06.2003","name":"Bulu Tellue","latitude":-5.1133789793543345,"longitude":120.12744034893778}},{"type":"Feature","geometry":{"type":"Polygon","coordinates":[[[120.1315,-5.0445],[120.1265,-5.0445],[120.119,-5.0585],[120.1175,-5.058],[120.1145,-5.062],[120.113,-5.063],[120.1135,-5.074],[120.1085,-5.0795],[120.118,-5.0955],[120.1185,-5.0955],[120.12,-5.095],[120.1285,-5.0875],[120.13,-5.0875],[120.1415,-5.082],[120.14,-5.0815],[120.1365,-5.081],[120.1315,-5.062],[120.138,-5.0575],[120.1375,-5.057],[120.138,-5.055],[120.139,-5.054],[120.138,-5.0535],[120.134,-5.0495],[120.132,-5.045],[120.1315,-5.0445]]]},"properties":{"code":"73.07.06.2004","name":"Duampanuae","latitude":-5.071760104689927,"longitude":120.124457937476}},{"type":"Feature","geometry":{"type":"Polygon","coordinates":[[[120.1175,-5.058],[120.117,-5.058],[120.116,-5.058],[120.1095,-5.063],[120.1095,-5.0665],[120.1075,-5.07],[120.1025,-5.073],[120.0855,-5.075],[120.0815,-5.0775],[120.0805,-5.08],[120.076,-5.09],[120.0755,-5.091],[120.06,-5.113],[120.0605,-5.1155],[120.0645,-5.1155],[120.068,-5.116],[120.075,-5.1195],[120.0755,-5.143],[120.086,-5.1525],[120.092,-5.141],[120.092,-5.1395],[120.0955,-5.1365],[120.1005,-5.1305],[120.103,-5.115],[120.11,-5.111],[120.118,-5.0955],[120.1085,-5.0795],[120.1135,-5.074],[120.113,-5.063],[120.1145,-5.062],[120.1175,-5.058]]]},"properties":{"code":"73.07.06.2005","name":"Tompobulu","latitude":-5.105598539455773,"longitude":120.09037334358703}},{"type":"Feature","geometry":{"type":"Polygon","coordinates":[[[120.191,-5.0755],[120.19,-5.074],[120.188,-5.0745],[120.1885,-5.0715],[120.188,-5.071],[120.186,-5.069],[120.1815,-5.069],[120.1775,-5.073],[120.1745,-5.0765],[120.173,-5.076],[120.169,-5.0745],[120.166,-5.0775],[120.165,-5.0785],[120.1645,-5.0785],[120.159,-5.099],[120.1675,-5.1055],[120.168,-5.106],[120.182,-5.105],[120.1835,-5.1035],[120.1855,-5.103],[120.186,-5.102],[120.1865,-5.102],[120.189,-5.099],[120.188,-5.098],[120.191,-5.0965],[120.1985,-5.092],[120.1975,-5.0905],[120.1965,-5.091],[120.1955,-5.0865],[120.1945,-5.0835],[120.1955,-5.081],[120.192,-5.0785],[120.19,-5.0805],[120.1885,-5.0805],[120.1895,-5.0775],[120.191,-5.0755]]]},"properties":{"code":"73.07.06.2006","name":"Lamatti Riawang","latitude":-5.089613328095043,"longitude":120.17763351829471}},{"type":"Feature","geometry":{"type":"Polygon","coordinates":[[[120.16,-5.073],[120.16,-5.072],[120.1615,-5.0685],[120.1615,-5.0655],[120.1595,-5.0635],[120.157,-5.063],[120.1545,-5.0645],[120.1515,-5.0595],[120.1505,-5.0585],[120.1495,-5.0595],[120.147,-5.0605],[120.14,-5.057],[120.138,-5.0575],[120.1315,-5.062],[120.1365,-5.081],[120.14,-5.0815],[120.1415,-5.082],[120.1455,-5.0765],[120.16,-5.073]]]},"properties":{"code":"73.07.06.2007","name":"Lappacinrana","latitude":-5.068421227805468,"longitude":120.14523852057626}},{"type":"Feature","geometry":{"type":"Polygon","coordinates":[[[120.078,-5.316],[120.0775,-5.317],[120.051,-5.31],[120.0505,-5.3115],[120.055,-5.3395],[120.0585,-5.336],[120.068,-5.3345],[120.0735,-5.338],[120.074,-5.339],[120.075,-5.3355],[120.078,-5.334],[120.078,-5.3335],[120.0775,-5.3335],[120.075,-5.333],[120.0755,-5.3315],[120.078,-5.3305],[120.0785,-5.3285],[120.0785,-5.3215],[120.0795,-5.319],[120.078,-5.3175],[120.078,-5.3165],[120.078,-5.316]]]},"properties":{"code":"73.07.07.1001","name":"Pasir Putih","latitude":-5.323807043513105,"longitude":120.0638612392209}},{"type":"Feature","geometry":{"type":"Polygon","coordinates":[[[120.01,-5.286],[120.009,-5.2865],[120.006,-5.2855],[120.005,-5.286],[120.004,-5.286],[119.998,-5.288],[119.996,-5.2895],[119.984,-5.2935],[119.971,-5.3085],[119.963,-5.325],[119.9635,-5.339],[119.967,-5.3415],[119.9695,-5.3405],[119.9725,-5.338],[119.992,-5.309],[120.0025,-5.3095],[120.013,-5.3175],[120.031,-5.3115],[120.035,-5.3095],[120.042,-5.31],[120.0435,-5.3095],[120.0435,-5.31],[120.051,-5.31],[120.051,-5.306],[120.0505,-5.3045],[120.0515,-5.303],[120.0535,-5.2955],[120.0515,-5.296],[120.041,-5.3005],[120.0275,-5.2965],[120.01,-5.286]]]},"properties":{"code":"73.07.07.2002","name":"Batu Belerang","latitude":-5.307862118221593,"longitude":120.00338795616037}},{"type":"Feature","geometry":{"type":"Polygon","coordinates":[[[120.0815,-5.2895],[120.0805,-5.2895],[120.0795,-5.288],[120.077,-5.2875],[120.076,-5.2845],[120.0745,-5.2845],[120.054,-5.2955],[120.0535,-5.2955],[120.0515,-5.303],[120.052,-5.3045],[120.0525,-5.3035],[120.0545,-5.3035],[120.0645,-5.305],[120.067,-5.3055],[120.0705,-5.305],[120.0725,-5.305],[120.074,-5.3045],[120.077,-5.3025],[120.078,-5.3025],[120.0795,-5.3025],[120.0835,-5.302],[120.085,-5.3025],[120.088,-5.303],[120.088,-5.302],[120.0875,-5.301],[120.0855,-5.298],[120.0835,-5.2925],[120.0815,-5.2895]]]},"properties":{"code":"73.07.07.2003","name":"Biji Nangka","latitude":-5.2965416850456775,"longitude":120.07007718404891}},{"type":"Feature","geometry":{"type":"Polygon","coordinates":[[[120.0815,-5.2885],[120.076,-5.284],[120.0715,-5.282],[120.0625,-5.282],[120.058,-5.2765],[120.0555,-5.277],[120.0345,-5.2855],[120.017,-5.2775],[120.016,-5.278],[120.0145,-5.2795],[120.0145,-5.2805],[120.0135,-5.2815],[120.013,-5.282],[120.0125,-5.2825],[120.011,-5.284],[120.01,-5.286],[120.0275,-5.2965],[120.041,-5.3005],[120.0515,-5.296],[120.054,-5.2955],[120.0745,-5.2845],[120.076,-5.2845],[120.077,-5.2875],[120.0795,-5.288],[120.0805,-5.2895],[120.0815,-5.2895],[120.0815,-5.2885]]]},"properties":{"code":"73.07.07.2004","name":"Barambang","latitude":-5.287732247651467,"longitude":120.04133158467427}},{"type":"Feature","geometry":{"type":"Polygon","coordinates":[[[120.088,-5.303],[120.085,-5.3025],[120.0835,-5.302],[120.0795,-5.3025],[120.078,-5.3025],[120.077,-5.3025],[120.074,-5.3045],[120.0725,-5.305],[120.0705,-5.305],[120.067,-5.3055],[120.0645,-5.305],[120.0545,-5.3035],[120.0525,-5.3035],[120.052,-5.3045],[120.0505,-5.3045],[120.051,-5.306],[120.051,-5.31],[120.0775,-5.317],[120.078,-5.316],[120.0785,-5.316],[120.079,-5.316],[120.0795,-5.3165],[120.0825,-5.3155],[120.083,-5.3155],[120.0835,-5.3155],[120.084,-5.316],[120.086,-5.317],[120.087,-5.316],[120.0885,-5.3155],[120.0905,-5.315],[120.0915,-5.315],[120.0935,-5.316],[120.096,-5.316],[120.0975,-5.316],[120.0975,-5.3165],[120.0995,-5.3165],[120.103,-5.3165],[120.0895,-5.3095],[120.0875,-5.309],[120.086,-5.308],[120.085,-5.3085],[120.0845,-5.3075],[120.085,-5.3045],[120.086,-5.3045],[120.0865,-5.304],[120.088,-5.303]]]},"properties":{"code":"73.07.07.2005","name":"Bonto Sinala","latitude":-5.309997249143223,"longitude":120.07601120229923}},{"type":"Feature","geometry":{"type":"Polygon","coordinates":[[[120.051,-5.31],[120.0435,-5.31],[120.0435,-5.3095],[120.039,-5.3165],[120.0355,-5.325],[120.0305,-5.329],[120.0325,-5.3395],[120.038,-5.345],[120.0385,-5.3465],[120.0445,-5.346],[120.055,-5.3395],[120.0505,-5.3115],[120.051,-5.31]]]},"properties":{"code":"73.07.07.2006","name":"Kassi Buleng","latitude":-5.330135622955108,"longitude":120.04329331411788}},{"type":"Feature","geometry":{"type":"Polygon","coordinates":[[[120.064,-5.2435],[120.058,-5.245],[120.05,-5.243],[120.049,-5.242],[120.0485,-5.2405],[120.045,-5.2365],[120.043,-5.2355],[120.043,-5.246],[120.0505,-5.252],[120.0495,-5.2525],[120.0195,-5.277],[120.017,-5.2775],[120.0345,-5.2855],[120.0555,-5.277],[120.058,-5.2765],[120.0625,-5.282],[120.0715,-5.282],[120.076,-5.284],[120.0815,-5.2885],[120.081,-5.286],[120.081,-5.2845],[120.081,-5.284],[120.082,-5.283],[120.086,-5.2815],[120.091,-5.273],[120.0905,-5.273],[120.0895,-5.2725],[120.075,-5.263],[120.074,-5.2605],[120.074,-5.2585],[120.0745,-5.253],[120.081,-5.245],[120.0815,-5.245],[120.0805,-5.243],[120.0795,-5.2415],[120.064,-5.2435]]]},"properties":{"code":"73.07.07.2007","name":"Bonto Katute","latitude":-5.265425495797463,"longitude":120.05734675126146}},{"type":"Feature","geometry":{"type":"Polygon","coordinates":[[[120.0435,-5.3095],[120.043,-5.3095],[120.042,-5.31],[120.035,-5.3095],[120.031,-5.3115],[120.013,-5.3175],[120.0025,-5.3095],[119.992,-5.309],[119.9725,-5.338],[119.9755,-5.336],[119.98,-5.3325],[119.988,-5.3295],[119.9975,-5.321],[119.999,-5.32],[120.013,-5.3265],[120.02,-5.338],[120.0325,-5.3395],[120.0305,-5.329],[120.0355,-5.325],[120.039,-5.3165],[120.0435,-5.3095]]]},"properties":{"code":"73.07.07.2008","name":"Bonto Tengnga","latitude":-5.322535895480258,"longitude":120.01232732335968}},{"type":"Feature","geometry":{"type":"Polygon","coordinates":[[[120.2655,-5.2225],[120.2645,-5.222],[120.2635,-5.222],[120.263,-5.222],[120.264,-5.23],[120.2605,-5.2345],[120.26,-5.2285],[120.258,-5.2265],[120.254,-5.226],[120.253,-5.229],[120.2505,-5.2315],[120.2475,-5.232],[120.2445,-5.2285],[120.243,-5.2295],[120.243,-5.231],[120.245,-5.234],[120.2455,-5.235],[120.2465,-5.2405],[120.2445,-5.2425],[120.243,-5.243],[120.2405,-5.244],[120.2295,-5.259],[120.222,-5.2565],[120.2065,-5.2685],[120.202,-5.282],[120.2005,-5.2835],[120.192,-5.2885],[120.1875,-5.2915],[120.1865,-5.292],[120.1855,-5.292],[120.184,-5.296],[120.1765,-5.3085],[120.177,-5.3125],[120.1795,-5.312],[120.185,-5.31],[120.1865,-5.31],[120.187,-5.3095],[120.1885,-5.3085],[120.195,-5.3065],[120.1965,-5.3065],[120.1975,-5.2975],[120.217,-5.285],[120.219,-5.2825],[120.219,-5.2775],[120.222,-5.277],[120.245,-5.2715],[120.248,-5.27],[120.2555,-5.2535],[120.2595,-5.252],[120.26,-5.2505],[120.2635,-5.239],[120.2655,-5.2295],[120.264,-5.226],[120.265,-5.224],[120.2655,-5.2225]]]},"properties":{"code":"73.07.08.1001","name":"Mannanti","latitude":-5.267824114873385,"longitude":120.22646940619705}},{"type":"Feature","geometry":{"type":"Polygon","coordinates":[[[120.1985,-5.253],[120.1905,-5.237],[120.1765,-5.257],[120.1785,-5.263],[120.1775,-5.2635],[120.1655,-5.2785],[120.1705,-5.2825],[120.175,-5.2825],[120.185,-5.2925],[120.1855,-5.292],[120.1865,-5.292],[120.1875,-5.2915],[120.192,-5.2885],[120.2005,-5.2835],[120.202,-5.282],[120.2065,-5.2685],[120.197,-5.2615],[120.1985,-5.253]]]},"properties":{"code":"73.07.08.2002","name":"Saotengah","latitude":-5.269798265756835,"longitude":120.1888321773443}},{"type":"Feature","geometry":{"type":"Polygon","coordinates":[[[120.185,-5.2925],[120.175,-5.2825],[120.1705,-5.2825],[120.165,-5.28],[120.1645,-5.2815],[120.1635,-5.2855],[120.1635,-5.286],[120.159,-5.2915],[120.158,-5.292],[120.1555,-5.295],[120.152,-5.2955],[120.1495,-5.2965],[120.1485,-5.2975],[120.15,-5.299],[120.1675,-5.309],[120.17,-5.314],[120.1705,-5.3125],[120.1755,-5.312],[120.1765,-5.3085],[120.184,-5.296],[120.185,-5.2925]]]},"properties":{"code":"73.07.08.2003","name":"Kalobba","latitude":-5.296575418394847,"longitude":120.16924037077307}},{"type":"Feature","geometry":{"type":"Polygon","coordinates":[[[120.2895,-5.253],[120.289,-5.2525],[120.289,-5.252],[120.2885,-5.2515],[120.2865,-5.251],[120.2845,-5.2505],[120.27,-5.257],[120.2595,-5.252],[120.2555,-5.2535],[120.248,-5.27],[120.245,-5.2715],[120.222,-5.277],[120.219,-5.2775],[120.219,-5.2825],[120.217,-5.285],[120.1975,-5.2975],[120.1965,-5.3065],[120.199,-5.3055],[120.204,-5.3015],[120.225,-5.3005],[120.226,-5.2995],[120.228,-5.298],[120.229,-5.2975],[120.23,-5.297],[120.231,-5.2975],[120.241,-5.298],[120.2445,-5.2995],[120.245,-5.298],[120.2465,-5.2965],[120.2475,-5.2955],[120.25,-5.295],[120.2525,-5.295],[120.254,-5.294],[120.256,-5.2925],[120.264,-5.286],[120.2665,-5.287],[120.268,-5.2865],[120.27,-5.287],[120.2785,-5.2915],[120.2815,-5.2905],[120.282,-5.29],[120.285,-5.2905],[120.2875,-5.2875],[120.2895,-5.2865],[120.295,-5.2895],[120.2965,-5.2835],[120.286,-5.261],[120.2895,-5.253]]]},"properties":{"code":"73.07.08.2004","name":"Tellu Limpoe","latitude":-5.279482862317516,"longitude":120.25312846507292}},{"type":"Feature","geometry":{"type":"Polygon","coordinates":[[[120.207,-5.226],[120.2055,-5.2275],[120.202,-5.227],[120.2015,-5.2275],[120.1975,-5.225],[120.1935,-5.228],[120.1915,-5.229],[120.1865,-5.228],[120.185,-5.229],[120.1835,-5.2305],[120.1905,-5.237],[120.1985,-5.253],[120.212,-5.252],[120.227,-5.236],[120.228,-5.2335],[120.23,-5.23],[120.227,-5.2295],[120.2225,-5.227],[120.2215,-5.2265],[120.2105,-5.228],[120.2075,-5.2255],[120.207,-5.2255],[120.207,-5.226]]]},"properties":{"code":"73.07.08.2005","name":"Massaile","latitude":-5.2377491655873385,"longitude":120.20610469165875}},{"type":"Feature","geometry":{"type":"Polygon","coordinates":[[[120.243,-5.231],[120.243,-5.2315],[120.242,-5.232],[120.2395,-5.225],[120.238,-5.2255],[120.236,-5.2275],[120.234,-5.2295],[120.2335,-5.2305],[120.2305,-5.2305],[120.23,-5.23],[120.228,-5.2335],[120.227,-5.236],[120.212,-5.252],[120.1985,-5.253],[120.197,-5.2615],[120.2065,-5.2685],[120.222,-5.2565],[120.2295,-5.259],[120.2405,-5.244],[120.243,-5.243],[120.2445,-5.2425],[120.2465,-5.2405],[120.2455,-5.235],[120.245,-5.234],[120.243,-5.231]]]},"properties":{"code":"73.07.08.2006","name":"Lembang Lohe","latitude":-5.248499430796371,"longitude":120.22329625809212}},{"type":"Feature","geometry":{"type":"Polygon","coordinates":[[[120.3345,-5.2875],[120.3245,-5.2515],[120.3205,-5.243],[120.318,-5.2455],[120.3155,-5.248],[120.3115,-5.25],[120.3085,-5.2495],[120.3015,-5.247],[120.3005,-5.248],[120.303,-5.259],[120.31,-5.2675],[120.317,-5.285],[120.3185,-5.285],[120.3205,-5.2905],[120.321,-5.29],[120.3225,-5.291],[120.323,-5.291],[120.3235,-5.2905],[120.3275,-5.289],[120.3295,-5.2885],[120.3345,-5.2875]]]},"properties":{"code":"73.07.08.2007","name":"Pattongko","latitude":-5.267057401262086,"longitude":120.31836783579678}},{"type":"Feature","geometry":{"type":"Polygon","coordinates":[[[120.3135,-5.2265],[120.3055,-5.2265],[120.3035,-5.227],[120.301,-5.2275],[120.2955,-5.229],[120.294,-5.2295],[120.294,-5.23],[120.294,-5.2335],[120.294,-5.2345],[120.2935,-5.2365],[120.291,-5.2465],[120.2905,-5.2485],[120.2915,-5.2485],[120.292,-5.2485],[120.292,-5.248],[120.296,-5.251],[120.2995,-5.249],[120.3015,-5.247],[120.3085,-5.2495],[120.3115,-5.25],[120.3155,-5.248],[120.318,-5.2455],[120.3205,-5.243],[120.3135,-5.2265]]]},"properties":{"code":"73.07.08.2008","name":"Bua","latitude":-5.2389590903235,"longitude":120.3052412943398}},{"type":"Feature","geometry":{"type":"Polygon","coordinates":[[[120.301,-5.2275],[120.2895,-5.2185],[120.2845,-5.2175],[120.281,-5.2145],[120.28,-5.2135],[120.28,-5.2165],[120.2795,-5.22],[120.2755,-5.2195],[120.275,-5.221],[120.273,-5.2265],[120.271,-5.2285],[120.2685,-5.2285],[120.2665,-5.226],[120.267,-5.2245],[120.267,-5.224],[120.2665,-5.223],[120.2655,-5.2225],[120.265,-5.224],[120.264,-5.226],[120.2655,-5.2295],[120.2635,-5.239],[120.26,-5.2505],[120.2595,-5.252],[120.27,-5.257],[120.2845,-5.2505],[120.2865,-5.251],[120.2885,-5.2515],[120.289,-5.252],[120.289,-5.2525],[120.29,-5.253],[120.2925,-5.255],[120.293,-5.2535],[120.291,-5.2495],[120.2905,-5.249],[120.291,-5.2465],[120.2935,-5.2365],[120.294,-5.2345],[120.294,-5.2335],[120.294,-5.23],[120.294,-5.2295],[120.2955,-5.229],[120.301,-5.2275]]]},"properties":{"code":"73.07.08.2009","name":"Suka Maju","latitude":-5.237478809446482,"longitude":120.27836648475514}},{"type":"Feature","geometry":{"type":"Polygon","coordinates":[[[120.3005,-5.248],[120.2995,-5.249],[120.296,-5.251],[120.292,-5.248],[120.292,-5.2485],[120.2915,-5.2485],[120.2905,-5.2485],[120.291,-5.2495],[120.293,-5.2535],[120.2925,-5.255],[120.29,-5.253],[120.2895,-5.253],[120.286,-5.261],[120.2965,-5.2835],[120.295,-5.2895],[120.304,-5.301],[120.305,-5.3015],[120.3115,-5.295],[120.312,-5.297],[120.3165,-5.295],[120.319,-5.2935],[120.32,-5.2915],[120.321,-5.2905],[120.3205,-5.2905],[120.3185,-5.285],[120.317,-5.285],[120.31,-5.2675],[120.303,-5.259],[120.3005,-5.248]]]},"properties":{"code":"73.07.08.2010","name":"Erabaru","latitude":-5.275014315611973,"longitude":120.30223832933875}},{"type":"Feature","geometry":{"type":"Polygon","coordinates":[[[120.1835,-5.2305],[120.1825,-5.2305],[120.18,-5.2305],[120.18,-5.234],[120.1785,-5.232],[120.176,-5.2365],[120.1745,-5.238],[120.1755,-5.239],[120.165,-5.255],[120.163,-5.258],[120.162,-5.2615],[120.1615,-5.264],[120.1605,-5.2675],[120.16,-5.27],[120.158,-5.277],[120.15,-5.2855],[120.1465,-5.2875],[120.1425,-5.2875],[120.141,-5.2885],[120.146,-5.294],[120.1485,-5.2975],[120.1495,-5.2965],[120.152,-5.2955],[120.1555,-5.295],[120.158,-5.292],[120.159,-5.2915],[120.1635,-5.286],[120.1635,-5.2855],[120.1645,-5.2815],[120.165,-5.28],[120.1655,-5.2785],[120.1775,-5.2635],[120.1785,-5.263],[120.1765,-5.257],[120.1905,-5.237],[120.1835,-5.2305]]]},"properties":{"code":"73.07.08.2011","name":"Samaturue","latitude":-5.2635821528572615,"longitude":120.16826383243252}},{"type":"Feature","geometry":{"type":"Polygon","coordinates":[[[120.4195,-5.101],[120.4205,-5.1005],[120.422,-5.095],[120.42,-5.0945],[120.4185,-5.098],[120.4195,-5.101]]]},"properties":{"code":"73.07.09.2001","name":"Pulau Harapan","latitude":-5.102402048290547,"longitude":120.41755335049747}},{"type":"Feature","geometry":{"type":"Polygon","coordinates":[[[120.3915,-5.1155],[120.3875,-5.121],[120.389,-5.1245],[120.3955,-5.1245],[120.396,-5.12],[120.3915,-5.1155]]]},"properties":{"code":"73.07.09.2002","name":"Pulau Buhung Pitue","latitude":-5.121195418587546,"longitude":120.39193881643845}},{"type":"Feature","geometry":{"type":"Polygon","coordinates":[[[120.4225,-5.0485],[120.4185,-5.0485],[120.413,-5.0515],[120.4205,-5.053],[120.4225,-5.0485]]]},"properties":{"code":"73.07.09.2003","name":"Pulau Padaelo","latitude":-5.054945969788563,"longitude":120.42118017601727}},{"type":"Feature","geometry":{"type":"Polygon","coordinates":[[[120.3985,-5.042],[120.396,-5.042],[120.397,-5.0445],[120.3985,-5.042]]]},"properties":{"code":"73.07.09.2004","name":"Pulau Persatuan","latitude":-5.048583719888768,"longitude":120.3957129335923}}]}