{"type":"FeatureCollection","features":[{"type":"Feature","geometry":{"type":"Polygon","coordinates":[[[118.1705,-7.085],[118.173,-7.079],[118.1615,-7.0885],[118.1685,-7.09],[118.1705,-7.085]]]},"properties":{"code":"73.10.01.1001","name":"Sapuka"}},{"type":"Feature","geometry":{"type":"Polygon","coordinates":[[[118.841,-6.5755],[118.8315,-6.569],[118.825,-6.5765],[118.8375,-6.5835],[118.841,-6.5755]]]},"properties":{"code":"73.10.01.2002","name":"Sabaru"}},{"type":"Feature","geometry":{"type":"Polygon","coordinates":[[[118.4025,-7.182],[118.3915,-7.189],[118.382,-7.191],[118.382,-7.1975],[118.397,-7.1925],[118.4025,-7.182]]]},"properties":{"code":"73.10.01.2003","name":"Balo Baloang"}},{"type":"Feature","geometry":{"type":"MultiPolygon","coordinates":[[[[119.1135,-6.8365],[119.0975,-6.8495],[119.0935,-6.8625],[119.1035,-6.8665],[119.123,-6.858],[119.125,-6.844],[119.1135,-6.8365]]],[[[119.193,-6.821],[119.183,-6.82],[119.174,-6.826],[119.1675,-6.839],[119.172,-6.8435],[119.1825,-6.8295],[119.193,-6.821]]]]},"properties":{"code":"73.10.01.2004","name":"Sabalana"}},{"type":"Feature","geometry":{"type":"Polygon","coordinates":[[[117.8655,-7.44],[117.8695,-7.4475],[117.873,-7.4455],[117.8655,-7.44]]]},"properties":{"code":"73.10.01.2005","name":"Tampaang"}},{"type":"Feature","geometry":{"type":"Polygon","coordinates":[[[117.4405,-7.5125],[117.4245,-7.5175],[117.43,-7.538],[117.438,-7.534],[117.4405,-7.5125]]]},"properties":{"code":"73.10.01.2006","name":"Sailus"}},{"type":"Feature","geometry":{"type":"Polygon","coordinates":[[[117.2895,-7.5255],[117.279,-7.5325],[117.29,-7.5395],[117.314,-7.5385],[117.306,-7.529],[117.2895,-7.5255]]]},"properties":{"code":"73.10.01.2007","name":"Satanger"}},{"type":"Feature","geometry":{"type":"Polygon","coordinates":[[[117.1825,-7.4925],[117.175,-7.5055],[117.196,-7.5015],[117.1825,-7.4925]]]},"properties":{"code":"73.10.01.2008","name":"Kapoposang Bali"}},{"type":"Feature","geometry":{"type":"Polygon","coordinates":[[[117.4445,-7.575],[117.4405,-7.5825],[117.45,-7.5895],[117.4555,-7.586],[117.4445,-7.575]]]},"properties":{"code":"73.10.01.2009","name":"Poleonro"}},{"type":"Feature","geometry":{"type":"Polygon","coordinates":[[[117.661,-5.176],[117.654,-5.1915],[117.6605,-5.2015],[117.6565,-5.221],[117.6815,-5.198],[117.678,-5.19],[117.661,-5.176]]]},"properties":{"code":"73.10.02.1001","name":"Kalu-Kalukuang"}},{"type":"Feature","geometry":{"type":"Polygon","coordinates":[[[117.073,-5.018],[117.069,-5.021],[117.071,-5.025],[117.076,-5.021],[117.073,-5.018]]]},"properties":{"code":"73.10.02.2002","name":"Pammas"}},{"type":"Feature","geometry":{"type":"Polygon","coordinates":[[[117.0505,-5.0895],[117.0465,-5.097],[117.054,-5.1015],[117.062,-5.098],[117.0505,-5.0895]]]},"properties":{"code":"73.10.02.2003","name":"Sabaru"}},{"type":"Feature","geometry":{"type":"Polygon","coordinates":[[[117.8925,-5.236],[117.886,-5.2395],[117.8905,-5.2625],[117.9,-5.262],[117.8925,-5.236]]]},"properties":{"code":"73.10.02.2004","name":"Kanyurang"}},{"type":"Feature","geometry":{"type":"Polygon","coordinates":[[[117.93,-5.353],[117.9205,-5.357],[117.9265,-5.3875],[117.935,-5.4035],[117.9475,-5.408],[117.953,-5.4005],[117.951,-5.383],[117.93,-5.353]]]},"properties":{"code":"73.10.02.2005","name":"Doang-Doangan Lompo"}},{"type":"Feature","geometry":{"type":"Polygon","coordinates":[[[118.155,-5.134],[118.147,-5.1145],[118.1395,-5.1275],[118.155,-5.134]]]},"properties":{"code":"73.10.02.2006","name":"Marasende"}},{"type":"Feature","geometry":{"type":"Polygon","coordinates":[[[118.429,-5.3955],[118.425,-5.3975],[118.426,-5.4175],[118.4355,-5.4095],[118.429,-5.3955]]]},"properties":{"code":"73.10.02.2007","name":"Dewakang"}},{"type":"Feature","geometry":{"type":"Polygon","coordinates":[[[119.3985,-4.941],[119.396,-4.9465],[119.4005,-4.9445],[119.3985,-4.941]]]},"properties":{"code":"73.10.03.1001","name":"Mattiro Sompe"}},{"type":"Feature","geometry":{"type":"Polygon","coordinates":[[[119.4185,-4.9445],[119.42,-4.9435],[119.4205,-4.9415],[119.4175,-4.942],[119.4185,-4.9445]]]},"properties":{"code":"73.10.03.1016","name":"Mattiro Bintang"}},{"type":"Feature","geometry":{"type":"Polygon","coordinates":[[[119.288,-4.9685],[119.2895,-4.967],[119.2865,-4.9665],[119.286,-4.9685],[119.288,-4.9685]]]},"properties":{"code":"73.10.03.2002","name":"Mattiro Deceng"}},{"type":"Feature","geometry":{"type":"Polygon","coordinates":[[[119.267,-4.883],[119.268,-4.881],[119.265,-4.88],[119.2655,-4.883],[119.267,-4.883]]]},"properties":{"code":"73.10.03.2003","name":"Mattiro Langi"}},{"type":"Feature","geometry":{"type":"Polygon","coordinates":[[[119.0645,-4.7165],[119.0605,-4.7175],[119.0615,-4.7195],[119.0645,-4.7165]]]},"properties":{"code":"73.10.03.2009","name":"Mattiro Matae"}},{"type":"Feature","geometry":{"type":"Polygon","coordinates":[[[118.9545,-4.6955],[118.9555,-4.6975],[118.96,-4.7],[118.9635,-4.704],[118.966,-4.704],[118.9635,-4.6995],[118.9575,-4.698],[118.9545,-4.6955]]]},"properties":{"code":"73.10.03.2010","name":"Mattiro Ujung"}},{"type":"Feature","geometry":{"type":"Polygon","coordinates":[[[119.34,-4.888],[119.341,-4.886],[119.3395,-4.8855],[119.3395,-4.887],[119.34,-4.888]]]},"properties":{"code":"73.10.03.2011","name":"Mattiro Dolangeng"}},{"type":"Feature","geometry":{"type":"Polygon","coordinates":[[[119.321,-4.9305],[119.3215,-4.928],[119.32,-4.927],[119.321,-4.9305]]]},"properties":{"code":"73.10.03.2013","name":"Mattiro Bone"}},{"type":"Feature","geometry":{"type":"Polygon","coordinates":[[[119.3415,-4.9475],[119.3425,-4.9455],[119.3415,-4.9445],[119.3405,-4.9465],[119.3415,-4.9475]]]},"properties":{"code":"73.10.03.2015","name":"Mattaro Adae"}},{"type":"Feature","geometry":{"type":"Polygon","coordinates":[[[119.5415,-4.835],[119.5375,-4.8345],[119.5305,-4.8345],[119.529,-4.8375],[119.5305,-4.841],[119.5295,-4.842],[119.5295,-4.8475],[119.54,-4.8475],[119.5425,-4.838],[119.5415,-4.835]]]},"properties":{"code":"73.10.04.1001","name":"Jagong"}},{"type":"Feature","geometry":{"type":"Polygon","coordinates":[[[119.549,-4.834],[119.549,-4.829],[119.5485,-4.8295],[119.536,-4.83],[119.535,-4.83],[119.535,-4.831],[119.522,-4.835],[119.5115,-4.848],[119.529,-4.8425],[119.5305,-4.841],[119.529,-4.8375],[119.5305,-4.8345],[119.5375,-4.8345],[119.549,-4.834]]]},"properties":{"code":"73.10.04.1002","name":"Mappasaile"}},{"type":"Feature","geometry":{"type":"Polygon","coordinates":[[[119.5745,-4.8105],[119.5745,-4.8095],[119.574,-4.8085],[119.572,-4.808],[119.571,-4.81],[119.57,-4.8215],[119.5625,-4.82],[119.56,-4.8205],[119.549,-4.828],[119.549,-4.829],[119.549,-4.834],[119.554,-4.8345],[119.556,-4.8335],[119.5565,-4.8315],[119.5575,-4.8305],[119.5625,-4.8285],[119.5685,-4.826],[119.5695,-4.826],[119.5705,-4.8245],[119.5725,-4.8205],[119.574,-4.819],[119.5735,-4.811],[119.5745,-4.8105]]]},"properties":{"code":"73.10.04.1003","name":"Pabundukang"}},{"type":"Feature","geometry":{"type":"Polygon","coordinates":[[[119.5575,-4.8455],[119.5405,-4.8455],[119.54,-4.8475],[119.5295,-4.8475],[119.516,-4.86],[119.5095,-4.8645],[119.5075,-4.8675],[119.5115,-4.87],[119.514,-4.871],[119.5175,-4.8705],[119.5185,-4.8675],[119.5195,-4.8675],[119.525,-4.863],[119.5495,-4.857],[119.552,-4.8555],[119.5535,-4.853],[119.556,-4.8475],[119.557,-4.846],[119.5575,-4.8455]]]},"properties":{"code":"73.10.04.1004","name":"Anrong Appaka"}},{"type":"Feature","geometry":{"type":"Polygon","coordinates":[[[119.5735,-4.86],[119.568,-4.868],[119.545,-4.866],[119.5315,-4.87],[119.5305,-4.8715],[119.5285,-4.871],[119.5275,-4.8695],[119.525,-4.863],[119.5195,-4.8675],[119.5185,-4.8675],[119.5175,-4.8705],[119.5135,-4.872],[119.519,-4.882],[119.5315,-4.894],[119.542,-4.8925],[119.546,-4.892],[119.5515,-4.8915],[119.5525,-4.8905],[119.576,-4.8745],[119.577,-4.873],[119.575,-4.873],[119.5745,-4.8695],[119.5755,-4.869],[119.5755,-4.87],[119.5775,-4.869],[119.579,-4.8695],[119.5805,-4.868],[119.5745,-4.862],[119.5735,-4.86]]]},"properties":{"code":"73.10.04.1005","name":"Sibatua"}},{"type":"Feature","geometry":{"type":"Polygon","coordinates":[[[119.5625,-4.8395],[119.5615,-4.831],[119.561,-4.8305],[119.5605,-4.829],[119.5585,-4.83],[119.557,-4.831],[119.5565,-4.8315],[119.556,-4.8335],[119.554,-4.8345],[119.5465,-4.8345],[119.548,-4.8365],[119.558,-4.8465],[119.5625,-4.8395]]]},"properties":{"code":"73.10.04.1006","name":"Padoang Doangan"}},{"type":"Feature","geometry":{"type":"Polygon","coordinates":[[[119.5575,-4.8455],[119.548,-4.8365],[119.5465,-4.8345],[119.5415,-4.835],[119.5425,-4.838],[119.5405,-4.8455],[119.5575,-4.8455]]]},"properties":{"code":"73.10.04.1007","name":"Tumampua"}},{"type":"Feature","geometry":{"type":"Polygon","coordinates":[[[119.5295,-4.8475],[119.5295,-4.842],[119.529,-4.8425],[119.5115,-4.848],[119.5105,-4.849],[119.5095,-4.851],[119.5,-4.8495],[119.505,-4.8655],[119.507,-4.869],[119.5135,-4.872],[119.514,-4.871],[119.5115,-4.87],[119.5075,-4.8675],[119.5095,-4.8645],[119.516,-4.86],[119.5295,-4.8475]]]},"properties":{"code":"73.10.04.1008","name":"Tekolabbua"}},{"type":"Feature","geometry":{"type":"Polygon","coordinates":[[[119.558,-4.8465],[119.5575,-4.8455],[119.557,-4.846],[119.556,-4.8475],[119.5535,-4.853],[119.552,-4.8555],[119.5495,-4.857],[119.525,-4.863],[119.5275,-4.8695],[119.5285,-4.871],[119.5305,-4.8715],[119.5315,-4.87],[119.545,-4.866],[119.568,-4.868],[119.5735,-4.86],[119.574,-4.8575],[119.558,-4.8465]]]},"properties":{"code":"73.10.04.1009","name":"Bonto Perak"}},{"type":"Feature","geometry":{"type":"Polygon","coordinates":[[[119.7315,-4.911],[119.7285,-4.911],[119.7265,-4.91],[119.7175,-4.901],[119.6955,-4.8955],[119.682,-4.9095],[119.6775,-4.913],[119.6635,-4.9255],[119.6635,-4.9265],[119.6695,-4.9335],[119.673,-4.95],[119.678,-4.9505],[119.681,-4.9505],[119.705,-4.9485],[119.713,-4.941],[119.715,-4.94],[119.714,-4.9375],[119.713,-4.9325],[119.715,-4.9295],[119.7295,-4.9225],[119.7315,-4.9195],[119.7315,-4.916],[119.7315,-4.911]]]},"properties":{"code":"73.10.05.1001","name":"Balleangin"}},{"type":"Feature","geometry":{"type":"Polygon","coordinates":[[[119.7565,-4.8865],[119.756,-4.8825],[119.7565,-4.8815],[119.7565,-4.879],[119.7545,-4.8775],[119.755,-4.8765],[119.718,-4.884],[119.705,-4.882],[119.6865,-4.879],[119.673,-4.886],[119.6685,-4.8875],[119.657,-4.888],[119.652,-4.8895],[119.641,-4.9105],[119.6415,-4.9165],[119.642,-4.9165],[119.6435,-4.919],[119.645,-4.9205],[119.6475,-4.9215],[119.6635,-4.925],[119.6635,-4.9255],[119.6775,-4.913],[119.682,-4.9095],[119.6955,-4.8955],[119.7175,-4.901],[119.7265,-4.91],[119.7285,-4.911],[119.7315,-4.911],[119.7315,-4.9085],[119.7355,-4.901],[119.7515,-4.8985],[119.7565,-4.8865]]]},"properties":{"code":"73.10.05.1002","name":"Balocci Baru"}},{"type":"Feature","geometry":{"type":"Polygon","coordinates":[[[119.647,-4.8855],[119.6465,-4.8845],[119.6435,-4.8865],[119.632,-4.8925],[119.632,-4.8935],[119.6225,-4.908],[119.6385,-4.91],[119.6395,-4.9105],[119.64,-4.911],[119.64,-4.912],[119.641,-4.9105],[119.652,-4.8895],[119.654,-4.8885],[119.647,-4.8855]]]},"properties":{"code":"73.10.05.1003","name":"Kassi"}},{"type":"Feature","geometry":{"type":"Polygon","coordinates":[[[119.661,-4.856],[119.659,-4.8545],[119.6575,-4.854],[119.6555,-4.8545],[119.6405,-4.8575],[119.6375,-4.8575],[119.6345,-4.863],[119.6285,-4.8705],[119.611,-4.877],[119.6095,-4.885],[119.611,-4.888],[119.612,-4.888],[119.633,-4.8915],[119.632,-4.8925],[119.6435,-4.8865],[119.6465,-4.8845],[119.647,-4.8855],[119.654,-4.8885],[119.657,-4.888],[119.6685,-4.8875],[119.673,-4.886],[119.6865,-4.879],[119.676,-4.8775],[119.6605,-4.8675],[119.661,-4.856]]]},"properties":{"code":"73.10.05.1004","name":"Tonasa"}},{"type":"Feature","geometry":{"type":"Polygon","coordinates":[[[119.805,-4.8875],[119.793,-4.8835],[119.7805,-4.874],[119.754,-4.8675],[119.755,-4.8765],[119.7545,-4.8775],[119.7565,-4.879],[119.7565,-4.8815],[119.756,-4.8825],[119.7565,-4.8865],[119.7515,-4.8985],[119.7355,-4.901],[119.7315,-4.9085],[119.7315,-4.916],[119.7315,-4.9195],[119.7295,-4.9225],[119.715,-4.9295],[119.713,-4.9325],[119.714,-4.9375],[119.715,-4.94],[119.717,-4.939],[119.7185,-4.9395],[119.72,-4.939],[119.724,-4.9405],[119.747,-4.929],[119.7505,-4.932],[119.754,-4.938],[119.756,-4.9385],[119.758,-4.9385],[119.7585,-4.9385],[119.7595,-4.9395],[119.7605,-4.939],[119.761,-4.939],[119.77,-4.9425],[119.774,-4.9435],[119.7755,-4.942],[119.7775,-4.9405],[119.778,-4.939],[119.7825,-4.932],[119.785,-4.9285],[119.788,-4.927],[119.803,-4.926],[119.8045,-4.926],[119.804,-4.9225],[119.805,-4.9005],[119.805,-4.8985],[119.8055,-4.897],[119.805,-4.889],[119.805,-4.8875]]]},"properties":{"code":"73.10.05.2005","name":"Tompo Bulu"}},{"type":"Feature","geometry":{"type":"Polygon","coordinates":[[[119.5315,-4.815],[119.522,-4.8135],[119.5215,-4.8155],[119.516,-4.823],[119.4975,-4.8315],[119.5,-4.8495],[119.5095,-4.851],[119.5105,-4.849],[119.5115,-4.848],[119.522,-4.835],[119.535,-4.831],[119.5345,-4.83],[119.535,-4.8295],[119.5365,-4.827],[119.5405,-4.817],[119.5415,-4.8155],[119.5385,-4.8165],[119.537,-4.818],[119.535,-4.8175],[119.5315,-4.815]]]},"properties":{"code":"73.10.06.1001","name":"Bori Appaka"}},{"type":"Feature","geometry":{"type":"Polygon","coordinates":[[[119.566,-4.799],[119.5395,-4.798],[119.5375,-4.7975],[119.5315,-4.815],[119.535,-4.8175],[119.537,-4.818],[119.5385,-4.8165],[119.5415,-4.8155],[119.5405,-4.817],[119.5365,-4.827],[119.535,-4.8295],[119.5345,-4.83],[119.535,-4.83],[119.536,-4.83],[119.5485,-4.8295],[119.549,-4.828],[119.56,-4.8205],[119.5595,-4.8205],[119.554,-4.81],[119.5565,-4.8065],[119.566,-4.799]]]},"properties":{"code":"73.10.06.1002","name":"Samalewa"}},{"type":"Feature","geometry":{"type":"Polygon","coordinates":[[[119.595,-4.7875],[119.593,-4.787],[119.59,-4.788],[119.571,-4.794],[119.566,-4.799],[119.5565,-4.8065],[119.554,-4.81],[119.5595,-4.8205],[119.5625,-4.82],[119.57,-4.8215],[119.571,-4.81],[119.572,-4.808],[119.574,-4.8085],[119.5745,-4.8095],[119.5745,-4.8105],[119.575,-4.8105],[119.5775,-4.8085],[119.5805,-4.8065],[119.5825,-4.8045],[119.5885,-4.798],[119.591,-4.796],[119.5945,-4.797],[119.6015,-4.794],[119.599,-4.7905],[119.5985,-4.789],[119.5985,-4.7885],[119.595,-4.7875]]]},"properties":{"code":"73.10.06.1003","name":"Sapanang"}},{"type":"Feature","geometry":{"type":"Polygon","coordinates":[[[119.532,-4.796],[119.5285,-4.794],[119.525,-4.7945],[119.5235,-4.7955],[119.5215,-4.7975],[119.5205,-4.7965],[119.5195,-4.7965],[119.521,-4.8015],[119.521,-4.803],[119.5215,-4.8145],[119.522,-4.8135],[119.5315,-4.815],[119.5375,-4.7975],[119.5345,-4.797],[119.532,-4.796]]]},"properties":{"code":"73.10.06.2004","name":"Bowong Cindea"}},{"type":"Feature","geometry":{"type":"Polygon","coordinates":[[[119.681,-4.769],[119.6875,-4.7615],[119.688,-4.761],[119.692,-4.7585],[119.695,-4.757],[119.696,-4.7555],[119.6955,-4.754],[119.6935,-4.7505],[119.6915,-4.7465],[119.69,-4.74],[119.6915,-4.721],[119.6835,-4.7175],[119.663,-4.723],[119.6605,-4.724],[119.6615,-4.7255],[119.661,-4.726],[119.6595,-4.7265],[119.639,-4.7305],[119.6385,-4.7305],[119.6295,-4.738],[119.63,-4.7415],[119.6305,-4.7495],[119.638,-4.7635],[119.6355,-4.774],[119.6395,-4.772],[119.6585,-4.7685],[119.6575,-4.7725],[119.66,-4.7765],[119.6625,-4.7775],[119.663,-4.7775],[119.664,-4.7765],[119.6655,-4.7735],[119.6695,-4.774],[119.671,-4.7725],[119.672,-4.77],[119.6735,-4.7695],[119.681,-4.769]]]},"properties":{"code":"73.10.06.2005","name":"Tabo-Tabo"}},{"type":"Feature","geometry":{"type":"Polygon","coordinates":[[[119.6605,-4.777],[119.66,-4.7765],[119.6575,-4.7725],[119.6585,-4.7685],[119.6395,-4.772],[119.6355,-4.774],[119.629,-4.7755],[119.626,-4.8],[119.6295,-4.804],[119.6345,-4.8095],[119.641,-4.808],[119.6435,-4.8075],[119.6445,-4.8075],[119.645,-4.8035],[119.647,-4.803],[119.6555,-4.802],[119.6555,-4.799],[119.656,-4.798],[119.6565,-4.7975],[119.659,-4.7935],[119.664,-4.7895],[119.6605,-4.777]]]},"properties":{"code":"73.10.06.2006","name":"Mangilu"}},{"type":"Feature","geometry":{"type":"Polygon","coordinates":[[[119.5195,-4.7965],[119.517,-4.795],[119.5155,-4.7955],[119.5105,-4.79],[119.4975,-4.7935],[119.4965,-4.7935],[119.4945,-4.793],[119.4975,-4.8315],[119.516,-4.823],[119.5215,-4.8155],[119.5215,-4.8145],[119.521,-4.803],[119.521,-4.8015],[119.5195,-4.7965]]]},"properties":{"code":"73.10.06.2007","name":"Bulu Cindea"}},{"type":"Feature","geometry":{"type":"Polygon","coordinates":[[[119.629,-4.7755],[119.6255,-4.775],[119.6215,-4.775],[119.611,-4.777],[119.607,-4.779],[119.607,-4.7825],[119.5985,-4.7885],[119.5985,-4.789],[119.599,-4.7905],[119.6015,-4.794],[119.602,-4.794],[119.603,-4.7935],[119.6045,-4.794],[119.6075,-4.7915],[119.609,-4.792],[119.609,-4.791],[119.6105,-4.791],[119.6145,-4.7955],[119.617,-4.798],[119.6175,-4.7995],[119.6195,-4.8],[119.6215,-4.8],[119.624,-4.8],[119.626,-4.8],[119.629,-4.7755]]]},"properties":{"code":"73.10.06.2008","name":"Biring Ere"}},{"type":"Feature","geometry":{"type":"Polygon","coordinates":[[[119.552,-4.7665],[119.5325,-4.7615],[119.5315,-4.7625],[119.531,-4.762],[119.5285,-4.7675],[119.5275,-4.7705],[119.5275,-4.772],[119.526,-4.7725],[119.525,-4.7715],[119.5235,-4.774],[119.5245,-4.775],[119.526,-4.775],[119.531,-4.7795],[119.5305,-4.7805],[119.53,-4.781],[119.535,-4.786],[119.5385,-4.776],[119.5525,-4.781],[119.5525,-4.78],[119.552,-4.7665]]]},"properties":{"code":"73.10.07.1001","name":"Labakkang"}},{"type":"Feature","geometry":{"type":"Polygon","coordinates":[[[119.5525,-4.781],[119.5385,-4.776],[119.535,-4.786],[119.53,-4.781],[119.529,-4.781],[119.5255,-4.783],[119.527,-4.784],[119.5275,-4.785],[119.5325,-4.788],[119.532,-4.796],[119.5345,-4.797],[119.5395,-4.798],[119.566,-4.799],[119.5705,-4.7945],[119.562,-4.793],[119.5535,-4.787],[119.553,-4.7845],[119.5525,-4.781]]]},"properties":{"code":"73.10.07.1002","name":"Mangallekana"}},{"type":"Feature","geometry":{"type":"Polygon","coordinates":[[[119.5105,-4.768],[119.5075,-4.764],[119.5025,-4.7615],[119.4915,-4.7655],[119.4935,-4.784],[119.5085,-4.778],[119.5255,-4.7835],[119.529,-4.781],[119.5305,-4.7805],[119.531,-4.7795],[119.526,-4.775],[119.5245,-4.775],[119.5235,-4.774],[119.525,-4.7715],[119.526,-4.7725],[119.5265,-4.7725],[119.5255,-4.771],[119.5245,-4.771],[119.522,-4.775],[119.514,-4.776],[119.5105,-4.768]]]},"properties":{"code":"73.10.07.1003","name":"Pundata Baji"}},{"type":"Feature","geometry":{"type":"Polygon","coordinates":[[[119.5255,-4.783],[119.5255,-4.7835],[119.5085,-4.778],[119.4935,-4.784],[119.4945,-4.793],[119.4965,-4.7935],[119.4975,-4.7935],[119.5105,-4.79],[119.5155,-4.7955],[119.517,-4.795],[119.5205,-4.7965],[119.5215,-4.7975],[119.5235,-4.7955],[119.525,-4.7945],[119.5285,-4.794],[119.532,-4.796],[119.5325,-4.788],[119.5275,-4.785],[119.527,-4.784],[119.5255,-4.783]]]},"properties":{"code":"73.10.07.1004","name":"Borimasunggu"}},{"type":"Feature","geometry":{"type":"Polygon","coordinates":[[[119.5805,-4.7655],[119.58,-4.765],[119.566,-4.7625],[119.557,-4.761],[119.5545,-4.763],[119.552,-4.7665],[119.5525,-4.78],[119.553,-4.7845],[119.5535,-4.787],[119.557,-4.7895],[119.572,-4.7835],[119.576,-4.774],[119.5795,-4.769],[119.5805,-4.7655]]]},"properties":{"code":"73.10.07.2005","name":"Patallassang"}},{"type":"Feature","geometry":{"type":"Polygon","coordinates":[[[119.531,-4.762],[119.53,-4.7615],[119.5305,-4.76],[119.532,-4.759],[119.5325,-4.7595],[119.532,-4.7575],[119.5345,-4.7505],[119.5145,-4.743],[119.5145,-4.744],[119.516,-4.7685],[119.5145,-4.7675],[119.5105,-4.768],[119.514,-4.776],[119.522,-4.775],[119.5245,-4.771],[119.5255,-4.771],[119.5265,-4.7725],[119.5275,-4.772],[119.5275,-4.7705],[119.5285,-4.7675],[119.531,-4.762]]]},"properties":{"code":"73.10.07.2006","name":"Manakku"}},{"type":"Feature","geometry":{"type":"Polygon","coordinates":[[[119.5535,-4.747],[119.553,-4.7465],[119.5225,-4.7355],[119.5195,-4.7355],[119.5135,-4.735],[119.5145,-4.7385],[119.514,-4.74],[119.5125,-4.7395],[119.5095,-4.7385],[119.5145,-4.7425],[119.5145,-4.743],[119.5345,-4.7505],[119.532,-4.7575],[119.5325,-4.7595],[119.532,-4.759],[119.5305,-4.76],[119.53,-4.7615],[119.531,-4.762],[119.5315,-4.7625],[119.5325,-4.7615],[119.552,-4.7665],[119.5545,-4.763],[119.557,-4.761],[119.551,-4.7595],[119.5535,-4.747]]]},"properties":{"code":"73.10.07.2007","name":"Gentung"}},{"type":"Feature","geometry":{"type":"Polygon","coordinates":[[[119.586,-4.7625],[119.582,-4.7625],[119.581,-4.7655],[119.5805,-4.7655],[119.5795,-4.769],[119.576,-4.774],[119.572,-4.7835],[119.557,-4.7895],[119.562,-4.793],[119.5705,-4.7945],[119.571,-4.794],[119.59,-4.788],[119.593,-4.787],[119.595,-4.7875],[119.5925,-4.7665],[119.586,-4.7625]]]},"properties":{"code":"73.10.07.2008","name":"Batara"}},{"type":"Feature","geometry":{"type":"Polygon","coordinates":[[[119.6355,-4.774],[119.638,-4.7635],[119.634,-4.7565],[119.609,-4.7675],[119.602,-4.76],[119.5925,-4.7665],[119.595,-4.7875],[119.5985,-4.7885],[119.607,-4.7825],[119.607,-4.779],[119.611,-4.777],[119.6215,-4.775],[119.6255,-4.775],[119.629,-4.7755],[119.6355,-4.774]]]},"properties":{"code":"73.10.07.2009","name":"Taraweang"}},{"type":"Feature","geometry":{"type":"Polygon","coordinates":[[[119.5625,-4.7275],[119.5525,-4.729],[119.5505,-4.729],[119.5495,-4.7285],[119.5495,-4.73],[119.5465,-4.7305],[119.546,-4.733],[119.5425,-4.7305],[119.5385,-4.7305],[119.54,-4.7315],[119.5395,-4.733],[119.538,-4.7325],[119.5355,-4.7275],[119.537,-4.727],[119.535,-4.7245],[119.5315,-4.7255],[119.532,-4.729],[119.529,-4.728],[119.525,-4.7265],[119.5225,-4.727],[119.521,-4.7255],[119.516,-4.716],[119.51,-4.723],[119.5135,-4.735],[119.5195,-4.7355],[119.5225,-4.7355],[119.553,-4.7465],[119.555,-4.748],[119.561,-4.745],[119.575,-4.743],[119.5835,-4.7445],[119.5835,-4.742],[119.578,-4.7345],[119.5775,-4.73],[119.578,-4.7295],[119.5765,-4.729],[119.5735,-4.7285],[119.572,-4.7295],[119.57,-4.729],[119.567,-4.7285],[119.5625,-4.7275]]]},"properties":{"code":"73.10.07.2010","name":"Kanaungan"}},{"type":"Feature","geometry":{"type":"Polygon","coordinates":[[[119.51,-4.723],[119.501,-4.7245],[119.4905,-4.7345],[119.482,-4.7515],[119.4915,-4.7655],[119.5025,-4.7615],[119.5075,-4.764],[119.5105,-4.768],[119.5145,-4.7675],[119.516,-4.7685],[119.5145,-4.744],[119.5145,-4.7425],[119.5095,-4.7385],[119.5125,-4.7395],[119.514,-4.74],[119.5145,-4.7385],[119.5135,-4.735],[119.51,-4.723]]]},"properties":{"code":"73.10.07.2011","name":"Bonto Manai"}},{"type":"Feature","geometry":{"type":"Polygon","coordinates":[[[119.5835,-4.7445],[119.575,-4.743],[119.561,-4.745],[119.555,-4.748],[119.5535,-4.747],[119.551,-4.7595],[119.566,-4.7625],[119.58,-4.765],[119.5805,-4.7655],[119.581,-4.7655],[119.582,-4.7625],[119.586,-4.7625],[119.5875,-4.7575],[119.5885,-4.753],[119.5835,-4.745],[119.5835,-4.7445]]]},"properties":{"code":"73.10.07.2012","name":"Kassiloe"}},{"type":"Feature","geometry":{"type":"Polygon","coordinates":[[[119.5985,-4.7375],[119.5975,-4.738],[119.594,-4.738],[119.5785,-4.73],[119.578,-4.7295],[119.5775,-4.73],[119.578,-4.7345],[119.5835,-4.742],[119.5835,-4.745],[119.5885,-4.753],[119.5875,-4.7575],[119.586,-4.7625],[119.5925,-4.7665],[119.602,-4.76],[119.609,-4.7675],[119.634,-4.7565],[119.6305,-4.7495],[119.63,-4.7415],[119.6295,-4.737],[119.616,-4.74],[119.6125,-4.739],[119.6015,-4.7375],[119.5985,-4.7375]]]},"properties":{"code":"73.10.07.2013","name":"Bara Batu"}},{"type":"Feature","geometry":{"type":"Polygon","coordinates":[[[119.5535,-4.6885],[119.549,-4.6985],[119.5465,-4.702],[119.546,-4.704],[119.556,-4.709],[119.56,-4.708],[119.563,-4.705],[119.5665,-4.696],[119.566,-4.6955],[119.5615,-4.695],[119.558,-4.6935],[119.557,-4.6925],[119.5535,-4.6885]]]},"properties":{"code":"73.10.08.1001","name":"Bonto-Bonto"}},{"type":"Feature","geometry":{"type":"Polygon","coordinates":[[[119.5475,-4.7],[119.536,-4.6925],[119.5215,-4.69],[119.518,-4.6955],[119.516,-4.716],[119.521,-4.7255],[119.5225,-4.727],[119.525,-4.7265],[119.529,-4.728],[119.532,-4.729],[119.5315,-4.7255],[119.535,-4.7245],[119.537,-4.727],[119.5355,-4.7275],[119.538,-4.7325],[119.5395,-4.733],[119.54,-4.7315],[119.5385,-4.7305],[119.5425,-4.7305],[119.546,-4.733],[119.5465,-4.7305],[119.5495,-4.73],[119.5495,-4.7285],[119.5505,-4.729],[119.5525,-4.729],[119.5625,-4.7275],[119.5545,-4.7195],[119.556,-4.709],[119.546,-4.704],[119.5465,-4.702],[119.5475,-4.7]]]},"properties":{"code":"73.10.08.1002","name":"Talaka"}},{"type":"Feature","geometry":{"type":"Polygon","coordinates":[[[119.5765,-4.676],[119.558,-4.671],[119.5555,-4.6745],[119.5535,-4.6885],[119.557,-4.6925],[119.558,-4.6935],[119.5615,-4.695],[119.566,-4.6955],[119.568,-4.697],[119.572,-4.6985],[119.5775,-4.699],[119.58,-4.7015],[119.584,-4.7025],[119.597,-4.7025],[119.599,-4.688],[119.5765,-4.676]]]},"properties":{"code":"73.10.08.1003","name":"Ma'rang"}},{"type":"Feature","geometry":{"type":"Polygon","coordinates":[[[119.5835,-4.7025],[119.58,-4.7015],[119.5775,-4.699],[119.572,-4.6985],[119.568,-4.697],[119.5665,-4.696],[119.563,-4.705],[119.56,-4.708],[119.556,-4.709],[119.5545,-4.7195],[119.5625,-4.7275],[119.567,-4.7285],[119.57,-4.729],[119.572,-4.7295],[119.5735,-4.7285],[119.5765,-4.729],[119.5785,-4.73],[119.594,-4.738],[119.5975,-4.738],[119.5985,-4.7375],[119.5985,-4.7355],[119.591,-4.7135],[119.5835,-4.7025]]]},"properties":{"code":"73.10.08.1004","name":"Attang Salo"}},{"type":"Feature","geometry":{"type":"Polygon","coordinates":[[[119.597,-4.7025],[119.584,-4.7025],[119.5835,-4.7025],[119.591,-4.7135],[119.5985,-4.7355],[119.6015,-4.7375],[119.6125,-4.739],[119.616,-4.74],[119.6295,-4.737],[119.6295,-4.738],[119.6385,-4.7305],[119.639,-4.7305],[119.6255,-4.713],[119.6255,-4.7135],[119.597,-4.7025]]]},"properties":{"code":"73.10.08.2005","name":"Padang Lampe"}},{"type":"Feature","geometry":{"type":"Polygon","coordinates":[[[119.581,-4.671],[119.5765,-4.6695],[119.568,-4.664],[119.568,-4.6535],[119.551,-4.6445],[119.5435,-4.6565],[119.558,-4.671],[119.5765,-4.676],[119.58,-4.6725],[119.581,-4.671]]]},"properties":{"code":"73.10.08.2006","name":"Tamangapa"}},{"type":"Feature","geometry":{"type":"Polygon","coordinates":[[[119.558,-4.671],[119.5435,-4.6565],[119.537,-4.664],[119.547,-4.6745],[119.5555,-4.6745],[119.558,-4.671]]]},"properties":{"code":"73.10.08.2007","name":"Pitusunggu"}},{"type":"Feature","geometry":{"type":"Polygon","coordinates":[[[119.5555,-4.6745],[119.547,-4.6745],[119.537,-4.664],[119.525,-4.6765],[119.5215,-4.69],[119.536,-4.6925],[119.5475,-4.7],[119.549,-4.6985],[119.5535,-4.6885],[119.5555,-4.6745]]]},"properties":{"code":"73.10.08.2008","name":"Pitue"}},{"type":"Feature","geometry":{"type":"Polygon","coordinates":[[[119.609,-4.6855],[119.5975,-4.674],[119.581,-4.6705],[119.5805,-4.6715],[119.58,-4.6725],[119.5765,-4.676],[119.599,-4.688],[119.604,-4.6855],[119.6055,-4.685],[119.608,-4.685],[119.609,-4.6855]]]},"properties":{"code":"73.10.08.2009","name":"Punranga"}},{"type":"Feature","geometry":{"type":"Polygon","coordinates":[[[119.609,-4.6855],[119.608,-4.685],[119.6055,-4.685],[119.604,-4.6855],[119.599,-4.688],[119.597,-4.7025],[119.6255,-4.7135],[119.6255,-4.713],[119.624,-4.7105],[119.6235,-4.7045],[119.623,-4.702],[119.6155,-4.69],[119.614,-4.6915],[119.6135,-4.692],[119.611,-4.6885],[119.611,-4.6865],[119.609,-4.6855]]]},"properties":{"code":"73.10.08.2010","name":"Alesipitto"}},{"type":"Feature","geometry":{"type":"Polygon","coordinates":[[[119.5795,-4.643],[119.562,-4.643],[119.553,-4.6355],[119.551,-4.6445],[119.568,-4.6535],[119.568,-4.664],[119.5765,-4.6695],[119.58,-4.6705],[119.581,-4.671],[119.581,-4.6705],[119.5975,-4.674],[119.609,-4.6855],[119.6065,-4.676],[119.6055,-4.6735],[119.603,-4.655],[119.601,-4.653],[119.5995,-4.6525],[119.5975,-4.6545],[119.5915,-4.654],[119.5885,-4.6535],[119.585,-4.648],[119.5795,-4.643]]]},"properties":{"code":"73.10.09.1001","name":"Bonto Matene"}},{"type":"Feature","geometry":{"type":"Polygon","coordinates":[[[119.589,-4.651],[119.59,-4.6345],[119.588,-4.6345],[119.585,-4.6355],[119.5845,-4.635],[119.5835,-4.637],[119.5825,-4.6395],[119.5795,-4.643],[119.585,-4.648],[119.589,-4.651]]]},"properties":{"code":"73.10.09.1002","name":"Segeri"}},{"type":"Feature","geometry":{"type":"Polygon","coordinates":[[[119.5785,-4.619],[119.5755,-4.618],[119.5765,-4.626],[119.5775,-4.627],[119.584,-4.6345],[119.585,-4.6355],[119.588,-4.6345],[119.5905,-4.634],[119.607,-4.64],[119.595,-4.629],[119.5955,-4.627],[119.581,-4.6245],[119.5785,-4.619]]]},"properties":{"code":"73.10.09.1003","name":"Bone"}},{"type":"Feature","geometry":{"type":"Polygon","coordinates":[[[119.5755,-4.618],[119.571,-4.6065],[119.553,-4.6355],[119.562,-4.643],[119.5795,-4.643],[119.5825,-4.6395],[119.5835,-4.637],[119.5845,-4.635],[119.584,-4.6345],[119.5775,-4.627],[119.5765,-4.626],[119.5755,-4.618]]]},"properties":{"code":"73.10.09.1004","name":"Bawasalo"}},{"type":"Feature","geometry":{"type":"Polygon","coordinates":[[[119.664,-4.6675],[119.661,-4.6665],[119.6585,-4.6665],[119.6575,-4.666],[119.655,-4.667],[119.6395,-4.664],[119.6325,-4.665],[119.6155,-4.647],[119.6145,-4.6475],[119.6125,-4.647],[119.611,-4.648],[119.6115,-4.649],[119.6105,-4.6495],[119.601,-4.653],[119.603,-4.655],[119.6055,-4.6735],[119.6065,-4.676],[119.609,-4.6855],[119.611,-4.6865],[119.611,-4.6885],[119.6135,-4.692],[119.614,-4.6915],[119.6155,-4.69],[119.623,-4.702],[119.6235,-4.7045],[119.624,-4.7105],[119.6255,-4.713],[119.639,-4.7305],[119.6595,-4.7265],[119.66,-4.7255],[119.66,-4.722],[119.6545,-4.716],[119.661,-4.6955],[119.6555,-4.6785],[119.6565,-4.6755],[119.6635,-4.668],[119.664,-4.6675]]]},"properties":{"code":"73.10.09.2005","name":"Baring"}},{"type":"Feature","geometry":{"type":"Polygon","coordinates":[[[119.607,-4.64],[119.5905,-4.634],[119.59,-4.6345],[119.589,-4.651],[119.5885,-4.6535],[119.5915,-4.654],[119.5975,-4.6545],[119.5995,-4.6525],[119.601,-4.653],[119.6105,-4.6495],[119.6115,-4.649],[119.611,-4.648],[119.6125,-4.647],[119.6145,-4.6475],[119.6155,-4.647],[119.6325,-4.665],[119.6395,-4.664],[119.655,-4.667],[119.6575,-4.666],[119.6585,-4.6665],[119.661,-4.6665],[119.664,-4.6675],[119.665,-4.6665],[119.664,-4.6605],[119.6655,-4.652],[119.651,-4.642],[119.6475,-4.6385],[119.6445,-4.639],[119.629,-4.6415],[119.6175,-4.6435],[119.607,-4.64]]]},"properties":{"code":"73.10.09.2006","name":"Parenreng"}},{"type":"Feature","geometry":{"type":"Polygon","coordinates":[[[119.584,-4.821],[119.5835,-4.8215],[119.5805,-4.82],[119.579,-4.819],[119.578,-4.8185],[119.5735,-4.82],[119.5725,-4.8205],[119.5705,-4.8245],[119.5695,-4.826],[119.5685,-4.826],[119.5625,-4.8285],[119.5605,-4.829],[119.561,-4.8305],[119.5615,-4.831],[119.5625,-4.8395],[119.5825,-4.8305],[119.5835,-4.823],[119.584,-4.8215],[119.584,-4.821]]]},"properties":{"code":"73.10.10.1001","name":"Minasa Te'ne"}},{"type":"Feature","geometry":{"type":"Polygon","coordinates":[[[119.6545,-4.8155],[119.64,-4.8165],[119.624,-4.813],[119.598,-4.8115],[119.5935,-4.808],[119.589,-4.8085],[119.586,-4.808],[119.5815,-4.8055],[119.5805,-4.8065],[119.5775,-4.8085],[119.5755,-4.81],[119.5735,-4.811],[119.574,-4.819],[119.5735,-4.82],[119.578,-4.8185],[119.579,-4.819],[119.5805,-4.82],[119.5835,-4.8215],[119.584,-4.821],[119.585,-4.8215],[119.5905,-4.82],[119.5945,-4.82],[119.598,-4.8215],[119.6005,-4.823],[119.603,-4.8225],[119.6155,-4.822],[119.618,-4.823],[119.628,-4.831],[119.64,-4.8345],[119.6455,-4.8365],[119.6465,-4.8355],[119.6465,-4.8345],[119.65,-4.833],[119.6545,-4.8315],[119.6545,-4.831],[119.655,-4.8275],[119.6545,-4.8155]]]},"properties":{"code":"73.10.10.1002","name":"Kalabbirang"}},{"type":"Feature","geometry":{"type":"Polygon","coordinates":[[[119.6545,-4.8315],[119.65,-4.833],[119.6465,-4.8345],[119.6465,-4.8355],[119.6455,-4.8365],[119.64,-4.8345],[119.628,-4.831],[119.618,-4.823],[119.6155,-4.822],[119.603,-4.8225],[119.6005,-4.823],[119.598,-4.8215],[119.5945,-4.82],[119.5905,-4.82],[119.585,-4.8215],[119.5845,-4.821],[119.584,-4.821],[119.584,-4.8215],[119.5835,-4.823],[119.5825,-4.8305],[119.5625,-4.8395],[119.5665,-4.8445],[119.5925,-4.843],[119.5945,-4.8525],[119.597,-4.8515],[119.598,-4.8525],[119.6,-4.856],[119.621,-4.8545],[119.6225,-4.858],[119.623,-4.8585],[119.6265,-4.858],[119.6345,-4.856],[119.6375,-4.8575],[119.6405,-4.8575],[119.6555,-4.8545],[119.657,-4.854],[119.6555,-4.8505],[119.6545,-4.8315]]]},"properties":{"code":"73.10.10.1003","name":"Biraeng"}},{"type":"Feature","geometry":{"type":"Polygon","coordinates":[[[119.5945,-4.8525],[119.5925,-4.843],[119.5665,-4.8445],[119.5625,-4.8395],[119.558,-4.8465],[119.574,-4.8575],[119.5745,-4.862],[119.5805,-4.868],[119.581,-4.8675],[119.582,-4.8655],[119.582,-4.865],[119.5805,-4.863],[119.581,-4.8615],[119.5905,-4.8545],[119.592,-4.854],[119.5945,-4.8525]]]},"properties":{"code":"73.10.10.1004","name":"Bonto Kio"}},{"type":"Feature","geometry":{"type":"Polygon","coordinates":[[[119.626,-4.8],[119.624,-4.8],[119.6215,-4.8],[119.6195,-4.8],[119.6175,-4.7995],[119.617,-4.798],[119.6145,-4.7955],[119.6105,-4.791],[119.609,-4.791],[119.609,-4.792],[119.6075,-4.7915],[119.6045,-4.794],[119.603,-4.7935],[119.602,-4.794],[119.5945,-4.797],[119.591,-4.796],[119.5885,-4.798],[119.5825,-4.8045],[119.5815,-4.8055],[119.586,-4.808],[119.589,-4.8085],[119.5935,-4.808],[119.598,-4.8115],[119.624,-4.813],[119.64,-4.8165],[119.6545,-4.8155],[119.6485,-4.8085],[119.6435,-4.8075],[119.641,-4.808],[119.6345,-4.8095],[119.6295,-4.804],[119.626,-4.8]]]},"properties":{"code":"73.10.10.1005","name":"Bontoa"}},{"type":"Feature","geometry":{"type":"Polygon","coordinates":[[[119.5955,-4.883],[119.577,-4.8735],[119.576,-4.8745],[119.5525,-4.8905],[119.553,-4.89],[119.554,-4.8905],[119.5565,-4.8935],[119.571,-4.899],[119.5705,-4.9025],[119.572,-4.9035],[119.577,-4.904],[119.576,-4.9],[119.58,-4.8985],[119.58,-4.9005],[119.5795,-4.9045],[119.586,-4.903],[119.586,-4.9025],[119.5865,-4.8965],[119.591,-4.8965],[119.59,-4.8985],[119.5935,-4.9025],[119.5985,-4.904],[119.596,-4.903],[119.5975,-4.9015],[119.6,-4.9015],[119.6,-4.8935],[119.6,-4.892],[119.6015,-4.8935],[119.6035,-4.892],[119.6025,-4.889],[119.6025,-4.8885],[119.5965,-4.8845],[119.5955,-4.883]]]},"properties":{"code":"73.10.10.1006","name":"Bonto Langkasa"}},{"type":"Feature","geometry":{"type":"Polygon","coordinates":[[[119.6,-4.856],[119.598,-4.8525],[119.597,-4.8515],[119.5945,-4.8525],[119.592,-4.854],[119.5905,-4.8545],[119.581,-4.8615],[119.5805,-4.863],[119.582,-4.865],[119.582,-4.8655],[119.581,-4.8675],[119.579,-4.8695],[119.5775,-4.869],[119.5755,-4.87],[119.5755,-4.869],[119.5745,-4.8695],[119.575,-4.873],[119.577,-4.873],[119.577,-4.8735],[119.5955,-4.883],[119.596,-4.884],[119.5965,-4.8835],[119.598,-4.8835],[119.599,-4.883],[119.6025,-4.883],[119.6035,-4.878],[119.6,-4.856]]]},"properties":{"code":"73.10.10.2007","name":"Kabba"}},{"type":"Feature","geometry":{"type":"Polygon","coordinates":[[[119.6225,-4.858],[119.621,-4.8545],[119.6,-4.856],[119.6035,-4.878],[119.6025,-4.883],[119.599,-4.883],[119.598,-4.8835],[119.5965,-4.8835],[119.596,-4.884],[119.5965,-4.8845],[119.6025,-4.8885],[119.604,-4.887],[119.6035,-4.8895],[119.605,-4.8895],[119.609,-4.89],[119.611,-4.889],[119.6115,-4.889],[119.611,-4.888],[119.6095,-4.885],[119.611,-4.877],[119.6285,-4.8705],[119.6345,-4.863],[119.6375,-4.8575],[119.6345,-4.856],[119.6265,-4.858],[119.623,-4.8585],[119.6225,-4.858]]]},"properties":{"code":"73.10.10.2008","name":"Panaikang"}},{"type":"Feature","geometry":{"type":"Polygon","coordinates":[[[119.614,-4.62],[119.589,-4.6155],[119.579,-4.619],[119.5785,-4.619],[119.581,-4.6245],[119.5955,-4.627],[119.595,-4.629],[119.607,-4.64],[119.6175,-4.6435],[119.629,-4.6415],[119.6445,-4.639],[119.6475,-4.6385],[119.647,-4.638],[119.646,-4.6375],[119.6395,-4.624],[119.626,-4.623],[119.614,-4.62]]]},"properties":{"code":"73.10.11.2001","name":"Benteng"}},{"type":"Feature","geometry":{"type":"Polygon","coordinates":[[[119.626,-4.623],[119.6375,-4.62],[119.635,-4.602],[119.6315,-4.594],[119.6305,-4.5935],[119.6305,-4.592],[119.609,-4.597],[119.609,-4.595],[119.6025,-4.595],[119.5995,-4.609],[119.5935,-4.611],[119.5965,-4.612],[119.596,-4.613],[119.597,-4.6145],[119.5975,-4.615],[119.599,-4.6155],[119.6035,-4.617],[119.6105,-4.619],[119.614,-4.62],[119.626,-4.623]]]},"properties":{"code":"73.10.11.2002","name":"Manggalung"}},{"type":"Feature","geometry":{"type":"Polygon","coordinates":[[[119.6035,-4.5795],[119.602,-4.5795],[119.5915,-4.575],[119.582,-4.5935],[119.5955,-4.5945],[119.609,-4.595],[119.6085,-4.587],[119.6035,-4.5795]]]},"properties":{"code":"73.10.11.2003","name":"Tamarupa"}},{"type":"Feature","geometry":{"type":"Polygon","coordinates":[[[119.6195,-4.5715],[119.618,-4.5695],[119.619,-4.568],[119.6175,-4.565],[119.6015,-4.559],[119.5995,-4.5575],[119.5935,-4.557],[119.5915,-4.575],[119.602,-4.5795],[119.6065,-4.5795],[119.608,-4.5795],[119.6095,-4.5785],[119.6195,-4.5715]]]},"properties":{"code":"73.10.11.2004","name":"Mandalle"}},{"type":"Feature","geometry":{"type":"Polygon","coordinates":[[[119.6025,-4.595],[119.5955,-4.5945],[119.582,-4.5935],[119.571,-4.6065],[119.5755,-4.618],[119.579,-4.619],[119.589,-4.6155],[119.614,-4.62],[119.6105,-4.619],[119.6035,-4.617],[119.599,-4.6155],[119.5975,-4.615],[119.597,-4.6145],[119.596,-4.613],[119.5965,-4.612],[119.5935,-4.611],[119.5995,-4.609],[119.6025,-4.595]]]},"properties":{"code":"73.10.11.2005","name":"Boddie"}},{"type":"Feature","geometry":{"type":"Polygon","coordinates":[[[119.6305,-4.592],[119.6305,-4.591],[119.627,-4.581],[119.6265,-4.579],[119.6255,-4.5755],[119.624,-4.5735],[119.6225,-4.5725],[119.6195,-4.5715],[119.6095,-4.5785],[119.608,-4.5795],[119.6065,-4.5795],[119.6035,-4.5795],[119.6085,-4.587],[119.609,-4.597],[119.6305,-4.592]]]},"properties":{"code":"73.10.11.2006","name":"Coppo Tompong"}},{"type":"Feature","geometry":{"type":"Polygon","coordinates":[[[119.752,-4.855],[119.7405,-4.848],[119.739,-4.8375],[119.735,-4.834],[119.723,-4.832],[119.708,-4.841],[119.7095,-4.8585],[119.703,-4.8705],[119.703,-4.8815],[119.705,-4.882],[119.718,-4.884],[119.755,-4.8765],[119.754,-4.8675],[119.752,-4.855]]]},"properties":{"code":"73.10.12.2001","name":"Bantimurung"}},{"type":"Feature","geometry":{"type":"Polygon","coordinates":[[[119.771,-4.821],[119.7675,-4.824],[119.7645,-4.819],[119.761,-4.806],[119.74,-4.8035],[119.7285,-4.8095],[119.725,-4.8105],[119.7275,-4.8125],[119.725,-4.818],[119.725,-4.8195],[119.723,-4.82],[119.723,-4.8205],[119.7245,-4.821],[119.725,-4.824],[119.725,-4.827],[119.7235,-4.8275],[119.721,-4.8295],[119.723,-4.832],[119.735,-4.834],[119.739,-4.8375],[119.7405,-4.848],[119.752,-4.855],[119.767,-4.8505],[119.771,-4.8375],[119.77,-4.8295],[119.7695,-4.8285],[119.7695,-4.827],[119.771,-4.8255],[119.771,-4.821]]]},"properties":{"code":"73.10.12.2002","name":"Tondongkura"}},{"type":"Feature","geometry":{"type":"Polygon","coordinates":[[[119.807,-4.808],[119.784,-4.808],[119.7835,-4.8085],[119.7805,-4.8125],[119.7775,-4.8145],[119.771,-4.821],[119.771,-4.8255],[119.7695,-4.827],[119.7695,-4.8285],[119.77,-4.8295],[119.771,-4.8375],[119.775,-4.839],[119.791,-4.8465],[119.8035,-4.853],[119.8045,-4.851],[119.8035,-4.847],[119.804,-4.846],[119.806,-4.845],[119.806,-4.8435],[119.807,-4.8395],[119.8065,-4.8355],[119.806,-4.832],[119.8105,-4.8235],[119.807,-4.81],[119.807,-4.808]]]},"properties":{"code":"73.10.12.2003","name":"Lanne"}},{"type":"Feature","geometry":{"type":"Polygon","coordinates":[[[119.696,-4.788],[119.695,-4.786],[119.6925,-4.784],[119.6905,-4.781],[119.6885,-4.774],[119.6855,-4.773],[119.681,-4.769],[119.6735,-4.7695],[119.672,-4.77],[119.671,-4.7725],[119.6695,-4.774],[119.6655,-4.7735],[119.664,-4.7765],[119.663,-4.7775],[119.6625,-4.7775],[119.6605,-4.777],[119.664,-4.7895],[119.659,-4.7935],[119.6565,-4.7975],[119.656,-4.798],[119.6555,-4.799],[119.6555,-4.802],[119.647,-4.803],[119.645,-4.8035],[119.6445,-4.8075],[119.6485,-4.8085],[119.6545,-4.8155],[119.655,-4.8275],[119.6545,-4.831],[119.6545,-4.8315],[119.6555,-4.8505],[119.6695,-4.8495],[119.675,-4.838],[119.693,-4.8165],[119.695,-4.808],[119.6955,-4.806],[119.696,-4.805],[119.6985,-4.8015],[119.699,-4.8005],[119.6975,-4.798],[119.696,-4.7925],[119.696,-4.788]]]},"properties":{"code":"73.10.12.2004","name":"Bulu Tellue"}},{"type":"Feature","geometry":{"type":"Polygon","coordinates":[[[119.723,-4.8205],[119.7195,-4.82],[119.7,-4.8015],[119.699,-4.8005],[119.6985,-4.8015],[119.696,-4.805],[119.6955,-4.806],[119.695,-4.808],[119.693,-4.8165],[119.675,-4.838],[119.6695,-4.8495],[119.6555,-4.8505],[119.657,-4.854],[119.6575,-4.854],[119.659,-4.8545],[119.661,-4.856],[119.6605,-4.8675],[119.676,-4.8775],[119.6895,-4.8795],[119.703,-4.8815],[119.703,-4.8705],[119.7095,-4.8585],[119.708,-4.841],[119.723,-4.832],[119.721,-4.8295],[119.7235,-4.8275],[119.725,-4.827],[119.725,-4.824],[119.7245,-4.821],[119.723,-4.8205]]]},"properties":{"code":"73.10.12.2005","name":"Malaka"}},{"type":"Feature","geometry":{"type":"Polygon","coordinates":[[[119.805,-4.8875],[119.8055,-4.8865],[119.8045,-4.8845],[119.8025,-4.882],[119.7965,-4.865],[119.802,-4.8545],[119.8035,-4.853],[119.791,-4.8465],[119.775,-4.839],[119.771,-4.8375],[119.767,-4.8505],[119.752,-4.855],[119.754,-4.8675],[119.7805,-4.874],[119.793,-4.8835],[119.805,-4.8875]]]},"properties":{"code":"73.10.12.2006","name":"Bonto Birao"}},{"type":"Feature","geometry":{"type":"Polygon","coordinates":[[[119.433,-4.747],[119.431,-4.7475],[119.4315,-4.753],[119.4345,-4.751],[119.433,-4.747]]]},"properties":{"code":"73.10.13.2001","name":"Mattiro Kanja"}},{"type":"Feature","geometry":{"type":"Polygon","coordinates":[[[119.447,-4.7735],[119.448,-4.771],[119.447,-4.7705],[119.446,-4.7725],[119.447,-4.7735]]]},"properties":{"code":"73.10.13.2002","name":"Mattiro Baji"}},{"type":"Feature","geometry":{"type":"Polygon","coordinates":[[[119.386,-4.855],[119.383,-4.857],[119.386,-4.859],[119.386,-4.855]]]},"properties":{"code":"73.10.13.2003","name":"Mattiro Bulu"}},{"type":"Feature","geometry":{"type":"Polygon","coordinates":[[[119.4575,-4.6965],[119.4525,-4.6995],[119.455,-4.703],[119.4575,-4.6965]]]},"properties":{"code":"73.10.13.2004","name":"Mattiro Bombang"}},{"type":"Feature","geometry":{"type":"Polygon","coordinates":[[[119.418,-4.8245],[119.4205,-4.8215],[119.4215,-4.82],[119.419,-4.8175],[119.4195,-4.8215],[119.418,-4.8245]]]},"properties":{"code":"73.10.13.2005","name":"Mattiro Labangeng"}},{"type":"Feature","geometry":{"type":"Polygon","coordinates":[[[119.4355,-4.7785],[119.437,-4.7705],[119.435,-4.771],[119.434,-4.775],[119.4355,-4.7785]]]},"properties":{"code":"73.10.13.2006","name":"Mattiro Uleng"}},{"type":"Feature","geometry":{"type":"Polygon","coordinates":[[[119.2865,-4.6775],[119.28,-4.678],[119.282,-4.682],[119.2865,-4.6775]]]},"properties":{"code":"73.10.13.2007","name":"Mattiro Walie"}}]}