{"type":"FeatureCollection","features":[{"type":"Feature","geometry":{"type":"Polygon","coordinates":[[[120.5195,-2.2115],[120.5055,-2.19],[120.5055,-2.1965],[120.507,-2.205],[120.5075,-2.207],[120.508,-2.207],[120.5105,-2.21],[120.505,-2.222],[120.5105,-2.241],[120.523,-2.268],[120.5435,-2.2875],[120.557,-2.286],[120.561,-2.296],[120.5775,-2.318],[120.5975,-2.3285],[120.6375,-2.357],[120.6565,-2.3855],[120.673,-2.405],[120.6785,-2.4215],[120.6895,-2.44],[120.7155,-2.457],[120.7375,-2.46],[120.751,-2.469],[120.771,-2.4695],[120.79,-2.494],[120.802,-2.4965],[120.8035,-2.4975],[120.807,-2.502],[120.8075,-2.5015],[120.8095,-2.4995],[120.812,-2.498],[120.814,-2.498],[120.816,-2.498],[120.82,-2.498],[120.8205,-2.5],[120.824,-2.498],[120.824,-2.5005],[120.8245,-2.5015],[120.84,-2.497],[120.841,-2.497],[120.842,-2.4985],[120.8435,-2.4985],[120.8445,-2.4985],[120.8445,-2.499],[120.8545,-2.4865],[120.8555,-2.486],[120.862,-2.4845],[120.8655,-2.4845],[120.8755,-2.4835],[120.875,-2.483],[120.8735,-2.4785],[120.8705,-2.4765],[120.87,-2.4745],[120.8655,-2.481],[120.854,-2.4755],[120.855,-2.4745],[120.855,-2.473],[120.852,-2.473],[120.852,-2.475],[120.8515,-2.476],[120.849,-2.4765],[120.848,-2.4745],[120.85,-2.473],[120.8495,-2.469],[120.8475,-2.4665],[120.848,-2.471],[120.845,-2.4735],[120.8435,-2.4695],[120.8425,-2.469],[120.8415,-2.469],[120.8405,-2.469],[120.84,-2.4695],[120.8385,-2.47],[120.8285,-2.479],[120.835,-2.481],[120.8325,-2.49],[120.8445,-2.493],[120.8425,-2.493],[120.8345,-2.496],[120.8325,-2.4975],[120.831,-2.4975],[120.8255,-2.4965],[120.811,-2.4955],[120.8125,-2.492],[120.8105,-2.4915],[120.8095,-2.491],[120.807,-2.4895],[120.802,-2.488],[120.798,-2.485],[120.7905,-2.4825],[120.7835,-2.4735],[120.782,-2.471],[120.7785,-2.465],[120.738,-2.4445],[120.7175,-2.4275],[120.686,-2.391],[120.671,-2.375],[120.648,-2.345],[120.624,-2.3095],[120.6015,-2.2925],[120.5925,-2.2715],[120.548,-2.241],[120.5375,-2.22],[120.5195,-2.2115]]]},"properties":{"code":"73.24.01.2001","name":"Maleku"}},{"type":"Feature","geometry":{"type":"Polygon","coordinates":[[[120.8285,-2.479],[120.811,-2.4835],[120.808,-2.483],[120.7945,-2.4785],[120.7925,-2.476],[120.789,-2.4755],[120.7875,-2.474],[120.7855,-2.4735],[120.783,-2.4725],[120.7835,-2.4735],[120.7905,-2.4825],[120.798,-2.485],[120.802,-2.488],[120.807,-2.4895],[120.8095,-2.491],[120.8105,-2.4915],[120.8125,-2.492],[120.815,-2.483],[120.8205,-2.4875],[120.8325,-2.49],[120.835,-2.481],[120.8285,-2.479]]]},"properties":{"code":"73.24.01.2002","name":"Wonorejo"}},{"type":"Feature","geometry":{"type":"Polygon","coordinates":[[[120.723,-2.3935],[120.7215,-2.384],[120.698,-2.3515],[120.7045,-2.344],[120.6975,-2.32],[120.6925,-2.3145],[120.6895,-2.296],[120.6975,-2.2895],[120.673,-2.2625],[120.668,-2.2515],[120.6475,-2.2295],[120.623,-2.216],[120.6105,-2.2035],[120.6055,-2.186],[120.5835,-2.1835],[120.5785,-2.1755],[120.567,-2.175],[120.558,-2.164],[120.532,-2.155],[120.529,-2.144],[120.52,-2.144],[120.5205,-2.145],[120.5165,-2.1475],[120.511,-2.158],[120.51,-2.1595],[120.5145,-2.171],[120.5255,-2.185],[120.544,-2.194],[120.5555,-2.211],[120.574,-2.209],[120.5895,-2.216],[120.6105,-2.2355],[120.611,-2.246],[120.618,-2.259],[120.6335,-2.2735],[120.636,-2.282],[120.65,-2.2865],[120.662,-2.3025],[120.6635,-2.314],[120.671,-2.321],[120.6905,-2.3685],[120.692,-2.379],[120.7075,-2.3865],[120.7115,-2.4005],[120.7355,-2.407],[120.738,-2.425],[120.7725,-2.4425],[120.787,-2.443],[120.7955,-2.4575],[120.808,-2.459],[120.815,-2.4685],[120.8385,-2.469],[120.84,-2.4695],[120.8405,-2.469],[120.8415,-2.469],[120.8425,-2.469],[120.8435,-2.4695],[120.845,-2.4735],[120.848,-2.471],[120.8475,-2.4665],[120.8445,-2.467],[120.8425,-2.466],[120.836,-2.4645],[120.836,-2.464],[120.8155,-2.453],[120.8135,-2.446],[120.8125,-2.4445],[120.8105,-2.4385],[120.797,-2.434],[120.78,-2.435],[120.762,-2.43],[120.761,-2.428],[120.75,-2.418],[120.755,-2.408],[120.7415,-2.405],[120.738,-2.3985],[120.7245,-2.395],[120.723,-2.3935]]]},"properties":{"code":"73.24.01.2003","name":"Margolembo"}},{"type":"Feature","geometry":{"type":"Polygon","coordinates":[[[120.854,-2.332],[120.8485,-2.321],[120.848,-2.299],[120.844,-2.292],[120.846,-2.2785],[120.8415,-2.263],[120.8285,-2.2465],[120.8195,-2.2365],[120.8205,-2.283],[120.8185,-2.309],[120.815,-2.3225],[120.801,-2.3385],[120.8055,-2.342],[120.802,-2.3665],[120.804,-2.38],[120.794,-2.3965],[120.801,-2.4005],[120.807,-2.4205],[120.8075,-2.4275],[120.8095,-2.433],[120.8115,-2.435],[120.8115,-2.4375],[120.8105,-2.4385],[120.8125,-2.4445],[120.817,-2.446],[120.8175,-2.4475],[120.823,-2.448],[120.8385,-2.4485],[120.8405,-2.443],[120.838,-2.439],[120.833,-2.4365],[120.834,-2.4335],[120.8365,-2.4255],[120.832,-2.4215],[120.8255,-2.417],[120.8345,-2.4025],[120.8345,-2.4015],[120.8335,-2.3965],[120.834,-2.393],[120.833,-2.391],[120.8315,-2.3895],[120.834,-2.359],[120.8445,-2.341],[120.854,-2.332]]]},"properties":{"code":"73.24.01.2004","name":"Teromu"}},{"type":"Feature","geometry":{"type":"Polygon","coordinates":[[[120.8835,-2.497],[120.8815,-2.496],[120.884,-2.494],[120.8835,-2.489],[120.885,-2.487],[120.8845,-2.486],[120.884,-2.4855],[120.883,-2.486],[120.878,-2.483],[120.877,-2.4815],[120.8755,-2.4835],[120.8655,-2.4845],[120.862,-2.4845],[120.8555,-2.486],[120.8545,-2.4865],[120.8445,-2.499],[120.847,-2.502],[120.8475,-2.4995],[120.848,-2.4995],[120.8495,-2.498],[120.85,-2.4975],[120.8505,-2.499],[120.852,-2.4995],[120.8535,-2.5015],[120.8545,-2.502],[120.8565,-2.5015],[120.8565,-2.5025],[120.8575,-2.503],[120.86,-2.504],[120.8605,-2.505],[120.862,-2.5055],[120.865,-2.507],[120.866,-2.507],[120.8675,-2.504],[120.869,-2.504],[120.8685,-2.505],[120.8695,-2.506],[120.876,-2.506],[120.877,-2.5055],[120.8805,-2.5065],[120.8825,-2.505],[120.883,-2.504],[120.8855,-2.5035],[120.8855,-2.5025],[120.8815,-2.5005],[120.8825,-2.499],[120.8835,-2.497]]]},"properties":{"code":"73.24.01.2007","name":"Manggala"}},{"type":"Feature","geometry":{"type":"Polygon","coordinates":[[[120.5685,-2.045],[120.554,-2.0245],[120.554,-2.024],[120.5465,-2.0185],[120.5435,-2.019],[120.5415,-2.0215],[120.539,-2.0255],[120.5405,-2.032],[120.5405,-2.0385],[120.5375,-2.0395],[120.524,-2.032],[120.52,-2.0415],[120.518,-2.0465],[120.5175,-2.0515],[120.5225,-2.0555],[120.521,-2.0705],[120.529,-2.0835],[120.513,-2.1095],[120.5135,-2.1105],[120.5175,-2.138],[120.5195,-2.1395],[120.5195,-2.142],[120.52,-2.144],[120.529,-2.144],[120.532,-2.155],[120.558,-2.164],[120.567,-2.175],[120.5785,-2.1755],[120.5835,-2.1835],[120.6055,-2.186],[120.6105,-2.2035],[120.623,-2.216],[120.6475,-2.2295],[120.668,-2.2515],[120.673,-2.2625],[120.6975,-2.2895],[120.6895,-2.296],[120.6925,-2.3145],[120.6975,-2.32],[120.7045,-2.344],[120.698,-2.3515],[120.7215,-2.384],[120.723,-2.3935],[120.7245,-2.395],[120.738,-2.3985],[120.7415,-2.405],[120.755,-2.408],[120.75,-2.418],[120.761,-2.428],[120.762,-2.43],[120.78,-2.435],[120.797,-2.434],[120.8105,-2.4385],[120.8115,-2.4375],[120.8115,-2.435],[120.8095,-2.433],[120.8075,-2.4275],[120.807,-2.4205],[120.801,-2.4005],[120.794,-2.3965],[120.804,-2.38],[120.802,-2.3665],[120.8055,-2.342],[120.801,-2.3385],[120.815,-2.3225],[120.8185,-2.309],[120.8205,-2.283],[120.8195,-2.2365],[120.817,-2.234],[120.805,-2.2235],[120.8035,-2.2225],[120.803,-2.2225],[120.8015,-2.219],[120.8,-2.2175],[120.7975,-2.2165],[120.796,-2.2155],[120.7945,-2.2155],[120.7895,-2.2155],[120.7845,-2.214],[120.7815,-2.214],[120.78,-2.228],[120.7695,-2.2305],[120.757,-2.2415],[120.743,-2.242],[120.723,-2.22],[120.7235,-2.211],[120.6985,-2.203],[120.691,-2.207],[120.6845,-2.1965],[120.6785,-2.1885],[120.6805,-2.1765],[120.6755,-2.1665],[120.645,-2.137],[120.644,-2.129],[120.6415,-2.1255],[120.6325,-2.1095],[120.6265,-2.11],[120.623,-2.1095],[120.5995,-2.096],[120.5955,-2.0885],[120.5745,-2.065],[120.5735,-2.0635],[120.5685,-2.045]]]},"properties":{"code":"73.24.01.2009","name":"Kasintuwu"}},{"type":"Feature","geometry":{"type":"Polygon","coordinates":[[[120.5065,-2.2065],[120.491,-2.2085],[120.4885,-2.2115],[120.489,-2.2125],[120.4895,-2.2145],[120.489,-2.216],[120.488,-2.2215],[120.4865,-2.232],[120.47,-2.249],[120.4715,-2.252],[120.4735,-2.2565],[120.474,-2.257],[120.474,-2.259],[120.4735,-2.261],[120.4775,-2.2695],[120.483,-2.28],[120.486,-2.281],[120.4885,-2.281],[120.4955,-2.2835],[120.5085,-2.3005],[120.5115,-2.313],[120.513,-2.319],[120.517,-2.3215],[120.5175,-2.322],[120.5195,-2.3215],[120.5265,-2.3235],[120.5445,-2.33],[120.5635,-2.341],[120.5945,-2.3505],[120.6065,-2.352],[120.625,-2.3615],[120.639,-2.377],[120.6425,-2.3935],[120.663,-2.407],[120.669,-2.4185],[120.668,-2.421],[120.6685,-2.4325],[120.6755,-2.4425],[120.676,-2.4455],[120.6785,-2.447],[120.678,-2.449],[120.678,-2.4505],[120.6795,-2.4515],[120.681,-2.455],[120.6845,-2.459],[120.6865,-2.462],[120.6935,-2.4645],[120.697,-2.4675],[120.701,-2.472],[120.7025,-2.4755],[120.705,-2.4755],[120.707,-2.476],[120.7305,-2.481],[120.749,-2.478],[120.763,-2.4805],[120.7655,-2.483],[120.7725,-2.4785],[120.772,-2.48],[120.7735,-2.4835],[120.7755,-2.4845],[120.776,-2.4845],[120.7765,-2.4855],[120.7775,-2.4955],[120.7795,-2.496],[120.792,-2.501],[120.7935,-2.5015],[120.7995,-2.505],[120.8005,-2.5055],[120.8015,-2.5055],[120.803,-2.504],[120.8055,-2.5035],[120.8065,-2.5035],[120.807,-2.502],[120.8035,-2.4975],[120.802,-2.4965],[120.79,-2.494],[120.771,-2.4695],[120.751,-2.469],[120.7375,-2.46],[120.7155,-2.457],[120.6895,-2.44],[120.6785,-2.4215],[120.673,-2.405],[120.6565,-2.3855],[120.6375,-2.357],[120.5975,-2.3285],[120.5775,-2.318],[120.561,-2.296],[120.557,-2.286],[120.5435,-2.2875],[120.523,-2.268],[120.5105,-2.241],[120.505,-2.222],[120.5105,-2.21],[120.508,-2.207],[120.5075,-2.207],[120.5065,-2.2065]]]},"properties":{"code":"73.24.01.2011","name":"Balai Kembang"}},{"type":"Feature","geometry":{"type":"Polygon","coordinates":[[[120.8385,-2.469],[120.815,-2.4685],[120.808,-2.459],[120.7955,-2.4575],[120.787,-2.443],[120.7725,-2.4425],[120.738,-2.425],[120.7355,-2.407],[120.7115,-2.4005],[120.7075,-2.3865],[120.692,-2.379],[120.6905,-2.3685],[120.671,-2.321],[120.6635,-2.314],[120.662,-2.3025],[120.65,-2.2865],[120.636,-2.282],[120.6335,-2.2735],[120.618,-2.259],[120.611,-2.246],[120.6105,-2.2355],[120.5895,-2.216],[120.574,-2.209],[120.5555,-2.211],[120.544,-2.194],[120.5255,-2.185],[120.5145,-2.171],[120.51,-2.1595],[120.508,-2.163],[120.5075,-2.1815],[120.5055,-2.19],[120.5195,-2.2115],[120.5375,-2.22],[120.548,-2.241],[120.5925,-2.2715],[120.6015,-2.2925],[120.624,-2.3095],[120.648,-2.345],[120.671,-2.375],[120.686,-2.391],[120.7175,-2.4275],[120.738,-2.4445],[120.7785,-2.465],[120.783,-2.4725],[120.7855,-2.4735],[120.7875,-2.474],[120.789,-2.4755],[120.7925,-2.476],[120.7945,-2.4785],[120.808,-2.483],[120.811,-2.4835],[120.8285,-2.479],[120.8385,-2.47],[120.8385,-2.469]]]},"properties":{"code":"73.24.01.2013","name":"Panca Karsa"}},{"type":"Feature","geometry":{"type":"Polygon","coordinates":[[[120.823,-2.448],[120.8175,-2.4475],[120.817,-2.446],[120.8135,-2.446],[120.8155,-2.453],[120.836,-2.464],[120.836,-2.461],[120.84,-2.455],[120.84,-2.453],[120.8385,-2.4495],[120.8385,-2.4485],[120.823,-2.448]]]},"properties":{"code":"73.24.01.2014","name":"Sindu Agung"}},{"type":"Feature","geometry":{"type":"Polygon","coordinates":[[[120.8325,-2.49],[120.8205,-2.4875],[120.815,-2.483],[120.811,-2.4955],[120.8255,-2.4965],[120.831,-2.4975],[120.8325,-2.4975],[120.8345,-2.496],[120.8425,-2.493],[120.8445,-2.493],[120.8325,-2.49]]]},"properties":{"code":"73.24.01.2015","name":"Wonorejo Timur"}},{"type":"Feature","geometry":{"type":"Polygon","coordinates":[[[120.8585,-2.429],[120.8585,-2.4285],[120.8565,-2.427],[120.8485,-2.4205],[120.835,-2.403],[120.8345,-2.4025],[120.8255,-2.417],[120.832,-2.4215],[120.842,-2.425],[120.847,-2.4265],[120.8495,-2.4265],[120.85,-2.4285],[120.8525,-2.429],[120.853,-2.4295],[120.8585,-2.429]]]},"properties":{"code":"73.24.01.2016","name":"Koroncia"}},{"type":"Feature","geometry":{"type":"Polygon","coordinates":[[[121.352,-2.5175],[121.3535,-2.517],[121.364,-2.503],[121.3705,-2.4915],[121.3355,-2.4785],[121.3165,-2.465],[121.2865,-2.455],[121.279,-2.481],[121.286,-2.495],[121.287,-2.5235],[121.2845,-2.5495],[121.304,-2.5475],[121.323,-2.556],[121.327,-2.5625],[121.339,-2.5565],[121.348,-2.5445],[121.3465,-2.5325],[121.3605,-2.5345],[121.361,-2.5215],[121.352,-2.5175]]]},"properties":{"code":"73.24.02.1007","name":"Magani"}},{"type":"Feature","geometry":{"type":"Polygon","coordinates":[[[121.428,-2.406],[121.406,-2.4035],[121.391,-2.411],[121.371,-2.402],[121.3525,-2.398],[121.3375,-2.39],[121.314,-2.3875],[121.2985,-2.3775],[121.2845,-2.3815],[121.2785,-2.393],[121.2655,-2.4035],[121.265,-2.404],[121.2735,-2.411],[121.274,-2.422],[121.267,-2.427],[121.2755,-2.452],[121.2865,-2.455],[121.3165,-2.465],[121.3355,-2.4785],[121.3705,-2.4915],[121.399,-2.501],[121.421,-2.517],[121.44,-2.521],[121.461,-2.5165],[121.4585,-2.512],[121.4445,-2.495],[121.445,-2.4825],[121.4505,-2.4715],[121.453,-2.454],[121.473,-2.452],[121.488,-2.457],[121.5105,-2.4545],[121.5215,-2.4635],[121.528,-2.4645],[121.5215,-2.461],[121.4975,-2.4465],[121.469,-2.4155],[121.451,-2.418],[121.442,-2.405],[121.439,-2.406],[121.4305,-2.406],[121.428,-2.406]]]},"properties":{"code":"73.24.02.2001","name":"Nuha"}},{"type":"Feature","geometry":{"type":"Polygon","coordinates":[[[121.361,-2.5215],[121.364,-2.503],[121.3535,-2.517],[121.352,-2.5175],[121.361,-2.5215]]]},"properties":{"code":"73.24.02.2003","name":"Nikkel"}},{"type":"Feature","geometry":{"type":"Polygon","coordinates":[[[121.058,-2.267],[121.057,-2.2655],[121.055,-2.265],[121.053,-2.266],[121.049,-2.2655],[121.048,-2.2685],[121.037,-2.2755],[121.054,-2.32],[121.0825,-2.401],[121.0945,-2.4325],[121.0985,-2.4485],[121.1175,-2.449],[121.1235,-2.453],[121.133,-2.4535],[121.162,-2.4515],[121.1595,-2.4645],[121.173,-2.4745],[121.174,-2.4845],[121.193,-2.498],[121.195,-2.5085],[121.2085,-2.516],[121.22,-2.5145],[121.2275,-2.523],[121.2395,-2.52],[121.247,-2.525],[121.253,-2.5295],[121.2595,-2.545],[121.275,-2.536],[121.2845,-2.5495],[121.287,-2.5235],[121.286,-2.495],[121.279,-2.481],[121.2865,-2.455],[121.2755,-2.452],[121.267,-2.427],[121.274,-2.422],[121.2735,-2.411],[121.265,-2.404],[121.2645,-2.404],[121.256,-2.4035],[121.243,-2.3915],[121.242,-2.385],[121.24,-2.384],[121.228,-2.3685],[121.218,-2.3715],[121.2025,-2.3665],[121.194,-2.3745],[121.18,-2.376],[121.136,-2.407],[121.1335,-2.408],[121.123,-2.394],[121.107,-2.4005],[121.101,-2.3955],[121.1005,-2.395],[121.0995,-2.3935],[121.099,-2.393],[121.0965,-2.392],[121.0865,-2.3835],[121.085,-2.3735],[121.0925,-2.3555],[121.099,-2.3505],[121.1,-2.3345],[121.1055,-2.327],[121.1025,-2.297],[121.1075,-2.281],[121.082,-2.27],[121.072,-2.2705],[121.0695,-2.2705],[121.0685,-2.2695],[121.0645,-2.27],[121.058,-2.267]]]},"properties":{"code":"73.24.02.2005","name":"Matano"}},{"type":"Feature","geometry":{"type":"Polygon","coordinates":[[[121.5215,-2.4635],[121.5105,-2.4545],[121.488,-2.457],[121.473,-2.452],[121.453,-2.454],[121.4505,-2.4715],[121.445,-2.4825],[121.4445,-2.495],[121.4585,-2.512],[121.461,-2.5165],[121.44,-2.521],[121.421,-2.517],[121.399,-2.501],[121.3705,-2.4915],[121.364,-2.503],[121.361,-2.5215],[121.3605,-2.5345],[121.3465,-2.5325],[121.348,-2.5445],[121.339,-2.5565],[121.327,-2.5625],[121.3315,-2.5715],[121.3395,-2.58],[121.3485,-2.58],[121.3795,-2.574],[121.397,-2.587],[121.418,-2.5855],[121.42,-2.585],[121.427,-2.5845],[121.452,-2.586],[121.4665,-2.572],[121.4735,-2.5555],[121.4745,-2.5565],[121.477,-2.5515],[121.4785,-2.5495],[121.481,-2.548],[121.4975,-2.544],[121.503,-2.5275],[121.5085,-2.482],[121.527,-2.4655],[121.5215,-2.4635]]]},"properties":{"code":"73.24.02.2009","name":"Sorowako"}},{"type":"Feature","geometry":{"type":"Polygon","coordinates":[[[121.755,-2.617],[121.753,-2.614],[121.7385,-2.6325],[121.711,-2.6245],[121.6815,-2.652],[121.659,-2.6465],[121.649,-2.6525],[121.631,-2.6515],[121.622,-2.6595],[121.616,-2.6805],[121.623,-2.692],[121.6165,-2.7175],[121.5825,-2.7275],[121.5615,-2.7235],[121.5435,-2.732],[121.5275,-2.738],[121.5195,-2.7675],[121.516,-2.7895],[121.552,-2.8],[121.563,-2.8025],[121.5675,-2.81],[121.579,-2.813],[121.592,-2.799],[121.599,-2.809],[121.612,-2.8085],[121.6365,-2.8165],[121.6465,-2.814],[121.6565,-2.8275],[121.674,-2.8345],[121.6745,-2.833],[121.675,-2.831],[121.676,-2.8275],[121.6745,-2.8235],[121.6775,-2.8205],[121.684,-2.8205],[121.707,-2.8075],[121.717,-2.777],[121.7155,-2.7535],[121.736,-2.737],[121.7475,-2.718],[121.7355,-2.6985],[121.7505,-2.679],[121.7735,-2.683],[121.784,-2.6415],[121.7615,-2.6265],[121.755,-2.617]]]},"properties":{"code":"73.24.03.2001","name":"Loeha"}},{"type":"Feature","geometry":{"type":"Polygon","coordinates":[[[121.548,-2.4755],[121.5455,-2.474],[121.529,-2.525],[121.528,-2.538],[121.548,-2.5385],[121.5725,-2.549],[121.578,-2.5555],[121.6095,-2.5555],[121.6165,-2.594],[121.6155,-2.5945],[121.6115,-2.595],[121.611,-2.5955],[121.6095,-2.5965],[121.6085,-2.5975],[121.6075,-2.602],[121.606,-2.6025],[121.6045,-2.6015],[121.6035,-2.6015],[121.603,-2.6035],[121.6005,-2.6045],[121.573,-2.609],[121.572,-2.6115],[121.5715,-2.63],[121.576,-2.647],[121.564,-2.667],[121.571,-2.7015],[121.5615,-2.7235],[121.5825,-2.7275],[121.6165,-2.7175],[121.623,-2.692],[121.616,-2.6805],[121.622,-2.6595],[121.631,-2.6515],[121.649,-2.6525],[121.659,-2.6465],[121.6815,-2.652],[121.711,-2.6245],[121.7385,-2.6325],[121.753,-2.614],[121.748,-2.6065],[121.72,-2.604],[121.697,-2.5805],[121.674,-2.5415],[121.673,-2.52],[121.63,-2.5055],[121.6205,-2.535],[121.5855,-2.528],[121.5795,-2.5075],[121.5705,-2.491],[121.548,-2.4755]]]},"properties":{"code":"73.24.03.2002","name":"Mahalona"}},{"type":"Feature","geometry":{"type":"Polygon","coordinates":[[[121.5275,-2.738],[121.509,-2.7265],[121.4965,-2.705],[121.4695,-2.685],[121.458,-2.668],[121.442,-2.667],[121.427,-2.651],[121.4225,-2.65],[121.421,-2.6485],[121.419,-2.6485],[121.4185,-2.6505],[121.406,-2.6635],[121.391,-2.665],[121.3855,-2.679],[121.3725,-2.684],[121.3595,-2.684],[121.3435,-2.6685],[121.333,-2.67],[121.299,-2.6585],[121.2985,-2.673],[121.3055,-2.6995],[121.32,-2.724],[121.326,-2.7445],[121.345,-2.7615],[121.356,-2.768],[121.363,-2.7795],[121.382,-2.7895],[121.3875,-2.7955],[121.4095,-2.7985],[121.4255,-2.8165],[121.443,-2.826],[121.4615,-2.831],[121.4865,-2.8465],[121.499,-2.836],[121.5135,-2.815],[121.516,-2.7895],[121.5195,-2.7675],[121.5275,-2.738]]]},"properties":{"code":"73.24.03.2003","name":"Timampu"}},{"type":"Feature","geometry":{"type":"Polygon","coordinates":[[[121.378,-2.6315],[121.366,-2.6325],[121.3625,-2.62],[121.344,-2.617],[121.338,-2.63],[121.3365,-2.632],[121.3375,-2.636],[121.359,-2.6375],[121.375,-2.639],[121.3795,-2.6415],[121.378,-2.6315]]]},"properties":{"code":"73.24.03.2004","name":"Wawondula"}},{"type":"Feature","geometry":{"type":"Polygon","coordinates":[[[121.3795,-2.6415],[121.375,-2.639],[121.3675,-2.6385],[121.368,-2.651],[121.3755,-2.6635],[121.3595,-2.684],[121.3725,-2.684],[121.3855,-2.679],[121.391,-2.665],[121.3925,-2.66],[121.383,-2.6585],[121.3795,-2.6415]]]},"properties":{"code":"73.24.03.2005","name":"Langkea Raya"}},{"type":"Feature","geometry":{"type":"MultiPolygon","coordinates":[[[[121.563,-2.8025],[121.552,-2.8],[121.516,-2.7895],[121.5135,-2.815],[121.552,-2.8285],[121.5815,-2.814],[121.579,-2.813],[121.5675,-2.81],[121.563,-2.8025]]],[[[121.4865,-2.8465],[121.4615,-2.831],[121.443,-2.826],[121.4255,-2.8165],[121.4095,-2.7985],[121.3875,-2.7955],[121.382,-2.7895],[121.363,-2.7795],[121.356,-2.768],[121.3455,-2.762],[121.3615,-2.79],[121.341,-2.7965],[121.331,-2.7885],[121.3345,-2.7935],[121.3405,-2.7995],[121.3385,-2.812],[121.345,-2.8475],[121.3385,-2.8535],[121.3325,-2.834],[121.3215,-2.8215],[121.311,-2.825],[121.297,-2.8365],[121.2875,-2.84],[121.259,-2.834],[121.2375,-2.8335],[121.236,-2.831],[121.233,-2.83],[121.2325,-2.8305],[121.2325,-2.832],[121.2335,-2.8315],[121.2335,-2.833],[121.232,-2.8355],[121.232,-2.839],[121.2335,-2.842],[121.232,-2.843],[121.232,-2.8435],[121.2315,-2.845],[121.225,-2.845],[121.222,-2.8435],[121.221,-2.843],[121.2225,-2.846],[121.2235,-2.85],[121.222,-2.8495],[121.2215,-2.8515],[121.223,-2.853],[121.222,-2.857],[121.219,-2.858],[121.22,-2.855],[121.2125,-2.858],[121.211,-2.861],[121.211,-2.864],[121.221,-2.8715],[121.223,-2.872],[121.2305,-2.884],[121.2455,-2.893],[121.2515,-2.906],[121.2535,-2.907],[121.275,-2.922],[121.2975,-2.9265],[121.3035,-2.948],[121.3125,-2.951],[121.3155,-2.96],[121.33,-2.974],[121.351,-2.9845],[121.3535,-2.987],[121.3555,-2.9875],[121.3615,-2.9875],[121.3635,-2.988],[121.366,-2.9885],[121.367,-2.9885],[121.367,-2.9905],[121.3685,-2.995],[121.39,-3.015],[121.398,-3.017],[121.4075,-3.017],[121.4195,-3.015],[121.4305,-3.0025],[121.4435,-3.0085],[121.4615,-3.0115],[121.4705,-2.993],[121.481,-2.987],[121.4825,-2.9775],[121.476,-2.971],[121.4795,-2.958],[121.488,-2.944],[121.5,-2.9435],[121.5015,-2.943],[121.488,-2.936],[121.483,-2.9235],[121.4595,-2.9115],[121.4495,-2.8975],[121.4465,-2.8875],[121.4685,-2.8735],[121.4865,-2.8465]]]]},"properties":{"code":"73.24.03.2006","name":"Tokalimbo"}},{"type":"Feature","geometry":{"type":"Polygon","coordinates":[[[121.3675,-2.6385],[121.365,-2.6385],[121.364,-2.6455],[121.3485,-2.6445],[121.337,-2.6485],[121.3395,-2.6575],[121.3375,-2.662],[121.3435,-2.6685],[121.3595,-2.684],[121.3755,-2.6635],[121.368,-2.651],[121.3675,-2.6385]]]},"properties":{"code":"73.24.03.2007","name":"Baruga"}},{"type":"Feature","geometry":{"type":"Polygon","coordinates":[[[121.452,-2.586],[121.427,-2.5845],[121.433,-2.59],[121.4275,-2.608],[121.42,-2.6105],[121.42,-2.613],[121.4255,-2.619],[121.4265,-2.624],[121.4225,-2.6435],[121.419,-2.6485],[121.421,-2.6485],[121.4225,-2.65],[121.427,-2.651],[121.442,-2.667],[121.458,-2.668],[121.4695,-2.685],[121.4965,-2.705],[121.5095,-2.7265],[121.5275,-2.738],[121.5435,-2.732],[121.5395,-2.675],[121.529,-2.6645],[121.5275,-2.6555],[121.5325,-2.6255],[121.53,-2.614],[121.529,-2.6095],[121.5095,-2.6185],[121.476,-2.612],[121.452,-2.586]]]},"properties":{"code":"73.24.03.2008","name":"Pekaloa"}},{"type":"Feature","geometry":{"type":"Polygon","coordinates":[[[121.3375,-2.6305],[121.3335,-2.6175],[121.318,-2.6105],[121.3105,-2.6255],[121.302,-2.6415],[121.3355,-2.6595],[121.3375,-2.662],[121.3395,-2.6575],[121.337,-2.6485],[121.3485,-2.6445],[121.364,-2.6455],[121.365,-2.6385],[121.359,-2.6375],[121.3375,-2.636],[121.3365,-2.632],[121.3375,-2.6305]]]},"properties":{"code":"73.24.03.2009","name":"Lioka"}},{"type":"Feature","geometry":{"type":"Polygon","coordinates":[[[121.397,-2.587],[121.3795,-2.574],[121.3485,-2.58],[121.335,-2.582],[121.3095,-2.587],[121.308,-2.5915],[121.318,-2.6105],[121.3335,-2.6175],[121.3375,-2.6305],[121.338,-2.63],[121.344,-2.617],[121.3625,-2.62],[121.366,-2.6325],[121.378,-2.6315],[121.379,-2.626],[121.3785,-2.6235],[121.386,-2.6025],[121.397,-2.587]]]},"properties":{"code":"73.24.03.2010","name":"Asuli"}},{"type":"Feature","geometry":{"type":"Polygon","coordinates":[[[121.6135,-2.829],[121.594,-2.816],[121.5845,-2.815],[121.5815,-2.814],[121.552,-2.8285],[121.5135,-2.815],[121.499,-2.836],[121.4865,-2.8465],[121.4685,-2.8735],[121.4465,-2.8875],[121.4495,-2.8975],[121.4595,-2.9115],[121.483,-2.9235],[121.488,-2.936],[121.5015,-2.943],[121.5035,-2.942],[121.5305,-2.9275],[121.5405,-2.9285],[121.548,-2.918],[121.565,-2.921],[121.5715,-2.917],[121.579,-2.911],[121.5835,-2.9095],[121.594,-2.9035],[121.6,-2.902],[121.6185,-2.902],[121.5915,-2.856],[121.5845,-2.846],[121.6135,-2.829]]]},"properties":{"code":"73.24.03.2011","name":"Bantilang"}},{"type":"Feature","geometry":{"type":"Polygon","coordinates":[[[121.6595,-2.8445],[121.6465,-2.841],[121.63,-2.831],[121.6135,-2.829],[121.5845,-2.846],[121.5915,-2.856],[121.6185,-2.902],[121.6345,-2.8935],[121.6565,-2.901],[121.67,-2.9005],[121.6885,-2.889],[121.689,-2.8865],[121.6855,-2.8655],[121.6835,-2.8665],[121.671,-2.871],[121.6695,-2.869],[121.669,-2.8685],[121.6685,-2.8655],[121.66,-2.861],[121.659,-2.8595],[121.659,-2.8555],[121.6575,-2.854],[121.6525,-2.8505],[121.651,-2.8465],[121.653,-2.846],[121.659,-2.8445],[121.6595,-2.8445]]]},"properties":{"code":"73.24.03.2012","name":"Masiku"}},{"type":"Feature","geometry":{"type":"Polygon","coordinates":[[[121.674,-2.8345],[121.6565,-2.8275],[121.6465,-2.814],[121.6365,-2.8165],[121.612,-2.8085],[121.599,-2.809],[121.592,-2.799],[121.579,-2.813],[121.5845,-2.815],[121.594,-2.816],[121.6135,-2.829],[121.63,-2.831],[121.6465,-2.841],[121.6595,-2.8445],[121.662,-2.843],[121.6645,-2.8435],[121.674,-2.836],[121.674,-2.8345]]]},"properties":{"code":"73.24.03.2013","name":"Rante Angin"}},{"type":"Feature","geometry":{"type":"Polygon","coordinates":[[[121.427,-2.5845],[121.42,-2.585],[121.418,-2.5855],[121.397,-2.587],[121.386,-2.6025],[121.3785,-2.6235],[121.379,-2.626],[121.378,-2.6315],[121.3795,-2.6415],[121.383,-2.6585],[121.3925,-2.66],[121.406,-2.6635],[121.4185,-2.6505],[121.419,-2.6485],[121.4225,-2.6435],[121.4265,-2.624],[121.4255,-2.619],[121.42,-2.613],[121.42,-2.6105],[121.4275,-2.608],[121.433,-2.59],[121.427,-2.5845]]]},"properties":{"code":"73.24.03.2014","name":"Matompi"}},{"type":"Feature","geometry":{"type":"Polygon","coordinates":[[[121.5725,-2.549],[121.548,-2.5385],[121.528,-2.538],[121.529,-2.525],[121.5455,-2.474],[121.528,-2.4645],[121.527,-2.4655],[121.5085,-2.482],[121.503,-2.5275],[121.4975,-2.544],[121.481,-2.548],[121.4785,-2.5495],[121.477,-2.5515],[121.4745,-2.5565],[121.4735,-2.5555],[121.4665,-2.572],[121.452,-2.586],[121.476,-2.612],[121.5095,-2.6185],[121.529,-2.6095],[121.5295,-2.6115],[121.536,-2.611],[121.5375,-2.609],[121.544,-2.6085],[121.5445,-2.5985],[121.5475,-2.5975],[121.5555,-2.5985],[121.5695,-2.6015],[121.573,-2.5905],[121.5685,-2.583],[121.5725,-2.549]]]},"properties":{"code":"73.24.03.2015","name":"Tole"}},{"type":"Feature","geometry":{"type":"Polygon","coordinates":[[[121.6005,-2.6045],[121.6025,-2.575],[121.5785,-2.577],[121.5685,-2.583],[121.573,-2.5905],[121.5695,-2.6015],[121.5725,-2.6085],[121.573,-2.609],[121.6005,-2.6045]]]},"properties":{"code":"73.24.03.2016","name":"Libukan Mandiri"}},{"type":"Feature","geometry":{"type":"Polygon","coordinates":[[[121.5695,-2.6015],[121.5555,-2.5985],[121.5475,-2.5975],[121.5445,-2.5985],[121.544,-2.6085],[121.5375,-2.609],[121.536,-2.611],[121.5295,-2.6115],[121.53,-2.614],[121.5325,-2.6255],[121.5275,-2.6555],[121.529,-2.6645],[121.5395,-2.675],[121.5435,-2.732],[121.5615,-2.7235],[121.571,-2.7015],[121.564,-2.667],[121.576,-2.647],[121.5715,-2.63],[121.572,-2.6115],[121.5725,-2.6085],[121.5695,-2.6015]]]},"properties":{"code":"73.24.03.2017","name":"Kalosi"}},{"type":"Feature","geometry":{"type":"Polygon","coordinates":[[[121.6005,-2.6045],[121.603,-2.6035],[121.6035,-2.6015],[121.6045,-2.6015],[121.606,-2.6025],[121.6075,-2.602],[121.6085,-2.5975],[121.6095,-2.5965],[121.611,-2.5955],[121.6115,-2.595],[121.6155,-2.5945],[121.6165,-2.594],[121.6095,-2.5555],[121.578,-2.5555],[121.5725,-2.549],[121.5685,-2.583],[121.5785,-2.577],[121.6025,-2.575],[121.6005,-2.6045]]]},"properties":{"code":"73.24.03.2018","name":"Buangin"}},{"type":"Feature","geometry":{"type":"Polygon","coordinates":[[[121.105,-2.6215],[121.092,-2.6375],[121.1,-2.6375],[121.1025,-2.6365],[121.1095,-2.636],[121.11,-2.6355],[121.1065,-2.6335],[121.1065,-2.6215],[121.105,-2.6215]]]},"properties":{"code":"73.24.04.1003","name":"Malili"}},{"type":"Feature","geometry":{"type":"Polygon","coordinates":[[[121.01,-2.8665],[121.0005,-2.8615],[120.9955,-2.852],[120.9945,-2.851],[120.9925,-2.848],[120.992,-2.8465],[120.992,-2.845],[120.995,-2.8285],[121.0185,-2.82],[121.034,-2.791],[121.053,-2.792],[121.0725,-2.784],[121.0825,-2.7735],[121.094,-2.7765],[121.1055,-2.791],[121.108,-2.792],[121.1305,-2.7955],[121.1535,-2.813],[121.153,-2.8165],[121.159,-2.8385],[121.169,-2.8435],[121.1865,-2.842],[121.1975,-2.855],[121.2065,-2.854],[121.209,-2.8535],[121.2095,-2.854],[121.2125,-2.858],[121.22,-2.855],[121.219,-2.858],[121.222,-2.857],[121.223,-2.853],[121.2215,-2.8515],[121.222,-2.8495],[121.2235,-2.85],[121.2225,-2.846],[121.221,-2.843],[121.222,-2.8435],[121.2235,-2.8445],[121.218,-2.8315],[121.211,-2.8185],[121.209,-2.8125],[121.1985,-2.794],[121.189,-2.7875],[121.1675,-2.761],[121.1555,-2.737],[121.137,-2.7235],[121.1295,-2.721],[121.125,-2.72],[121.1185,-2.722],[121.108,-2.7135],[121.104,-2.7135],[121.097,-2.7165],[121.085,-2.7335],[121.0835,-2.7445],[121.067,-2.741],[121.063,-2.748],[121.06,-2.768],[121.026,-2.783],[121.0195,-2.8065],[121.007,-2.8085],[121.0005,-2.817],[120.985,-2.816],[120.978,-2.823],[120.9885,-2.831],[120.9875,-2.841],[120.995,-2.8525],[120.997,-2.87],[121.01,-2.8665]]]},"properties":{"code":"73.24.04.2001","name":"Harapan"}},{"type":"Feature","geometry":{"type":"Polygon","coordinates":[[[121.331,-2.7885],[121.329,-2.787],[121.3225,-2.776],[121.3015,-2.7645],[121.283,-2.735],[121.257,-2.711],[121.2365,-2.6965],[121.2105,-2.6745],[121.1995,-2.6565],[121.1885,-2.651],[121.18,-2.628],[121.18,-2.6265],[121.1635,-2.638],[121.136,-2.664],[121.1505,-2.6775],[121.144,-2.6825],[121.1405,-2.699],[121.156,-2.693],[121.167,-2.698],[121.185,-2.7205],[121.189,-2.739],[121.2015,-2.765],[121.2105,-2.7665],[121.213,-2.7815],[121.2205,-2.795],[121.2165,-2.8055],[121.218,-2.8175],[121.231,-2.83],[121.2315,-2.8315],[121.232,-2.832],[121.2325,-2.832],[121.2325,-2.8305],[121.233,-2.83],[121.236,-2.831],[121.2375,-2.8335],[121.259,-2.834],[121.2875,-2.84],[121.297,-2.8365],[121.311,-2.825],[121.3215,-2.8215],[121.3325,-2.834],[121.3385,-2.8535],[121.345,-2.8475],[121.3385,-2.812],[121.3405,-2.7995],[121.3345,-2.7935],[121.331,-2.7885]]]},"properties":{"code":"73.24.04.2002","name":"Laskap"}},{"type":"Feature","geometry":{"type":"Polygon","coordinates":[[[121.0505,-2.5145],[121.0425,-2.5105],[121.0415,-2.51],[121.0385,-2.506],[121.037,-2.5025],[121.0315,-2.4935],[121.028,-2.4905],[121.027,-2.4925],[121.027,-2.4935],[121.0255,-2.496],[121.016,-2.513],[121.019,-2.5335],[121.0085,-2.542],[121.01,-2.5455],[121.01,-2.5465],[121.0115,-2.5625],[121.01,-2.5625],[121.01,-2.5645],[121.0065,-2.5685],[121.0065,-2.5705],[121.008,-2.57],[121.0075,-2.574],[120.9935,-2.574],[120.992,-2.5775],[120.9865,-2.578],[120.986,-2.579],[120.989,-2.5955],[121.011,-2.5905],[121.011,-2.604],[121.011,-2.6085],[121.011,-2.6105],[121.017,-2.62],[121.026,-2.613],[121.034,-2.654],[121.035,-2.6555],[121.03,-2.6555],[121.035,-2.6615],[121.0515,-2.6585],[121.057,-2.6495],[121.054,-2.6355],[121.0695,-2.621],[121.0725,-2.6165],[121.0725,-2.6155],[121.0715,-2.613],[121.067,-2.6075],[121.0655,-2.5955],[121.065,-2.587],[121.0625,-2.5855],[121.058,-2.587],[121.0465,-2.577],[121.044,-2.5655],[121.05,-2.553],[121.0495,-2.55],[121.0495,-2.5485],[121.049,-2.542],[121.0505,-2.5145]]]},"properties":{"code":"73.24.04.2004","name":"Manurung"}},{"type":"Feature","geometry":{"type":"Polygon","coordinates":[[[121.1095,-2.636],[121.1025,-2.6365],[121.1,-2.6375],[121.092,-2.6375],[121.088,-2.6375],[121.086,-2.64],[121.084,-2.641],[121.081,-2.641],[121.0785,-2.642],[121.075,-2.644],[121.0745,-2.6435],[121.07,-2.647],[121.071,-2.6515],[121.072,-2.6525],[121.074,-2.6615],[121.049,-2.6805],[121.0465,-2.6955],[121.0495,-2.6915],[121.0575,-2.682],[121.0675,-2.6885],[121.0875,-2.673],[121.097,-2.672],[121.1105,-2.69],[121.1185,-2.6775],[121.122,-2.6535],[121.1175,-2.6435],[121.113,-2.641],[121.1095,-2.636]]]},"properties":{"code":"73.24.04.2005","name":"Wewangriu"}},{"type":"Feature","geometry":{"type":"Polygon","coordinates":[[[121.105,-2.6215],[121.1025,-2.6195],[121.094,-2.6105],[121.0935,-2.6115],[121.0895,-2.6145],[121.0725,-2.6155],[121.0725,-2.6165],[121.0695,-2.621],[121.066,-2.6245],[121.085,-2.634],[121.087,-2.6385],[121.088,-2.6375],[121.092,-2.6375],[121.105,-2.6215]]]},"properties":{"code":"73.24.04.2006","name":"Baruga"}},{"type":"Feature","geometry":{"type":"Polygon","coordinates":[[[121.011,-2.609],[121.011,-2.604],[121.011,-2.5905],[120.989,-2.5955],[120.981,-2.6085],[120.981,-2.6105],[120.995,-2.609],[121.011,-2.609]]]},"properties":{"code":"73.24.04.2007","name":"Lakawali"}},{"type":"Feature","geometry":{"type":"Polygon","coordinates":[[[121.158,-2.585],[121.154,-2.583],[121.1425,-2.5735],[121.131,-2.5675],[121.1045,-2.553],[121.099,-2.548],[121.0945,-2.5565],[121.095,-2.573],[121.0815,-2.5685],[121.0675,-2.569],[121.0625,-2.5855],[121.065,-2.587],[121.0655,-2.5955],[121.067,-2.6075],[121.0715,-2.613],[121.0725,-2.6155],[121.0895,-2.6145],[121.0935,-2.6115],[121.0945,-2.6095],[121.1095,-2.5995],[121.132,-2.601],[121.1405,-2.5905],[121.158,-2.585]]]},"properties":{"code":"73.24.04.2008","name":"Ussu"}},{"type":"Feature","geometry":{"type":"Polygon","coordinates":[[[120.9865,-2.578],[120.992,-2.5775],[120.9935,-2.574],[121.0075,-2.574],[121.008,-2.57],[121.0065,-2.5705],[121.0065,-2.5685],[121.01,-2.5645],[121.01,-2.5625],[121.0115,-2.5625],[121.01,-2.5465],[121.01,-2.5455],[121.0085,-2.542],[121.019,-2.5335],[121.016,-2.513],[121.0255,-2.496],[121.027,-2.4935],[121.027,-2.4925],[121.026,-2.4935],[121.0155,-2.5055],[120.997,-2.5165],[120.9945,-2.537],[120.9835,-2.5555],[120.983,-2.5585],[120.9865,-2.578]]]},"properties":{"code":"73.24.04.2009","name":"Tarabbi"}},{"type":"Feature","geometry":{"type":"Polygon","coordinates":[[[121.087,-2.6385],[121.085,-2.634],[121.066,-2.6245],[121.054,-2.6355],[121.057,-2.6495],[121.0515,-2.6585],[121.035,-2.6615],[121.038,-2.692],[121.046,-2.6955],[121.0465,-2.6955],[121.049,-2.6805],[121.074,-2.6615],[121.072,-2.6525],[121.071,-2.6515],[121.07,-2.647],[121.0745,-2.6435],[121.075,-2.644],[121.0785,-2.642],[121.081,-2.641],[121.084,-2.641],[121.086,-2.64],[121.087,-2.6385]]]},"properties":{"code":"73.24.04.2010","name":"Balantang"}},{"type":"Feature","geometry":{"type":"Polygon","coordinates":[[[121.0555,-2.514],[121.052,-2.515],[121.0505,-2.5145],[121.049,-2.542],[121.0495,-2.5485],[121.0495,-2.55],[121.05,-2.553],[121.044,-2.5655],[121.0465,-2.577],[121.058,-2.587],[121.0625,-2.5855],[121.0675,-2.569],[121.0815,-2.5685],[121.095,-2.573],[121.0945,-2.5565],[121.099,-2.548],[121.098,-2.547],[121.078,-2.528],[121.0555,-2.514]]]},"properties":{"code":"73.24.04.2011","name":"Atue"}},{"type":"Feature","geometry":{"type":"Polygon","coordinates":[[[121.136,-2.664],[121.1275,-2.6685],[121.1215,-2.6655],[121.1185,-2.6775],[121.1105,-2.69],[121.117,-2.701],[121.129,-2.718],[121.1295,-2.721],[121.137,-2.7235],[121.1555,-2.737],[121.1675,-2.761],[121.189,-2.7875],[121.1985,-2.794],[121.209,-2.8125],[121.211,-2.8185],[121.218,-2.8315],[121.2235,-2.8445],[121.225,-2.845],[121.2315,-2.845],[121.232,-2.8435],[121.232,-2.843],[121.2335,-2.842],[121.232,-2.839],[121.232,-2.8355],[121.2335,-2.833],[121.2335,-2.8315],[121.233,-2.8315],[121.232,-2.832],[121.2315,-2.8315],[121.231,-2.83],[121.218,-2.8175],[121.2165,-2.8055],[121.2205,-2.795],[121.213,-2.7815],[121.2105,-2.7665],[121.2015,-2.765],[121.189,-2.739],[121.185,-2.7205],[121.167,-2.698],[121.156,-2.693],[121.1405,-2.699],[121.144,-2.6825],[121.1505,-2.6775],[121.136,-2.664]]]},"properties":{"code":"73.24.04.2012","name":"Pongkeru"}},{"type":"Feature","geometry":{"type":"Polygon","coordinates":[[[121.182,-2.62],[121.1735,-2.5965],[121.159,-2.5855],[121.158,-2.585],[121.1405,-2.5905],[121.132,-2.601],[121.1095,-2.5995],[121.0945,-2.6095],[121.094,-2.6105],[121.1025,-2.6195],[121.1065,-2.6215],[121.1065,-2.6335],[121.11,-2.6355],[121.1095,-2.636],[121.113,-2.641],[121.1175,-2.6435],[121.122,-2.6535],[121.1215,-2.6655],[121.1275,-2.6685],[121.136,-2.664],[121.1635,-2.638],[121.18,-2.6265],[121.182,-2.62]]]},"properties":{"code":"73.24.04.2013","name":"Puncak Indah"}},{"type":"Feature","geometry":{"type":"Polygon","coordinates":[[[121.1105,-2.69],[121.097,-2.672],[121.0875,-2.673],[121.0675,-2.6885],[121.0575,-2.682],[121.0495,-2.6915],[121.0465,-2.6955],[121.046,-2.6955],[121.057,-2.6935],[121.08,-2.6995],[121.0875,-2.7155],[121.097,-2.7165],[121.104,-2.7135],[121.108,-2.7135],[121.1185,-2.722],[121.125,-2.72],[121.129,-2.718],[121.117,-2.701],[121.1105,-2.69]]]},"properties":{"code":"73.24.04.2014","name":"Pasi-Pasi"}},{"type":"Feature","geometry":{"type":"Polygon","coordinates":[[[121.011,-2.6105],[121.011,-2.609],[120.995,-2.609],[120.981,-2.6105],[120.9815,-2.6125],[120.989,-2.6385],[120.9955,-2.6445],[120.991,-2.654],[120.9895,-2.6635],[120.997,-2.6755],[121.0055,-2.6785],[121.022,-2.6685],[121.019,-2.658],[121.03,-2.6555],[121.035,-2.6555],[121.034,-2.654],[121.026,-2.613],[121.017,-2.62],[121.011,-2.6105]]]},"properties":{"code":"73.24.04.2015","name":"Lakawali Pantai"}},{"type":"Feature","geometry":{"type":"Polygon","coordinates":[[[120.9715,-2.4445],[120.963,-2.433],[120.9525,-2.457],[120.952,-2.4695],[120.9485,-2.4785],[120.936,-2.4935],[120.9275,-2.4945],[120.928,-2.495],[120.9415,-2.5145],[120.9565,-2.524],[120.959,-2.536],[120.9605,-2.5385],[120.971,-2.552],[120.9735,-2.561],[120.983,-2.5585],[120.9835,-2.5555],[120.9945,-2.537],[120.997,-2.5165],[121.0155,-2.5055],[121.026,-2.4935],[121.028,-2.4905],[121.025,-2.488],[121.0135,-2.48],[120.9995,-2.4805],[120.993,-2.468],[120.9825,-2.458],[120.983,-2.449],[120.9715,-2.4445]]]},"properties":{"code":"73.24.05.2001","name":"Tawakua"}},{"type":"Feature","geometry":{"type":"Polygon","coordinates":[[[120.9865,-2.578],[120.983,-2.5585],[120.9735,-2.561],[120.973,-2.5645],[120.9625,-2.586],[120.9535,-2.594],[120.9435,-2.609],[120.949,-2.616],[120.945,-2.6285],[120.952,-2.637],[120.9515,-2.64],[120.948,-2.656],[120.9445,-2.653],[120.9415,-2.6585],[120.962,-2.6695],[120.9795,-2.667],[120.997,-2.6755],[120.9895,-2.6635],[120.991,-2.654],[120.9955,-2.6445],[120.989,-2.6385],[120.9815,-2.6125],[120.981,-2.6085],[120.989,-2.5955],[120.986,-2.579],[120.9865,-2.578]]]},"properties":{"code":"73.24.05.2002","name":"Tampinna"}},{"type":"Feature","geometry":{"type":"Polygon","coordinates":[[[120.9595,-2.5375],[120.9265,-2.5365],[120.9285,-2.549],[120.927,-2.5485],[120.9285,-2.5575],[120.946,-2.557],[120.9525,-2.562],[120.957,-2.5625],[120.963,-2.5615],[120.9735,-2.5615],[120.9735,-2.561],[120.971,-2.552],[120.9605,-2.5385],[120.9595,-2.5375]]]},"properties":{"code":"73.24.05.2003","name":"Solo"}},{"type":"Feature","geometry":{"type":"Polygon","coordinates":[[[120.947,-2.401],[120.933,-2.385],[120.9195,-2.3775],[120.907,-2.363],[120.8915,-2.362],[120.87,-2.352],[120.8655,-2.3535],[120.8655,-2.358],[120.866,-2.359],[120.8675,-2.361],[120.864,-2.3645],[120.868,-2.3775],[120.8855,-2.3915],[120.886,-2.4055],[120.874,-2.42],[120.8735,-2.43],[120.8715,-2.432],[120.8755,-2.4395],[120.874,-2.439],[120.8735,-2.4395],[120.874,-2.4415],[120.875,-2.4425],[120.875,-2.4415],[120.876,-2.443],[120.877,-2.4415],[120.8765,-2.4435],[120.8845,-2.459],[120.887,-2.46],[120.887,-2.4605],[120.9105,-2.45],[120.9335,-2.427],[120.947,-2.401]]]},"properties":{"code":"73.24.05.2004","name":"Taripa"}},{"type":"Feature","geometry":{"type":"Polygon","coordinates":[[[120.952,-2.4695],[120.9525,-2.457],[120.963,-2.433],[120.962,-2.4315],[120.9545,-2.407],[120.947,-2.401],[120.9335,-2.427],[120.9105,-2.45],[120.887,-2.4605],[120.888,-2.4615],[120.899,-2.4625],[120.901,-2.463],[120.905,-2.464],[120.907,-2.4655],[120.9065,-2.466],[120.907,-2.4665],[120.9075,-2.4675],[120.91,-2.4665],[120.9095,-2.4675],[120.9105,-2.4675],[120.911,-2.4665],[120.912,-2.467],[120.9125,-2.4685],[120.9135,-2.469],[120.9135,-2.4685],[120.9135,-2.468],[120.915,-2.4685],[120.915,-2.4695],[120.9145,-2.47],[120.916,-2.4715],[120.919,-2.4735],[120.9195,-2.4745],[120.9215,-2.4745],[120.9225,-2.4755],[120.9275,-2.481],[120.928,-2.483],[120.927,-2.4855],[120.9265,-2.488],[120.928,-2.4935],[120.927,-2.494],[120.9275,-2.4945],[120.936,-2.4935],[120.9485,-2.4785],[120.952,-2.4695]]]},"properties":{"code":"73.24.05.2005","name":"Mantadulu"}},{"type":"Feature","geometry":{"type":"Polygon","coordinates":[[[120.927,-2.494],[120.922,-2.4935],[120.9225,-2.506],[120.924,-2.52],[120.933,-2.527],[120.944,-2.5265],[120.9435,-2.5365],[120.9595,-2.5375],[120.959,-2.536],[120.9565,-2.524],[120.9415,-2.5145],[120.928,-2.495],[120.927,-2.494]]]},"properties":{"code":"73.24.05.2006","name":"Balirejo"}},{"type":"Feature","geometry":{"type":"Polygon","coordinates":[[[120.927,-2.5485],[120.9205,-2.5475],[120.914,-2.547],[120.9115,-2.5475],[120.911,-2.549],[120.91,-2.5495],[120.9095,-2.5565],[120.912,-2.561],[120.909,-2.5655],[120.912,-2.5845],[120.899,-2.595],[120.9,-2.596],[120.909,-2.62],[120.908,-2.6355],[120.923,-2.6485],[120.911,-2.661],[120.929,-2.659],[120.9345,-2.6415],[120.928,-2.628],[120.9345,-2.62],[120.9275,-2.6075],[120.9265,-2.582],[120.926,-2.5775],[120.9285,-2.5575],[120.927,-2.5485]]]},"properties":{"code":"73.24.05.2007","name":"Maliwowo"}},{"type":"Feature","geometry":{"type":"Polygon","coordinates":[[[120.9735,-2.5615],[120.963,-2.5615],[120.957,-2.5625],[120.9525,-2.562],[120.946,-2.557],[120.9285,-2.5575],[120.926,-2.5775],[120.926,-2.5785],[120.9325,-2.589],[120.9535,-2.594],[120.9625,-2.586],[120.973,-2.5645],[120.9735,-2.5615]]]},"properties":{"code":"73.24.05.2008","name":"Lamaeto"}},{"type":"Feature","geometry":{"type":"Polygon","coordinates":[[[120.9535,-2.594],[120.9325,-2.589],[120.926,-2.5785],[120.9265,-2.582],[120.9275,-2.6075],[120.9345,-2.62],[120.928,-2.628],[120.9345,-2.6415],[120.929,-2.659],[120.9415,-2.6585],[120.9445,-2.653],[120.948,-2.656],[120.9515,-2.64],[120.952,-2.637],[120.945,-2.6285],[120.949,-2.616],[120.9435,-2.609],[120.9535,-2.594]]]},"properties":{"code":"73.24.05.2009","name":"Watangpanua"}},{"type":"Feature","geometry":{"type":"Polygon","coordinates":[[[120.922,-2.4935],[120.9195,-2.4935],[120.9095,-2.4935],[120.9065,-2.5085],[120.9135,-2.52],[120.9165,-2.5235],[120.919,-2.5275],[120.9215,-2.5315],[120.9265,-2.5365],[120.9435,-2.5365],[120.944,-2.5265],[120.933,-2.527],[120.924,-2.52],[120.9225,-2.506],[120.922,-2.4935]]]},"properties":{"code":"73.24.05.2010","name":"Wanasari"}},{"type":"Feature","geometry":{"type":"Polygon","coordinates":[[[120.8275,-2.5765],[120.8145,-2.5785],[120.8095,-2.577],[120.8045,-2.5725],[120.8025,-2.5715],[120.8025,-2.574],[120.8045,-2.5775],[120.8055,-2.584],[120.806,-2.598],[120.801,-2.608],[120.8015,-2.6105],[120.8005,-2.6155],[120.792,-2.621],[120.816,-2.619],[120.8365,-2.6335],[120.832,-2.6255],[120.845,-2.618],[120.8455,-2.6185],[120.846,-2.6195],[120.8475,-2.619],[120.8475,-2.6115],[120.8495,-2.605],[120.8495,-2.603],[120.851,-2.6025],[120.8465,-2.6015],[120.837,-2.6005],[120.8405,-2.582],[120.836,-2.5795],[120.8365,-2.5745],[120.8275,-2.5765]]]},"properties":{"code":"73.24.06.2001","name":"Lampenai"}},{"type":"Feature","geometry":{"type":"Polygon","coordinates":[[[120.8215,-2.552],[120.8215,-2.5525],[120.8165,-2.5565],[120.797,-2.5535],[120.7965,-2.5485],[120.7885,-2.5655],[120.796,-2.5695],[120.7995,-2.5715],[120.8025,-2.5715],[120.8045,-2.5725],[120.8095,-2.577],[120.8145,-2.5785],[120.8275,-2.5765],[120.8305,-2.565],[120.8305,-2.551],[120.8275,-2.551],[120.8215,-2.552]]]},"properties":{"code":"73.24.06.2002","name":"Tarengge"}},{"type":"Feature","geometry":{"type":"Polygon","coordinates":[[[120.8475,-2.575],[120.845,-2.574],[120.8445,-2.5755],[120.844,-2.575],[120.844,-2.574],[120.843,-2.574],[120.841,-2.583],[120.8465,-2.585],[120.85,-2.597],[120.848,-2.602],[120.852,-2.603],[120.859,-2.6045],[120.8655,-2.591],[120.846,-2.5845],[120.8465,-2.5795],[120.8475,-2.575]]]},"properties":{"code":"73.24.06.2003","name":"Maramba"}},{"type":"Feature","geometry":{"type":"Polygon","coordinates":[[[120.799,-2.5425],[120.793,-2.539],[120.781,-2.533],[120.777,-2.551],[120.7645,-2.5505],[120.768,-2.553],[120.7715,-2.5555],[120.772,-2.5545],[120.775,-2.556],[120.7775,-2.5575],[120.777,-2.558],[120.7785,-2.559],[120.7785,-2.5595],[120.7825,-2.562],[120.7885,-2.5655],[120.7965,-2.5485],[120.796,-2.547],[120.797,-2.5435],[120.799,-2.5425]]]},"properties":{"code":"73.24.06.2004","name":"Cendana Hijau"}},{"type":"Feature","geometry":{"type":"Polygon","coordinates":[[[120.8025,-2.5715],[120.7995,-2.5715],[120.797,-2.5765],[120.786,-2.5855],[120.7765,-2.6165],[120.776,-2.6175],[120.7735,-2.617],[120.774,-2.6175],[120.7735,-2.621],[120.783,-2.627],[120.792,-2.621],[120.8005,-2.6155],[120.8015,-2.6105],[120.801,-2.608],[120.806,-2.598],[120.8055,-2.584],[120.8045,-2.5775],[120.8025,-2.574],[120.8025,-2.5715]]]},"properties":{"code":"73.24.06.2005","name":"Bawalipu"}},{"type":"Feature","geometry":{"type":"Polygon","coordinates":[[[120.9115,-2.5475],[120.911,-2.5475],[120.9095,-2.5495],[120.908,-2.547],[120.906,-2.545],[120.9045,-2.5445],[120.904,-2.5465],[120.8995,-2.549],[120.9,-2.5505],[120.898,-2.554],[120.899,-2.556],[120.8985,-2.557],[120.894,-2.561],[120.8935,-2.562],[120.895,-2.571],[120.895,-2.572],[120.894,-2.575],[120.894,-2.578],[120.8925,-2.5795],[120.89,-2.584],[120.891,-2.5875],[120.8795,-2.6085],[120.8795,-2.609],[120.8795,-2.611],[120.8785,-2.612],[120.882,-2.617],[120.8845,-2.6185],[120.885,-2.6185],[120.886,-2.611],[120.896,-2.5975],[120.8985,-2.5965],[120.8995,-2.5955],[120.899,-2.595],[120.912,-2.5845],[120.909,-2.5655],[120.912,-2.561],[120.9095,-2.5565],[120.91,-2.5495],[120.911,-2.549],[120.9115,-2.5475]]]},"properties":{"code":"73.24.06.2006","name":"Kalaena"}},{"type":"Feature","geometry":{"type":"Polygon","coordinates":[[[120.7885,-2.5655],[120.7825,-2.562],[120.7785,-2.5595],[120.775,-2.564],[120.7745,-2.5665],[120.771,-2.5895],[120.763,-2.596],[120.7595,-2.596],[120.7565,-2.6075],[120.7735,-2.617],[120.776,-2.6175],[120.7765,-2.6165],[120.786,-2.5855],[120.797,-2.5765],[120.796,-2.5695],[120.7885,-2.5655]]]},"properties":{"code":"73.24.06.2007","name":"Lera"}},{"type":"Feature","geometry":{"type":"Polygon","coordinates":[[[120.8565,-2.5755],[120.848,-2.573],[120.8465,-2.5795],[120.846,-2.5845],[120.8655,-2.591],[120.8705,-2.5865],[120.873,-2.5775],[120.8565,-2.5755]]]},"properties":{"code":"73.24.06.2008","name":"Kanawatu"}},{"type":"Feature","geometry":{"type":"Polygon","coordinates":[[[120.911,-2.661],[120.923,-2.6485],[120.908,-2.6355],[120.909,-2.62],[120.9,-2.596],[120.8995,-2.5955],[120.899,-2.596],[120.902,-2.618],[120.8925,-2.6425],[120.899,-2.645],[120.911,-2.661]]]},"properties":{"code":"73.24.06.2009","name":"Bahari"}},{"type":"Feature","geometry":{"type":"Polygon","coordinates":[[[120.891,-2.5875],[120.8905,-2.588],[120.886,-2.5815],[120.881,-2.5735],[120.8745,-2.5685],[120.8735,-2.5675],[120.87,-2.566],[120.866,-2.566],[120.8565,-2.5755],[120.873,-2.5775],[120.873,-2.579],[120.8775,-2.58],[120.8795,-2.5815],[120.888,-2.5925],[120.879,-2.6085],[120.8795,-2.6085],[120.891,-2.5875]]]},"properties":{"code":"73.24.06.2010","name":"Karambua"}},{"type":"Feature","geometry":{"type":"Polygon","coordinates":[[[120.775,-2.5325],[120.768,-2.532],[120.768,-2.5305],[120.7645,-2.5505],[120.777,-2.551],[120.781,-2.533],[120.775,-2.5325]]]},"properties":{"code":"73.24.06.2011","name":"Pepuro Barat"}},{"type":"Feature","geometry":{"type":"Polygon","coordinates":[[[120.759,-2.5945],[120.758,-2.594],[120.7555,-2.5965],[120.752,-2.603],[120.7515,-2.6145],[120.75,-2.621],[120.75,-2.6225],[120.7735,-2.621],[120.774,-2.6175],[120.7735,-2.617],[120.7565,-2.6075],[120.7595,-2.596],[120.759,-2.5955],[120.759,-2.5945]]]},"properties":{"code":"73.24.06.2012","name":"Balo-Balo"}},{"type":"Feature","geometry":{"type":"Polygon","coordinates":[[[120.879,-2.6085],[120.888,-2.5925],[120.8795,-2.5815],[120.8775,-2.58],[120.873,-2.579],[120.8705,-2.5865],[120.8655,-2.591],[120.859,-2.6045],[120.851,-2.6025],[120.8495,-2.603],[120.8495,-2.605],[120.8475,-2.6115],[120.8475,-2.619],[120.849,-2.62],[120.8585,-2.617],[120.861,-2.6155],[120.8675,-2.62],[120.8765,-2.613],[120.8795,-2.611],[120.8795,-2.609],[120.879,-2.6085]]]},"properties":{"code":"73.24.06.2013","name":"Rinjani"}},{"type":"Feature","geometry":{"type":"Polygon","coordinates":[[[120.8455,-2.5605],[120.831,-2.551],[120.8305,-2.551],[120.8305,-2.565],[120.8275,-2.5765],[120.8365,-2.5745],[120.8385,-2.5725],[120.844,-2.574],[120.844,-2.575],[120.8445,-2.5755],[120.845,-2.574],[120.8475,-2.575],[120.848,-2.573],[120.8565,-2.5755],[120.866,-2.566],[120.8645,-2.566],[120.8455,-2.5605]]]},"properties":{"code":"73.24.06.2014","name":"Tarengge Timur"}},{"type":"Feature","geometry":{"type":"Polygon","coordinates":[[[120.843,-2.574],[120.8385,-2.5725],[120.836,-2.5795],[120.8405,-2.582],[120.837,-2.6005],[120.8465,-2.6015],[120.848,-2.602],[120.85,-2.597],[120.8465,-2.585],[120.841,-2.583],[120.843,-2.574]]]},"properties":{"code":"73.24.06.2015","name":"Madani"}},{"type":"Feature","geometry":{"type":"Polygon","coordinates":[[[120.8985,-2.5965],[120.896,-2.5975],[120.886,-2.611],[120.885,-2.6185],[120.8845,-2.6185],[120.882,-2.617],[120.8785,-2.612],[120.8765,-2.613],[120.8675,-2.62],[120.861,-2.6155],[120.8585,-2.617],[120.849,-2.62],[120.846,-2.6195],[120.8455,-2.6185],[120.845,-2.618],[120.832,-2.6255],[120.8365,-2.6335],[120.84,-2.65],[120.8535,-2.656],[120.8655,-2.6565],[120.869,-2.6465],[120.8925,-2.6425],[120.902,-2.618],[120.899,-2.596],[120.8985,-2.5965]]]},"properties":{"code":"73.24.06.2016","name":"Tabaroge"}},{"type":"Feature","geometry":{"type":"Polygon","coordinates":[[[120.663,-2.5955],[120.6555,-2.5965],[120.656,-2.5985],[120.656,-2.5995],[120.657,-2.6115],[120.6685,-2.6295],[120.682,-2.6295],[120.681,-2.6295],[120.68,-2.627],[120.684,-2.6185],[120.6695,-2.5985],[120.6645,-2.596],[120.663,-2.5955]]]},"properties":{"code":"73.24.07.2001","name":"Burau"}},{"type":"Feature","geometry":{"type":"Polygon","coordinates":[[[120.7265,-2.602],[120.725,-2.5995],[120.7235,-2.599],[120.711,-2.576],[120.7155,-2.5695],[120.7105,-2.556],[120.6875,-2.584],[120.687,-2.5895],[120.698,-2.605],[120.7055,-2.609],[120.707,-2.609],[120.7095,-2.6015],[120.7105,-2.6015],[120.7265,-2.602]]]},"properties":{"code":"73.24.07.2002","name":"Jalajja"}},{"type":"Feature","geometry":{"type":"Polygon","coordinates":[[[120.7645,-2.5505],[120.765,-2.547],[120.759,-2.548],[120.757,-2.549],[120.7565,-2.5505],[120.7565,-2.5535],[120.76,-2.559],[120.7615,-2.5605],[120.7605,-2.5605],[120.761,-2.5625],[120.7605,-2.564],[120.76,-2.5655],[120.76,-2.566],[120.771,-2.5555],[120.7715,-2.5555],[120.768,-2.553],[120.7645,-2.5505]]]},"properties":{"code":"73.24.07.2003","name":"Lewonu"}},{"type":"Feature","geometry":{"type":"Polygon","coordinates":[[[120.7295,-2.571],[120.73,-2.5685],[120.7285,-2.5645],[120.729,-2.564],[120.728,-2.563],[120.7215,-2.554],[120.7105,-2.556],[120.7155,-2.5695],[120.711,-2.576],[120.7235,-2.599],[120.725,-2.5995],[120.7265,-2.602],[120.7255,-2.6055],[120.7255,-2.6085],[120.724,-2.6135],[120.724,-2.6145],[120.7355,-2.6085],[120.7225,-2.585],[120.722,-2.5835],[120.7235,-2.577],[120.7255,-2.575],[120.727,-2.573],[120.7265,-2.5715],[120.729,-2.5715],[120.7295,-2.571]]]},"properties":{"code":"73.24.07.2004","name":"Lambarese"}},{"type":"Feature","geometry":{"type":"Polygon","coordinates":[[[120.6265,-2.54],[120.5825,-2.448],[120.566,-2.4295],[120.5535,-2.4425],[120.5615,-2.4535],[120.575,-2.463],[120.5815,-2.4885],[120.587,-2.495],[120.5965,-2.522],[120.5975,-2.526],[120.602,-2.539],[120.6045,-2.542],[120.605,-2.544],[120.6065,-2.5445],[120.6065,-2.546],[120.6115,-2.565],[120.6195,-2.5715],[120.6275,-2.5855],[120.6285,-2.586],[120.629,-2.587],[120.6315,-2.5905],[120.6325,-2.5915],[120.636,-2.59],[120.638,-2.5965],[120.6395,-2.5985],[120.6385,-2.6025],[120.6315,-2.619],[120.6355,-2.623],[120.6405,-2.6345],[120.6435,-2.64],[120.6445,-2.6395],[120.646,-2.65],[120.656,-2.667],[120.6665,-2.6515],[120.6665,-2.6505],[120.665,-2.6495],[120.6505,-2.629],[120.65,-2.6275],[120.6545,-2.611],[120.651,-2.6045],[120.65,-2.603],[120.6485,-2.5985],[120.6435,-2.572],[120.6265,-2.54]]]},"properties":{"code":"73.24.07.2005","name":"Lauwo"}},{"type":"Feature","geometry":{"type":"Polygon","coordinates":[[[120.723,-2.5225],[120.72,-2.522],[120.716,-2.5205],[120.7125,-2.5185],[120.7075,-2.514],[120.7105,-2.556],[120.7215,-2.554],[120.728,-2.563],[120.729,-2.564],[120.7285,-2.5645],[120.73,-2.5685],[120.7295,-2.5705],[120.73,-2.571],[120.7295,-2.5725],[120.73,-2.5745],[120.7305,-2.578],[120.747,-2.595],[120.7475,-2.6095],[120.7515,-2.61],[120.752,-2.603],[120.7555,-2.5965],[120.756,-2.593],[120.754,-2.5785],[120.7505,-2.5755],[120.7445,-2.563],[120.731,-2.5505],[120.724,-2.538],[120.723,-2.5225]]]},"properties":{"code":"73.24.07.2006","name":"Bone Pute"}},{"type":"Feature","geometry":{"type":"Polygon","coordinates":[[[120.6875,-2.584],[120.6715,-2.573],[120.671,-2.5745],[120.663,-2.59],[120.6645,-2.596],[120.6695,-2.5985],[120.684,-2.6185],[120.68,-2.627],[120.6805,-2.628],[120.687,-2.627],[120.6935,-2.626],[120.6985,-2.626],[120.702,-2.626],[120.703,-2.6245],[120.7045,-2.6185],[120.705,-2.618],[120.705,-2.6175],[120.705,-2.6115],[120.7055,-2.61],[120.7055,-2.6105],[120.7065,-2.609],[120.7055,-2.609],[120.698,-2.605],[120.687,-2.5895],[120.6875,-2.584]]]},"properties":{"code":"73.24.07.2007","name":"Lumbewe"}},{"type":"Feature","geometry":{"type":"Polygon","coordinates":[[[120.7475,-2.6095],[120.7355,-2.6085],[120.724,-2.6145],[120.724,-2.615],[120.7185,-2.6325],[120.7135,-2.6335],[120.712,-2.6335],[120.711,-2.6355],[120.708,-2.64],[120.729,-2.636],[120.7465,-2.637],[120.75,-2.6225],[120.75,-2.621],[120.7515,-2.6145],[120.7515,-2.61],[120.7475,-2.6095]]]},"properties":{"code":"73.24.07.2008","name":"Mabonta"}},{"type":"Feature","geometry":{"type":"Polygon","coordinates":[[[120.7785,-2.5595],[120.7785,-2.559],[120.777,-2.558],[120.7775,-2.5575],[120.775,-2.556],[120.772,-2.5545],[120.771,-2.5555],[120.76,-2.566],[120.7635,-2.572],[120.7605,-2.574],[120.753,-2.5775],[120.754,-2.5785],[120.756,-2.593],[120.758,-2.594],[120.759,-2.5945],[120.7585,-2.592],[120.764,-2.5795],[120.7745,-2.565],[120.775,-2.564],[120.7785,-2.5595]]]},"properties":{"code":"73.24.07.2009","name":"Laro"}},{"type":"Feature","geometry":{"type":"Polygon","coordinates":[[[120.7475,-2.6095],[120.747,-2.595],[120.7305,-2.578],[120.73,-2.5745],[120.7295,-2.5725],[120.7295,-2.571],[120.729,-2.5715],[120.7265,-2.5715],[120.727,-2.573],[120.7255,-2.575],[120.7235,-2.577],[120.722,-2.5835],[120.7225,-2.585],[120.7355,-2.6085],[120.7475,-2.6095]]]},"properties":{"code":"73.24.07.2010","name":"Benteng"}},{"type":"Feature","geometry":{"type":"Polygon","coordinates":[[[120.6585,-2.4875],[120.657,-2.477],[120.641,-2.467],[120.618,-2.443],[120.5935,-2.43],[120.5685,-2.429],[120.566,-2.4295],[120.5825,-2.448],[120.6265,-2.54],[120.6435,-2.572],[120.6485,-2.598],[120.649,-2.5975],[120.651,-2.598],[120.6525,-2.5995],[120.6545,-2.6],[120.655,-2.598],[120.6555,-2.5975],[120.6555,-2.5965],[120.663,-2.5955],[120.663,-2.59],[120.671,-2.5745],[120.6715,-2.5725],[120.672,-2.563],[120.6585,-2.547],[120.6515,-2.5345],[120.656,-2.521],[120.6585,-2.4875]]]},"properties":{"code":"73.24.07.2011","name":"Batu Putih"}},{"type":"Feature","geometry":{"type":"Polygon","coordinates":[[[120.7555,-2.5525],[120.743,-2.547],[120.7295,-2.5355],[120.728,-2.5355],[120.727,-2.5355],[120.724,-2.5355],[120.724,-2.538],[120.731,-2.5505],[120.7445,-2.563],[120.7505,-2.5755],[120.753,-2.5775],[120.7605,-2.574],[120.7635,-2.572],[120.76,-2.566],[120.76,-2.5655],[120.7605,-2.564],[120.761,-2.5625],[120.7605,-2.5605],[120.7615,-2.5605],[120.76,-2.559],[120.7565,-2.5535],[120.7555,-2.5525]]]},"properties":{"code":"73.24.07.2012","name":"Lanosi"}},{"type":"Feature","geometry":{"type":"Polygon","coordinates":[[[120.6685,-2.6295],[120.657,-2.6115],[120.656,-2.5995],[120.6555,-2.5975],[120.655,-2.598],[120.6545,-2.6],[120.6525,-2.5995],[120.651,-2.598],[120.6495,-2.5975],[120.649,-2.5975],[120.6485,-2.598],[120.6485,-2.5985],[120.65,-2.603],[120.651,-2.6045],[120.6545,-2.611],[120.65,-2.6275],[120.6505,-2.629],[120.665,-2.6495],[120.6665,-2.6505],[120.6665,-2.6515],[120.6765,-2.6455],[120.6765,-2.6435],[120.6685,-2.6315],[120.6685,-2.6295]]]},"properties":{"code":"73.24.07.2013","name":"Lagego"}},{"type":"Feature","geometry":{"type":"Polygon","coordinates":[[[120.7035,-2.511],[120.6945,-2.5035],[120.6635,-2.491],[120.6625,-2.4895],[120.6585,-2.4875],[120.656,-2.521],[120.6515,-2.5345],[120.6585,-2.547],[120.672,-2.563],[120.6715,-2.5725],[120.6715,-2.573],[120.6875,-2.584],[120.7105,-2.556],[120.7075,-2.514],[120.7035,-2.511]]]},"properties":{"code":"73.24.07.2014","name":"Cendana"}},{"type":"Feature","geometry":{"type":"Polygon","coordinates":[[[120.7015,-2.6265],[120.6985,-2.626],[120.6935,-2.626],[120.687,-2.627],[120.6805,-2.628],[120.682,-2.6295],[120.6685,-2.6295],[120.6685,-2.6315],[120.6765,-2.6435],[120.6765,-2.6455],[120.706,-2.6425],[120.708,-2.64],[120.711,-2.6355],[120.712,-2.6335],[120.7135,-2.6335],[120.702,-2.6285],[120.7015,-2.627],[120.7015,-2.6265]]]},"properties":{"code":"73.24.07.2015","name":"Burau Pantai"}},{"type":"Feature","geometry":{"type":"Polygon","coordinates":[[[120.7645,-2.528],[120.7475,-2.5295],[120.725,-2.5225],[120.723,-2.5225],[120.724,-2.5355],[120.727,-2.5355],[120.728,-2.5355],[120.7295,-2.5355],[120.743,-2.547],[120.7555,-2.5525],[120.7565,-2.5505],[120.757,-2.549],[120.759,-2.548],[120.765,-2.547],[120.768,-2.5305],[120.7655,-2.5285],[120.7645,-2.528]]]},"properties":{"code":"73.24.07.2016","name":"Asana"}},{"type":"Feature","geometry":{"type":"Polygon","coordinates":[[[120.7265,-2.602],[120.7105,-2.6015],[120.7095,-2.6015],[120.707,-2.609],[120.7065,-2.609],[120.7055,-2.6105],[120.7055,-2.61],[120.705,-2.6115],[120.705,-2.6175],[120.705,-2.618],[120.7045,-2.6185],[120.703,-2.6245],[120.702,-2.626],[120.7015,-2.6265],[120.7015,-2.627],[120.702,-2.6285],[120.7135,-2.6335],[120.7185,-2.6325],[120.724,-2.615],[120.724,-2.6135],[120.7255,-2.6085],[120.7255,-2.6055],[120.7265,-2.602]]]},"properties":{"code":"73.24.07.2017","name":"Kalatiri"}},{"type":"Feature","geometry":{"type":"Polygon","coordinates":[[[120.7745,-2.565],[120.764,-2.5795],[120.7585,-2.592],[120.759,-2.5955],[120.763,-2.596],[120.771,-2.5895],[120.7745,-2.5665],[120.7745,-2.565]]]},"properties":{"code":"73.24.07.2018","name":"Lambara Harapan"}},{"type":"Feature","geometry":{"type":"Polygon","coordinates":[[[120.8175,-2.498],[120.816,-2.498],[120.814,-2.498],[120.812,-2.498],[120.8095,-2.4995],[120.8075,-2.5015],[120.807,-2.503],[120.8065,-2.5035],[120.8055,-2.5035],[120.803,-2.504],[120.801,-2.5075],[120.81,-2.511],[120.813,-2.513],[120.8185,-2.5015],[120.8175,-2.4995],[120.8175,-2.498]]]},"properties":{"code":"73.24.08.1003","name":"Tomoni"}},{"type":"Feature","geometry":{"type":"Polygon","coordinates":[[[120.7985,-2.5225],[120.7945,-2.5195],[120.7945,-2.516],[120.779,-2.5165],[120.775,-2.5325],[120.781,-2.533],[120.793,-2.539],[120.799,-2.5425],[120.8215,-2.541],[120.8345,-2.538],[120.8425,-2.548],[120.8455,-2.5405],[120.848,-2.5415],[120.849,-2.535],[120.8485,-2.537],[120.8425,-2.5335],[120.8405,-2.5315],[120.8375,-2.5365],[120.836,-2.5375],[120.829,-2.5285],[120.814,-2.5285],[120.8015,-2.5325],[120.7985,-2.5225]]]},"properties":{"code":"73.24.08.2001","name":"Bayondo"}},{"type":"Feature","geometry":{"type":"Polygon","coordinates":[[[120.8425,-2.5145],[120.813,-2.513],[120.812,-2.513],[120.813,-2.5165],[120.8285,-2.5215],[120.8425,-2.5335],[120.8485,-2.537],[120.8495,-2.5325],[120.857,-2.5285],[120.856,-2.528],[120.848,-2.527],[120.843,-2.516],[120.8425,-2.5145]]]},"properties":{"code":"73.24.08.2002","name":"Mulyasri"}},{"type":"Feature","geometry":{"type":"Polygon","coordinates":[[[120.8405,-2.5315],[120.8285,-2.5215],[120.813,-2.5165],[120.816,-2.5285],[120.829,-2.5285],[120.836,-2.5375],[120.8375,-2.5365],[120.8405,-2.5315]]]},"properties":{"code":"73.24.08.2007","name":"Lestari"}},{"type":"Feature","geometry":{"type":"Polygon","coordinates":[[[120.7975,-2.51],[120.8015,-2.5055],[120.8005,-2.5055],[120.7995,-2.505],[120.7935,-2.5015],[120.792,-2.501],[120.7795,-2.496],[120.7775,-2.4955],[120.7765,-2.4855],[120.771,-2.4985],[120.7555,-2.504],[120.7615,-2.5115],[120.769,-2.5115],[120.785,-2.511],[120.7955,-2.5115],[120.7975,-2.51]]]},"properties":{"code":"73.24.08.2008","name":"Kalpataru"}},{"type":"Feature","geometry":{"type":"Polygon","coordinates":[[[120.8215,-2.541],[120.799,-2.5425],[120.797,-2.5435],[120.796,-2.547],[120.7965,-2.5505],[120.797,-2.5535],[120.8165,-2.5565],[120.8215,-2.5525],[120.821,-2.551],[120.8215,-2.541]]]},"properties":{"code":"73.24.08.2011","name":"Tadulako"}},{"type":"Feature","geometry":{"type":"Polygon","coordinates":[[[120.816,-2.5285],[120.813,-2.5165],[120.7985,-2.5225],[120.8015,-2.5325],[120.814,-2.5285],[120.816,-2.5285]]]},"properties":{"code":"73.24.08.2012","name":"Beringin Jaya"}},{"type":"Feature","geometry":{"type":"Polygon","coordinates":[[[120.8445,-2.499],[120.8445,-2.4985],[120.8435,-2.4985],[120.842,-2.4985],[120.841,-2.497],[120.84,-2.497],[120.8245,-2.5015],[120.824,-2.5005],[120.824,-2.498],[120.8205,-2.5],[120.82,-2.498],[120.8175,-2.498],[120.8175,-2.4995],[120.8185,-2.5015],[120.813,-2.513],[120.8425,-2.5145],[120.8425,-2.512],[120.8415,-2.508],[120.847,-2.502],[120.8445,-2.499]]]},"properties":{"code":"73.24.08.2015","name":"Bangun Jaya"}},{"type":"Feature","geometry":{"type":"Polygon","coordinates":[[[120.812,-2.513],[120.81,-2.511],[120.801,-2.5075],[120.7975,-2.51],[120.7955,-2.5115],[120.795,-2.5115],[120.7945,-2.5195],[120.7985,-2.5225],[120.813,-2.5165],[120.812,-2.513]]]},"properties":{"code":"73.24.08.2016","name":"Mandiri"}},{"type":"Feature","geometry":{"type":"Polygon","coordinates":[[[120.795,-2.5115],[120.785,-2.511],[120.769,-2.5115],[120.767,-2.5115],[120.7665,-2.5135],[120.7665,-2.5145],[120.766,-2.515],[120.766,-2.516],[120.7655,-2.517],[120.7665,-2.522],[120.7645,-2.528],[120.7655,-2.5285],[120.768,-2.5305],[120.768,-2.532],[120.775,-2.5325],[120.779,-2.5165],[120.7945,-2.516],[120.795,-2.5115]]]},"properties":{"code":"73.24.08.2017","name":"Sumber Alam"}},{"type":"Feature","geometry":{"type":"Polygon","coordinates":[[[120.551,-2.44],[120.5535,-2.4425],[120.566,-2.4295],[120.5685,-2.429],[120.5935,-2.43],[120.618,-2.443],[120.641,-2.467],[120.657,-2.477],[120.6585,-2.4875],[120.6625,-2.4895],[120.6635,-2.491],[120.6945,-2.5035],[120.7035,-2.511],[120.7155,-2.5135],[120.731,-2.5065],[120.7405,-2.492],[120.7295,-2.4855],[120.7055,-2.4835],[120.706,-2.476],[120.705,-2.4755],[120.7025,-2.4755],[120.701,-2.472],[120.697,-2.4675],[120.6935,-2.4645],[120.6865,-2.462],[120.6845,-2.459],[120.681,-2.455],[120.6795,-2.4515],[120.678,-2.4505],[120.678,-2.449],[120.6785,-2.447],[120.676,-2.4455],[120.6755,-2.4425],[120.6685,-2.4325],[120.668,-2.421],[120.669,-2.4185],[120.663,-2.407],[120.6425,-2.3935],[120.639,-2.377],[120.625,-2.3615],[120.6065,-2.352],[120.5945,-2.3505],[120.5635,-2.341],[120.5445,-2.33],[120.5265,-2.3235],[120.5195,-2.3215],[120.5175,-2.322],[120.5215,-2.3255],[120.5205,-2.3325],[120.5315,-2.3545],[120.524,-2.3725],[120.522,-2.381],[120.5425,-2.406],[120.5405,-2.4275],[120.548,-2.4365],[120.5485,-2.437],[120.551,-2.44]]]},"properties":{"code":"73.24.08.2018","name":"Ujung Baru"}},{"type":"Feature","geometry":{"type":"Polygon","coordinates":[[[120.8425,-2.548],[120.8345,-2.538],[120.8215,-2.541],[120.821,-2.551],[120.8215,-2.552],[120.8275,-2.551],[120.831,-2.551],[120.8455,-2.5605],[120.8445,-2.555],[120.8435,-2.5515],[120.8425,-2.548]]]},"properties":{"code":"73.24.08.2019","name":"Bangun Karya"}},{"type":"Feature","geometry":{"type":"Polygon","coordinates":[[[120.7765,-2.4855],[120.776,-2.4845],[120.7755,-2.4845],[120.7735,-2.4835],[120.772,-2.48],[120.7725,-2.4785],[120.7655,-2.483],[120.763,-2.4805],[120.749,-2.478],[120.7305,-2.481],[120.707,-2.476],[120.706,-2.476],[120.7055,-2.4835],[120.7295,-2.4855],[120.7405,-2.492],[120.731,-2.5065],[120.7155,-2.5135],[120.7035,-2.511],[120.7065,-2.513],[120.7125,-2.5185],[120.716,-2.5205],[120.72,-2.522],[120.725,-2.5225],[120.7475,-2.5295],[120.7645,-2.528],[120.7665,-2.522],[120.7655,-2.517],[120.766,-2.516],[120.766,-2.515],[120.7665,-2.5145],[120.7665,-2.5135],[120.767,-2.5115],[120.7615,-2.5115],[120.7555,-2.504],[120.771,-2.4985],[120.7765,-2.4855]]]},"properties":{"code":"73.24.08.2020","name":"Rante Mario"}},{"type":"Feature","geometry":{"type":"Polygon","coordinates":[[[120.8755,-2.529],[120.8695,-2.5195],[120.86,-2.522],[120.8645,-2.523],[120.8645,-2.533],[120.8575,-2.5595],[120.865,-2.561],[120.879,-2.5475],[120.876,-2.534],[120.8755,-2.529]]]},"properties":{"code":"73.24.09.2001","name":"Kertoraharjo"}},{"type":"Feature","geometry":{"type":"Polygon","coordinates":[[[120.899,-2.546],[120.8975,-2.5455],[120.8955,-2.533],[120.8955,-2.532],[120.8855,-2.524],[120.883,-2.524],[120.8755,-2.529],[120.876,-2.534],[120.881,-2.5505],[120.884,-2.551],[120.891,-2.5505],[120.8955,-2.5465],[120.899,-2.546]]]},"properties":{"code":"73.24.09.2002","name":"Cendana Hitam"}},{"type":"Feature","geometry":{"type":"Polygon","coordinates":[[[120.8595,-2.506],[120.8605,-2.505],[120.86,-2.504],[120.8575,-2.503],[120.8565,-2.5025],[120.8565,-2.5015],[120.8545,-2.502],[120.8535,-2.5015],[120.852,-2.4995],[120.8505,-2.499],[120.85,-2.4975],[120.8495,-2.498],[120.848,-2.4995],[120.8475,-2.4995],[120.8475,-2.5015],[120.8415,-2.508],[120.8425,-2.512],[120.843,-2.516],[120.848,-2.527],[120.856,-2.528],[120.8585,-2.5285],[120.8605,-2.522],[120.86,-2.522],[120.861,-2.5175],[120.8595,-2.506]]]},"properties":{"code":"73.24.09.2003","name":"Purwosari"}},{"type":"Feature","geometry":{"type":"Polygon","coordinates":[[[120.8825,-2.505],[120.8805,-2.5065],[120.877,-2.5055],[120.876,-2.506],[120.8695,-2.506],[120.8685,-2.505],[120.869,-2.504],[120.8675,-2.504],[120.866,-2.507],[120.865,-2.507],[120.862,-2.5055],[120.8595,-2.506],[120.861,-2.5175],[120.8695,-2.5195],[120.8755,-2.529],[120.883,-2.524],[120.8905,-2.523],[120.8905,-2.5225],[120.897,-2.521],[120.898,-2.5195],[120.9015,-2.5165],[120.9005,-2.516],[120.8995,-2.517],[120.898,-2.5165],[120.8975,-2.515],[120.899,-2.5105],[120.897,-2.5125],[120.888,-2.505],[120.884,-2.5055],[120.883,-2.5055],[120.8825,-2.505]]]},"properties":{"code":"73.24.09.2004","name":"Pattengko"}},{"type":"Feature","geometry":{"type":"Polygon","coordinates":[[[120.8875,-2.551],[120.884,-2.551],[120.881,-2.5505],[120.879,-2.5475],[120.865,-2.561],[120.8575,-2.5595],[120.8445,-2.555],[120.8455,-2.5605],[120.8645,-2.566],[120.87,-2.566],[120.8735,-2.5675],[120.8745,-2.5685],[120.881,-2.5735],[120.886,-2.5815],[120.8905,-2.588],[120.89,-2.584],[120.8925,-2.5795],[120.894,-2.578],[120.894,-2.575],[120.8835,-2.5675],[120.8875,-2.551]]]},"properties":{"code":"73.24.09.2005","name":"Manunggal"}},{"type":"Feature","geometry":{"type":"Polygon","coordinates":[[[120.8575,-2.5595],[120.8645,-2.533],[120.8645,-2.523],[120.8605,-2.522],[120.8585,-2.5285],[120.857,-2.5285],[120.8495,-2.5325],[120.849,-2.535],[120.848,-2.5415],[120.8455,-2.5405],[120.8425,-2.548],[120.8435,-2.5515],[120.8575,-2.5595]]]},"properties":{"code":"73.24.09.2006","name":"Margomulyo"}},{"type":"Feature","geometry":{"type":"Polygon","coordinates":[[[120.9015,-2.547],[120.899,-2.546],[120.8955,-2.5465],[120.891,-2.5505],[120.8875,-2.551],[120.8835,-2.5675],[120.894,-2.575],[120.895,-2.572],[120.895,-2.571],[120.8935,-2.562],[120.894,-2.561],[120.8985,-2.557],[120.899,-2.556],[120.898,-2.554],[120.9,-2.5505],[120.8995,-2.549],[120.9015,-2.547]]]},"properties":{"code":"73.24.09.2007","name":"Alam Buana"}},{"type":"Feature","geometry":{"type":"Polygon","coordinates":[[[120.9265,-2.5365],[120.9215,-2.5315],[120.919,-2.5275],[120.9165,-2.5235],[120.9135,-2.52],[120.9115,-2.523],[120.9005,-2.522],[120.898,-2.5225],[120.897,-2.522],[120.8905,-2.5225],[120.8905,-2.523],[120.8855,-2.524],[120.8955,-2.532],[120.8955,-2.533],[120.8975,-2.5455],[120.9015,-2.547],[120.904,-2.5465],[120.9045,-2.5445],[120.906,-2.545],[120.908,-2.547],[120.9095,-2.5495],[120.911,-2.5475],[120.914,-2.547],[120.9205,-2.5475],[120.9285,-2.549],[120.9265,-2.5365]]]},"properties":{"code":"73.24.09.2008","name":"Cendana Hitam Timur"}},{"type":"Feature","geometry":{"type":"Polygon","coordinates":[[[120.8575,-2.429],[120.853,-2.4295],[120.8525,-2.429],[120.851,-2.429],[120.8505,-2.462],[120.866,-2.468],[120.8775,-2.468],[120.875,-2.463],[120.874,-2.462],[120.872,-2.464],[120.8695,-2.464],[120.8595,-2.453],[120.8575,-2.429]]]},"properties":{"code":"73.24.10.2001","name":"Kalaena Kiri"}},{"type":"Feature","geometry":{"type":"Polygon","coordinates":[[[120.8775,-2.4605],[120.8775,-2.4585],[120.8735,-2.4605],[120.875,-2.463],[120.8775,-2.468],[120.8715,-2.475],[120.871,-2.4755],[120.8705,-2.4765],[120.8735,-2.4785],[120.875,-2.483],[120.877,-2.4815],[120.878,-2.483],[120.883,-2.486],[120.884,-2.4855],[120.8845,-2.486],[120.885,-2.487],[120.8835,-2.489],[120.884,-2.494],[120.8815,-2.496],[120.8835,-2.497],[120.8875,-2.4965],[120.8935,-2.496],[120.891,-2.4855],[120.898,-2.4785],[120.909,-2.4745],[120.9105,-2.473],[120.9145,-2.4685],[120.914,-2.468],[120.9135,-2.468],[120.9135,-2.4685],[120.9135,-2.469],[120.9125,-2.4685],[120.912,-2.467],[120.911,-2.4665],[120.9105,-2.4675],[120.9095,-2.4675],[120.91,-2.4665],[120.9075,-2.4675],[120.907,-2.4665],[120.9065,-2.466],[120.907,-2.4655],[120.905,-2.464],[120.901,-2.463],[120.899,-2.4625],[120.888,-2.4615],[120.887,-2.4605],[120.8775,-2.4605]]]},"properties":{"code":"73.24.10.2002","name":"Sumber Agung"}},{"type":"Feature","geometry":{"type":"Polygon","coordinates":[[[120.847,-2.4265],[120.842,-2.425],[120.8365,-2.4255],[120.834,-2.4335],[120.833,-2.4365],[120.838,-2.439],[120.8405,-2.443],[120.8385,-2.4495],[120.84,-2.453],[120.84,-2.455],[120.836,-2.461],[120.836,-2.4645],[120.8425,-2.466],[120.8445,-2.467],[120.848,-2.4665],[120.8495,-2.469],[120.85,-2.473],[120.848,-2.4745],[120.849,-2.4765],[120.8515,-2.476],[120.852,-2.475],[120.852,-2.473],[120.855,-2.473],[120.855,-2.4745],[120.854,-2.4755],[120.8655,-2.481],[120.87,-2.4745],[120.871,-2.4755],[120.8715,-2.475],[120.866,-2.468],[120.8505,-2.462],[120.851,-2.429],[120.85,-2.4285],[120.8495,-2.4265],[120.847,-2.4265]]]},"properties":{"code":"73.24.10.2003","name":"Pertasi Kencana"}},{"type":"Feature","geometry":{"type":"Polygon","coordinates":[[[120.854,-2.332],[120.8445,-2.341],[120.834,-2.359],[120.8315,-2.3895],[120.833,-2.391],[120.834,-2.393],[120.8335,-2.3965],[120.8345,-2.4015],[120.835,-2.403],[120.8485,-2.4205],[120.8565,-2.427],[120.8585,-2.4285],[120.8585,-2.429],[120.865,-2.439],[120.8735,-2.4395],[120.874,-2.439],[120.8755,-2.4395],[120.8715,-2.432],[120.8735,-2.43],[120.874,-2.42],[120.886,-2.4055],[120.8855,-2.3915],[120.868,-2.3775],[120.864,-2.3645],[120.8675,-2.361],[120.866,-2.359],[120.8655,-2.358],[120.8655,-2.353],[120.8575,-2.3345],[120.8545,-2.333],[120.854,-2.332]]]},"properties":{"code":"73.24.10.2004","name":"Non Blok"}},{"type":"Feature","geometry":{"type":"Polygon","coordinates":[[[120.9095,-2.4935],[120.895,-2.489],[120.8945,-2.496],[120.8875,-2.4965],[120.8835,-2.497],[120.8825,-2.499],[120.8815,-2.5005],[120.8855,-2.5025],[120.8855,-2.5035],[120.883,-2.504],[120.883,-2.5055],[120.884,-2.5055],[120.888,-2.505],[120.897,-2.5125],[120.899,-2.5105],[120.8975,-2.515],[120.898,-2.5165],[120.8995,-2.517],[120.9005,-2.516],[120.9015,-2.5165],[120.898,-2.5195],[120.897,-2.521],[120.897,-2.522],[120.898,-2.5225],[120.9005,-2.522],[120.9115,-2.523],[120.9135,-2.52],[120.9065,-2.5085],[120.9095,-2.4935]]]},"properties":{"code":"73.24.10.2005","name":"Argomulyo"}},{"type":"Feature","geometry":{"type":"Polygon","coordinates":[[[120.927,-2.494],[120.928,-2.4935],[120.9265,-2.488],[120.927,-2.4855],[120.928,-2.483],[120.9275,-2.481],[120.9225,-2.4755],[120.9215,-2.4745],[120.9195,-2.4745],[120.919,-2.4735],[120.916,-2.4715],[120.9145,-2.47],[120.915,-2.4695],[120.915,-2.469],[120.9145,-2.4685],[120.9105,-2.473],[120.909,-2.4745],[120.898,-2.4785],[120.891,-2.4855],[120.8935,-2.496],[120.895,-2.489],[120.9095,-2.4935],[120.9195,-2.4935],[120.927,-2.494]]]},"properties":{"code":"73.24.10.2006","name":"Sumber Makmur"}},{"type":"Feature","geometry":{"type":"Polygon","coordinates":[[[120.8735,-2.4395],[120.865,-2.439],[120.8585,-2.429],[120.8575,-2.429],[120.8595,-2.453],[120.8695,-2.464],[120.872,-2.464],[120.874,-2.462],[120.8735,-2.4605],[120.8775,-2.4585],[120.8775,-2.4605],[120.887,-2.4605],[120.887,-2.46],[120.8845,-2.459],[120.8765,-2.4435],[120.877,-2.4415],[120.876,-2.443],[120.875,-2.4415],[120.875,-2.4425],[120.874,-2.4415],[120.8735,-2.4395]]]},"properties":{"code":"73.24.10.2007","name":"Mekar Sari"}},{"type":"Feature","geometry":{"type":"Polygon","coordinates":[[[121.2845,-2.5495],[121.275,-2.536],[121.2595,-2.545],[121.253,-2.5295],[121.251,-2.528],[121.244,-2.543],[121.223,-2.572],[121.2405,-2.584],[121.2515,-2.587],[121.252,-2.583],[121.255,-2.5865],[121.272,-2.5785],[121.2815,-2.588],[121.283,-2.5875],[121.289,-2.5715],[121.305,-2.5595],[121.312,-2.5735],[121.3045,-2.6],[121.3165,-2.6125],[121.318,-2.6105],[121.308,-2.5915],[121.3095,-2.587],[121.335,-2.582],[121.3395,-2.58],[121.3315,-2.5715],[121.323,-2.556],[121.304,-2.5475],[121.2845,-2.5495]]]},"properties":{"code":"73.24.11.2001","name":"Ledu Ledu"}},{"type":"Feature","geometry":{"type":"Polygon","coordinates":[[[121.133,-2.4535],[121.1235,-2.453],[121.1175,-2.449],[121.0985,-2.4485],[121.104,-2.4575],[121.111,-2.5015],[121.0555,-2.514],[121.078,-2.528],[121.098,-2.547],[121.1045,-2.553],[121.131,-2.5675],[121.1425,-2.5735],[121.154,-2.583],[121.159,-2.5855],[121.1735,-2.5965],[121.1775,-2.5955],[121.206,-2.589],[121.223,-2.572],[121.244,-2.543],[121.251,-2.528],[121.247,-2.525],[121.2395,-2.52],[121.2275,-2.523],[121.22,-2.5145],[121.2085,-2.516],[121.195,-2.5085],[121.193,-2.498],[121.174,-2.4845],[121.173,-2.4745],[121.1595,-2.4645],[121.162,-2.4515],[121.133,-2.4535]]]},"properties":{"code":"73.24.11.2002","name":"Kawata"}},{"type":"Feature","geometry":{"type":"Polygon","coordinates":[[[121.3165,-2.6125],[121.3045,-2.6],[121.312,-2.5735],[121.305,-2.5595],[121.289,-2.5715],[121.283,-2.5875],[121.2815,-2.589],[121.2805,-2.5905],[121.28,-2.592],[121.2745,-2.5985],[121.269,-2.6045],[121.267,-2.629],[121.27,-2.6505],[121.294,-2.655],[121.299,-2.6585],[121.333,-2.67],[121.3435,-2.6685],[121.3355,-2.6595],[121.302,-2.6415],[121.3105,-2.6255],[121.3165,-2.6125]]]},"properties":{"code":"73.24.11.2003","name":"Tabarano"}},{"type":"Feature","geometry":{"type":"Polygon","coordinates":[[[121.2815,-2.588],[121.272,-2.5785],[121.255,-2.5865],[121.252,-2.583],[121.2515,-2.587],[121.271,-2.6015],[121.2745,-2.5985],[121.28,-2.592],[121.2805,-2.5905],[121.2815,-2.589],[121.2815,-2.588]]]},"properties":{"code":"73.24.11.2004","name":"Wasuponda"}},{"type":"Feature","geometry":{"type":"Polygon","coordinates":[[[120.8255,-2.219],[120.8235,-2.218],[120.811,-2.223],[120.81,-2.2225],[120.8065,-2.2225],[120.805,-2.2235],[120.817,-2.234],[120.8285,-2.2465],[120.8415,-2.263],[120.846,-2.2785],[120.844,-2.292],[120.848,-2.299],[120.8485,-2.321],[120.854,-2.332],[120.8545,-2.333],[120.8575,-2.3345],[120.8655,-2.353],[120.8655,-2.3535],[120.87,-2.352],[120.8915,-2.362],[120.907,-2.363],[120.9195,-2.3775],[120.933,-2.385],[120.947,-2.401],[120.9545,-2.407],[120.962,-2.4315],[120.9715,-2.4445],[120.983,-2.449],[120.9825,-2.458],[120.993,-2.468],[120.9995,-2.4805],[121.0135,-2.48],[121.025,-2.488],[121.0315,-2.4935],[121.037,-2.5025],[121.0385,-2.506],[121.0415,-2.51],[121.0425,-2.5105],[121.052,-2.515],[121.0555,-2.514],[121.111,-2.5015],[121.104,-2.4575],[121.0985,-2.4485],[121.0945,-2.4325],[121.0825,-2.401],[121.054,-2.32],[121.037,-2.2755],[121.048,-2.2685],[121.0485,-2.265],[121.0475,-2.251],[121.046,-2.2495],[121.032,-2.252],[121.026,-2.254],[121.002,-2.2675],[120.995,-2.275],[120.9915,-2.2745],[120.987,-2.273],[120.984,-2.271],[120.9835,-2.271],[120.9775,-2.269],[120.9775,-2.2665],[120.9685,-2.2585],[120.951,-2.254],[120.9465,-2.2545],[120.9145,-2.262],[120.9095,-2.2625],[120.8945,-2.261],[120.8855,-2.2665],[120.855,-2.251],[120.8565,-2.229],[120.8565,-2.223],[120.8375,-2.2185],[120.8255,-2.219]]]},"properties":{"code":"73.24.11.2005","name":"Parumpanai"}},{"type":"Feature","geometry":{"type":"Polygon","coordinates":[[[121.2515,-2.587],[121.2405,-2.584],[121.223,-2.572],[121.206,-2.589],[121.1775,-2.5955],[121.1745,-2.5975],[121.182,-2.62],[121.18,-2.6265],[121.18,-2.628],[121.1885,-2.651],[121.1995,-2.6565],[121.2105,-2.6745],[121.2365,-2.6965],[121.257,-2.711],[121.283,-2.735],[121.3015,-2.7645],[121.3225,-2.776],[121.329,-2.787],[121.334,-2.7905],[121.341,-2.7965],[121.3615,-2.79],[121.3455,-2.762],[121.345,-2.7615],[121.326,-2.7445],[121.32,-2.724],[121.3055,-2.6995],[121.2985,-2.673],[121.299,-2.6585],[121.294,-2.655],[121.27,-2.6505],[121.267,-2.629],[121.269,-2.6045],[121.271,-2.6015],[121.2515,-2.587]]]},"properties":{"code":"73.24.11.2006","name":"Balambano"}}]}