{"type":"FeatureCollection","features":[{"type":"Feature","geometry":{"type":"Polygon","coordinates":[[[119.894,-2.973],[119.8865,-2.9685],[119.882,-2.974],[119.8815,-2.9755],[119.8815,-2.982],[119.882,-2.984],[119.8825,-2.9845],[119.883,-2.984],[119.884,-2.9845],[119.891,-2.9805],[119.8915,-2.9775],[119.893,-2.977],[119.894,-2.973]]]},"properties":{"code":"73.26.01.1001","name":"Laang Tanduk"}},{"type":"Feature","geometry":{"type":"Polygon","coordinates":[[[119.9035,-2.9765],[119.9015,-2.9755],[119.8975,-2.972],[119.8955,-2.9755],[119.8965,-2.9785],[119.897,-2.978],[119.9035,-2.9765]]]},"properties":{"code":"73.26.01.1002","name":"Rantepao"}},{"type":"Feature","geometry":{"type":"Polygon","coordinates":[[[119.8975,-2.957],[119.896,-2.9575],[119.8955,-2.9575],[119.8885,-2.953],[119.887,-2.9535],[119.887,-2.954],[119.886,-2.9545],[119.8855,-2.9545],[119.8845,-2.954],[119.884,-2.954],[119.8825,-2.955],[119.8815,-2.955],[119.8865,-2.9685],[119.894,-2.973],[119.8935,-2.9725],[119.8965,-2.967],[119.8985,-2.9645],[119.8975,-2.957]]]},"properties":{"code":"73.26.01.1003","name":"Mentirotiku"}},{"type":"Feature","geometry":{"type":"Polygon","coordinates":[[[119.9015,-2.9655],[119.9005,-2.965],[119.896,-2.968],[119.901,-2.9695],[119.905,-2.9685],[119.9055,-2.9685],[119.903,-2.967],[119.9015,-2.9655]]]},"properties":{"code":"73.26.01.1004","name":"Manggalo"}},{"type":"Feature","geometry":{"type":"Polygon","coordinates":[[[119.9085,-2.969],[119.907,-2.969],[119.9055,-2.9685],[119.905,-2.9685],[119.9,-2.97],[119.9,-2.971],[119.905,-2.975],[119.906,-2.975],[119.907,-2.9755],[119.908,-2.976],[119.914,-2.974],[119.9135,-2.973],[119.9085,-2.969]]]},"properties":{"code":"73.26.01.1005","name":"Pasale"}},{"type":"Feature","geometry":{"type":"Polygon","coordinates":[[[119.8985,-2.971],[119.896,-2.969],[119.8935,-2.9725],[119.894,-2.975],[119.8955,-2.9755],[119.8985,-2.971]]]},"properties":{"code":"73.26.01.1006","name":"Singki'"}},{"type":"Feature","geometry":{"type":"Polygon","coordinates":[[[119.8955,-2.9755],[119.894,-2.975],[119.893,-2.977],[119.8915,-2.9775],[119.892,-2.9795],[119.8925,-2.979],[119.8935,-2.98],[119.8965,-2.9805],[119.8965,-2.98],[119.896,-2.979],[119.8965,-2.9785],[119.8955,-2.9755]]]},"properties":{"code":"73.26.01.1007","name":"Karassik"}},{"type":"Feature","geometry":{"type":"Polygon","coordinates":[[[119.901,-2.9695],[119.896,-2.968],[119.896,-2.969],[119.8985,-2.971],[119.9,-2.971],[119.9,-2.97],[119.901,-2.9695]]]},"properties":{"code":"73.26.01.1008","name":"Penanian"}},{"type":"Feature","geometry":{"type":"Polygon","coordinates":[[[119.9,-2.971],[119.8985,-2.971],[119.8975,-2.972],[119.9015,-2.9755],[119.9065,-2.977],[119.906,-2.9765],[119.9065,-2.975],[119.906,-2.975],[119.905,-2.975],[119.9,-2.971]]]},"properties":{"code":"73.26.01.1009","name":"Rante Pasele"}},{"type":"Feature","geometry":{"type":"Polygon","coordinates":[[[119.8815,-2.955],[119.873,-2.9525],[119.8725,-2.9525],[119.8715,-2.9525],[119.871,-2.957],[119.8705,-2.9595],[119.8705,-2.962],[119.8715,-2.962],[119.868,-2.9635],[119.8685,-2.9695],[119.871,-2.971],[119.875,-2.9695],[119.877,-2.9695],[119.8815,-2.975],[119.882,-2.974],[119.8865,-2.9685],[119.8815,-2.955]]]},"properties":{"code":"73.26.01.2010","name":"Limbong"}},{"type":"Feature","geometry":{"type":"Polygon","coordinates":[[[119.8815,-2.975],[119.877,-2.9695],[119.875,-2.9695],[119.871,-2.971],[119.8685,-2.9695],[119.868,-2.97],[119.867,-2.9705],[119.865,-2.971],[119.8655,-2.973],[119.865,-2.973],[119.866,-2.9765],[119.866,-2.978],[119.8665,-2.98],[119.868,-2.9805],[119.8685,-2.9825],[119.869,-2.9825],[119.871,-2.9825],[119.878,-2.983],[119.88,-2.983],[119.881,-2.9835],[119.8815,-2.984],[119.882,-2.9835],[119.8815,-2.982],[119.8815,-2.9755],[119.8815,-2.975]]]},"properties":{"code":"73.26.01.2011","name":"Saloso"}},{"type":"Feature","geometry":{"type":"Polygon","coordinates":[[[119.933,-2.923],[119.9225,-2.9145],[119.921,-2.916],[119.9165,-2.925],[119.924,-2.9225],[119.925,-2.9225],[119.933,-2.923]]]},"properties":{"code":"73.26.02.1001","name":"Bori"}},{"type":"Feature","geometry":{"type":"Polygon","coordinates":[[[119.9435,-2.9205],[119.9425,-2.9205],[119.9405,-2.9195],[119.939,-2.919],[119.9375,-2.9185],[119.936,-2.9205],[119.9365,-2.9225],[119.935,-2.923],[119.931,-2.925],[119.9295,-2.927],[119.928,-2.9295],[119.946,-2.934],[119.945,-2.9255],[119.9445,-2.924],[119.9435,-2.9205]]]},"properties":{"code":"73.26.02.1002","name":"Pangli"}},{"type":"Feature","geometry":{"type":"Polygon","coordinates":[[[119.9505,-2.9015],[119.937,-2.9015],[119.937,-2.9025],[119.937,-2.904],[119.937,-2.906],[119.9365,-2.909],[119.939,-2.91],[119.939,-2.918],[119.9375,-2.9185],[119.939,-2.919],[119.9405,-2.9195],[119.9425,-2.9205],[119.9435,-2.9205],[119.946,-2.917],[119.9445,-2.9105],[119.9465,-2.9085],[119.9515,-2.903],[119.9515,-2.902],[119.9505,-2.9015]]]},"properties":{"code":"73.26.02.1004","name":"Palawa'"}},{"type":"Feature","geometry":{"type":"Polygon","coordinates":[[[119.9215,-2.9045],[119.9075,-2.9045],[119.9075,-2.906],[119.9045,-2.913],[119.904,-2.915],[119.9085,-2.9235],[119.9145,-2.9275],[119.915,-2.928],[119.9165,-2.925],[119.921,-2.916],[119.922,-2.9135],[119.9215,-2.9125],[119.9215,-2.9045]]]},"properties":{"code":"73.26.02.1005","name":"Deri'"}},{"type":"Feature","geometry":{"type":"Polygon","coordinates":[[[119.946,-2.934],[119.928,-2.9295],[119.9235,-2.9395],[119.927,-2.9435],[119.928,-2.9465],[119.9285,-2.9465],[119.946,-2.934]]]},"properties":{"code":"73.26.02.1009","name":"Pangli Selatan"}},{"type":"Feature","geometry":{"type":"Polygon","coordinates":[[[119.904,-2.914],[119.8915,-2.9185],[119.8925,-2.9255],[119.892,-2.93],[119.8925,-2.9385],[119.897,-2.936],[119.9085,-2.9235],[119.904,-2.915],[119.904,-2.914]]]},"properties":{"code":"73.26.02.2003","name":"Buntu Lobo'"}},{"type":"Feature","geometry":{"type":"Polygon","coordinates":[[[119.915,-2.928],[119.9145,-2.9275],[119.9085,-2.9235],[119.897,-2.936],[119.905,-2.939],[119.9065,-2.938],[119.9095,-2.939],[119.9125,-2.9395],[119.918,-2.9395],[119.923,-2.9385],[119.9175,-2.931],[119.9175,-2.93],[119.915,-2.928]]]},"properties":{"code":"73.26.02.2006","name":"Parinding"}},{"type":"Feature","geometry":{"type":"Polygon","coordinates":[[[119.937,-2.906],[119.9355,-2.905],[119.931,-2.9035],[119.9275,-2.9045],[119.9255,-2.9035],[119.924,-2.904],[119.9215,-2.9045],[119.9215,-2.9125],[119.922,-2.9135],[119.9225,-2.9145],[119.933,-2.923],[119.9355,-2.922],[119.936,-2.922],[119.936,-2.9225],[119.9365,-2.9225],[119.936,-2.9205],[119.937,-2.9185],[119.939,-2.918],[119.939,-2.91],[119.9365,-2.909],[119.937,-2.906]]]},"properties":{"code":"73.26.02.2007","name":"Bori' Ranteletok"}},{"type":"Feature","geometry":{"type":"Polygon","coordinates":[[[119.933,-2.923],[119.925,-2.9225],[119.924,-2.9225],[119.9165,-2.925],[119.915,-2.928],[119.9175,-2.93],[119.9175,-2.931],[119.923,-2.9385],[119.9235,-2.9395],[119.928,-2.9295],[119.9295,-2.927],[119.931,-2.925],[119.935,-2.923],[119.936,-2.9225],[119.936,-2.922],[119.9355,-2.922],[119.933,-2.923]]]},"properties":{"code":"73.26.02.2008","name":"Bori' Lombongan"}},{"type":"Feature","geometry":{"type":"Polygon","coordinates":[[[119.998,-2.934],[119.997,-2.934],[119.9965,-2.9355],[119.9955,-2.9355],[119.993,-2.933],[119.9915,-2.9325],[119.9885,-2.952],[119.992,-2.9585],[119.994,-2.9575],[119.995,-2.9565],[120.0105,-2.9615],[120.0115,-2.9635],[120.031,-2.975],[120.032,-2.9755],[120.042,-2.9885],[120.046,-2.9875],[120.0505,-2.9845],[120.0515,-2.983],[120.053,-2.9805],[120.0245,-2.9595],[120.0115,-2.9465],[120.0015,-2.946],[119.998,-2.934]]]},"properties":{"code":"73.26.03.1004","name":"Nanggala Sanpiak Satu"}},{"type":"Feature","geometry":{"type":"Polygon","coordinates":[[[120.0105,-2.962],[120.0105,-2.9615],[119.995,-2.9565],[119.994,-2.9575],[119.992,-2.9585],[119.991,-2.9615],[119.9905,-2.962],[119.9905,-2.964],[119.9895,-2.964],[119.9895,-2.965],[119.989,-2.9655],[119.9915,-2.9675],[119.9905,-2.981],[119.9915,-2.9985],[119.992,-2.9995],[119.993,-3.0015],[119.9935,-3.0045],[119.993,-3.0045],[119.9925,-3.006],[119.9925,-3.0065],[119.998,-3.008],[120.0065,-3.012],[120.0085,-3.01],[120.0165,-3.0015],[120.005,-2.982],[120.0035,-2.9775],[120.001,-2.966],[120.0105,-2.962]]]},"properties":{"code":"73.26.03.2001","name":"Nanggala"}},{"type":"Feature","geometry":{"type":"Polygon","coordinates":[[[120.0465,-2.926],[120.0355,-2.9175],[120.021,-2.9155],[120.0195,-2.914],[120.0195,-2.9155],[120.0195,-2.918],[120.018,-2.924],[120.0185,-2.926],[120.0145,-2.9305],[119.999,-2.934],[119.998,-2.934],[120.0015,-2.946],[120.0115,-2.9465],[120.0245,-2.9595],[120.053,-2.9805],[120.054,-2.9785],[120.061,-2.9655],[120.0495,-2.9525],[120.0465,-2.926]]]},"properties":{"code":"73.26.03.2002","name":"Tandung Nanggala"}},{"type":"Feature","geometry":{"type":"Polygon","coordinates":[[[120.0195,-2.914],[120.0185,-2.914],[120.017,-2.9125],[120.015,-2.9095],[120.01,-2.907],[120.0095,-2.9065],[120.0065,-2.9175],[119.991,-2.9295],[119.99,-2.9315],[119.991,-2.9325],[119.993,-2.933],[119.9955,-2.9355],[119.9965,-2.9355],[119.997,-2.934],[119.999,-2.934],[120.0145,-2.9305],[120.0185,-2.926],[120.018,-2.924],[120.0195,-2.918],[120.0195,-2.9155],[120.0195,-2.914]]]},"properties":{"code":"73.26.03.2003","name":"Lili'kira'"}},{"type":"Feature","geometry":{"type":"Polygon","coordinates":[[[120.084,-3.0055],[120.073,-3.0015],[120.055,-2.9865],[120.0515,-2.984],[120.051,-2.9835],[120.0505,-2.9845],[120.046,-2.9875],[120.0435,-2.9895],[120.0425,-2.9915],[120.042,-2.992],[120.042,-2.993],[120.0425,-2.993],[120.0445,-2.9975],[120.046,-2.9985],[120.047,-3.0005],[120.0525,-3.02],[120.047,-3.0355],[120.0445,-3.0375],[120.044,-3.0385],[120.0445,-3.039],[120.047,-3.041],[120.0455,-3.046],[120.046,-3.047],[120.0475,-3.0455],[120.0835,-3.032],[120.085,-3.0315],[120.0855,-3.031],[120.085,-3.03],[120.084,-3.014],[120.084,-3.0125],[120.085,-3.007],[120.084,-3.0055]]]},"properties":{"code":"73.26.03.2005","name":"Karre Limbong"}},{"type":"Feature","geometry":{"type":"Polygon","coordinates":[[[119.9915,-2.9325],[119.991,-2.9325],[119.989,-2.9335],[119.9795,-2.95],[119.9795,-2.951],[119.979,-2.952],[119.98,-2.9535],[119.977,-2.963],[119.9855,-2.9645],[119.9865,-2.964],[119.9885,-2.964],[119.9895,-2.964],[119.9905,-2.964],[119.9905,-2.962],[119.991,-2.9615],[119.992,-2.9585],[119.9885,-2.952],[119.9915,-2.9325]]]},"properties":{"code":"73.26.03.2006","name":"Rante"}},{"type":"Feature","geometry":{"type":"Polygon","coordinates":[[[119.977,-2.963],[119.9735,-2.9655],[119.973,-2.966],[119.973,-2.967],[119.9675,-2.985],[119.972,-2.999],[119.9725,-2.9995],[119.9775,-3.0025],[119.99,-3.0085],[119.992,-3.008],[119.992,-3.007],[119.9925,-3.006],[119.993,-3.0045],[119.9935,-3.0045],[119.993,-3.0015],[119.992,-2.9995],[119.9915,-2.9985],[119.9905,-2.981],[119.9915,-2.9675],[119.989,-2.9655],[119.9895,-2.965],[119.9895,-2.964],[119.9885,-2.964],[119.9865,-2.964],[119.9855,-2.9645],[119.977,-2.963]]]},"properties":{"code":"73.26.03.2007","name":"Basokan"}},{"type":"Feature","geometry":{"type":"Polygon","coordinates":[[[120.0435,-2.9895],[120.042,-2.9885],[120.032,-2.9755],[120.031,-2.975],[120.0115,-2.9635],[120.0105,-2.962],[120.001,-2.966],[120.0035,-2.9775],[120.005,-2.982],[120.0165,-3.0015],[120.0245,-2.9995],[120.0285,-2.999],[120.0305,-2.999],[120.033,-2.9995],[120.042,-2.993],[120.042,-2.992],[120.0425,-2.9915],[120.0435,-2.9895]]]},"properties":{"code":"73.26.03.2008","name":"Nanna' Nanggala"}},{"type":"Feature","geometry":{"type":"Polygon","coordinates":[[[120.0445,-3.0375],[120.047,-3.0355],[120.0525,-3.02],[120.047,-3.0005],[120.046,-2.9985],[120.0445,-2.9975],[120.0425,-2.993],[120.042,-2.993],[120.033,-2.9995],[120.029,-2.999],[120.029,-3.0045],[120.0305,-3.0085],[120.0315,-3.017],[120.0365,-3.0315],[120.0445,-3.0375]]]},"properties":{"code":"73.26.03.2009","name":"Karre Pananian"}},{"type":"Feature","geometry":{"type":"Polygon","coordinates":[[[119.812,-2.9025],[119.8085,-2.9015],[119.8075,-2.901],[119.8045,-2.8975],[119.8025,-2.901],[119.802,-2.904],[119.8025,-2.9055],[119.8015,-2.908],[119.8015,-2.9085],[119.8065,-2.913],[119.808,-2.9125],[119.8075,-2.911],[119.808,-2.9095],[119.8115,-2.903],[119.812,-2.9025]]]},"properties":{"code":"73.26.04.1002","name":"Pangala'"}},{"type":"Feature","geometry":{"type":"Polygon","coordinates":[[[119.808,-2.8845],[119.807,-2.8865],[119.807,-2.887],[119.8055,-2.8955],[119.8045,-2.8975],[119.8075,-2.901],[119.8085,-2.9015],[119.812,-2.9025],[119.813,-2.903],[119.8205,-2.903],[119.8205,-2.9015],[119.819,-2.9],[119.8175,-2.899],[119.815,-2.8985],[119.8145,-2.8965],[119.812,-2.8945],[119.8125,-2.893],[119.8125,-2.892],[119.8115,-2.89],[119.8075,-2.887],[119.808,-2.8845]]]},"properties":{"code":"73.26.04.1004","name":"Pangala' Utara"}},{"type":"Feature","geometry":{"type":"Polygon","coordinates":[[[119.8235,-2.847],[119.8185,-2.847],[119.8115,-2.8455],[119.8135,-2.8515],[119.8145,-2.853],[119.8155,-2.8535],[119.816,-2.8545],[119.812,-2.869],[119.8135,-2.8705],[119.8135,-2.871],[119.8135,-2.872],[119.816,-2.88],[119.8175,-2.886],[119.8205,-2.889],[119.822,-2.89],[119.824,-2.8895],[119.824,-2.89],[119.8245,-2.8895],[119.8295,-2.884],[119.8295,-2.8755],[119.827,-2.871],[119.8235,-2.861],[119.8235,-2.847]]]},"properties":{"code":"73.26.04.2001","name":"Bululangkan"}},{"type":"Feature","geometry":{"type":"Polygon","coordinates":[[[119.8025,-2.901],[119.801,-2.903],[119.778,-2.901],[119.7825,-2.9225],[119.796,-2.9445],[119.7965,-2.9455],[119.7985,-2.948],[119.808,-2.9595],[119.8095,-2.956],[119.8095,-2.9535],[119.8085,-2.952],[119.806,-2.95],[119.8005,-2.94],[119.8045,-2.929],[119.805,-2.924],[119.8075,-2.915],[119.8075,-2.913],[119.8065,-2.913],[119.8015,-2.9085],[119.8015,-2.908],[119.8025,-2.9055],[119.802,-2.904],[119.8025,-2.901]]]},"properties":{"code":"73.26.04.2003","name":"Rindingallo"}},{"type":"Feature","geometry":{"type":"Polygon","coordinates":[[[119.824,-2.89],[119.824,-2.8895],[119.822,-2.89],[119.8205,-2.889],[119.8175,-2.886],[119.816,-2.88],[119.8135,-2.872],[119.8085,-2.884],[119.8075,-2.887],[119.8115,-2.89],[119.8125,-2.892],[119.8125,-2.893],[119.812,-2.8945],[119.8145,-2.8965],[119.815,-2.8985],[119.8175,-2.899],[119.819,-2.9],[119.8205,-2.9015],[119.8235,-2.8995],[119.823,-2.898],[119.823,-2.891],[119.824,-2.89]]]},"properties":{"code":"73.26.04.2005","name":"Mai'ting"}},{"type":"Feature","geometry":{"type":"Polygon","coordinates":[[[119.8115,-2.8455],[119.8035,-2.8345],[119.793,-2.8495],[119.7925,-2.855],[119.7905,-2.8745],[119.8045,-2.8845],[119.807,-2.8865],[119.808,-2.8845],[119.8085,-2.884],[119.8135,-2.872],[119.8135,-2.871],[119.8135,-2.8705],[119.812,-2.869],[119.816,-2.8545],[119.8155,-2.8535],[119.8145,-2.853],[119.8135,-2.8515],[119.8115,-2.8455]]]},"properties":{"code":"73.26.04.2006","name":"Lo'ko'uru Tanetebatu"}},{"type":"Feature","geometry":{"type":"Polygon","coordinates":[[[119.8205,-2.903],[119.813,-2.903],[119.8115,-2.903],[119.808,-2.9095],[119.8075,-2.911],[119.808,-2.9125],[119.8075,-2.913],[119.8075,-2.915],[119.805,-2.924],[119.805,-2.9275],[119.812,-2.93],[119.8185,-2.9285],[119.8215,-2.9285],[119.82,-2.925],[119.8175,-2.911],[119.8185,-2.9115],[119.819,-2.911],[119.8215,-2.907],[119.8205,-2.9035],[119.8205,-2.903]]]},"properties":{"code":"73.26.04.2007","name":"Ampang Batu"}},{"type":"Feature","geometry":{"type":"Polygon","coordinates":[[[119.843,-2.8875],[119.8435,-2.884],[119.8425,-2.884],[119.8345,-2.883],[119.8295,-2.884],[119.8245,-2.8895],[119.824,-2.89],[119.823,-2.891],[119.823,-2.898],[119.8245,-2.898],[119.8285,-2.9005],[119.8315,-2.901],[119.839,-2.8985],[119.84,-2.8965],[119.8425,-2.888],[119.843,-2.8875]]]},"properties":{"code":"73.26.04.2008","name":"Lempo Poton"}},{"type":"Feature","geometry":{"type":"Polygon","coordinates":[[[119.7905,-2.8745],[119.771,-2.885],[119.776,-2.896],[119.778,-2.898],[119.778,-2.901],[119.801,-2.903],[119.8055,-2.8955],[119.807,-2.887],[119.8045,-2.8845],[119.7905,-2.8745]]]},"properties":{"code":"73.26.04.2009","name":"Buntu Batu"}},{"type":"Feature","geometry":{"type":"Polygon","coordinates":[[[119.978,-3.0315],[119.968,-3.0355],[119.9725,-3.047],[119.9695,-3.067],[119.969,-3.072],[119.9685,-3.073],[119.968,-3.075],[119.982,-3.078],[119.984,-3.0755],[119.9835,-3.075],[119.983,-3.0735],[119.9835,-3.073],[119.984,-3.071],[119.9845,-3.071],[119.984,-3.0705],[119.984,-3.07],[119.9855,-3.059],[119.985,-3.0585],[119.9785,-3.0375],[119.978,-3.034],[119.978,-3.0315]]]},"properties":{"code":"73.26.05.1005","name":"Tullang' Sura"}},{"type":"Feature","geometry":{"type":"Polygon","coordinates":[[[119.9525,-3.047],[119.945,-3.046],[119.94,-3.058],[119.939,-3.0585],[119.933,-3.059],[119.936,-3.0675],[119.9495,-3.0725],[119.952,-3.073],[119.9525,-3.0695],[119.9525,-3.047]]]},"properties":{"code":"73.26.05.1006","name":"Tongkonan Bassae"}},{"type":"Feature","geometry":{"type":"Polygon","coordinates":[[[119.972,-3.004],[119.971,-3.0045],[119.965,-3],[119.963,-3.0005],[119.962,-3.003],[119.9615,-3.004],[119.9605,-3.0035],[119.9595,-3.005],[119.9425,-3.0105],[119.9415,-3.0105],[119.9415,-3.0125],[119.9415,-3.013],[119.9415,-3.0145],[119.942,-3.0145],[119.94,-3.018],[119.937,-3.025],[119.9365,-3.026],[119.936,-3.026],[119.9345,-3.0255],[119.9325,-3.027],[119.931,-3.0275],[119.933,-3.0305],[119.9375,-3.032],[119.946,-3.035],[119.955,-3.028],[119.968,-3.0355],[119.978,-3.0315],[119.9775,-3.0295],[119.9775,-3.028],[119.9785,-3.0275],[119.9795,-3.027],[119.978,-3.026],[119.9785,-3.0245],[119.979,-3.024],[119.9785,-3.023],[119.972,-3.004]]]},"properties":{"code":"73.26.05.2001","name":"Sapan Kua-kua"}},{"type":"Feature","geometry":{"type":"Polygon","coordinates":[[[119.946,-3.035],[119.9375,-3.032],[119.9325,-3.031],[119.9305,-3.032],[119.9305,-3.033],[119.928,-3.035],[119.928,-3.036],[119.928,-3.0365],[119.9265,-3.0485],[119.929,-3.054],[119.9325,-3.059],[119.933,-3.059],[119.939,-3.0585],[119.94,-3.058],[119.945,-3.046],[119.9455,-3.045],[119.9455,-3.0425],[119.946,-3.035]]]},"properties":{"code":"73.26.05.2002","name":"Rindingkila'"}},{"type":"Feature","geometry":{"type":"Polygon","coordinates":[[[119.968,-3.0355],[119.955,-3.028],[119.946,-3.035],[119.9455,-3.0425],[119.9455,-3.045],[119.945,-3.046],[119.9525,-3.047],[119.968,-3.0355]]]},"properties":{"code":"73.26.05.2003","name":"Misa'ba'bana"}},{"type":"Feature","geometry":{"type":"Polygon","coordinates":[[[119.969,-3.069],[119.9695,-3.067],[119.9725,-3.047],[119.968,-3.0355],[119.9525,-3.047],[119.9525,-3.0695],[119.953,-3.071],[119.969,-3.069]]]},"properties":{"code":"73.26.05.2004","name":"Issong Kalua'"}},{"type":"Feature","geometry":{"type":"Polygon","coordinates":[[[119.9505,-2.8915],[119.9455,-2.8915],[119.9455,-2.8895],[119.945,-2.8815],[119.9425,-2.884],[119.941,-2.881],[119.939,-2.88],[119.938,-2.881],[119.9375,-2.88],[119.9335,-2.8815],[119.9325,-2.889],[119.9335,-2.888],[119.935,-2.889],[119.9395,-2.893],[119.94,-2.896],[119.937,-2.899],[119.9365,-2.9005],[119.937,-2.9015],[119.9515,-2.9015],[119.9505,-2.8955],[119.951,-2.892],[119.9505,-2.8915]]]},"properties":{"code":"73.26.06.1002","name":"Sa'dan Malimbong"}},{"type":"Feature","geometry":{"type":"Polygon","coordinates":[[[119.98,-2.8335],[119.9795,-2.8335],[119.978,-2.8335],[119.972,-2.8345],[119.9705,-2.834],[119.969,-2.8345],[119.9655,-2.8435],[119.9645,-2.846],[119.9565,-2.868],[119.948,-2.878],[119.9505,-2.8915],[119.951,-2.892],[119.951,-2.893],[119.9595,-2.8825],[119.9595,-2.882],[119.964,-2.8655],[119.9705,-2.862],[119.9755,-2.847],[119.9825,-2.8395],[119.981,-2.8365],[119.98,-2.834],[119.98,-2.8335]]]},"properties":{"code":"73.26.06.1004","name":"Sa'dan Matalo"}},{"type":"Feature","geometry":{"type":"Polygon","coordinates":[[[119.94,-2.779],[119.9305,-2.7825],[119.9285,-2.783],[119.9265,-2.7805],[119.9135,-2.7805],[119.9125,-2.78],[119.904,-2.7745],[119.902,-2.776],[119.9005,-2.776],[119.9,-2.776],[119.889,-2.8025],[119.9095,-2.814],[119.909,-2.8255],[119.909,-2.8305],[119.9155,-2.8515],[119.9165,-2.8525],[119.9305,-2.855],[119.933,-2.8475],[119.9445,-2.8315],[119.9525,-2.8295],[119.968,-2.835],[119.9705,-2.834],[119.972,-2.8345],[119.978,-2.8335],[119.9795,-2.8335],[119.98,-2.8335],[119.9795,-2.8315],[119.979,-2.8305],[119.9775,-2.83],[119.963,-2.813],[119.9615,-2.8055],[119.961,-2.8025],[119.9525,-2.8],[119.952,-2.8],[119.951,-2.7985],[119.946,-2.7885],[119.947,-2.7865],[119.946,-2.785],[119.944,-2.7815],[119.943,-2.7805],[119.9415,-2.779],[119.94,-2.779]]]},"properties":{"code":"73.26.06.2001","name":"Sa'dan Ulusalu"}},{"type":"Feature","geometry":{"type":"Polygon","coordinates":[[[119.9305,-2.855],[119.9165,-2.8525],[119.916,-2.852],[119.9125,-2.854],[119.9125,-2.8575],[119.9145,-2.8605],[119.9065,-2.871],[119.898,-2.8725],[119.897,-2.8725],[119.8975,-2.8725],[119.898,-2.8725],[119.8995,-2.8735],[119.9,-2.873],[119.9005,-2.872],[119.9035,-2.8715],[119.907,-2.8765],[119.911,-2.8775],[119.9105,-2.878],[119.911,-2.8785],[119.912,-2.8785],[119.9125,-2.879],[119.9125,-2.8795],[119.9135,-2.8795],[119.919,-2.8765],[119.921,-2.877],[119.9265,-2.874],[119.933,-2.878],[119.934,-2.8805],[119.9355,-2.88],[119.936,-2.8795],[119.9365,-2.88],[119.9365,-2.8805],[119.9375,-2.88],[119.9365,-2.8785],[119.93,-2.8725],[119.9305,-2.8565],[119.9305,-2.855]]]},"properties":{"code":"73.26.06.2003","name":"Sa'dan Ballo Pasange'"}},{"type":"Feature","geometry":{"type":"Polygon","coordinates":[[[119.9365,-2.8805],[119.9365,-2.88],[119.936,-2.8795],[119.9355,-2.88],[119.934,-2.8805],[119.933,-2.878],[119.9265,-2.874],[119.921,-2.877],[119.919,-2.8765],[119.9135,-2.8795],[119.9125,-2.8795],[119.9125,-2.879],[119.912,-2.8785],[119.911,-2.8785],[119.9115,-2.8805],[119.9135,-2.883],[119.912,-2.8855],[119.912,-2.886],[119.9125,-2.8865],[119.913,-2.8855],[119.921,-2.889],[119.9255,-2.889],[119.9325,-2.889],[119.9335,-2.8815],[119.9365,-2.8805]]]},"properties":{"code":"73.26.06.2005","name":"Sa'dan Pebulian"}},{"type":"Feature","geometry":{"type":"Polygon","coordinates":[[[119.969,-2.8345],[119.968,-2.835],[119.9525,-2.8295],[119.9445,-2.8315],[119.933,-2.8475],[119.9305,-2.8565],[119.93,-2.8725],[119.9365,-2.8785],[119.938,-2.881],[119.939,-2.88],[119.941,-2.881],[119.9425,-2.884],[119.945,-2.8815],[119.9455,-2.8895],[119.9455,-2.8915],[119.9505,-2.8915],[119.948,-2.878],[119.9565,-2.868],[119.9645,-2.846],[119.9655,-2.8435],[119.969,-2.8345]]]},"properties":{"code":"73.26.06.2006","name":"Sa'dan Sangkaropi'"}},{"type":"Feature","geometry":{"type":"Polygon","coordinates":[[[119.9895,-2.867],[119.982,-2.858],[119.9835,-2.8565],[119.9845,-2.852],[119.986,-2.8495],[119.984,-2.84],[119.9825,-2.8395],[119.9755,-2.847],[119.9705,-2.862],[119.964,-2.8655],[119.9595,-2.882],[119.9595,-2.8815],[119.964,-2.8825],[119.965,-2.8825],[119.9645,-2.8835],[119.9645,-2.8845],[119.9645,-2.885],[119.9635,-2.8875],[119.964,-2.89],[119.9665,-2.8935],[119.968,-2.894],[119.968,-2.893],[119.9685,-2.893],[119.969,-2.8925],[119.9695,-2.8925],[119.9745,-2.8905],[119.989,-2.8695],[119.9895,-2.867]]]},"properties":{"code":"73.26.06.2007","name":"Sa'dan Tiroallo"}},{"type":"Feature","geometry":{"type":"Polygon","coordinates":[[[119.968,-2.893],[119.968,-2.894],[119.9665,-2.8935],[119.964,-2.89],[119.9635,-2.8875],[119.9645,-2.885],[119.9645,-2.8845],[119.9645,-2.8835],[119.965,-2.8825],[119.964,-2.8825],[119.9595,-2.8815],[119.9595,-2.8825],[119.951,-2.893],[119.9505,-2.8955],[119.9515,-2.9015],[119.9505,-2.9015],[119.9515,-2.902],[119.952,-2.9025],[119.9595,-2.903],[119.961,-2.903],[119.962,-2.9035],[119.962,-2.9015],[119.963,-2.8975],[119.968,-2.8945],[119.968,-2.8935],[119.9685,-2.8935],[119.9685,-2.893],[119.968,-2.893]]]},"properties":{"code":"73.26.06.2008","name":"Sa'dan Andulan"}},{"type":"Feature","geometry":{"type":"Polygon","coordinates":[[[119.916,-2.852],[119.9155,-2.8515],[119.909,-2.8305],[119.909,-2.8255],[119.9095,-2.814],[119.889,-2.8025],[119.879,-2.817],[119.8835,-2.8305],[119.8915,-2.8355],[119.9035,-2.8465],[119.9045,-2.847],[119.907,-2.8485],[119.9095,-2.85],[119.9125,-2.854],[119.916,-2.852]]]},"properties":{"code":"73.26.06.2009","name":"Sa'dan Pesondongan"}},{"type":"Feature","geometry":{"type":"Polygon","coordinates":[[[119.9125,-2.854],[119.9095,-2.85],[119.907,-2.8485],[119.9045,-2.847],[119.9035,-2.8465],[119.8915,-2.8355],[119.887,-2.8445],[119.8935,-2.865],[119.893,-2.866],[119.893,-2.8665],[119.8925,-2.867],[119.892,-2.867],[119.8965,-2.8735],[119.8965,-2.8725],[119.897,-2.8725],[119.898,-2.8725],[119.9065,-2.871],[119.9145,-2.8605],[119.9125,-2.8575],[119.9125,-2.854]]]},"properties":{"code":"73.26.06.2010","name":"Sa'dan Liku Lambe'"}},{"type":"Feature","geometry":{"type":"Polygon","coordinates":[[[119.9175,-3.009],[119.915,-3.009],[119.915,-3.008],[119.9155,-3.0075],[119.916,-3.006],[119.917,-3.0045],[119.9185,-2.998],[119.9175,-2.999],[119.916,-3],[119.9155,-3.0005],[119.914,-3.001],[119.908,-3.0055],[119.9065,-3.007],[119.902,-3.018],[119.9035,-3.0195],[119.911,-3.0225],[119.9125,-3.0235],[119.9135,-3.023],[119.915,-3.0205],[119.916,-3.0205],[119.916,-3.021],[119.917,-3.021],[119.918,-3.0205],[119.9175,-3.02],[119.9185,-3.019],[119.9175,-3.009]]]},"properties":{"code":"73.26.07.1006","name":"Paepalean"}},{"type":"Feature","geometry":{"type":"Polygon","coordinates":[[[119.9595,-3.004],[119.959,-3.004],[119.957,-3.005],[119.942,-3.0045],[119.932,-2.9915],[119.9305,-2.9905],[119.93,-2.983],[119.9275,-2.981],[119.9185,-2.998],[119.917,-3.0045],[119.916,-3.006],[119.9155,-3.0075],[119.915,-3.008],[119.915,-3.009],[119.9175,-3.009],[119.9185,-3.009],[119.9195,-3.009],[119.9205,-3.0105],[119.929,-3.0075],[119.941,-3.0115],[119.9415,-3.0105],[119.9425,-3.0105],[119.9595,-3.005],[119.9595,-3.004]]]},"properties":{"code":"73.26.07.2001","name":"La'bo'"}},{"type":"Feature","geometry":{"type":"Polygon","coordinates":[[[119.941,-3.0115],[119.929,-3.0075],[119.9205,-3.0105],[119.9195,-3.009],[119.9185,-3.009],[119.9175,-3.009],[119.9185,-3.019],[119.9175,-3.02],[119.918,-3.0205],[119.917,-3.0215],[119.9195,-3.022],[119.929,-3.0315],[119.9305,-3.032],[119.9325,-3.031],[119.933,-3.0305],[119.931,-3.0275],[119.9325,-3.027],[119.9345,-3.0255],[119.936,-3.026],[119.9365,-3.026],[119.937,-3.025],[119.94,-3.018],[119.942,-3.0145],[119.9415,-3.0145],[119.9415,-3.013],[119.9415,-3.0125],[119.941,-3.0115]]]},"properties":{"code":"73.26.07.2002","name":"Buntu La'bo'"}},{"type":"Feature","geometry":{"type":"Polygon","coordinates":[[[119.928,-3.0355],[119.9265,-3.0355],[119.9255,-3.0365],[119.9245,-3.036],[119.9215,-3.036],[119.9165,-3.0385],[119.909,-3.0385],[119.9065,-3.033],[119.894,-3.0335],[119.894,-3.0345],[119.894,-3.044],[119.896,-3.0455],[119.9185,-3.048],[119.924,-3.0495],[119.9245,-3.0505],[119.926,-3.0495],[119.927,-3.0495],[119.9265,-3.0485],[119.928,-3.0365],[119.928,-3.0355]]]},"properties":{"code":"73.26.07.2003","name":"Tallung Penanian"}},{"type":"Feature","geometry":{"type":"Polygon","coordinates":[[[119.903,-3.019],[119.896,-3.017],[119.895,-3.021],[119.895,-3.0235],[119.8955,-3.0245],[119.895,-3.0255],[119.8955,-3.027],[119.8945,-3.028],[119.8935,-3.0325],[119.894,-3.0335],[119.9065,-3.033],[119.909,-3.0385],[119.9165,-3.0385],[119.9215,-3.036],[119.9245,-3.036],[119.9255,-3.0365],[119.9265,-3.0355],[119.928,-3.0355],[119.928,-3.035],[119.9305,-3.033],[119.929,-3.0315],[119.9195,-3.022],[119.917,-3.0215],[119.917,-3.021],[119.916,-3.021],[119.916,-3.0205],[119.915,-3.0205],[119.9135,-3.023],[119.9125,-3.0235],[119.911,-3.0225],[119.9035,-3.0195],[119.903,-3.019]]]},"properties":{"code":"73.26.07.2004","name":"Pata'padang"}},{"type":"Feature","geometry":{"type":"Polygon","coordinates":[[[119.94,-2.9715],[119.934,-2.9725],[119.9335,-2.9725],[119.9315,-2.973],[119.931,-2.9735],[119.9315,-2.974],[119.931,-2.9745],[119.929,-2.975],[119.927,-2.981],[119.9275,-2.981],[119.93,-2.983],[119.9305,-2.9905],[119.932,-2.9915],[119.942,-3.0045],[119.957,-3.005],[119.959,-3.004],[119.9595,-3.004],[119.9605,-3.0035],[119.9615,-3.004],[119.962,-3.003],[119.963,-3.0005],[119.965,-3],[119.971,-3.0045],[119.9725,-3.004],[119.972,-3.003],[119.971,-2.9995],[119.972,-2.999],[119.9675,-2.985],[119.967,-2.983],[119.966,-2.981],[119.9655,-2.9795],[119.9635,-2.979],[119.963,-2.9785],[119.957,-2.9795],[119.9555,-2.9795],[119.9525,-2.979],[119.952,-2.979],[119.95,-2.9795],[119.9455,-2.98],[119.944,-2.979],[119.9415,-2.9785],[119.9385,-2.9785],[119.9375,-2.9775],[119.9385,-2.9765],[119.94,-2.975],[119.941,-2.974],[119.94,-2.9715]]]},"properties":{"code":"73.26.07.2005","name":"Tandung La'bo'"}},{"type":"Feature","geometry":{"type":"Polygon","coordinates":[[[119.882,-2.9835],[119.8815,-2.984],[119.881,-2.9835],[119.88,-2.983],[119.878,-2.983],[119.871,-2.9825],[119.869,-2.9825],[119.8685,-2.9825],[119.865,-2.9945],[119.866,-2.998],[119.8665,-2.999],[119.866,-2.9995],[119.867,-3.003],[119.8695,-3.006],[119.8705,-3.0065],[119.8715,-3.0065],[119.8715,-3.0045],[119.8745,-3.0025],[119.8775,-3.001],[119.879,-2.9985],[119.879,-2.996],[119.8795,-2.9945],[119.882,-2.993],[119.881,-2.9915],[119.8805,-2.9905],[119.8805,-2.989],[119.8825,-2.9845],[119.882,-2.984],[119.882,-2.9835]]]},"properties":{"code":"73.26.08.1002","name":"Nonongan Utara"}},{"type":"Feature","geometry":{"type":"Polygon","coordinates":[[[119.842,-2.958],[119.8375,-2.9585],[119.838,-2.9815],[119.8465,-2.971],[119.8485,-2.971],[119.8565,-2.987],[119.8575,-2.9875],[119.86,-2.9845],[119.8605,-2.9835],[119.863,-2.983],[119.868,-2.9805],[119.8665,-2.98],[119.866,-2.978],[119.866,-2.9765],[119.865,-2.973],[119.8655,-2.973],[119.865,-2.971],[119.865,-2.97],[119.842,-2.958]]]},"properties":{"code":"73.26.08.2001","name":"Salu"}},{"type":"Feature","geometry":{"type":"Polygon","coordinates":[[[119.8685,-2.9825],[119.868,-2.9805],[119.863,-2.983],[119.8605,-2.9835],[119.86,-2.9845],[119.8575,-2.9875],[119.857,-2.987],[119.851,-2.998],[119.855,-3.003],[119.865,-2.9995],[119.8665,-2.999],[119.866,-2.998],[119.865,-2.9945],[119.8685,-2.9825]]]},"properties":{"code":"73.26.08.2003","name":"Salu Sopai"}},{"type":"Feature","geometry":{"type":"Polygon","coordinates":[[[119.8635,-3.041],[119.864,-3.0395],[119.8645,-3.038],[119.8625,-3.0345],[119.855,-3.0345],[119.849,-3.029],[119.848,-3.029],[119.848,-3.0285],[119.85,-3.0245],[119.848,-3.0245],[119.8465,-3.0235],[119.846,-3.0235],[119.846,-3.0245],[119.844,-3.035],[119.8455,-3.037],[119.846,-3.04],[119.8465,-3.041],[119.8475,-3.0425],[119.8485,-3.0435],[119.8615,-3.048],[119.862,-3.0455],[119.86,-3.044],[119.86,-3.042],[119.8625,-3.042],[119.8635,-3.041]]]},"properties":{"code":"73.26.08.2004","name":"Tombang Langda"}},{"type":"Feature","geometry":{"type":"Polygon","coordinates":[[[119.851,-2.998],[119.8375,-2.9915],[119.8375,-2.9925],[119.834,-3.0065],[119.8325,-3.0075],[119.832,-3.01],[119.8365,-3.0255],[119.8445,-3.0365],[119.844,-3.035],[119.846,-3.0245],[119.846,-3.0215],[119.851,-2.998]]]},"properties":{"code":"73.26.08.2005","name":"Marante"}},{"type":"Feature","geometry":{"type":"Polygon","coordinates":[[[119.855,-3.003],[119.851,-2.998],[119.846,-3.0215],[119.846,-3.0235],[119.8465,-3.0235],[119.848,-3.0245],[119.85,-3.0245],[119.848,-3.0285],[119.848,-3.029],[119.849,-3.029],[119.855,-3.0345],[119.8625,-3.0345],[119.8645,-3.038],[119.864,-3.0395],[119.8635,-3.041],[119.864,-3.041],[119.8645,-3.0395],[119.869,-3.0385],[119.8695,-3.0375],[119.8695,-3.037],[119.8665,-3.0285],[119.8515,-3.014],[119.855,-3.003]]]},"properties":{"code":"73.26.08.2006","name":"Langda"}},{"type":"Feature","geometry":{"type":"Polygon","coordinates":[[[119.866,-2.9995],[119.865,-2.9995],[119.855,-3.003],[119.8515,-3.014],[119.8665,-3.0285],[119.8695,-3.037],[119.87,-3.0355],[119.87,-3.0275],[119.8705,-3.0265],[119.8705,-3.025],[119.87,-3.024],[119.87,-3.022],[119.8705,-3.0215],[119.87,-3.0155],[119.87,-3.0145],[119.8685,-3.0155],[119.868,-3.015],[119.869,-3.0115],[119.8715,-3.0105],[119.8705,-3.007],[119.8695,-3.006],[119.867,-3.003],[119.866,-2.9995]]]},"properties":{"code":"73.26.08.2007","name":"Nonongan Selatan"}},{"type":"Feature","geometry":{"type":"Polygon","coordinates":[[[119.857,-2.987],[119.8565,-2.987],[119.8485,-2.971],[119.8465,-2.971],[119.838,-2.9815],[119.837,-2.9825],[119.8365,-2.987],[119.837,-2.9895],[119.8375,-2.9915],[119.851,-2.998],[119.857,-2.987]]]},"properties":{"code":"73.26.08.2008","name":"Salu Sarre"}},{"type":"Feature","geometry":{"type":"Polygon","coordinates":[[[119.8905,-2.943],[119.8845,-2.9345],[119.8715,-2.9335],[119.87,-2.9355],[119.8645,-2.937],[119.8655,-2.938],[119.8655,-2.939],[119.8665,-2.9395],[119.8695,-2.942],[119.8715,-2.943],[119.873,-2.9435],[119.875,-2.947],[119.8745,-2.9475],[119.8735,-2.9485],[119.873,-2.9515],[119.873,-2.9525],[119.8815,-2.955],[119.8825,-2.955],[119.884,-2.954],[119.8845,-2.954],[119.8855,-2.9545],[119.886,-2.9535],[119.8905,-2.943]]]},"properties":{"code":"73.26.09.1001","name":"Tikala"}},{"type":"Feature","geometry":{"type":"Polygon","coordinates":[[[119.897,-2.936],[119.8925,-2.9385],[119.8925,-2.94],[119.8905,-2.943],[119.886,-2.9535],[119.8855,-2.9545],[119.887,-2.954],[119.887,-2.9535],[119.8885,-2.953],[119.8955,-2.9575],[119.896,-2.9575],[119.8975,-2.957],[119.898,-2.9535],[119.9015,-2.948],[119.9015,-2.9475],[119.902,-2.947],[119.905,-2.941],[119.905,-2.9405],[119.905,-2.939],[119.897,-2.936]]]},"properties":{"code":"73.26.09.1002","name":"Buntu Barana"}},{"type":"Feature","geometry":{"type":"Polygon","coordinates":[[[119.8915,-2.9185],[119.882,-2.917],[119.8805,-2.919],[119.88,-2.925],[119.879,-2.926],[119.877,-2.926],[119.876,-2.926],[119.875,-2.9255],[119.8715,-2.9335],[119.8845,-2.9345],[119.8905,-2.943],[119.8925,-2.94],[119.8925,-2.9385],[119.892,-2.93],[119.8925,-2.9255],[119.8915,-2.9185]]]},"properties":{"code":"73.26.09.2003","name":"Buntu Batu"}},{"type":"Feature","geometry":{"type":"Polygon","coordinates":[[[119.8625,-2.935],[119.86,-2.9345],[119.8585,-2.935],[119.8585,-2.9385],[119.858,-2.9395],[119.858,-2.9415],[119.8575,-2.9445],[119.859,-2.9445],[119.864,-2.9535],[119.8645,-2.957],[119.8645,-2.9575],[119.8645,-2.9595],[119.868,-2.9635],[119.8715,-2.962],[119.8705,-2.962],[119.8705,-2.9595],[119.871,-2.957],[119.8715,-2.9525],[119.8725,-2.9525],[119.873,-2.9515],[119.8735,-2.9485],[119.8745,-2.9475],[119.875,-2.947],[119.873,-2.9435],[119.8715,-2.943],[119.8695,-2.942],[119.8665,-2.9395],[119.8655,-2.939],[119.8655,-2.938],[119.864,-2.9365],[119.863,-2.9355],[119.8625,-2.935]]]},"properties":{"code":"73.26.09.2004","name":"Sereale"}},{"type":"Feature","geometry":{"type":"Polygon","coordinates":[[[119.875,-2.9255],[119.873,-2.925],[119.8595,-2.911],[119.858,-2.9105],[119.856,-2.9105],[119.854,-2.9125],[119.855,-2.9145],[119.855,-2.915],[119.8585,-2.932],[119.862,-2.934],[119.8625,-2.935],[119.863,-2.9355],[119.864,-2.9365],[119.8645,-2.937],[119.87,-2.9355],[119.8715,-2.9335],[119.875,-2.9255]]]},"properties":{"code":"73.26.09.2005","name":"Embatau"}},{"type":"Feature","geometry":{"type":"Polygon","coordinates":[[[119.8425,-2.8995],[119.839,-2.8985],[119.8315,-2.901],[119.831,-2.9015],[119.8405,-2.911],[119.848,-2.9115],[119.849,-2.9135],[119.851,-2.913],[119.852,-2.9145],[119.854,-2.914],[119.854,-2.9125],[119.856,-2.9105],[119.8465,-2.9015],[119.8425,-2.9],[119.8425,-2.8995]]]},"properties":{"code":"73.26.09.2006","name":"Benteng Ka'do To'ria"}},{"type":"Feature","geometry":{"type":"Polygon","coordinates":[[[119.8645,-2.8845],[119.8515,-2.884],[119.8425,-2.888],[119.84,-2.8965],[119.8565,-2.892],[119.8585,-2.891],[119.8645,-2.8845]]]},"properties":{"code":"73.26.09.2007","name":"Pangden"}},{"type":"Feature","geometry":{"type":"Polygon","coordinates":[[[119.961,-2.903],[119.9595,-2.903],[119.952,-2.9025],[119.9515,-2.903],[119.9465,-2.9085],[119.9445,-2.9105],[119.946,-2.917],[119.946,-2.9175],[119.9485,-2.917],[119.95,-2.9165],[119.95,-2.916],[119.9515,-2.916],[119.9545,-2.916],[119.9555,-2.9165],[119.9615,-2.917],[119.961,-2.9155],[119.96,-2.913],[119.9605,-2.911],[119.961,-2.9085],[119.961,-2.9065],[119.9615,-2.905],[119.961,-2.903]]]},"properties":{"code":"73.26.10.1002","name":"Tagari"}},{"type":"Feature","geometry":{"type":"Polygon","coordinates":[[[119.969,-2.8925],[119.968,-2.893],[119.9685,-2.893],[119.9685,-2.8935],[119.968,-2.8935],[119.968,-2.8945],[119.963,-2.8975],[119.962,-2.9015],[119.962,-2.9035],[119.961,-2.903],[119.9615,-2.905],[119.961,-2.9065],[119.961,-2.9085],[119.9605,-2.911],[119.96,-2.912],[119.9615,-2.9125],[119.9615,-2.912],[119.9655,-2.9125],[119.973,-2.9165],[119.981,-2.9135],[119.983,-2.9145],[119.985,-2.911],[119.983,-2.91],[119.9725,-2.903],[119.9725,-2.895],[119.9715,-2.8935],[119.969,-2.8925]]]},"properties":{"code":"73.26.10.1005","name":"Balusu"}},{"type":"Feature","geometry":{"type":"Polygon","coordinates":[[[119.9615,-2.917],[119.9555,-2.9165],[119.9545,-2.916],[119.9515,-2.916],[119.95,-2.916],[119.95,-2.9165],[119.9485,-2.917],[119.946,-2.9175],[119.9445,-2.924],[119.945,-2.9255],[119.946,-2.934],[119.9555,-2.9345],[119.957,-2.935],[119.9585,-2.935],[119.959,-2.935],[119.964,-2.9355],[119.9645,-2.935],[119.9635,-2.9335],[119.9645,-2.933],[119.9665,-2.932],[119.966,-2.9315],[119.968,-2.9255],[119.968,-2.925],[119.9625,-2.9175],[119.9615,-2.917]]]},"properties":{"code":"73.26.10.2001","name":"Palangi'"}},{"type":"Feature","geometry":{"type":"Polygon","coordinates":[[[120.0095,-2.9065],[120.009,-2.9055],[120.007,-2.9045],[120.0055,-2.9015],[119.9875,-2.91],[119.9855,-2.9105],[119.985,-2.911],[119.983,-2.9145],[119.9805,-2.927],[119.99,-2.9315],[119.991,-2.9295],[120.0065,-2.9175],[120.0095,-2.9065]]]},"properties":{"code":"73.26.10.2003","name":"Lilikira Ao'gading"}},{"type":"Feature","geometry":{"type":"Polygon","coordinates":[[[119.9805,-2.927],[119.9695,-2.9255],[119.968,-2.9255],[119.966,-2.9315],[119.9665,-2.932],[119.9645,-2.933],[119.9635,-2.9335],[119.9645,-2.935],[119.964,-2.9365],[119.9795,-2.9505],[119.9795,-2.95],[119.989,-2.9335],[119.99,-2.9315],[119.9805,-2.927]]]},"properties":{"code":"73.26.10.2004","name":"Karua"}},{"type":"Feature","geometry":{"type":"Polygon","coordinates":[[[119.983,-2.9145],[119.981,-2.9135],[119.973,-2.9165],[119.9655,-2.9125],[119.9615,-2.912],[119.9615,-2.9125],[119.96,-2.912],[119.96,-2.913],[119.961,-2.9155],[119.9615,-2.917],[119.9625,-2.9175],[119.968,-2.925],[119.9695,-2.9255],[119.9805,-2.927],[119.983,-2.9145]]]},"properties":{"code":"73.26.10.2006","name":"Awa' Kawasik"}},{"type":"Feature","geometry":{"type":"Polygon","coordinates":[[[120.0055,-2.9015],[120.007,-2.899],[120.0075,-2.894],[119.993,-2.877],[119.9945,-2.8725],[119.993,-2.87],[119.991,-2.8675],[119.989,-2.8695],[119.9745,-2.8905],[119.9695,-2.8925],[119.969,-2.8925],[119.9715,-2.8935],[119.9725,-2.895],[119.9725,-2.903],[119.983,-2.91],[119.9855,-2.9105],[119.9875,-2.91],[120.0055,-2.9015]]]},"properties":{"code":"73.26.10.2007","name":"Balusu Bangunlipu"}},{"type":"Feature","geometry":{"type":"Polygon","coordinates":[[[119.919,-2.9575],[119.919,-2.957],[119.9215,-2.9575],[119.9225,-2.9535],[119.9215,-2.952],[119.9205,-2.953],[119.9185,-2.9535],[119.9155,-2.9545],[119.9125,-2.9565],[119.911,-2.9595],[119.909,-2.9635],[119.9115,-2.967],[119.9115,-2.9675],[119.912,-2.967],[119.919,-2.9575]]]},"properties":{"code":"73.26.11.1001","name":"Tallunglipu Matalo"}},{"type":"Feature","geometry":{"type":"Polygon","coordinates":[[[119.912,-2.9485],[119.9075,-2.949],[119.9015,-2.948],[119.898,-2.9535],[119.898,-2.954],[119.9085,-2.9595],[119.9095,-2.9585],[119.9105,-2.958],[119.9115,-2.9585],[119.9125,-2.9565],[119.9155,-2.9545],[119.9185,-2.9535],[119.912,-2.9485]]]},"properties":{"code":"73.26.11.1002","name":"Tallunglipu"}},{"type":"Feature","geometry":{"type":"Polygon","coordinates":[[[119.9085,-2.9595],[119.898,-2.954],[119.8975,-2.957],[119.8985,-2.9645],[119.9005,-2.965],[119.9015,-2.9655],[119.904,-2.963],[119.9085,-2.9595]]]},"properties":{"code":"73.26.11.1003","name":"Tampo Tallunglipu"}},{"type":"Feature","geometry":{"type":"Polygon","coordinates":[[[119.9115,-2.9585],[119.9105,-2.958],[119.9095,-2.9585],[119.904,-2.963],[119.9015,-2.9655],[119.903,-2.967],[119.907,-2.969],[119.9085,-2.969],[119.911,-2.968],[119.9115,-2.9675],[119.9115,-2.967],[119.909,-2.9635],[119.911,-2.9595],[119.9115,-2.9585]]]},"properties":{"code":"73.26.11.1004","name":"Tagari Tallunglipu"}},{"type":"Feature","geometry":{"type":"Polygon","coordinates":[[[119.918,-2.9395],[119.9125,-2.9395],[119.9095,-2.939],[119.9065,-2.938],[119.905,-2.9405],[119.905,-2.941],[119.902,-2.947],[119.9015,-2.948],[119.9075,-2.949],[119.912,-2.9485],[119.915,-2.9465],[119.916,-2.945],[119.916,-2.943],[119.9155,-2.9425],[119.916,-2.9415],[119.917,-2.94],[119.918,-2.9395]]]},"properties":{"code":"73.26.11.1005","name":"Tantanan Tallunglipu"}},{"type":"Feature","geometry":{"type":"Polygon","coordinates":[[[119.919,-2.9575],[119.912,-2.967],[119.911,-2.968],[119.9085,-2.969],[119.9135,-2.973],[119.914,-2.9735],[119.915,-2.9725],[119.916,-2.9715],[119.9195,-2.972],[119.9185,-2.97],[119.9225,-2.968],[119.9225,-2.964],[119.919,-2.9575]]]},"properties":{"code":"73.26.11.1007","name":"Rante PakuTallunglipu"}},{"type":"Feature","geometry":{"type":"Polygon","coordinates":[[[119.9235,-2.9395],[119.923,-2.9385],[119.918,-2.9395],[119.917,-2.94],[119.916,-2.9415],[119.9155,-2.9425],[119.916,-2.943],[119.916,-2.945],[119.915,-2.9465],[119.912,-2.9485],[119.9185,-2.9535],[119.9205,-2.953],[119.922,-2.9515],[119.9235,-2.9505],[119.9245,-2.95],[119.93,-2.9485],[119.9285,-2.9475],[119.928,-2.9465],[119.927,-2.9435],[119.9235,-2.9395]]]},"properties":{"code":"73.26.11.2006","name":"Buntu Tallunglipu"}},{"type":"Feature","geometry":{"type":"Polygon","coordinates":[[[119.8365,-2.987],[119.818,-2.9825],[119.8225,-3.0005],[119.8235,-3.002],[119.8245,-3.003],[119.824,-3.004],[119.825,-3.004],[119.828,-3.0045],[119.831,-3.004],[119.832,-3.004],[119.834,-3.0065],[119.8375,-2.9925],[119.837,-2.9895],[119.8365,-2.987]]]},"properties":{"code":"73.26.12.1004","name":"Pasang"}},{"type":"Feature","geometry":{"type":"Polygon","coordinates":[[[119.833,-2.96],[119.828,-2.956],[119.822,-2.9565],[119.8225,-2.956],[119.824,-2.951],[119.823,-2.9515],[119.8085,-2.952],[119.8095,-2.9535],[119.8095,-2.956],[119.808,-2.9595],[119.8185,-2.9655],[119.8255,-2.9655],[119.826,-2.9655],[119.827,-2.9665],[119.828,-2.9655],[119.833,-2.96]]]},"properties":{"code":"73.26.12.2001","name":"Ma'dong"}},{"type":"Feature","geometry":{"type":"Polygon","coordinates":[[[119.838,-2.9815],[119.8375,-2.9585],[119.8355,-2.9595],[119.833,-2.96],[119.828,-2.9655],[119.8265,-2.9675],[119.8255,-2.968],[119.818,-2.9825],[119.8365,-2.987],[119.837,-2.9825],[119.838,-2.9815]]]},"properties":{"code":"73.26.12.2002","name":"Dende'"}},{"type":"Feature","geometry":{"type":"Polygon","coordinates":[[[119.818,-2.9825],[119.8115,-2.9845],[119.8095,-3.0095],[119.808,-3.0105],[119.808,-3.012],[119.808,-3.0125],[119.81,-3.011],[119.8155,-3.009],[119.816,-3.0075],[119.821,-3.006],[119.8225,-3.0055],[119.824,-3.0045],[119.8245,-3.003],[119.8235,-3.002],[119.8225,-3.0005],[119.818,-2.9825]]]},"properties":{"code":"73.26.12.2003","name":"Piongan"}},{"type":"Feature","geometry":{"type":"Polygon","coordinates":[[[119.827,-2.9665],[119.826,-2.9655],[119.8255,-2.9655],[119.8185,-2.9655],[119.808,-2.9595],[119.8085,-2.9785],[119.8115,-2.9845],[119.818,-2.9825],[119.8255,-2.968],[119.827,-2.9665]]]},"properties":{"code":"73.26.12.2005","name":"Paku"}},{"type":"Feature","geometry":{"type":"Polygon","coordinates":[[[119.834,-3.0065],[119.832,-3.004],[119.831,-3.004],[119.828,-3.0045],[119.825,-3.004],[119.824,-3.004],[119.824,-3.0045],[119.8225,-3.0055],[119.821,-3.006],[119.816,-3.0075],[119.8155,-3.009],[119.81,-3.011],[119.808,-3.0125],[119.8085,-3.0145],[119.807,-3.017],[119.806,-3.0195],[119.8025,-3.023],[119.8025,-3.0235],[119.8185,-3.0275],[119.822,-3.0255],[119.832,-3.01],[119.8325,-3.0075],[119.834,-3.0065]]]},"properties":{"code":"73.26.12.2006","name":"Kapolang"}},{"type":"Feature","geometry":{"type":"Polygon","coordinates":[[[119.8215,-2.9285],[119.8185,-2.9285],[119.812,-2.93],[119.805,-2.9275],[119.8045,-2.929],[119.8005,-2.94],[119.806,-2.95],[119.8085,-2.952],[119.823,-2.9515],[119.825,-2.951],[119.83,-2.9375],[119.831,-2.9355],[119.83,-2.9355],[119.8225,-2.9305],[119.8215,-2.9285]]]},"properties":{"code":"73.26.12.2007","name":"Buntu Tagari"}},{"type":"Feature","geometry":{"type":"Polygon","coordinates":[[[119.838,-2.9355],[119.8315,-2.936],[119.831,-2.9355],[119.83,-2.9375],[119.825,-2.951],[119.824,-2.951],[119.8225,-2.956],[119.822,-2.9565],[119.828,-2.956],[119.833,-2.96],[119.8355,-2.9595],[119.8375,-2.9585],[119.842,-2.958],[119.8415,-2.9515],[119.839,-2.948],[119.838,-2.9395],[119.8385,-2.9365],[119.838,-2.9355]]]},"properties":{"code":"73.26.12.2008","name":"Parinding"}},{"type":"Feature","geometry":{"type":"Polygon","coordinates":[[[119.879,-2.817],[119.848,-2.818],[119.8475,-2.8185],[119.8465,-2.822],[119.8475,-2.822],[119.849,-2.8275],[119.8525,-2.839],[119.8525,-2.842],[119.8605,-2.8415],[119.8645,-2.842],[119.874,-2.84],[119.8915,-2.8355],[119.8835,-2.8305],[119.879,-2.817]]]},"properties":{"code":"73.26.13.1002","name":"Sapan"}},{"type":"Feature","geometry":{"type":"Polygon","coordinates":[[[119.8525,-2.8655],[119.8495,-2.8615],[119.8485,-2.862],[119.847,-2.8655],[119.845,-2.8655],[119.8345,-2.883],[119.8425,-2.884],[119.8435,-2.884],[119.843,-2.8875],[119.8515,-2.884],[119.8505,-2.882],[119.852,-2.8735],[119.853,-2.872],[119.8535,-2.872],[119.855,-2.871],[119.8535,-2.8705],[119.853,-2.8685],[119.8525,-2.8655]]]},"properties":{"code":"73.26.13.2001","name":"Buntu Minanga"}},{"type":"Feature","geometry":{"type":"Polygon","coordinates":[[[119.849,-2.8275],[119.849,-2.828],[119.848,-2.8275],[119.823,-2.8235],[119.8195,-2.8245],[119.8045,-2.8265],[119.8035,-2.8345],[119.8115,-2.8455],[119.8185,-2.847],[119.826,-2.847],[119.837,-2.8475],[119.8445,-2.865],[119.847,-2.8655],[119.8485,-2.862],[119.85,-2.8595],[119.8525,-2.8565],[119.852,-2.8555],[119.851,-2.852],[119.8505,-2.85],[119.852,-2.843],[119.8525,-2.839],[119.849,-2.8275]]]},"properties":{"code":"73.26.13.2003","name":"Sarambu"}},{"type":"Feature","geometry":{"type":"Polygon","coordinates":[[[119.836,-2.7865],[119.803,-2.7865],[119.794,-2.7895],[119.8055,-2.798],[119.807,-2.799],[119.809,-2.801],[119.8115,-2.802],[119.809,-2.8195],[119.8045,-2.8265],[119.8195,-2.8245],[119.823,-2.8235],[119.848,-2.8275],[119.849,-2.828],[119.849,-2.8275],[119.8475,-2.822],[119.846,-2.822],[119.8445,-2.8205],[119.8435,-2.82],[119.843,-2.8195],[119.8415,-2.8185],[119.831,-2.795],[119.836,-2.7865]]]},"properties":{"code":"73.26.13.2004","name":"Rante Uma"}},{"type":"Feature","geometry":{"type":"Polygon","coordinates":[[[119.886,-2.763],[119.88,-2.76],[119.8775,-2.7545],[119.876,-2.7505],[119.8645,-2.753],[119.8605,-2.7575],[119.851,-2.768],[119.8495,-2.7695],[119.8445,-2.777],[119.844,-2.779],[119.836,-2.7865],[119.831,-2.795],[119.8415,-2.8185],[119.843,-2.8195],[119.8435,-2.82],[119.8445,-2.8205],[119.846,-2.822],[119.8465,-2.822],[119.8475,-2.8185],[119.848,-2.818],[119.879,-2.817],[119.889,-2.8025],[119.9,-2.776],[119.886,-2.763]]]},"properties":{"code":"73.26.13.2005","name":"Talimbangan"}},{"type":"Feature","geometry":{"type":"Polygon","coordinates":[[[119.876,-2.7505],[119.869,-2.7175],[119.8645,-2.7145],[119.855,-2.69],[119.842,-2.6915],[119.8405,-2.694],[119.8385,-2.696],[119.838,-2.696],[119.8375,-2.698],[119.836,-2.705],[119.8345,-2.7185],[119.834,-2.7305],[119.824,-2.7295],[119.794,-2.7895],[119.803,-2.7865],[119.836,-2.7865],[119.844,-2.779],[119.8445,-2.777],[119.8495,-2.7695],[119.851,-2.768],[119.8605,-2.7575],[119.8645,-2.753],[119.876,-2.7505]]]},"properties":{"code":"73.26.13.2006","name":"Pulu' Pulu'"}},{"type":"Feature","geometry":{"type":"Polygon","coordinates":[[[119.874,-2.84],[119.8645,-2.842],[119.8605,-2.8415],[119.8525,-2.842],[119.852,-2.843],[119.8505,-2.85],[119.851,-2.852],[119.852,-2.8555],[119.8525,-2.856],[119.8725,-2.8485],[119.874,-2.84]]]},"properties":{"code":"73.26.13.2007","name":"Paonganan"}},{"type":"Feature","geometry":{"type":"Polygon","coordinates":[[[119.875,-2.8655],[119.859,-2.8615],[119.8545,-2.865],[119.8525,-2.8655],[119.853,-2.8685],[119.8535,-2.8705],[119.855,-2.871],[119.858,-2.8745],[119.874,-2.871],[119.874,-2.8685],[119.875,-2.8655]]]},"properties":{"code":"73.26.13.2008","name":"Parandangan"}},{"type":"Feature","geometry":{"type":"Polygon","coordinates":[[[119.893,-2.866],[119.8935,-2.865],[119.887,-2.8445],[119.8915,-2.8355],[119.874,-2.84],[119.8725,-2.8485],[119.875,-2.8655],[119.874,-2.8685],[119.874,-2.869],[119.876,-2.8685],[119.877,-2.8675],[119.88,-2.868],[119.886,-2.8655],[119.8895,-2.865],[119.8915,-2.8655],[119.893,-2.866]]]},"properties":{"code":"73.26.13.2009","name":"Roroan Barra'-Barra'"}},{"type":"Feature","geometry":{"type":"Polygon","coordinates":[[[119.875,-2.8655],[119.8725,-2.8485],[119.8525,-2.856],[119.8525,-2.8565],[119.85,-2.8595],[119.8495,-2.8615],[119.8525,-2.8655],[119.8545,-2.865],[119.859,-2.8615],[119.875,-2.8655]]]},"properties":{"code":"73.26.13.2010","name":"Pangkung Batu"}},{"type":"Feature","geometry":{"type":"Polygon","coordinates":[[[119.8345,-2.883],[119.845,-2.8655],[119.8305,-2.874],[119.83,-2.8745],[119.8295,-2.8755],[119.8295,-2.884],[119.8345,-2.883]]]},"properties":{"code":"73.26.13.2011","name":"Pengkaroan Manuk"}},{"type":"Feature","geometry":{"type":"Polygon","coordinates":[[[119.8735,-2.873],[119.874,-2.8725],[119.874,-2.871],[119.858,-2.8745],[119.8535,-2.872],[119.853,-2.872],[119.852,-2.8735],[119.8505,-2.882],[119.8515,-2.884],[119.8645,-2.8845],[119.8705,-2.8875],[119.871,-2.886],[119.872,-2.8815],[119.8735,-2.882],[119.8745,-2.881],[119.8735,-2.873]]]},"properties":{"code":"73.26.13.2012","name":"Batu Busa"}},{"type":"Feature","geometry":{"type":"Polygon","coordinates":[[[119.845,-2.8655],[119.8445,-2.865],[119.837,-2.8475],[119.826,-2.847],[119.8235,-2.847],[119.8235,-2.861],[119.827,-2.871],[119.8295,-2.8755],[119.83,-2.8745],[119.8305,-2.874],[119.845,-2.8655]]]},"properties":{"code":"73.26.13.2013","name":"Ponglu"}},{"type":"Feature","geometry":{"type":"Polygon","coordinates":[[[119.785,-2.8525],[119.771,-2.85],[119.7705,-2.851],[119.7705,-2.852],[119.7715,-2.8515],[119.773,-2.8515],[119.777,-2.8535],[119.7805,-2.8555],[119.785,-2.853],[119.785,-2.8525]]]},"properties":{"code":"73.26.14.1002","name":"Baruppu Selatan"}},{"type":"Feature","geometry":{"type":"Polygon","coordinates":[[[119.8045,-2.8265],[119.8035,-2.826],[119.7965,-2.818],[119.78,-2.822],[119.778,-2.8235],[119.774,-2.8105],[119.774,-2.807],[119.7705,-2.7975],[119.768,-2.7915],[119.7695,-2.78],[119.78,-2.7765],[119.79,-2.7635],[119.78,-2.746],[119.7765,-2.741],[119.752,-2.7215],[119.751,-2.7195],[119.75,-2.719],[119.7475,-2.7145],[119.7465,-2.7155],[119.73,-2.7185],[119.725,-2.7255],[119.708,-2.732],[119.7065,-2.7335],[119.706,-2.735],[119.705,-2.7365],[119.706,-2.7385],[119.7075,-2.7415],[119.708,-2.743],[119.7205,-2.7505],[119.7265,-2.7665],[119.7245,-2.789],[119.7315,-2.7925],[119.739,-2.8315],[119.7385,-2.8325],[119.7385,-2.8335],[119.738,-2.835],[119.742,-2.8395],[119.7425,-2.8415],[119.7445,-2.8405],[119.7455,-2.8405],[119.748,-2.84],[119.7565,-2.8435],[119.759,-2.848],[119.7705,-2.8535],[119.7705,-2.8505],[119.771,-2.85],[119.785,-2.8525],[119.788,-2.852],[119.793,-2.851],[119.793,-2.8495],[119.8035,-2.8345],[119.8045,-2.8265]]]},"properties":{"code":"73.26.14.2001","name":"Baruppu' Utara"}},{"type":"Feature","geometry":{"type":"Polygon","coordinates":[[[119.7705,-2.852],[119.7705,-2.8535],[119.759,-2.848],[119.7565,-2.8435],[119.748,-2.84],[119.7455,-2.8405],[119.7445,-2.8405],[119.7425,-2.8415],[119.742,-2.8395],[119.738,-2.835],[119.7385,-2.8335],[119.7385,-2.8325],[119.739,-2.8315],[119.7315,-2.7925],[119.7245,-2.789],[119.7265,-2.7665],[119.7205,-2.7505],[119.708,-2.743],[119.7075,-2.7415],[119.706,-2.7385],[119.705,-2.7365],[119.7045,-2.737],[119.694,-2.7465],[119.6915,-2.749],[119.685,-2.755],[119.6805,-2.757],[119.6785,-2.7605],[119.6845,-2.7775],[119.678,-2.794],[119.675,-2.8005],[119.675,-2.8075],[119.6775,-2.8095],[119.686,-2.82],[119.6875,-2.8215],[119.6915,-2.8335],[119.7145,-2.852],[119.7205,-2.8605],[119.7505,-2.871],[119.752,-2.8745],[119.7525,-2.876],[119.754,-2.8795],[119.764,-2.8835],[119.7665,-2.8835],[119.771,-2.885],[119.7905,-2.8745],[119.7925,-2.855],[119.793,-2.851],[119.788,-2.852],[119.785,-2.853],[119.7805,-2.8555],[119.777,-2.8535],[119.773,-2.8515],[119.7715,-2.8515],[119.7705,-2.852]]]},"properties":{"code":"73.26.14.2003","name":"Baruppu Benteng Batu"}},{"type":"Feature","geometry":{"type":"Polygon","coordinates":[[[119.838,-2.696],[119.8375,-2.6965],[119.837,-2.6965],[119.8395,-2.65],[119.85,-2.635],[119.8505,-2.633],[119.835,-2.6155],[119.8125,-2.6185],[119.8085,-2.6185],[119.788,-2.612],[119.786,-2.61],[119.783,-2.6075],[119.782,-2.5965],[119.762,-2.5885],[119.7605,-2.5865],[119.7605,-2.588],[119.7585,-2.5895],[119.759,-2.591],[119.756,-2.595],[119.755,-2.599],[119.746,-2.608],[119.7445,-2.6095],[119.748,-2.627],[119.7565,-2.637],[119.7505,-2.646],[119.753,-2.6505],[119.755,-2.6755],[119.746,-2.6825],[119.7495,-2.7055],[119.748,-2.7145],[119.7475,-2.7145],[119.75,-2.719],[119.751,-2.7195],[119.752,-2.7215],[119.7765,-2.741],[119.78,-2.746],[119.79,-2.7635],[119.78,-2.7765],[119.7695,-2.78],[119.768,-2.7915],[119.7705,-2.7975],[119.774,-2.807],[119.774,-2.8105],[119.778,-2.8235],[119.78,-2.822],[119.7965,-2.818],[119.8035,-2.826],[119.8045,-2.8265],[119.809,-2.8195],[119.8115,-2.802],[119.809,-2.801],[119.807,-2.799],[119.8055,-2.798],[119.794,-2.7895],[119.824,-2.7295],[119.834,-2.7305],[119.8345,-2.7185],[119.836,-2.705],[119.8375,-2.698],[119.838,-2.696]]]},"properties":{"code":"73.26.14.2004","name":"Baruppu' Parodo"}},{"type":"Feature","geometry":{"type":"Polygon","coordinates":[[[119.9195,-2.972],[119.916,-2.9715],[119.915,-2.9725],[119.914,-2.9735],[119.914,-2.974],[119.908,-2.976],[119.9065,-2.975],[119.906,-2.9765],[119.9065,-2.977],[119.9035,-2.9765],[119.897,-2.978],[119.896,-2.979],[119.8965,-2.98],[119.8965,-2.9805],[119.8965,-2.989],[119.894,-2.991],[119.893,-2.993],[119.8905,-2.993],[119.8925,-2.9985],[119.8945,-2.9985],[119.9005,-2.999],[119.9065,-2.9895],[119.921,-2.979],[119.923,-2.979],[119.9245,-2.9765],[119.9225,-2.9725],[119.922,-2.9725],[119.9205,-2.973],[119.9195,-2.972]]]},"properties":{"code":"73.26.15.1003","name":"Ba'tan"}},{"type":"Feature","geometry":{"type":"Polygon","coordinates":[[[119.929,-2.975],[119.9235,-2.9715],[119.9225,-2.9725],[119.9245,-2.9765],[119.923,-2.979],[119.921,-2.979],[119.9065,-2.9895],[119.9005,-2.999],[119.898,-2.9995],[119.899,-3.001],[119.9015,-3.0035],[119.902,-3.0035],[119.907,-3.007],[119.908,-3.0055],[119.914,-3.001],[119.9155,-3.0005],[119.916,-3],[119.9175,-2.999],[119.9185,-2.998],[119.9275,-2.981],[119.927,-2.981],[119.929,-2.975]]]},"properties":{"code":"73.26.15.1004","name":"Pantanakan Lolo"}},{"type":"Feature","geometry":{"type":"Polygon","coordinates":[[[119.8905,-2.993],[119.8895,-2.993],[119.8845,-2.992],[119.8795,-2.9945],[119.879,-2.996],[119.879,-2.9985],[119.8775,-3.001],[119.876,-3.0015],[119.8765,-3.0025],[119.876,-3.0035],[119.8765,-3.004],[119.88,-3.005],[119.885,-3.0035],[119.886,-3.004],[119.8895,-3.0035],[119.8905,-3.004],[119.891,-3.004],[119.892,-3.0035],[119.8925,-2.9985],[119.8905,-2.993]]]},"properties":{"code":"73.26.15.2001","name":"Tallu Lolo"}},{"type":"Feature","geometry":{"type":"Polygon","coordinates":[[[119.8965,-2.9805],[119.8935,-2.98],[119.8925,-2.979],[119.892,-2.9795],[119.891,-2.9805],[119.884,-2.9845],[119.883,-2.984],[119.8825,-2.9845],[119.8805,-2.989],[119.8805,-2.9905],[119.881,-2.9915],[119.882,-2.993],[119.8845,-2.992],[119.8895,-2.993],[119.893,-2.993],[119.894,-2.991],[119.8965,-2.989],[119.8965,-2.9805]]]},"properties":{"code":"73.26.15.2002","name":"Rinding Batu"}},{"type":"Feature","geometry":{"type":"Polygon","coordinates":[[[119.898,-2.9995],[119.8945,-2.9985],[119.8925,-2.9985],[119.892,-3.0035],[119.891,-3.004],[119.8905,-3.004],[119.8895,-3.0035],[119.886,-3.004],[119.885,-3.0035],[119.88,-3.005],[119.8805,-3.0055],[119.881,-3.006],[119.882,-3.006],[119.8825,-3.007],[119.8905,-3.016],[119.892,-3.017],[119.896,-3.017],[119.903,-3.019],[119.902,-3.018],[119.9065,-3.007],[119.907,-3.007],[119.902,-3.0035],[119.9015,-3.0035],[119.899,-3.001],[119.898,-2.9995]]]},"properties":{"code":"73.26.15.2005","name":"Angin-angin"}},{"type":"Feature","geometry":{"type":"Polygon","coordinates":[[[119.88,-3.005],[119.8765,-3.004],[119.876,-3.0035],[119.8765,-3.0025],[119.876,-3.0015],[119.8745,-3.0025],[119.8715,-3.0045],[119.8715,-3.0065],[119.8705,-3.0065],[119.8705,-3.007],[119.8715,-3.0105],[119.869,-3.0115],[119.868,-3.015],[119.8685,-3.0155],[119.87,-3.0145],[119.87,-3.0155],[119.872,-3.0145],[119.88,-3.007],[119.8805,-3.0055],[119.88,-3.005]]]},"properties":{"code":"73.26.15.2006","name":"Sangbua'"}},{"type":"Feature","geometry":{"type":"Polygon","coordinates":[[[119.896,-3.017],[119.892,-3.017],[119.8905,-3.016],[119.8825,-3.007],[119.882,-3.006],[119.881,-3.006],[119.88,-3.007],[119.872,-3.0145],[119.87,-3.0155],[119.8705,-3.0215],[119.87,-3.022],[119.87,-3.024],[119.8705,-3.025],[119.8705,-3.0265],[119.87,-3.0275],[119.871,-3.027],[119.878,-3.0215],[119.894,-3.026],[119.8955,-3.027],[119.895,-3.0255],[119.8955,-3.0245],[119.895,-3.0235],[119.895,-3.021],[119.896,-3.017]]]},"properties":{"code":"73.26.15.2007","name":"Tadongkon"}},{"type":"Feature","geometry":{"type":"Polygon","coordinates":[[[119.959,-2.935],[119.9585,-2.935],[119.957,-2.935],[119.956,-2.935],[119.9545,-2.938],[119.9535,-2.9385],[119.954,-2.941],[119.95,-2.9445],[119.95,-2.947],[119.948,-2.949],[119.948,-2.9505],[119.948,-2.951],[119.948,-2.9515],[119.949,-2.9515],[119.9495,-2.952],[119.952,-2.954],[119.953,-2.9535],[119.956,-2.954],[119.9575,-2.956],[119.958,-2.956],[119.959,-2.957],[119.96,-2.96],[119.9615,-2.9615],[119.962,-2.961],[119.9625,-2.9615],[119.9675,-2.966],[119.9685,-2.9665],[119.973,-2.967],[119.973,-2.966],[119.9735,-2.9655],[119.977,-2.963],[119.98,-2.9535],[119.979,-2.952],[119.9795,-2.951],[119.9795,-2.9505],[119.964,-2.9365],[119.964,-2.9355],[119.959,-2.935]]]},"properties":{"code":"73.26.16.2001","name":"Tondon Langi'"}},{"type":"Feature","geometry":{"type":"Polygon","coordinates":[[[119.9415,-2.9605],[119.93,-2.9485],[119.9245,-2.95],[119.924,-2.95],[119.9225,-2.951],[119.9215,-2.952],[119.9225,-2.9535],[119.9215,-2.9575],[119.919,-2.957],[119.919,-2.9575],[119.9225,-2.964],[119.9225,-2.968],[119.9185,-2.97],[119.9205,-2.973],[119.922,-2.9725],[119.9235,-2.9715],[119.929,-2.975],[119.931,-2.9745],[119.9315,-2.974],[119.931,-2.9735],[119.9315,-2.973],[119.9335,-2.9725],[119.934,-2.9725],[119.94,-2.9715],[119.942,-2.963],[119.9425,-2.9615],[119.9415,-2.9605]]]},"properties":{"code":"73.26.16.2002","name":"Tondon"}},{"type":"Feature","geometry":{"type":"Polygon","coordinates":[[[119.956,-2.935],[119.9555,-2.9345],[119.946,-2.934],[119.9285,-2.9465],[119.928,-2.9465],[119.9285,-2.9475],[119.93,-2.9485],[119.9415,-2.9605],[119.947,-2.9515],[119.948,-2.9515],[119.948,-2.951],[119.948,-2.9505],[119.948,-2.949],[119.95,-2.947],[119.95,-2.9445],[119.954,-2.941],[119.9535,-2.9385],[119.9545,-2.938],[119.956,-2.935]]]},"properties":{"code":"73.26.16.2003","name":"Tondon Sibata"}},{"type":"Feature","geometry":{"type":"Polygon","coordinates":[[[119.973,-2.967],[119.9685,-2.9665],[119.9675,-2.966],[119.9625,-2.9615],[119.962,-2.961],[119.9615,-2.9615],[119.96,-2.96],[119.959,-2.957],[119.958,-2.956],[119.9575,-2.956],[119.956,-2.954],[119.953,-2.9535],[119.952,-2.954],[119.9495,-2.952],[119.949,-2.9515],[119.947,-2.9515],[119.9415,-2.9605],[119.9425,-2.9615],[119.942,-2.963],[119.94,-2.9715],[119.941,-2.974],[119.94,-2.975],[119.9385,-2.9765],[119.9375,-2.9775],[119.9385,-2.9785],[119.9415,-2.9785],[119.944,-2.979],[119.9455,-2.98],[119.95,-2.9795],[119.952,-2.979],[119.9525,-2.979],[119.9555,-2.9795],[119.957,-2.9795],[119.963,-2.9785],[119.9635,-2.979],[119.9655,-2.9795],[119.966,-2.981],[119.967,-2.983],[119.9675,-2.985],[119.973,-2.967]]]},"properties":{"code":"73.26.16.2004","name":"Tondon Matallo"}},{"type":"Feature","geometry":{"type":"Polygon","coordinates":[[[119.9045,-2.891],[119.9035,-2.8905],[119.9035,-2.89],[119.904,-2.888],[119.895,-2.878],[119.8735,-2.873],[119.8745,-2.881],[119.889,-2.8915],[119.9,-2.894],[119.9005,-2.8935],[119.903,-2.8945],[119.9045,-2.891]]]},"properties":{"code":"73.26.17.2001","name":"To'yasa Akung"}},{"type":"Feature","geometry":{"type":"Polygon","coordinates":[[[119.893,-2.866],[119.8915,-2.8655],[119.8895,-2.865],[119.886,-2.8655],[119.88,-2.868],[119.877,-2.8675],[119.876,-2.8685],[119.874,-2.869],[119.8735,-2.871],[119.874,-2.8725],[119.8735,-2.873],[119.895,-2.878],[119.904,-2.888],[119.9035,-2.89],[119.9035,-2.8905],[119.9075,-2.892],[119.912,-2.887],[119.9125,-2.8865],[119.912,-2.886],[119.912,-2.8855],[119.9135,-2.883],[119.9115,-2.8805],[119.9105,-2.878],[119.911,-2.8775],[119.907,-2.8765],[119.9035,-2.8715],[119.9005,-2.872],[119.9,-2.873],[119.8995,-2.8735],[119.898,-2.8725],[119.8975,-2.8725],[119.897,-2.8725],[119.8965,-2.873],[119.8965,-2.8735],[119.892,-2.867],[119.893,-2.8665],[119.893,-2.866]]]},"properties":{"code":"73.26.17.2002","name":"Batu Limbong"}},{"type":"Feature","geometry":{"type":"Polygon","coordinates":[[[119.922,-2.89],[119.921,-2.889],[119.913,-2.8855],[119.912,-2.887],[119.9075,-2.892],[119.9045,-2.891],[119.903,-2.8945],[119.9035,-2.895],[119.904,-2.899],[119.9075,-2.904],[119.9075,-2.9045],[119.9215,-2.9045],[119.9235,-2.904],[119.922,-2.89]]]},"properties":{"code":"73.26.17.2003","name":"Bangkelekila'"}},{"type":"Feature","geometry":{"type":"Polygon","coordinates":[[[119.9325,-2.889],[119.9255,-2.889],[119.922,-2.89],[119.9235,-2.904],[119.924,-2.904],[119.9255,-2.9035],[119.9275,-2.9045],[119.931,-2.9035],[119.9355,-2.905],[119.937,-2.904],[119.937,-2.9025],[119.937,-2.9015],[119.9365,-2.9005],[119.937,-2.899],[119.94,-2.896],[119.9395,-2.893],[119.935,-2.889],[119.9335,-2.888],[119.9325,-2.889]]]},"properties":{"code":"73.26.17.2004","name":"Tampan Bonga"}},{"type":"Feature","geometry":{"type":"Polygon","coordinates":[[[119.9925,-3.0065],[119.992,-3.007],[119.992,-3.008],[119.99,-3.0085],[119.9775,-3.0025],[119.9725,-2.9995],[119.972,-2.999],[119.971,-2.9995],[119.972,-3.003],[119.9725,-3.004],[119.972,-3.004],[119.9785,-3.023],[119.979,-3.024],[119.9785,-3.0245],[119.978,-3.026],[119.9795,-3.027],[119.9785,-3.0275],[119.9775,-3.028],[119.9775,-3.0295],[119.978,-3.0315],[119.978,-3.034],[119.9785,-3.0375],[119.985,-3.0585],[119.9855,-3.059],[119.984,-3.07],[119.984,-3.0705],[119.9845,-3.071],[119.9845,-3.0715],[119.9845,-3.072],[119.9855,-3.0745],[119.9885,-3.0725],[119.9915,-3.073],[119.992,-3.0725],[119.9925,-3.071],[119.9935,-3.062],[120.0015,-3.0565],[120.0055,-3.0555],[120.0065,-3.055],[120.008,-3.0535],[120.0085,-3.0535],[120.008,-3.053],[120.0105,-3.0495],[120.01,-3.047],[120.0095,-3.046],[120.0045,-3.0225],[120.0035,-3.017],[120.002,-3.01],[119.998,-3.008],[119.9925,-3.0065]]]},"properties":{"code":"73.26.18.1002","name":"Bokin"}},{"type":"Feature","geometry":{"type":"Polygon","coordinates":[[[120.026,-3.077],[120.0265,-3.0765],[120.01,-3.0545],[120.0085,-3.0535],[120.008,-3.0535],[120.0065,-3.055],[120.0055,-3.0555],[120.0015,-3.0565],[119.9935,-3.062],[119.9925,-3.071],[119.992,-3.0725],[119.9915,-3.073],[119.9885,-3.0725],[119.9855,-3.0745],[119.9845,-3.072],[119.9845,-3.0715],[119.984,-3.071],[119.9835,-3.073],[119.983,-3.0735],[119.9835,-3.075],[119.984,-3.0755],[119.9835,-3.0765],[119.9895,-3.079],[119.994,-3.0795],[120.0015,-3.0795],[120.02,-3.076],[120.0245,-3.076],[120.0255,-3.0765],[120.026,-3.077]]]},"properties":{"code":"73.26.18.1005","name":"Buangin"}},{"type":"Feature","geometry":{"type":"Polygon","coordinates":[[[119.9835,-3.0765],[119.982,-3.078],[119.968,-3.075],[119.9655,-3.08],[119.9625,-3.086],[119.961,-3.089],[119.9595,-3.0975],[119.959,-3.1005],[119.9595,-3.1015],[119.961,-3.1045],[119.9785,-3.106],[119.974,-3.1155],[119.9725,-3.118],[119.971,-3.131],[119.972,-3.132],[119.9855,-3.124],[119.995,-3.127],[120.004,-3.115],[120.0045,-3.1135],[120.003,-3.11],[120.0015,-3.108],[119.9985,-3.1055],[119.996,-3.1035],[119.991,-3.1],[119.99,-3.0995],[119.989,-3.098],[119.989,-3.0955],[119.988,-3.0935],[119.989,-3.092],[119.9925,-3.09],[120.0015,-3.0795],[119.994,-3.0795],[119.9895,-3.079],[119.9835,-3.0765]]]},"properties":{"code":"73.26.18.2001","name":"Rantebua"}},{"type":"Feature","geometry":{"type":"Polygon","coordinates":[[[120.0445,-3.0375],[120.0365,-3.0315],[120.0315,-3.017],[120.0305,-3.0085],[120.029,-3.0045],[120.029,-2.999],[120.0245,-2.9995],[120.0165,-3.0015],[120.0085,-3.01],[120.0075,-3.011],[120.0155,-3.022],[120.016,-3.024],[120.014,-3.0465],[120.014,-3.0485],[120.014,-3.049],[120.0145,-3.0495],[120.0195,-3.0535],[120.0205,-3.0545],[120.028,-3.0535],[120.029,-3.0505],[120.03,-3.0485],[120.0435,-3.0475],[120.0455,-3.0465],[120.046,-3.047],[120.0455,-3.046],[120.047,-3.041],[120.0445,-3.039],[120.044,-3.0385],[120.0445,-3.0375]]]},"properties":{"code":"73.26.18.2003","name":"Pitung Penanian"}},{"type":"Feature","geometry":{"type":"Polygon","coordinates":[[[120.0075,-3.011],[120.0065,-3.012],[120.002,-3.01],[120.0035,-3.017],[120.0045,-3.0225],[120.0095,-3.046],[120.01,-3.047],[120.011,-3.048],[120.0145,-3.0495],[120.014,-3.049],[120.014,-3.0485],[120.014,-3.0465],[120.016,-3.024],[120.0155,-3.022],[120.0075,-3.011]]]},"properties":{"code":"73.26.18.2004","name":"Ma'kuan Pare"}},{"type":"Feature","geometry":{"type":"Polygon","coordinates":[[[120.026,-3.077],[120.0255,-3.0765],[120.0245,-3.076],[120.02,-3.076],[120.0015,-3.0795],[119.9925,-3.09],[119.989,-3.092],[119.988,-3.0935],[119.989,-3.0955],[119.989,-3.098],[119.99,-3.0995],[119.991,-3.1],[119.996,-3.1035],[119.9985,-3.1055],[120.0015,-3.108],[120.003,-3.11],[120.0045,-3.1135],[120.005,-3.114],[120.006,-3.1165],[120.009,-3.1185],[120.01,-3.1185],[120.019,-3.123],[120.0195,-3.121],[120.02,-3.116],[120.021,-3.112],[120.0235,-3.1065],[120.023,-3.104],[120.0225,-3.102],[120.017,-3.0925],[120.018,-3.09],[120.023,-3.081],[120.024,-3.079],[120.025,-3.078],[120.026,-3.077]]]},"properties":{"code":"73.26.18.2006","name":"Rantebua Sumalu"}},{"type":"Feature","geometry":{"type":"Polygon","coordinates":[[[120.005,-3.114],[120.004,-3.115],[119.995,-3.127],[119.9855,-3.124],[119.972,-3.132],[119.972,-3.1325],[119.9725,-3.137],[119.977,-3.1565],[119.976,-3.1575],[119.973,-3.1745],[119.974,-3.175],[119.974,-3.1755],[119.9855,-3.18],[119.9865,-3.1825],[119.987,-3.1825],[119.988,-3.182],[119.991,-3.1805],[120.004,-3.1725],[120.0065,-3.1715],[120.01,-3.167],[120.0105,-3.1645],[120.011,-3.1595],[120.0135,-3.152],[120.014,-3.1485],[120.0185,-3.13],[120.0195,-3.1265],[120.019,-3.1235],[120.019,-3.123],[120.0105,-3.1185],[120.009,-3.1185],[120.006,-3.1165],[120.005,-3.114]]]},"properties":{"code":"73.26.18.2007","name":"Rantebua Sanggalangi'"}},{"type":"Feature","geometry":{"type":"Polygon","coordinates":[[[119.8785,-2.903],[119.8745,-2.881],[119.8735,-2.882],[119.872,-2.8815],[119.871,-2.886],[119.87,-2.8885],[119.8615,-2.9065],[119.86,-2.907],[119.8585,-2.908],[119.858,-2.91],[119.858,-2.9105],[119.8595,-2.911],[119.873,-2.925],[119.876,-2.926],[119.877,-2.926],[119.879,-2.926],[119.88,-2.925],[119.8805,-2.919],[119.881,-2.9155],[119.8785,-2.903]]]},"properties":{"code":"73.26.19.2001","name":"Suloara'"}},{"type":"Feature","geometry":{"type":"Polygon","coordinates":[[[119.9,-2.894],[119.889,-2.8915],[119.8745,-2.881],[119.8785,-2.903],[119.884,-2.9095],[119.896,-2.8995],[119.8965,-2.8965],[119.8995,-2.8945],[119.9,-2.894]]]},"properties":{"code":"73.26.19.2002","name":"Sesean Matallo"}},{"type":"Feature","geometry":{"type":"Polygon","coordinates":[[[119.8585,-2.891],[119.8565,-2.892],[119.84,-2.8965],[119.839,-2.8985],[119.8425,-2.8995],[119.8435,-2.8995],[119.8515,-2.901],[119.854,-2.9005],[119.8585,-2.891]]]},"properties":{"code":"73.26.19.2003","name":"Landorundun"}},{"type":"Feature","geometry":{"type":"Polygon","coordinates":[[[119.8705,-2.8875],[119.8645,-2.8845],[119.8585,-2.891],[119.854,-2.9005],[119.8515,-2.901],[119.8435,-2.8995],[119.8425,-2.8995],[119.8425,-2.9],[119.8465,-2.9015],[119.856,-2.9105],[119.858,-2.91],[119.8585,-2.908],[119.86,-2.907],[119.8615,-2.9065],[119.87,-2.8885],[119.8705,-2.8875]]]},"properties":{"code":"73.26.19.2004","name":"Tonga Riu"}},{"type":"Feature","geometry":{"type":"Polygon","coordinates":[[[119.903,-2.8945],[119.9005,-2.8935],[119.8995,-2.8945],[119.8965,-2.8965],[119.896,-2.8995],[119.884,-2.9095],[119.8785,-2.903],[119.881,-2.9155],[119.882,-2.917],[119.8915,-2.9185],[119.904,-2.914],[119.9045,-2.913],[119.9075,-2.906],[119.9075,-2.904],[119.904,-2.899],[119.9035,-2.895],[119.903,-2.8945]]]},"properties":{"code":"73.26.19.2005","name":"Lempo"}},{"type":"Feature","geometry":{"type":"Polygon","coordinates":[[[119.831,-2.9015],[119.8285,-2.9005],[119.8245,-2.898],[119.8235,-2.8995],[119.8205,-2.9015],[119.8205,-2.9035],[119.8215,-2.907],[119.821,-2.9095],[119.826,-2.912],[119.8285,-2.9155],[119.828,-2.917],[119.829,-2.918],[119.839,-2.9275],[119.8395,-2.9275],[119.8465,-2.9235],[119.8465,-2.923],[119.8505,-2.9155],[119.8515,-2.9145],[119.852,-2.9145],[119.851,-2.913],[119.849,-2.9135],[119.848,-2.9115],[119.8405,-2.911],[119.831,-2.9015]]]},"properties":{"code":"73.26.20.2001","name":"Benteng Ka'do"}},{"type":"Feature","geometry":{"type":"Polygon","coordinates":[[[119.854,-2.914],[119.8515,-2.9145],[119.8505,-2.9155],[119.8465,-2.923],[119.847,-2.924],[119.849,-2.9245],[119.851,-2.928],[119.849,-2.941],[119.854,-2.9405],[119.858,-2.9415],[119.8585,-2.9385],[119.8585,-2.935],[119.86,-2.9345],[119.8625,-2.935],[119.8585,-2.932],[119.855,-2.915],[119.855,-2.9145],[119.854,-2.914]]]},"properties":{"code":"73.26.20.2002","name":"Sikuku'"}},{"type":"Feature","geometry":{"type":"Polygon","coordinates":[[[119.839,-2.9275],[119.829,-2.918],[119.828,-2.917],[119.8285,-2.9155],[119.828,-2.915],[119.827,-2.916],[119.83,-2.9235],[119.838,-2.934],[119.838,-2.935],[119.839,-2.937],[119.838,-2.9275],[119.839,-2.9275]]]},"properties":{"code":"73.26.20.2003","name":"Polo Padang"}},{"type":"Feature","geometry":{"type":"Polygon","coordinates":[[[119.828,-2.915],[119.826,-2.912],[119.821,-2.9095],[119.819,-2.911],[119.8185,-2.9115],[119.8175,-2.911],[119.82,-2.925],[119.8205,-2.9265],[119.822,-2.9295],[119.8225,-2.9305],[119.83,-2.9355],[119.8315,-2.936],[119.838,-2.9355],[119.838,-2.935],[119.838,-2.934],[119.83,-2.9235],[119.827,-2.916],[119.828,-2.915]]]},"properties":{"code":"73.26.20.2004","name":"Kantun Poya"}},{"type":"Feature","geometry":{"type":"Polygon","coordinates":[[[119.858,-2.9415],[119.854,-2.9405],[119.849,-2.941],[119.851,-2.928],[119.849,-2.9245],[119.847,-2.924],[119.8465,-2.9235],[119.8395,-2.9275],[119.838,-2.9275],[119.839,-2.937],[119.8385,-2.9365],[119.838,-2.9395],[119.839,-2.948],[119.8415,-2.9515],[119.8575,-2.9465],[119.8575,-2.9445],[119.858,-2.9415]]]},"properties":{"code":"73.26.20.2005","name":"Kapala Pitu"}},{"type":"Feature","geometry":{"type":"Polygon","coordinates":[[[119.868,-2.9635],[119.8645,-2.9595],[119.8645,-2.9575],[119.8645,-2.957],[119.864,-2.9535],[119.859,-2.9445],[119.8575,-2.9465],[119.8415,-2.9515],[119.842,-2.958],[119.865,-2.97],[119.865,-2.971],[119.867,-2.9705],[119.868,-2.97],[119.8685,-2.9695],[119.868,-2.9635]]]},"properties":{"code":"73.26.20.2006","name":"Benteng Mamullu"}},{"type":"Feature","geometry":{"type":"Polygon","coordinates":[[[119.7565,-2.921],[119.7545,-2.921],[119.7525,-2.9215],[119.7425,-2.9215],[119.738,-2.9125],[119.706,-2.899],[119.7045,-2.897],[119.6965,-2.8965],[119.6795,-2.9],[119.6795,-2.9015],[119.677,-2.9115],[119.675,-2.918],[119.685,-2.926],[119.7,-2.924],[119.705,-2.931],[119.708,-2.9335],[119.708,-2.9345],[119.71,-2.9375],[119.733,-2.939],[119.744,-2.943],[119.757,-2.939],[119.7625,-2.9315],[119.7665,-2.929],[119.765,-2.927],[119.764,-2.926],[119.763,-2.9245],[119.7565,-2.921]]]},"properties":{"code":"73.26.21.2001","name":"Awan"}},{"type":"Feature","geometry":{"type":"Polygon","coordinates":[[[119.7725,-2.9415],[119.772,-2.941],[119.772,-2.9385],[119.7665,-2.93],[119.7665,-2.929],[119.7625,-2.9315],[119.757,-2.939],[119.744,-2.943],[119.733,-2.939],[119.71,-2.9375],[119.71,-2.94],[119.711,-2.9415],[119.7115,-2.943],[119.713,-2.946],[119.715,-2.9485],[119.7185,-2.9545],[119.721,-2.956],[119.7215,-2.956],[119.7285,-2.956],[119.7375,-2.9535],[119.75,-2.954],[119.7535,-2.9515],[119.77,-2.943],[119.7725,-2.9415]]]},"properties":{"code":"73.26.21.2002","name":"Batu Lotong"}},{"type":"Feature","geometry":{"type":"Polygon","coordinates":[[[119.771,-2.885],[119.7665,-2.8835],[119.7645,-2.8835],[119.757,-2.896],[119.7565,-2.921],[119.763,-2.9245],[119.764,-2.926],[119.765,-2.927],[119.7655,-2.9275],[119.7665,-2.93],[119.772,-2.9385],[119.772,-2.941],[119.7725,-2.9415],[119.773,-2.9405],[119.7785,-2.9405],[119.7815,-2.942],[119.7905,-2.9455],[119.7925,-2.9455],[119.7965,-2.945],[119.796,-2.9445],[119.7825,-2.9225],[119.778,-2.901],[119.778,-2.898],[119.776,-2.896],[119.771,-2.885]]]},"properties":{"code":"73.26.21.2003","name":"Buntu Karua"}},{"type":"Feature","geometry":{"type":"Polygon","coordinates":[[[119.764,-2.8835],[119.754,-2.8795],[119.7525,-2.876],[119.752,-2.8745],[119.7505,-2.871],[119.7205,-2.8605],[119.7145,-2.852],[119.6915,-2.8335],[119.692,-2.838],[119.696,-2.8455],[119.6875,-2.8525],[119.6895,-2.869],[119.686,-2.8845],[119.685,-2.886],[119.6835,-2.8875],[119.6815,-2.8885],[119.6805,-2.8915],[119.6795,-2.8965],[119.679,-2.8985],[119.6795,-2.9],[119.6965,-2.8965],[119.7045,-2.897],[119.706,-2.899],[119.738,-2.9125],[119.7425,-2.9215],[119.7525,-2.9215],[119.7545,-2.921],[119.7565,-2.921],[119.757,-2.896],[119.7645,-2.8835],[119.764,-2.8835]]]},"properties":{"code":"73.26.21.2004","name":"Londong Biang"}}]}