{"type":"FeatureCollection","features":[{"type":"Feature","geometry":{"type":"Polygon","coordinates":[[[122.822,-5.3595],[122.806,-5.3585],[122.802,-5.359],[122.801,-5.3585],[122.8005,-5.359],[122.7985,-5.361],[122.797,-5.369],[122.804,-5.374],[122.812,-5.39],[122.813,-5.415],[122.8245,-5.426],[122.822,-5.439],[122.834,-5.442],[122.8345,-5.4515],[122.8445,-5.464],[122.853,-5.468],[122.853,-5.469],[122.852,-5.4715],[122.854,-5.478],[122.8715,-5.455],[122.845,-5.445],[122.8435,-5.4415],[122.838,-5.4375],[122.837,-5.4355],[122.8405,-5.403],[122.8405,-5.4015],[122.8395,-5.3985],[122.8335,-5.377],[122.823,-5.3615],[122.8225,-5.3615],[122.823,-5.3595],[122.822,-5.3595]]]},"properties":{"code":"74.04.11.1005","name":"Wakoko","latitude":-5.410723673942354,"longitude":122.82950463723229}},{"type":"Feature","geometry":{"type":"Polygon","coordinates":[[[122.867,-5.42],[122.8665,-5.4165],[122.8495,-5.404],[122.8565,-5.3875],[122.8575,-5.376],[122.837,-5.3585],[122.8295,-5.345],[122.8265,-5.36],[122.823,-5.3615],[122.8335,-5.377],[122.8395,-5.3985],[122.8405,-5.4015],[122.8405,-5.403],[122.837,-5.4355],[122.838,-5.4375],[122.8435,-5.4415],[122.845,-5.445],[122.8715,-5.455],[122.886,-5.4445],[122.8795,-5.432],[122.8675,-5.425],[122.864,-5.424],[122.867,-5.42]]]},"properties":{"code":"74.04.11.1006","name":"Wasaga","latitude":-5.409844767062558,"longitude":122.85126309563309}},{"type":"Feature","geometry":{"type":"Polygon","coordinates":[[[122.8735,-5.542],[122.8705,-5.527],[122.864,-5.521],[122.8525,-5.526],[122.856,-5.53],[122.859,-5.5505],[122.866,-5.5415],[122.8735,-5.542]]]},"properties":{"code":"74.04.11.1020","name":"Holimombo","latitude":-5.532918300808964,"longitude":122.86423230294065}},{"type":"Feature","geometry":{"type":"Polygon","coordinates":[[[122.8465,-5.529],[122.8445,-5.5295],[122.84,-5.53],[122.8105,-5.53],[122.7895,-5.539],[122.789,-5.5865],[122.7905,-5.596],[122.8055,-5.5865],[122.8245,-5.584],[122.829,-5.5815],[122.8445,-5.563],[122.836,-5.55],[122.846,-5.539],[122.8465,-5.529]]]},"properties":{"code":"74.04.11.1021","name":"Kombeli","latitude":-5.558415050054587,"longitude":122.81482460477942}},{"type":"Feature","geometry":{"type":"Polygon","coordinates":[[[122.859,-5.5505],[122.856,-5.53],[122.8525,-5.526],[122.848,-5.527],[122.8465,-5.529],[122.846,-5.539],[122.836,-5.55],[122.8445,-5.563],[122.859,-5.5505]]]},"properties":{"code":"74.04.11.1022","name":"Takimpo","latitude":-5.545689269951459,"longitude":122.84959531802697}},{"type":"Feature","geometry":{"type":"Polygon","coordinates":[[[122.8235,-5.525],[122.813,-5.5245],[122.796,-5.523],[122.791,-5.5225],[122.79,-5.5215],[122.79,-5.5295],[122.7895,-5.539],[122.8105,-5.53],[122.84,-5.53],[122.8445,-5.5295],[122.8465,-5.529],[122.848,-5.527],[122.8445,-5.5245],[122.8385,-5.5265],[122.8315,-5.526],[122.8235,-5.525]]]},"properties":{"code":"74.04.11.1023","name":"Awainulu","latitude":-5.529163030985418,"longitude":122.80910363069502}},{"type":"Feature","geometry":{"type":"Polygon","coordinates":[[[122.8465,-5.5005],[122.8345,-5.4965],[122.8185,-5.4985],[122.8185,-5.5015],[122.8195,-5.505],[122.8445,-5.509],[122.8465,-5.5005]]]},"properties":{"code":"74.04.11.1026","name":"Kambulabulana","latitude":-5.50274671068644,"longitude":122.83321706166514}},{"type":"Feature","geometry":{"type":"Polygon","coordinates":[[[122.823,-5.4745],[122.804,-5.4755],[122.8035,-5.4865],[122.8145,-5.4925],[122.8175,-5.4965],[122.8185,-5.4985],[122.8345,-5.4965],[122.8465,-5.5005],[122.848,-5.4865],[122.841,-5.48],[122.8245,-5.4755],[122.823,-5.4745]]]},"properties":{"code":"74.04.11.1027","name":"Pasarwajo","latitude":-5.486294882362746,"longitude":122.82579569520365}},{"type":"Feature","geometry":{"type":"Polygon","coordinates":[[[122.853,-5.4695],[122.851,-5.4685],[122.8495,-5.468],[122.841,-5.48],[122.848,-5.4865],[122.854,-5.478],[122.852,-5.4715],[122.853,-5.4695]]]},"properties":{"code":"74.04.11.1028","name":"Saragi","latitude":-5.477969407676657,"longitude":122.84775211801055}},{"type":"Feature","geometry":{"type":"Polygon","coordinates":[[[122.791,-5.486],[122.7955,-5.4785],[122.787,-5.4515],[122.768,-5.435],[122.766,-5.4345],[122.763,-5.4315],[122.7625,-5.4305],[122.7625,-5.4315],[122.7605,-5.4345],[122.757,-5.444],[122.756,-5.445],[122.7595,-5.446],[122.76,-5.447],[122.755,-5.465],[122.7555,-5.4665],[122.756,-5.4685],[122.766,-5.473],[122.76,-5.4895],[122.789,-5.4875],[122.789,-5.488],[122.791,-5.486]]]},"properties":{"code":"74.04.11.2002","name":"Waangu-Angu","latitude":-5.464906202768031,"longitude":122.77383965369872}},{"type":"Feature","geometry":{"type":"Polygon","coordinates":[[[122.767,-5.369],[122.763,-5.3545],[122.749,-5.3615],[122.76,-5.376],[122.764,-5.4045],[122.7675,-5.4075],[122.77,-5.411],[122.77,-5.414],[122.7665,-5.416],[122.7625,-5.4275],[122.7625,-5.4305],[122.763,-5.4315],[122.766,-5.4345],[122.768,-5.435],[122.787,-5.4515],[122.7955,-5.4785],[122.791,-5.486],[122.7925,-5.4855],[122.8,-5.4855],[122.8035,-5.4865],[122.804,-5.4755],[122.823,-5.4745],[122.8235,-5.471],[122.8225,-5.4595],[122.7955,-5.4345],[122.7885,-5.4065],[122.7935,-5.3995],[122.7955,-5.3825],[122.782,-5.3645],[122.7805,-5.3665],[122.776,-5.3705],[122.767,-5.369]]]},"properties":{"code":"74.04.11.2003","name":"Warinta","latitude":-5.420263453588288,"longitude":122.78500288043253}},{"type":"Feature","geometry":{"type":"Polygon","coordinates":[[[122.7985,-5.3555],[122.784,-5.3575],[122.782,-5.3645],[122.7955,-5.3825],[122.7935,-5.3995],[122.7885,-5.4065],[122.7955,-5.4345],[122.8225,-5.4595],[122.8235,-5.471],[122.823,-5.4745],[122.8245,-5.4755],[122.841,-5.48],[122.8495,-5.468],[122.851,-5.4685],[122.853,-5.4695],[122.853,-5.4685],[122.853,-5.468],[122.8445,-5.464],[122.8345,-5.4515],[122.834,-5.442],[122.822,-5.439],[122.8245,-5.426],[122.813,-5.415],[122.812,-5.39],[122.804,-5.374],[122.797,-5.369],[122.7985,-5.361],[122.8005,-5.359],[122.801,-5.3585],[122.7995,-5.3585],[122.7985,-5.3555]]]},"properties":{"code":"74.04.11.2004","name":"Lapodi","latitude":-5.421781787831915,"longitude":122.81126381397979}},{"type":"Feature","geometry":{"type":"Polygon","coordinates":[[[122.897,-5.4385],[122.8885,-5.4175],[122.888,-5.418],[122.882,-5.4185],[122.8675,-5.422],[122.867,-5.42],[122.864,-5.424],[122.8675,-5.425],[122.8795,-5.432],[122.886,-5.4445],[122.897,-5.4385]]]},"properties":{"code":"74.04.11.2007","name":"Kancinaa","latitude":-5.4290508353867954,"longitude":122.88328704471779}},{"type":"Feature","geometry":{"type":"Polygon","coordinates":[[[122.8825,-5.327],[122.875,-5.332],[122.858,-5.3305],[122.847,-5.317],[122.8445,-5.319],[122.8295,-5.345],[122.837,-5.3585],[122.8575,-5.376],[122.8565,-5.3875],[122.8495,-5.404],[122.8665,-5.4165],[122.8675,-5.422],[122.882,-5.4185],[122.8825,-5.403],[122.8785,-5.39],[122.881,-5.3725],[122.8785,-5.3445],[122.8825,-5.327]]]},"properties":{"code":"74.04.11.2008","name":"Winning","latitude":-5.366222585801187,"longitude":122.86141536226815}},{"type":"Feature","geometry":{"type":"Polygon","coordinates":[[[122.8965,-5.544],[122.897,-5.5195],[122.8895,-5.525],[122.886,-5.537],[122.8855,-5.539],[122.8855,-5.5395],[122.888,-5.541],[122.8915,-5.5425],[122.8965,-5.544]]]},"properties":{"code":"74.04.11.2017","name":"Holimombo Jaya","latitude":-5.532713738645313,"longitude":122.8927252222424}},{"type":"Feature","geometry":{"type":"Polygon","coordinates":[[[122.897,-5.5195],[122.8805,-5.507],[122.8735,-5.5075],[122.881,-5.523],[122.881,-5.5385],[122.8855,-5.5395],[122.8855,-5.539],[122.886,-5.537],[122.8895,-5.525],[122.897,-5.5195]]]},"properties":{"code":"74.04.11.2018","name":"Kondowa","latitude":-5.520184823082458,"longitude":122.88472633783724}},{"type":"Feature","geometry":{"type":"Polygon","coordinates":[[[122.881,-5.5385],[122.881,-5.523],[122.8735,-5.5075],[122.864,-5.521],[122.8705,-5.527],[122.8735,-5.542],[122.881,-5.5385]]]},"properties":{"code":"74.04.11.2019","name":"Dongkala","latitude":-5.525161602786574,"longitude":122.87471539847}},{"type":"Feature","geometry":{"type":"Polygon","coordinates":[[[122.8445,-5.5245],[122.844,-5.522],[122.836,-5.518],[122.79,-5.5125],[122.7895,-5.517],[122.79,-5.5215],[122.791,-5.5225],[122.796,-5.523],[122.813,-5.5245],[122.8235,-5.525],[122.8315,-5.526],[122.8385,-5.5265],[122.8445,-5.5245]]]},"properties":{"code":"74.04.11.2024","name":"Laburunci","latitude":-5.520201010801373,"longitude":122.81428387817141}},{"type":"Feature","geometry":{"type":"Polygon","coordinates":[[[122.8035,-5.4865],[122.8,-5.4855],[122.7925,-5.4855],[122.789,-5.488],[122.7915,-5.5035],[122.79,-5.5125],[122.836,-5.518],[122.844,-5.522],[122.8445,-5.509],[122.8195,-5.505],[122.8185,-5.5015],[122.8185,-5.4985],[122.8175,-5.4965],[122.8145,-5.4925],[122.8035,-5.4865]]]},"properties":{"code":"74.04.11.2025","name":"Banabungi","latitude":-5.50450216396904,"longitude":122.81190352647833}},{"type":"Feature","geometry":{"type":"Polygon","coordinates":[[[122.905,-5.405],[122.9025,-5.4055],[122.899,-5.4045],[122.897,-5.4055],[122.895,-5.4065],[122.893,-5.409],[122.889,-5.4175],[122.8885,-5.4175],[122.897,-5.4385],[122.902,-5.44],[122.902,-5.4315],[122.901,-5.4285],[122.902,-5.427],[122.902,-5.425],[122.902,-5.4245],[122.905,-5.4225],[122.908,-5.422],[122.904,-5.411],[122.9045,-5.408],[122.9045,-5.407],[122.905,-5.4065],[122.9055,-5.406],[122.905,-5.4055],[122.905,-5.405]]]},"properties":{"code":"74.04.11.2029","name":"Kabawakole","latitude":-5.420818821048113,"longitude":122.89852498913781}},{"type":"Feature","geometry":{"type":"Polygon","coordinates":[[[122.9205,-5.3],[122.917,-5.294],[122.916,-5.296],[122.905,-5.3105],[122.8825,-5.327],[122.8785,-5.3445],[122.881,-5.3725],[122.8785,-5.39],[122.8825,-5.403],[122.882,-5.4185],[122.888,-5.418],[122.889,-5.4175],[122.893,-5.409],[122.895,-5.4065],[122.897,-5.4055],[122.899,-5.4045],[122.9025,-5.4055],[122.905,-5.405],[122.9035,-5.404],[122.9055,-5.397],[122.907,-5.3935],[122.906,-5.387],[122.906,-5.386],[122.905,-5.3825],[122.9035,-5.3805],[122.905,-5.369],[122.907,-5.3655],[122.905,-5.3595],[122.906,-5.3315],[122.9165,-5.323],[122.9205,-5.3]]]},"properties":{"code":"74.04.11.2030","name":"Mantowu","latitude":-5.357943157581904,"longitude":122.8952810312564}},{"type":"Feature","geometry":{"type":"Polygon","coordinates":[[[122.76,-5.4895],[122.766,-5.473],[122.756,-5.4685],[122.7555,-5.4665],[122.755,-5.465],[122.76,-5.447],[122.7595,-5.446],[122.756,-5.445],[122.756,-5.4445],[122.756,-5.445],[122.757,-5.447],[122.7555,-5.448],[122.7555,-5.45],[122.75,-5.4475],[122.749,-5.4495],[122.75,-5.4615],[122.7485,-5.4625],[122.7455,-5.4655],[122.745,-5.467],[122.745,-5.4725],[122.743,-5.473],[122.7425,-5.475],[122.742,-5.4775],[122.7425,-5.4795],[122.7475,-5.484],[122.751,-5.487],[122.76,-5.4895]]]},"properties":{"code":"74.04.11.2031","name":"Kaongkeongkea","latitude":-5.471576584334807,"longitude":122.75317142849262}},{"type":"Feature","geometry":{"type":"Polygon","coordinates":[[[122.811,-5.1675],[122.796,-5.17],[122.7915,-5.1745],[122.79,-5.186],[122.8055,-5.2005],[122.81,-5.222],[122.8105,-5.223],[122.815,-5.2305],[122.8135,-5.2355],[122.8145,-5.2385],[122.821,-5.2515],[122.822,-5.262],[122.829,-5.2675],[122.832,-5.266],[122.832,-5.264],[122.848,-5.2715],[122.842,-5.2805],[122.847,-5.2965],[122.858,-5.2945],[122.8735,-5.3035],[122.885,-5.2985],[122.905,-5.3105],[122.916,-5.296],[122.917,-5.294],[122.916,-5.292],[122.915,-5.291],[122.9,-5.2765],[122.8995,-5.275],[122.8835,-5.2655],[122.8585,-5.266],[122.862,-5.253],[122.858,-5.2415],[122.8595,-5.224],[122.8405,-5.2085],[122.825,-5.21],[122.822,-5.189],[122.83,-5.1805],[122.816,-5.1755],[122.812,-5.1675],[122.811,-5.1675]]]},"properties":{"code":"74.04.22.1005","name":"Watumotobe","latitude":-5.2462329256901254,"longitude":122.84737422331837}},{"type":"Feature","geometry":{"type":"Polygon","coordinates":[[[122.891,-5.22],[122.8805,-5.2095],[122.8685,-5.205],[122.866,-5.1975],[122.849,-5.1745],[122.8485,-5.1685],[122.8475,-5.166],[122.843,-5.16],[122.8425,-5.1585],[122.8415,-5.159],[122.84,-5.16],[122.817,-5.167],[122.814,-5.1675],[122.8125,-5.168],[122.812,-5.1675],[122.816,-5.1755],[122.83,-5.1805],[122.822,-5.189],[122.825,-5.21],[122.8405,-5.2085],[122.8595,-5.224],[122.858,-5.2415],[122.862,-5.253],[122.8585,-5.266],[122.8835,-5.2655],[122.8995,-5.275],[122.9,-5.2745],[122.899,-5.2665],[122.8985,-5.2615],[122.9,-5.25],[122.9,-5.2475],[122.8985,-5.2415],[122.893,-5.2365],[122.89,-5.223],[122.891,-5.22]]]},"properties":{"code":"74.04.22.1006","name":"Wakangka","latitude":-5.217167257483843,"longitude":122.86115988392835}},{"type":"Feature","geometry":{"type":"MultiPolygon","coordinates":[[[[122.716,-5.266],[122.712,-5.266],[122.7055,-5.283],[122.7075,-5.2845],[122.709,-5.287],[122.721,-5.2955],[122.7215,-5.2965],[122.727,-5.3155],[122.735,-5.3165],[122.7535,-5.3305],[122.759,-5.343],[122.769,-5.3445],[122.772,-5.355],[122.767,-5.369],[122.776,-5.3705],[122.7805,-5.3665],[122.782,-5.3645],[122.784,-5.3575],[122.7985,-5.3555],[122.8025,-5.347],[122.8025,-5.346],[122.7945,-5.3395],[122.782,-5.3375],[122.767,-5.33],[122.7655,-5.3185],[122.7495,-5.3165],[122.746,-5.3095],[122.731,-5.305],[122.7265,-5.284],[122.7185,-5.281],[122.716,-5.266]]],[[[122.6865,-5.2805],[122.695,-5.287],[122.702,-5.2745],[122.7025,-5.263],[122.698,-5.2615],[122.6865,-5.2805]]]]},"properties":{"code":"74.04.22.2001","name":"Barangka","latitude":-5.319088310947878,"longitude":122.74818564750304}},{"type":"Feature","geometry":{"type":"Polygon","coordinates":[[[122.7545,-5.2595],[122.746,-5.258],[122.7455,-5.256],[122.7305,-5.2445],[122.72,-5.2585],[122.75,-5.2835],[122.7525,-5.29],[122.7685,-5.2905],[122.7755,-5.304],[122.791,-5.308],[122.796,-5.3145],[122.8195,-5.328],[122.83,-5.3165],[122.814,-5.294],[122.809,-5.2865],[122.8025,-5.2845],[122.798,-5.2905],[122.7845,-5.279],[122.783,-5.2685],[122.772,-5.267],[122.7665,-5.255],[122.7565,-5.255],[122.7545,-5.2595]]]},"properties":{"code":"74.04.22.2002","name":"Wakalambe","latitude":-5.285976170673295,"longitude":122.77732864746983}},{"type":"Feature","geometry":{"type":"MultiPolygon","coordinates":[[[[122.7565,-5.255],[122.7445,-5.2425],[122.7425,-5.2495],[122.7545,-5.2595],[122.7565,-5.255]]],[[[122.7375,-5.189],[122.7195,-5.207],[122.7275,-5.2095],[122.737,-5.199],[122.7375,-5.189]]]]},"properties":{"code":"74.04.22.2003","name":"Boneatiro","latitude":-5.220271909648054,"longitude":122.73694517874623}},{"type":"Feature","geometry":{"type":"Polygon","coordinates":[[[122.83,-5.3165],[122.8375,-5.3025],[122.836,-5.2995],[122.829,-5.2805],[122.8135,-5.2735],[122.805,-5.263],[122.806,-5.242],[122.8015,-5.2315],[122.7935,-5.2425],[122.784,-5.2435],[122.7665,-5.255],[122.772,-5.267],[122.783,-5.2685],[122.7845,-5.279],[122.798,-5.2905],[122.8025,-5.2845],[122.809,-5.2865],[122.814,-5.294],[122.83,-5.3165]]]},"properties":{"code":"74.04.22.2004","name":"Lambusango","latitude":-5.271274366941445,"longitude":122.80208233106652}},{"type":"Feature","geometry":{"type":"Polygon","coordinates":[[[122.8085,-5.128],[122.8085,-5.126],[122.8165,-5.1025],[122.817,-5.097],[122.8175,-5.0955],[122.818,-5.0945],[122.823,-5.093],[122.8295,-5.0885],[122.819,-5.0795],[122.8135,-5.0785],[122.812,-5.0775],[122.811,-5.076],[122.8105,-5.0735],[122.808,-5.074],[122.8025,-5.077],[122.8,-5.079],[122.79,-5.0825],[122.789,-5.083],[122.787,-5.0865],[122.787,-5.109],[122.792,-5.118],[122.7995,-5.122],[122.807,-5.1285],[122.8085,-5.128]]]},"properties":{"code":"74.04.22.2007","name":"Todanga","latitude":-5.098090691743085,"longitude":122.8043006017965}},{"type":"Feature","geometry":{"type":"Polygon","coordinates":[[[122.832,-5.0735],[122.8225,-5.069],[122.8115,-5.0735],[122.8105,-5.0735],[122.811,-5.076],[122.812,-5.0775],[122.8135,-5.0785],[122.819,-5.0795],[122.8295,-5.0885],[122.823,-5.093],[122.818,-5.0945],[122.8175,-5.0955],[122.817,-5.097],[122.8165,-5.1025],[122.8085,-5.126],[122.8085,-5.129],[122.806,-5.136],[122.806,-5.137],[122.793,-5.153],[122.7935,-5.164],[122.796,-5.17],[122.811,-5.1675],[122.8125,-5.168],[122.814,-5.1675],[122.817,-5.167],[122.84,-5.16],[122.842,-5.1585],[122.8425,-5.1585],[122.844,-5.159],[122.8455,-5.1585],[122.847,-5.156],[122.841,-5.1425],[122.833,-5.1365],[122.833,-5.135],[122.8345,-5.1225],[122.853,-5.1105],[122.8425,-5.093],[122.8415,-5.083],[122.832,-5.0735]]]},"properties":{"code":"74.04.22.2008","name":"Tuangila","latitude":-5.126233125835289,"longitude":122.82342451431792}},{"type":"Feature","geometry":{"type":"Polygon","coordinates":[[[122.899,-5.1225],[122.886,-5.1225],[122.8855,-5.1215],[122.8725,-5.1335],[122.8705,-5.1385],[122.8585,-5.1475],[122.8565,-5.1475],[122.854,-5.149],[122.852,-5.1505],[122.8515,-5.1515],[122.8535,-5.1525],[122.8555,-5.1535],[122.858,-5.1565],[122.8605,-5.159],[122.861,-5.1595],[122.8625,-5.159],[122.8655,-5.155],[122.867,-5.1535],[122.869,-5.153],[122.872,-5.153],[122.8725,-5.1535],[122.873,-5.1565],[122.878,-5.1715],[122.89,-5.175],[122.8955,-5.1755],[122.893,-5.1585],[122.896,-5.1545],[122.896,-5.152],[122.8925,-5.1475],[122.892,-5.1325],[122.899,-5.1225]]]},"properties":{"code":"74.04.22.2009","name":"Waondo Wolio","latitude":-5.148040105929862,"longitude":122.88037989930234}},{"type":"Feature","geometry":{"type":"Polygon","coordinates":[[[122.8855,-5.1215],[122.8805,-5.1125],[122.8535,-5.1125],[122.8505,-5.1255],[122.8605,-5.1335],[122.8715,-5.135],[122.8725,-5.1335],[122.8855,-5.1215]]]},"properties":{"code":"74.04.22.2010","name":"Bukit Asri","latitude":-5.1223095733579465,"longitude":122.86727500324562}},{"type":"Feature","geometry":{"type":"Polygon","coordinates":[[[122.7075,-5.2845],[122.7055,-5.283],[122.6915,-5.311],[122.684,-5.322],[122.687,-5.3245],[122.691,-5.3245],[122.6965,-5.321],[122.701,-5.3225],[122.706,-5.3185],[122.714,-5.316],[122.724,-5.325],[122.726,-5.329],[122.7275,-5.3345],[122.7275,-5.34],[122.7265,-5.3495],[122.7265,-5.35],[122.7255,-5.3515],[122.726,-5.3545],[122.728,-5.356],[122.737,-5.357],[122.74,-5.3595],[122.747,-5.3615],[122.748,-5.361],[122.7485,-5.361],[122.749,-5.3615],[122.763,-5.3545],[122.767,-5.369],[122.772,-5.355],[122.769,-5.3445],[122.759,-5.343],[122.7535,-5.3305],[122.735,-5.3165],[122.727,-5.3155],[122.7215,-5.2965],[122.721,-5.2955],[122.709,-5.287],[122.7075,-5.2845]]]},"properties":{"code":"74.04.22.2011","name":"Kamelanta","latitude":-5.326033234494782,"longitude":122.72722495844266}},{"type":"Feature","geometry":{"type":"Polygon","coordinates":[[[122.905,-5.3105],[122.885,-5.2985],[122.8735,-5.3035],[122.858,-5.2945],[122.847,-5.2965],[122.842,-5.2805],[122.848,-5.2715],[122.832,-5.264],[122.832,-5.266],[122.829,-5.2675],[122.822,-5.262],[122.821,-5.2515],[122.8145,-5.2385],[122.8135,-5.2355],[122.815,-5.2305],[122.8105,-5.223],[122.81,-5.222],[122.8015,-5.2315],[122.806,-5.242],[122.805,-5.263],[122.8135,-5.2735],[122.829,-5.2805],[122.836,-5.2995],[122.8375,-5.3025],[122.83,-5.3165],[122.8195,-5.328],[122.819,-5.3295],[122.8185,-5.337],[122.8205,-5.355],[122.822,-5.3595],[122.823,-5.3595],[122.8225,-5.3615],[122.8265,-5.36],[122.8295,-5.345],[122.8445,-5.319],[122.847,-5.317],[122.858,-5.3305],[122.875,-5.332],[122.8825,-5.327],[122.905,-5.3105]]]},"properties":{"code":"74.04.22.2012","name":"Lambusango Timur","latitude":-5.299610957189952,"longitude":122.84452138491969}},{"type":"Feature","geometry":{"type":"Polygon","coordinates":[[[122.8535,-5.1125],[122.853,-5.1105],[122.8345,-5.1225],[122.833,-5.135],[122.833,-5.1365],[122.841,-5.1425],[122.847,-5.156],[122.851,-5.152],[122.8515,-5.151],[122.854,-5.149],[122.8565,-5.1475],[122.8585,-5.1475],[122.8705,-5.1385],[122.8715,-5.135],[122.8605,-5.1335],[122.8505,-5.1255],[122.8535,-5.1125]]]},"properties":{"code":"74.04.22.2013","name":"Wakuli","latitude":-5.133586001240641,"longitude":122.8485040299265}},{"type":"Feature","geometry":{"type":"Polygon","coordinates":[[[122.8195,-5.328],[122.796,-5.3145],[122.791,-5.308],[122.7755,-5.304],[122.7685,-5.2905],[122.7525,-5.29],[122.75,-5.2835],[122.72,-5.2585],[122.712,-5.266],[122.716,-5.266],[122.7185,-5.281],[122.7265,-5.284],[122.731,-5.305],[122.746,-5.3095],[122.7495,-5.3165],[122.7655,-5.3185],[122.767,-5.33],[122.782,-5.3375],[122.7945,-5.3395],[122.8025,-5.346],[122.8025,-5.347],[122.7985,-5.3555],[122.7995,-5.3585],[122.802,-5.359],[122.806,-5.3585],[122.822,-5.3595],[122.8205,-5.355],[122.8185,-5.337],[122.819,-5.3295],[122.8195,-5.328]]]},"properties":{"code":"74.04.22.2014","name":"Mabulugo","latitude":-5.310398073169214,"longitude":122.76831674231703}},{"type":"Feature","geometry":{"type":"Polygon","coordinates":[[[122.8925,-5.1775],[122.89,-5.175],[122.878,-5.1715],[122.873,-5.1565],[122.8725,-5.1535],[122.872,-5.153],[122.869,-5.153],[122.867,-5.1535],[122.8655,-5.155],[122.8625,-5.159],[122.861,-5.1595],[122.8605,-5.159],[122.858,-5.1565],[122.8555,-5.1535],[122.8535,-5.1525],[122.8515,-5.1515],[122.851,-5.152],[122.847,-5.156],[122.8455,-5.1585],[122.844,-5.159],[122.8425,-5.1585],[122.843,-5.16],[122.8475,-5.166],[122.8485,-5.1685],[122.849,-5.1745],[122.866,-5.1975],[122.8685,-5.205],[122.8805,-5.2095],[122.891,-5.22],[122.892,-5.205],[122.8905,-5.203],[122.8885,-5.2015],[122.8875,-5.2],[122.886,-5.1895],[122.887,-5.1865],[122.8925,-5.1775]]]},"properties":{"code":"74.04.22.2015","name":"Wambulu","latitude":-5.18176556151171,"longitude":122.87099232362907}},{"type":"Feature","geometry":{"type":"Polygon","coordinates":[[[122.8085,-5.128],[122.807,-5.1285],[122.7995,-5.122],[122.792,-5.118],[122.787,-5.109],[122.7715,-5.1105],[122.7705,-5.12],[122.7485,-5.151],[122.737,-5.1755],[122.751,-5.1735],[122.7565,-5.1915],[122.7485,-5.2065],[122.7475,-5.217],[122.76,-5.2245],[122.769,-5.2055],[122.783,-5.185],[122.79,-5.186],[122.7915,-5.1745],[122.7935,-5.164],[122.793,-5.153],[122.806,-5.137],[122.808,-5.13],[122.8085,-5.128]]]},"properties":{"code":"74.04.22.2016","name":"Tumada","latitude":-5.1616606292762945,"longitude":122.77174453092938}},{"type":"Feature","geometry":{"type":"Polygon","coordinates":[[[122.7445,-5.2425],[122.7305,-5.2445],[122.7455,-5.256],[122.746,-5.258],[122.7545,-5.2595],[122.7425,-5.2495],[122.7445,-5.2425]]]},"properties":{"code":"74.04.22.2017","name":"Boneatiro Barat","latitude":-5.252765582173567,"longitude":122.74281302480442}},{"type":"Feature","geometry":{"type":"Polygon","coordinates":[[[123.059,-5.188],[123.066,-5.175],[123.068,-5.1615],[123.0605,-5.1535],[123.0505,-5.1505],[123.044,-5.1595],[123.037,-5.182],[123.026,-5.1905],[123.0195,-5.2045],[123.018,-5.2225],[123.02,-5.221],[123.023,-5.219],[123.041,-5.2105],[123.049,-5.193],[123.059,-5.188]]]},"properties":{"code":"74.04.23.1005","name":"Kamaru","latitude":-5.184066303539167,"longitude":123.04424970043169}},{"type":"Feature","geometry":{"type":"Polygon","coordinates":[[[122.9205,-5.176],[122.919,-5.1765],[122.918,-5.1765],[122.9135,-5.163],[122.902,-5.16],[122.896,-5.1515],[122.896,-5.152],[122.896,-5.1545],[122.893,-5.1585],[122.8955,-5.1755],[122.8925,-5.1775],[122.887,-5.1865],[122.886,-5.1895],[122.8875,-5.2],[122.888,-5.2005],[122.8885,-5.1995],[122.893,-5.2005],[122.899,-5.1965],[122.9045,-5.1935],[122.908,-5.191],[122.9095,-5.1885],[122.914,-5.184],[122.915,-5.1835],[122.9205,-5.1815],[122.9205,-5.176]]]},"properties":{"code":"74.04.23.2001","name":"Kakenauwe","latitude":-5.177942963182153,"longitude":122.90142487708846}},{"type":"Feature","geometry":{"type":"Polygon","coordinates":[[[122.9085,-5.125],[122.899,-5.1225],[122.892,-5.1325],[122.8925,-5.1475],[122.896,-5.1515],[122.902,-5.16],[122.9135,-5.163],[122.918,-5.1765],[122.919,-5.1765],[122.9205,-5.176],[122.938,-5.1665],[122.95,-5.1465],[122.925,-5.139],[122.9085,-5.125]]]},"properties":{"code":"74.04.23.2002","name":"Waoleona","latitude":-5.14937596441183,"longitude":122.91783506813859}},{"type":"Feature","geometry":{"type":"Polygon","coordinates":[[[122.954,-5.217],[122.9445,-5.216],[122.94,-5.2255],[122.918,-5.2345],[122.9,-5.2485],[122.9,-5.25],[122.8985,-5.2615],[122.899,-5.2665],[122.9,-5.2745],[122.9,-5.2765],[122.915,-5.291],[122.916,-5.292],[122.9165,-5.293],[122.9205,-5.3],[122.9325,-5.309],[122.935,-5.31],[122.9455,-5.307],[122.9495,-5.3075],[122.954,-5.3115],[122.9675,-5.2915],[122.971,-5.2775],[122.967,-5.269],[122.966,-5.2655],[122.9635,-5.2585],[122.96,-5.254],[122.9625,-5.2365],[122.954,-5.217]]]},"properties":{"code":"74.04.23.2003","name":"Lawele","latitude":-5.266119017801909,"longitude":122.9362005573211}},{"type":"Feature","geometry":{"type":"Polygon","coordinates":[[[123.011,-5.2085],[123.012,-5.2],[123.0005,-5.182],[122.999,-5.1795],[122.9975,-5.178],[122.9895,-5.167],[122.9705,-5.1895],[122.9695,-5.1985],[122.9895,-5.2055],[123.011,-5.2085]]]},"properties":{"code":"74.04.23.2004","name":"Suandala","latitude":-5.191334239745654,"longitude":122.99088510071512}},{"type":"Feature","geometry":{"type":"Polygon","coordinates":[[[123.059,-5.188],[123.049,-5.193],[123.041,-5.2105],[123.023,-5.219],[123.02,-5.221],[123.018,-5.2225],[123.009,-5.236],[123.002,-5.245],[122.9955,-5.2665],[122.994,-5.27],[122.9945,-5.2765],[122.998,-5.282],[123.001,-5.282],[123.0145,-5.2775],[123.026,-5.266],[123.0295,-5.2475],[123.044,-5.2495],[123.0545,-5.2395],[123.054,-5.2365],[123.0635,-5.2245],[123.066,-5.2175],[123.0665,-5.214],[123.058,-5.2115],[123.0585,-5.2045],[123.063,-5.196],[123.0625,-5.1925],[123.062,-5.1915],[123.059,-5.188]]]},"properties":{"code":"74.04.23.2006","name":"Lasembangi","latitude":-5.237226049420928,"longitude":123.02978169843136}},{"type":"Feature","geometry":{"type":"Polygon","coordinates":[[[123.093,-5.217],[123.1005,-5.2105],[123.107,-5.194],[123.0945,-5.184],[123.093,-5.1855],[123.0915,-5.1875],[123.0665,-5.214],[123.066,-5.2175],[123.0635,-5.2245],[123.074,-5.227],[123.093,-5.217]]]},"properties":{"code":"74.04.23.2007","name":"Bonelalo","latitude":-5.2064713200096095,"longitude":123.08668659111555}},{"type":"Feature","geometry":{"type":"Polygon","coordinates":[[[123.118,-5.208],[123.1095,-5.204],[123.103,-5.2135],[123.093,-5.217],[123.074,-5.227],[123.0635,-5.2245],[123.054,-5.2365],[123.0545,-5.2395],[123.044,-5.2495],[123.0295,-5.2475],[123.026,-5.266],[123.028,-5.266],[123.043,-5.2665],[123.054,-5.26],[123.057,-5.26],[123.0595,-5.2595],[123.0845,-5.241],[123.094,-5.2385],[123.096,-5.229],[123.118,-5.208]]]},"properties":{"code":"74.04.23.2008","name":"Wasuamba","latitude":-5.239839091429431,"longitude":123.06762380468504}},{"type":"Feature","geometry":{"type":"Polygon","coordinates":[[[122.932,-5.19],[122.9205,-5.1815],[122.915,-5.1835],[122.914,-5.184],[122.9095,-5.1885],[122.908,-5.191],[122.9045,-5.1935],[122.899,-5.1965],[122.893,-5.2005],[122.8885,-5.1995],[122.888,-5.2005],[122.8915,-5.2045],[122.892,-5.205],[122.891,-5.22],[122.89,-5.223],[122.893,-5.2365],[122.895,-5.238],[122.9115,-5.225],[122.918,-5.2055],[122.925,-5.203],[122.932,-5.19]]]},"properties":{"code":"74.04.23.2009","name":"Wagari","latitude":-5.208300424088014,"longitude":122.90751908766484}},{"type":"Feature","geometry":{"type":"Polygon","coordinates":[[[123.0505,-5.1505],[123.0335,-5.136],[123.0185,-5.141],[123.0225,-5.18],[123.017,-5.199],[123.0195,-5.2045],[123.026,-5.1905],[123.037,-5.182],[123.044,-5.1595],[123.0505,-5.1505]]]},"properties":{"code":"74.04.23.2010","name":"Sribatara","latitude":-5.162967342029349,"longitude":123.03089785530726}},{"type":"Feature","geometry":{"type":"Polygon","coordinates":[[[123.0195,-5.2045],[123.017,-5.199],[123.0225,-5.18],[123.0185,-5.141],[123.008,-5.146],[122.9895,-5.167],[122.9975,-5.178],[122.999,-5.1795],[123.0005,-5.182],[123.012,-5.2],[123.011,-5.2085],[123.0045,-5.226],[123.009,-5.236],[123.018,-5.2225],[123.0195,-5.2045]]]},"properties":{"code":"74.04.23.2011","name":"Togomangura","latitude":-5.17832970958717,"longitude":123.01001587594251}},{"type":"Feature","geometry":{"type":"Polygon","coordinates":[[[123.144,-5.239],[123.125,-5.213],[123.118,-5.208],[123.096,-5.229],[123.094,-5.2385],[123.0845,-5.241],[123.0595,-5.2595],[123.0605,-5.2595],[123.063,-5.261],[123.0725,-5.2625],[123.0785,-5.2625],[123.0885,-5.2635],[123.0915,-5.2635],[123.097,-5.257],[123.1145,-5.253],[123.1245,-5.245],[123.126,-5.2445],[123.128,-5.246],[123.1285,-5.246],[123.132,-5.2465],[123.144,-5.239]]]},"properties":{"code":"74.04.23.2012","name":"Wasambaa","latitude":-5.239524531398315,"longitude":123.10636849442471}},{"type":"Feature","geometry":{"type":"Polygon","coordinates":[[[122.9445,-5.216],[122.9345,-5.206],[122.932,-5.19],[122.925,-5.203],[122.918,-5.2055],[122.9115,-5.225],[122.895,-5.238],[122.8985,-5.2415],[122.9,-5.2475],[122.9,-5.2485],[122.918,-5.2345],[122.94,-5.2255],[122.9445,-5.216]]]},"properties":{"code":"74.04.23.2013","name":"Benteng","latitude":-5.221207584578228,"longitude":122.92278290413986}},{"type":"Feature","geometry":{"type":"Polygon","coordinates":[[[123.0945,-5.184],[123.0825,-5.173],[123.062,-5.1915],[123.0625,-5.1925],[123.063,-5.196],[123.0585,-5.2045],[123.058,-5.2115],[123.0665,-5.214],[123.0915,-5.1875],[123.093,-5.1855],[123.0945,-5.184]]]},"properties":{"code":"74.04.23.2014","name":"Talaga Baru","latitude":-5.192932745341186,"longitude":123.07529775960643}},{"type":"Feature","geometry":{"type":"Polygon","coordinates":[[[122.9695,-5.1985],[122.9565,-5.2075],[122.954,-5.217],[122.9625,-5.2365],[122.96,-5.254],[122.9635,-5.2585],[122.966,-5.2655],[122.967,-5.269],[122.971,-5.2775],[122.9675,-5.2915],[122.979,-5.291],[122.995,-5.2825],[122.998,-5.282],[122.9945,-5.2765],[122.994,-5.27],[122.9955,-5.2665],[123.002,-5.245],[123.009,-5.236],[123.0045,-5.226],[123.011,-5.2085],[122.9895,-5.2055],[122.9695,-5.1985]]]},"properties":{"code":"74.04.23.2015","name":"Nambo","latitude":-5.239679291007049,"longitude":122.98133705704774}},{"type":"Feature","geometry":{"type":"Polygon","coordinates":[[[123.181,-5.2975],[123.179,-5.2965],[123.165,-5.305],[123.16,-5.3165],[123.168,-5.335],[123.172,-5.3345],[123.177,-5.335],[123.18,-5.3375],[123.1855,-5.34],[123.187,-5.3385],[123.1855,-5.3235],[123.1845,-5.321],[123.1815,-5.318],[123.181,-5.2975]]]},"properties":{"code":"74.04.24.2006","name":"Ambuau Indah","latitude":-5.319025003836164,"longitude":123.17394283121693}},{"type":"Feature","geometry":{"type":"Polygon","coordinates":[[[123.176,-5.2875],[123.17,-5.2835],[123.1685,-5.285],[123.1655,-5.2865],[123.15,-5.2875],[123.147,-5.3025],[123.147,-5.31],[123.1475,-5.313],[123.148,-5.314],[123.1495,-5.3135],[123.1515,-5.3135],[123.1525,-5.3135],[123.153,-5.314],[123.153,-5.316],[123.153,-5.3175],[123.1535,-5.3175],[123.156,-5.3185],[123.16,-5.3165],[123.165,-5.305],[123.179,-5.2965],[123.1795,-5.2945],[123.176,-5.2875]]]},"properties":{"code":"74.04.24.2007","name":"Kinapani Makmur","latitude":-5.298616273082862,"longitude":123.1607321458981}},{"type":"Feature","geometry":{"type":"Polygon","coordinates":[[[123.187,-5.3385],[123.197,-5.3195],[123.2175,-5.302],[123.224,-5.2765],[123.196,-5.271],[123.194,-5.2715],[123.193,-5.2725],[123.1935,-5.273],[123.194,-5.2745],[123.189,-5.2765],[123.187,-5.279],[123.1895,-5.28],[123.1865,-5.2825],[123.182,-5.2825],[123.18,-5.2835],[123.18,-5.284],[123.179,-5.2865],[123.176,-5.2875],[123.1795,-5.2945],[123.181,-5.2975],[123.1815,-5.318],[123.1845,-5.321],[123.1855,-5.3235],[123.187,-5.3385]]]},"properties":{"code":"74.04.24.2008","name":"Mopaano","latitude":-5.296595357975779,"longitude":123.19916692332063}},{"type":"Feature","geometry":{"type":"Polygon","coordinates":[[[123.196,-5.271],[123.197,-5.26],[123.187,-5.258],[123.1825,-5.26],[123.1735,-5.2645],[123.17,-5.2835],[123.176,-5.2875],[123.179,-5.2865],[123.18,-5.284],[123.18,-5.2835],[123.182,-5.2825],[123.1865,-5.2825],[123.1895,-5.28],[123.187,-5.279],[123.189,-5.2765],[123.194,-5.2745],[123.1935,-5.273],[123.193,-5.2725],[123.194,-5.2715],[123.196,-5.271]]]},"properties":{"code":"74.04.24.2009","name":"Umalaoge","latitude":-5.271725269497929,"longitude":123.1833480874685}},{"type":"Feature","geometry":{"type":"Polygon","coordinates":[[[123.1585,-5.2495],[123.144,-5.239],[123.132,-5.2465],[123.1315,-5.268],[123.1435,-5.275],[123.15,-5.2875],[123.1655,-5.2865],[123.1685,-5.285],[123.17,-5.2835],[123.1735,-5.2645],[123.1825,-5.26],[123.187,-5.258],[123.178,-5.246],[123.1585,-5.2495]]]},"properties":{"code":"74.04.24.2010","name":"Lasalimu","latitude":-5.262332537501217,"longitude":123.15554169814264}},{"type":"Feature","geometry":{"type":"Polygon","coordinates":[[[123.15,-5.2875],[123.1435,-5.275],[123.1315,-5.268],[123.1285,-5.273],[123.123,-5.2735],[123.1215,-5.2735],[123.122,-5.2745],[123.1225,-5.276],[123.1215,-5.285],[123.118,-5.293],[123.1315,-5.299],[123.1355,-5.301],[123.137,-5.302],[123.1375,-5.3025],[123.1385,-5.303],[123.1395,-5.303],[123.147,-5.3025],[123.15,-5.2875]]]},"properties":{"code":"74.04.24.2011","name":"Wajah Jaya","latitude":-5.286877282688434,"longitude":123.13483373159154}},{"type":"Feature","geometry":{"type":"Polygon","coordinates":[[[123.118,-5.293],[123.116,-5.297],[123.1135,-5.2975],[123.11,-5.2985],[123.109,-5.2995],[123.106,-5.301],[123.1015,-5.2975],[123.1005,-5.2975],[123.1,-5.2975],[123.098,-5.2985],[123.093,-5.289],[123.082,-5.2865],[123.0805,-5.284],[123.0775,-5.2795],[123.072,-5.278],[123.056,-5.284],[123.0585,-5.2965],[123.08,-5.3215],[123.101,-5.324],[123.103,-5.325],[123.1035,-5.3245],[123.103,-5.3235],[123.103,-5.3225],[123.106,-5.317],[123.107,-5.3155],[123.11,-5.3165],[123.111,-5.3145],[123.114,-5.316],[123.1265,-5.316],[123.1315,-5.299],[123.118,-5.293]]]},"properties":{"code":"74.04.24.2012","name":"Siontapina","latitude":-5.302423282160854,"longitude":123.08993114876449}},{"type":"Feature","geometry":{"type":"Polygon","coordinates":[[[123.147,-5.3025],[123.1395,-5.303],[123.1385,-5.303],[123.1375,-5.3025],[123.137,-5.302],[123.1355,-5.301],[123.1315,-5.299],[123.1265,-5.316],[123.1265,-5.318],[123.128,-5.3215],[123.1285,-5.322],[123.129,-5.3245],[123.1295,-5.327],[123.131,-5.3305],[123.1335,-5.332],[123.134,-5.3315],[123.1395,-5.331],[123.141,-5.3315],[123.142,-5.331],[123.142,-5.329],[123.144,-5.3295],[123.148,-5.329],[123.146,-5.328],[123.1465,-5.3255],[123.1455,-5.3235],[123.1455,-5.322],[123.1455,-5.3215],[123.147,-5.323],[123.1545,-5.326],[123.1555,-5.326],[123.156,-5.3215],[123.153,-5.3185],[123.153,-5.3175],[123.153,-5.316],[123.153,-5.314],[123.1525,-5.3135],[123.1515,-5.3135],[123.1495,-5.3135],[123.148,-5.314],[123.1475,-5.313],[123.147,-5.31],[123.147,-5.3025]]]},"properties":{"code":"74.04.24.2013","name":"Siomanuru","latitude":-5.3165055257177904,"longitude":123.13924499197861}},{"type":"Feature","geometry":{"type":"Polygon","coordinates":[[[123.0895,-5.2635],[123.0885,-5.2635],[123.0785,-5.2625],[123.0725,-5.2625],[123.063,-5.261],[123.0605,-5.2595],[123.057,-5.26],[123.054,-5.26],[123.0655,-5.269],[123.068,-5.2705],[123.072,-5.27],[123.088,-5.275],[123.091,-5.2765],[123.0945,-5.2785],[123.0975,-5.282],[123.102,-5.2835],[123.1065,-5.2875],[123.112,-5.2765],[123.112,-5.274],[123.1105,-5.2745],[123.0975,-5.269],[123.0935,-5.268],[123.09,-5.2645],[123.0895,-5.2635]]]},"properties":{"code":"74.04.24.2016","name":"Mulya Jaya","latitude":-5.271123891256067,"longitude":123.08714449826259}},{"type":"Feature","geometry":{"type":"Polygon","coordinates":[[[123.132,-5.2465],[123.1285,-5.246],[123.128,-5.246],[123.126,-5.2445],[123.1245,-5.245],[123.1145,-5.253],[123.097,-5.257],[123.0915,-5.2635],[123.0895,-5.2635],[123.09,-5.2645],[123.0935,-5.268],[123.0975,-5.269],[123.1105,-5.2745],[123.113,-5.2735],[123.1155,-5.273],[123.1185,-5.2735],[123.1205,-5.2735],[123.123,-5.2735],[123.1285,-5.273],[123.1315,-5.268],[123.132,-5.2465]]]},"properties":{"code":"74.04.24.2017","name":"Harapan Jaya","latitude":-5.261849865541527,"longitude":123.11468772474397}},{"type":"Feature","geometry":{"type":"Polygon","coordinates":[[[123.054,-5.26],[123.043,-5.2665],[123.056,-5.284],[123.072,-5.278],[123.0775,-5.2795],[123.0805,-5.284],[123.082,-5.2865],[123.093,-5.289],[123.098,-5.2985],[123.1,-5.2975],[123.1005,-5.2975],[123.1015,-5.2975],[123.106,-5.301],[123.109,-5.2995],[123.11,-5.2985],[123.1135,-5.2975],[123.116,-5.297],[123.118,-5.293],[123.108,-5.2885],[123.104,-5.287],[123.102,-5.2835],[123.0975,-5.282],[123.0945,-5.2785],[123.091,-5.2765],[123.088,-5.275],[123.072,-5.27],[123.068,-5.2705],[123.0655,-5.269],[123.054,-5.26]]]},"properties":{"code":"74.04.24.2018","name":"Sangia Arano","latitude":-5.280060958558817,"longitude":123.07859867480572}},{"type":"Feature","geometry":{"type":"Polygon","coordinates":[[[123.177,-5.335],[123.172,-5.3345],[123.168,-5.335],[123.167,-5.336],[123.165,-5.34],[123.164,-5.3485],[123.1645,-5.351],[123.166,-5.3505],[123.163,-5.3535],[123.162,-5.354],[123.162,-5.3605],[123.162,-5.3615],[123.173,-5.3585],[123.1855,-5.34],[123.18,-5.3375],[123.177,-5.335]]]},"properties":{"code":"74.04.24.2019","name":"Megabahari","latitude":-5.346781349504861,"longitude":123.17204329462471}},{"type":"Feature","geometry":{"type":"Polygon","coordinates":[[[123.1215,-5.2735],[123.1205,-5.2735],[123.1185,-5.2735],[123.1155,-5.273],[123.113,-5.2735],[123.112,-5.274],[123.112,-5.2765],[123.1065,-5.2875],[123.108,-5.2885],[123.118,-5.293],[123.1215,-5.285],[123.1225,-5.276],[123.122,-5.2745],[123.1215,-5.2735]]]},"properties":{"code":"74.04.24.2020","name":"Sumber Agung","latitude":-5.282408516111219,"longitude":123.11554099348747}},{"type":"Feature","geometry":{"type":"Polygon","coordinates":[[[123.1265,-5.316],[123.114,-5.316],[123.111,-5.3145],[123.11,-5.3165],[123.107,-5.3155],[123.106,-5.317],[123.103,-5.3225],[123.103,-5.3235],[123.1035,-5.3245],[123.103,-5.325],[123.1045,-5.325],[123.1075,-5.3255],[123.108,-5.3255],[123.1085,-5.328],[123.1145,-5.333],[123.1195,-5.3355],[123.1225,-5.3365],[123.1265,-5.336],[123.1275,-5.3325],[123.127,-5.33],[123.1275,-5.3295],[123.129,-5.329],[123.1295,-5.327],[123.129,-5.3245],[123.1285,-5.322],[123.128,-5.3215],[123.1265,-5.318],[123.1265,-5.316]]]},"properties":{"code":"74.04.24.2021","name":"Rejo Sari","latitude":-5.32357207960373,"longitude":123.11778768486447}},{"type":"Feature","geometry":{"type":"Polygon","coordinates":[[[123.168,-5.335],[123.16,-5.3165],[123.156,-5.3185],[123.1535,-5.3175],[123.153,-5.3185],[123.156,-5.3215],[123.1555,-5.326],[123.1545,-5.326],[123.147,-5.323],[123.1455,-5.3215],[123.1455,-5.322],[123.1455,-5.3235],[123.1465,-5.3255],[123.146,-5.328],[123.148,-5.329],[123.1455,-5.332],[123.1545,-5.3425],[123.1575,-5.345],[123.1625,-5.347],[123.164,-5.3485],[123.165,-5.34],[123.167,-5.336],[123.168,-5.335]]]},"properties":{"code":"74.04.24.2022","name":"Ambuau Togo","latitude":-5.33196773833247,"longitude":123.15780864756208}},{"type":"Feature","geometry":{"type":"Polygon","coordinates":[[[123.1585,-5.2495],[123.1605,-5.2485],[123.1605,-5.2465],[123.158,-5.2465],[123.1585,-5.2495]]]},"properties":{"code":"74.04.24.2023","name":"Balimu","latitude":-5.24761836160637,"longitude":123.15930269258278}},{"type":"Feature","geometry":{"type":"Polygon","coordinates":[[[123.002,-5.4065],[123.003,-5.4075],[123.0125,-5.3965],[123.0125,-5.364],[123.0155,-5.3585],[123.0155,-5.3545],[123.0145,-5.35],[123.013,-5.346],[123.009,-5.3405],[123.0055,-5.3375],[122.9935,-5.333],[122.9825,-5.309],[122.9905,-5.3015],[122.997,-5.282],[122.995,-5.2825],[122.979,-5.291],[122.9675,-5.2915],[122.954,-5.3115],[122.955,-5.3135],[122.9715,-5.324],[122.9705,-5.3325],[122.966,-5.3435],[122.967,-5.3465],[122.973,-5.3565],[122.973,-5.3615],[122.985,-5.3775],[122.9855,-5.381],[122.986,-5.3815],[122.99,-5.3845],[122.991,-5.3855],[122.992,-5.387],[122.9985,-5.391],[122.999,-5.392],[122.9885,-5.3955],[122.999,-5.4055],[123.002,-5.4065]]]},"properties":{"code":"74.04.27.2001","name":"Walompo","latitude":-5.3440700176197105,"longitude":122.98775416677134}},{"type":"Feature","geometry":{"type":"Polygon","coordinates":[[[123.0345,-5.3265],[123.021,-5.301],[123.022,-5.281],[123.0145,-5.2775],[123.001,-5.282],[122.997,-5.282],[122.9905,-5.3015],[122.9825,-5.309],[122.9935,-5.333],[123.0055,-5.3375],[123.009,-5.3405],[123.013,-5.346],[123.0145,-5.35],[123.0155,-5.3545],[123.0155,-5.3585],[123.0125,-5.364],[123.0125,-5.3965],[123.003,-5.4075],[123.0015,-5.407],[123.0035,-5.422],[123.012,-5.426],[123.0125,-5.4265],[123.015,-5.425],[123.029,-5.413],[123.025,-5.4075],[123.025,-5.3825],[123.0295,-5.3665],[123.0345,-5.3265]]]},"properties":{"code":"74.04.27.2002","name":"Matanauwe","latitude":-5.34217905590407,"longitude":123.01339842889256}},{"type":"Feature","geometry":{"type":"Polygon","coordinates":[[[123.0315,-5.4305],[123.0215,-5.4325],[123.016,-5.43],[123.0135,-5.4255],[123.0125,-5.4265],[123.012,-5.426],[123.015,-5.444],[123.036,-5.436],[123.0315,-5.4305]]]},"properties":{"code":"74.04.27.2003","name":"Sampuabalo","latitude":-5.435023183748503,"longitude":123.02162323947667}},{"type":"Feature","geometry":{"type":"Polygon","coordinates":[[[123.0695,-5.367],[123.068,-5.351],[123.059,-5.3375],[123.0505,-5.331],[123.044,-5.3575],[123.0445,-5.37],[123.0315,-5.4305],[123.036,-5.436],[123.048,-5.429],[123.0435,-5.4105],[123.058,-5.3925],[123.054,-5.382],[123.058,-5.373],[123.0695,-5.367]]]},"properties":{"code":"74.04.27.2004","name":"Kuraa","latitude":-5.380933687997005,"longitude":123.04938197334084}},{"type":"Feature","geometry":{"type":"Polygon","coordinates":[[[123.121,-5.3725],[123.1185,-5.373],[123.115,-5.378],[123.1135,-5.378],[123.1115,-5.3755],[123.108,-5.375],[123.0925,-5.3795],[123.088,-5.34],[123.0745,-5.3365],[123.0715,-5.334],[123.07,-5.3335],[123.063,-5.3315],[123.06,-5.331],[123.057,-5.3305],[123.056,-5.328],[123.054,-5.326],[123.0515,-5.311],[123.0435,-5.307],[123.036,-5.2945],[123.038,-5.277],[123.036,-5.2725],[123.028,-5.266],[123.026,-5.266],[123.0145,-5.2775],[123.022,-5.281],[123.021,-5.301],[123.0345,-5.3265],[123.0505,-5.331],[123.059,-5.3375],[123.068,-5.351],[123.0695,-5.367],[123.065,-5.38],[123.0805,-5.4155],[123.0975,-5.411],[123.1105,-5.402],[123.1285,-5.4005],[123.1395,-5.391],[123.143,-5.38],[123.141,-5.3775],[123.132,-5.375],[123.121,-5.3725]]]},"properties":{"code":"74.04.27.2005","name":"Kumbewaha","latitude":-5.357215060197352,"longitude":123.07754224542607}},{"type":"Feature","geometry":{"type":"Polygon","coordinates":[[[123.043,-5.2665],[123.028,-5.266],[123.036,-5.2725],[123.038,-5.277],[123.036,-5.2945],[123.0435,-5.307],[123.0515,-5.311],[123.054,-5.326],[123.056,-5.328],[123.057,-5.3305],[123.06,-5.331],[123.063,-5.3315],[123.07,-5.3335],[123.0715,-5.334],[123.0745,-5.3365],[123.088,-5.34],[123.0925,-5.3795],[123.108,-5.375],[123.1115,-5.3755],[123.1135,-5.378],[123.115,-5.378],[123.1185,-5.373],[123.121,-5.3725],[123.1205,-5.369],[123.118,-5.356],[123.1265,-5.336],[123.1225,-5.3365],[123.1195,-5.3355],[123.1145,-5.333],[123.1085,-5.328],[123.108,-5.3255],[123.1075,-5.3255],[123.1035,-5.325],[123.101,-5.324],[123.08,-5.3215],[123.0585,-5.2965],[123.056,-5.284],[123.043,-5.2665]]]},"properties":{"code":"74.04.27.2006","name":"Sumber Sari","latitude":-5.328316623874566,"longitude":123.08155165695821}},{"type":"Feature","geometry":{"type":"Polygon","coordinates":[[[123.1455,-5.332],[123.144,-5.3295],[123.142,-5.329],[123.142,-5.331],[123.141,-5.3315],[123.1395,-5.331],[123.134,-5.3315],[123.1335,-5.332],[123.131,-5.3305],[123.129,-5.329],[123.1275,-5.3295],[123.127,-5.33],[123.1275,-5.3325],[123.1265,-5.336],[123.118,-5.356],[123.1205,-5.369],[123.124,-5.3665],[123.1225,-5.362],[123.136,-5.348],[123.142,-5.3475],[123.1415,-5.348],[123.1425,-5.3485],[123.1505,-5.3525],[123.153,-5.354],[123.162,-5.354],[123.163,-5.3535],[123.166,-5.3505],[123.1645,-5.351],[123.1625,-5.347],[123.1575,-5.345],[123.1545,-5.3425],[123.1455,-5.332]]]},"properties":{"code":"74.04.27.2007","name":"Labuandiri","latitude":-5.345343935229966,"longitude":123.13797291113619}},{"type":"Feature","geometry":{"type":"Polygon","coordinates":[[[123.162,-5.354],[123.153,-5.354],[123.1505,-5.3525],[123.1425,-5.3485],[123.1415,-5.348],[123.142,-5.3475],[123.136,-5.348],[123.1225,-5.362],[123.124,-5.3665],[123.1205,-5.369],[123.121,-5.3725],[123.132,-5.375],[123.141,-5.3775],[123.143,-5.38],[123.162,-5.3615],[123.162,-5.3605],[123.162,-5.354]]]},"properties":{"code":"74.04.27.2008","name":"Karya jaya","latitude":-5.363829839818803,"longitude":123.1419784696652}},{"type":"Feature","geometry":{"type":"Polygon","coordinates":[[[123.0805,-5.4155],[123.065,-5.38],[123.0695,-5.367],[123.058,-5.373],[123.054,-5.382],[123.058,-5.3925],[123.0435,-5.4105],[123.048,-5.429],[123.0805,-5.4155]]]},"properties":{"code":"74.04.27.2009","name":"Manuru","latitude":-5.403102055599738,"longitude":123.06136489963254}},{"type":"Feature","geometry":{"type":"Polygon","coordinates":[[[123.0505,-5.331],[123.0345,-5.3265],[123.0295,-5.3665],[123.025,-5.3825],[123.025,-5.4075],[123.029,-5.413],[123.015,-5.425],[123.0135,-5.4255],[123.016,-5.43],[123.0215,-5.4325],[123.0315,-5.4305],[123.0445,-5.37],[123.044,-5.3575],[123.0505,-5.331]]]},"properties":{"code":"74.04.27.2010","name":"Gunungjaya","latitude":-5.376742127354173,"longitude":123.03467474828587}},{"type":"Feature","geometry":{"type":"Polygon","coordinates":[[[123.002,-5.4065],[122.999,-5.4055],[123.0015,-5.407],[123.002,-5.4065]]]},"properties":{"code":"74.04.27.2011","name":"Bahari Makmur","latitude":-5.40717840868254,"longitude":122.99998584444859}},{"type":"Feature","geometry":{"type":"Polygon","coordinates":[[[122.916,-5.439],[122.9115,-5.431],[122.9155,-5.413],[122.911,-5.4],[122.9135,-5.3765],[122.905,-5.369],[122.9035,-5.3805],[122.905,-5.3825],[122.906,-5.386],[122.906,-5.387],[122.907,-5.3935],[122.9055,-5.397],[122.9035,-5.404],[122.9055,-5.4055],[122.9055,-5.4065],[122.9045,-5.407],[122.9045,-5.408],[122.904,-5.411],[122.908,-5.422],[122.905,-5.4225],[122.902,-5.4245],[122.902,-5.425],[122.902,-5.427],[122.901,-5.4285],[122.902,-5.4315],[122.902,-5.44],[122.916,-5.439]]]},"properties":{"code":"74.04.28.2001","name":"Kaumbu","latitude":-5.404908384314805,"longitude":122.90842291510812}},{"type":"Feature","geometry":{"type":"Polygon","coordinates":[[[122.954,-5.3115],[122.9495,-5.3075],[122.9455,-5.307],[122.935,-5.31],[122.9335,-5.3095],[122.933,-5.313],[122.931,-5.318],[122.928,-5.333],[122.9345,-5.353],[122.933,-5.37],[122.9235,-5.389],[122.928,-5.4075],[122.9215,-5.4215],[122.921,-5.4245],[122.9265,-5.434],[122.945,-5.4185],[122.936,-5.401],[122.945,-5.385],[122.9535,-5.353],[122.949,-5.3455],[122.946,-5.3225],[122.9545,-5.312],[122.954,-5.3115]]]},"properties":{"code":"74.04.28.2002","name":"Wolowa","latitude":-5.3685207587045705,"longitude":122.93743695718847}},{"type":"Feature","geometry":{"type":"Polygon","coordinates":[[[122.973,-5.3615],[122.973,-5.3565],[122.967,-5.3465],[122.961,-5.353],[122.962,-5.355],[122.9645,-5.3575],[122.966,-5.3635],[122.957,-5.373],[122.954,-5.3835],[122.9525,-5.3855],[122.952,-5.386],[122.953,-5.3895],[122.95,-5.4005],[122.954,-5.4105],[122.9665,-5.4035],[122.965,-5.392],[122.9645,-5.39],[122.9645,-5.389],[122.9645,-5.388],[122.965,-5.3855],[122.966,-5.384],[122.966,-5.383],[122.965,-5.38],[122.9655,-5.3795],[122.969,-5.3795],[122.971,-5.365],[122.9725,-5.3615],[122.973,-5.3615]]]},"properties":{"code":"74.04.28.2003","name":"Matawia","latitude":-5.3806423371531515,"longitude":122.96227245804214}},{"type":"Feature","geometry":{"type":"Polygon","coordinates":[[[122.9885,-5.3955],[122.999,-5.392],[122.9985,-5.391],[122.992,-5.387],[122.991,-5.3855],[122.99,-5.3875],[122.9875,-5.389],[122.9745,-5.3885],[122.965,-5.389],[122.9645,-5.3895],[122.9645,-5.3905],[122.965,-5.392],[122.9665,-5.4035],[122.9715,-5.396],[122.9885,-5.3955]]]},"properties":{"code":"74.04.28.2004","name":"Wolowa Baru","latitude":-5.392961868602955,"longitude":122.97982397506681}},{"type":"Feature","geometry":{"type":"Polygon","coordinates":[[[122.991,-5.3855],[122.99,-5.3845],[122.986,-5.3815],[122.9855,-5.381],[122.985,-5.3775],[122.973,-5.3615],[122.9725,-5.3615],[122.971,-5.365],[122.969,-5.3795],[122.9655,-5.3795],[122.965,-5.38],[122.966,-5.383],[122.966,-5.384],[122.965,-5.3855],[122.9645,-5.388],[122.9645,-5.3895],[122.965,-5.389],[122.9745,-5.3885],[122.9875,-5.389],[122.99,-5.3875],[122.991,-5.3855]]]},"properties":{"code":"74.04.28.2005","name":"Suka Maju","latitude":-5.380233506643625,"longitude":122.97684431511472}},{"type":"Feature","geometry":{"type":"Polygon","coordinates":[[[122.967,-5.3465],[122.966,-5.3435],[122.9705,-5.3325],[122.9715,-5.324],[122.955,-5.3135],[122.9545,-5.312],[122.946,-5.3225],[122.949,-5.3455],[122.9535,-5.353],[122.945,-5.385],[122.936,-5.401],[122.945,-5.4185],[122.954,-5.4105],[122.95,-5.4005],[122.953,-5.3895],[122.952,-5.386],[122.9525,-5.3855],[122.954,-5.3835],[122.957,-5.373],[122.966,-5.3635],[122.9645,-5.3575],[122.962,-5.355],[122.961,-5.353],[122.967,-5.3465]]]},"properties":{"code":"74.04.28.2006","name":"Bungi","latitude":-5.359549312598991,"longitude":122.9538395822037}},{"type":"Feature","geometry":{"type":"Polygon","coordinates":[[[122.9335,-5.3095],[122.9325,-5.309],[122.9205,-5.3],[122.9165,-5.323],[122.906,-5.3315],[122.905,-5.3595],[122.907,-5.3655],[122.905,-5.369],[122.9135,-5.3765],[122.911,-5.4],[122.9155,-5.413],[122.9115,-5.431],[122.916,-5.439],[122.9265,-5.434],[122.921,-5.4245],[122.9215,-5.4215],[122.928,-5.4075],[122.9235,-5.389],[122.933,-5.37],[122.9345,-5.353],[122.928,-5.333],[122.931,-5.318],[122.933,-5.313],[122.9335,-5.3095]]]},"properties":{"code":"74.04.28.2007","name":"Galanti","latitude":-5.363743276206027,"longitude":122.92005154589681}},{"type":"Feature","geometry":{"type":"Polygon","coordinates":[[[122.831,-5.5855],[122.828,-5.582],[122.8245,-5.584],[122.8055,-5.5865],[122.7905,-5.596],[122.794,-5.616],[122.8,-5.629],[122.8075,-5.6355],[122.81,-5.638],[122.8145,-5.6445],[122.8165,-5.645],[122.818,-5.6455],[122.823,-5.652],[122.852,-5.617],[122.834,-5.6045],[122.831,-5.5855]]]},"properties":{"code":"74.04.29.2001","name":"Wasuemba","latitude":-5.614347864985166,"longitude":122.81846935736954}},{"type":"Feature","geometry":{"type":"Polygon","coordinates":[[[122.86,-5.61],[122.866,-5.593],[122.865,-5.592],[122.863,-5.5895],[122.8545,-5.585],[122.8445,-5.563],[122.829,-5.5815],[122.828,-5.582],[122.831,-5.5855],[122.8425,-5.5885],[122.844,-5.597],[122.86,-5.61]]]},"properties":{"code":"74.04.29.2002","name":"Wabula","latitude":-5.5872436034679644,"longitude":122.84895002009496}},{"type":"Feature","geometry":{"type":"Polygon","coordinates":[[[122.8835,-5.579],[122.873,-5.5745],[122.867,-5.573],[122.8635,-5.572],[122.862,-5.571],[122.859,-5.567],[122.857,-5.561],[122.859,-5.5505],[122.8445,-5.563],[122.8545,-5.585],[122.863,-5.5895],[122.865,-5.592],[122.866,-5.593],[122.8835,-5.579]]]},"properties":{"code":"74.04.29.2003","name":"Wasampela","latitude":-5.575277780389163,"longitude":122.86176449157753}},{"type":"Feature","geometry":{"type":"Polygon","coordinates":[[[122.8735,-5.542],[122.866,-5.5415],[122.859,-5.5505],[122.857,-5.561],[122.859,-5.567],[122.862,-5.571],[122.8635,-5.572],[122.867,-5.573],[122.873,-5.5745],[122.8835,-5.579],[122.8935,-5.5655],[122.8915,-5.56],[122.89,-5.56],[122.8885,-5.56],[122.8875,-5.5605],[122.885,-5.561],[122.875,-5.547],[122.8735,-5.542]]]},"properties":{"code":"74.04.29.2004","name":"Holimombo","latitude":-5.561077495718711,"longitude":122.87340167699038}},{"type":"Feature","geometry":{"type":"Polygon","coordinates":[[[122.8855,-5.5395],[122.881,-5.5385],[122.8735,-5.542],[122.875,-5.547],[122.885,-5.561],[122.8875,-5.5605],[122.8885,-5.56],[122.89,-5.56],[122.8915,-5.56],[122.8965,-5.544],[122.8915,-5.5425],[122.888,-5.541],[122.8855,-5.5395]]]},"properties":{"code":"74.04.29.2005","name":"Koholimembona","latitude":-5.5490521261103884,"longitude":122.88629991841809}},{"type":"Feature","geometry":{"type":"Polygon","coordinates":[[[122.86,-5.61],[122.844,-5.597],[122.8425,-5.5885],[122.831,-5.5855],[122.834,-5.6045],[122.852,-5.617],[122.86,-5.61]]]},"properties":{"code":"74.04.29.2006","name":"Wabula Satu","latitude":-5.6013499288165916,"longitude":122.84297838512379}},{"type":"Feature","geometry":{"type":"Polygon","coordinates":[[[122.8935,-5.5655],[122.8955,-5.5645],[122.8975,-5.561],[122.8965,-5.5605],[122.8935,-5.5655]]]},"properties":{"code":"74.04.29.2007","name":"Bajo Bahari","latitude":-5.562692541269538,"longitude":122.89579515156723}}]}