{"type":"FeatureCollection","features":[{"type":"Feature","geometry":{"type":"Polygon","coordinates":[[[122.664,-5.548],[122.663,-5.546],[122.661,-5.542],[122.659,-5.539],[122.656,-5.538],[122.653,-5.5335],[122.6525,-5.5325],[122.6515,-5.533],[122.6505,-5.5345],[122.6505,-5.5365],[122.6345,-5.54],[122.6265,-5.5505],[122.617,-5.5505],[122.607,-5.566],[122.604,-5.569],[122.5955,-5.584],[122.5975,-5.595],[122.598,-5.595],[122.5995,-5.5955],[122.603,-5.591],[122.625,-5.586],[122.6295,-5.5865],[122.6305,-5.5855],[122.631,-5.584],[122.6315,-5.581],[122.6325,-5.5725],[122.634,-5.568],[122.638,-5.558],[122.64,-5.555],[122.6415,-5.554],[122.661,-5.5535],[122.664,-5.548]]]},"properties":{"code":"74.15.01.1002","name":"Busoa"}},{"type":"Feature","geometry":{"type":"Polygon","coordinates":[[[122.6805,-5.5775],[122.6815,-5.571],[122.674,-5.558],[122.658,-5.5645],[122.6545,-5.5705],[122.649,-5.5715],[122.6475,-5.572],[122.646,-5.5735],[122.6415,-5.58],[122.637,-5.5895],[122.608,-5.603],[122.606,-5.604],[122.6015,-5.606],[122.6,-5.6065],[122.599,-5.608],[122.598,-5.6085],[122.6075,-5.6255],[122.608,-5.625],[122.612,-5.6195],[122.6145,-5.616],[122.6175,-5.614],[122.6205,-5.607],[122.6465,-5.5915],[122.672,-5.574],[122.6805,-5.5775]]]},"properties":{"code":"74.15.01.1003","name":"Laompo"}},{"type":"Feature","geometry":{"type":"Polygon","coordinates":[[[122.6805,-5.5775],[122.672,-5.574],[122.6465,-5.5915],[122.6205,-5.607],[122.6175,-5.614],[122.6145,-5.616],[122.612,-5.6195],[122.608,-5.625],[122.6075,-5.6255],[122.615,-5.647],[122.6105,-5.653],[122.62,-5.667],[122.6465,-5.6395],[122.658,-5.634],[122.656,-5.632],[122.658,-5.628],[122.6595,-5.6265],[122.665,-5.6265],[122.6665,-5.626],[122.668,-5.626],[122.6755,-5.613],[122.6765,-5.612],[122.6775,-5.6105],[122.6765,-5.605],[122.678,-5.601],[122.6795,-5.601],[122.681,-5.599],[122.6825,-5.597],[122.684,-5.5935],[122.6805,-5.5845],[122.682,-5.582],[122.6805,-5.5775]],[[122.626,-5.6275],[122.6215,-5.624],[122.629,-5.6185],[122.632,-5.6235],[122.626,-5.6275]]]},"properties":{"code":"74.15.01.1004","name":"Masiri"}},{"type":"Feature","geometry":{"type":"Polygon","coordinates":[[[122.662,-5.637],[122.658,-5.634],[122.6465,-5.6395],[122.62,-5.667],[122.626,-5.678],[122.638,-5.6715],[122.6545,-5.6425],[122.662,-5.637]]]},"properties":{"code":"74.15.01.1005","name":"Majapahit"}},{"type":"Feature","geometry":{"type":"Polygon","coordinates":[[[122.674,-5.558],[122.6675,-5.551],[122.665,-5.5495],[122.664,-5.548],[122.661,-5.5535],[122.6415,-5.554],[122.64,-5.555],[122.638,-5.558],[122.634,-5.568],[122.6325,-5.5725],[122.6315,-5.581],[122.631,-5.584],[122.6305,-5.5855],[122.6295,-5.5865],[122.625,-5.586],[122.603,-5.591],[122.5995,-5.5955],[122.598,-5.595],[122.5975,-5.595],[122.595,-5.5995],[122.594,-5.6005],[122.598,-5.6085],[122.599,-5.608],[122.6,-5.6065],[122.6015,-5.606],[122.606,-5.604],[122.608,-5.603],[122.637,-5.5895],[122.6415,-5.58],[122.646,-5.5735],[122.6475,-5.572],[122.649,-5.5715],[122.6545,-5.5705],[122.658,-5.5645],[122.674,-5.558]]]},"properties":{"code":"74.15.01.1010","name":"Lakambau"}},{"type":"Feature","geometry":{"type":"Polygon","coordinates":[[[122.626,-5.6275],[122.632,-5.6235],[122.629,-5.6185],[122.6215,-5.624],[122.626,-5.6275]]]},"properties":{"code":"74.15.01.1011","name":"Molagina"}},{"type":"Feature","geometry":{"type":"Polygon","coordinates":[[[122.606,-5.5655],[122.593,-5.56],[122.578,-5.558],[122.579,-5.569],[122.592,-5.591],[122.594,-5.6005],[122.595,-5.5995],[122.5975,-5.595],[122.5955,-5.584],[122.604,-5.569],[122.606,-5.5655]]]},"properties":{"code":"74.15.01.1012","name":"Bandar Batauga"}},{"type":"Feature","geometry":{"type":"Polygon","coordinates":[[[122.642,-5.512],[122.642,-5.5125],[122.62,-5.5075],[122.608,-5.5225],[122.582,-5.5355],[122.5735,-5.538],[122.5785,-5.5555],[122.592,-5.556],[122.6165,-5.545],[122.6395,-5.527],[122.644,-5.528],[122.6495,-5.5285],[122.65,-5.5275],[122.65,-5.5265],[122.6505,-5.5255],[122.6495,-5.5245],[122.642,-5.512]]]},"properties":{"code":"74.15.01.2001","name":"Lawela"}},{"type":"Feature","geometry":{"type":"Polygon","coordinates":[[[122.659,-5.6445],[122.6625,-5.639],[122.6535,-5.6465],[122.6435,-5.679],[122.6335,-5.6915],[122.6445,-5.699],[122.655,-5.6965],[122.6535,-5.6935],[122.6495,-5.676],[122.651,-5.6695],[122.6525,-5.664],[122.654,-5.662],[122.6525,-5.6575],[122.6535,-5.6565],[122.654,-5.6545],[122.655,-5.653],[122.659,-5.6445]]]},"properties":{"code":"74.15.01.2006","name":"Bola"}},{"type":"Feature","geometry":{"type":"Polygon","coordinates":[[[122.6595,-5.658],[122.654,-5.654],[122.6535,-5.6565],[122.6525,-5.6575],[122.654,-5.662],[122.6525,-5.664],[122.651,-5.6695],[122.6495,-5.676],[122.6535,-5.6935],[122.655,-5.6965],[122.6705,-5.685],[122.6675,-5.6835],[122.667,-5.683],[122.663,-5.6755],[122.6625,-5.6715],[122.661,-5.667],[122.659,-5.66],[122.6595,-5.658]]]},"properties":{"code":"74.15.01.2007","name":"Poogalampa"}},{"type":"Feature","geometry":{"type":"Polygon","coordinates":[[[122.6525,-5.5325],[122.6515,-5.5315],[122.6515,-5.528],[122.651,-5.526],[122.6505,-5.5255],[122.65,-5.5265],[122.65,-5.5275],[122.6495,-5.5285],[122.644,-5.528],[122.6395,-5.527],[122.6165,-5.545],[122.592,-5.556],[122.5785,-5.5555],[122.578,-5.558],[122.593,-5.56],[122.606,-5.5655],[122.607,-5.566],[122.617,-5.5505],[122.6265,-5.5505],[122.6345,-5.54],[122.6505,-5.5365],[122.6505,-5.5345],[122.6515,-5.533],[122.6525,-5.5325]]]},"properties":{"code":"74.15.01.2008","name":"Lawela Selatan"}},{"type":"Feature","geometry":{"type":"Polygon","coordinates":[[[122.6625,-5.639],[122.663,-5.6385],[122.6635,-5.636],[122.6545,-5.6425],[122.638,-5.6715],[122.626,-5.678],[122.6335,-5.6915],[122.6435,-5.679],[122.6535,-5.6465],[122.6625,-5.639]]]},"properties":{"code":"74.15.01.2009","name":"Lampanairi"}},{"type":"Feature","geometry":{"type":"Polygon","coordinates":[[[122.6995,-5.635],[122.6985,-5.635],[122.697,-5.6335],[122.685,-5.625],[122.681,-5.6215],[122.681,-5.62],[122.679,-5.615],[122.6765,-5.612],[122.6755,-5.613],[122.668,-5.626],[122.667,-5.626],[122.666,-5.626],[122.671,-5.6305],[122.6725,-5.632],[122.676,-5.6395],[122.692,-5.648],[122.6995,-5.635]]]},"properties":{"code":"74.15.02.1003","name":"Katilombu"}},{"type":"Feature","geometry":{"type":"Polygon","coordinates":[[[122.711,-5.62],[122.7,-5.6195],[122.699,-5.619],[122.6965,-5.6135],[122.6935,-5.612],[122.6915,-5.612],[122.6875,-5.611],[122.6775,-5.6105],[122.6765,-5.612],[122.679,-5.615],[122.681,-5.62],[122.681,-5.6215],[122.685,-5.625],[122.697,-5.6335],[122.6985,-5.635],[122.6995,-5.635],[122.711,-5.62]]]},"properties":{"code":"74.15.02.1004","name":"Jaya Bakti"}},{"type":"Feature","geometry":{"type":"Polygon","coordinates":[[[122.7325,-5.5985],[122.7305,-5.5975],[122.728,-5.596],[122.7255,-5.594],[122.7225,-5.593],[122.7115,-5.5805],[122.707,-5.5795],[122.705,-5.5785],[122.702,-5.5805],[122.6955,-5.579],[122.6915,-5.5805],[122.6885,-5.581],[122.6835,-5.582],[122.6805,-5.5845],[122.684,-5.5935],[122.6825,-5.597],[122.681,-5.599],[122.6795,-5.601],[122.678,-5.601],[122.6765,-5.605],[122.6775,-5.6105],[122.6875,-5.611],[122.6915,-5.612],[122.6935,-5.612],[122.6965,-5.6135],[122.699,-5.619],[122.7,-5.6195],[122.711,-5.62],[122.717,-5.6205],[122.727,-5.613],[122.7305,-5.601],[122.7325,-5.5985]]]},"properties":{"code":"74.15.02.1005","name":"Todombulu"}},{"type":"Feature","geometry":{"type":"Polygon","coordinates":[[[122.678,-5.6735],[122.6775,-5.673],[122.6765,-5.6715],[122.667,-5.663],[122.6595,-5.658],[122.659,-5.66],[122.661,-5.667],[122.6625,-5.6715],[122.663,-5.6755],[122.667,-5.683],[122.6675,-5.6835],[122.6705,-5.685],[122.678,-5.6735]]]},"properties":{"code":"74.15.02.2001","name":"Bangun"}},{"type":"Feature","geometry":{"type":"Polygon","coordinates":[[[122.692,-5.648],[122.676,-5.6395],[122.6725,-5.632],[122.671,-5.6305],[122.666,-5.626],[122.665,-5.6265],[122.6595,-5.6265],[122.658,-5.628],[122.656,-5.632],[122.662,-5.637],[122.6635,-5.636],[122.663,-5.6385],[122.6625,-5.639],[122.659,-5.6445],[122.664,-5.6465],[122.682,-5.667],[122.692,-5.648]]]},"properties":{"code":"74.15.02.2002","name":"Wawoangi"}},{"type":"Feature","geometry":{"type":"Polygon","coordinates":[[[122.7895,-5.539],[122.762,-5.55],[122.7435,-5.5535],[122.7415,-5.5525],[122.7135,-5.5495],[122.7115,-5.5485],[122.709,-5.5485],[122.711,-5.551],[122.711,-5.5535],[122.723,-5.5625],[122.728,-5.566],[122.729,-5.58],[122.7295,-5.5825],[122.73,-5.583],[122.7355,-5.5845],[122.7375,-5.5855],[122.7375,-5.588],[122.733,-5.597],[122.734,-5.5955],[122.734,-5.596],[122.743,-5.601],[122.742,-5.615],[122.759,-5.612],[122.774,-5.6145],[122.783,-5.609],[122.7915,-5.603],[122.789,-5.5865],[122.7895,-5.539]]]},"properties":{"code":"74.15.02.2006","name":"Gunung Sejuk"}},{"type":"Feature","geometry":{"type":"Polygon","coordinates":[[[122.79,-5.5125],[122.7915,-5.5035],[122.7895,-5.4925],[122.7845,-5.5035],[122.767,-5.504],[122.756,-5.5165],[122.7395,-5.5195],[122.7205,-5.511],[122.7115,-5.4985],[122.711,-5.4955],[122.7045,-5.4945],[122.6875,-5.4955],[122.6875,-5.496],[122.688,-5.498],[122.6885,-5.4995],[122.6905,-5.501],[122.692,-5.5065],[122.6985,-5.5165],[122.708,-5.5485],[122.7105,-5.5485],[122.712,-5.549],[122.7135,-5.5495],[122.7415,-5.5525],[122.7435,-5.5535],[122.762,-5.55],[122.7895,-5.539],[122.79,-5.5295],[122.7895,-5.517],[122.79,-5.5125]]]},"properties":{"code":"74.15.02.2007","name":"Sandang Pangan"}},{"type":"Feature","geometry":{"type":"Polygon","coordinates":[[[122.76,-5.4895],[122.751,-5.487],[122.7475,-5.484],[122.7425,-5.4795],[122.7415,-5.48],[122.7365,-5.493],[122.723,-5.4965],[122.7185,-5.4965],[122.711,-5.4955],[122.7115,-5.4985],[122.7205,-5.511],[122.7395,-5.5195],[122.756,-5.5165],[122.767,-5.504],[122.7845,-5.5035],[122.7895,-5.4925],[122.789,-5.4875],[122.76,-5.4895]]]},"properties":{"code":"74.15.02.2008","name":"Hendea"}},{"type":"Feature","geometry":{"type":"Polygon","coordinates":[[[122.748,-5.6395],[122.728,-5.628],[122.724,-5.6285],[122.7225,-5.6285],[122.7115,-5.6635],[122.7215,-5.662],[122.7225,-5.6605],[122.7325,-5.6715],[122.748,-5.6395]]]},"properties":{"code":"74.15.02.2009","name":"Tira"}},{"type":"Feature","geometry":{"type":"Polygon","coordinates":[[[122.7325,-5.6715],[122.7225,-5.6605],[122.7215,-5.662],[122.7115,-5.6635],[122.715,-5.6825],[122.715,-5.682],[122.7225,-5.6755],[122.727,-5.6745],[122.7325,-5.6715]]]},"properties":{"code":"74.15.02.2010","name":"Bahari"}},{"type":"Feature","geometry":{"type":"Polygon","coordinates":[[[122.779,-5.6475],[122.7745,-5.6275],[122.7735,-5.623],[122.7715,-5.619],[122.7705,-5.618],[122.767,-5.6145],[122.767,-5.615],[122.763,-5.616],[122.761,-5.62],[122.7595,-5.6245],[122.759,-5.632],[122.758,-5.634],[122.757,-5.638],[122.7545,-5.64],[122.7585,-5.657],[122.779,-5.6475]]]},"properties":{"code":"74.15.02.2011","name":"Gerak Makmur"}},{"type":"Feature","geometry":{"type":"Polygon","coordinates":[[[122.709,-5.5485],[122.708,-5.5485],[122.6985,-5.5165],[122.692,-5.5065],[122.6905,-5.501],[122.6885,-5.4995],[122.688,-5.498],[122.6875,-5.496],[122.6875,-5.4955],[122.6705,-5.4965],[122.669,-5.497],[122.665,-5.504],[122.643,-5.511],[122.642,-5.512],[122.6495,-5.5245],[122.6505,-5.5255],[122.6515,-5.528],[122.6515,-5.5315],[122.653,-5.5335],[122.656,-5.538],[122.659,-5.539],[122.661,-5.542],[122.663,-5.546],[122.665,-5.5495],[122.6675,-5.551],[122.674,-5.558],[122.6815,-5.571],[122.6805,-5.5775],[122.682,-5.582],[122.6835,-5.582],[122.6885,-5.581],[122.6915,-5.5805],[122.6955,-5.579],[122.702,-5.5805],[122.705,-5.5785],[122.707,-5.5795],[122.7115,-5.5805],[122.7225,-5.593],[122.7255,-5.594],[122.728,-5.596],[122.7305,-5.5975],[122.7325,-5.5985],[122.734,-5.597],[122.734,-5.5955],[122.733,-5.597],[122.7375,-5.588],[122.7375,-5.5855],[122.7355,-5.5845],[122.73,-5.583],[122.7295,-5.5825],[122.729,-5.58],[122.728,-5.566],[122.723,-5.5625],[122.711,-5.5535],[122.711,-5.551],[122.709,-5.5485]]]},"properties":{"code":"74.15.02.2012","name":"Lipu Mangau"}},{"type":"Feature","geometry":{"type":"Polygon","coordinates":[[[122.7265,-5.679],[122.727,-5.6745],[122.7225,-5.6755],[122.715,-5.682],[122.715,-5.6825],[122.717,-5.684],[122.7265,-5.679]]]},"properties":{"code":"74.15.02.2013","name":"Bahari Dua"}},{"type":"Feature","geometry":{"type":"Polygon","coordinates":[[[122.717,-5.684],[122.726,-5.6915],[122.7265,-5.679],[122.717,-5.684]]]},"properties":{"code":"74.15.02.2014","name":"Bahari Tiga"}},{"type":"Feature","geometry":{"type":"Polygon","coordinates":[[[122.767,-5.615],[122.7605,-5.614],[122.753,-5.622],[122.752,-5.623],[122.752,-5.6245],[122.749,-5.6245],[122.746,-5.6325],[122.746,-5.634],[122.751,-5.639],[122.7545,-5.64],[122.757,-5.638],[122.758,-5.634],[122.759,-5.632],[122.7595,-5.6245],[122.761,-5.62],[122.763,-5.616],[122.767,-5.615]]]},"properties":{"code":"74.15.02.2015","name":"Windu Makmur"}},{"type":"Feature","geometry":{"type":"Polygon","coordinates":[[[122.682,-5.667],[122.664,-5.6465],[122.659,-5.6445],[122.655,-5.653],[122.654,-5.654],[122.667,-5.663],[122.6765,-5.6715],[122.6775,-5.673],[122.678,-5.6735],[122.682,-5.667]]]},"properties":{"code":"74.15.02.2016","name":"Watiginanda"}},{"type":"Feature","geometry":{"type":"Polygon","coordinates":[[[122.742,-5.615],[122.743,-5.601],[122.734,-5.596],[122.734,-5.597],[122.733,-5.5985],[122.7305,-5.601],[122.727,-5.613],[122.717,-5.6205],[122.7225,-5.6285],[122.724,-5.6285],[122.728,-5.628],[122.748,-5.6395],[122.751,-5.639],[122.746,-5.634],[122.746,-5.6325],[122.749,-5.6245],[122.752,-5.6245],[122.752,-5.623],[122.7515,-5.623],[122.743,-5.627],[122.742,-5.6265],[122.742,-5.615]]]},"properties":{"code":"74.15.03.2001","name":"Lapandewa Makmur"}},{"type":"Feature","geometry":{"type":"Polygon","coordinates":[[[122.7865,-5.665],[122.7735,-5.667],[122.761,-5.6575],[122.7615,-5.6725],[122.7545,-5.695],[122.7655,-5.7005],[122.7735,-5.697],[122.7755,-5.6955],[122.7815,-5.684],[122.784,-5.6795],[122.785,-5.677],[122.786,-5.672],[122.787,-5.6695],[122.7865,-5.665]]]},"properties":{"code":"74.15.03.2002","name":"Gaya Baru"}},{"type":"Feature","geometry":{"type":"Polygon","coordinates":[[[122.823,-5.652],[122.8175,-5.6455],[122.813,-5.6505],[122.812,-5.6505],[122.8105,-5.6515],[122.807,-5.654],[122.7925,-5.6715],[122.785,-5.677],[122.784,-5.6795],[122.7815,-5.684],[122.7755,-5.6955],[122.7735,-5.697],[122.7845,-5.7025],[122.802,-5.696],[122.8105,-5.6725],[122.823,-5.652]]]},"properties":{"code":"74.15.03.2003","name":"Burangasi Rumbia"}},{"type":"Feature","geometry":{"type":"Polygon","coordinates":[[[122.8175,-5.6455],[122.8165,-5.645],[122.8145,-5.6445],[122.8105,-5.6385],[122.809,-5.637],[122.806,-5.6395],[122.799,-5.6535],[122.7865,-5.665],[122.787,-5.6695],[122.786,-5.672],[122.7925,-5.6715],[122.807,-5.654],[122.8105,-5.6515],[122.812,-5.6505],[122.813,-5.6505],[122.8175,-5.6455]]]},"properties":{"code":"74.15.03.2004","name":"Burangasi"}},{"type":"Feature","geometry":{"type":"Polygon","coordinates":[[[122.7855,-5.6435],[122.7925,-5.6315],[122.7925,-5.6235],[122.788,-5.6135],[122.7875,-5.6105],[122.7875,-5.608],[122.787,-5.606],[122.783,-5.609],[122.774,-5.6145],[122.759,-5.612],[122.742,-5.615],[122.742,-5.6265],[122.743,-5.627],[122.7515,-5.623],[122.753,-5.622],[122.7605,-5.614],[122.767,-5.6145],[122.7705,-5.618],[122.7715,-5.619],[122.7735,-5.623],[122.7745,-5.6275],[122.779,-5.6475],[122.7815,-5.6485],[122.7835,-5.645],[122.7855,-5.6435]]]},"properties":{"code":"74.15.03.2005","name":"Lapandewa Kaindea"}},{"type":"Feature","geometry":{"type":"Polygon","coordinates":[[[122.803,-5.6315],[122.8,-5.629],[122.794,-5.616],[122.7915,-5.603],[122.787,-5.606],[122.7875,-5.608],[122.7875,-5.6105],[122.788,-5.6135],[122.7925,-5.6235],[122.7925,-5.6315],[122.7855,-5.6435],[122.803,-5.6315]]]},"properties":{"code":"74.15.03.2006","name":"Lapandewa"}},{"type":"Feature","geometry":{"type":"Polygon","coordinates":[[[122.809,-5.637],[122.8075,-5.6355],[122.803,-5.6315],[122.7855,-5.6435],[122.7835,-5.645],[122.7815,-5.6485],[122.779,-5.6475],[122.7585,-5.657],[122.761,-5.6575],[122.7735,-5.667],[122.7865,-5.665],[122.799,-5.6535],[122.806,-5.6395],[122.809,-5.637]]]},"properties":{"code":"74.15.03.2007","name":"Lapandewa Jaya"}},{"type":"Feature","geometry":{"type":"Polygon","coordinates":[[[122.683,-6.186],[122.6735,-6.1825],[122.685,-6.197],[122.683,-6.186]]]},"properties":{"code":"74.15.04.2001","name":"Batuatas Liwu"}},{"type":"Feature","geometry":{"type":"Polygon","coordinates":[[[122.6955,-6.203],[122.683,-6.186],[122.685,-6.197],[122.6875,-6.2065],[122.6955,-6.2115],[122.6965,-6.2045],[122.6955,-6.203]]]},"properties":{"code":"74.15.04.2002","name":"Batuatas Barat"}},{"type":"Feature","geometry":{"type":"Polygon","coordinates":[[[122.709,-6.2025],[122.6995,-6.199],[122.6955,-6.203],[122.6965,-6.2045],[122.7055,-6.2085],[122.709,-6.2025]]]},"properties":{"code":"74.15.04.2003","name":"Wacuala"}},{"type":"Feature","geometry":{"type":"Polygon","coordinates":[[[122.728,-6.2035],[122.709,-6.2025],[122.7055,-6.2085],[122.714,-6.208],[122.728,-6.2035]]]},"properties":{"code":"74.15.04.2004","name":"Batu Atas Timur"}},{"type":"Feature","geometry":{"type":"Polygon","coordinates":[[[122.707,-6.2125],[122.718,-6.2125],[122.728,-6.2035],[122.714,-6.208],[122.709,-6.2085],[122.707,-6.2125]]]},"properties":{"code":"74.15.04.2005","name":"Tolando Jaya"}},{"type":"Feature","geometry":{"type":"Polygon","coordinates":[[[122.6995,-6.199],[122.693,-6.1945],[122.6885,-6.178],[122.6735,-6.1825],[122.683,-6.186],[122.6955,-6.203],[122.6995,-6.199]]]},"properties":{"code":"74.15.04.2006","name":"Taduasa"}},{"type":"Feature","geometry":{"type":"Polygon","coordinates":[[[122.7055,-6.2085],[122.6965,-6.2045],[122.6955,-6.2115],[122.707,-6.2125],[122.709,-6.2085],[122.7055,-6.2085]]]},"properties":{"code":"74.15.04.2007","name":"Wambongi"}},{"type":"Feature","geometry":{"type":"Polygon","coordinates":[[[122.496,-5.6775],[122.5105,-5.6705],[122.508,-5.6665],[122.483,-5.6795],[122.4755,-5.686],[122.4765,-5.6895],[122.4765,-5.6905],[122.482,-5.693],[122.4815,-5.691],[122.482,-5.69],[122.496,-5.6775]]]},"properties":{"code":"74.15.05.2001","name":"Molona"}},{"type":"Feature","geometry":{"type":"Polygon","coordinates":[[[122.517,-5.68],[122.503,-5.685],[122.496,-5.6775],[122.482,-5.69],[122.4815,-5.6905],[122.484,-5.692],[122.485,-5.693],[122.49,-5.6955],[122.523,-5.688],[122.517,-5.68]]]},"properties":{"code":"74.15.05.2002","name":"Mbanua"}},{"type":"Feature","geometry":{"type":"Polygon","coordinates":[[[122.4715,-5.6805],[122.471,-5.6795],[122.458,-5.684],[122.471,-5.682],[122.4715,-5.6805]]]},"properties":{"code":"74.15.05.2003","name":"Lalole"}},{"type":"Feature","geometry":{"type":"Polygon","coordinates":[[[122.479,-5.6735],[122.471,-5.6795],[122.4715,-5.6805],[122.479,-5.6735]]]},"properties":{"code":"74.15.05.2004","name":"Watuampara"}},{"type":"Feature","geometry":{"type":"Polygon","coordinates":[[[122.4765,-5.6905],[122.4765,-5.6895],[122.476,-5.687],[122.4565,-5.6885],[122.4765,-5.6905]]]},"properties":{"code":"74.15.05.2005","name":"Katampe"}},{"type":"Feature","geometry":{"type":"Polygon","coordinates":[[[122.528,-5.695],[122.523,-5.688],[122.49,-5.6955],[122.485,-5.693],[122.484,-5.692],[122.4815,-5.6905],[122.4815,-5.691],[122.482,-5.693],[122.495,-5.6995],[122.519,-5.6945],[122.528,-5.695]]]},"properties":{"code":"74.15.05.2006","name":"Lamaninggara"}},{"type":"Feature","geometry":{"type":"Polygon","coordinates":[[[122.508,-5.6665],[122.5065,-5.6645],[122.475,-5.682],[122.4725,-5.681],[122.471,-5.682],[122.458,-5.684],[122.4565,-5.6885],[122.476,-5.687],[122.4755,-5.686],[122.483,-5.6795],[122.508,-5.6665]]]},"properties":{"code":"74.15.05.2007","name":"Kamoali"}},{"type":"Feature","geometry":{"type":"Polygon","coordinates":[[[122.5065,-5.6645],[122.494,-5.6555],[122.479,-5.6735],[122.4715,-5.6805],[122.4725,-5.681],[122.475,-5.682],[122.5065,-5.6645]]]},"properties":{"code":"74.15.05.2008","name":"Mokobeau"}},{"type":"Feature","geometry":{"type":"Polygon","coordinates":[[[122.5245,-5.663],[122.52,-5.6645],[122.5165,-5.664],[122.5155,-5.6615],[122.512,-5.661],[122.513,-5.6655],[122.5145,-5.6675],[122.5105,-5.669],[122.5065,-5.6645],[122.5105,-5.6705],[122.496,-5.6775],[122.503,-5.685],[122.517,-5.68],[122.521,-5.678],[122.525,-5.671],[122.526,-5.6635],[122.5245,-5.663]]]},"properties":{"code":"74.15.06.2001","name":"Biwinapada"}},{"type":"Feature","geometry":{"type":"Polygon","coordinates":[[[122.553,-5.672],[122.526,-5.6635],[122.525,-5.671],[122.5435,-5.6835],[122.5345,-5.694],[122.5425,-5.6875],[122.553,-5.672]]]},"properties":{"code":"74.15.06.2002","name":"Kaimbulawa"}},{"type":"Feature","geometry":{"type":"Polygon","coordinates":[[[122.5275,-5.653],[122.5155,-5.653],[122.5065,-5.639],[122.501,-5.6505],[122.51,-5.661],[122.5155,-5.6615],[122.5165,-5.664],[122.52,-5.6645],[122.5245,-5.663],[122.5275,-5.653]]]},"properties":{"code":"74.15.06.2003","name":"Wakinamboro"}},{"type":"Feature","geometry":{"type":"Polygon","coordinates":[[[122.526,-5.629],[122.5145,-5.625],[122.5165,-5.636],[122.52,-5.6385],[122.5215,-5.639],[122.5225,-5.6395],[122.5235,-5.638],[122.5235,-5.635],[122.526,-5.629]]]},"properties":{"code":"74.15.06.2004","name":"Tongali"}},{"type":"Feature","geometry":{"type":"Polygon","coordinates":[[[122.553,-5.672],[122.5565,-5.653],[122.5535,-5.6445],[122.5295,-5.6475],[122.5245,-5.663],[122.553,-5.672]]]},"properties":{"code":"74.15.06.2005","name":"Lontoi"}},{"type":"Feature","geometry":{"type":"Polygon","coordinates":[[[122.5535,-5.6445],[122.544,-5.628],[122.536,-5.6305],[122.5315,-5.64],[122.5295,-5.6475],[122.5535,-5.6445]]]},"properties":{"code":"74.15.06.2006","name":"Karae"}},{"type":"Feature","geometry":{"type":"Polygon","coordinates":[[[122.5145,-5.625],[122.503,-5.631],[122.5065,-5.639],[122.5155,-5.653],[122.5275,-5.653],[122.531,-5.6415],[122.524,-5.6405],[122.523,-5.64],[122.5215,-5.639],[122.52,-5.6385],[122.5165,-5.636],[122.5145,-5.625]]]},"properties":{"code":"74.15.06.2007","name":"Batuawu"}},{"type":"Feature","geometry":{"type":"Polygon","coordinates":[[[122.501,-5.6505],[122.494,-5.6555],[122.5065,-5.6645],[122.5105,-5.669],[122.5145,-5.6675],[122.513,-5.6655],[122.512,-5.661],[122.51,-5.661],[122.501,-5.6505]]]},"properties":{"code":"74.15.06.2008","name":"Nggulanggula"}},{"type":"Feature","geometry":{"type":"Polygon","coordinates":[[[122.5345,-5.694],[122.5435,-5.6835],[122.525,-5.671],[122.521,-5.678],[122.517,-5.68],[122.528,-5.695],[122.5345,-5.694]]]},"properties":{"code":"74.15.06.2009","name":"Waindawula"}},{"type":"Feature","geometry":{"type":"Polygon","coordinates":[[[122.536,-5.6305],[122.526,-5.629],[122.5235,-5.635],[122.5235,-5.638],[122.5225,-5.6395],[122.524,-5.6405],[122.531,-5.6415],[122.5315,-5.64],[122.536,-5.6305]]]},"properties":{"code":"74.15.06.2010","name":"Lapara"}},{"type":"Feature","geometry":{"type":"Polygon","coordinates":[[[122.4985,-5.551],[122.4965,-5.5485],[122.495,-5.548],[122.4825,-5.5555],[122.492,-5.5625],[122.493,-5.555],[122.496,-5.5525],[122.4975,-5.552],[122.4985,-5.551]]]},"properties":{"code":"74.15.07.2001","name":"Waonu"}},{"type":"Feature","geometry":{"type":"Polygon","coordinates":[[[122.474,-5.531],[122.4735,-5.535],[122.484,-5.542],[122.487,-5.542],[122.4895,-5.5425],[122.4905,-5.5435],[122.492,-5.5415],[122.4925,-5.5385],[122.474,-5.531]]]},"properties":{"code":"74.15.07.2002","name":"Kaofe"}},{"type":"Feature","geometry":{"type":"Polygon","coordinates":[[[122.4935,-5.5315],[122.4915,-5.531],[122.477,-5.5255],[122.474,-5.531],[122.4925,-5.5385],[122.493,-5.5375],[122.4935,-5.5315]]]},"properties":{"code":"74.15.07.2003","name":"Uwemaasi"}},{"type":"Feature","geometry":{"type":"Polygon","coordinates":[[[122.499,-5.5145],[122.495,-5.51],[122.4825,-5.5145],[122.477,-5.5255],[122.4915,-5.531],[122.497,-5.5315],[122.511,-5.5325],[122.5105,-5.5265],[122.499,-5.5145]]]},"properties":{"code":"74.15.07.2004","name":"Lipu"}},{"type":"Feature","geometry":{"type":"Polygon","coordinates":[[[122.511,-5.5325],[122.497,-5.5315],[122.4935,-5.5315],[122.493,-5.5375],[122.492,-5.5415],[122.4905,-5.5435],[122.4915,-5.5445],[122.495,-5.5455],[122.4945,-5.5475],[122.4965,-5.5485],[122.4995,-5.5525],[122.505,-5.562],[122.511,-5.5325]]]},"properties":{"code":"74.15.07.2005","name":"Kapoa"}},{"type":"Feature","geometry":{"type":"Polygon","coordinates":[[[122.5235,-5.503],[122.509,-5.504],[122.495,-5.51],[122.499,-5.5145],[122.5235,-5.503]]]},"properties":{"code":"74.15.07.2006","name":"Banabungi"}},{"type":"Feature","geometry":{"type":"Polygon","coordinates":[[[122.487,-5.542],[122.484,-5.542],[122.4725,-5.5475],[122.4825,-5.5555],[122.495,-5.548],[122.4945,-5.5475],[122.495,-5.5455],[122.4915,-5.5445],[122.4895,-5.5425],[122.487,-5.542]]]},"properties":{"code":"74.15.07.2007","name":"Mawambunga"}},{"type":"Feature","geometry":{"type":"Polygon","coordinates":[[[122.5235,-5.503],[122.499,-5.5145],[122.5105,-5.5265],[122.517,-5.52],[122.5235,-5.503]]]},"properties":{"code":"74.15.07.2008","name":"Banabungi Selatan"}},{"type":"Feature","geometry":{"type":"Polygon","coordinates":[[[122.484,-5.542],[122.4735,-5.535],[122.4725,-5.5475],[122.484,-5.542]]]},"properties":{"code":"74.15.07.2009","name":"Marawali"}},{"type":"Feature","geometry":{"type":"Polygon","coordinates":[[[122.492,-5.5625],[122.505,-5.562],[122.4995,-5.5525],[122.4985,-5.551],[122.4975,-5.552],[122.496,-5.5525],[122.493,-5.555],[122.492,-5.5625]]]},"properties":{"code":"74.15.07.2010","name":"Kapoa Barat"}}]}