{"type":"FeatureCollection","features":[{"type":"Feature","geometry":{"type":"Polygon","coordinates":[[[121.902,-4.0295],[121.8975,-4.01],[121.8975,-4.011],[121.8965,-4.015],[121.8955,-4.016],[121.892,-4.0265],[121.8935,-4.0445],[121.8865,-4.0495],[121.8975,-4.0495],[121.8975,-4.0525],[121.902,-4.0295]]]},"properties":{"code":"74.11.01.1002","name":"Rate-rate","latitude":-4.030964733037159,"longitude":121.89647074553274}},{"type":"Feature","geometry":{"type":"Polygon","coordinates":[[[121.8975,-4.0515],[121.8975,-4.0495],[121.8865,-4.0495],[121.886,-4.0545],[121.8855,-4.0565],[121.882,-4.0625],[121.8825,-4.066],[121.8835,-4.0665],[121.886,-4.0625],[121.889,-4.0575],[121.8935,-4.0545],[121.8935,-4.0515],[121.8975,-4.0515]]]},"properties":{"code":"74.11.01.1016","name":"Tababu","latitude":-4.0555489540764365,"longitude":121.88831494448635}},{"type":"Feature","geometry":{"type":"Polygon","coordinates":[[[121.9645,-3.9015],[121.972,-3.892],[121.967,-3.879],[121.9665,-3.8795],[121.9595,-3.8845],[121.9585,-3.884],[121.9575,-3.886],[121.948,-3.8875],[121.947,-3.886],[121.9455,-3.886],[121.9355,-3.898],[121.915,-3.905],[121.9125,-3.9045],[121.901,-3.9145],[121.901,-3.935],[121.9015,-3.9395],[121.901,-3.9425],[121.898,-3.944],[121.889,-3.949],[121.887,-3.9495],[121.8835,-3.952],[121.882,-3.952],[121.866,-3.942],[121.8645,-3.942],[121.864,-3.9425],[121.866,-3.947],[121.8665,-3.9505],[121.867,-3.9595],[121.875,-3.977],[121.871,-3.9955],[121.872,-4.01],[121.865,-4.022],[121.8695,-4.024],[121.8785,-4.025],[121.887,-4.0225],[121.8885,-4.0225],[121.893,-4.0185],[121.893,-4.013],[121.895,-4.0065],[121.89,-3.9915],[121.8925,-3.9865],[121.8945,-3.9835],[121.9075,-3.9765],[121.926,-3.9785],[121.9275,-3.976],[121.9275,-3.9695],[121.9395,-3.956],[121.9415,-3.942],[121.9305,-3.935],[121.9335,-3.93],[121.935,-3.927],[121.943,-3.9115],[121.9645,-3.9015]]]},"properties":{"code":"74.11.01.2001","name":"Simbune","latitude":-3.9500683285353806,"longitude":121.91029071250762}},{"type":"Feature","geometry":{"type":"Polygon","coordinates":[[[121.865,-4.022],[121.8465,-4.0195],[121.8395,-4.014],[121.8365,-4.0115],[121.829,-4.012],[121.828,-4.0115],[121.8275,-4.012],[121.823,-4.0135],[121.8215,-4.016],[121.82,-4.017],[121.848,-4.035],[121.8715,-4.0365],[121.8735,-4.0415],[121.881,-4.0415],[121.8865,-4.042],[121.8875,-4.041],[121.8875,-4.0225],[121.887,-4.0225],[121.8785,-4.025],[121.8695,-4.024],[121.865,-4.022]]]},"properties":{"code":"74.11.01.2003","name":"Poni-Poniki","latitude":-4.0268715609530705,"longitude":121.85755185794577}},{"type":"Feature","geometry":{"type":"Polygon","coordinates":[[[121.9425,-4.0245],[121.941,-4.007],[121.9355,-4.001],[121.942,-3.9855],[121.942,-3.971],[121.956,-3.941],[121.957,-3.9395],[121.957,-3.9345],[121.953,-3.929],[121.9515,-3.928],[121.9475,-3.9265],[121.9355,-3.929],[121.9305,-3.935],[121.9415,-3.942],[121.9395,-3.956],[121.9275,-3.9695],[121.9275,-3.976],[121.926,-3.979],[121.9255,-3.9825],[121.9255,-3.986],[121.9285,-3.99],[121.9285,-3.993],[121.9315,-4.0035],[121.9265,-4.0185],[121.927,-4.023],[121.927,-4.025],[121.9255,-4.026],[121.9265,-4.0265],[121.933,-4.0295],[121.938,-4.031],[121.9385,-4.03],[121.9425,-4.0245]]]},"properties":{"code":"74.11.01.2004","name":"Tawainalu","latitude":-3.971566280048782,"longitude":121.9391456236226}},{"type":"Feature","geometry":{"type":"Polygon","coordinates":[[[121.918,-4.02],[121.9175,-4.02],[121.9035,-4.0045],[121.907,-4],[121.9055,-3.9995],[121.9045,-4],[121.903,-4.001],[121.8975,-4.01],[121.902,-4.0295],[121.903,-4.0305],[121.9125,-4.0325],[121.9165,-4.034],[121.92,-4.0305],[121.918,-4.02]]]},"properties":{"code":"74.11.01.2005","name":"Woiha","latitude":-4.01973393380948,"longitude":121.90794510939399}},{"type":"Feature","geometry":{"type":"Polygon","coordinates":[[[121.885,-4.0565],[121.88,-4.055],[121.8735,-4.0495],[121.866,-4.0465],[121.859,-4.048],[121.842,-4.042],[121.826,-4.0325],[121.8215,-4.032],[121.821,-4.031],[121.8185,-4.028],[121.8155,-4.0275],[121.815,-4.0275],[121.812,-4.0285],[121.8105,-4.0305],[121.81,-4.031],[121.8,-4.045],[121.7985,-4.046],[121.8235,-4.0515],[121.834,-4.0575],[121.8465,-4.0545],[121.855,-4.059],[121.8665,-4.0575],[121.881,-4.066],[121.8825,-4.066],[121.882,-4.0625],[121.885,-4.0565]]]},"properties":{"code":"74.11.01.2006","name":"Tasahea","latitude":-4.047554791104182,"longitude":121.8392192031664}},{"type":"Feature","geometry":{"type":"Polygon","coordinates":[[[121.9225,-4.039],[121.8965,-4.054],[121.8965,-4.057],[121.903,-4.066],[121.9045,-4.069],[121.9055,-4.0705],[121.908,-4.0745],[121.91,-4.0745],[121.9125,-4.0765],[121.9295,-4.087],[121.9295,-4.086],[121.929,-4.074],[121.931,-4.07],[121.9325,-4.069],[121.933,-4.068],[121.935,-4.067],[121.936,-4.0655],[121.9295,-4.053],[121.9285,-4.0505],[121.9225,-4.039]]]},"properties":{"code":"74.11.01.2007","name":"Lara","latitude":-4.061471070778926,"longitude":121.91737577639626}},{"type":"Feature","geometry":{"type":"Polygon","coordinates":[[[121.956,-3.9835],[121.9555,-3.983],[121.9525,-3.981],[121.9535,-4.015],[121.946,-4.021],[121.9425,-4.0245],[121.9385,-4.03],[121.937,-4.036],[121.944,-4.047],[121.9385,-4.0635],[121.9375,-4.064],[121.937,-4.065],[121.935,-4.067],[121.933,-4.068],[121.9325,-4.069],[121.931,-4.07],[121.929,-4.074],[121.9295,-4.086],[121.93,-4.0865],[121.934,-4.086],[121.9385,-4.079],[121.9555,-4.07],[121.956,-4.069],[121.9575,-4.068],[121.9585,-4.0665],[121.958,-4.0665],[121.952,-4.053],[121.9515,-4.0525],[121.9525,-4.033],[121.953,-4.032],[121.9525,-4.03],[121.9535,-4.0275],[121.9545,-4.027],[121.955,-4.026],[121.9585,-4.025],[121.9585,-4.023],[121.9645,-4.0005],[121.9655,-3.997],[121.9635,-3.9885],[121.9615,-3.9875],[121.956,-3.9835]]]},"properties":{"code":"74.11.01.2008","name":"Tumbudadio","latitude":-4.038377106828767,"longitude":121.94834982069105}},{"type":"Feature","geometry":{"type":"Polygon","coordinates":[[[121.917,-4.034],[121.9165,-4.034],[121.9125,-4.0325],[121.903,-4.0305],[121.902,-4.0295],[121.8975,-4.0525],[121.8975,-4.0515],[121.8935,-4.0515],[121.8935,-4.0545],[121.889,-4.0575],[121.886,-4.0625],[121.8835,-4.0665],[121.8845,-4.0665],[121.8955,-4.069],[121.9055,-4.0705],[121.9045,-4.069],[121.903,-4.066],[121.8965,-4.057],[121.8965,-4.054],[121.9225,-4.039],[121.9205,-4.035],[121.918,-4.0345],[121.917,-4.034]]]},"properties":{"code":"74.11.01.2009","name":"Orawa","latitude":-4.049326813015524,"longitude":121.901841039827}},{"type":"Feature","geometry":{"type":"Polygon","coordinates":[[[121.865,-4.022],[121.872,-4.01],[121.871,-3.9955],[121.875,-3.977],[121.867,-3.9595],[121.8665,-3.9505],[121.866,-3.947],[121.864,-3.9425],[121.8635,-3.9425],[121.861,-3.944],[121.857,-3.9465],[121.8485,-3.9655],[121.846,-3.969],[121.844,-3.9705],[121.836,-3.9735],[121.835,-3.976],[121.8345,-3.979],[121.834,-3.98],[121.835,-3.987],[121.8355,-3.989],[121.8345,-3.994],[121.8325,-3.998],[121.829,-4.0085],[121.828,-4.0115],[121.829,-4.012],[121.8365,-4.0115],[121.8395,-4.014],[121.8465,-4.0195],[121.865,-4.022]]]},"properties":{"code":"74.11.01.2010","name":"Lalingato","latitude":-3.987580828418938,"longitude":121.85452988496712}},{"type":"Feature","geometry":{"type":"Polygon","coordinates":[[[121.8865,-4.0495],[121.8935,-4.0445],[121.892,-4.0265],[121.8955,-4.016],[121.893,-4.017],[121.893,-4.0185],[121.8885,-4.0225],[121.8875,-4.0225],[121.8875,-4.041],[121.8865,-4.042],[121.881,-4.0415],[121.8735,-4.0415],[121.8715,-4.0365],[121.848,-4.035],[121.82,-4.017],[121.819,-4.017],[121.8185,-4.018],[121.816,-4.022],[121.8155,-4.0255],[121.8155,-4.0275],[121.8185,-4.028],[121.821,-4.031],[121.8215,-4.032],[121.826,-4.0325],[121.842,-4.042],[121.859,-4.048],[121.866,-4.0465],[121.8735,-4.0495],[121.88,-4.055],[121.885,-4.0565],[121.886,-4.0545],[121.8865,-4.0495]]]},"properties":{"code":"74.11.01.2011","name":"Tirawuta","latitude":-4.036617693694537,"longitude":121.85707478756271}},{"type":"Feature","geometry":{"type":"Polygon","coordinates":[[[121.938,-4.031],[121.933,-4.0295],[121.9265,-4.0265],[121.9255,-4.026],[121.9235,-4.0275],[121.92,-4.0305],[121.917,-4.034],[121.918,-4.0345],[121.9205,-4.035],[121.9225,-4.039],[121.9285,-4.0505],[121.9295,-4.053],[121.936,-4.0655],[121.937,-4.065],[121.9375,-4.064],[121.9385,-4.0635],[121.944,-4.047],[121.937,-4.036],[121.938,-4.031]]]},"properties":{"code":"74.11.01.2012","name":"Roko-roko","latitude":-4.044494631358737,"longitude":121.93254137115647}},{"type":"Feature","geometry":{"type":"Polygon","coordinates":[[[121.926,-3.9785],[121.9075,-3.9765],[121.8945,-3.9835],[121.8925,-3.9865],[121.89,-3.9915],[121.895,-4.0065],[121.893,-4.013],[121.893,-4.017],[121.8955,-4.016],[121.8965,-4.015],[121.8975,-4.011],[121.8975,-4.01],[121.903,-4.001],[121.9045,-4],[121.9055,-3.9995],[121.907,-4],[121.9035,-4.0045],[121.9175,-4.02],[121.923,-4.02],[121.927,-4.02],[121.9265,-4.0185],[121.9315,-4.0035],[121.9285,-3.993],[121.9285,-3.99],[121.9255,-3.986],[121.9255,-3.9825],[121.926,-3.979],[121.926,-3.9785]]]},"properties":{"code":"74.11.01.2013","name":"Loka","latitude":-3.997326436716287,"longitude":121.91260547397656}},{"type":"Feature","geometry":{"type":"Polygon","coordinates":[[[121.927,-4.02],[121.923,-4.02],[121.918,-4.02],[121.92,-4.0305],[121.9235,-4.0275],[121.925,-4.026],[121.927,-4.025],[121.927,-4.023],[121.927,-4.02]]]},"properties":{"code":"74.11.01.2014","name":"Matabondu","latitude":-4.024352472436574,"longitude":121.92145863818499}},{"type":"Feature","geometry":{"type":"Polygon","coordinates":[[[121.969,-3.9015],[121.9645,-3.9015],[121.943,-3.9115],[121.935,-3.927],[121.9335,-3.93],[121.9355,-3.929],[121.9475,-3.9265],[121.9515,-3.928],[121.953,-3.929],[121.957,-3.9345],[121.957,-3.9395],[121.956,-3.941],[121.942,-3.971],[121.942,-3.9855],[121.9355,-4.001],[121.941,-4.007],[121.9425,-4.0245],[121.946,-4.021],[121.9535,-4.015],[121.9525,-3.981],[121.9515,-3.98],[121.952,-3.979],[121.968,-3.955],[121.9685,-3.953],[121.969,-3.951],[121.9575,-3.9245],[121.9665,-3.918],[121.969,-3.9015]]]},"properties":{"code":"74.11.01.2015","name":"Karemotingge","latitude":-3.9590901698876477,"longitude":121.95213251566258}},{"type":"Feature","geometry":{"type":"Polygon","coordinates":[[[121.8925,-4.086],[121.893,-4.0855],[121.893,-4.0755],[121.8785,-4.0845],[121.8765,-4.087],[121.8765,-4.0885],[121.88,-4.0865],[121.8815,-4.087],[121.882,-4.0885],[121.8855,-4.0935],[121.888,-4.092],[121.8865,-4.0885],[121.8925,-4.086]]]},"properties":{"code":"74.11.02.1001","name":"Loea","latitude":-4.083607762057326,"longitude":121.88676513348572}},{"type":"Feature","geometry":{"type":"Polygon","coordinates":[[[121.7985,-4.046],[121.7975,-4.0455],[121.796,-4.045],[121.7945,-4.047],[121.7935,-4.05],[121.792,-4.052],[121.79,-4.0535],[121.791,-4.0535],[121.796,-4.0545],[121.808,-4.0575],[121.8115,-4.058],[121.8145,-4.0575],[121.8175,-4.0575],[121.833,-4.0605],[121.834,-4.0615],[121.8635,-4.0805],[121.8775,-4.086],[121.8785,-4.0845],[121.893,-4.0755],[121.8955,-4.069],[121.8845,-4.0665],[121.881,-4.066],[121.8665,-4.0575],[121.855,-4.059],[121.8465,-4.0545],[121.834,-4.0575],[121.8235,-4.0515],[121.7985,-4.046]]]},"properties":{"code":"74.11.02.1002","name":"Simbalae","latitude":-4.064942038692757,"longitude":121.85103364919296}},{"type":"Feature","geometry":{"type":"Polygon","coordinates":[[[121.8995,-4.098],[121.898,-4.095],[121.8985,-4.094],[121.8975,-4.092],[121.895,-4.091],[121.893,-4.0895],[121.892,-4.087],[121.8925,-4.086],[121.8865,-4.0885],[121.8925,-4.101],[121.8995,-4.098]]]},"properties":{"code":"74.11.02.2003","name":"Lamoare","latitude":-4.093784800515596,"longitude":121.89283214345527}},{"type":"Feature","geometry":{"type":"Polygon","coordinates":[[[121.971,-4.087],[121.967,-4.0835],[121.967,-4.082],[121.965,-4.079],[121.964,-4.0775],[121.963,-4.0765],[121.96,-4.0685],[121.9585,-4.0665],[121.9575,-4.068],[121.956,-4.069],[121.9555,-4.07],[121.9385,-4.079],[121.934,-4.086],[121.93,-4.0865],[121.9295,-4.089],[121.9295,-4.0905],[121.935,-4.0955],[121.935,-4.096],[121.936,-4.0975],[121.9365,-4.098],[121.936,-4.0985],[121.937,-4.098],[121.9385,-4.1],[121.939,-4.101],[121.938,-4.1015],[121.9385,-4.1035],[121.9375,-4.107],[121.937,-4.1075],[121.9375,-4.1075],[121.938,-4.1125],[121.9375,-4.1135],[121.938,-4.1155],[121.9395,-4.116],[121.9405,-4.1155],[121.9415,-4.1155],[121.942,-4.1165],[121.944,-4.117],[121.944,-4.1175],[121.945,-4.1205],[121.9685,-4.097],[121.97,-4.0915],[121.971,-4.087]]]},"properties":{"code":"74.11.02.2004","name":"Iwoikondo","latitude":-4.0929074960206675,"longitude":121.9503247985661}},{"type":"Feature","geometry":{"type":"Polygon","coordinates":[[[121.9295,-4.087],[121.9125,-4.0765],[121.9105,-4.0755],[121.9105,-4.081],[121.9125,-4.09],[121.915,-4.093],[121.9165,-4.0945],[121.9175,-4.094],[121.92,-4.0935],[121.9225,-4.0925],[121.9305,-4.0965],[121.931,-4.0965],[121.931,-4.0985],[121.9325,-4.0985],[121.9345,-4.0985],[121.936,-4.0975],[121.935,-4.096],[121.935,-4.0955],[121.9295,-4.0905],[121.9295,-4.089],[121.9295,-4.087]]]},"properties":{"code":"74.11.02.2005","name":"Peatoa","latitude":-4.087019600821446,"longitude":121.92040571617278}},{"type":"Feature","geometry":{"type":"Polygon","coordinates":[[[121.9055,-4.0705],[121.8955,-4.069],[121.893,-4.0755],[121.893,-4.0855],[121.892,-4.087],[121.893,-4.0895],[121.895,-4.091],[121.8975,-4.092],[121.8985,-4.094],[121.898,-4.095],[121.8995,-4.098],[121.901,-4.0975],[121.908,-4.0945],[121.9095,-4.0935],[121.914,-4.0945],[121.9165,-4.0945],[121.915,-4.093],[121.9125,-4.09],[121.9105,-4.081],[121.908,-4.078],[121.9105,-4.0755],[121.908,-4.0745],[121.9055,-4.0705]]]},"properties":{"code":"74.11.02.2006","name":"Lalowura","latitude":-4.084013400042645,"longitude":121.90255683328357}},{"type":"Feature","geometry":{"type":"Polygon","coordinates":[[[121.8855,-4.0935],[121.865,-4.0965],[121.8475,-4.0895],[121.842,-4.0825],[121.8155,-4.0775],[121.8015,-4.0665],[121.781,-4.066],[121.7805,-4.067],[121.7795,-4.068],[121.782,-4.0805],[121.783,-4.0825],[121.786,-4.0855],[121.7915,-4.0845],[121.827,-4.0885],[121.832,-4.096],[121.866,-4.102],[121.8695,-4.1025],[121.873,-4.1025],[121.876,-4.1015],[121.89,-4.096],[121.888,-4.092],[121.8855,-4.0935]]]},"properties":{"code":"74.11.02.2007","name":"Mataiwoi","latitude":-4.084582036933607,"longitude":121.82431839960812}},{"type":"Feature","geometry":{"type":"Polygon","coordinates":[[[121.89,-4.096],[121.876,-4.1015],[121.873,-4.1025],[121.8695,-4.1025],[121.866,-4.102],[121.832,-4.096],[121.827,-4.0885],[121.7915,-4.0845],[121.786,-4.0855],[121.783,-4.0825],[121.7825,-4.084],[121.7785,-4.089],[121.778,-4.101],[121.7785,-4.1015],[121.7785,-4.1045],[121.78,-4.111],[121.781,-4.11],[121.8,-4.1045],[121.8105,-4.1075],[121.8335,-4.106],[121.845,-4.1145],[121.863,-4.105],[121.8805,-4.1045],[121.8825,-4.105],[121.884,-4.105],[121.8925,-4.101],[121.89,-4.096]]]},"properties":{"code":"74.11.02.2008","name":"Teposua","latitude":-4.098583284715641,"longitude":121.81895465842423}},{"type":"Feature","geometry":{"type":"Polygon","coordinates":[[[121.8775,-4.086],[121.8635,-4.0805],[121.834,-4.0615],[121.833,-4.0605],[121.8175,-4.0575],[121.8145,-4.0575],[121.8115,-4.058],[121.808,-4.0575],[121.796,-4.0545],[121.791,-4.0535],[121.79,-4.0535],[121.7885,-4.0535],[121.785,-4.055],[121.782,-4.0585],[121.781,-4.0625],[121.781,-4.066],[121.8015,-4.0665],[121.8155,-4.0775],[121.842,-4.0825],[121.8475,-4.0895],[121.865,-4.0965],[121.8855,-4.0935],[121.882,-4.0885],[121.8815,-4.087],[121.88,-4.0865],[121.8765,-4.0885],[121.8765,-4.087],[121.8775,-4.086]]]},"properties":{"code":"74.11.02.2009","name":"Tinomu","latitude":-4.073982188459114,"longitude":121.83345353457246}},{"type":"Feature","geometry":{"type":"Polygon","coordinates":[[[121.945,-4.1205],[121.944,-4.1175],[121.944,-4.117],[121.942,-4.1165],[121.9415,-4.1155],[121.9405,-4.1155],[121.9395,-4.116],[121.938,-4.1155],[121.9375,-4.1135],[121.938,-4.1125],[121.9375,-4.1075],[121.937,-4.1075],[121.9335,-4.1085],[121.905,-4.122],[121.8965,-4.123],[121.8935,-4.123],[121.892,-4.1225],[121.8915,-4.1235],[121.8905,-4.125],[121.8895,-4.1345],[121.88,-4.1385],[121.88,-4.146],[121.8785,-4.147],[121.878,-4.1485],[121.8785,-4.1485],[121.88,-4.148],[121.8795,-4.147],[121.8825,-4.1485],[121.887,-4.1505],[121.8905,-4.1485],[121.89,-4.15],[121.9095,-4.135],[121.91,-4.134],[121.9105,-4.1335],[121.9115,-4.133],[121.915,-4.133],[121.917,-4.1345],[121.9205,-4.135],[121.9215,-4.1345],[121.923,-4.1355],[121.925,-4.135],[121.9255,-4.135],[121.9265,-4.134],[121.927,-4.1345],[121.928,-4.134],[121.929,-4.133],[121.9305,-4.132],[121.9305,-4.1315],[121.9315,-4.1305],[121.944,-4.1275],[121.945,-4.127],[121.945,-4.1205]]]},"properties":{"code":"74.11.03.1001","name":"Ladongi","latitude":-4.128432514382703,"longitude":121.91241996368849}},{"type":"Feature","geometry":{"type":"Polygon","coordinates":[[[121.922,-4.135],[121.9215,-4.1345],[121.9205,-4.135],[121.917,-4.1345],[121.915,-4.133],[121.9115,-4.133],[121.9105,-4.1335],[121.91,-4.134],[121.9095,-4.135],[121.89,-4.15],[121.8905,-4.1485],[121.887,-4.1505],[121.8825,-4.1485],[121.8795,-4.147],[121.88,-4.148],[121.8785,-4.1485],[121.878,-4.1485],[121.8775,-4.148],[121.877,-4.147],[121.874,-4.1465],[121.8735,-4.147],[121.873,-4.145],[121.8575,-4.1415],[121.8435,-4.152],[121.8085,-4.1505],[121.804,-4.1505],[121.8,-4.1545],[121.797,-4.1575],[121.7955,-4.158],[121.7935,-4.1575],[121.7775,-4.1585],[121.7775,-4.163],[121.7775,-4.165],[121.7785,-4.1665],[121.7795,-4.1725],[121.788,-4.171],[121.803,-4.1695],[121.805,-4.1695],[121.807,-4.1705],[121.808,-4.17],[121.8125,-4.168],[121.813,-4.168],[121.816,-4.17],[121.822,-4.1695],[121.8305,-4.166],[121.836,-4.164],[121.853,-4.1595],[121.856,-4.1575],[121.8705,-4.153],[121.896,-4.1595],[121.911,-4.1555],[121.9385,-4.152],[121.9365,-4.1385],[121.931,-4.1395],[121.922,-4.135]]]},"properties":{"code":"74.11.03.1002","name":"Atula","latitude":-4.153862598117985,"longitude":121.85818407356248}},{"type":"Feature","geometry":{"type":"Polygon","coordinates":[[[121.9555,-4.1595],[121.9245,-4.16],[121.9255,-4.167],[121.899,-4.1675],[121.9105,-4.179],[121.9125,-4.1815],[121.9175,-4.187],[121.921,-4.1905],[121.9235,-4.19],[121.9245,-4.1875],[121.9315,-4.1795],[121.9365,-4.179],[121.937,-4.1755],[121.9515,-4.173],[121.9575,-4.167],[121.9585,-4.1655],[121.954,-4.164],[121.9555,-4.1595]]]},"properties":{"code":"74.11.03.1003","name":"Raa-Raa","latitude":-4.171481072944001,"longitude":121.92965101074455}},{"type":"Feature","geometry":{"type":"Polygon","coordinates":[[[121.9555,-4.1595],[121.9565,-4.162],[121.9575,-4.1635],[121.959,-4.163],[121.9605,-4.162],[121.9605,-4.1635],[121.961,-4.1645],[121.9625,-4.1625],[121.9635,-4.162],[121.9655,-4.161],[121.9675,-4.1575],[121.968,-4.155],[121.9675,-4.1535],[121.9675,-4.1525],[121.9435,-4.1515],[121.911,-4.1555],[121.896,-4.1595],[121.8705,-4.153],[121.856,-4.1575],[121.856,-4.1585],[121.8865,-4.159],[121.891,-4.16],[121.899,-4.1675],[121.9255,-4.167],[121.9245,-4.16],[121.9555,-4.1595]]]},"properties":{"code":"74.11.03.1004","name":"Welala","latitude":-4.158480618693201,"longitude":121.91992541403727}},{"type":"Feature","geometry":{"type":"Polygon","coordinates":[[[121.931,-4.097],[121.9305,-4.0965],[121.9225,-4.0925],[121.9215,-4.093],[121.9175,-4.094],[121.914,-4.0945],[121.9095,-4.0935],[121.908,-4.0945],[121.901,-4.0975],[121.884,-4.105],[121.8825,-4.105],[121.882,-4.105],[121.882,-4.1065],[121.883,-4.109],[121.8855,-4.111],[121.8845,-4.1155],[121.884,-4.1175],[121.888,-4.1175],[121.91,-4.107],[121.922,-4.1005],[121.931,-4.097]]]},"properties":{"code":"74.11.03.2005","name":"Putemata","latitude":-4.1037910040862915,"longitude":121.903432528887}},{"type":"Feature","geometry":{"type":"Polygon","coordinates":[[[121.9365,-4.098],[121.9345,-4.0985],[121.9325,-4.0985],[121.931,-4.097],[121.922,-4.1005],[121.91,-4.107],[121.888,-4.1175],[121.892,-4.1215],[121.8935,-4.123],[121.8965,-4.123],[121.905,-4.122],[121.9335,-4.1085],[121.9375,-4.107],[121.9385,-4.1035],[121.938,-4.1015],[121.939,-4.101],[121.9385,-4.1],[121.937,-4.098],[121.936,-4.0985],[121.9365,-4.098]]]},"properties":{"code":"74.11.03.2009","name":"Lalowosula","latitude":-4.110887199085339,"longitude":121.91478131900782}},{"type":"Feature","geometry":{"type":"Polygon","coordinates":[[[121.9895,-4.1295],[121.984,-4.1225],[121.992,-4.1125],[121.9875,-4.0965],[121.9715,-4.0885],[121.971,-4.087],[121.97,-4.0915],[121.9685,-4.097],[121.945,-4.1205],[121.945,-4.127],[121.944,-4.1275],[121.9315,-4.1305],[121.9305,-4.1315],[121.9305,-4.132],[121.929,-4.133],[121.928,-4.134],[121.927,-4.1345],[121.9265,-4.134],[121.9255,-4.135],[121.925,-4.135],[121.923,-4.1355],[121.922,-4.135],[121.931,-4.1395],[121.95,-4.1355],[121.959,-4.1345],[121.9735,-4.1345],[121.98,-4.135],[121.981,-4.135],[121.9805,-4.1335],[121.9895,-4.1295]]]},"properties":{"code":"74.11.03.2010","name":"Wunggoloko","latitude":-4.117946889198458,"longitude":121.96584685386144}},{"type":"Feature","geometry":{"type":"Polygon","coordinates":[[[121.882,-4.105],[121.8805,-4.1045],[121.863,-4.105],[121.845,-4.1145],[121.8335,-4.106],[121.8105,-4.1075],[121.8,-4.1045],[121.781,-4.11],[121.78,-4.111],[121.7675,-4.1275],[121.7655,-4.1295],[121.7645,-4.1305],[121.764,-4.1345],[121.7715,-4.1425],[121.7735,-4.145],[121.7795,-4.1385],[121.7815,-4.139],[121.8145,-4.1375],[121.8205,-4.14],[121.822,-4.14],[121.8245,-4.1385],[121.8265,-4.139],[121.829,-4.139],[121.8305,-4.139],[121.84,-4.1365],[121.8425,-4.137],[121.845,-4.136],[121.8455,-4.135],[121.85,-4.135],[121.8515,-4.1355],[121.8545,-4.1345],[121.8595,-4.131],[121.8615,-4.129],[121.8625,-4.1285],[121.8685,-4.1255],[121.8705,-4.124],[121.875,-4.1235],[121.883,-4.1185],[121.8845,-4.1155],[121.8855,-4.111],[121.883,-4.109],[121.882,-4.1065],[121.882,-4.105]]]},"properties":{"code":"74.11.03.2011","name":"Anggaloosi","latitude":-4.122207950548092,"longitude":121.82093955853404}},{"type":"Feature","geometry":{"type":"Polygon","coordinates":[[[121.981,-4.135],[121.98,-4.135],[121.9735,-4.1345],[121.959,-4.1345],[121.95,-4.1355],[121.9365,-4.1385],[121.9385,-4.152],[121.9435,-4.1515],[121.9745,-4.15],[121.981,-4.1355],[121.981,-4.135]]]},"properties":{"code":"74.11.03.2013","name":"Pombeyoha","latitude":-4.142822859597236,"longitude":121.95742989700233}},{"type":"Feature","geometry":{"type":"Polygon","coordinates":[[[121.892,-4.1225],[121.892,-4.1215],[121.888,-4.1175],[121.884,-4.1175],[121.883,-4.1185],[121.875,-4.1235],[121.8705,-4.124],[121.8685,-4.1255],[121.8625,-4.1285],[121.8615,-4.129],[121.8595,-4.131],[121.8545,-4.1345],[121.8515,-4.1355],[121.85,-4.135],[121.8455,-4.135],[121.845,-4.136],[121.8425,-4.137],[121.84,-4.1365],[121.8305,-4.139],[121.829,-4.139],[121.8265,-4.139],[121.8245,-4.1385],[121.822,-4.14],[121.8205,-4.14],[121.8145,-4.1375],[121.7815,-4.139],[121.7795,-4.1385],[121.7735,-4.145],[121.775,-4.1515],[121.7775,-4.1585],[121.7935,-4.1575],[121.7955,-4.158],[121.797,-4.1575],[121.8,-4.1545],[121.804,-4.1505],[121.8085,-4.1505],[121.8435,-4.152],[121.8575,-4.1415],[121.873,-4.145],[121.8735,-4.147],[121.874,-4.1465],[121.877,-4.147],[121.8775,-4.148],[121.878,-4.1485],[121.8785,-4.147],[121.88,-4.146],[121.88,-4.1385],[121.8895,-4.1345],[121.8905,-4.125],[121.8915,-4.1235],[121.892,-4.1225]]]},"properties":{"code":"74.11.03.2018","name":"Tongandiu","latitude":-4.141390920686899,"longitude":121.83166931654709}},{"type":"Feature","geometry":{"type":"Polygon","coordinates":[[[121.9105,-4.1895],[121.9105,-4.188],[121.8895,-4.185],[121.896,-4.193],[121.897,-4.1945],[121.8975,-4.196],[121.899,-4.1985],[121.9005,-4.1985],[121.903,-4.201],[121.904,-4.202],[121.9055,-4.2055],[121.9055,-4.2065],[121.9095,-4.206],[121.9105,-4.1895]]]},"properties":{"code":"74.11.04.1001","name":"Poli-Polia","latitude":-4.193791674108382,"longitude":121.90286385485793}},{"type":"Feature","geometry":{"type":"Polygon","coordinates":[[[121.9235,-4.19],[121.921,-4.1905],[121.9175,-4.188],[121.913,-4.19],[121.9105,-4.1895],[121.9095,-4.206],[121.9085,-4.2355],[121.9195,-4.2415],[121.9195,-4.2425],[121.9185,-4.242],[121.9165,-4.2425],[121.917,-4.2435],[121.928,-4.244],[121.933,-4.228],[121.933,-4.2205],[121.929,-4.2205],[121.929,-4.205],[121.9285,-4.205],[121.9265,-4.205],[121.9245,-4.204],[121.9235,-4.19]]]},"properties":{"code":"74.11.04.2002","name":"Wia-Wia","latitude":-4.216897739633625,"longitude":121.9191138247887}},{"type":"Feature","geometry":{"type":"Polygon","coordinates":[[[121.899,-4.1675],[121.891,-4.16],[121.8865,-4.159],[121.856,-4.1585],[121.856,-4.159],[121.867,-4.1755],[121.8605,-4.188],[121.863,-4.1875],[121.8715,-4.185],[121.8785,-4.1805],[121.8895,-4.185],[121.9105,-4.188],[121.913,-4.19],[121.9175,-4.188],[121.9175,-4.187],[121.9125,-4.1815],[121.9105,-4.179],[121.899,-4.1675]]]},"properties":{"code":"74.11.04.2003","name":"Pangi-Pangi","latitude":-4.173814623422704,"longitude":121.88529492298687}},{"type":"Feature","geometry":{"type":"Polygon","coordinates":[[[121.9095,-4.206],[121.9055,-4.2065],[121.8965,-4.2175],[121.894,-4.218],[121.8905,-4.2185],[121.89,-4.235],[121.891,-4.235],[121.9085,-4.2355],[121.9095,-4.206]]]},"properties":{"code":"74.11.04.2004","name":"Tokai","latitude":-4.224144199212497,"longitude":121.90070382830618}},{"type":"Feature","geometry":{"type":"Polygon","coordinates":[[[121.8905,-4.2185],[121.8865,-4.2055],[121.884,-4.2045],[121.8695,-4.203],[121.86,-4.214],[121.8685,-4.2275],[121.866,-4.2445],[121.881,-4.244],[121.8825,-4.242],[121.884,-4.2415],[121.885,-4.2405],[121.8895,-4.235],[121.89,-4.235],[121.8905,-4.2185]]]},"properties":{"code":"74.11.04.2005","name":"Andowengga","latitude":-4.222875592017163,"longitude":121.87634319307462}},{"type":"Feature","geometry":{"type":"Polygon","coordinates":[[[121.8895,-4.185],[121.8785,-4.1805],[121.8715,-4.185],[121.863,-4.1875],[121.8625,-4.1875],[121.8695,-4.203],[121.884,-4.2045],[121.8865,-4.2055],[121.8905,-4.2185],[121.894,-4.218],[121.8965,-4.208],[121.9055,-4.2065],[121.9055,-4.2055],[121.904,-4.202],[121.903,-4.201],[121.9005,-4.1985],[121.899,-4.1985],[121.8975,-4.196],[121.897,-4.1945],[121.896,-4.193],[121.8895,-4.185]]]},"properties":{"code":"74.11.04.2006","name":"Taosu","latitude":-4.196562249243745,"longitude":121.88381348981547}},{"type":"Feature","geometry":{"type":"Polygon","coordinates":[[[121.9405,-4.2145],[121.9385,-4.203],[121.931,-4.205],[121.929,-4.205],[121.929,-4.2205],[121.933,-4.2205],[121.933,-4.2145],[121.9405,-4.2145]]]},"properties":{"code":"74.11.04.2007","name":"Pole Maju Jaya","latitude":-4.210943542351401,"longitude":121.9338104681606}},{"type":"Feature","geometry":{"type":"Polygon","coordinates":[[[121.953,-4.217],[121.9405,-4.218],[121.9405,-4.2145],[121.933,-4.2145],[121.933,-4.228],[121.928,-4.244],[121.949,-4.244],[121.9495,-4.229],[121.955,-4.229],[121.953,-4.217]]]},"properties":{"code":"74.11.04.2008","name":"Polenga Jaya","latitude":-4.230269054123849,"longitude":121.94017924396405}},{"type":"Feature","geometry":{"type":"Polygon","coordinates":[[[121.856,-4.159],[121.853,-4.1595],[121.836,-4.164],[121.8305,-4.166],[121.822,-4.1695],[121.816,-4.17],[121.813,-4.168],[121.8125,-4.168],[121.808,-4.17],[121.807,-4.1705],[121.805,-4.1695],[121.803,-4.1695],[121.788,-4.171],[121.7795,-4.1725],[121.7795,-4.1745],[121.7795,-4.1765],[121.7805,-4.181],[121.78,-4.1815],[121.7865,-4.194],[121.7975,-4.1985],[121.7995,-4.204],[121.8025,-4.206],[121.835,-4.2025],[121.849,-4.1995],[121.854,-4.1905],[121.8605,-4.188],[121.867,-4.1755],[121.856,-4.159]]]},"properties":{"code":"74.11.04.2009","name":"Wundubite","latitude":-4.183004462471386,"longitude":121.82498454377772}},{"type":"Feature","geometry":{"type":"Polygon","coordinates":[[[121.8695,-4.203],[121.8625,-4.1875],[121.854,-4.1905],[121.849,-4.1995],[121.835,-4.2025],[121.8025,-4.206],[121.8155,-4.2195],[121.8245,-4.218],[121.849,-4.219],[121.86,-4.214],[121.8695,-4.203]]]},"properties":{"code":"74.11.04.2010","name":"Hakambololi","latitude":-4.207532817486574,"longitude":121.83953207457814}},{"type":"Feature","geometry":{"type":"Polygon","coordinates":[[[121.9055,-4.2065],[121.8965,-4.208],[121.8965,-4.2175],[121.9055,-4.2065]]]},"properties":{"code":"74.11.04.2011","name":"Inotu Mewao","latitude":-4.21237490106893,"longitude":121.9008956252276}},{"type":"Feature","geometry":{"type":"Polygon","coordinates":[[[121.86,-4.214],[121.849,-4.219],[121.8245,-4.218],[121.816,-4.2195],[121.82,-4.221],[121.8225,-4.2245],[121.836,-4.2355],[121.8415,-4.2475],[121.853,-4.2445],[121.8565,-4.2465],[121.866,-4.2445],[121.8685,-4.2275],[121.86,-4.214]]]},"properties":{"code":"74.11.04.2012","name":"Puundokulo","latitude":-4.229926522841276,"longitude":121.84730699584237}},{"type":"Feature","geometry":{"type":"Polygon","coordinates":[[[121.9395,-4.2825],[121.938,-4.283],[121.938,-4.284],[121.9375,-4.284],[121.937,-4.2835],[121.9345,-4.284],[121.9305,-4.283],[121.928,-4.2825],[121.926,-4.2815],[121.9235,-4.2825],[121.9225,-4.283],[121.923,-4.308],[121.9315,-4.319],[121.9495,-4.322],[121.9515,-4.3045],[121.957,-4.298],[121.956,-4.2955],[121.9425,-4.284],[121.941,-4.284],[121.9395,-4.2825]]]},"properties":{"code":"74.11.05.1002","name":"Penanggo Jaya","latitude":-4.300804800655568,"longitude":121.93778353761853}},{"type":"Feature","geometry":{"type":"Polygon","coordinates":[[[121.922,-4.254],[121.891,-4.254],[121.8915,-4.257],[121.8915,-4.2635],[121.8915,-4.2725],[121.8925,-4.272],[121.8935,-4.2725],[121.896,-4.2715],[121.8965,-4.272],[121.8965,-4.2725],[121.896,-4.275],[121.899,-4.275],[121.9205,-4.2825],[121.921,-4.2825],[121.9215,-4.2825],[121.9235,-4.2825],[121.926,-4.2815],[121.928,-4.2825],[121.9305,-4.283],[121.9345,-4.284],[121.937,-4.2835],[121.9375,-4.284],[121.938,-4.284],[121.938,-4.283],[121.9395,-4.2825],[121.939,-4.282],[121.939,-4.2815],[121.939,-4.2805],[121.935,-4.272],[121.9225,-4.2645],[121.922,-4.254]]]},"properties":{"code":"74.11.05.2001","name":"Wonuambuteo","latitude":-4.268270229525726,"longitude":121.9128429298109}},{"type":"Feature","geometry":{"type":"Polygon","coordinates":[[[121.9505,-4.3345],[121.927,-4.3325],[121.913,-4.3355],[121.913,-4.3365],[121.912,-4.337],[121.9115,-4.339],[121.9105,-4.34],[121.909,-4.34],[121.9065,-4.3405],[121.9045,-4.342],[121.9015,-4.3435],[121.9,-4.3445],[121.899,-4.346],[121.8915,-4.3525],[121.8895,-4.3585],[121.8835,-4.3715],[121.8825,-4.3765],[121.909,-4.3845],[121.925,-4.393],[121.9275,-4.372],[121.9405,-4.359],[121.9435,-4.3485],[121.958,-4.3525],[121.9605,-4.3505],[121.961,-4.349],[121.9605,-4.348],[121.9605,-4.3455],[121.957,-4.3395],[121.957,-4.339],[121.9505,-4.3345]]]},"properties":{"code":"74.11.05.2003","name":"Mokupa","latitude":-4.35809818929855,"longitude":121.9188324536761}},{"type":"Feature","geometry":{"type":"Polygon","coordinates":[[[121.895,-4.2855],[121.895,-4.2875],[121.8735,-4.286],[121.8685,-4.289],[121.8675,-4.291],[121.8705,-4.2925],[121.8895,-4.2915],[121.8875,-4.3145],[121.9095,-4.306],[121.9095,-4.305],[121.91,-4.2875],[121.902,-4.2875],[121.9025,-4.2855],[121.895,-4.2855]]]},"properties":{"code":"74.11.05.2005","name":"Penanggoosi","latitude":-4.297626972756833,"longitude":121.89469260551742}},{"type":"Feature","geometry":{"type":"Polygon","coordinates":[[[121.986,-4.332],[121.9635,-4.3245],[121.9525,-4.3225],[121.9515,-4.3275],[121.9495,-4.327],[121.9505,-4.3285],[121.9505,-4.3345],[121.957,-4.339],[121.957,-4.3395],[121.9605,-4.3455],[121.961,-4.3485],[121.9625,-4.3495],[121.9645,-4.351],[121.996,-4.354],[121.9855,-4.338],[121.986,-4.332]]]},"properties":{"code":"74.11.05.2007","name":"Lowa","latitude":-4.33926091417485,"longitude":121.97187051790434}},{"type":"Feature","geometry":{"type":"Polygon","coordinates":[[[122.0135,-4.291],[121.991,-4.293],[121.9775,-4.293],[121.973,-4.2955],[121.9715,-4.315],[121.982,-4.3205],[121.986,-4.3295],[121.9855,-4.3095],[122.011,-4.308],[122.0125,-4.2985],[122.0135,-4.291]]]},"properties":{"code":"74.11.05.2008","name":"Atolanu","latitude":-4.30335055760549,"longitude":121.99068916596244}},{"type":"Feature","geometry":{"type":"Polygon","coordinates":[[[122.011,-4.308],[121.9855,-4.3095],[121.986,-4.3295],[121.9855,-4.338],[121.996,-4.354],[122,-4.3565],[122.004,-4.3465],[122.005,-4.3355],[122.0085,-4.323],[122.011,-4.308]]]},"properties":{"code":"74.11.05.2009","name":"Lere Jaya","latitude":-4.328022174558628,"longitude":121.9969498188663}},{"type":"Feature","geometry":{"type":"Polygon","coordinates":[[[121.996,-4.354],[121.9645,-4.351],[121.9625,-4.3495],[121.961,-4.3485],[121.961,-4.349],[121.9605,-4.3505],[121.9605,-4.3525],[121.9465,-4.374],[121.948,-4.402],[121.9715,-4.4065],[121.986,-4.403],[121.9975,-4.3935],[121.989,-4.377],[121.9895,-4.3725],[121.9925,-4.365],[122,-4.3565],[121.996,-4.354]]]},"properties":{"code":"74.11.05.2010","name":"Bou","latitude":-4.379309798219328,"longitude":121.97127566145289}},{"type":"Feature","geometry":{"type":"Polygon","coordinates":[[[121.9225,-4.283],[121.9215,-4.2825],[121.921,-4.2825],[121.9205,-4.2825],[121.899,-4.275],[121.896,-4.275],[121.8955,-4.2795],[121.895,-4.2855],[121.9025,-4.2855],[121.902,-4.2875],[121.91,-4.2875],[121.9095,-4.305],[121.91,-4.305],[121.9105,-4.3055],[121.923,-4.308],[121.9225,-4.283]]]},"properties":{"code":"74.11.05.2012","name":"Lambandia","latitude":-4.289958472877697,"longitude":121.91196994656977}},{"type":"Feature","geometry":{"type":"Polygon","coordinates":[[[121.973,-4.2955],[121.9695,-4.2955],[121.9575,-4.296],[121.957,-4.298],[121.9515,-4.3045],[121.9495,-4.322],[121.9495,-4.327],[121.9515,-4.3275],[121.9525,-4.3225],[121.9635,-4.3245],[121.986,-4.332],[121.986,-4.3295],[121.982,-4.3205],[121.9715,-4.315],[121.973,-4.2955]]]},"properties":{"code":"74.11.05.2013","name":"Inotu","latitude":-4.3129529724759,"longitude":121.96457556636885}},{"type":"Feature","geometry":{"type":"Polygon","coordinates":[[[121.928,-4.244],[121.917,-4.2435],[121.9165,-4.2485],[121.922,-4.254],[121.9225,-4.2645],[121.935,-4.272],[121.939,-4.2805],[121.939,-4.2815],[121.939,-4.282],[121.9395,-4.2825],[121.941,-4.284],[121.9425,-4.284],[121.956,-4.2955],[121.952,-4.283],[121.9665,-4.264],[121.967,-4.2445],[121.949,-4.244],[121.928,-4.244]]]},"properties":{"code":"74.11.05.2018","name":"Lalolera","latitude":-4.261907047250216,"longitude":121.94492297038067}},{"type":"Feature","geometry":{"type":"Polygon","coordinates":[[[121.9085,-4.2355],[121.891,-4.235],[121.8895,-4.235],[121.885,-4.2405],[121.884,-4.2415],[121.8825,-4.243],[121.8925,-4.2415],[121.891,-4.254],[121.922,-4.254],[121.9165,-4.2485],[121.9165,-4.2425],[121.9185,-4.242],[121.9195,-4.2425],[121.9195,-4.2415],[121.9085,-4.2355]]]},"properties":{"code":"74.11.05.2019","name":"Pomburea","latitude":-4.244761422180353,"longitude":121.90387837919381}},{"type":"Feature","geometry":{"type":"Polygon","coordinates":[[[121.923,-4.308],[121.9105,-4.3055],[121.91,-4.305],[121.9095,-4.306],[121.8875,-4.3145],[121.884,-4.3225],[121.86,-4.337],[121.8595,-4.35],[121.8605,-4.354],[121.8595,-4.3585],[121.8585,-4.368],[121.8485,-4.39],[121.8425,-4.394],[121.842,-4.395],[121.8425,-4.397],[121.8425,-4.4],[121.846,-4.398],[121.8695,-4.3845],[121.8835,-4.3715],[121.8895,-4.3585],[121.8915,-4.3525],[121.899,-4.346],[121.9,-4.3445],[121.9015,-4.3435],[121.9045,-4.342],[121.9065,-4.3405],[121.909,-4.34],[121.9105,-4.34],[121.9115,-4.339],[121.912,-4.337],[121.9125,-4.337],[121.912,-4.325],[121.9315,-4.319],[121.923,-4.308]]]},"properties":{"code":"74.11.05.2021","name":"Penanggootu","latitude":-4.345309969172049,"longitude":121.88448008343381}},{"type":"Feature","geometry":{"type":"Polygon","coordinates":[[[121.9315,-4.319],[121.912,-4.325],[121.9125,-4.337],[121.913,-4.3365],[121.913,-4.3355],[121.927,-4.3325],[121.9505,-4.3345],[121.9505,-4.3285],[121.9495,-4.327],[121.9495,-4.322],[121.9315,-4.319]]]},"properties":{"code":"74.11.05.2022","name":"Mondoke","latitude":-4.327530113676357,"longitude":121.93112321584394}},{"type":"Feature","geometry":{"type":"Polygon","coordinates":[[[121.9605,-4.3525],[121.958,-4.3525],[121.9435,-4.3485],[121.9405,-4.359],[121.9275,-4.372],[121.925,-4.393],[121.9405,-4.4005],[121.948,-4.402],[121.9465,-4.374],[121.9605,-4.3525]]]},"properties":{"code":"74.11.05.2026","name":"Onemanu","latitude":-4.375936057283368,"longitude":121.94075762668905}},{"type":"Feature","geometry":{"type":"Polygon","coordinates":[[[121.794,-3.985],[121.785,-3.9855],[121.7775,-3.9855],[121.771,-3.9855],[121.774,-3.994],[121.7745,-4.0245],[121.7595,-4.041],[121.7575,-4.0425],[121.757,-4.0425],[121.756,-4.043],[121.7595,-4.046],[121.7785,-4.05],[121.785,-4.055],[121.7885,-4.0535],[121.792,-4.052],[121.7935,-4.05],[121.7945,-4.047],[121.795,-4.0455],[121.7945,-4.0445],[121.7915,-4.0395],[121.7865,-4.0355],[121.79,-4.02],[121.7915,-4],[121.794,-3.985]]]},"properties":{"code":"74.11.06.1001","name":"Lalolae","latitude":-4.021407666818182,"longitude":121.78052076156612}},{"type":"Feature","geometry":{"type":"Polygon","coordinates":[[[121.7995,-3.9855],[121.7975,-3.985],[121.794,-3.985],[121.7915,-4],[121.79,-4.02],[121.7865,-4.0355],[121.7915,-4.0395],[121.7945,-4.0445],[121.795,-4.0455],[121.796,-4.045],[121.7975,-4.0455],[121.8,-4.045],[121.81,-4.031],[121.8035,-4.0195],[121.7955,-4.015],[121.803,-4.0015],[121.7995,-3.9855]]]},"properties":{"code":"74.11.06.2002","name":"Keisio","latitude":-4.02045322776918,"longitude":121.7971556019498}},{"type":"Feature","geometry":{"type":"Polygon","coordinates":[[[121.834,-3.98],[121.825,-3.984],[121.8235,-3.985],[121.818,-3.986],[121.811,-3.9855],[121.8105,-3.9935],[121.813,-4.0015],[121.823,-4.0135],[121.8275,-4.012],[121.829,-4.0085],[121.8325,-3.998],[121.8345,-3.994],[121.8355,-3.989],[121.835,-3.987],[121.834,-3.98]]]},"properties":{"code":"74.11.06.2003","name":"Talodo","latitude":-3.995387284297349,"longitude":121.82353189594568}},{"type":"Feature","geometry":{"type":"Polygon","coordinates":[[[121.811,-3.9855],[121.7995,-3.9855],[121.803,-4.0015],[121.7955,-4.015],[121.8035,-4.0195],[121.81,-4.031],[121.8105,-4.0305],[121.812,-4.0285],[121.815,-4.0275],[121.8155,-4.0255],[121.816,-4.022],[121.8185,-4.018],[121.819,-4.017],[121.8215,-4.016],[121.823,-4.0135],[121.813,-4.0015],[121.8105,-3.9935],[121.811,-3.9855]]]},"properties":{"code":"74.11.06.2004","name":"Lalosingi","latitude":-4.00890770653548,"longitude":121.80811275977713}},{"type":"Feature","geometry":{"type":"Polygon","coordinates":[[[121.771,-3.9855],[121.7635,-3.986],[121.7615,-3.9865],[121.7625,-3.9945],[121.7625,-3.9965],[121.763,-3.997],[121.7615,-3.999],[121.76,-4.0015],[121.7585,-4.004],[121.754,-4.013],[121.757,-4.0245],[121.7565,-4.027],[121.755,-4.027],[121.7565,-4.0415],[121.7575,-4.0425],[121.7595,-4.041],[121.7745,-4.0245],[121.774,-3.994],[121.771,-3.9855]]]},"properties":{"code":"74.11.06.2005","name":"Wesalo","latitude":-4.014651729091692,"longitude":121.76454600817392}},{"type":"Feature","geometry":{"type":"Polygon","coordinates":[[[121.7475,-3.95],[121.7375,-3.9365],[121.7225,-3.9505],[121.7195,-3.9605],[121.726,-3.973],[121.731,-3.964],[121.7335,-3.963],[121.7475,-3.9515],[121.7475,-3.95]]]},"properties":{"code":"74.11.07.1001","name":"Woitombo","latitude":-3.9537383851981986,"longitude":121.73323908980802}},{"type":"Feature","geometry":{"type":"Polygon","coordinates":[[[121.7455,-3.975],[121.744,-3.973],[121.7315,-3.9645],[121.7315,-3.9635],[121.731,-3.964],[121.726,-3.973],[121.7245,-3.9785],[121.723,-3.98],[121.723,-3.981],[121.725,-3.9825],[121.726,-3.9855],[121.729,-3.9855],[121.7395,-3.981],[121.7425,-3.9785],[121.7455,-3.975]]]},"properties":{"code":"74.11.07.1002","name":"Inebenggi","latitude":-3.9758629035183497,"longitude":121.73302579220379}},{"type":"Feature","geometry":{"type":"Polygon","coordinates":[[[121.7625,-3.996],[121.744,-3.9895],[121.742,-3.9815],[121.7365,-3.996],[121.713,-4.018],[121.713,-4.0185],[121.7145,-4.021],[121.715,-4.0245],[121.716,-4.0245],[121.718,-4.024],[121.732,-4.0365],[121.73,-4.0435],[121.729,-4.045],[121.7275,-4.0485],[121.7275,-4.0495],[121.727,-4.05],[121.7265,-4.051],[121.7255,-4.053],[121.7275,-4.054],[121.729,-4.0545],[121.73,-4.055],[121.739,-4.0485],[121.749,-4.049],[121.7495,-4.049],[121.75,-4.047],[121.756,-4.043],[121.757,-4.0425],[121.7565,-4.0415],[121.755,-4.027],[121.7565,-4.027],[121.757,-4.0245],[121.754,-4.013],[121.7585,-4.004],[121.76,-4.0015],[121.7615,-3.999],[121.763,-3.997],[121.7625,-3.9965],[121.7625,-3.996]]]},"properties":{"code":"74.11.07.1004","name":"Horodopi","latitude":-4.019645590659156,"longitude":121.73983384765387}},{"type":"Feature","geometry":{"type":"Polygon","coordinates":[[[121.736,-3.9285],[121.725,-3.93],[121.7155,-3.941],[121.7005,-3.944],[121.7085,-3.9595],[121.7195,-3.9605],[121.7225,-3.9505],[121.7375,-3.9365],[121.736,-3.9315],[121.736,-3.9285]]]},"properties":{"code":"74.11.07.2003","name":"Nelombu","latitude":-3.9452096297955666,"longitude":121.71978418331955}},{"type":"Feature","geometry":{"type":"Polygon","coordinates":[[[121.7615,-3.9865],[121.761,-3.9835],[121.763,-3.979],[121.759,-3.966],[121.751,-3.97],[121.75,-3.971],[121.75,-3.972],[121.7495,-3.9725],[121.7465,-3.975],[121.746,-3.975],[121.7455,-3.975],[121.7425,-3.9785],[121.741,-3.9795],[121.742,-3.9815],[121.744,-3.9895],[121.7625,-3.996],[121.7625,-3.9945],[121.7615,-3.9865]]]},"properties":{"code":"74.11.07.2005","name":"Watupute","latitude":-3.9812081860525956,"longitude":121.75410847998837}},{"type":"Feature","geometry":{"type":"Polygon","coordinates":[[[121.7195,-3.9605],[121.7085,-3.9595],[121.7085,-3.96],[121.7085,-3.9685],[121.7085,-3.972],[121.7105,-3.9755],[121.712,-3.9785],[121.713,-3.9825],[121.716,-3.987],[121.7165,-3.9875],[121.7175,-3.987],[121.718,-3.986],[121.7195,-3.9845],[121.721,-3.982],[121.723,-3.98],[121.7245,-3.9785],[121.726,-3.973],[121.7195,-3.9605]]]},"properties":{"code":"74.11.07.2006","name":"Puuosu","latitude":-3.9718973052689672,"longitude":121.71620426300696}},{"type":"Feature","geometry":{"type":"Polygon","coordinates":[[[121.707,-3.814],[121.6975,-3.8235],[121.6815,-3.8275],[121.677,-3.8375],[121.6645,-3.8485],[121.6585,-3.8645],[121.655,-3.892],[121.6575,-3.9095],[121.657,-3.91],[121.657,-3.911],[121.659,-3.913],[121.6705,-3.929],[121.6725,-3.9315],[121.6765,-3.9315],[121.689,-3.934],[121.7005,-3.944],[121.7155,-3.941],[121.725,-3.93],[121.736,-3.9285],[121.736,-3.928],[121.7355,-3.923],[121.736,-3.9185],[121.738,-3.915],[121.737,-3.914],[121.735,-3.9135],[121.7345,-3.9135],[121.7305,-3.912],[121.71,-3.9075],[121.71,-3.906],[121.704,-3.8815],[121.7055,-3.879],[121.7225,-3.8675],[121.7235,-3.8535],[121.732,-3.8365],[121.731,-3.834],[121.7275,-3.8215],[121.712,-3.8175],[121.7075,-3.815],[121.707,-3.814]]]},"properties":{"code":"74.11.07.2007","name":"Ulu Mowewe","latitude":-3.880614475566422,"longitude":121.69374615880473}},{"type":"Feature","geometry":{"type":"Polygon","coordinates":[[[121.742,-3.9815],[121.741,-3.9795],[121.7395,-3.981],[121.729,-3.9855],[121.726,-3.9855],[121.725,-3.9825],[121.723,-3.981],[121.723,-3.98],[121.721,-3.982],[121.7195,-3.9845],[121.718,-3.986],[121.7175,-3.987],[121.7165,-3.9875],[121.7175,-3.988],[121.6965,-3.995],[121.692,-3.994],[121.684,-3.993],[121.691,-4.003],[121.692,-4.0045],[121.693,-4.0075],[121.698,-4.013],[121.7005,-4.015],[121.704,-4.0145],[121.713,-4.018],[121.7365,-3.996],[121.742,-3.9815]]]},"properties":{"code":"74.11.07.2008","name":"Lapangisi","latitude":-3.9992338549817967,"longitude":121.71443704991847}},{"type":"Feature","geometry":{"type":"Polygon","coordinates":[[[121.759,-3.966],[121.7555,-3.9595],[121.7525,-3.9565],[121.7485,-3.952],[121.7475,-3.9515],[121.7335,-3.963],[121.7315,-3.9635],[121.7315,-3.9645],[121.744,-3.973],[121.7455,-3.975],[121.746,-3.975],[121.7495,-3.972],[121.75,-3.9715],[121.751,-3.97],[121.759,-3.966]]]},"properties":{"code":"74.11.07.2009","name":"Sabi-sabila","latitude":-3.9639187196370016,"longitude":121.74632290639893}},{"type":"Feature","geometry":{"type":"Polygon","coordinates":[[[121.7005,-3.944],[121.689,-3.934],[121.6765,-3.9315],[121.6725,-3.9315],[121.6665,-3.95],[121.6605,-3.9565],[121.658,-3.979],[121.6595,-3.9795],[121.661,-3.9805],[121.6615,-3.9805],[121.6765,-3.9875],[121.679,-3.989],[121.684,-3.993],[121.692,-3.994],[121.6965,-3.995],[121.7175,-3.988],[121.7165,-3.9875],[121.716,-3.987],[121.713,-3.9825],[121.712,-3.9785],[121.7105,-3.9755],[121.7085,-3.972],[121.7085,-3.9685],[121.7085,-3.96],[121.7085,-3.9595],[121.7005,-3.944]]]},"properties":{"code":"74.11.07.2010","name":"Lambo Tua","latitude":-3.965502675709675,"longitude":121.68580055667672}},{"type":"Feature","geometry":{"type":"Polygon","coordinates":[[[121.681,-3.7415],[121.6635,-3.7465],[121.6635,-3.761],[121.6565,-3.775],[121.654,-3.777],[121.6445,-3.78],[121.6405,-3.7835],[121.639,-3.7855],[121.6115,-3.8205],[121.609,-3.8225],[121.609,-3.824],[121.6085,-3.826],[121.6105,-3.8255],[121.614,-3.827],[121.619,-3.8275],[121.6555,-3.8035],[121.6715,-3.7795],[121.674,-3.766],[121.6765,-3.7615],[121.6835,-3.7615],[121.6855,-3.7595],[121.683,-3.752],[121.6815,-3.7525],[121.681,-3.754],[121.6805,-3.751],[121.679,-3.7495],[121.6785,-3.748],[121.6815,-3.747],[121.684,-3.7475],[121.6825,-3.743],[121.6815,-3.7425],[121.681,-3.7415]]]},"properties":{"code":"74.11.08.1006","name":"Sanggona","latitude":-3.786566335807987,"longitude":121.65091248063118}},{"type":"Feature","geometry":{"type":"Polygon","coordinates":[[[121.773,-3.822],[121.7655,-3.798],[121.763,-3.7955],[121.752,-3.791],[121.747,-3.776],[121.735,-3.776],[121.735,-3.778],[121.7345,-3.7805],[121.734,-3.7825],[121.724,-3.8015],[121.7275,-3.8215],[121.731,-3.834],[121.7315,-3.8355],[121.7635,-3.8295],[121.773,-3.822]]]},"properties":{"code":"74.11.08.2003","name":"Pehanggo","latitude":-3.808418440215837,"longitude":121.7459515249164}},{"type":"Feature","geometry":{"type":"Polygon","coordinates":[[[121.681,-3.7415],[121.681,-3.741],[121.6815,-3.74],[121.679,-3.7395],[121.6665,-3.729],[121.65,-3.7365],[121.6495,-3.738],[121.6485,-3.7365],[121.647,-3.736],[121.646,-3.7365],[121.638,-3.751],[121.6405,-3.761],[121.6335,-3.778],[121.615,-3.787],[121.613,-3.789],[121.605,-3.8005],[121.6055,-3.803],[121.609,-3.821],[121.6115,-3.8205],[121.639,-3.7855],[121.6405,-3.7835],[121.6445,-3.78],[121.654,-3.777],[121.6565,-3.775],[121.6635,-3.761],[121.6635,-3.7465],[121.681,-3.7415]]]},"properties":{"code":"74.11.08.2004","name":"Tondowatu","latitude":-3.7707904718545846,"longitude":121.64063536004527}},{"type":"Feature","geometry":{"type":"Polygon","coordinates":[[[121.707,-3.814],[121.717,-3.7985],[121.7155,-3.7895],[121.7065,-3.7805],[121.698,-3.7805],[121.6805,-3.7915],[121.6795,-3.809],[121.6785,-3.814],[121.6625,-3.823],[121.6605,-3.832],[121.645,-3.8375],[121.6405,-3.8485],[121.628,-3.856],[121.619,-3.848],[121.617,-3.843],[121.6115,-3.834],[121.61,-3.8335],[121.61,-3.834],[121.6105,-3.8345],[121.6085,-3.837],[121.6015,-3.863],[121.606,-3.8765],[121.6065,-3.8765],[121.609,-3.8775],[121.6095,-3.878],[121.6115,-3.8795],[121.6285,-3.903],[121.635,-3.907],[121.6425,-3.91],[121.657,-3.91],[121.6575,-3.9095],[121.655,-3.892],[121.6585,-3.8645],[121.6645,-3.8485],[121.677,-3.8375],[121.6815,-3.8275],[121.6975,-3.8235],[121.707,-3.814]]]},"properties":{"code":"74.11.08.2005","name":"Tawanga","latitude":-3.8488208201940695,"longitude":121.65482798086714}},{"type":"Feature","geometry":{"type":"Polygon","coordinates":[[[121.646,-3.7365],[121.6445,-3.7375],[121.644,-3.735],[121.643,-3.7345],[121.641,-3.7385],[121.6385,-3.7375],[121.639,-3.736],[121.628,-3.738],[121.6135,-3.734],[121.612,-3.7345],[121.613,-3.7375],[121.6115,-3.7405],[121.6015,-3.7535],[121.601,-3.7545],[121.623,-3.7515],[121.6225,-3.7605],[121.592,-3.784],[121.5935,-3.7975],[121.605,-3.802],[121.605,-3.8005],[121.613,-3.789],[121.615,-3.787],[121.6335,-3.778],[121.6405,-3.761],[121.638,-3.751],[121.646,-3.7365]]]},"properties":{"code":"74.11.08.2007","name":"Uete","latitude":-3.765665193542506,"longitude":121.61886272903382}},{"type":"Feature","geometry":{"type":"Polygon","coordinates":[[[121.6955,-3.7665],[121.6825,-3.777],[121.6715,-3.7965],[121.6645,-3.802],[121.6445,-3.8255],[121.624,-3.832],[121.61,-3.8335],[121.6115,-3.834],[121.617,-3.843],[121.619,-3.848],[121.628,-3.856],[121.6405,-3.8485],[121.645,-3.8375],[121.6605,-3.832],[121.6625,-3.823],[121.6785,-3.814],[121.6795,-3.809],[121.6805,-3.7915],[121.698,-3.7805],[121.7,-3.7765],[121.702,-3.7735],[121.7015,-3.7715],[121.7005,-3.7715],[121.7,-3.77],[121.6965,-3.769],[121.6955,-3.768],[121.6955,-3.7665]]]},"properties":{"code":"74.11.08.2008","name":"Undolo","latitude":-3.8193201148426095,"longitude":121.65502908944629}},{"type":"Feature","geometry":{"type":"Polygon","coordinates":[[[121.6955,-3.7665],[121.6965,-3.765],[121.6965,-3.7635],[121.6955,-3.7635],[121.6855,-3.7595],[121.6835,-3.7615],[121.6765,-3.7615],[121.674,-3.766],[121.6715,-3.7795],[121.6555,-3.8035],[121.619,-3.8275],[121.614,-3.827],[121.6105,-3.8255],[121.6085,-3.826],[121.6085,-3.827],[121.6085,-3.8275],[121.6095,-3.828],[121.6105,-3.8295],[121.6105,-3.8325],[121.6105,-3.8335],[121.61,-3.8335],[121.624,-3.832],[121.6445,-3.8255],[121.6645,-3.802],[121.6715,-3.7965],[121.6825,-3.777],[121.6955,-3.7665]]]},"properties":{"code":"74.11.08.2010","name":"Lalombai","latitude":-3.7973764042340377,"longitude":121.65930579337315}},{"type":"Feature","geometry":{"type":"Polygon","coordinates":[[[121.7875,-3.7625],[121.776,-3.767],[121.757,-3.759],[121.748,-3.767],[121.7455,-3.766],[121.74,-3.7695],[121.7395,-3.7695],[121.73,-3.767],[121.729,-3.7665],[121.7335,-3.776],[121.747,-3.776],[121.752,-3.791],[121.763,-3.7955],[121.7655,-3.798],[121.773,-3.822],[121.773,-3.8235],[121.7785,-3.8255],[121.7795,-3.826],[121.7955,-3.8235],[121.797,-3.8235],[121.803,-3.818],[121.8035,-3.817],[121.807,-3.8135],[121.807,-3.8115],[121.805,-3.807],[121.8045,-3.805],[121.802,-3.7955],[121.802,-3.789],[121.7985,-3.778],[121.7965,-3.7755],[121.7875,-3.7625]]]},"properties":{"code":"74.11.08.2014","name":"Amokuni","latitude":-3.790265965078356,"longitude":121.77652336914514}},{"type":"Feature","geometry":{"type":"Polygon","coordinates":[[[121.729,-3.7665],[121.7285,-3.7665],[121.723,-3.7685],[121.7215,-3.77],[121.7115,-3.776],[121.7095,-3.7755],[121.704,-3.7775],[121.7005,-3.778],[121.7,-3.7775],[121.7,-3.7765],[121.698,-3.7805],[121.7065,-3.7805],[121.7155,-3.7895],[121.717,-3.7985],[121.707,-3.814],[121.7075,-3.815],[121.712,-3.8175],[121.7275,-3.8215],[121.724,-3.8015],[121.734,-3.7825],[121.7345,-3.7805],[121.735,-3.778],[121.735,-3.776],[121.7335,-3.776],[121.729,-3.7665]]]},"properties":{"code":"74.11.08.2018","name":"Amololu","latitude":-3.7913665132611856,"longitude":121.72017554852711}},{"type":"Feature","geometry":{"type":"Polygon","coordinates":[[[121.605,-3.802],[121.5935,-3.7975],[121.592,-3.784],[121.6225,-3.7605],[121.623,-3.7515],[121.601,-3.7545],[121.5975,-3.7585],[121.596,-3.76],[121.594,-3.763],[121.592,-3.772],[121.5785,-3.789],[121.5785,-3.796],[121.5775,-3.7965],[121.579,-3.8005],[121.5805,-3.802],[121.5825,-3.8025],[121.5835,-3.8035],[121.5865,-3.8055],[121.588,-3.8085],[121.6,-3.819],[121.6055,-3.8185],[121.609,-3.821],[121.6055,-3.803],[121.605,-3.802]]]},"properties":{"code":"74.11.08.2019","name":"Aukora","latitude":-3.7841856519016708,"longitude":121.59839520863538}},{"type":"Feature","geometry":{"type":"Polygon","coordinates":[[[121.8115,-3.9605],[121.802,-3.948],[121.7875,-3.957],[121.7765,-3.963],[121.776,-3.9645],[121.7745,-3.9655],[121.773,-3.966],[121.7735,-3.966],[121.7875,-3.974],[121.7905,-3.9775],[121.7965,-3.976],[121.7985,-3.9765],[121.803,-3.9785],[121.8165,-3.9655],[121.8115,-3.9605]]]},"properties":{"code":"74.11.09.1001","name":"Tinengi","latitude":-3.965305818697235,"longitude":121.79811523424179}},{"type":"Feature","geometry":{"type":"Polygon","coordinates":[[[121.762,-3.9135],[121.7475,-3.913],[121.746,-3.9135],[121.743,-3.9165],[121.7395,-3.9165],[121.739,-3.916],[121.738,-3.915],[121.736,-3.9185],[121.7355,-3.923],[121.736,-3.928],[121.736,-3.9315],[121.7375,-3.9365],[121.7475,-3.95],[121.7715,-3.9505],[121.772,-3.9485],[121.7585,-3.926],[121.7605,-3.915],[121.762,-3.9135]]]},"properties":{"code":"74.11.09.2002","name":"Solewatu","latitude":-3.93150246782561,"longitude":121.75182440360015}},{"type":"Feature","geometry":{"type":"Polygon","coordinates":[[[121.787,-3.8825],[121.786,-3.875],[121.7705,-3.867],[121.76,-3.866],[121.748,-3.855],[121.7315,-3.8355],[121.732,-3.8365],[121.7235,-3.8535],[121.7225,-3.8675],[121.7055,-3.879],[121.704,-3.8815],[121.71,-3.906],[121.71,-3.9075],[121.7305,-3.912],[121.7345,-3.9135],[121.735,-3.9135],[121.737,-3.914],[121.739,-3.916],[121.7395,-3.9165],[121.743,-3.9165],[121.746,-3.9135],[121.7475,-3.913],[121.762,-3.9135],[121.7645,-3.9105],[121.7685,-3.9035],[121.7765,-3.892],[121.7865,-3.885],[121.7865,-3.883],[121.787,-3.8825]]]},"properties":{"code":"74.11.09.2003","name":"Ambapa","latitude":-3.88341573271379,"longitude":121.74244988817236}},{"type":"Feature","geometry":{"type":"Polygon","coordinates":[[[121.8765,-3.7875],[121.8725,-3.784],[121.8455,-3.7825],[121.844,-3.783],[121.8435,-3.783],[121.8435,-3.7865],[121.8455,-3.7935],[121.846,-3.8025],[121.848,-3.8075],[121.8425,-3.819],[121.8405,-3.821],[121.838,-3.8215],[121.832,-3.825],[121.8195,-3.835],[121.82,-3.8385],[121.786,-3.853],[121.7935,-3.8645],[121.7955,-3.88],[121.7965,-3.88],[121.8025,-3.8765],[121.819,-3.884],[121.8215,-3.8845],[121.8355,-3.8775],[121.837,-3.878],[121.8365,-3.877],[121.8345,-3.8575],[121.835,-3.856],[121.843,-3.8525],[121.845,-3.8535],[121.848,-3.8545],[121.8495,-3.8555],[121.874,-3.8495],[121.8955,-3.8525],[121.897,-3.8495],[121.8975,-3.8455],[121.904,-3.83],[121.904,-3.829],[121.904,-3.826],[121.8975,-3.817],[121.885,-3.814],[121.8835,-3.8055],[121.883,-3.8045],[121.882,-3.8005],[121.879,-3.796],[121.8795,-3.793],[121.878,-3.7915],[121.877,-3.7895],[121.8765,-3.7875]]]},"properties":{"code":"74.11.09.2004","name":"Ameroro","latitude":-3.834884655242747,"longitude":121.84899899609495}},{"type":"Feature","geometry":{"type":"Polygon","coordinates":[[[121.834,-3.98],[121.8345,-3.979],[121.835,-3.976],[121.836,-3.9735],[121.844,-3.9705],[121.846,-3.969],[121.8485,-3.9655],[121.857,-3.9465],[121.8495,-3.949],[121.847,-3.9495],[121.8285,-3.9495],[121.826,-3.9505],[121.82,-3.963],[121.816,-3.9625],[121.8155,-3.9635],[121.8145,-3.964],[121.8165,-3.9655],[121.803,-3.9785],[121.7985,-3.9765],[121.7965,-3.976],[121.7905,-3.9775],[121.79,-3.9785],[121.7885,-3.9815],[121.7865,-3.9855],[121.794,-3.985],[121.7975,-3.985],[121.7995,-3.9855],[121.808,-3.9855],[121.818,-3.986],[121.8235,-3.985],[121.825,-3.984],[121.834,-3.98]]]},"properties":{"code":"74.11.09.2005","name":"Lamunde","latitude":-3.9676735790618785,"longitude":121.8269151442946}},{"type":"Feature","geometry":{"type":"Polygon","coordinates":[[[121.8045,-3.929],[121.7965,-3.9275],[121.7945,-3.927],[121.794,-3.927],[121.7905,-3.9275],[121.7865,-3.9275],[121.7845,-3.9345],[121.7845,-3.9375],[121.784,-3.9555],[121.7745,-3.9585],[121.7745,-3.961],[121.775,-3.9615],[121.773,-3.9655],[121.773,-3.966],[121.7745,-3.9655],[121.776,-3.9645],[121.7765,-3.963],[121.7875,-3.957],[121.802,-3.948],[121.8115,-3.9605],[121.8125,-3.9595],[121.8115,-3.959],[121.811,-3.9575],[121.8115,-3.9555],[121.8115,-3.9545],[121.81,-3.9525],[121.8105,-3.952],[121.8115,-3.9515],[121.8045,-3.929]]]},"properties":{"code":"74.11.09.2006","name":"Tawarombadaka","latitude":-3.94331839449498,"longitude":121.79408871726582}},{"type":"Feature","geometry":{"type":"Polygon","coordinates":[[[121.904,-3.83],[121.8975,-3.8455],[121.897,-3.8495],[121.8955,-3.8525],[121.874,-3.8495],[121.8495,-3.8555],[121.848,-3.8545],[121.845,-3.8535],[121.843,-3.8525],[121.835,-3.856],[121.8345,-3.8575],[121.8365,-3.877],[121.837,-3.878],[121.8355,-3.8775],[121.8215,-3.8845],[121.8155,-3.8995],[121.8205,-3.916],[121.8045,-3.929],[121.8115,-3.9515],[121.8105,-3.952],[121.81,-3.9525],[121.8115,-3.9545],[121.8115,-3.9555],[121.811,-3.9575],[121.8115,-3.959],[121.8125,-3.9595],[121.8115,-3.9605],[121.8145,-3.964],[121.8155,-3.9635],[121.816,-3.9625],[121.82,-3.963],[121.826,-3.9505],[121.8285,-3.9495],[121.847,-3.9495],[121.8495,-3.949],[121.857,-3.9465],[121.861,-3.944],[121.8635,-3.9425],[121.864,-3.9425],[121.8645,-3.942],[121.866,-3.942],[121.882,-3.952],[121.8835,-3.952],[121.887,-3.9495],[121.889,-3.949],[121.898,-3.944],[121.901,-3.9425],[121.9015,-3.9395],[121.901,-3.935],[121.901,-3.9145],[121.9125,-3.9045],[121.915,-3.905],[121.9355,-3.898],[121.9455,-3.886],[121.947,-3.886],[121.948,-3.8875],[121.9575,-3.886],[121.9585,-3.884],[121.9595,-3.8845],[121.9665,-3.8795],[121.965,-3.8785],[121.9535,-3.871],[121.957,-3.863],[121.957,-3.859],[121.9565,-3.858],[121.954,-3.8535],[121.9535,-3.8395],[121.953,-3.836],[121.9515,-3.8335],[121.9475,-3.832],[121.943,-3.831],[121.9335,-3.8325],[121.927,-3.832],[121.922,-3.833],[121.905,-3.8305],[121.904,-3.83]]]},"properties":{"code":"74.11.09.2007","name":"Talata","latitude":-3.892369582541755,"longitude":121.88066764025703}},{"type":"Feature","geometry":{"type":"Polygon","coordinates":[[[121.7715,-3.9505],[121.7475,-3.95],[121.7485,-3.952],[121.7525,-3.9565],[121.7555,-3.9595],[121.759,-3.966],[121.763,-3.979],[121.761,-3.9835],[121.7615,-3.9865],[121.7635,-3.986],[121.771,-3.9855],[121.7775,-3.9855],[121.7865,-3.9855],[121.789,-3.981],[121.79,-3.9785],[121.7875,-3.974],[121.7735,-3.966],[121.773,-3.9655],[121.775,-3.9615],[121.7745,-3.961],[121.773,-3.9575],[121.772,-3.9525],[121.773,-3.951],[121.7715,-3.951],[121.7715,-3.9505]]]},"properties":{"code":"74.11.09.2008","name":"Weamo","latitude":-3.967857566031565,"longitude":121.76894984650264}},{"type":"Feature","geometry":{"type":"Polygon","coordinates":[[[121.7865,-3.9275],[121.7845,-3.9265],[121.779,-3.9225],[121.776,-3.9205],[121.7745,-3.9185],[121.7735,-3.916],[121.771,-3.9155],[121.7695,-3.914],[121.768,-3.9125],[121.7645,-3.9105],[121.762,-3.9135],[121.7605,-3.915],[121.7585,-3.926],[121.772,-3.9485],[121.7715,-3.951],[121.773,-3.951],[121.772,-3.9525],[121.773,-3.9575],[121.7745,-3.9585],[121.784,-3.9555],[121.7845,-3.9375],[121.7845,-3.9345],[121.7865,-3.9275]]]},"properties":{"code":"74.11.09.2009","name":"Tawa-tawaro","latitude":-3.933348720769857,"longitude":121.77328033489042}},{"type":"Feature","geometry":{"type":"Polygon","coordinates":[[[121.827,-3.7605],[121.823,-3.755],[121.8095,-3.7595],[121.8055,-3.755],[121.7915,-3.7615],[121.7875,-3.7625],[121.7965,-3.7755],[121.7985,-3.778],[121.802,-3.789],[121.802,-3.7955],[121.8045,-3.805],[121.805,-3.807],[121.807,-3.8115],[121.807,-3.8135],[121.8035,-3.817],[121.814,-3.822],[121.8195,-3.835],[121.832,-3.825],[121.838,-3.8215],[121.8405,-3.821],[121.8425,-3.819],[121.848,-3.8075],[121.846,-3.8025],[121.8455,-3.7935],[121.8435,-3.7865],[121.8435,-3.783],[121.844,-3.783],[121.843,-3.783],[121.827,-3.78],[121.8305,-3.7695],[121.827,-3.7605]]]},"properties":{"code":"74.11.09.2010","name":"Singgere","latitude":-3.792941073547305,"longitude":121.8200591564365}},{"type":"Feature","geometry":{"type":"Polygon","coordinates":[[[121.8195,-3.835],[121.814,-3.822],[121.8035,-3.817],[121.803,-3.818],[121.797,-3.8235],[121.7955,-3.8235],[121.7795,-3.826],[121.7785,-3.8255],[121.773,-3.8235],[121.773,-3.822],[121.7635,-3.8295],[121.7315,-3.8355],[121.748,-3.855],[121.76,-3.866],[121.7705,-3.867],[121.786,-3.875],[121.787,-3.8825],[121.7905,-3.882],[121.794,-3.8815],[121.7955,-3.88],[121.7935,-3.8645],[121.786,-3.853],[121.82,-3.8385],[121.8195,-3.835]]]},"properties":{"code":"74.11.09.2011","name":"Tutuwi","latitude":-3.8448303470811114,"longitude":121.77820303959336}},{"type":"Feature","geometry":{"type":"Polygon","coordinates":[[[121.8215,-3.8845],[121.819,-3.884],[121.8025,-3.8765],[121.7965,-3.88],[121.794,-3.8815],[121.7905,-3.882],[121.7865,-3.883],[121.7865,-3.885],[121.7765,-3.892],[121.7685,-3.9035],[121.7645,-3.9105],[121.768,-3.9125],[121.7695,-3.914],[121.771,-3.9155],[121.7735,-3.916],[121.7745,-3.9185],[121.776,-3.9205],[121.779,-3.9225],[121.7845,-3.9265],[121.7865,-3.9275],[121.7905,-3.9275],[121.794,-3.927],[121.7945,-3.927],[121.7965,-3.9275],[121.8045,-3.929],[121.8205,-3.916],[121.8155,-3.8995],[121.8215,-3.8845]]]},"properties":{"code":"74.11.09.2012","name":"Iwoimea","latitude":-3.9037916595787165,"longitude":121.7963131173681}},{"type":"Feature","geometry":{"type":"Polygon","coordinates":[[[121.875,-4.271],[121.874,-4.271],[121.8735,-4.2715],[121.872,-4.2725],[121.8715,-4.2725],[121.8715,-4.273],[121.8705,-4.2735],[121.8685,-4.2745],[121.8675,-4.275],[121.8685,-4.2755],[121.8675,-4.276],[121.867,-4.276],[121.8665,-4.2765],[121.8655,-4.276],[121.865,-4.2765],[121.859,-4.274],[121.8575,-4.274],[121.857,-4.2745],[121.857,-4.275],[121.8565,-4.275],[121.8565,-4.2755],[121.8555,-4.276],[121.8555,-4.2765],[121.8565,-4.2795],[121.854,-4.2855],[121.852,-4.289],[121.8525,-4.29],[121.8565,-4.291],[121.8605,-4.2945],[121.8685,-4.2915],[121.8675,-4.291],[121.8685,-4.289],[121.8735,-4.286],[121.879,-4.2775],[121.877,-4.2735],[121.8755,-4.2725],[121.875,-4.271]]]},"properties":{"code":"74.11.10.2001","name":"Aere","latitude":-4.28231136166954,"longitude":121.86483603629884}},{"type":"Feature","geometry":{"type":"Polygon","coordinates":[[[121.852,-4.289],[121.8415,-4.291],[121.842,-4.292],[121.842,-4.293],[121.8405,-4.2965],[121.84,-4.298],[121.8375,-4.3],[121.8345,-4.301],[121.8175,-4.298],[121.814,-4.3005],[121.811,-4.2995],[121.8085,-4.3],[121.809,-4.302],[121.812,-4.3105],[121.834,-4.325],[121.845,-4.318],[121.8455,-4.3165],[121.849,-4.3135],[121.859,-4.294],[121.8565,-4.291],[121.8525,-4.29],[121.852,-4.289]]]},"properties":{"code":"74.11.10.2002","name":"Pekorea","latitude":-4.306889855541626,"longitude":121.83552600610837}},{"type":"Feature","geometry":{"type":"Polygon","coordinates":[[[121.8415,-4.2475],[121.831,-4.242],[121.8015,-4.2485],[121.79,-4.247],[121.7865,-4.247],[121.7605,-4.243],[121.749,-4.245],[121.7465,-4.2445],[121.7385,-4.246],[121.7365,-4.246],[121.736,-4.2465],[121.735,-4.2495],[121.7345,-4.2505],[121.735,-4.253],[121.736,-4.258],[121.738,-4.2595],[121.7405,-4.2625],[121.74,-4.266],[121.74,-4.2665],[121.7505,-4.2685],[121.7515,-4.269],[121.7645,-4.282],[121.768,-4.287],[121.7785,-4.2855],[121.781,-4.2835],[121.7875,-4.2755],[121.797,-4.2815],[121.8005,-4.282],[121.811,-4.2825],[121.8255,-4.286],[121.85,-4.2785],[121.8505,-4.278],[121.8515,-4.278],[121.8525,-4.277],[121.8515,-4.2755],[121.8505,-4.274],[121.844,-4.265],[121.8425,-4.2615],[121.843,-4.255],[121.849,-4.248],[121.8515,-4.2465],[121.853,-4.2445],[121.8415,-4.2475]]]},"properties":{"code":"74.11.10.2003","name":"Iwoi Menggura","latitude":-4.262693718982679,"longitude":121.79539034271819}},{"type":"Feature","geometry":{"type":"Polygon","coordinates":[[[121.8875,-4.3145],[121.8895,-4.2915],[121.8705,-4.2925],[121.8685,-4.2915],[121.8605,-4.2945],[121.859,-4.294],[121.849,-4.3135],[121.8465,-4.316],[121.8465,-4.3185],[121.844,-4.327],[121.838,-4.3405],[121.8595,-4.35],[121.86,-4.337],[121.884,-4.3225],[121.8875,-4.3145]]]},"properties":{"code":"74.11.10.2004","name":"Iwoimea Jaya","latitude":-4.317362043800967,"longitude":121.86484935518853}},{"type":"Feature","geometry":{"type":"Polygon","coordinates":[[[121.804,-4.282],[121.8005,-4.282],[121.7975,-4.2815],[121.804,-4.308],[121.8115,-4.3165],[121.8035,-4.326],[121.7965,-4.36],[121.8,-4.3805],[121.8,-4.382],[121.7995,-4.383],[121.799,-4.3825],[121.7975,-4.387],[121.7955,-4.3885],[121.796,-4.389],[121.8015,-4.4075],[121.805,-4.4105],[121.8065,-4.4105],[121.8065,-4.4115],[121.8115,-4.416],[121.8305,-4.407],[121.836,-4.404],[121.8425,-4.4],[121.8425,-4.397],[121.842,-4.395],[121.8425,-4.394],[121.8485,-4.39],[121.8585,-4.368],[121.8595,-4.3585],[121.8605,-4.354],[121.8595,-4.35],[121.838,-4.3405],[121.844,-4.327],[121.8465,-4.3185],[121.8465,-4.316],[121.8455,-4.3165],[121.845,-4.318],[121.834,-4.325],[121.812,-4.3105],[121.809,-4.302],[121.8085,-4.2975],[121.8075,-4.2965],[121.8045,-4.294],[121.8035,-4.285],[121.8045,-4.2835],[121.804,-4.283],[121.804,-4.282]]]},"properties":{"code":"74.11.10.2005","name":"Awiu","latitude":-4.3628188159379,"longitude":121.8237200529106}},{"type":"Feature","geometry":{"type":"Polygon","coordinates":[[[121.8915,-4.2635],[121.8805,-4.2595],[121.871,-4.2625],[121.843,-4.255],[121.8425,-4.2615],[121.844,-4.265],[121.8505,-4.274],[121.8515,-4.2755],[121.8525,-4.277],[121.854,-4.2765],[121.854,-4.276],[121.8555,-4.276],[121.8565,-4.2755],[121.8565,-4.275],[121.857,-4.275],[121.857,-4.2745],[121.8575,-4.274],[121.859,-4.274],[121.865,-4.2765],[121.8655,-4.276],[121.8665,-4.2765],[121.867,-4.276],[121.8675,-4.276],[121.8685,-4.2755],[121.8675,-4.275],[121.8685,-4.2745],[121.8705,-4.2735],[121.8715,-4.273],[121.8715,-4.2725],[121.872,-4.2725],[121.8735,-4.2715],[121.874,-4.2705],[121.8745,-4.271],[121.875,-4.271],[121.8755,-4.2715],[121.876,-4.2715],[121.8915,-4.2725],[121.8915,-4.2635]]]},"properties":{"code":"74.11.10.2006","name":"Aladadio","latitude":-4.266034919814522,"longitude":121.86585926789219}},{"type":"Feature","geometry":{"type":"Polygon","coordinates":[[[121.891,-4.254],[121.8925,-4.2415],[121.8825,-4.243],[121.881,-4.244],[121.866,-4.2445],[121.8565,-4.2465],[121.8515,-4.2465],[121.849,-4.248],[121.843,-4.255],[121.871,-4.2625],[121.8805,-4.2595],[121.8915,-4.257],[121.891,-4.254]]]},"properties":{"code":"74.11.10.2007","name":"Tinete","latitude":-4.252261516934153,"longitude":121.87130268280042}},{"type":"Feature","geometry":{"type":"Polygon","coordinates":[[[121.7975,-4.2815],[121.797,-4.2815],[121.7875,-4.2755],[121.781,-4.2835],[121.7785,-4.2855],[121.768,-4.287],[121.7695,-4.289],[121.769,-4.297],[121.766,-4.2975],[121.752,-4.2925],[121.743,-4.29],[121.7165,-4.2935],[121.716,-4.2935],[121.7145,-4.294],[121.712,-4.2945],[121.703,-4.293],[121.7025,-4.2995],[121.708,-4.3165],[121.7155,-4.319],[121.717,-4.3335],[121.7225,-4.337],[121.724,-4.338],[121.7235,-4.3415],[121.724,-4.3445],[121.7275,-4.3575],[121.7315,-4.36],[121.7345,-4.362],[121.736,-4.3635],[121.7365,-4.365],[121.746,-4.3695],[121.7445,-4.3715],[121.745,-4.3715],[121.747,-4.3725],[121.7475,-4.373],[121.749,-4.374],[121.766,-4.378],[121.767,-4.379],[121.768,-4.3805],[121.7685,-4.381],[121.77,-4.3825],[121.7715,-4.383],[121.7725,-4.3835],[121.7755,-4.3855],[121.7765,-4.387],[121.7765,-4.3875],[121.7775,-4.388],[121.7795,-4.3885],[121.7815,-4.3885],[121.7875,-4.3905],[121.788,-4.3915],[121.7885,-4.391],[121.79,-4.3905],[121.7905,-4.391],[121.7935,-4.3905],[121.7935,-4.39],[121.796,-4.389],[121.7955,-4.3885],[121.7975,-4.387],[121.799,-4.3825],[121.7995,-4.383],[121.8,-4.382],[121.8,-4.3805],[121.7965,-4.36],[121.8035,-4.326],[121.8115,-4.3165],[121.804,-4.308],[121.7975,-4.2815]]]},"properties":{"code":"74.11.10.2008","name":"Taore","latitude":-4.330715119555943,"longitude":121.76273229046804}},{"type":"Feature","geometry":{"type":"Polygon","coordinates":[[[121.8555,-4.2765],[121.854,-4.276],[121.854,-4.2765],[121.8515,-4.278],[121.8505,-4.278],[121.85,-4.2785],[121.8255,-4.286],[121.811,-4.2825],[121.804,-4.282],[121.804,-4.283],[121.8045,-4.2835],[121.8035,-4.285],[121.8045,-4.294],[121.8075,-4.2965],[121.8085,-4.2975],[121.8085,-4.3],[121.811,-4.2995],[121.814,-4.3005],[121.8175,-4.298],[121.8345,-4.301],[121.8375,-4.3],[121.84,-4.298],[121.8405,-4.2965],[121.842,-4.293],[121.842,-4.292],[121.8415,-4.291],[121.852,-4.289],[121.854,-4.2855],[121.8565,-4.2795],[121.8555,-4.2765]]]},"properties":{"code":"74.11.10.2009","name":"Ulundoro","latitude":-4.28998504066334,"longitude":121.8277957077845}},{"type":"Feature","geometry":{"type":"Polygon","coordinates":[[[121.8025,-4.206],[121.7995,-4.204],[121.7975,-4.1985],[121.7865,-4.194],[121.78,-4.1815],[121.775,-4.1855],[121.7705,-4.188],[121.759,-4.192],[121.7555,-4.1945],[121.754,-4.195],[121.7505,-4.196],[121.7505,-4.1955],[121.75,-4.195],[121.7495,-4.1955],[121.7485,-4.1955],[121.7475,-4.197],[121.741,-4.2015],[121.7475,-4.218],[121.7445,-4.231],[121.745,-4.2325],[121.7465,-4.2445],[121.749,-4.245],[121.7605,-4.243],[121.7865,-4.247],[121.79,-4.247],[121.8015,-4.2485],[121.831,-4.242],[121.8415,-4.2475],[121.836,-4.2355],[121.8225,-4.2245],[121.82,-4.221],[121.816,-4.2195],[121.8155,-4.2195],[121.8025,-4.206]]]},"properties":{"code":"74.11.10.2010","name":"Watuwoha","latitude":-4.221067407009657,"longitude":121.7819916541815}},{"type":"Feature","geometry":{"type":"Polygon","coordinates":[[[121.8915,-4.2725],[121.876,-4.2715],[121.8755,-4.2715],[121.875,-4.271],[121.8755,-4.2725],[121.877,-4.2735],[121.879,-4.2775],[121.8735,-4.286],[121.895,-4.2875],[121.8955,-4.2795],[121.8965,-4.2725],[121.8965,-4.272],[121.896,-4.2715],[121.8935,-4.2725],[121.8925,-4.272],[121.8915,-4.2725]]]},"properties":{"code":"74.11.10.2011","name":"Rubia","latitude":-4.279355834821143,"longitude":121.88580321897216}},{"type":"Feature","geometry":{"type":"Polygon","coordinates":[[[121.5745,-3.642],[121.5735,-3.643],[121.5725,-3.6465],[121.558,-3.653],[121.553,-3.6495],[121.548,-3.6455],[121.546,-3.644],[121.536,-3.643],[121.5295,-3.641],[121.5285,-3.6415],[121.5245,-3.644],[121.5,-3.648],[121.488,-3.6585],[121.4675,-3.664],[121.4635,-3.665],[121.441,-3.68],[121.4365,-3.6815],[121.426,-3.6795],[121.424,-3.681],[121.422,-3.6835],[121.421,-3.6845],[121.4185,-3.6915],[121.4185,-3.693],[121.4185,-3.696],[121.424,-3.7085],[121.4295,-3.7115],[121.446,-3.71],[121.4495,-3.708],[121.4495,-3.7075],[121.451,-3.7075],[121.462,-3.7005],[121.474,-3.7005],[121.48,-3.6985],[121.4875,-3.694],[121.4915,-3.693],[121.514,-3.693],[121.5365,-3.6885],[121.5485,-3.694],[121.555,-3.688],[121.5735,-3.6845],[121.5805,-3.6865],[121.583,-3.687],[121.5875,-3.6885],[121.5895,-3.686],[121.5905,-3.686],[121.588,-3.673],[121.5855,-3.6685],[121.5865,-3.6585],[121.576,-3.654],[121.5745,-3.642]]]},"properties":{"code":"74.11.11.2001","name":"Ueesi","latitude":-3.6758786960492698,"longitude":121.50692437952213}},{"type":"Feature","geometry":{"type":"Polygon","coordinates":[[[121.609,-3.687],[121.5915,-3.686],[121.5895,-3.686],[121.5875,-3.6885],[121.583,-3.687],[121.5805,-3.6865],[121.5735,-3.6845],[121.555,-3.688],[121.5485,-3.694],[121.5365,-3.6885],[121.514,-3.693],[121.4915,-3.693],[121.4875,-3.694],[121.48,-3.6985],[121.474,-3.7005],[121.462,-3.7005],[121.451,-3.7075],[121.4495,-3.7075],[121.45,-3.708],[121.458,-3.7175],[121.4615,-3.72],[121.467,-3.72],[121.479,-3.725],[121.4835,-3.7235],[121.486,-3.7235],[121.488,-3.7245],[121.4925,-3.7305],[121.4945,-3.733],[121.497,-3.7335],[121.4995,-3.734],[121.501,-3.7365],[121.5025,-3.7395],[121.5055,-3.741],[121.5065,-3.7415],[121.5095,-3.743],[121.511,-3.7425],[121.511,-3.7405],[121.5105,-3.74],[121.513,-3.7365],[121.515,-3.734],[121.517,-3.732],[121.5425,-3.7215],[121.545,-3.713],[121.5595,-3.7065],[121.585,-3.7005],[121.6005,-3.7005],[121.6035,-3.7],[121.6055,-3.7],[121.606,-3.6995],[121.609,-3.687]]]},"properties":{"code":"74.11.11.2002","name":"Wesinggote","latitude":-3.707420081852855,"longitude":121.52338907217509}},{"type":"Feature","geometry":{"type":"Polygon","coordinates":[[[121.6055,-3.7],[121.6035,-3.7],[121.6005,-3.7005],[121.585,-3.7005],[121.5595,-3.7065],[121.545,-3.713],[121.5425,-3.7215],[121.517,-3.732],[121.515,-3.734],[121.513,-3.7365],[121.5105,-3.74],[121.511,-3.7405],[121.513,-3.746],[121.52,-3.7495],[121.523,-3.7515],[121.527,-3.7565],[121.53,-3.7595],[121.5315,-3.7595],[121.5345,-3.761],[121.536,-3.7605],[121.537,-3.758],[121.538,-3.7545],[121.539,-3.752],[121.569,-3.7265],[121.5745,-3.724],[121.586,-3.715],[121.605,-3.7055],[121.6075,-3.7045],[121.6055,-3.702],[121.6055,-3.7]]]},"properties":{"code":"74.11.11.2003","name":"Konawendepiha","latitude":-3.7271662236128984,"longitude":121.55249369775352}},{"type":"Feature","geometry":{"type":"Polygon","coordinates":[[[121.612,-3.7345],[121.6105,-3.7345],[121.612,-3.732],[121.6115,-3.7145],[121.611,-3.7125],[121.6105,-3.71],[121.61,-3.71],[121.5935,-3.718],[121.5915,-3.724],[121.5935,-3.7375],[121.5865,-3.745],[121.572,-3.772],[121.568,-3.7865],[121.559,-3.795],[121.5645,-3.7975],[121.5655,-3.797],[121.568,-3.7975],[121.5705,-3.7955],[121.572,-3.796],[121.5735,-3.7965],[121.575,-3.7975],[121.5785,-3.796],[121.5785,-3.789],[121.592,-3.772],[121.594,-3.763],[121.596,-3.76],[121.5975,-3.7585],[121.6015,-3.7535],[121.6115,-3.7405],[121.613,-3.7375],[121.612,-3.7345]]]},"properties":{"code":"74.11.11.2004","name":"Porabua","latitude":-3.7526743382968766,"longitude":121.59109939780471}},{"type":"Feature","geometry":{"type":"Polygon","coordinates":[[[121.5675,-3.616],[121.56,-3.6135],[121.5565,-3.6145],[121.5485,-3.621],[121.547,-3.6235],[121.529,-3.632],[121.4945,-3.635],[121.4885,-3.642],[121.485,-3.645],[121.483,-3.646],[121.4795,-3.646],[121.468,-3.6475],[121.452,-3.657],[121.4305,-3.6615],[121.428,-3.6635],[121.4275,-3.6635],[121.4265,-3.675],[121.426,-3.6795],[121.4365,-3.6815],[121.441,-3.68],[121.4635,-3.665],[121.4675,-3.664],[121.488,-3.6585],[121.5,-3.648],[121.5245,-3.644],[121.5285,-3.6415],[121.5295,-3.641],[121.536,-3.643],[121.546,-3.644],[121.548,-3.6455],[121.553,-3.6495],[121.558,-3.653],[121.5725,-3.6465],[121.5735,-3.643],[121.5745,-3.642],[121.5755,-3.6355],[121.5745,-3.634],[121.5725,-3.6325],[121.568,-3.616],[121.5675,-3.616]]]},"properties":{"code":"74.11.11.2005","name":"Watumendonga","latitude":-3.6464109688753106,"longitude":121.50779281937452}},{"type":"Feature","geometry":{"type":"Polygon","coordinates":[[[121.608,-3.7055],[121.6075,-3.7045],[121.605,-3.7055],[121.586,-3.715],[121.5745,-3.724],[121.569,-3.7265],[121.539,-3.752],[121.538,-3.7545],[121.537,-3.758],[121.536,-3.7605],[121.5375,-3.762],[121.5405,-3.766],[121.5585,-3.793],[121.559,-3.795],[121.568,-3.7865],[121.572,-3.772],[121.5865,-3.745],[121.5935,-3.7375],[121.5915,-3.724],[121.5935,-3.718],[121.61,-3.71],[121.609,-3.7085],[121.608,-3.7055]]]},"properties":{"code":"74.11.11.2006","name":"Silui","latitude":-3.7511157254695626,"longitude":121.56768485847186}},{"type":"Feature","geometry":{"type":"Polygon","coordinates":[[[121.558,-3.5725],[121.557,-3.572],[121.5535,-3.569],[121.553,-3.569],[121.55,-3.5695],[121.524,-3.5835],[121.5125,-3.592],[121.486,-3.577],[121.4725,-3.574],[121.4595,-3.5785],[121.451,-3.5755],[121.4465,-3.5765],[121.432,-3.585],[121.4175,-3.5995],[121.4035,-3.6],[121.402,-3.6005],[121.3935,-3.611],[121.3915,-3.6235],[121.379,-3.629],[121.3795,-3.635],[121.383,-3.6365],[121.385,-3.637],[121.386,-3.6375],[121.3865,-3.6385],[121.387,-3.6395],[121.4125,-3.6295],[121.414,-3.629],[121.417,-3.6285],[121.4195,-3.631],[121.426,-3.648],[121.426,-3.6605],[121.4275,-3.6635],[121.428,-3.6635],[121.4305,-3.6615],[121.452,-3.657],[121.468,-3.6475],[121.4795,-3.646],[121.483,-3.646],[121.485,-3.645],[121.4885,-3.642],[121.4945,-3.635],[121.529,-3.632],[121.547,-3.6235],[121.5485,-3.621],[121.5565,-3.6145],[121.56,-3.6135],[121.5675,-3.616],[121.5655,-3.613],[121.5675,-3.588],[121.558,-3.5825],[121.558,-3.5725]]]},"properties":{"code":"74.11.11.2007","name":"Ahilulu","latitude":-3.612537666253,"longitude":121.47605263870766}},{"type":"Feature","geometry":{"type":"Polygon","coordinates":[[[121.553,-3.569],[121.552,-3.5655],[121.5485,-3.5555],[121.5465,-3.5545],[121.537,-3.5455],[121.531,-3.5325],[121.5,-3.5465],[121.4935,-3.5445],[121.492,-3.544],[121.48,-3.5425],[121.4665,-3.5425],[121.463,-3.5425],[121.452,-3.552],[121.4445,-3.5485],[121.4295,-3.55],[121.4275,-3.55],[121.425,-3.5505],[121.4165,-3.556],[121.408,-3.5755],[121.395,-3.579],[121.3675,-3.5795],[121.355,-3.5855],[121.332,-3.5875],[121.323,-3.5945],[121.3015,-3.591],[121.289,-3.593],[121.2725,-3.588],[121.2715,-3.5885],[121.2715,-3.6085],[121.256,-3.611],[121.2445,-3.6225],[121.2465,-3.641],[121.2525,-3.6565],[121.253,-3.6585],[121.254,-3.664],[121.255,-3.6665],[121.258,-3.67],[121.263,-3.672],[121.2805,-3.679],[121.285,-3.6825],[121.2895,-3.6855],[121.293,-3.686],[121.304,-3.6895],[121.3045,-3.6925],[121.305,-3.692],[121.306,-3.692],[121.3095,-3.6925],[121.312,-3.693],[121.318,-3.6965],[121.3185,-3.696],[121.3205,-3.6965],[121.3225,-3.698],[121.3295,-3.697],[121.333,-3.696],[121.3365,-3.693],[121.337,-3.6915],[121.343,-3.686],[121.336,-3.6705],[121.3385,-3.6645],[121.3395,-3.6635],[121.3405,-3.662],[121.3505,-3.645],[121.3575,-3.6435],[121.3705,-3.628],[121.3795,-3.635],[121.379,-3.629],[121.3915,-3.6235],[121.3935,-3.611],[121.402,-3.6005],[121.4035,-3.6],[121.4175,-3.5995],[121.432,-3.585],[121.4465,-3.5765],[121.451,-3.5755],[121.4595,-3.5785],[121.4725,-3.574],[121.486,-3.577],[121.5125,-3.592],[121.524,-3.5835],[121.55,-3.5695],[121.553,-3.569]]]},"properties":{"code":"74.11.11.2008","name":"Alaaha","latitude":-3.61024555167499,"longitude":121.36965384813436}},{"type":"Feature","geometry":{"type":"Polygon","coordinates":[[[121.531,-3.5325],[121.535,-3.5135],[121.5275,-3.497],[121.5235,-3.4705],[121.5215,-3.4665],[121.5125,-3.454],[121.51,-3.4525],[121.506,-3.449],[121.492,-3.4555],[121.4915,-3.459],[121.491,-3.462],[121.4915,-3.4645],[121.4915,-3.4665],[121.49,-3.4705],[121.4905,-3.4735],[121.4915,-3.4755],[121.489,-3.4825],[121.489,-3.487],[121.49,-3.499],[121.4905,-3.502],[121.4905,-3.509],[121.49,-3.5115],[121.491,-3.514],[121.492,-3.5215],[121.4925,-3.5235],[121.496,-3.533],[121.4975,-3.5345],[121.4935,-3.5445],[121.5,-3.5465],[121.531,-3.5325]]]},"properties":{"code":"74.11.11.2009","name":"Likuwalanapo","latitude":-3.4992425153648865,"longitude":121.50919890619916}},{"type":"Feature","geometry":{"type":"Polygon","coordinates":[[[121.506,-3.449],[121.4935,-3.4385],[121.4915,-3.4345],[121.477,-3.452],[121.4715,-3.4815],[121.4635,-3.4925],[121.4425,-3.499],[121.4265,-3.5075],[121.423,-3.508],[121.414,-3.505],[121.3755,-3.508],[121.3645,-3.523],[121.337,-3.5375],[121.3355,-3.539],[121.331,-3.5395],[121.308,-3.537],[121.2785,-3.554],[121.268,-3.538],[121.2545,-3.553],[121.2485,-3.551],[121.246,-3.5495],[121.245,-3.551],[121.2395,-3.554],[121.234,-3.5535],[121.229,-3.539],[121.2235,-3.535],[121.221,-3.532],[121.208,-3.5265],[121.204,-3.525],[121.203,-3.5245],[121.2005,-3.5235],[121.199,-3.5225],[121.1985,-3.5215],[121.197,-3.522],[121.1955,-3.523],[121.192,-3.526],[121.1905,-3.5315],[121.19,-3.5355],[121.1925,-3.542],[121.1905,-3.547],[121.1865,-3.5525],[121.185,-3.556],[121.1835,-3.557],[121.183,-3.557],[121.183,-3.558],[121.1865,-3.5635],[121.195,-3.5695],[121.198,-3.5695],[121.2015,-3.5705],[121.215,-3.5855],[121.217,-3.59],[121.2315,-3.6],[121.2345,-3.6015],[121.236,-3.6025],[121.2375,-3.605],[121.243,-3.616],[121.2445,-3.6225],[121.256,-3.611],[121.2715,-3.6085],[121.2715,-3.5885],[121.2725,-3.588],[121.289,-3.593],[121.3015,-3.591],[121.323,-3.5945],[121.332,-3.5875],[121.355,-3.5855],[121.3675,-3.5795],[121.395,-3.579],[121.408,-3.5755],[121.4165,-3.556],[121.425,-3.5505],[121.4275,-3.55],[121.4295,-3.55],[121.4445,-3.5485],[121.452,-3.552],[121.463,-3.5425],[121.4665,-3.5425],[121.48,-3.5425],[121.492,-3.544],[121.4935,-3.5445],[121.4975,-3.5345],[121.496,-3.533],[121.4925,-3.5235],[121.492,-3.5215],[121.491,-3.514],[121.49,-3.5115],[121.4905,-3.509],[121.4905,-3.502],[121.49,-3.499],[121.489,-3.487],[121.489,-3.4825],[121.4915,-3.4755],[121.4905,-3.4735],[121.49,-3.4705],[121.4915,-3.4665],[121.4915,-3.4645],[121.491,-3.462],[121.4915,-3.459],[121.492,-3.4555],[121.506,-3.449]]]},"properties":{"code":"74.11.11.2010","name":"Tongauna","latitude":-3.546679980508995,"longitude":121.34855918598114}},{"type":"Feature","geometry":{"type":"Polygon","coordinates":[[[121.2795,-3.2265],[121.2685,-3.2255],[121.25,-3.226],[121.2475,-3.226],[121.243,-3.2265],[121.2305,-3.2275],[121.2265,-3.2295],[121.223,-3.234],[121.223,-3.235],[121.2235,-3.2375],[121.2205,-3.2475],[121.2205,-3.25],[121.221,-3.252],[121.2215,-3.253],[121.2215,-3.2535],[121.208,-3.2615],[121.2045,-3.2635],[121.198,-3.2675],[121.195,-3.268],[121.1915,-3.2705],[121.1915,-3.2725],[121.1855,-3.2745],[121.1805,-3.282],[121.17,-3.296],[121.168,-3.2965],[121.166,-3.294],[121.163,-3.2935],[121.1615,-3.292],[121.16,-3.293],[121.1595,-3.2945],[121.1575,-3.2975],[121.1575,-3.3],[121.159,-3.305],[121.158,-3.3075],[121.1575,-3.3145],[121.158,-3.3165],[121.1575,-3.3175],[121.158,-3.3215],[121.158,-3.3235],[121.1585,-3.3365],[121.1585,-3.338],[121.158,-3.339],[121.157,-3.3405],[121.1515,-3.344],[121.143,-3.363],[121.1415,-3.3655],[121.1385,-3.3655],[121.1365,-3.366],[121.134,-3.367],[121.132,-3.3835],[121.1335,-3.385],[121.136,-3.388],[121.1335,-3.3945],[121.1335,-3.3975],[121.1325,-3.399],[121.1305,-3.4],[121.123,-3.411],[121.1245,-3.4115],[121.133,-3.4165],[121.138,-3.4265],[121.1505,-3.4325],[121.151,-3.4345],[121.1545,-3.4395],[121.148,-3.455],[121.1455,-3.4575],[121.139,-3.46],[121.1385,-3.4605],[121.137,-3.4605],[121.135,-3.462],[121.133,-3.466],[121.1315,-3.469],[121.1285,-3.4675],[121.124,-3.4685],[121.124,-3.469],[121.123,-3.47],[121.123,-3.4705],[121.124,-3.4725],[121.1255,-3.4775],[121.1265,-3.4795],[121.127,-3.48],[121.127,-3.481],[121.1245,-3.483],[121.1235,-3.4845],[121.1225,-3.4855],[121.122,-3.4865],[121.121,-3.4875],[121.122,-3.488],[121.1225,-3.489],[121.1205,-3.4905],[121.121,-3.4905],[121.124,-3.4905],[121.1265,-3.493],[121.1295,-3.494],[121.1295,-3.495],[121.1295,-3.496],[121.1335,-3.5],[121.136,-3.501],[121.138,-3.5025],[121.14,-3.503],[121.144,-3.505],[121.146,-3.5055],[121.1485,-3.505],[121.151,-3.507],[121.1505,-3.5095],[121.1505,-3.51],[121.153,-3.513],[121.1535,-3.514],[121.154,-3.5155],[121.154,-3.517],[121.1525,-3.5225],[121.157,-3.536],[121.1585,-3.5375],[121.1735,-3.543],[121.175,-3.545],[121.1785,-3.553],[121.183,-3.558],[121.183,-3.557],[121.1835,-3.557],[121.185,-3.556],[121.1865,-3.5525],[121.1905,-3.547],[121.1925,-3.542],[121.19,-3.5355],[121.1905,-3.5315],[121.192,-3.526],[121.1955,-3.523],[121.197,-3.522],[121.1985,-3.5215],[121.199,-3.5225],[121.2005,-3.5235],[121.203,-3.5245],[121.204,-3.525],[121.208,-3.5265],[121.221,-3.532],[121.2235,-3.535],[121.229,-3.539],[121.234,-3.5535],[121.2395,-3.554],[121.245,-3.551],[121.246,-3.5495],[121.2485,-3.551],[121.2545,-3.553],[121.268,-3.538],[121.2785,-3.554],[121.308,-3.537],[121.331,-3.5395],[121.3355,-3.539],[121.337,-3.5375],[121.3645,-3.523],[121.3755,-3.508],[121.414,-3.505],[121.423,-3.508],[121.4265,-3.5075],[121.4425,-3.499],[121.4635,-3.4925],[121.4715,-3.4815],[121.477,-3.452],[121.4915,-3.4345],[121.49,-3.432],[121.4855,-3.4265],[121.4835,-3.4235],[121.4805,-3.4145],[121.4685,-3.4025],[121.464,-3.3855],[121.4445,-3.359],[121.441,-3.3405],[121.433,-3.337],[121.4315,-3.3365],[121.4285,-3.3315],[121.4275,-3.321],[121.424,-3.3105],[121.425,-3.308],[121.4265,-3.3035],[121.4285,-3.3005],[121.43,-3.2975],[121.426,-3.292],[121.4325,-3.2815],[121.4315,-3.2755],[121.426,-3.2735],[121.3855,-3.25],[121.3705,-3.2465],[121.3565,-3.2485],[121.352,-3.249],[121.3465,-3.2495],[121.3375,-3.2485],[121.3365,-3.2485],[121.327,-3.241],[121.298,-3.2355],[121.2795,-3.2265]]]},"properties":{"code":"74.11.11.2011","name":"Puurau","latitude":-3.395469262208771,"longitude":121.29640450897618}},{"type":"Feature","geometry":{"type":"Polygon","coordinates":[[[121.9365,-4.179],[121.9315,-4.1795],[121.934,-4.1975],[121.9345,-4.204],[121.9385,-4.203],[121.9405,-4.2145],[121.9405,-4.218],[121.953,-4.217],[121.949,-4.194],[121.9435,-4.1945],[121.9365,-4.179]]]},"properties":{"code":"74.11.12.2001","name":"Gunung Jaya","latitude":-4.201964423333554,"longitude":121.94229028547053}},{"type":"Feature","geometry":{"type":"Polygon","coordinates":[[[122.0275,-4.2025],[121.9885,-4.2055],[121.982,-4.1995],[121.969,-4.202],[121.965,-4.202],[121.967,-4.2285],[121.968,-4.228],[121.97,-4.238],[122.0185,-4.238],[122.0275,-4.2025]]]},"properties":{"code":"74.11.12.2002","name":"Lembah Subur","latitude":-4.219617682053844,"longitude":121.9949452873884}},{"type":"Feature","geometry":{"type":"Polygon","coordinates":[[[122.0275,-4.2025],[122.026,-4.1825],[121.9715,-4.1885],[121.9675,-4.1925],[121.9665,-4.192],[121.966,-4.1925],[121.9665,-4.193],[121.966,-4.193],[121.9655,-4.1935],[121.965,-4.1945],[121.9645,-4.1945],[121.9625,-4.194],[121.963,-4.202],[121.969,-4.202],[121.982,-4.1995],[121.9885,-4.2055],[122.0275,-4.2025]]]},"properties":{"code":"74.11.12.2003","name":"Dangia","latitude":-4.194118497607469,"longitude":121.99900308132862}},{"type":"Feature","geometry":{"type":"Polygon","coordinates":[[[122.009,-4.265],[121.99,-4.2645],[121.991,-4.293],[122.0135,-4.291],[122.009,-4.278],[122.007,-4.2695],[122.009,-4.265]]]},"properties":{"code":"74.11.12.2004","name":"Lamosila","latitude":-4.278835730361111,"longitude":121.9999969784772}},{"type":"Feature","geometry":{"type":"Polygon","coordinates":[[[121.97,-4.238],[121.968,-4.228],[121.966,-4.2285],[121.9585,-4.229],[121.9565,-4.229],[121.955,-4.229],[121.9495,-4.229],[121.949,-4.244],[121.9605,-4.2445],[121.97,-4.238]]]},"properties":{"code":"74.11.12.2005","name":"Tetewua","latitude":-4.23634210516497,"longitude":121.95968467131506}},{"type":"Feature","geometry":{"type":"Polygon","coordinates":[[[122.0185,-4.238],[121.97,-4.238],[121.9605,-4.2445],[121.967,-4.2445],[121.9665,-4.264],[122.009,-4.265],[122.0155,-4.249],[122.0185,-4.238]]]},"properties":{"code":"74.11.12.2006","name":"Anambada","latitude":-4.251025163475865,"longitude":121.99080814510269}},{"type":"Feature","geometry":{"type":"Polygon","coordinates":[[[121.965,-4.202],[121.963,-4.202],[121.9625,-4.194],[121.9645,-4.1945],[121.965,-4.1945],[121.9655,-4.1935],[121.966,-4.193],[121.9665,-4.193],[121.966,-4.1925],[121.9665,-4.192],[121.9495,-4.1955],[121.955,-4.229],[121.964,-4.229],[121.966,-4.2285],[121.967,-4.2285],[121.965,-4.202]]]},"properties":{"code":"74.11.12.2007","name":"Talinduka","latitude":-4.211109078836849,"longitude":121.95894041302887}},{"type":"Feature","geometry":{"type":"Polygon","coordinates":[[[122.0085,-4.1505],[122.008,-4.1505],[122.0055,-4.15],[122.006,-4.1515],[122.008,-4.1525],[122.0065,-4.1545],[122.0025,-4.154],[122.002,-4.1555],[121.989,-4.169],[121.9875,-4.17],[121.9865,-4.1725],[121.985,-4.1735],[121.9735,-4.182],[121.9555,-4.1775],[121.9475,-4.1785],[121.95,-4.194],[121.9495,-4.1955],[121.9665,-4.192],[121.9675,-4.1925],[121.9715,-4.1885],[122.026,-4.1825],[122.025,-4.1755],[122.02,-4.167],[122.014,-4.16],[122.0085,-4.1505]]]},"properties":{"code":"74.11.12.2008","name":"Tetembuta","latitude":-4.176568542543362,"longitude":121.9910054875332}},{"type":"Feature","geometry":{"type":"Polygon","coordinates":[[[121.9665,-4.264],[121.952,-4.283],[121.956,-4.2955],[121.9575,-4.296],[121.9695,-4.2955],[121.9775,-4.293],[121.991,-4.293],[121.99,-4.2645],[121.9665,-4.264]]]},"properties":{"code":"74.11.12.2009","name":"Lalongkateba","latitude":-4.280098071382548,"longitude":121.97356554899405}},{"type":"Feature","geometry":{"type":"Polygon","coordinates":[[[122.0015,-4.137],[121.998,-4.129],[121.9965,-4.129],[121.9895,-4.1295],[121.9805,-4.1335],[121.981,-4.1355],[121.9745,-4.15],[121.9675,-4.1525],[121.9675,-4.1535],[121.968,-4.155],[121.9675,-4.1575],[121.9655,-4.161],[121.9635,-4.162],[121.9625,-4.1625],[121.961,-4.1645],[121.9605,-4.1635],[121.9605,-4.162],[121.959,-4.163],[121.9575,-4.1635],[121.9565,-4.162],[121.9555,-4.1595],[121.954,-4.164],[121.9585,-4.1655],[121.9575,-4.167],[121.9515,-4.173],[121.9465,-4.179],[121.9555,-4.1775],[121.9735,-4.182],[121.985,-4.1735],[121.9865,-4.1725],[121.9875,-4.17],[121.989,-4.169],[122.002,-4.1555],[122.0025,-4.154],[122.0065,-4.1545],[122.008,-4.1525],[122.006,-4.1515],[122.0055,-4.15],[122.008,-4.1505],[122.0085,-4.1505],[122.0055,-4.1465],[122.0015,-4.137]]]},"properties":{"code":"74.11.12.2010","name":"Wande","latitude":-4.156670541486174,"longitude":121.98109713993234}},{"type":"Feature","geometry":{"type":"Polygon","coordinates":[[[121.9475,-4.1785],[121.9465,-4.179],[121.937,-4.1755],[121.9365,-4.179],[121.9435,-4.1945],[121.95,-4.194],[121.9475,-4.1785]]]},"properties":{"code":"74.11.12.2011","name":"Mekar Jaya","latitude":-4.186343906147944,"longitude":121.9428707027287}},{"type":"Feature","geometry":{"type":"Polygon","coordinates":[[[121.9345,-4.204],[121.934,-4.1975],[121.9245,-4.1875],[121.9235,-4.19],[121.9245,-4.204],[121.9265,-4.205],[121.9285,-4.205],[121.931,-4.205],[121.9345,-4.204]]]},"properties":{"code":"74.11.12.2012","name":"Mulia Jaya","latitude":-4.194701972786168,"longitude":121.92893768592964}}]}