{"type":"FeatureCollection","features":[{"type":"Feature","geometry":{"type":"Polygon","coordinates":[[[123.0985,0.9165],[123.09,0.9115],[123.0775,0.9175],[123.059,0.919],[123.0575,0.916],[123.0555,0.895],[123.063,0.888],[123.066,0.8885],[123.067,0.8935],[123.0815,0.9035],[123.084,0.9035],[123.1,0.886],[123.1015,0.8995],[123.102,0.903],[123.102,0.904],[123.0985,0.9165]]]},"properties":{"code":"75.05.01.2003","name":"Imana"}},{"type":"Feature","geometry":{"type":"Polygon","coordinates":[[[123.1215,0.8835],[123.115,0.892],[123.1145,0.8895],[123.114,0.8885],[123.1145,0.8885],[123.114,0.885],[123.1215,0.8835]]]},"properties":{"code":"75.05.01.2004","name":"Bintana"}},{"type":"Feature","geometry":{"type":"Polygon","coordinates":[[[123.168,0.8695],[123.167,0.8695],[123.1665,0.872],[123.1665,0.8725],[123.1635,0.874],[123.159,0.8705],[123.155,0.8715],[123.1535,0.87],[123.1585,0.857],[123.146,0.837],[123.1445,0.8075],[123.1385,0.7965],[123.1355,0.78],[123.1255,0.773],[123.133,0.767],[123.1335,0.766],[123.1395,0.7695],[123.1425,0.77],[123.162,0.7635],[123.167,0.752],[123.178,0.7565],[123.182,0.756],[123.1905,0.754],[123.191,0.7535],[123.1905,0.756],[123.192,0.759],[123.1925,0.7625],[123.194,0.7655],[123.183,0.79],[123.186,0.816],[123.1695,0.826],[123.1615,0.8355],[123.161,0.8385],[123.163,0.857],[123.168,0.8695]]]},"properties":{"code":"75.05.01.2005","name":"Buata"}},{"type":"Feature","geometry":{"type":"Polygon","coordinates":[[[123.1285,0.8875],[123.128,0.8875],[123.1285,0.89],[123.127,0.89],[123.1255,0.8915],[123.123,0.8915],[123.1225,0.893],[123.119,0.8955],[123.1185,0.896],[123.115,0.892],[123.1215,0.8835],[123.1285,0.8825],[123.1275,0.879],[123.129,0.8775],[123.1295,0.877],[123.1305,0.877],[123.13,0.879],[123.131,0.8805],[123.1325,0.882],[123.1305,0.8835],[123.1295,0.8845],[123.1285,0.8875]]]},"properties":{"code":"75.05.01.2006","name":"Pinontoyonga"}},{"type":"Feature","geometry":{"type":"Polygon","coordinates":[[[123.1185,0.899],[123.1015,0.8995],[123.1,0.886],[123.114,0.8885],[123.1145,0.8895],[123.115,0.892],[123.1185,0.896],[123.119,0.8965],[123.12,0.8985],[123.1185,0.899]]]},"properties":{"code":"75.05.01.2007","name":"Monggupo"}},{"type":"Feature","geometry":{"type":"Polygon","coordinates":[[[123.12,0.9],[123.12,0.9005],[123.119,0.905],[123.1165,0.906],[123.116,0.906],[123.116,0.904],[123.1155,0.904],[123.116,0.9035],[123.116,0.9025],[123.1145,0.903],[123.114,0.901],[123.113,0.901],[123.103,0.9045],[123.102,0.903],[123.1015,0.8995],[123.1185,0.899],[123.12,0.9]]]},"properties":{"code":"75.05.01.2008","name":"Kotajin"}},{"type":"Feature","geometry":{"type":"Polygon","coordinates":[[[123.1,0.886],[123.084,0.9035],[123.0835,0.9035],[123.0795,0.8785],[123.0665,0.8695],[123.0595,0.8625],[123.06,0.861],[123.0645,0.852],[123.057,0.837],[123.0705,0.8195],[123.072,0.8055],[123.081,0.806],[123.0825,0.8165],[123.0925,0.824],[123.0955,0.852],[123.0845,0.8615],[123.098,0.878],[123.098,0.8845],[123.1,0.886]]]},"properties":{"code":"75.05.01.2011","name":"Ilomata"}},{"type":"Feature","geometry":{"type":"Polygon","coordinates":[[[123.0665,0.8695],[123.0795,0.8785],[123.0835,0.9035],[123.0815,0.9035],[123.067,0.8935],[123.066,0.8885],[123.063,0.888],[123.0665,0.8695]]]},"properties":{"code":"75.05.01.2013","name":"Iloheluma"}},{"type":"Feature","geometry":{"type":"Polygon","coordinates":[[[123.063,0.888],[123.0555,0.895],[123.045,0.887],[123.0405,0.8785],[123.0395,0.876],[123.0405,0.875],[123.042,0.87],[123.041,0.855],[123.0475,0.8495],[123.0545,0.832],[123.042,0.8165],[123.047,0.8045],[123.05,0.8035],[123.0545,0.8015],[123.057,0.802],[123.0625,0.801],[123.0655,0.8],[123.071,0.8035],[123.072,0.8055],[123.0705,0.8195],[123.057,0.837],[123.0645,0.852],[123.06,0.861],[123.0595,0.8625],[123.0665,0.8695],[123.063,0.888]]]},"properties":{"code":"75.05.01.2014","name":"Wapalo"}},{"type":"Feature","geometry":{"type":"Polygon","coordinates":[[[123.146,0.8765],[123.143,0.876],[123.1395,0.88],[123.137,0.8795],[123.1325,0.882],[123.131,0.8805],[123.13,0.879],[123.1305,0.877],[123.13,0.8765],[123.1195,0.845],[123.1195,0.8275],[123.1095,0.8205],[123.113,0.793],[123.1255,0.784],[123.125,0.7735],[123.1255,0.773],[123.1355,0.78],[123.1385,0.7965],[123.1445,0.8075],[123.146,0.837],[123.1585,0.857],[123.1535,0.87],[123.151,0.872],[123.1495,0.876],[123.1465,0.877],[123.146,0.8765]]]},"properties":{"code":"75.05.01.2015","name":"Posono"}},{"type":"Feature","geometry":{"type":"Polygon","coordinates":[[[123.1215,0.8835],[123.114,0.885],[123.1145,0.8885],[123.114,0.8885],[123.1,0.886],[123.098,0.8845],[123.098,0.878],[123.0845,0.8615],[123.0955,0.852],[123.0925,0.824],[123.0825,0.8165],[123.081,0.806],[123.0875,0.803],[123.092,0.8005],[123.113,0.793],[123.1095,0.8205],[123.1195,0.8275],[123.1195,0.845],[123.13,0.8765],[123.1305,0.877],[123.1295,0.877],[123.129,0.8775],[123.1275,0.879],[123.1285,0.8825],[123.1215,0.8835]]]},"properties":{"code":"75.05.01.2016","name":"Sigaso"}},{"type":"Feature","geometry":{"type":"Polygon","coordinates":[[[123.189,0.862],[123.1865,0.861],[123.1795,0.8615],[123.1755,0.864],[123.177,0.8655],[123.175,0.8695],[123.172,0.8695],[123.1715,0.87],[123.1695,0.87],[123.168,0.8695],[123.163,0.857],[123.161,0.8385],[123.1615,0.8355],[123.1695,0.826],[123.186,0.816],[123.183,0.79],[123.194,0.7655],[123.1925,0.7625],[123.192,0.759],[123.1905,0.756],[123.191,0.7535],[123.1915,0.754],[123.193,0.755],[123.2195,0.761],[123.2385,0.752],[123.2455,0.7505],[123.2475,0.749],[123.249,0.748],[123.2495,0.749],[123.2535,0.757],[123.2685,0.768],[123.274,0.7895],[123.271,0.8025],[123.2515,0.8185],[123.248,0.82],[123.2465,0.825],[123.2445,0.8285],[123.232,0.8335],[123.2285,0.837],[123.2275,0.838],[123.227,0.8415],[123.227,0.844],[123.2255,0.8445],[123.223,0.8455],[123.2135,0.848],[123.2125,0.8485],[123.205,0.857],[123.204,0.857],[123.203,0.857],[123.199,0.856],[123.1945,0.8615],[123.1905,0.8605],[123.189,0.862]]]},"properties":{"code":"75.05.01.2017","name":"Tombulilato"}},{"type":"Feature","geometry":{"type":"Polygon","coordinates":[[[123.119,0.9265],[123.0995,0.9275],[123.091,0.925],[123.0975,0.926],[123.1085,0.91],[123.103,0.9045],[123.113,0.901],[123.114,0.901],[123.1145,0.903],[123.116,0.9025],[123.116,0.9035],[123.1155,0.904],[123.1155,0.906],[123.1145,0.9075],[123.1145,0.908],[123.1155,0.909],[123.1155,0.911],[123.1155,0.9185],[123.1145,0.921],[123.113,0.922],[123.1155,0.924],[123.1155,0.9245],[123.1165,0.9255],[123.119,0.9265]]]},"properties":{"code":"75.05.01.2018","name":"Kotajin Utara"}},{"type":"Feature","geometry":{"type":"Polygon","coordinates":[[[123.103,0.9045],[123.1085,0.91],[123.0975,0.926],[123.091,0.925],[123.0985,0.9165],[123.102,0.904],[123.103,0.9045]]]},"properties":{"code":"75.05.01.2019","name":"Oluhuta"}},{"type":"Feature","geometry":{"type":"Polygon","coordinates":[[[122.8505,0.806],[122.847,0.802],[122.848,0.796],[122.8555,0.7745],[122.863,0.7685],[122.8795,0.7685],[122.88,0.7675],[122.8815,0.7665],[122.881,0.7675],[122.8835,0.772],[122.867,0.7775],[122.864,0.7795],[122.8585,0.7915],[122.8555,0.793],[122.8545,0.794],[122.854,0.796],[122.8535,0.7965],[122.854,0.7975],[122.8535,0.7985],[122.8525,0.7995],[122.853,0.8005],[122.8505,0.806]]]},"properties":{"code":"75.05.02.2001","name":"Pontolo"}},{"type":"Feature","geometry":{"type":"Polygon","coordinates":[[[122.8915,0.7775],[122.876,0.797],[122.8735,0.7985],[122.863,0.792],[122.8625,0.79],[122.8665,0.787],[122.883,0.7745],[122.883,0.774],[122.8845,0.775],[122.89,0.7745],[122.891,0.777],[122.8915,0.7775]]]},"properties":{"code":"75.05.02.2002","name":"Molingkapoto"}},{"type":"Feature","geometry":{"type":"Polygon","coordinates":[[[122.88,0.8305],[122.87,0.8255],[122.8685,0.818],[122.8735,0.8145],[122.891,0.8],[122.897,0.788],[122.9005,0.786],[122.9085,0.7965],[122.9085,0.7975],[122.8975,0.8025],[122.8935,0.812],[122.882,0.823],[122.881,0.825],[122.8815,0.8285],[122.8805,0.8295],[122.88,0.8305]]]},"properties":{"code":"75.05.02.2003","name":"Leboto"}},{"type":"Feature","geometry":{"type":"Polygon","coordinates":[[[122.916,0.8295],[122.9105,0.8295],[122.9085,0.83],[122.9065,0.8305],[122.9055,0.8315],[122.906,0.8305],[122.909,0.829],[122.91,0.827],[122.9105,0.8245],[122.909,0.822],[122.9085,0.8205],[122.9065,0.8085],[122.9155,0.803],[122.924,0.807],[122.9265,0.8095],[122.93,0.8105],[122.9295,0.811],[122.928,0.8125],[122.927,0.814],[122.92,0.821],[122.9165,0.828],[122.916,0.8295]]]},"properties":{"code":"75.05.02.2004","name":"Posso"}},{"type":"Feature","geometry":{"type":"Polygon","coordinates":[[[122.92,0.821],[122.922,0.8325],[122.9205,0.8335],[122.9195,0.8345],[122.9165,0.8335],[122.916,0.8315],[122.9165,0.828],[122.92,0.821]]]},"properties":{"code":"75.05.02.2005","name":"Titidu"}},{"type":"Feature","geometry":{"type":"Polygon","coordinates":[[[122.927,0.839],[122.9235,0.8395],[122.919,0.8395],[122.916,0.843],[122.9165,0.8435],[122.916,0.844],[122.9155,0.845],[122.914,0.844],[122.9035,0.844],[122.903,0.8435],[122.9025,0.8415],[122.903,0.839],[122.904,0.8385],[122.9155,0.8335],[122.9195,0.8345],[122.921,0.836],[122.927,0.839]]]},"properties":{"code":"75.05.02.2006","name":"Moluo"}},{"type":"Feature","geometry":{"type":"Polygon","coordinates":[[[122.87,0.8255],[122.861,0.828],[122.8695,0.801],[122.876,0.797],[122.8915,0.7775],[122.893,0.7785],[122.897,0.788],[122.891,0.8],[122.8735,0.8145],[122.8685,0.818],[122.87,0.8255]]]},"properties":{"code":"75.05.02.2010","name":"Mootinelo"}},{"type":"Feature","geometry":{"type":"Polygon","coordinates":[[[123.0075,0.7835],[123.005,0.794],[123.015,0.8035],[123.013,0.817],[123.001,0.8185],[122.9905,0.833],[122.988,0.8315],[122.981,0.8165],[122.964,0.8165],[122.952,0.8095],[122.9395,0.8105],[122.939,0.8095],[122.9305,0.8105],[122.93,0.8105],[122.9265,0.8095],[122.924,0.807],[122.9155,0.803],[122.9085,0.799],[122.9085,0.7965],[122.9005,0.786],[122.897,0.788],[122.893,0.7785],[122.891,0.777],[122.89,0.7745],[122.8845,0.775],[122.883,0.774],[122.8835,0.773],[122.8835,0.772],[122.881,0.7675],[122.8815,0.766],[122.8805,0.765],[122.88,0.7635],[122.8855,0.751],[122.8895,0.7515],[122.891,0.751],[122.897,0.7385],[122.9075,0.7305],[122.906,0.7095],[122.907,0.7075],[122.907,0.7055],[122.906,0.703],[122.92,0.692],[122.9215,0.6925],[122.9315,0.7045],[122.9305,0.709],[122.93,0.7115],[122.9315,0.712],[122.9335,0.713],[122.9645,0.717],[122.9675,0.718],[122.968,0.718],[122.9805,0.7315],[122.9805,0.7335],[122.979,0.7465],[122.98,0.752],[122.9815,0.7585],[122.9975,0.769],[123.006,0.783],[123.0075,0.7835]]]},"properties":{"code":"75.05.02.2011","name":"Bualemo"}},{"type":"Feature","geometry":{"type":"Polygon","coordinates":[[[122.8995,0.8495],[122.88,0.8305],[122.8805,0.8295],[122.8815,0.8285],[122.881,0.825],[122.885,0.823],[122.9065,0.8085],[122.9085,0.8205],[122.909,0.822],[122.9105,0.8245],[122.91,0.827],[122.909,0.829],[122.906,0.8305],[122.906,0.831],[122.9055,0.8325],[122.9035,0.835],[122.9035,0.8355],[122.904,0.8375],[122.903,0.839],[122.9025,0.8415],[122.903,0.8435],[122.9045,0.845],[122.903,0.8445],[122.902,0.845],[122.9015,0.848],[122.8995,0.8495]]]},"properties":{"code":"75.05.02.2013","name":"Bulalo"}},{"type":"Feature","geometry":{"type":"Polygon","coordinates":[[[122.9125,0.8535],[122.91,0.8545],[122.905,0.8525],[122.8995,0.8495],[122.9015,0.848],[122.902,0.845],[122.903,0.8445],[122.9045,0.845],[122.9035,0.844],[122.914,0.844],[122.9155,0.845],[122.9145,0.846],[122.909,0.852],[122.91,0.853],[122.911,0.8535],[122.9125,0.853],[122.9125,0.8535]]]},"properties":{"code":"75.05.02.2017","name":"Katialada"}},{"type":"Feature","geometry":{"type":"Polygon","coordinates":[[[122.8555,0.7745],[122.848,0.796],[122.8385,0.7835],[122.8375,0.767],[122.8555,0.7745]]]},"properties":{"code":"75.05.02.2019","name":"Ombulodata"}},{"type":"Feature","geometry":{"type":"Polygon","coordinates":[[[122.9065,0.8085],[122.885,0.823],[122.882,0.823],[122.8935,0.812],[122.8975,0.8025],[122.9085,0.7975],[122.9085,0.799],[122.9155,0.803],[122.9065,0.8085]]]},"properties":{"code":"75.05.02.2021","name":"Alata Karya"}},{"type":"Feature","geometry":{"type":"Polygon","coordinates":[[[122.9165,0.8335],[122.9155,0.8335],[122.904,0.8385],[122.904,0.8375],[122.9035,0.8355],[122.9035,0.835],[122.9055,0.8325],[122.9055,0.8315],[122.9065,0.8305],[122.9085,0.83],[122.9105,0.8295],[122.916,0.8295],[122.916,0.8315],[122.9165,0.8335]]]},"properties":{"code":"75.05.02.2023","name":"Cisadane"}},{"type":"Feature","geometry":{"type":"Polygon","coordinates":[[[122.8815,0.7665],[122.88,0.7675],[122.8795,0.7685],[122.863,0.7685],[122.8635,0.7655],[122.864,0.7655],[122.8665,0.765],[122.868,0.764],[122.8665,0.7615],[122.879,0.753],[122.88,0.7505],[122.8805,0.7505],[122.883,0.751],[122.8845,0.751],[122.8855,0.751],[122.88,0.7635],[122.8805,0.765],[122.8815,0.766],[122.8815,0.7665]]]},"properties":{"code":"75.05.02.2024","name":"Botuwombato"}},{"type":"Feature","geometry":{"type":"Polygon","coordinates":[[[122.8735,0.7985],[122.8695,0.801],[122.861,0.828],[122.8605,0.8145],[122.8505,0.806],[122.853,0.8005],[122.8525,0.7995],[122.8535,0.7985],[122.8545,0.7975],[122.863,0.792],[122.8735,0.7985]]]},"properties":{"code":"75.05.02.2025","name":"Botungobungo"}},{"type":"Feature","geometry":{"type":"Polygon","coordinates":[[[122.863,0.792],[122.8545,0.7975],[122.854,0.7975],[122.8535,0.7965],[122.854,0.796],[122.8545,0.794],[122.8555,0.793],[122.8585,0.7915],[122.864,0.7795],[122.867,0.7775],[122.8835,0.772],[122.8835,0.773],[122.883,0.7745],[122.8665,0.787],[122.8625,0.79],[122.863,0.792]]]},"properties":{"code":"75.05.02.2026","name":"Molingkapoto Selatan"}},{"type":"Feature","geometry":{"type":"Polygon","coordinates":[[[122.8555,0.7745],[122.8375,0.767],[122.841,0.7585],[122.8455,0.7565],[122.8465,0.7565],[122.8605,0.763],[122.862,0.7645],[122.862,0.765],[122.863,0.7685],[122.8555,0.7745]]]},"properties":{"code":"75.05.02.2030","name":"Pontolo Atas"}},{"type":"Feature","geometry":{"type":"Polygon","coordinates":[[[122.9815,0.839],[122.966,0.8305],[122.9575,0.831],[122.9445,0.8425],[122.928,0.8385],[122.927,0.839],[122.921,0.836],[122.9205,0.8335],[122.922,0.8325],[122.92,0.821],[122.927,0.814],[122.928,0.8125],[122.9295,0.811],[122.9305,0.8105],[122.939,0.8095],[122.9395,0.8105],[122.952,0.8095],[122.964,0.8165],[122.981,0.8165],[122.988,0.8315],[122.9815,0.839]]]},"properties":{"code":"75.05.02.2032","name":"Masuru"}},{"type":"Feature","geometry":{"type":"Polygon","coordinates":[[[122.796,0.8345],[122.801,0.852],[122.7875,0.8655],[122.782,0.8585],[122.7795,0.8585],[122.7785,0.859],[122.7775,0.8575],[122.7775,0.856],[122.775,0.855],[122.77,0.8445],[122.7655,0.8405],[122.765,0.84],[122.766,0.8395],[122.7685,0.839],[122.772,0.837],[122.775,0.8255],[122.7765,0.8245],[122.7775,0.824],[122.782,0.824],[122.785,0.8265],[122.7915,0.8345],[122.794,0.834],[122.796,0.8345]]]},"properties":{"code":"75.05.03.2001","name":"Ilangata"}},{"type":"Feature","geometry":{"type":"Polygon","coordinates":[[[122.833,0.806],[122.8295,0.812],[122.822,0.8135],[122.8215,0.8125],[122.819,0.81],[122.8075,0.7995],[122.8065,0.7985],[122.8085,0.7935],[122.8145,0.7925],[122.825,0.7915],[122.832,0.793],[122.8345,0.794],[122.836,0.796],[122.837,0.7995],[122.8335,0.8045],[122.833,0.806]]]},"properties":{"code":"75.05.03.2002","name":"Tolongio"}},{"type":"Feature","geometry":{"type":"Polygon","coordinates":[[[122.7655,0.8605],[122.7395,0.8805],[122.742,0.876],[122.742,0.8715],[122.7395,0.8605],[122.726,0.852],[122.7515,0.8425],[122.759,0.845],[122.76,0.8465],[122.76,0.848],[122.764,0.856],[122.766,0.859],[122.7655,0.8605]]]},"properties":{"code":"75.05.03.2006","name":"Tolango"}},{"type":"Feature","geometry":{"type":"Polygon","coordinates":[[[122.8235,0.8265],[122.8135,0.8335],[122.81,0.8425],[122.811,0.8285],[122.8075,0.8145],[122.8075,0.814],[122.819,0.81],[122.8215,0.8125],[122.822,0.814],[122.822,0.815],[122.8235,0.8265]]]},"properties":{"code":"75.05.03.2007","name":"Popalo"}},{"type":"Feature","geometry":{"type":"Polygon","coordinates":[[[122.7705,0.9135],[122.756,0.907],[122.7755,0.8915],[122.786,0.876],[122.797,0.8775],[122.8025,0.891],[122.79,0.9025],[122.781,0.9035],[122.7705,0.9135]]]},"properties":{"code":"75.05.03.2008","name":"Dudepo"}},{"type":"Feature","geometry":{"type":"Polygon","coordinates":[[[122.8385,0.7835],[122.832,0.793],[122.825,0.7915],[122.817,0.792],[122.8155,0.7865],[122.8145,0.7835],[122.813,0.769],[122.808,0.763],[122.8085,0.763],[122.8135,0.756],[122.8215,0.751],[122.824,0.746],[122.827,0.7485],[122.8395,0.758],[122.841,0.7585],[122.8375,0.767],[122.8385,0.7835]]]},"properties":{"code":"75.05.03.2009","name":"Mootilango"}},{"type":"Feature","geometry":{"type":"Polygon","coordinates":[[[122.844,0.8055],[122.838,0.823],[122.8325,0.8075],[122.8335,0.8045],[122.8365,0.8005],[122.844,0.8055]]]},"properties":{"code":"75.05.03.2011","name":"Langge"}},{"type":"Feature","geometry":{"type":"Polygon","coordinates":[[[122.847,0.802],[122.844,0.8055],[122.8365,0.8005],[122.837,0.7995],[122.836,0.796],[122.8345,0.794],[122.832,0.793],[122.8385,0.7835],[122.848,0.796],[122.847,0.802]]]},"properties":{"code":"75.05.03.2012","name":"Tutuwoto"}},{"type":"Feature","geometry":{"type":"Polygon","coordinates":[[[122.819,0.81],[122.8075,0.814],[122.7965,0.8085],[122.782,0.8115],[122.776,0.803],[122.778,0.798],[122.7905,0.7985],[122.7975,0.7905],[122.8085,0.7935],[122.8065,0.7985],[122.8075,0.7995],[122.819,0.81]]]},"properties":{"code":"75.05.03.2013","name":"Hiyalooile"}},{"type":"Feature","geometry":{"type":"Polygon","coordinates":[[[122.7875,0.8655],[122.771,0.879],[122.7655,0.8605],[122.766,0.859],[122.764,0.856],[122.76,0.848],[122.76,0.8465],[122.759,0.845],[122.7515,0.8425],[122.7505,0.8425],[122.75,0.8415],[122.7555,0.836],[122.748,0.8215],[122.75,0.8135],[122.744,0.7945],[122.7325,0.783],[122.7505,0.7725],[122.7525,0.77],[122.767,0.765],[122.7585,0.773],[122.763,0.7835],[122.759,0.796],[122.7635,0.8045],[122.763,0.8205],[122.7635,0.8225],[122.7595,0.8265],[122.7595,0.828],[122.763,0.8345],[122.7635,0.838],[122.7655,0.8405],[122.77,0.8445],[122.775,0.855],[122.7775,0.856],[122.7775,0.8575],[122.7785,0.859],[122.7795,0.8585],[122.782,0.8585],[122.7875,0.8655]]]},"properties":{"code":"75.05.03.2014","name":"Ibarat"}},{"type":"Feature","geometry":{"type":"Polygon","coordinates":[[[122.7515,0.8425],[122.726,0.852],[122.7135,0.836],[122.7115,0.8285],[122.7075,0.8265],[122.7,0.8145],[122.697,0.8125],[122.6965,0.812],[122.696,0.8085],[122.695,0.8065],[122.6965,0.8065],[122.6975,0.806],[122.696,0.8035],[122.6955,0.803],[122.699,0.802],[122.7045,0.7985],[122.7065,0.7985],[122.715,0.787],[122.7175,0.7875],[122.7325,0.783],[122.744,0.7945],[122.75,0.8135],[122.748,0.8215],[122.7555,0.836],[122.75,0.8415],[122.7505,0.8425],[122.7515,0.8425]]]},"properties":{"code":"75.05.03.2017","name":"Iloheluma"}},{"type":"Feature","geometry":{"type":"Polygon","coordinates":[[[122.8235,0.8265],[122.822,0.815],[122.822,0.8135],[122.8295,0.812],[122.833,0.806],[122.8325,0.8075],[122.838,0.823],[122.8235,0.8265]]]},"properties":{"code":"75.05.03.2021","name":"Ilodulunga"}},{"type":"Feature","geometry":{"type":"Polygon","coordinates":[[[122.8075,0.814],[122.8075,0.8145],[122.811,0.8285],[122.81,0.8425],[122.796,0.8345],[122.794,0.834],[122.7915,0.8345],[122.785,0.8265],[122.7825,0.8245],[122.783,0.821],[122.781,0.819],[122.7785,0.819],[122.776,0.819],[122.7755,0.805],[122.776,0.803],[122.782,0.8115],[122.7965,0.8085],[122.8075,0.814]]]},"properties":{"code":"75.05.03.2023","name":"Putiana"}},{"type":"Feature","geometry":{"type":"Polygon","coordinates":[[[122.8085,0.7935],[122.7975,0.7905],[122.7905,0.7985],[122.778,0.798],[122.7825,0.7695],[122.7825,0.769],[122.782,0.7675],[122.784,0.763],[122.8005,0.759],[122.802,0.76],[122.804,0.7605],[122.8065,0.7625],[122.807,0.763],[122.808,0.763],[122.813,0.769],[122.8145,0.7835],[122.8155,0.7865],[122.817,0.792],[122.8145,0.7925],[122.8085,0.7935]]]},"properties":{"code":"75.05.03.2024","name":"Helumo"}},{"type":"Feature","geometry":{"type":"Polygon","coordinates":[[[122.7825,0.8245],[122.782,0.824],[122.7775,0.824],[122.7765,0.8245],[122.775,0.8255],[122.772,0.837],[122.7685,0.839],[122.766,0.8395],[122.765,0.84],[122.7635,0.838],[122.763,0.8345],[122.7595,0.828],[122.7595,0.8265],[122.7635,0.8225],[122.763,0.8205],[122.7635,0.8045],[122.759,0.796],[122.763,0.7835],[122.7585,0.773],[122.767,0.765],[122.7825,0.7695],[122.778,0.798],[122.776,0.803],[122.7755,0.805],[122.776,0.819],[122.7785,0.819],[122.781,0.819],[122.783,0.821],[122.7825,0.8245]]]},"properties":{"code":"75.05.03.2025","name":"Datahu"}},{"type":"Feature","geometry":{"type":"Polygon","coordinates":[[[122.451,0.99],[122.434,0.981],[122.4325,0.981],[122.4285,0.9875],[122.4285,0.991],[122.429,0.993],[122.429,0.994],[122.42,0.9795],[122.4175,0.97],[122.422,0.957],[122.416,0.934],[122.395,0.9125],[122.397,0.896],[122.4055,0.8925],[122.4075,0.8905],[122.412,0.8875],[122.4195,0.8845],[122.433,0.8885],[122.4375,0.9055],[122.46,0.932],[122.457,0.947],[122.4455,0.966],[122.451,0.99]]]},"properties":{"code":"75.05.04.2001","name":"Bulontiyo Timur"}},{"type":"Feature","geometry":{"type":"Polygon","coordinates":[[[122.4295,0.9945],[122.412,0.993],[122.3935,1.014],[122.395,1.005],[122.396,1.0005],[122.397,0.9995],[122.3995,0.999],[122.406,0.9835],[122.42,0.9795],[122.429,0.994],[122.4295,0.9945]]]},"properties":{"code":"75.05.04.2002","name":"Bulontiyo Barat"}},{"type":"Feature","geometry":{"type":"Polygon","coordinates":[[[122.288,1.0045],[122.2775,1.005],[122.2725,1],[122.273,0.9995],[122.275,0.9955],[122.275,0.995],[122.283,0.9895],[122.2855,0.9535],[122.289,0.9365],[122.299,0.9165],[122.2995,0.915],[122.309,0.916],[122.3105,0.9165],[122.3145,0.919],[122.3185,0.9215],[122.3195,0.923],[122.3235,0.926],[122.324,0.926],[122.325,0.926],[122.3195,0.951],[122.303,0.9665],[122.298,0.987],[122.288,1.0045]]]},"properties":{"code":"75.05.04.2007","name":"Buloila"}},{"type":"Feature","geometry":{"type":"Polygon","coordinates":[[[122.3965,0.999],[122.395,1.005],[122.3935,1.014],[122.39,1.0075],[122.371,0.993],[122.362,0.9965],[122.353,1.0125],[122.3455,0.9745],[122.327,0.962],[122.3195,0.951],[122.325,0.926],[122.3295,0.923],[122.333,0.9175],[122.3365,0.9175],[122.35,0.9215],[122.3515,0.921],[122.352,0.9205],[122.3535,0.927],[122.3785,0.943],[122.381,0.9655],[122.391,0.9775],[122.3965,0.999]]]},"properties":{"code":"75.05.04.2009","name":"Kasia"}},{"type":"Feature","geometry":{"type":"Polygon","coordinates":[[[122.329,1.0205],[122.3205,1.0205],[122.316,1.007],[122.288,1.0045],[122.298,0.987],[122.303,0.9665],[122.3195,0.951],[122.327,0.962],[122.3265,0.9875],[122.335,1.0035],[122.329,1.0205]]]},"properties":{"code":"75.05.04.2010","name":"Kikia"}},{"type":"Feature","geometry":{"type":"Polygon","coordinates":[[[122.275,0.995],[122.2745,0.9945],[122.2595,0.9795],[122.2575,0.979],[122.2535,0.9775],[122.251,0.9745],[122.2495,0.97],[122.2515,0.9675],[122.251,0.9605],[122.2625,0.9545],[122.265,0.944],[122.2605,0.9345],[122.261,0.9285],[122.2615,0.929],[122.275,0.9115],[122.2785,0.9105],[122.2995,0.915],[122.299,0.9165],[122.289,0.9365],[122.2855,0.9535],[122.283,0.9895],[122.275,0.995]]]},"properties":{"code":"75.05.04.2012","name":"Tumba"}},{"type":"Feature","geometry":{"type":"Polygon","coordinates":[[[122.42,0.9795],[122.406,0.9835],[122.3995,0.999],[122.397,0.9995],[122.396,1.0005],[122.3965,0.999],[122.391,0.9775],[122.381,0.9655],[122.3785,0.943],[122.3535,0.927],[122.352,0.9205],[122.354,0.918],[122.359,0.9085],[122.3655,0.9085],[122.397,0.896],[122.395,0.9125],[122.416,0.934],[122.422,0.957],[122.4175,0.97],[122.42,0.9795]]]},"properties":{"code":"75.05.04.2013","name":"Mebongo"}},{"type":"Feature","geometry":{"type":"Polygon","coordinates":[[[122.2775,1.005],[122.2625,1.0125],[122.258,1.007],[122.2605,0.9945],[122.25,0.985],[122.247,0.9745],[122.243,0.949],[122.248,0.946],[122.2515,0.943],[122.2605,0.9345],[122.265,0.944],[122.2625,0.9545],[122.251,0.9605],[122.2515,0.9675],[122.2495,0.97],[122.251,0.9745],[122.2535,0.9775],[122.2575,0.979],[122.2595,0.9795],[122.2745,0.9945],[122.275,0.9955],[122.273,0.9995],[122.2725,1],[122.2775,1.005]]]},"properties":{"code":"75.05.04.2014","name":"Lelato"}},{"type":"Feature","geometry":{"type":"Polygon","coordinates":[[[122.485,0.971],[122.464,0.99],[122.4615,0.995],[122.4575,0.996],[122.4565,0.997],[122.4525,0.9985],[122.4515,0.9975],[122.451,0.9955],[122.451,0.99],[122.4455,0.966],[122.457,0.947],[122.46,0.932],[122.4375,0.9055],[122.433,0.8885],[122.4495,0.8845],[122.4565,0.8885],[122.4715,0.8775],[122.4755,0.8755],[122.4795,0.8755],[122.489,0.873],[122.491,0.872],[122.4935,0.8715],[122.493,0.876],[122.492,0.881],[122.4895,0.885],[122.495,0.893],[122.4865,0.918],[122.4905,0.9445],[122.485,0.971]]]},"properties":{"code":"75.05.04.2016","name":"Pulohenti"}},{"type":"Feature","geometry":{"type":"Polygon","coordinates":[[[122.353,1.0125],[122.351,1.02],[122.3285,1.0335],[122.329,1.0205],[122.335,1.0035],[122.3265,0.9875],[122.327,0.962],[122.3455,0.9745],[122.353,1.0125]]]},"properties":{"code":"75.05.04.2019","name":"Puncak Mandiri"}},{"type":"Feature","geometry":{"type":"Polygon","coordinates":[[[122.453,1.029],[122.452,1.0315],[122.4405,1.0235],[122.4445,0.9985],[122.4295,0.9945],[122.429,0.993],[122.4285,0.991],[122.4285,0.9875],[122.4325,0.981],[122.434,0.981],[122.451,0.99],[122.451,0.9955],[122.452,0.9985],[122.4525,0.999],[122.458,1.008],[122.453,1.029]]]},"properties":{"code":"75.05.04.2020","name":"Hutakalo"}},{"type":"Feature","geometry":{"type":"Polygon","coordinates":[[[122.175,1.02],[122.161,1.003],[122.1615,0.999],[122.1645,0.994],[122.175,0.984],[122.1765,0.986],[122.1765,0.9875],[122.1775,0.988],[122.179,0.989],[122.1805,0.9915],[122.1895,0.994],[122.177,1.015],[122.175,1.02]]]},"properties":{"code":"75.05.05.2001","name":"Tolinggula Tengah"}},{"type":"Feature","geometry":{"type":"Polygon","coordinates":[[[122.1955,1.0385],[122.191,1.0385],[122.1775,1.037],[122.1755,1.0355],[122.175,1.0325],[122.174,1.031],[122.171,1.029],[122.17,1.029],[122.172,1.0265],[122.174,1.023],[122.176,1.017],[122.1825,1.019],[122.1885,1.022],[122.2035,1.0015],[122.2055,1.0025],[122.206,1.003],[122.2115,1.0025],[122.212,1.003],[122.2125,1.0035],[122.2155,1.005],[122.2235,1.011],[122.2015,1.0255],[122.1955,1.0385]]]},"properties":{"code":"75.05.05.2002","name":"Tolinggula Pantai"}},{"type":"Feature","geometry":{"type":"Polygon","coordinates":[[[122.1615,0.972],[122.157,0.993],[122.157,1.009],[122.154,1.019],[122.152,1.0185],[122.1505,1.021],[122.15,1.023],[122.1485,1.0215],[122.1465,1.0205],[122.146,1.02],[122.144,1.0195],[122.142,1.0185],[122.141,1.018],[122.1495,1.0075],[122.1475,1.0005],[122.157,0.9655],[122.1615,0.972]]]},"properties":{"code":"75.05.05.2003","name":"Tolinggula Ulu"}},{"type":"Feature","geometry":{"type":"Polygon","coordinates":[[[122.136,0.9515],[122.123,0.9645],[122.117,0.974],[122.118,0.978],[122.1185,0.9835],[122.115,0.997],[122.111,1.0015],[122.1105,1.0035],[122.1035,1.006],[122.1025,1.0055],[122.101,1.0045],[122.0975,1.0025],[122.0915,1],[122.088,0.9985],[122.0755,1.0025],[122.0715,1.005],[122.0685,1.004],[122.0685,1.0035],[122.0675,1.002],[122.0685,1.002],[122.07,1.001],[122.071,0.9995],[122.074,0.9855],[122.0675,0.9695],[122.072,0.9625],[122.071,0.9605],[122.068,0.956],[122.0645,0.949],[122.064,0.947],[122.0615,0.935],[122.0615,0.9325],[122.07,0.9185],[122.0735,0.905],[122.076,0.904],[122.0935,0.906],[122.1025,0.9015],[122.105,0.899],[122.11,0.8985],[122.114,0.9005],[122.1155,0.9035],[122.1165,0.907],[122.1165,0.9095],[122.1195,0.9145],[122.1215,0.918],[122.1225,0.9205],[122.132,0.9345],[122.133,0.9435],[122.135,0.9485],[122.136,0.9515]]]},"properties":{"code":"75.05.05.2006","name":"Limbato"}},{"type":"Feature","geometry":{"type":"Polygon","coordinates":[[[122.064,0.948],[122.0645,0.949],[122.068,0.956],[122.071,0.9605],[122.072,0.9625],[122.0675,0.9695],[122.074,0.9855],[122.071,0.9995],[122.07,1.001],[122.0685,1.002],[122.0675,1.002],[122.0665,1.0005],[122.0505,0.9925],[122.0455,0.989],[122.044,0.989],[122.0425,0.9885],[122.042,0.9885],[122.042,0.987],[122.041,0.985],[122.04,0.984],[122.0365,0.978],[122.036,0.9765],[122.034,0.974],[122.022,0.9525],[122.0375,0.9525],[122.0375,0.952],[122.0385,0.952],[122.042,0.9515],[122.047,0.9505],[122.064,0.948]]]},"properties":{"code":"75.05.05.2007","name":"Papualangi"}},{"type":"Feature","geometry":{"type":"Polygon","coordinates":[[[122.1935,0.996],[122.189,1.012],[122.187,1.016],[122.1835,1.0195],[122.1825,1.019],[122.176,1.017],[122.177,1.015],[122.1895,0.994],[122.1925,0.9955],[122.1935,0.996]]]},"properties":{"code":"75.05.05.2008","name":"Molangga"}},{"type":"Feature","geometry":{"type":"Polygon","coordinates":[[[122.064,0.948],[122.047,0.9505],[122.042,0.9515],[122.0385,0.952],[122.0375,0.952],[122.0375,0.95],[122.037,0.942],[122.036,0.938],[122.0285,0.926],[122.0215,0.9225],[122.019,0.9225],[122.0175,0.922],[122.0155,0.909],[122.0065,0.911],[121.9965,0.906],[121.9835,0.908],[121.982,0.907],[121.997,0.892],[122.001,0.8905],[122.015,0.89],[122.0195,0.888],[122.0245,0.887],[122.0325,0.8855],[122.0355,0.8865],[122.056,0.9],[122.069,0.9035],[122.0735,0.905],[122.07,0.9185],[122.0615,0.9325],[122.0615,0.935],[122.064,0.947],[122.064,0.948]]]},"properties":{"code":"75.05.05.2011","name":"Cempaka Putih"}},{"type":"Feature","geometry":{"type":"Polygon","coordinates":[[[122.17,1.029],[122.1675,1.0295],[122.158,1.027],[122.155,1.025],[122.1545,1.0255],[122.153,1.0245],[122.1505,1.0235],[122.15,1.023],[122.1505,1.021],[122.152,1.0185],[122.154,1.019],[122.157,1.009],[122.157,0.993],[122.1615,0.972],[122.1645,0.9785],[122.1655,0.9835],[122.172,0.9825],[122.1735,0.983],[122.175,0.984],[122.1645,0.994],[122.1615,0.999],[122.161,1.003],[122.175,1.02],[122.174,1.023],[122.172,1.0265],[122.17,1.029]]]},"properties":{"code":"75.05.05.2014","name":"Tolite Jaya"}},{"type":"Feature","geometry":{"type":"Polygon","coordinates":[[[122.2035,1.0015],[122.1885,1.022],[122.1835,1.0195],[122.187,1.016],[122.189,1.012],[122.1935,0.996],[122.195,0.9965],[122.2,0.999],[122.2015,0.9995],[122.2035,1.0015]]]},"properties":{"code":"75.05.05.2017","name":"Ilomangga"}},{"type":"Feature","geometry":{"type":"Polygon","coordinates":[[[122.141,1.018],[122.134,1.0195],[122.1235,1.013],[122.1085,1.0105],[122.106,1.008],[122.104,1.007],[122.1035,1.006],[122.1105,1.0035],[122.111,1.0015],[122.115,0.997],[122.1185,0.9835],[122.118,0.978],[122.117,0.974],[122.123,0.9645],[122.136,0.9515],[122.14,0.9605],[122.141,0.964],[122.144,0.9645],[122.148,0.963],[122.1505,0.9635],[122.1535,0.962],[122.1565,0.964],[122.157,0.9655],[122.1475,1.0005],[122.1495,1.0075],[122.141,1.018]]]},"properties":{"code":"75.05.05.2018","name":"Ilotunggula"}},{"type":"Feature","geometry":{"type":"Polygon","coordinates":[[[123.0405,0.9295],[123.0375,0.93],[123.038,0.925],[123.037,0.925],[123.0275,0.9165],[123.033,0.9105],[123.039,0.909],[123.042,0.911],[123.043,0.912],[123.0415,0.914],[123.041,0.915],[123.045,0.9155],[123.044,0.9165],[123.0405,0.9295]]]},"properties":{"code":"75.05.06.2001","name":"Gentuma"}},{"type":"Feature","geometry":{"type":"Polygon","coordinates":[[[123.0575,0.916],[123.048,0.9355],[123.048,0.916],[123.051,0.911],[123.051,0.91],[123.0425,0.894],[123.045,0.887],[123.0555,0.895],[123.0575,0.916]]]},"properties":{"code":"75.05.06.2002","name":"Dumolodo"}},{"type":"Feature","geometry":{"type":"Polygon","coordinates":[[[123.0275,0.9325],[123.0125,0.944],[123.0015,0.943],[122.9995,0.938],[123.004,0.9275],[122.9975,0.9165],[123.0025,0.9135],[123.027,0.9175],[123.028,0.919],[123.0275,0.9245],[123.026,0.9255],[123.0275,0.9325]]]},"properties":{"code":"75.05.06.2003","name":"Molonggota"}},{"type":"Feature","geometry":{"type":"Polygon","coordinates":[[[123.037,0.8845],[123.0375,0.888],[123.034,0.906],[123.034,0.9065],[122.997,0.9055],[122.999,0.8905],[122.9995,0.888],[123.037,0.8845]]]},"properties":{"code":"75.05.06.2004","name":"Ipilo"}},{"type":"Feature","geometry":{"type":"Polygon","coordinates":[[[123.045,0.887],[123.0425,0.894],[123.051,0.91],[123.051,0.911],[123.0505,0.912],[123.0495,0.9115],[123.049,0.911],[123.043,0.912],[123.042,0.911],[123.039,0.909],[123.033,0.9105],[123.034,0.907],[123.034,0.906],[123.0375,0.888],[123.037,0.8845],[123.0355,0.872],[123.0275,0.859],[123.038,0.8435],[123.035,0.822],[123.039,0.807],[123.0305,0.7955],[123.038,0.7885],[123.0485,0.791],[123.0495,0.7915],[123.052,0.792],[123.0605,0.796],[123.0655,0.8],[123.0625,0.801],[123.057,0.802],[123.0545,0.8015],[123.05,0.8035],[123.047,0.8045],[123.042,0.8165],[123.0545,0.832],[123.0475,0.8495],[123.041,0.855],[123.042,0.87],[123.0405,0.875],[123.0395,0.876],[123.0405,0.8785],[123.045,0.887]]]},"properties":{"code":"75.05.06.2005","name":"Langke"}},{"type":"Feature","geometry":{"type":"Polygon","coordinates":[[[123.041,0.9305],[123.0375,0.9325],[123.0375,0.93],[123.0405,0.9295],[123.041,0.9305]]]},"properties":{"code":"75.05.06.2006","name":"Pasalae"}},{"type":"Feature","geometry":{"type":"Polygon","coordinates":[[[123.048,0.9355],[123.041,0.9305],[123.0405,0.9295],[123.044,0.9165],[123.045,0.9155],[123.041,0.915],[123.0415,0.914],[123.043,0.912],[123.049,0.911],[123.0495,0.9115],[123.0505,0.912],[123.048,0.916],[123.048,0.9355]]]},"properties":{"code":"75.05.06.2007","name":"Nanati Jaya"}},{"type":"Feature","geometry":{"type":"Polygon","coordinates":[[[123.0375,0.9325],[123.0275,0.9325],[123.026,0.9255],[123.027,0.925],[123.0325,0.925],[123.038,0.925],[123.0375,0.9325]]]},"properties":{"code":"75.05.06.2008","name":"Ketapang"}},{"type":"Feature","geometry":{"type":"Polygon","coordinates":[[[123.027,0.9175],[123.0025,0.9135],[122.9975,0.9165],[122.9945,0.9115],[122.997,0.9055],[123.034,0.9065],[123.034,0.907],[123.033,0.9105],[123.0275,0.9165],[123.027,0.9175]]]},"properties":{"code":"75.05.06.2009","name":"Motomingo"}},{"type":"Feature","geometry":{"type":"Polygon","coordinates":[[[123.037,0.8845],[122.9995,0.888],[122.9995,0.8865],[122.999,0.885],[122.998,0.881],[122.9985,0.857],[122.9945,0.841],[122.9915,0.836],[122.9905,0.833],[123.001,0.8185],[123.013,0.817],[123.015,0.8035],[123.005,0.794],[123.0075,0.7835],[123.0085,0.783],[123.0375,0.7825],[123.038,0.7885],[123.0305,0.7955],[123.039,0.807],[123.035,0.822],[123.038,0.8435],[123.0275,0.859],[123.0355,0.872],[123.037,0.8845]]]},"properties":{"code":"75.05.06.2010","name":"Durian"}},{"type":"Feature","geometry":{"type":"Polygon","coordinates":[[[123.037,0.925],[123.0325,0.925],[123.027,0.925],[123.0275,0.9245],[123.028,0.919],[123.0275,0.9165],[123.037,0.925]]]},"properties":{"code":"75.05.06.2011","name":"Bohusami"}},{"type":"Feature","geometry":{"type":"Polygon","coordinates":[[[122.9575,0.8965],[122.954,0.8975],[122.95,0.8985],[122.925,0.876],[122.9225,0.8635],[122.945,0.8495],[122.9465,0.8485],[122.9465,0.848],[122.9535,0.8495],[122.9545,0.852],[122.953,0.8535],[122.953,0.8745],[122.954,0.8875],[122.954,0.8885],[122.9545,0.8905],[122.957,0.8935],[122.962,0.894],[122.96,0.8955],[122.9575,0.8965]]]},"properties":{"code":"75.05.07.2001","name":"Dambalo"}},{"type":"Feature","geometry":{"type":"Polygon","coordinates":[[[122.969,0.8925],[122.962,0.894],[122.957,0.8935],[122.9545,0.8905],[122.954,0.8885],[122.954,0.8875],[122.953,0.8745],[122.962,0.878],[122.9635,0.88],[122.9635,0.8845],[122.9685,0.892],[122.969,0.8925]]]},"properties":{"code":"75.05.07.2002","name":"Milango"}},{"type":"Feature","geometry":{"type":"Polygon","coordinates":[[[122.9465,0.848],[122.9465,0.8485],[122.945,0.8495],[122.9225,0.8635],[122.9125,0.8535],[122.9125,0.853],[122.911,0.8535],[122.91,0.853],[122.909,0.852],[122.9145,0.846],[122.9155,0.845],[122.916,0.8435],[122.916,0.843],[122.919,0.8395],[122.9235,0.8395],[122.928,0.8385],[122.9445,0.8425],[122.9465,0.848]]]},"properties":{"code":"75.05.07.2003","name":"Jembatan Merah"}},{"type":"Feature","geometry":{"type":"Polygon","coordinates":[[[122.997,0.9055],[122.9945,0.9115],[122.9865,0.909],[122.979,0.904],[122.9745,0.901],[122.973,0.898],[122.9695,0.893],[122.9685,0.892],[122.9635,0.8845],[122.9635,0.88],[122.962,0.878],[122.9655,0.871],[122.967,0.868],[122.9795,0.8505],[122.9815,0.839],[122.988,0.8315],[122.9905,0.833],[122.9915,0.836],[122.9945,0.841],[122.9985,0.857],[122.998,0.881],[122.999,0.885],[122.9995,0.8865],[122.999,0.8905],[122.997,0.9055]]]},"properties":{"code":"75.05.07.2004","name":"Bubode"}},{"type":"Feature","geometry":{"type":"Polygon","coordinates":[[[122.962,0.878],[122.953,0.8745],[122.953,0.8535],[122.9545,0.852],[122.9535,0.8495],[122.9465,0.848],[122.9445,0.8425],[122.9575,0.831],[122.966,0.8305],[122.9815,0.839],[122.9795,0.8505],[122.967,0.868],[122.9655,0.871],[122.962,0.878]]]},"properties":{"code":"75.05.07.2005","name":"Leyao"}},{"type":"Feature","geometry":{"type":"Polygon","coordinates":[[[122.9865,0.909],[122.978,0.9175],[122.961,0.9265],[122.9465,0.913],[122.949,0.907],[122.95,0.907],[122.952,0.9065],[122.9655,0.904],[122.9665,0.9035],[122.9725,0.903],[122.9755,0.9025],[122.979,0.904],[122.9865,0.909]]]},"properties":{"code":"75.05.07.2006","name":"Molantadu"}},{"type":"Feature","geometry":{"type":"Polygon","coordinates":[[[122.9995,0.938],[122.9825,0.9385],[122.9815,0.939],[122.98,0.939],[122.9785,0.9385],[122.9775,0.9395],[122.9765,0.9395],[122.961,0.9265],[122.978,0.9175],[122.9865,0.909],[122.9945,0.9115],[122.9975,0.9165],[123.004,0.9275],[122.9995,0.938]]]},"properties":{"code":"75.05.07.2007","name":"Huidu Melito"}},{"type":"Feature","geometry":{"type":"Polygon","coordinates":[[[122.9755,0.9025],[122.9725,0.903],[122.9665,0.9035],[122.9655,0.904],[122.952,0.9065],[122.95,0.907],[122.949,0.907],[122.95,0.8985],[122.954,0.8975],[122.9575,0.8965],[122.96,0.8955],[122.962,0.894],[122.969,0.8925],[122.9695,0.893],[122.973,0.898],[122.9745,0.901],[122.9755,0.9025]]]},"properties":{"code":"75.05.07.2008","name":"Bulango Raya"}},{"type":"Feature","geometry":{"type":"Polygon","coordinates":[[[123.0015,0.943],[123.0005,0.956],[122.994,0.962],[122.9915,0.962],[122.988,0.961],[122.9685,0.9555],[122.946,0.941],[122.956,0.936],[122.9765,0.9395],[122.9775,0.9395],[122.9785,0.9385],[122.98,0.939],[122.9815,0.939],[122.9825,0.9385],[122.9995,0.938],[123.0015,0.943]]]},"properties":{"code":"75.05.07.2009","name":"Tanjung Karang"}},{"type":"Feature","geometry":{"type":"Polygon","coordinates":[[[122.994,0.962],[122.986,0.968],[122.9555,0.963],[122.94,0.958],[122.946,0.941],[122.9685,0.9555],[122.988,0.961],[122.9915,0.962],[122.994,0.962]]]},"properties":{"code":"75.05.07.2010","name":"Mutiara Laut"}},{"type":"Feature","geometry":{"type":"Polygon","coordinates":[[[122.8875,0.873],[122.892,0.883],[122.8835,0.8965],[122.8735,0.8955],[122.873,0.893],[122.885,0.8815],[122.8845,0.873],[122.886,0.8725],[122.8875,0.873]]]},"properties":{"code":"75.05.08.2001","name":"Ponelo"}},{"type":"Feature","geometry":{"type":"Polygon","coordinates":[[[122.8735,0.8955],[122.857,0.8995],[122.856,0.8945],[122.873,0.893],[122.8735,0.8955]]]},"properties":{"code":"75.05.08.2002","name":"Malambe"}},{"type":"Feature","geometry":{"type":"Polygon","coordinates":[[[122.8845,0.873],[122.879,0.8695],[122.881,0.8605],[122.8895,0.8625],[122.89,0.8645],[122.888,0.865],[122.889,0.872],[122.8875,0.873],[122.886,0.8725],[122.8845,0.873]]]},"properties":{"code":"75.05.08.2003","name":"Otiola"}},{"type":"Feature","geometry":{"type":"Polygon","coordinates":[[[122.8895,0.8625],[122.898,0.868],[122.889,0.872],[122.888,0.865],[122.89,0.8645],[122.8895,0.8625]]]},"properties":{"code":"75.05.08.2004","name":"Tihengo"}},{"type":"Feature","geometry":{"type":"Polygon","coordinates":[[[122.7155,0.8815],[122.7065,0.8885],[122.6885,0.8925],[122.688,0.8895],[122.6885,0.889],[122.69,0.889],[122.6895,0.888],[122.6905,0.887],[122.6895,0.8805],[122.691,0.8805],[122.691,0.88],[122.691,0.8795],[122.691,0.879],[122.6895,0.879],[122.6905,0.8785],[122.6915,0.877],[122.691,0.875],[122.693,0.874],[122.696,0.8755],[122.705,0.8815],[122.7155,0.8815]]]},"properties":{"code":"75.05.09.2001","name":"Monano"}},{"type":"Feature","geometry":{"type":"Polygon","coordinates":[[[122.7155,0.8815],[122.705,0.8815],[122.696,0.8755],[122.6945,0.8745],[122.698,0.8725],[122.6995,0.8715],[122.693,0.862],[122.692,0.862],[122.6825,0.8505],[122.682,0.8465],[122.684,0.8435],[122.684,0.8425],[122.682,0.833],[122.681,0.83],[122.68,0.829],[122.6785,0.826],[122.6775,0.8245],[122.6785,0.824],[122.683,0.818],[122.683,0.8175],[122.6835,0.8155],[122.6865,0.811],[122.686,0.806],[122.6905,0.808],[122.697,0.8355],[122.6925,0.853],[122.703,0.869],[122.711,0.8735],[122.7125,0.8745],[122.713,0.8765],[122.7155,0.8815]]]},"properties":{"code":"75.05.09.2002","name":"Tudi"}},{"type":"Feature","geometry":{"type":"Polygon","coordinates":[[[122.625,0.898],[122.6235,0.8985],[122.6145,0.8935],[122.611,0.8885],[122.5955,0.8605],[122.597,0.8505],[122.597,0.849],[122.5975,0.8485],[122.61,0.858],[122.634,0.871],[122.6485,0.869],[122.66,0.8745],[122.676,0.8725],[122.681,0.8775],[122.682,0.8775],[122.687,0.878],[122.6895,0.8785],[122.6895,0.879],[122.691,0.879],[122.691,0.8795],[122.691,0.88],[122.691,0.8805],[122.6895,0.8805],[122.6905,0.887],[122.6895,0.888],[122.69,0.889],[122.6885,0.889],[122.688,0.8895],[122.6885,0.8925],[122.6875,0.8955],[122.677,0.89],[122.6645,0.8905],[122.6615,0.891],[122.64,0.8965],[122.625,0.898]]]},"properties":{"code":"75.05.09.2003","name":"Monas"}},{"type":"Feature","geometry":{"type":"Polygon","coordinates":[[[122.6525,0.9445],[122.642,0.9415],[122.634,0.95],[122.616,0.957],[122.624,0.937],[122.6235,0.8985],[122.625,0.898],[122.631,0.9145],[122.6525,0.9445]]]},"properties":{"code":"75.05.09.2004","name":"Dunu"}},{"type":"Feature","geometry":{"type":"Polygon","coordinates":[[[122.7395,0.8805],[122.732,0.8705],[122.716,0.8675],[122.7035,0.8475],[122.7135,0.836],[122.726,0.852],[122.7395,0.8605],[122.742,0.8715],[122.742,0.876],[122.7395,0.8805]]]},"properties":{"code":"75.05.09.2005","name":"Garapia"}},{"type":"Feature","geometry":{"type":"Polygon","coordinates":[[[122.6875,0.8955],[122.6685,0.9265],[122.6615,0.915],[122.6515,0.9105],[122.65,0.9075],[122.64,0.8965],[122.6615,0.891],[122.6645,0.8905],[122.677,0.89],[122.6875,0.8955]]]},"properties":{"code":"75.05.09.2006","name":"Sogu"}},{"type":"Feature","geometry":{"type":"Polygon","coordinates":[[[122.716,0.8675],[122.713,0.8765],[122.7125,0.8745],[122.711,0.8735],[122.703,0.869],[122.6925,0.853],[122.697,0.8355],[122.6905,0.808],[122.694,0.808],[122.695,0.8065],[122.696,0.8085],[122.6965,0.812],[122.697,0.8125],[122.7,0.8145],[122.7075,0.8265],[122.7115,0.8285],[122.7135,0.836],[122.7035,0.8475],[122.716,0.8675]]]},"properties":{"code":"75.05.09.2007","name":"Pilohulata"}},{"type":"Feature","geometry":{"type":"Polygon","coordinates":[[[122.6945,0.8745],[122.693,0.874],[122.691,0.875],[122.67,0.8655],[122.6585,0.855],[122.6515,0.8495],[122.645,0.8465],[122.654,0.8395],[122.655,0.8375],[122.6595,0.8345],[122.6615,0.8325],[122.665,0.8315],[122.6765,0.825],[122.6775,0.8245],[122.6785,0.826],[122.68,0.829],[122.681,0.83],[122.682,0.833],[122.684,0.8425],[122.684,0.8435],[122.682,0.8465],[122.6825,0.8505],[122.692,0.862],[122.693,0.862],[122.6995,0.8715],[122.698,0.8725],[122.6945,0.8745]]]},"properties":{"code":"75.05.09.2008","name":"Mokonowu"}},{"type":"Feature","geometry":{"type":"Polygon","coordinates":[[[122.6685,0.9265],[122.6525,0.9445],[122.631,0.9145],[122.625,0.898],[122.64,0.8965],[122.65,0.9075],[122.6515,0.9105],[122.6615,0.915],[122.6685,0.9265]]]},"properties":{"code":"75.05.09.2009","name":"Tolitehuyu"}},{"type":"Feature","geometry":{"type":"Polygon","coordinates":[[[122.6895,0.879],[122.6895,0.8785],[122.687,0.878],[122.682,0.8775],[122.681,0.8775],[122.676,0.8725],[122.66,0.8745],[122.6485,0.869],[122.634,0.871],[122.61,0.858],[122.5975,0.8485],[122.5985,0.8475],[122.603,0.849],[122.605,0.851],[122.6205,0.8525],[122.6325,0.847],[122.6385,0.848],[122.6425,0.848],[122.645,0.8465],[122.6515,0.8495],[122.6585,0.855],[122.67,0.8655],[122.691,0.875],[122.6915,0.877],[122.6905,0.8785],[122.6895,0.879]]]},"properties":{"code":"75.05.09.2010","name":"Zuriyati"}},{"type":"Feature","geometry":{"type":"Polygon","coordinates":[[[122.212,1.003],[122.2115,1.0025],[122.206,1.003],[122.2055,1.0025],[122.2015,0.9995],[122.2015,0.999],[122.2025,0.9955],[122.2025,0.9905],[122.204,0.9865],[122.2185,0.98],[122.2205,0.9795],[122.222,0.9795],[122.2235,0.9795],[122.2245,0.98],[122.223,0.9825],[122.2165,0.993],[122.219,0.9925],[122.214,1.001],[122.212,1.003]]]},"properties":{"code":"75.05.10.2001","name":"Biau"}},{"type":"Feature","geometry":{"type":"Polygon","coordinates":[[[122.2015,0.999],[122.2,0.999],[122.195,0.9965],[122.1925,0.9955],[122.191,0.994],[122.203,0.9725],[122.204,0.9735],[122.2185,0.98],[122.204,0.9865],[122.2025,0.9905],[122.2025,0.9955],[122.2015,0.999]]]},"properties":{"code":"75.05.10.2002","name":"Omuto"}},{"type":"Feature","geometry":{"type":"Polygon","coordinates":[[[122.217,0.9925],[122.2165,0.993],[122.223,0.9825],[122.217,0.9925]]]},"properties":{"code":"75.05.10.2003","name":"Luhuto"}},{"type":"Feature","geometry":{"type":"Polygon","coordinates":[[[122.2235,1.011],[122.2155,1.005],[122.2125,1.0035],[122.212,1.003],[122.214,1.001],[122.219,0.9925],[122.217,0.9925],[122.223,0.9825],[122.224,0.981],[122.23,0.9925],[122.222,0.9985],[122.2235,1.011]]]},"properties":{"code":"75.05.10.2004","name":"Windu"}},{"type":"Feature","geometry":{"type":"Polygon","coordinates":[[[122.258,1.007],[122.2525,1.002],[122.2425,1.0105],[122.2385,0.9955],[122.23,0.9925],[122.224,0.981],[122.2245,0.98],[122.2255,0.9805],[122.232,0.9725],[122.234,0.9745],[122.247,0.982],[122.25,0.9845],[122.25,0.985],[122.2605,0.9945],[122.258,1.007]]]},"properties":{"code":"75.05.10.2005","name":"Topi"}},{"type":"Feature","geometry":{"type":"Polygon","coordinates":[[[122.244,0.9555],[122.247,0.9745],[122.25,0.9845],[122.247,0.982],[122.234,0.9745],[122.232,0.9725],[122.2355,0.956],[122.244,0.9555]]]},"properties":{"code":"75.05.10.2006","name":"Sembihingan"}},{"type":"Feature","geometry":{"type":"Polygon","coordinates":[[[122.232,0.9725],[122.2255,0.9805],[122.224,0.9795],[122.2205,0.9785],[122.213,0.9685],[122.2115,0.967],[122.2095,0.952],[122.21,0.8995],[122.2255,0.9045],[122.23,0.9105],[122.248,0.914],[122.26,0.9265],[122.261,0.9285],[122.2605,0.9345],[122.2515,0.943],[122.248,0.946],[122.243,0.949],[122.244,0.9555],[122.2355,0.956],[122.232,0.9725]]]},"properties":{"code":"75.05.10.2007","name":"Didingga"}},{"type":"Feature","geometry":{"type":"Polygon","coordinates":[[[122.2185,0.98],[122.204,0.9735],[122.2025,0.9705],[122.2,0.96],[122.2095,0.952],[122.2115,0.967],[122.213,0.9685],[122.2205,0.9785],[122.2235,0.9795],[122.222,0.9795],[122.2205,0.9795],[122.2185,0.98]]]},"properties":{"code":"75.05.10.2008","name":"Bualo"}},{"type":"Feature","geometry":{"type":"Polygon","coordinates":[[[122.182,0.9115],[122.1905,0.9175],[122.1905,0.9305],[122.1815,0.9455],[122.1825,0.9695],[122.18,0.99],[122.179,0.989],[122.177,0.988],[122.1765,0.9875],[122.1765,0.986],[122.176,0.9855],[122.1745,0.984],[122.173,0.983],[122.172,0.9825],[122.1655,0.9835],[122.1645,0.9785],[122.161,0.9705],[122.1565,0.964],[122.1535,0.962],[122.1505,0.9635],[122.148,0.963],[122.144,0.9645],[122.141,0.964],[122.14,0.9605],[122.136,0.9515],[122.135,0.9485],[122.133,0.9435],[122.132,0.9345],[122.1225,0.9205],[122.1215,0.918],[122.1195,0.9145],[122.1165,0.9095],[122.1165,0.907],[122.1155,0.9035],[122.1275,0.9005],[122.1385,0.9065],[122.156,0.904],[122.161,0.905],[122.182,0.9115]]]},"properties":{"code":"75.05.10.2009","name":"Potanga"}},{"type":"Feature","geometry":{"type":"Polygon","coordinates":[[[122.203,0.9725],[122.191,0.994],[122.1805,0.9915],[122.18,0.99],[122.1825,0.9695],[122.1815,0.9455],[122.1905,0.9305],[122.1905,0.9175],[122.182,0.9115],[122.199,0.8985],[122.204,0.899],[122.2095,0.8995],[122.21,0.8995],[122.2095,0.952],[122.2,0.96],[122.2025,0.9705],[122.203,0.9725]]]},"properties":{"code":"75.05.10.2010","name":"Bohulo"}},{"type":"Feature","geometry":{"type":"Polygon","coordinates":[[[122.5995,0.9455],[122.5985,0.9465],[122.5965,0.9465],[122.5925,0.946],[122.586,0.948],[122.586,0.9465],[122.5845,0.937],[122.5745,0.928],[122.577,0.9115],[122.573,0.903],[122.5725,0.8745],[122.574,0.875],[122.5795,0.875],[122.6005,0.8925],[122.601,0.9155],[122.6045,0.9315],[122.5995,0.945],[122.5995,0.9455]]]},"properties":{"code":"75.05.11.2001","name":"Deme I"}},{"type":"Feature","geometry":{"type":"Polygon","coordinates":[[[122.5995,0.95],[122.5865,0.952],[122.586,0.948],[122.5925,0.946],[122.5965,0.9465],[122.5985,0.9465],[122.5995,0.9455],[122.5985,0.948],[122.5995,0.95]]]},"properties":{"code":"75.05.11.2002","name":"Buluwatu"}},{"type":"Feature","geometry":{"type":"Polygon","coordinates":[[[122.5865,0.952],[122.5805,0.9555],[122.5745,0.953],[122.5645,0.9385],[122.5605,0.9315],[122.558,0.9225],[122.56,0.8995],[122.557,0.896],[122.5555,0.8925],[122.5565,0.8725],[122.562,0.8715],[122.568,0.873],[122.5685,0.873],[122.5725,0.8745],[122.573,0.903],[122.577,0.9115],[122.5745,0.928],[122.5845,0.937],[122.586,0.9465],[122.5865,0.952]]]},"properties":{"code":"75.05.11.2003","name":"Dulukapa"}},{"type":"Feature","geometry":{"type":"Polygon","coordinates":[[[122.558,0.9615],[122.5505,0.9705],[122.5395,0.9695],[122.5115,0.9805],[122.512,0.975],[122.528,0.957],[122.529,0.945],[122.524,0.928],[122.523,0.9255],[122.5215,0.925],[122.518,0.92],[122.5255,0.905],[122.52,0.888],[122.5135,0.8845],[122.515,0.879],[122.5205,0.876],[122.523,0.8745],[122.5265,0.8745],[122.5435,0.8735],[122.5345,0.878],[122.5375,0.8875],[122.5515,0.902],[122.5325,0.9165],[122.5355,0.9375],[122.5465,0.9505],[122.5455,0.962],[122.552,0.961],[122.555,0.961],[122.558,0.9615]]]},"properties":{"code":"75.05.11.2004","name":"Deme II"}},{"type":"Feature","geometry":{"type":"Polygon","coordinates":[[[122.5115,0.9805],[122.505,0.985],[122.5045,0.9835],[122.505,0.9805],[122.507,0.96],[122.5125,0.9425],[122.506,0.933],[122.5045,0.93],[122.5045,0.926],[122.5035,0.92],[122.5075,0.905],[122.507,0.8865],[122.5135,0.8845],[122.52,0.888],[122.5255,0.905],[122.518,0.92],[122.5215,0.925],[122.523,0.9255],[122.524,0.928],[122.529,0.945],[122.528,0.957],[122.512,0.975],[122.5115,0.9805]]]},"properties":{"code":"75.05.11.2005","name":"Buladu"}},{"type":"Feature","geometry":{"type":"Polygon","coordinates":[[[122.505,0.985],[122.502,0.9845],[122.5015,0.9805],[122.499,0.975],[122.4975,0.967],[122.496,0.956],[122.4975,0.939],[122.4925,0.9245],[122.5035,0.9205],[122.5045,0.926],[122.5045,0.93],[122.506,0.933],[122.5125,0.9425],[122.507,0.96],[122.505,0.9805],[122.5045,0.9835],[122.505,0.985]]]},"properties":{"code":"75.05.11.2006","name":"Hulawa"}},{"type":"Feature","geometry":{"type":"Polygon","coordinates":[[[122.502,0.9845],[122.489,0.9895],[122.4785,0.9985],[122.4775,0.987],[122.485,0.971],[122.4905,0.9445],[122.4865,0.918],[122.495,0.893],[122.4895,0.885],[122.492,0.881],[122.493,0.876],[122.4935,0.8715],[122.4965,0.8715],[122.4985,0.8725],[122.503,0.8765],[122.5055,0.881],[122.507,0.8865],[122.5075,0.905],[122.5035,0.92],[122.5035,0.9205],[122.4925,0.9245],[122.4975,0.939],[122.496,0.956],[122.4975,0.967],[122.499,0.975],[122.5015,0.9805],[122.502,0.9845]]]},"properties":{"code":"75.05.11.2007","name":"Wubudu"}},{"type":"Feature","geometry":{"type":"Polygon","coordinates":[[[122.4785,0.9985],[122.452,1.0315],[122.453,1.029],[122.458,1.008],[122.4525,0.999],[122.4525,0.9985],[122.4565,0.997],[122.4575,0.996],[122.4615,0.995],[122.464,0.99],[122.485,0.971],[122.4775,0.987],[122.4785,0.9985]]]},"properties":{"code":"75.05.11.2008","name":"Bubalango"}},{"type":"Feature","geometry":{"type":"Polygon","coordinates":[[[122.558,0.9615],[122.555,0.961],[122.552,0.961],[122.5455,0.962],[122.5465,0.9505],[122.5355,0.9375],[122.5325,0.9165],[122.5515,0.902],[122.5375,0.8875],[122.5345,0.878],[122.5435,0.8735],[122.545,0.8745],[122.5495,0.874],[122.5525,0.874],[122.5565,0.8725],[122.5555,0.8925],[122.557,0.896],[122.56,0.8995],[122.558,0.9225],[122.5605,0.9315],[122.5645,0.9385],[122.5745,0.953],[122.5805,0.9555],[122.558,0.9615]]]},"properties":{"code":"75.05.11.2009","name":"Motihelumo"}},{"type":"Feature","geometry":{"type":"Polygon","coordinates":[[[122.6235,0.8985],[122.624,0.937],[122.616,0.957],[122.6145,0.945],[122.5995,0.95],[122.5985,0.948],[122.5995,0.946],[122.5995,0.945],[122.6045,0.9315],[122.601,0.9155],[122.6005,0.8925],[122.5795,0.875],[122.591,0.8655],[122.595,0.8635],[122.596,0.863],[122.5955,0.8605],[122.611,0.8885],[122.6145,0.8935],[122.6235,0.8985]]]},"properties":{"code":"75.05.11.2010","name":"Koluwoka"}}]}