{"type":"FeatureCollection","features":[{"type":"Feature","geometry":{"type":"Polygon","coordinates":[[[119.375,-2.115],[119.369,-2.112],[119.351,-2.1135],[119.3515,-2.1305],[119.3505,-2.132],[119.375,-2.13],[119.375,-2.115]]]},"properties":{"code":"76.06.01.2001","name":"Mahahe"}},{"type":"Feature","geometry":{"type":"Polygon","coordinates":[[[119.375,-2.13],[119.3505,-2.132],[119.347,-2.1345],[119.3415,-2.139],[119.3365,-2.142],[119.331,-2.143],[119.3235,-2.1425],[119.337,-2.16],[119.334,-2.1655],[119.3315,-2.169],[119.331,-2.1685],[119.3295,-2.1695],[119.329,-2.1725],[119.329,-2.175],[119.33,-2.1775],[119.3305,-2.179],[119.334,-2.178],[119.335,-2.177],[119.34,-2.1765],[119.3765,-2.142],[119.3775,-2.139],[119.378,-2.1375],[119.38,-2.1355],[119.375,-2.13]]]},"properties":{"code":"76.06.01.2002","name":"Salobaja"}},{"type":"Feature","geometry":{"type":"Polygon","coordinates":[[[119.375,-2.081],[119.3715,-2.08],[119.364,-2.079],[119.361,-2.083],[119.36,-2.086],[119.354,-2.082],[119.343,-2.08],[119.342,-2.073],[119.3475,-2.063],[119.334,-2.0545],[119.3345,-2.0695],[119.331,-2.0645],[119.3265,-2.059],[119.3225,-2.059],[119.302,-2.059],[119.299,-2.063],[119.307,-2.0695],[119.2985,-2.068],[119.2965,-2.068],[119.293,-2.072],[119.289,-2.0765],[119.291,-2.0815],[119.29,-2.0845],[119.285,-2.0845],[119.28,-2.0875],[119.2625,-2.0935],[119.262,-2.1005],[119.261,-2.1015],[119.2605,-2.1015],[119.2615,-2.105],[119.262,-2.105],[119.264,-2.107],[119.2655,-2.108],[119.287,-2.111],[119.2975,-2.1245],[119.3235,-2.1425],[119.331,-2.143],[119.3365,-2.142],[119.3415,-2.139],[119.347,-2.1345],[119.3515,-2.1305],[119.351,-2.1135],[119.369,-2.112],[119.375,-2.115],[119.375,-2.081]]]},"properties":{"code":"76.06.01.2003","name":"Tobadak"}},{"type":"Feature","geometry":{"type":"Polygon","coordinates":[[[119.398,-2.0865],[119.393,-2.0805],[119.3905,-2.077],[119.3865,-2.0765],[119.3765,-2.081],[119.375,-2.081],[119.375,-2.115],[119.375,-2.13],[119.38,-2.1355],[119.381,-2.135],[119.393,-2.133],[119.3975,-2.1245],[119.3995,-2.123],[119.407,-2.1135],[119.4075,-2.1135],[119.4115,-2.1125],[119.4235,-2.119],[119.425,-2.119],[119.431,-2.1185],[119.438,-2.117],[119.4475,-2.1145],[119.448,-2.1145],[119.4485,-2.114],[119.4485,-2.113],[119.4345,-2.0925],[119.4325,-2.0915],[119.412,-2.094],[119.4045,-2.092],[119.4025,-2.0905],[119.4005,-2.086],[119.398,-2.0865]]]},"properties":{"code":"76.06.01.2004","name":"Palongaan"}},{"type":"Feature","geometry":{"type":"Polygon","coordinates":[[[119.6685,-2.1365],[119.6525,-2.127],[119.6395,-2.132],[119.638,-2.131],[119.6375,-2.13],[119.6315,-2.117],[119.6095,-2.108],[119.602,-2.109],[119.588,-2.091],[119.5765,-2.09],[119.546,-2.0985],[119.5485,-2.072],[119.5305,-2.057],[119.5235,-2.0445],[119.4995,-2.045],[119.4925,-2.037],[119.4915,-2.0255],[119.4775,-2.0205],[119.471,-2.038],[119.4725,-2.041],[119.4755,-2.0435],[119.4725,-2.048],[119.4695,-2.0495],[119.4675,-2.05],[119.4655,-2.046],[119.459,-2.05],[119.436,-2.0435],[119.431,-2.0425],[119.431,-2.0505],[119.419,-2.057],[119.4185,-2.055],[119.419,-2.0535],[119.4145,-2.0515],[119.4115,-2.07],[119.4045,-2.0775],[119.3995,-2.079],[119.399,-2.081],[119.4005,-2.085],[119.4005,-2.086],[119.4025,-2.0905],[119.4045,-2.092],[119.412,-2.094],[119.4325,-2.0915],[119.4345,-2.0925],[119.4485,-2.113],[119.4485,-2.114],[119.45,-2.1155],[119.4515,-2.1155],[119.4525,-2.1165],[119.4525,-2.117],[119.4525,-2.1175],[119.4665,-2.118],[119.4795,-2.12],[119.4875,-2.123],[119.488,-2.124],[119.4885,-2.124],[119.49,-2.124],[119.4905,-2.1235],[119.5005,-2.12],[119.502,-2.12],[119.5145,-2.1175],[119.5265,-2.125],[119.5425,-2.116],[119.5525,-2.129],[119.5665,-2.1385],[119.573,-2.1345],[119.5805,-2.1455],[119.5965,-2.1505],[119.5975,-2.151],[119.601,-2.1495],[119.638,-2.147],[119.6685,-2.1365]]]},"properties":{"code":"76.06.01.2005","name":"Batu Parigi"}},{"type":"Feature","geometry":{"type":"Polygon","coordinates":[[[119.39,-2.1945],[119.3895,-2.191],[119.389,-2.1895],[119.3875,-2.1855],[119.3925,-2.173],[119.3805,-2.154],[119.38,-2.1455],[119.3815,-2.1375],[119.3795,-2.137],[119.379,-2.1365],[119.378,-2.1375],[119.3775,-2.139],[119.3765,-2.142],[119.34,-2.1765],[119.347,-2.187],[119.366,-2.1865],[119.369,-2.188],[119.372,-2.19],[119.3715,-2.191],[119.372,-2.1925],[119.39,-2.195],[119.39,-2.1945]]]},"properties":{"code":"76.06.01.2006","name":"Bambadaru"}},{"type":"Feature","geometry":{"type":"Polygon","coordinates":[[[119.4485,-2.114],[119.448,-2.1145],[119.4475,-2.1145],[119.438,-2.117],[119.431,-2.1185],[119.425,-2.119],[119.4235,-2.119],[119.4115,-2.1125],[119.411,-2.113],[119.4105,-2.115],[119.411,-2.1165],[119.4135,-2.1215],[119.413,-2.125],[119.416,-2.1275],[119.4315,-2.129],[119.44,-2.1395],[119.4375,-2.1635],[119.4425,-2.1765],[119.443,-2.1755],[119.4455,-2.1745],[119.4455,-2.172],[119.4475,-2.173],[119.4495,-2.174],[119.4675,-2.1605],[119.468,-2.158],[119.4715,-2.1385],[119.483,-2.135],[119.4895,-2.125],[119.49,-2.124],[119.4885,-2.124],[119.488,-2.124],[119.4875,-2.123],[119.4795,-2.12],[119.4665,-2.118],[119.4525,-2.1175],[119.4525,-2.117],[119.4525,-2.1165],[119.4515,-2.1155],[119.45,-2.1155],[119.4485,-2.114]]]},"properties":{"code":"76.06.01.2007","name":"Sejati"}},{"type":"Feature","geometry":{"type":"Polygon","coordinates":[[[119.4425,-2.1765],[119.4375,-2.1635],[119.44,-2.1395],[119.4315,-2.129],[119.416,-2.1275],[119.413,-2.125],[119.4135,-2.1215],[119.411,-2.1165],[119.4105,-2.115],[119.411,-2.113],[119.407,-2.1135],[119.3995,-2.123],[119.3975,-2.1245],[119.393,-2.133],[119.381,-2.135],[119.379,-2.1365],[119.3795,-2.137],[119.3815,-2.1375],[119.38,-2.1455],[119.3805,-2.154],[119.3925,-2.173],[119.3875,-2.1855],[119.389,-2.1895],[119.3895,-2.191],[119.39,-2.1945],[119.3905,-2.194],[119.3945,-2.195],[119.395,-2.194],[119.394,-2.192],[119.3945,-2.193],[119.399,-2.192],[119.3995,-2.191],[119.4125,-2.186],[119.4295,-2.194],[119.432,-2.1935],[119.4355,-2.192],[119.4365,-2.19],[119.4405,-2.185],[119.4415,-2.1845],[119.441,-2.184],[119.4385,-2.183],[119.4425,-2.1765]]]},"properties":{"code":"76.06.01.2008","name":"Saloadak"}},{"type":"Feature","geometry":{"type":"Polygon","coordinates":[[[119.2095,-2.2585],[119.209,-2.2585],[119.189,-2.258],[119.188,-2.259],[119.187,-2.26],[119.184,-2.2725],[119.1825,-2.2725],[119.179,-2.2745],[119.177,-2.275],[119.172,-2.2745],[119.1595,-2.282],[119.1555,-2.283],[119.1565,-2.2835],[119.167,-2.2885],[119.1685,-2.289],[119.1705,-2.2885],[119.173,-2.287],[119.176,-2.285],[119.186,-2.287],[119.2115,-2.2865],[119.216,-2.2895],[119.2185,-2.2895],[119.2205,-2.291],[119.221,-2.2915],[119.2255,-2.2885],[119.225,-2.2885],[119.2245,-2.2875],[119.223,-2.287],[119.222,-2.284],[119.222,-2.2745],[119.216,-2.2755],[119.2095,-2.2585]]]},"properties":{"code":"76.06.02.2001","name":"Polo Pangale"}},{"type":"Feature","geometry":{"type":"Polygon","coordinates":[[[119.154,-2.2825],[119.1435,-2.2785],[119.143,-2.274],[119.1315,-2.2735],[119.13,-2.2985],[119.1395,-2.2975],[119.141,-2.2985],[119.1435,-2.298],[119.1755,-2.306],[119.174,-2.2915],[119.169,-2.2895],[119.167,-2.2885],[119.1565,-2.2835],[119.154,-2.2825]]]},"properties":{"code":"76.06.02.2002","name":"Pangale"}},{"type":"Feature","geometry":{"type":"Polygon","coordinates":[[[119.169,-2.248],[119.1675,-2.2605],[119.151,-2.27],[119.1545,-2.281],[119.154,-2.2825],[119.1555,-2.283],[119.1595,-2.282],[119.172,-2.2745],[119.177,-2.275],[119.179,-2.2745],[119.1825,-2.2725],[119.184,-2.2725],[119.187,-2.26],[119.1845,-2.258],[119.169,-2.248]]]},"properties":{"code":"76.06.02.2003","name":"Sartanamaju"}},{"type":"Feature","geometry":{"type":"Polygon","coordinates":[[[119.216,-2.2475],[119.2135,-2.2385],[119.1965,-2.2375],[119.194,-2.2265],[119.1855,-2.227],[119.172,-2.2475],[119.169,-2.248],[119.1845,-2.258],[119.188,-2.259],[119.189,-2.258],[119.209,-2.2585],[119.21,-2.2585],[119.216,-2.257],[119.216,-2.2475]]]},"properties":{"code":"76.06.02.2004","name":"Polo Lereng"}},{"type":"Feature","geometry":{"type":"Polygon","coordinates":[[[119.2615,-2.243],[119.261,-2.242],[119.2615,-2.2415],[119.262,-2.2415],[119.2625,-2.2395],[119.2555,-2.2365],[119.2525,-2.2345],[119.253,-2.2255],[119.251,-2.2245],[119.229,-2.2255],[119.2305,-2.2325],[119.227,-2.232],[119.226,-2.233],[119.227,-2.237],[119.225,-2.233],[119.223,-2.2285],[119.2225,-2.2275],[119.2215,-2.227],[119.2165,-2.247],[119.216,-2.257],[119.21,-2.2585],[119.2095,-2.2585],[119.216,-2.2755],[119.222,-2.2745],[119.222,-2.284],[119.223,-2.287],[119.2245,-2.2875],[119.225,-2.2885],[119.2255,-2.2885],[119.229,-2.2785],[119.2295,-2.275],[119.2305,-2.2715],[119.2475,-2.2595],[119.252,-2.249],[119.2545,-2.247],[119.2605,-2.243],[119.2615,-2.243]]]},"properties":{"code":"76.06.02.2005","name":"Kuo"}},{"type":"Feature","geometry":{"type":"Polygon","coordinates":[[[119.1975,-2.2025],[119.1935,-2.2045],[119.193,-2.2005],[119.1945,-2.1985],[119.194,-2.1975],[119.184,-2.204],[119.1805,-2.219],[119.163,-2.2205],[119.16,-2.244],[119.1635,-2.2445],[119.1655,-2.2455],[119.1665,-2.2465],[119.1685,-2.2475],[119.172,-2.2475],[119.1855,-2.227],[119.194,-2.2265],[119.1965,-2.2375],[119.2135,-2.2385],[119.216,-2.2475],[119.2165,-2.247],[119.2215,-2.227],[119.2195,-2.2265],[119.218,-2.228],[119.217,-2.228],[119.216,-2.2275],[119.216,-2.225],[119.221,-2.2235],[119.217,-2.2205],[119.2145,-2.212],[119.2115,-2.2115],[119.1975,-2.2025]]]},"properties":{"code":"76.06.02.2006","name":"Polo Camba"}},{"type":"Feature","geometry":{"type":"Polygon","coordinates":[[[119.181,-2.1945],[119.1825,-2.1925],[119.182,-2.191],[119.173,-2.1945],[119.166,-2.1995],[119.1575,-2.2015],[119.158,-2.2045],[119.158,-2.205],[119.157,-2.206],[119.1505,-2.2045],[119.1505,-2.202],[119.148,-2.1995],[119.1465,-2.1975],[119.152,-2.2305],[119.1515,-2.241],[119.1535,-2.2455],[119.154,-2.247],[119.1555,-2.246],[119.1585,-2.2435],[119.16,-2.244],[119.163,-2.2205],[119.1805,-2.219],[119.184,-2.204],[119.185,-2.202],[119.185,-2.201],[119.1815,-2.198],[119.18,-2.199],[119.1795,-2.198],[119.18,-2.1965],[119.181,-2.1945]]]},"properties":{"code":"76.06.02.2007","name":"Lamba-Lamba"}},{"type":"Feature","geometry":{"type":"Polygon","coordinates":[[[119.154,-2.247],[119.1535,-2.2455],[119.1515,-2.241],[119.1315,-2.2735],[119.143,-2.274],[119.1435,-2.2785],[119.154,-2.2825],[119.1545,-2.281],[119.151,-2.27],[119.1675,-2.2605],[119.169,-2.248],[119.1685,-2.2475],[119.1665,-2.2465],[119.1655,-2.2455],[119.1635,-2.2445],[119.1585,-2.2435],[119.1555,-2.246],[119.154,-2.247]]]},"properties":{"code":"76.06.02.2008","name":"Kombiling"}},{"type":"Feature","geometry":{"type":"Polygon","coordinates":[[[119.221,-2.2915],[119.2205,-2.291],[119.2185,-2.2895],[119.216,-2.2895],[119.2115,-2.2865],[119.186,-2.287],[119.176,-2.285],[119.173,-2.287],[119.1705,-2.2885],[119.1685,-2.289],[119.174,-2.2915],[119.1755,-2.306],[119.178,-2.3085],[119.18,-2.3085],[119.195,-2.3085],[119.1975,-2.3115],[119.218,-2.293],[119.221,-2.2915]]]},"properties":{"code":"76.06.02.2009","name":"Lemo-Lemo"}},{"type":"Feature","geometry":{"type":"Polygon","coordinates":[[[119.218,-2.0815],[119.213,-2.0675],[119.2045,-2.062],[119.197,-2.0775],[119.192,-2.0965],[119.199,-2.1005],[119.198,-2.112],[119.2,-2.1145],[119.2275,-2.115],[119.2355,-2.1155],[119.247,-2.1285],[119.2495,-2.127],[119.252,-2.127],[119.252,-2.1275],[119.2665,-2.137],[119.287,-2.143],[119.2865,-2.1545],[119.289,-2.155],[119.295,-2.1525],[119.2985,-2.154],[119.3085,-2.158],[119.3095,-2.16],[119.3105,-2.162],[119.313,-2.1615],[119.313,-2.1645],[119.313,-2.1655],[119.3135,-2.1685],[119.314,-2.169],[119.3165,-2.1715],[119.329,-2.1725],[119.3295,-2.1695],[119.331,-2.1685],[119.3315,-2.169],[119.334,-2.1655],[119.337,-2.16],[119.3235,-2.1425],[119.2975,-2.1245],[119.287,-2.111],[119.2655,-2.108],[119.264,-2.107],[119.262,-2.105],[119.2615,-2.105],[119.2605,-2.1015],[119.26,-2.101],[119.259,-2.1005],[119.2595,-2.093],[119.2595,-2.0895],[119.2585,-2.0885],[119.253,-2.0855],[119.249,-2.0825],[119.2475,-2.0835],[119.251,-2.089],[119.249,-2.0935],[119.2465,-2.0935],[119.225,-2.0895],[119.2245,-2.0905],[119.223,-2.091],[119.222,-2.091],[119.2205,-2.0895],[119.218,-2.0815]]]},"properties":{"code":"76.06.03.2001","name":"Babana"}},{"type":"Feature","geometry":{"type":"Polygon","coordinates":[[[119.181,-2.153],[119.167,-2.16],[119.1595,-2.17],[119.1555,-2.1875],[119.1465,-2.1975],[119.148,-2.1995],[119.1505,-2.202],[119.1505,-2.2045],[119.157,-2.206],[119.158,-2.205],[119.158,-2.2045],[119.1575,-2.2015],[119.166,-2.1995],[119.173,-2.1945],[119.182,-2.191],[119.1825,-2.1925],[119.181,-2.1945],[119.1825,-2.193],[119.1835,-2.192],[119.18,-2.172],[119.1925,-2.164],[119.193,-2.1585],[119.189,-2.159],[119.1875,-2.1595],[119.181,-2.153]]]},"properties":{"code":"76.06.03.2002","name":"Lumu"}},{"type":"Feature","geometry":{"type":"Polygon","coordinates":[[[119.309,-2.161],[119.3095,-2.16],[119.3085,-2.158],[119.2985,-2.154],[119.295,-2.1525],[119.289,-2.155],[119.2865,-2.1545],[119.287,-2.143],[119.2665,-2.137],[119.253,-2.1285],[119.2555,-2.1355],[119.2435,-2.155],[119.251,-2.169],[119.2495,-2.179],[119.277,-2.182],[119.295,-2.1805],[119.2965,-2.1615],[119.309,-2.161]]]},"properties":{"code":"76.06.03.2003","name":"Pontanakayang"}},{"type":"Feature","geometry":{"type":"Polygon","coordinates":[[[119.253,-2.1285],[119.252,-2.1275],[119.252,-2.127],[119.2495,-2.127],[119.247,-2.1285],[119.237,-2.1445],[119.23,-2.1555],[119.22,-2.164],[119.2145,-2.1725],[119.212,-2.1885],[119.223,-2.187],[119.233,-2.1785],[119.243,-2.179],[119.2435,-2.195],[119.247,-2.194],[119.277,-2.184],[119.2855,-2.1845],[119.294,-2.185],[119.2945,-2.1845],[119.295,-2.1805],[119.277,-2.182],[119.2495,-2.179],[119.251,-2.169],[119.2435,-2.155],[119.2555,-2.1355],[119.253,-2.1285]]]},"properties":{"code":"76.06.03.2004","name":"Salogatta"}},{"type":"Feature","geometry":{"type":"Polygon","coordinates":[[[119.2275,-2.115],[119.2,-2.1145],[119.198,-2.112],[119.189,-2.122],[119.1855,-2.1365],[119.1885,-2.148],[119.181,-2.153],[119.1875,-2.1595],[119.189,-2.159],[119.193,-2.1585],[119.193,-2.1635],[119.22,-2.164],[119.23,-2.1555],[119.237,-2.1445],[119.247,-2.1285],[119.2355,-2.1155],[119.2275,-2.115]]]},"properties":{"code":"76.06.03.2005","name":"Kire"}},{"type":"Feature","geometry":{"type":"Polygon","coordinates":[[[119.2435,-2.195],[119.243,-2.179],[119.233,-2.1785],[119.223,-2.187],[119.212,-2.1885],[119.2135,-2.189],[119.2385,-2.1985],[119.2395,-2.198],[119.241,-2.1965],[119.2435,-2.195]]]},"properties":{"code":"76.06.03.2006","name":"Tinali"}},{"type":"Feature","geometry":{"type":"Polygon","coordinates":[[[119.22,-2.164],[119.193,-2.1635],[119.1925,-2.164],[119.18,-2.172],[119.1835,-2.192],[119.1825,-2.193],[119.181,-2.1945],[119.18,-2.1965],[119.1795,-2.198],[119.18,-2.199],[119.1815,-2.198],[119.185,-2.201],[119.185,-2.202],[119.184,-2.204],[119.194,-2.1975],[119.1945,-2.1985],[119.193,-2.2005],[119.1935,-2.2045],[119.1975,-2.2025],[119.2085,-2.1905],[119.212,-2.1885],[119.2145,-2.1725],[119.22,-2.164]]]},"properties":{"code":"76.06.03.2007","name":"Salumanurung"}},{"type":"Feature","geometry":{"type":"Polygon","coordinates":[[[119.34,-2.1765],[119.335,-2.177],[119.334,-2.178],[119.3305,-2.179],[119.33,-2.1775],[119.329,-2.1765],[119.3215,-2.1815],[119.317,-2.184],[119.314,-2.188],[119.3105,-2.1885],[119.313,-2.207],[119.3155,-2.2165],[119.316,-2.2165],[119.32,-2.2155],[119.321,-2.2135],[119.3305,-2.2055],[119.3625,-2.205],[119.364,-2.2005],[119.3655,-2.2015],[119.3675,-2.2015],[119.3705,-2.194],[119.3715,-2.1925],[119.372,-2.1925],[119.3715,-2.191],[119.372,-2.19],[119.369,-2.188],[119.366,-2.1865],[119.347,-2.187],[119.34,-2.1765]]]},"properties":{"code":"76.06.03.2008","name":"Pasapa"}},{"type":"Feature","geometry":{"type":"Polygon","coordinates":[[[119.329,-2.1725],[119.3165,-2.1715],[119.314,-2.169],[119.3135,-2.1685],[119.313,-2.1655],[119.313,-2.1645],[119.313,-2.1615],[119.3105,-2.162],[119.309,-2.161],[119.2965,-2.1615],[119.2945,-2.1845],[119.294,-2.185],[119.284,-2.1845],[119.284,-2.1885],[119.2905,-2.1885],[119.289,-2.2065],[119.281,-2.232],[119.2825,-2.2325],[119.2935,-2.2255],[119.293,-2.2265],[119.294,-2.2275],[119.295,-2.227],[119.297,-2.2275],[119.2975,-2.227],[119.2985,-2.227],[119.299,-2.2275],[119.3,-2.2285],[119.3005,-2.2285],[119.3,-2.226],[119.3005,-2.2255],[119.303,-2.227],[119.304,-2.2275],[119.305,-2.2275],[119.306,-2.225],[119.3075,-2.2245],[119.3125,-2.228],[119.3135,-2.2275],[119.3135,-2.2265],[119.313,-2.2255],[119.315,-2.226],[119.3155,-2.2255],[119.314,-2.225],[119.313,-2.2235],[119.314,-2.2225],[119.314,-2.222],[119.316,-2.2195],[119.3155,-2.2165],[119.313,-2.207],[119.3105,-2.1885],[119.314,-2.188],[119.317,-2.184],[119.3215,-2.1815],[119.329,-2.1765],[119.329,-2.175],[119.329,-2.1725]]]},"properties":{"code":"76.06.03.2009","name":"Bojo"}},{"type":"Feature","geometry":{"type":"Polygon","coordinates":[[[119.2385,-2.1985],[119.2135,-2.189],[119.2085,-2.1905],[119.1975,-2.2025],[119.2115,-2.2115],[119.2145,-2.212],[119.217,-2.2205],[119.221,-2.2235],[119.216,-2.225],[119.216,-2.2275],[119.217,-2.228],[119.218,-2.228],[119.2195,-2.2265],[119.2215,-2.227],[119.2225,-2.2275],[119.223,-2.2285],[119.225,-2.233],[119.227,-2.237],[119.226,-2.233],[119.227,-2.232],[119.2305,-2.2325],[119.229,-2.2255],[119.251,-2.2245],[119.253,-2.2255],[119.2525,-2.2345],[119.2555,-2.2365],[119.2625,-2.2395],[119.262,-2.2415],[119.2615,-2.2415],[119.2615,-2.2425],[119.2615,-2.243],[119.262,-2.2425],[119.2635,-2.243],[119.265,-2.2455],[119.2655,-2.2465],[119.2715,-2.244],[119.2735,-2.244],[119.2745,-2.2435],[119.2745,-2.2425],[119.2745,-2.239],[119.277,-2.239],[119.2775,-2.2385],[119.2775,-2.234],[119.2795,-2.2325],[119.281,-2.2325],[119.281,-2.232],[119.2845,-2.216],[119.275,-2.222],[119.248,-2.2165],[119.2375,-2.2045],[119.2375,-2.202],[119.2375,-2.2005],[119.2365,-2.1995],[119.2385,-2.1985]]]},"properties":{"code":"76.06.03.2010","name":"Barakkang"}},{"type":"Feature","geometry":{"type":"Polygon","coordinates":[[[119.284,-2.1845],[119.277,-2.184],[119.247,-2.194],[119.241,-2.1965],[119.2395,-2.198],[119.2365,-2.1995],[119.2375,-2.2005],[119.2375,-2.202],[119.2375,-2.2045],[119.248,-2.2165],[119.275,-2.222],[119.2845,-2.216],[119.289,-2.2065],[119.2905,-2.1885],[119.284,-2.1885],[119.284,-2.1845]]]},"properties":{"code":"76.06.03.2011","name":"Lembah Hada"}},{"type":"Feature","geometry":{"type":"Polygon","coordinates":[[[119.238,-2.0395],[119.237,-2.041],[119.23,-2.042],[119.21,-2.031],[119.2045,-2.062],[119.213,-2.0675],[119.218,-2.0815],[119.2335,-2.077],[119.2335,-2.064],[119.242,-2.0605],[119.242,-2.047],[119.24,-2.0435],[119.241,-2.041],[119.2395,-2.0405],[119.238,-2.0395]]]},"properties":{"code":"76.06.04.2001","name":"Budong-Budong"}},{"type":"Feature","geometry":{"type":"Polygon","coordinates":[[[119.296,-2.06],[119.279,-2.0585],[119.2735,-2.053],[119.2675,-2.059],[119.267,-2.059],[119.2695,-2.0615],[119.2705,-2.064],[119.2675,-2.0695],[119.2715,-2.0725],[119.2805,-2.086],[119.285,-2.0845],[119.29,-2.0845],[119.291,-2.0815],[119.289,-2.0765],[119.293,-2.072],[119.2965,-2.068],[119.2985,-2.068],[119.307,-2.0695],[119.299,-2.063],[119.296,-2.06]]]},"properties":{"code":"76.06.04.2002","name":"Topoyo"}},{"type":"Feature","geometry":{"type":"Polygon","coordinates":[[[119.237,-1.9865],[119.2375,-1.985],[119.2385,-1.9825],[119.2125,-1.9975],[119.223,-2.0125],[119.21,-2.031],[119.23,-2.042],[119.237,-2.041],[119.2385,-2.0385],[119.251,-2.0405],[119.2515,-2.04],[119.2555,-2.0325],[119.2565,-2.032],[119.2475,-2.0185],[119.2375,-2.001],[119.2375,-1.99],[119.237,-1.9865]]]},"properties":{"code":"76.06.04.2003","name":"Tumbu"}},{"type":"Feature","geometry":{"type":"Polygon","coordinates":[[[119.2735,-2.053],[119.272,-2.0515],[119.265,-2.034],[119.2585,-2.0305],[119.2565,-2.032],[119.2555,-2.0325],[119.2515,-2.04],[119.251,-2.0405],[119.2645,-2.0555],[119.267,-2.059],[119.2675,-2.059],[119.2735,-2.053]]]},"properties":{"code":"76.06.04.2004","name":"Kabubu"}},{"type":"Feature","geometry":{"type":"Polygon","coordinates":[[[119.267,-2.0105],[119.255,-2.009],[119.2475,-2.0185],[119.2565,-2.032],[119.2585,-2.0305],[119.265,-2.034],[119.272,-2.0515],[119.2785,-2.0585],[119.279,-2.0585],[119.296,-2.06],[119.2935,-2.052],[119.293,-2.05],[119.274,-2.0265],[119.2745,-2.017],[119.275,-2.0105],[119.2705,-2.0105],[119.267,-2.0105]]]},"properties":{"code":"76.06.04.2005","name":"Waeputeh"}},{"type":"Feature","geometry":{"type":"Polygon","coordinates":[[[119.2985,-2.049],[119.305,-2.048],[119.3065,-2.0465],[119.324,-2.0555],[119.333,-2.047],[119.328,-2.0365],[119.324,-2.0375],[119.325,-2.0405],[119.3215,-2.0405],[119.3125,-2.04],[119.2985,-2.0395],[119.2985,-2.049]]]},"properties":{"code":"76.06.04.2006","name":"Tangkou"}},{"type":"Feature","geometry":{"type":"Polygon","coordinates":[[[119.34,-2.0145],[119.3335,-2.0135],[119.3305,-2.0115],[119.3285,-2.012],[119.328,-2.011],[119.3245,-2.0305],[119.3245,-2.0315],[119.326,-2.033],[119.326,-2.035],[119.3265,-2.037],[119.328,-2.0365],[119.333,-2.047],[119.324,-2.0555],[119.3065,-2.0465],[119.305,-2.048],[119.2985,-2.049],[119.295,-2.05],[119.2935,-2.052],[119.296,-2.06],[119.299,-2.063],[119.302,-2.059],[119.3225,-2.059],[119.3265,-2.059],[119.331,-2.0645],[119.3345,-2.0695],[119.334,-2.0545],[119.3475,-2.063],[119.342,-2.073],[119.343,-2.08],[119.354,-2.082],[119.36,-2.086],[119.361,-2.083],[119.364,-2.079],[119.3715,-2.08],[119.3765,-2.081],[119.3865,-2.0765],[119.3905,-2.077],[119.393,-2.0805],[119.398,-2.0865],[119.392,-2.073],[119.3685,-2.065],[119.3645,-2.0475],[119.348,-2.032],[119.34,-2.0145]]]},"properties":{"code":"76.06.04.2007","name":"Tabolang"}},{"type":"Feature","geometry":{"type":"Polygon","coordinates":[[[119.251,-2.0405],[119.2385,-2.0385],[119.238,-2.0395],[119.2395,-2.0405],[119.241,-2.041],[119.24,-2.0435],[119.242,-2.047],[119.242,-2.0605],[119.2535,-2.0755],[119.27,-2.0725],[119.2675,-2.0695],[119.2705,-2.064],[119.2695,-2.0615],[119.266,-2.0575],[119.2645,-2.0555],[119.251,-2.0405]]]},"properties":{"code":"76.06.04.2008","name":"Paraili"}},{"type":"Feature","geometry":{"type":"Polygon","coordinates":[[[119.328,-2.011],[119.298,-2.012],[119.298,-2.013],[119.2985,-2.0155],[119.2985,-2.034],[119.2985,-2.0395],[119.314,-2.04],[119.3215,-2.0405],[119.325,-2.0405],[119.324,-2.0375],[119.3265,-2.037],[119.326,-2.035],[119.326,-2.033],[119.3245,-2.0315],[119.3245,-2.0305],[119.328,-2.011]]]},"properties":{"code":"76.06.04.2009","name":"Salupangkang"}},{"type":"Feature","geometry":{"type":"Polygon","coordinates":[[[119.285,-1.982],[119.278,-1.983],[119.267,-2.005],[119.267,-2.0105],[119.2705,-2.0105],[119.2775,-2.0105],[119.298,-2.013],[119.2985,-2.0065],[119.2985,-2.006],[119.2985,-1.992],[119.2965,-1.991],[119.294,-1.9915],[119.2915,-1.9895],[119.2875,-1.9865],[119.285,-1.982]]]},"properties":{"code":"76.06.04.2010","name":"Salupangkang IV"}},{"type":"Feature","geometry":{"type":"Polygon","coordinates":[[[119.298,-2.013],[119.2775,-2.0105],[119.275,-2.0105],[119.2745,-2.017],[119.274,-2.0265],[119.293,-2.05],[119.295,-2.05],[119.2985,-2.049],[119.2985,-2.0385],[119.2985,-2.034],[119.2985,-2.0155],[119.298,-2.013]]]},"properties":{"code":"76.06.04.2011","name":"Tappilina"}},{"type":"Feature","geometry":{"type":"Polygon","coordinates":[[[119.328,-2.011],[119.33,-2.0055],[119.317,-1.9945],[119.2985,-1.9935],[119.2985,-2.006],[119.2985,-2.0065],[119.298,-2.012],[119.328,-2.011]]]},"properties":{"code":"76.06.04.2012","name":"Bambamanurung"}},{"type":"Feature","geometry":{"type":"Polygon","coordinates":[[[119.865,-1.956],[119.8495,-1.9585],[119.819,-1.9575],[119.8165,-1.9655],[119.798,-1.9645],[119.79,-1.9595],[119.771,-1.964],[119.763,-1.9615],[119.7245,-1.968],[119.705,-1.974],[119.6865,-1.9655],[119.682,-1.971],[119.669,-1.97],[119.651,-1.961],[119.633,-1.967],[119.5925,-1.9705],[119.576,-1.9645],[119.556,-1.976],[119.5415,-1.9795],[119.502,-1.968],[119.494,-1.961],[119.44,-1.963],[119.407,-1.9875],[119.39,-2.017],[119.3725,-2.023],[119.37,-2.033],[119.3525,-2.0185],[119.35,-2.018],[119.342,-2.0145],[119.34,-2.0145],[119.348,-2.032],[119.3645,-2.0475],[119.3685,-2.065],[119.392,-2.073],[119.398,-2.0865],[119.4005,-2.085],[119.399,-2.081],[119.3995,-2.079],[119.4045,-2.0775],[119.4115,-2.07],[119.4145,-2.0515],[119.419,-2.0535],[119.4185,-2.055],[119.419,-2.057],[119.431,-2.0505],[119.431,-2.0425],[119.436,-2.0435],[119.459,-2.05],[119.4655,-2.046],[119.4675,-2.05],[119.4695,-2.0495],[119.4725,-2.048],[119.4755,-2.0435],[119.4725,-2.041],[119.471,-2.038],[119.4775,-2.0205],[119.4915,-2.0255],[119.4925,-2.037],[119.4995,-2.045],[119.5235,-2.0445],[119.5305,-2.057],[119.5485,-2.072],[119.546,-2.0985],[119.5765,-2.09],[119.588,-2.091],[119.602,-2.109],[119.6095,-2.108],[119.6315,-2.117],[119.6375,-2.13],[119.638,-2.131],[119.6395,-2.132],[119.6525,-2.127],[119.6685,-2.1365],[119.6805,-2.1425],[119.695,-2.1365],[119.7015,-2.137],[119.7045,-2.137],[119.7085,-2.138],[119.711,-2.1425],[119.722,-2.1395],[119.735,-2.1255],[119.777,-2.1195],[119.7925,-2.1085],[119.8035,-2.112],[119.8045,-2.112],[119.8055,-2.111],[119.808,-2.107],[119.8105,-2.103],[119.818,-2.094],[119.816,-2.085],[119.821,-2.0745],[119.8175,-2.0595],[119.8255,-2.0485],[119.8355,-2.045],[119.84,-2.0445],[119.8515,-2.042],[119.8625,-2.031],[119.8665,-2.0205],[119.8705,-2.0185],[119.8655,-2.019],[119.8565,-2.0195],[119.8525,-2.021],[119.8475,-2.0235],[119.8475,-2.0215],[119.847,-2.018],[119.846,-2.0155],[119.849,-1.988],[119.8545,-1.973],[119.8645,-1.957],[119.865,-1.956]]]},"properties":{"code":"76.06.04.2013","name":"Salulekbo"}},{"type":"Feature","geometry":{"type":"Polygon","coordinates":[[[119.27,-2.0725],[119.2535,-2.0755],[119.242,-2.0605],[119.2335,-2.064],[119.2335,-2.077],[119.218,-2.0815],[119.2205,-2.0895],[119.222,-2.091],[119.223,-2.091],[119.2245,-2.0905],[119.225,-2.0895],[119.2465,-2.0935],[119.249,-2.0935],[119.251,-2.089],[119.2475,-2.0835],[119.249,-2.0825],[119.253,-2.0855],[119.2585,-2.0885],[119.2595,-2.0895],[119.2595,-2.093],[119.259,-2.1005],[119.26,-2.101],[119.261,-2.1015],[119.262,-2.1005],[119.2625,-2.0935],[119.28,-2.0875],[119.2805,-2.086],[119.2715,-2.0725],[119.27,-2.0725]]]},"properties":{"code":"76.06.04.2014","name":"Pangalloang"}},{"type":"Feature","geometry":{"type":"Polygon","coordinates":[[[119.295,-1.9585],[119.2875,-1.953],[119.261,-1.971],[119.2385,-1.9825],[119.2375,-1.985],[119.237,-1.9865],[119.2375,-1.99],[119.2375,-2.001],[119.2475,-2.0185],[119.255,-2.009],[119.267,-2.0105],[119.267,-2.005],[119.278,-1.983],[119.285,-1.982],[119.285,-1.981],[119.2835,-1.977],[119.283,-1.9745],[119.2865,-1.9685],[119.2895,-1.9635],[119.2915,-1.959],[119.294,-1.9585],[119.295,-1.9585]]]},"properties":{"code":"76.06.04.2015","name":"Sinabatta"}},{"type":"Feature","geometry":{"type":"Polygon","coordinates":[[[119.441,-1.7845],[119.4335,-1.781],[119.4305,-1.781],[119.43,-1.7815],[119.4285,-1.78],[119.424,-1.782],[119.422,-1.7785],[119.4065,-1.766],[119.4055,-1.7675],[119.406,-1.769],[119.4065,-1.777],[119.3965,-1.7845],[119.363,-1.812],[119.3525,-1.7995],[119.3495,-1.7935],[119.3445,-1.794],[119.344,-1.795],[119.3445,-1.7985],[119.343,-1.7995],[119.3425,-1.8],[119.3415,-1.801],[119.341,-1.8185],[119.3535,-1.819],[119.3585,-1.8305],[119.36,-1.8305],[119.3605,-1.8295],[119.3615,-1.8305],[119.3615,-1.8315],[119.3625,-1.829],[119.3675,-1.822],[119.389,-1.8185],[119.392,-1.809],[119.394,-1.808],[119.395,-1.8075],[119.403,-1.809],[119.4055,-1.81],[119.4315,-1.8115],[119.433,-1.812],[119.44,-1.8175],[119.443,-1.831],[119.4555,-1.8315],[119.474,-1.847],[119.484,-1.8385],[119.511,-1.8555],[119.515,-1.8605],[119.54,-1.857],[119.554,-1.8635],[119.5665,-1.8745],[119.604,-1.8575],[119.6115,-1.8685],[119.6235,-1.8715],[119.6415,-1.8535],[119.6665,-1.8585],[119.693,-1.846],[119.6995,-1.853],[119.698,-1.879],[119.7075,-1.891],[119.7215,-1.8705],[119.7235,-1.8695],[119.726,-1.8665],[119.7345,-1.864],[119.7355,-1.863],[119.737,-1.8625],[119.7375,-1.8625],[119.7405,-1.8655],[119.7415,-1.8665],[119.743,-1.8675],[119.746,-1.872],[119.748,-1.8725],[119.7495,-1.8725],[119.751,-1.8715],[119.7525,-1.87],[119.7555,-1.8685],[119.767,-1.8635],[119.776,-1.8655],[119.7795,-1.867],[119.788,-1.879],[119.802,-1.8865],[119.803,-1.8865],[119.8345,-1.8835],[119.8355,-1.8805],[119.84,-1.881],[119.853,-1.8805],[119.853,-1.88],[119.864,-1.875],[119.875,-1.863],[119.8675,-1.849],[119.867,-1.8395],[119.861,-1.8295],[119.859,-1.8245],[119.86,-1.8225],[119.86,-1.8215],[119.8595,-1.819],[119.8235,-1.8225],[119.7135,-1.8455],[119.6875,-1.8405],[119.6645,-1.845],[119.6255,-1.837],[119.6065,-1.8255],[119.601,-1.842],[119.5835,-1.8345],[119.5715,-1.837],[119.5355,-1.8245],[119.529,-1.8135],[119.5225,-1.8145],[119.5045,-1.808],[119.4915,-1.797],[119.482,-1.7995],[119.464,-1.7945],[119.4555,-1.784],[119.442,-1.785],[119.441,-1.7845]]]},"properties":{"code":"76.06.05.2001","name":"Karossa"}},{"type":"Feature","geometry":{"type":"Polygon","coordinates":[[[119.8635,-1.9185],[119.8565,-1.9205],[119.8215,-1.9265],[119.797,-1.923],[119.783,-1.9235],[119.771,-1.919],[119.747,-1.916],[119.7105,-1.921],[119.658,-1.913],[119.6395,-1.907],[119.6275,-1.9095],[119.62,-1.918],[119.6025,-1.9165],[119.556,-1.925],[119.535,-1.911],[119.5245,-1.9265],[119.5115,-1.928],[119.481,-1.917],[119.4675,-1.9285],[119.447,-1.925],[119.4355,-1.9285],[119.406,-1.9185],[119.3795,-1.889],[119.37,-1.8845],[119.369,-1.884],[119.369,-1.883],[119.368,-1.882],[119.3655,-1.882],[119.352,-1.885],[119.3535,-1.898],[119.3365,-1.9155],[119.334,-1.927],[119.338,-1.938],[119.332,-1.9615],[119.3325,-1.9625],[119.3335,-1.9625],[119.335,-1.9655],[119.3465,-1.9755],[119.349,-1.977],[119.395,-1.9665],[119.4155,-1.9645],[119.43,-1.9485],[119.4475,-1.948],[119.5,-1.9355],[119.536,-1.9445],[119.5495,-1.933],[119.5705,-1.947],[119.601,-1.936],[119.6175,-1.927],[119.632,-1.9425],[119.6635,-1.9565],[119.6735,-1.95],[119.6815,-1.955],[119.687,-1.938],[119.696,-1.932],[119.725,-1.9495],[119.728,-1.945],[119.7295,-1.9405],[119.7315,-1.9405],[119.7365,-1.9405],[119.737,-1.9425],[119.7385,-1.9485],[119.749,-1.9295],[119.7625,-1.936],[119.766,-1.9475],[119.767,-1.9475],[119.7695,-1.9445],[119.7655,-1.9355],[119.767,-1.933],[119.7775,-1.9345],[119.7855,-1.944],[119.808,-1.944],[119.811,-1.947],[119.812,-1.9475],[119.8145,-1.943],[119.822,-1.9385],[119.841,-1.939],[119.853,-1.9375],[119.8555,-1.936],[119.865,-1.936],[119.864,-1.936],[119.864,-1.9355],[119.862,-1.932],[119.8635,-1.9195],[119.8635,-1.9185]]]},"properties":{"code":"76.06.05.2002","name":"Tasokko"}},{"type":"Feature","geometry":{"type":"Polygon","coordinates":[[[119.531,-1.878],[119.479,-1.8735],[119.454,-1.8695],[119.426,-1.8565],[119.4145,-1.856],[119.3995,-1.8405],[119.382,-1.842],[119.3585,-1.8345],[119.3625,-1.8605],[119.365,-1.8645],[119.367,-1.8645],[119.3675,-1.863],[119.3705,-1.8635],[119.37,-1.8625],[119.3975,-1.8635],[119.407,-1.8885],[119.4235,-1.9025],[119.464,-1.8835],[119.483,-1.8925],[119.4935,-1.8875],[119.5105,-1.892],[119.524,-1.8845],[119.5375,-1.891],[119.5855,-1.888],[119.5955,-1.906],[119.6115,-1.897],[119.634,-1.8985],[119.664,-1.881],[119.68,-1.892],[119.69,-1.8875],[119.691,-1.888],[119.7025,-1.8995],[119.7205,-1.899],[119.727,-1.8935],[119.7375,-1.8995],[119.7555,-1.8945],[119.7725,-1.906],[119.804,-1.9115],[119.814,-1.909],[119.8205,-1.915],[119.835,-1.913],[119.84,-1.9105],[119.8535,-1.9075],[119.853,-1.907],[119.852,-1.9065],[119.851,-1.9055],[119.848,-1.904],[119.847,-1.902],[119.853,-1.8825],[119.853,-1.8805],[119.84,-1.881],[119.8355,-1.8805],[119.8345,-1.8835],[119.803,-1.8865],[119.802,-1.8865],[119.788,-1.879],[119.7795,-1.867],[119.776,-1.8655],[119.767,-1.8635],[119.7555,-1.8685],[119.7525,-1.87],[119.751,-1.8715],[119.7495,-1.8725],[119.748,-1.8725],[119.746,-1.872],[119.743,-1.8675],[119.7415,-1.8665],[119.7405,-1.8655],[119.7375,-1.8625],[119.737,-1.8625],[119.7355,-1.863],[119.7345,-1.864],[119.726,-1.8665],[119.7235,-1.8695],[119.7215,-1.8705],[119.7075,-1.891],[119.698,-1.879],[119.6995,-1.853],[119.693,-1.846],[119.6665,-1.8585],[119.6415,-1.8535],[119.6235,-1.8715],[119.6115,-1.8685],[119.604,-1.8575],[119.5665,-1.8745],[119.553,-1.875],[119.531,-1.878]]]},"properties":{"code":"76.06.05.2003","name":"Lara"}},{"type":"Feature","geometry":{"type":"Polygon","coordinates":[[[119.385,-1.757],[119.384,-1.7565],[119.377,-1.754],[119.376,-1.7565],[119.368,-1.766],[119.348,-1.7785],[119.347,-1.778],[119.347,-1.7795],[119.3465,-1.7825],[119.3485,-1.786],[119.3455,-1.7845],[119.345,-1.7835],[119.344,-1.783],[119.343,-1.7845],[119.344,-1.786],[119.3435,-1.7885],[119.343,-1.791],[119.3445,-1.7935],[119.3445,-1.794],[119.3495,-1.7935],[119.3495,-1.7945],[119.35,-1.794],[119.3525,-1.791],[119.372,-1.775],[119.385,-1.787],[119.3885,-1.791],[119.3965,-1.7845],[119.4065,-1.777],[119.406,-1.769],[119.4055,-1.7675],[119.406,-1.7665],[119.402,-1.7625],[119.4,-1.7625],[119.3995,-1.7615],[119.3885,-1.76],[119.385,-1.757]]]},"properties":{"code":"76.06.05.2004","name":"Kadaila"}},{"type":"Feature","geometry":{"type":"Polygon","coordinates":[[[119.363,-1.812],[119.3885,-1.791],[119.372,-1.775],[119.3525,-1.791],[119.35,-1.794],[119.3495,-1.7945],[119.3525,-1.7995],[119.363,-1.812]]]},"properties":{"code":"76.06.05.2005","name":"Kayu Calla"}},{"type":"Feature","geometry":{"type":"Polygon","coordinates":[[[119.5665,-1.8745],[119.554,-1.8635],[119.54,-1.857],[119.515,-1.8605],[119.511,-1.8555],[119.484,-1.8385],[119.474,-1.847],[119.4555,-1.8315],[119.443,-1.831],[119.44,-1.8175],[119.433,-1.812],[119.4315,-1.8115],[119.4055,-1.81],[119.403,-1.809],[119.395,-1.8075],[119.394,-1.808],[119.392,-1.809],[119.389,-1.8185],[119.3965,-1.823],[119.3975,-1.825],[119.416,-1.826],[119.42,-1.8385],[119.4595,-1.8565],[119.4885,-1.866],[119.525,-1.8715],[119.552,-1.875],[119.553,-1.875],[119.5665,-1.8745]]]},"properties":{"code":"76.06.05.2006","name":"Lembah Hopo"}},{"type":"Feature","geometry":{"type":"Polygon","coordinates":[[[119.447,-1.74],[119.447,-1.739],[119.4465,-1.7385],[119.446,-1.734],[119.445,-1.7325],[119.4435,-1.732],[119.4415,-1.7325],[119.406,-1.7435],[119.396,-1.752],[119.394,-1.752],[119.392,-1.7545],[119.39,-1.7555],[119.3855,-1.7575],[119.385,-1.757],[119.3885,-1.76],[119.3995,-1.7615],[119.4,-1.7625],[119.402,-1.7625],[119.406,-1.7665],[119.4065,-1.766],[119.422,-1.7785],[119.424,-1.782],[119.4285,-1.78],[119.43,-1.7815],[119.4305,-1.781],[119.4335,-1.781],[119.441,-1.7845],[119.4425,-1.782],[119.4455,-1.768],[119.4375,-1.7455],[119.4435,-1.7425],[119.4455,-1.7405],[119.447,-1.74]]]},"properties":{"code":"76.06.05.2007","name":"Benggaulu"}},{"type":"Feature","geometry":{"type":"Polygon","coordinates":[[[119.389,-1.8185],[119.3675,-1.822],[119.3625,-1.829],[119.3615,-1.8315],[119.3615,-1.8305],[119.3605,-1.8295],[119.36,-1.8305],[119.3585,-1.8305],[119.3585,-1.8345],[119.382,-1.842],[119.3995,-1.8405],[119.4145,-1.856],[119.426,-1.8565],[119.454,-1.8695],[119.479,-1.8735],[119.531,-1.878],[119.552,-1.875],[119.525,-1.8715],[119.4885,-1.866],[119.4595,-1.8565],[119.42,-1.8385],[119.416,-1.826],[119.3975,-1.825],[119.3965,-1.823],[119.389,-1.8185]]]},"properties":{"code":"76.06.05.2008","name":"Suka Maju"}},{"type":"Feature","geometry":{"type":"Polygon","coordinates":[[[119.728,-1.945],[119.725,-1.9495],[119.696,-1.932],[119.687,-1.938],[119.6815,-1.955],[119.6735,-1.95],[119.6635,-1.9565],[119.632,-1.9425],[119.6175,-1.927],[119.601,-1.936],[119.5705,-1.947],[119.5495,-1.933],[119.536,-1.9445],[119.5,-1.9355],[119.4475,-1.948],[119.43,-1.9485],[119.4155,-1.9645],[119.395,-1.9665],[119.349,-1.977],[119.3465,-1.9755],[119.335,-1.9655],[119.3335,-1.9625],[119.3325,-1.9625],[119.332,-1.9615],[119.3205,-1.9635],[119.318,-1.9535],[119.305,-1.9595],[119.295,-1.9585],[119.294,-1.9585],[119.2915,-1.959],[119.2895,-1.9635],[119.2865,-1.9685],[119.283,-1.9745],[119.2835,-1.977],[119.285,-1.981],[119.2875,-1.9865],[119.2915,-1.9895],[119.294,-1.9915],[119.2965,-1.991],[119.2985,-1.992],[119.2985,-1.9935],[119.317,-1.9945],[119.33,-2.0055],[119.328,-2.011],[119.3285,-2.012],[119.3305,-2.0115],[119.3335,-2.0135],[119.342,-2.0145],[119.35,-2.018],[119.3525,-2.0185],[119.37,-2.033],[119.3725,-2.023],[119.39,-2.017],[119.407,-1.9875],[119.44,-1.963],[119.494,-1.961],[119.502,-1.968],[119.5415,-1.9795],[119.556,-1.976],[119.576,-1.9645],[119.5925,-1.9705],[119.633,-1.967],[119.651,-1.961],[119.669,-1.97],[119.682,-1.971],[119.6865,-1.9655],[119.705,-1.974],[119.7245,-1.968],[119.763,-1.9615],[119.771,-1.964],[119.79,-1.9595],[119.798,-1.9645],[119.8165,-1.9655],[119.819,-1.9575],[119.8495,-1.9585],[119.865,-1.956],[119.8665,-1.9365],[119.865,-1.936],[119.8555,-1.936],[119.853,-1.9375],[119.841,-1.939],[119.822,-1.9385],[119.8145,-1.943],[119.812,-1.9475],[119.811,-1.947],[119.808,-1.944],[119.7855,-1.944],[119.7775,-1.9345],[119.767,-1.933],[119.7655,-1.9355],[119.7695,-1.9445],[119.767,-1.9475],[119.766,-1.9475],[119.7625,-1.936],[119.749,-1.9295],[119.7385,-1.9485],[119.737,-1.9425],[119.7365,-1.9405],[119.7315,-1.9405],[119.7295,-1.9405],[119.728,-1.945]]]},"properties":{"code":"76.06.05.2009","name":"Kambunong"}},{"type":"Feature","geometry":{"type":"Polygon","coordinates":[[[119.3625,-1.8605],[119.3505,-1.8705],[119.352,-1.885],[119.3655,-1.882],[119.368,-1.882],[119.369,-1.883],[119.369,-1.884],[119.37,-1.8845],[119.3795,-1.889],[119.406,-1.9185],[119.4355,-1.9285],[119.447,-1.925],[119.4675,-1.9285],[119.481,-1.917],[119.5115,-1.928],[119.5245,-1.9265],[119.535,-1.911],[119.556,-1.925],[119.6025,-1.9165],[119.62,-1.918],[119.6275,-1.9095],[119.6395,-1.907],[119.658,-1.913],[119.7105,-1.921],[119.747,-1.916],[119.771,-1.919],[119.783,-1.9235],[119.797,-1.923],[119.8215,-1.9265],[119.8565,-1.9205],[119.8635,-1.9185],[119.863,-1.9175],[119.854,-1.908],[119.8535,-1.9075],[119.84,-1.9105],[119.835,-1.913],[119.8205,-1.915],[119.814,-1.909],[119.804,-1.9115],[119.7725,-1.906],[119.7555,-1.8945],[119.7375,-1.8995],[119.727,-1.8935],[119.7205,-1.899],[119.7025,-1.8995],[119.691,-1.888],[119.69,-1.8875],[119.68,-1.892],[119.664,-1.881],[119.634,-1.8985],[119.6115,-1.897],[119.5955,-1.906],[119.5855,-1.888],[119.5375,-1.891],[119.524,-1.8845],[119.5105,-1.892],[119.4935,-1.8875],[119.483,-1.8925],[119.464,-1.8835],[119.4235,-1.9025],[119.407,-1.8885],[119.3975,-1.8635],[119.37,-1.8625],[119.3705,-1.8635],[119.3675,-1.863],[119.367,-1.8645],[119.365,-1.8645],[119.3625,-1.8605]]]},"properties":{"code":"76.06.05.2010","name":"Salubiro"}},{"type":"Feature","geometry":{"type":"Polygon","coordinates":[[[119.451,-1.746],[119.4465,-1.7415],[119.447,-1.74],[119.4455,-1.7405],[119.4435,-1.7425],[119.4375,-1.7455],[119.4455,-1.768],[119.4425,-1.782],[119.442,-1.785],[119.4555,-1.784],[119.464,-1.7945],[119.482,-1.7995],[119.4915,-1.797],[119.5045,-1.808],[119.5225,-1.8145],[119.529,-1.8135],[119.5355,-1.8245],[119.5715,-1.837],[119.5835,-1.8345],[119.601,-1.842],[119.6065,-1.8255],[119.6255,-1.837],[119.6645,-1.845],[119.6875,-1.8405],[119.7135,-1.8455],[119.8235,-1.8225],[119.8595,-1.819],[119.86,-1.8185],[119.8605,-1.809],[119.8585,-1.8065],[119.86,-1.804],[119.872,-1.783],[119.8715,-1.7805],[119.8715,-1.7795],[119.868,-1.779],[119.8635,-1.78],[119.8505,-1.7875],[119.841,-1.8015],[119.8295,-1.8055],[119.8115,-1.7925],[119.8,-1.795],[119.776,-1.811],[119.756,-1.81],[119.7485,-1.806],[119.741,-1.815],[119.728,-1.8185],[119.709,-1.8325],[119.679,-1.825],[119.6565,-1.8415],[119.6435,-1.8295],[119.629,-1.8205],[119.5935,-1.8105],[119.58,-1.8195],[119.5615,-1.806],[119.5335,-1.798],[119.528,-1.792],[119.5115,-1.7935],[119.5085,-1.786],[119.488,-1.776],[119.475,-1.7655],[119.4585,-1.757],[119.455,-1.757],[119.449,-1.7505],[119.448,-1.749],[119.449,-1.748],[119.451,-1.746]]]},"properties":{"code":"76.06.05.2011","name":"Sanjango"}}]}