{"type":"FeatureCollection","features":[{"type":"Feature","geometry":{"type":"Polygon","coordinates":[[[127.805,-8.145],[127.7885,-8.142],[127.789,-8.158],[127.8025,-8.158],[127.805,-8.145]]]},"properties":{"code":"81.08.01.1001","name":"Tiakur","latitude":-8.149642265559454,"longitude":127.79729725621456}},{"type":"Feature","geometry":{"type":"Polygon","coordinates":[[[127.9475,-8.1465],[127.9295,-8.1345],[127.926,-8.1525],[127.926,-8.1685],[127.9295,-8.1875],[127.929,-8.2165],[127.9425,-8.2195],[127.9585,-8.233],[127.96,-8.2465],[127.9865,-8.2495],[127.996,-8.2555],[127.9855,-8.2225],[127.97,-8.206],[127.9485,-8.161],[127.9475,-8.1465]]]},"properties":{"code":"81.08.01.2001","name":"Klis","latitude":-8.20036540451706,"longitude":127.95336982472469}},{"type":"Feature","geometry":{"type":"Polygon","coordinates":[[[127.8885,-8.1485],[127.874,-8.1515],[127.8715,-8.152],[127.8375,-8.147],[127.837,-8.1495],[127.8355,-8.157],[127.8235,-8.1815],[127.819,-8.189],[127.8145,-8.1925],[127.8105,-8.1955],[127.818,-8.2],[127.8525,-8.208],[127.8635,-8.215],[127.8885,-8.218],[127.882,-8.191],[127.8825,-8.1785],[127.8905,-8.1565],[127.8885,-8.1485]]]},"properties":{"code":"81.08.01.2002","name":"Patti","latitude":-8.181261879580303,"longitude":127.85711466125724}},{"type":"Feature","geometry":{"type":"Polygon","coordinates":[[[127.8375,-8.147],[127.8385,-8.1425],[127.807,-8.1385],[127.7865,-8.1415],[127.7865,-8.166],[127.796,-8.186],[127.8105,-8.1955],[127.8145,-8.1925],[127.819,-8.189],[127.8235,-8.1815],[127.8355,-8.157],[127.837,-8.1495],[127.8375,-8.147]],[[127.805,-8.145],[127.8025,-8.158],[127.789,-8.158],[127.7885,-8.142],[127.805,-8.145]]]},"properties":{"code":"81.08.01.2003","name":"Wakarleli","latitude":-8.164707413698089,"longitude":127.81184503302445}},{"type":"Feature","geometry":{"type":"Polygon","coordinates":[[[127.903,-8.1295],[127.875,-8.117],[127.851,-8.118],[127.843,-8.111],[127.7865,-8.1035],[127.7665,-8.108],[127.765,-8.1215],[127.7815,-8.1315],[127.7865,-8.1415],[127.807,-8.1385],[127.8385,-8.1425],[127.8375,-8.147],[127.8715,-8.152],[127.874,-8.1515],[127.8885,-8.1485],[127.889,-8.147],[127.892,-8.143],[127.897,-8.1365],[127.903,-8.1295]]]},"properties":{"code":"81.08.01.2004","name":"Kaiwatu","latitude":-8.127185851115051,"longitude":127.83110725583293}},{"type":"Feature","geometry":{"type":"Polygon","coordinates":[[[127.9295,-8.1345],[127.925,-8.128],[127.903,-8.1295],[127.897,-8.1365],[127.892,-8.143],[127.889,-8.147],[127.8885,-8.1485],[127.8905,-8.1565],[127.8825,-8.1785],[127.882,-8.191],[127.8885,-8.218],[127.906,-8.214],[127.929,-8.2165],[127.9295,-8.1875],[127.926,-8.1685],[127.926,-8.1525],[127.9295,-8.1345]]]},"properties":{"code":"81.08.01.2005","name":"Werwaru","latitude":-8.175897477028622,"longitude":127.9073943516374}},{"type":"Feature","geometry":{"type":"Polygon","coordinates":[[[128.054,-8.226],[128.049,-8.206],[128.0575,-8.1865],[128.0695,-8.168],[128.0795,-8.1465],[128.0795,-8.137],[128.0625,-8.145],[128.0355,-8.148],[127.997,-8.14],[127.9665,-8.146],[127.9475,-8.1465],[127.9485,-8.161],[127.97,-8.206],[127.9855,-8.2225],[127.996,-8.2555],[128.006,-8.258],[128.043,-8.26],[128.0485,-8.254],[128.054,-8.226]]]},"properties":{"code":"81.08.01.2006","name":"Tounwawan","latitude":-8.191321918265666,"longitude":128.01346819764584}},{"type":"Feature","geometry":{"type":"Polygon","coordinates":[[[128.054,-8.226],[128.071,-8.214],[128.072,-8.1985],[128.086,-8.1865],[128.113,-8.176],[128.1245,-8.1675],[128.1255,-8.1535],[128.1015,-8.139],[128.0795,-8.137],[128.0795,-8.1465],[128.0695,-8.168],[128.0575,-8.1865],[128.049,-8.206],[128.054,-8.226]]]},"properties":{"code":"81.08.01.2007","name":"Moain","latitude":-8.173640802864615,"longitude":128.08593278642218}},{"type":"Feature","geometry":{"type":"MultiPolygon","coordinates":[[[[128.557,-7.355],[128.549,-7.369],[128.554,-7.3805],[128.566,-7.3755],[128.568,-7.3605],[128.557,-7.355]]],[[[128.564,-7.2815],[128.5545,-7.301],[128.5645,-7.3055],[128.5725,-7.294],[128.564,-7.2815]]],[[[128.6,-7.153],[128.5955,-7.151],[128.5955,-7.1515],[128.5925,-7.152],[128.5795,-7.164],[128.58,-7.1655],[128.5795,-7.1665],[128.575,-7.1735],[128.6,-7.197],[128.624,-7.213],[128.6475,-7.2175],[128.6555,-7.2105],[128.66,-7.195],[128.6485,-7.184],[128.646,-7.1835],[128.64,-7.1815],[128.634,-7.1745],[128.625,-7.1615],[128.6,-7.153]]]]},"properties":{"code":"81.08.02.2001","name":"Wulur","latitude":-7.213639436153962,"longitude":128.60741442986787}},{"type":"Feature","geometry":{"type":"Polygon","coordinates":[[[128.5625,-7.0995],[128.5625,-7.0975],[128.562,-7.0965],[128.543,-7.1055],[128.529,-7.124],[128.525,-7.1445],[128.5445,-7.1635],[128.5575,-7.1595],[128.566,-7.171],[128.575,-7.1735],[128.5795,-7.1665],[128.5725,-7.1615],[128.574,-7.152],[128.5675,-7.138],[128.567,-7.1365],[128.567,-7.1355],[128.567,-7.134],[128.5685,-7.1055],[128.567,-7.105],[128.568,-7.103],[128.5665,-7.1025],[128.5625,-7.0995]]]},"properties":{"code":"81.08.02.2002","name":"Batu Merah","latitude":-7.1363555689743015,"longitude":128.54913088813746}},{"type":"Feature","geometry":{"type":"Polygon","coordinates":[[[128.61,-7.074],[128.6105,-7.062],[128.587,-7.072],[128.562,-7.0965],[128.5625,-7.0975],[128.5625,-7.0995],[128.5665,-7.1025],[128.568,-7.103],[128.567,-7.105],[128.5685,-7.1055],[128.567,-7.134],[128.567,-7.1355],[128.5705,-7.134],[128.5725,-7.133],[128.576,-7.1295],[128.582,-7.1265],[128.589,-7.108],[128.6055,-7.0855],[128.61,-7.074]]]},"properties":{"code":"81.08.02.2003","name":"Kuaimelu","latitude":-7.0969733480833295,"longitude":128.5844110873515}},{"type":"Feature","geometry":{"type":"Polygon","coordinates":[[[128.6365,-7.078],[128.631,-7.071],[128.6105,-7.062],[128.61,-7.074],[128.6055,-7.0855],[128.589,-7.108],[128.582,-7.1265],[128.576,-7.1295],[128.5725,-7.133],[128.5705,-7.134],[128.567,-7.1355],[128.5675,-7.138],[128.574,-7.152],[128.5725,-7.1615],[128.5795,-7.1665],[128.58,-7.1655],[128.5795,-7.164],[128.5925,-7.152],[128.5955,-7.1515],[128.5955,-7.1505],[128.5975,-7.1335],[128.6045,-7.1125],[128.6165,-7.11],[128.621,-7.095],[128.627,-7.0935],[128.629,-7.0915],[128.632,-7.086],[128.6335,-7.0825],[128.634,-7.0805],[128.6365,-7.078]]]},"properties":{"code":"81.08.02.2004","name":"Kumur","latitude":-7.113950722770622,"longitude":128.59945885064482}},{"type":"Feature","geometry":{"type":"Polygon","coordinates":[[[128.675,-7.1405],[128.6865,-7.138],[128.6985,-7.1265],[128.6995,-7.107],[128.6875,-7.099],[128.665,-7.094],[128.653,-7.0965],[128.646,-7.0815],[128.6365,-7.078],[128.634,-7.0805],[128.6335,-7.0825],[128.632,-7.086],[128.629,-7.0915],[128.627,-7.0935],[128.621,-7.095],[128.6165,-7.11],[128.6045,-7.1125],[128.5975,-7.1335],[128.5955,-7.1505],[128.5955,-7.151],[128.6,-7.153],[128.625,-7.1615],[128.634,-7.1745],[128.634,-7.17],[128.635,-7.1675],[128.6395,-7.1435],[128.639,-7.1405],[128.639,-7.1345],[128.659,-7.133],[128.675,-7.1405]]]},"properties":{"code":"81.08.02.2005","name":"Bebar Timur","latitude":-7.121777093332334,"longitude":128.6445386865527}},{"type":"Feature","geometry":{"type":"Polygon","coordinates":[[[128.66,-7.195],[128.666,-7.1915],[128.6785,-7.173],[128.663,-7.154],[128.661,-7.1585],[128.6565,-7.1625],[128.653,-7.1625],[128.6515,-7.164],[128.6505,-7.166],[128.6485,-7.1725],[128.646,-7.1755],[128.642,-7.1825],[128.6485,-7.184],[128.66,-7.195]]]},"properties":{"code":"81.08.02.2006","name":"Ilih","latitude":-7.174490253519703,"longitude":128.66289513583786}},{"type":"Feature","geometry":{"type":"Polygon","coordinates":[[[128.675,-7.1405],[128.659,-7.133],[128.639,-7.1345],[128.639,-7.1405],[128.6395,-7.1435],[128.635,-7.1675],[128.634,-7.17],[128.634,-7.1745],[128.64,-7.1815],[128.642,-7.1825],[128.646,-7.1755],[128.6485,-7.1725],[128.6505,-7.166],[128.6515,-7.164],[128.653,-7.1625],[128.6565,-7.1625],[128.661,-7.1585],[128.663,-7.154],[128.6555,-7.1455],[128.675,-7.1405]]]},"properties":{"code":"81.08.02.2007","name":"Kehli","latitude":-7.153336632316294,"longitude":128.6486546243807}},{"type":"Feature","geometry":{"type":"Polygon","coordinates":[[[128.7205,-8.1795],[128.7055,-8.1805],[128.6835,-8.165],[128.693,-8.1855],[128.7135,-8.1915],[128.7205,-8.1795]]]},"properties":{"code":"81.08.03.2001","name":"Luang Barat","latitude":-8.215345415950212,"longitude":128.61134082250663}},{"type":"Feature","geometry":{"type":"MultiPolygon","coordinates":[[[[128.7205,-8.1795],[128.706,-8.174],[128.7005,-8.1665],[128.6835,-8.165],[128.7055,-8.1805],[128.7205,-8.1795]]],[[[128.76,-8.1615],[128.7785,-8.17],[128.787,-8.1885],[128.785,-8.201],[128.799,-8.1995],[128.8,-8.185],[128.7925,-8.1835],[128.7865,-8.163],[128.7735,-8.167],[128.76,-8.1615]]]]},"properties":{"code":"81.08.03.2002","name":"Luang Timur","latitude":-8.178357540148816,"longitude":128.76005803174965}},{"type":"Feature","geometry":{"type":"Polygon","coordinates":[[[128.8735,-8.184],[128.8625,-8.184],[128.8375,-8.191],[128.827,-8.1965],[128.8285,-8.2045],[128.84,-8.2105],[128.8605,-8.2025],[128.8725,-8.2035],[128.8735,-8.184]]]},"properties":{"code":"81.08.03.2003","name":"Elo","latitude":-8.196641983309094,"longitude":128.8517770181981}},{"type":"Feature","geometry":{"type":"Polygon","coordinates":[[[128.8725,-8.2035],[128.8605,-8.2025],[128.84,-8.2105],[128.872,-8.2315],[128.901,-8.2395],[128.904,-8.2195],[128.901,-8.214],[128.899,-8.2145],[128.8725,-8.2035]]]},"properties":{"code":"81.08.03.2004","name":"Rumkisar","latitude":-8.219204299528132,"longitude":128.87680413705257}},{"type":"Feature","geometry":{"type":"Polygon","coordinates":[[[128.95,-8.209],[128.9415,-8.212],[128.924,-8.205],[128.904,-8.2125],[128.902,-8.214],[128.901,-8.214],[128.904,-8.2195],[128.901,-8.2395],[128.9285,-8.246],[128.939,-8.245],[128.932,-8.2305],[128.9375,-8.224],[128.9545,-8.2245],[128.95,-8.209]]]},"properties":{"code":"81.08.03.2005","name":"Lelang","latitude":-8.22520902481603,"longitude":128.92437049923805}},{"type":"Feature","geometry":{"type":"Polygon","coordinates":[[[128.9515,-8.187],[128.939,-8.1895],[128.9125,-8.188],[128.9015,-8.185],[128.8995,-8.1965],[128.9035,-8.213],[128.904,-8.2125],[128.924,-8.205],[128.9415,-8.212],[128.95,-8.209],[128.9515,-8.187]]]},"properties":{"code":"81.08.03.2006","name":"Mahaleta","latitude":-8.198804669103842,"longitude":128.92519480413242}},{"type":"Feature","geometry":{"type":"Polygon","coordinates":[[[128.9015,-8.185],[128.8735,-8.184],[128.8725,-8.2035],[128.899,-8.2145],[128.902,-8.214],[128.9035,-8.213],[128.8995,-8.1965],[128.9015,-8.185]]]},"properties":{"code":"81.08.03.2007","name":"Romdara","latitude":-8.197626540438833,"longitude":128.88835083750354}},{"type":"Feature","geometry":{"type":"Polygon","coordinates":[[[128.983,-8.1975],[128.965,-8.1855],[128.9515,-8.187],[128.95,-8.209],[128.972,-8.21],[128.9795,-8.216],[128.983,-8.1975]]]},"properties":{"code":"81.08.03.2008","name":"Rotnama","latitude":-8.199484102385439,"longitude":128.96579439281388}},{"type":"Feature","geometry":{"type":"Polygon","coordinates":[[[128.9795,-8.216],[128.972,-8.21],[128.95,-8.209],[128.9545,-8.2245],[128.9625,-8.233],[128.9845,-8.2485],[128.991,-8.2265],[128.9855,-8.223],[128.9825,-8.221],[128.9795,-8.216]]]},"properties":{"code":"81.08.03.2009","name":"Batugajah","latitude":-8.225685322453629,"longitude":128.97152906547035}},{"type":"Feature","geometry":{"type":"Polygon","coordinates":[[[129.032,-8.2335],[129.032,-8.2225],[129.024,-8.2165],[128.9965,-8.207],[128.983,-8.1975],[128.9795,-8.216],[128.9825,-8.221],[128.9855,-8.223],[128.991,-8.2265],[128.9925,-8.228],[128.997,-8.2305],[129.032,-8.2335]]]},"properties":{"code":"81.08.03.2010","name":"Pupliora","latitude":-8.218835994706438,"longitude":129.00404331620354}},{"type":"Feature","geometry":{"type":"Polygon","coordinates":[[[129.032,-8.2335],[128.997,-8.2305],[128.9925,-8.228],[128.991,-8.2265],[128.9845,-8.2485],[129.003,-8.259],[129.0175,-8.26],[129.019,-8.252],[129.031,-8.242],[129.032,-8.2335]]]},"properties":{"code":"81.08.03.2011","name":"Regoha","latitude":-8.242921983470673,"longitude":129.00814427744677}},{"type":"Feature","geometry":{"type":"Polygon","coordinates":[[[129.6555,-7.87],[129.6455,-7.8525],[129.633,-7.844],[129.6005,-7.86],[129.5985,-7.8595],[129.598,-7.861],[129.599,-7.8625],[129.5985,-7.8625],[129.5965,-7.8605],[129.594,-7.8615],[129.5815,-7.894],[129.584,-7.901],[129.5915,-7.8975],[129.5935,-7.897],[129.594,-7.896],[129.594,-7.895],[129.592,-7.8925],[129.591,-7.8915],[129.592,-7.8895],[129.593,-7.8895],[129.6155,-7.8855],[129.6185,-7.8775],[129.6385,-7.876],[129.652,-7.8795],[129.6555,-7.87]]]},"properties":{"code":"81.08.04.2001","name":"Tepa","latitude":-7.868860811436612,"longitude":129.6197307432625}},{"type":"Feature","geometry":{"type":"Polygon","coordinates":[[[129.7175,-7.896],[129.7135,-7.886],[129.691,-7.8655],[129.676,-7.8675],[129.669,-7.875],[129.6555,-7.87],[129.652,-7.8795],[129.6385,-7.876],[129.6185,-7.8775],[129.6155,-7.8855],[129.593,-7.8895],[129.592,-7.8895],[129.591,-7.8915],[129.592,-7.8925],[129.594,-7.895],[129.594,-7.896],[129.5935,-7.897],[129.5915,-7.8975],[129.584,-7.901],[129.6035,-7.912],[129.6065,-7.93],[129.6135,-7.9315],[129.63,-7.9585],[129.6525,-7.971],[129.659,-7.984],[129.6685,-7.9735],[129.683,-7.968],[129.684,-7.965],[129.6915,-7.9445],[129.694,-7.9415],[129.7005,-7.933],[129.7035,-7.9275],[129.7085,-7.9185],[129.709,-7.9175],[129.71,-7.9155],[129.7125,-7.91],[129.7165,-7.9],[129.7175,-7.896]]]},"properties":{"code":"81.08.04.2002","name":"Imroing","latitude":-7.916511887299528,"longitude":129.65713426579683}},{"type":"Feature","geometry":{"type":"Polygon","coordinates":[[[129.7035,-7.953],[129.6915,-7.9445],[129.684,-7.965],[129.683,-7.968],[129.6685,-7.9735],[129.659,-7.984],[129.6735,-8.0105],[129.6945,-8.027],[129.697,-8.0245],[129.708,-8.0145],[129.707,-7.9955],[129.701,-7.9835],[129.6995,-7.968],[129.7035,-7.953]]]},"properties":{"code":"81.08.04.2003","name":"Tela","latitude":-7.990125985820816,"longitude":129.68774251687236}},{"type":"Feature","geometry":{"type":"Polygon","coordinates":[[[129.773,-7.8125],[129.732,-7.796],[129.695,-7.7915],[129.687,-7.825],[129.7045,-7.8345],[129.7185,-7.853],[129.727,-7.8585],[129.7315,-7.845],[129.746,-7.8285],[129.7515,-7.8225],[129.773,-7.8125]]]},"properties":{"code":"81.08.04.2004","name":"Yaltubung","latitude":-7.818686110866429,"longitude":129.72245336671932}},{"type":"Feature","geometry":{"type":"Polygon","coordinates":[[[129.695,-7.7915],[129.686,-7.787],[129.667,-7.787],[129.648,-7.7925],[129.653,-7.8135],[129.662,-7.8315],[129.671,-7.8395],[129.681,-7.8605],[129.676,-7.8675],[129.691,-7.8655],[129.7135,-7.886],[129.7175,-7.896],[129.7185,-7.8935],[129.719,-7.8925],[129.721,-7.8895],[129.725,-7.883],[129.7295,-7.876],[129.728,-7.8635],[129.727,-7.8585],[129.7185,-7.853],[129.7045,-7.8345],[129.687,-7.825],[129.695,-7.7915]]]},"properties":{"code":"81.08.04.2005","name":"Wanuwui","latitude":-7.83524597837125,"longitude":129.68808506269252}},{"type":"Feature","geometry":{"type":"Polygon","coordinates":[[[129.676,-7.8675],[129.681,-7.8605],[129.671,-7.8395],[129.662,-7.8315],[129.653,-7.8135],[129.648,-7.7925],[129.623,-7.801],[129.6105,-7.8085],[129.591,-7.8325],[129.589,-7.8485],[129.594,-7.8615],[129.5965,-7.8605],[129.5985,-7.8625],[129.599,-7.8625],[129.598,-7.861],[129.5985,-7.8595],[129.6005,-7.86],[129.633,-7.844],[129.6455,-7.8525],[129.6555,-7.87],[129.669,-7.875],[129.676,-7.8675]]]},"properties":{"code":"81.08.04.2006","name":"Letsiara","latitude":-7.834547598953798,"longitude":129.63355761520648}},{"type":"Feature","geometry":{"type":"Polygon","coordinates":[[[129.7045,-7.569],[129.715,-7.5725],[129.724,-7.5585],[129.7175,-7.5485],[129.701,-7.5555],[129.6945,-7.553],[129.7045,-7.569]]]},"properties":{"code":"81.08.04.2015","name":"Lewah","latitude":-7.559397056271247,"longitude":129.7117817326314}},{"type":"Feature","geometry":{"type":"Polygon","coordinates":[[[129.6945,-7.553],[129.688,-7.5465],[129.674,-7.559],[129.6875,-7.566],[129.692,-7.5735],[129.7045,-7.569],[129.6945,-7.553]]]},"properties":{"code":"81.08.04.2016","name":"Hertuti","latitude":-7.56031944123939,"longitude":129.68954716808975}},{"type":"Feature","geometry":{"type":"Polygon","coordinates":[[[129.688,-7.5465],[129.6745,-7.5275],[129.667,-7.528],[129.66,-7.55],[129.674,-7.559],[129.688,-7.5465]]]},"properties":{"code":"81.08.04.2017","name":"Sinairusi","latitude":-7.544258659876736,"longitude":129.67240843227316}},{"type":"Feature","geometry":{"type":"Polygon","coordinates":[[[129.866,-7.913],[129.8645,-7.899],[129.855,-7.903],[129.8205,-7.9035],[129.8175,-7.9035],[129.8045,-7.9005],[129.803,-7.905],[129.8185,-7.9145],[129.8215,-7.915],[129.831,-7.913],[129.854,-7.917],[129.8575,-7.9115],[129.866,-7.913]]]},"properties":{"code":"81.08.05.2001","name":"Letwurung","latitude":-7.9083456609586795,"longitude":129.8368083493002}},{"type":"Feature","geometry":{"type":"Polygon","coordinates":[[[129.844,-7.8535],[129.855,-7.849],[129.842,-7.837],[129.8205,-7.8425],[129.81,-7.8495],[129.777,-7.8635],[129.7885,-7.8805],[129.8045,-7.872],[129.818,-7.871],[129.831,-7.8655],[129.837,-7.854],[129.844,-7.8535]]]},"properties":{"code":"81.08.05.2002","name":"Yatoke","latitude":-7.858072658193874,"longitude":129.81425130946096}},{"type":"Feature","geometry":{"type":"Polygon","coordinates":[[[129.8645,-7.899],[129.846,-7.8895],[129.842,-7.8715],[129.844,-7.8535],[129.837,-7.854],[129.831,-7.8655],[129.818,-7.871],[129.8045,-7.872],[129.7885,-7.8805],[129.777,-7.8635],[129.768,-7.8695],[129.7645,-7.884],[129.7925,-7.898],[129.8045,-7.9005],[129.8175,-7.9035],[129.8205,-7.9035],[129.855,-7.903],[129.8645,-7.899]]]},"properties":{"code":"81.08.05.2003","name":"Kroing","latitude":-7.884443531404828,"longitude":129.81476542856333}},{"type":"Feature","geometry":{"type":"Polygon","coordinates":[[[129.842,-7.837],[129.8185,-7.817],[129.7855,-7.8125],[129.773,-7.8125],[129.7515,-7.8225],[129.746,-7.8285],[129.7315,-7.845],[129.727,-7.8585],[129.728,-7.8635],[129.7295,-7.876],[129.7265,-7.8805],[129.7645,-7.884],[129.768,-7.8695],[129.777,-7.8635],[129.81,-7.8495],[129.8205,-7.8425],[129.842,-7.837]]]},"properties":{"code":"81.08.05.2004","name":"Nakarhamto","latitude":-7.844089319474013,"longitude":129.7749562792921}},{"type":"Feature","geometry":{"type":"Polygon","coordinates":[[[129.791,-8.0435],[129.786,-8.036],[129.766,-8.0285],[129.76,-8.022],[129.726,-8.006],[129.716,-7.959],[129.7035,-7.953],[129.6995,-7.968],[129.701,-7.9835],[129.707,-7.9955],[129.708,-8.0145],[129.697,-8.0245],[129.6945,-8.027],[129.7055,-8.039],[129.7335,-8.051],[129.7535,-8.055],[129.791,-8.0435]]]},"properties":{"code":"81.08.05.2005","name":"Emplawas","latitude":-8.018785762342294,"longitude":129.7320335936184}},{"type":"Feature","geometry":{"type":"Polygon","coordinates":[[[129.7645,-7.884],[129.7265,-7.8805],[129.725,-7.883],[129.721,-7.8895],[129.7185,-7.893],[129.721,-7.895],[129.7235,-7.8985],[129.7255,-7.8995],[129.7315,-7.8965],[129.762,-7.9015],[129.7765,-7.9065],[129.805,-7.9245],[129.8195,-7.9235],[129.8295,-7.929],[129.8415,-7.945],[129.852,-7.9405],[129.866,-7.913],[129.8575,-7.9115],[129.854,-7.917],[129.831,-7.913],[129.8215,-7.915],[129.8185,-7.9145],[129.803,-7.905],[129.8045,-7.9005],[129.7925,-7.898],[129.7645,-7.884]]]},"properties":{"code":"81.08.05.2006","name":"Kokwari","latitude":-7.9083786317470155,"longitude":129.79498521309765}},{"type":"Feature","geometry":{"type":"Polygon","coordinates":[[[129.8325,-7.957],[129.826,-7.951],[129.806,-7.949],[129.8035,-7.949],[129.797,-7.948],[129.795,-7.947],[129.784,-7.93],[129.7565,-7.916],[129.7225,-7.909],[129.715,-7.908],[129.7135,-7.908],[129.7125,-7.91],[129.71,-7.9155],[129.709,-7.917],[129.7465,-7.923],[129.769,-7.9315],[129.781,-7.9415],[129.7835,-7.953],[129.793,-7.96],[129.815,-7.985],[129.8165,-7.986],[129.819,-7.9855],[129.8215,-7.9725],[129.8325,-7.957]]]},"properties":{"code":"81.08.05.2007","name":"Ahanari","latitude":-7.944085030808802,"longitude":129.78312670001668}},{"type":"Feature","geometry":{"type":"Polygon","coordinates":[[[129.8415,-7.945],[129.8295,-7.929],[129.8195,-7.9235],[129.805,-7.9245],[129.7765,-7.9065],[129.762,-7.9015],[129.7315,-7.8965],[129.7255,-7.8995],[129.7235,-7.8985],[129.721,-7.895],[129.7185,-7.893],[129.7185,-7.8935],[129.7165,-7.9],[129.7135,-7.908],[129.715,-7.908],[129.7225,-7.909],[129.7565,-7.916],[129.784,-7.93],[129.795,-7.947],[129.797,-7.948],[129.8035,-7.949],[129.806,-7.949],[129.826,-7.951],[129.8325,-7.957],[129.8415,-7.945]]]},"properties":{"code":"81.08.05.2008","name":"Wakpapapi","latitude":-7.92459493497917,"longitude":129.78588787134152}},{"type":"Feature","geometry":{"type":"Polygon","coordinates":[[[129.819,-7.9855],[129.8165,-7.986],[129.815,-7.985],[129.793,-7.96],[129.7835,-7.953],[129.781,-7.9415],[129.769,-7.9315],[129.7465,-7.923],[129.709,-7.917],[129.709,-7.9175],[129.7085,-7.9185],[129.704,-7.927],[129.7285,-7.9285],[129.747,-7.934],[129.7525,-7.9385],[129.7635,-7.9415],[129.7835,-7.9615],[129.7905,-7.974],[129.8155,-7.993],[129.819,-7.9855]]]},"properties":{"code":"81.08.05.2009","name":"Analutur","latitude":-7.94477618432473,"longitude":129.76362144743612}},{"type":"Feature","geometry":{"type":"Polygon","coordinates":[[[129.8155,-7.993],[129.7905,-7.974],[129.7835,-7.9615],[129.7635,-7.9415],[129.7525,-7.9385],[129.747,-7.934],[129.7285,-7.9285],[129.704,-7.927],[129.7035,-7.9275],[129.7005,-7.933],[129.699,-7.9345],[129.735,-7.942],[129.737,-7.942],[129.743,-7.9445],[129.75,-7.9505],[129.7665,-7.9615],[129.7695,-7.9635],[129.7735,-7.9695],[129.7775,-7.9775],[129.7835,-7.988],[129.7875,-7.9905],[129.8035,-7.991],[129.808,-8.0005],[129.8155,-7.993]]]},"properties":{"code":"81.08.05.2010","name":"Manuweri","latitude":-7.957227434252085,"longitude":129.76251224796175}},{"type":"Feature","geometry":{"type":"Polygon","coordinates":[[[129.808,-8.0005],[129.8035,-7.991],[129.7875,-7.9905],[129.7835,-7.988],[129.7775,-7.9775],[129.7735,-7.9695],[129.7695,-7.9635],[129.7665,-7.9615],[129.75,-7.9505],[129.743,-7.9445],[129.737,-7.942],[129.735,-7.942],[129.699,-7.9345],[129.694,-7.9415],[129.6915,-7.9445],[129.7035,-7.953],[129.716,-7.959],[129.726,-8.006],[129.76,-8.022],[129.766,-8.0285],[129.786,-8.036],[129.791,-8.0435],[129.808,-8.0005]]]},"properties":{"code":"81.08.05.2011","name":"Tutuwawang","latitude":-7.9863556648323835,"longitude":129.7542694676171}},{"type":"Feature","geometry":{"type":"Polygon","coordinates":[[[126.376,-7.7345],[126.375,-7.735],[126.367,-7.734],[126.339,-7.7415],[126.3345,-7.7405],[126.331,-7.7425],[126.319,-7.7555],[126.3105,-7.76],[126.304,-7.7605],[126.3005,-7.7635],[126.296,-7.765],[126.293,-7.7645],[126.293,-7.7655],[126.292,-7.767],[126.2925,-7.769],[126.29,-7.7695],[126.289,-7.771],[126.2915,-7.7815],[126.3105,-7.7955],[126.3095,-7.801],[126.3105,-7.8035],[126.3095,-7.8075],[126.3125,-7.8115],[126.3175,-7.8225],[126.3415,-7.836],[126.3405,-7.843],[126.3585,-7.8835],[126.3605,-7.903],[126.3555,-7.925],[126.367,-7.934],[126.388,-7.9365],[126.404,-7.9285],[126.4235,-7.932],[126.464,-7.9745],[126.4745,-7.971],[126.49,-7.9475],[126.5035,-7.9185],[126.4985,-7.907],[126.4835,-7.906],[126.4805,-7.899],[126.4785,-7.8965],[126.4765,-7.895],[126.4645,-7.887],[126.468,-7.877],[126.49,-7.8655],[126.494,-7.853],[126.4915,-7.8455],[126.4915,-7.8435],[126.4805,-7.841],[126.4785,-7.8395],[126.4695,-7.826],[126.4375,-7.82],[126.4135,-7.7955],[126.4105,-7.7775],[126.3945,-7.776],[126.3905,-7.7555],[126.381,-7.7485],[126.376,-7.7345]]]},"properties":{"code":"81.08.06.2001","name":"Ilwaki","latitude":-7.851098507328111,"longitude":126.40092024871402}},{"type":"Feature","geometry":{"type":"Polygon","coordinates":[[[126.515,-7.756],[126.5105,-7.756],[126.5095,-7.756],[126.503,-7.7515],[126.485,-7.7505],[126.4835,-7.75],[126.4845,-7.752],[126.484,-7.753],[126.4785,-7.7675],[126.477,-7.769],[126.477,-7.77],[126.4775,-7.771],[126.4775,-7.774],[126.4775,-7.7755],[126.475,-7.7765],[126.4755,-7.7785],[126.474,-7.781],[126.4705,-7.783],[126.4675,-7.7835],[126.464,-7.783],[126.463,-7.782],[126.459,-7.776],[126.4565,-7.7755],[126.456,-7.773],[126.4565,-7.77],[126.4575,-7.761],[126.452,-7.741],[126.455,-7.7345],[126.4445,-7.7255],[126.443,-7.7125],[126.441,-7.714],[126.428,-7.716],[126.4095,-7.725],[126.399,-7.722],[126.397,-7.7215],[126.395,-7.7225],[126.3925,-7.723],[126.3765,-7.7335],[126.376,-7.7345],[126.381,-7.7485],[126.3905,-7.7555],[126.3945,-7.776],[126.4105,-7.7775],[126.4135,-7.7955],[126.4375,-7.82],[126.4695,-7.826],[126.4785,-7.8395],[126.4805,-7.841],[126.4915,-7.8435],[126.4915,-7.8455],[126.494,-7.853],[126.49,-7.8655],[126.468,-7.877],[126.4645,-7.887],[126.4765,-7.895],[126.4785,-7.8965],[126.4805,-7.899],[126.4835,-7.906],[126.4985,-7.907],[126.514,-7.885],[126.5215,-7.858],[126.537,-7.8515],[126.549,-7.8235],[126.563,-7.8135],[126.564,-7.8015],[126.5475,-7.7865],[126.5335,-7.76],[126.5165,-7.759],[126.515,-7.757],[126.515,-7.756]]]},"properties":{"code":"81.08.06.2002","name":"Ilputih","latitude":-7.7982931643211195,"longitude":126.47651561206645}},{"type":"Feature","geometry":{"type":"Polygon","coordinates":[[[126.5815,-7.734],[126.5675,-7.739],[126.5665,-7.7405],[126.5655,-7.7405],[126.564,-7.74],[126.5625,-7.74],[126.5565,-7.745],[126.553,-7.745],[126.542,-7.742],[126.515,-7.7555],[126.515,-7.757],[126.5165,-7.759],[126.5335,-7.76],[126.5475,-7.7865],[126.564,-7.8015],[126.563,-7.8135],[126.578,-7.813],[126.585,-7.8055],[126.5955,-7.805],[126.5985,-7.797],[126.5975,-7.796],[126.596,-7.7925],[126.592,-7.791],[126.5915,-7.7895],[126.5895,-7.787],[126.5895,-7.7835],[126.5905,-7.7835],[126.5905,-7.781],[126.594,-7.7495],[126.5835,-7.7365],[126.5815,-7.735],[126.5815,-7.734]]]},"properties":{"code":"81.08.06.2003","name":"Mahuan","latitude":-7.769869780746129,"longitude":126.56618046292492}},{"type":"Feature","geometry":{"type":"Polygon","coordinates":[[[126.6795,-7.712],[126.6675,-7.7035],[126.6245,-7.7],[126.622,-7.703],[126.6165,-7.7345],[126.6165,-7.737],[126.6165,-7.7375],[126.616,-7.739],[126.615,-7.739],[126.6135,-7.739],[126.6125,-7.7375],[126.606,-7.7345],[126.605,-7.7355],[126.603,-7.736],[126.601,-7.734],[126.6,-7.732],[126.599,-7.73],[126.599,-7.7295],[126.5845,-7.721],[126.5825,-7.721],[126.5815,-7.7285],[126.5815,-7.735],[126.5835,-7.7365],[126.594,-7.7495],[126.5905,-7.781],[126.5905,-7.7835],[126.5895,-7.7835],[126.5895,-7.787],[126.5915,-7.7895],[126.592,-7.791],[126.596,-7.7925],[126.5975,-7.796],[126.5985,-7.797],[126.6155,-7.7905],[126.622,-7.783],[126.6495,-7.775],[126.659,-7.778],[126.6745,-7.763],[126.6805,-7.7625],[126.696,-7.7505],[126.706,-7.751],[126.6945,-7.731],[126.6935,-7.731],[126.69,-7.7315],[126.69,-7.7275],[126.6915,-7.727],[126.6915,-7.7255],[126.685,-7.7175],[126.6825,-7.7145],[126.6795,-7.712]]]},"properties":{"code":"81.08.06.2004","name":"Masapun","latitude":-7.745209985722881,"longitude":126.6398770524197}},{"type":"Feature","geometry":{"type":"Polygon","coordinates":[[[126.049,-7.7295],[126.0395,-7.7275],[126.0145,-7.731],[125.999,-7.742],[125.994,-7.743],[125.986,-7.7405],[125.9865,-7.742],[125.968,-7.7685],[125.9485,-7.7845],[125.9475,-7.795],[125.947,-7.814],[125.9685,-7.8245],[125.985,-7.8445],[125.986,-7.858],[125.986,-7.8605],[125.9905,-7.8695],[125.9915,-7.8725],[125.992,-7.874],[125.993,-7.876],[125.9935,-7.8765],[125.9985,-7.879],[126,-7.8805],[126.0095,-7.901],[126.01,-7.9025],[126.03,-7.8955],[126.0715,-7.8875],[126.088,-7.8885],[126.105,-7.8945],[126.1275,-7.8905],[126.15,-7.8995],[126.1655,-7.912],[126.171,-7.923],[126.2215,-7.928],[126.222,-7.917],[126.232,-7.9055],[126.237,-7.889],[126.242,-7.887],[126.245,-7.8605],[126.2425,-7.8465],[126.2285,-7.834],[126.236,-7.8225],[126.2275,-7.8045],[126.231,-7.8015],[126.23,-7.8],[126.2285,-7.7985],[126.2245,-7.7985],[126.204,-7.7955],[126.1835,-7.7975],[126.1795,-7.7935],[126.145,-7.7865],[126.1155,-7.776],[126.1145,-7.7755],[126.1045,-7.771],[126.102,-7.77],[126.098,-7.7665],[126.0745,-7.7465],[126.0725,-7.746],[126.068,-7.743],[126.0645,-7.7405],[126.0615,-7.737],[126.049,-7.7295]]]},"properties":{"code":"81.08.06.2021","name":"Arnau","latitude":-7.830267044058718,"longitude":126.09634838897071}},{"type":"Feature","geometry":{"type":"Polygon","coordinates":[[[126.289,-7.771],[126.2695,-7.7805],[126.268,-7.7795],[126.2665,-7.7805],[126.2655,-7.785],[126.2615,-7.7865],[126.2455,-7.7845],[126.2425,-7.785],[126.23,-7.799],[126.2285,-7.7985],[126.23,-7.8],[126.231,-7.8015],[126.2275,-7.8045],[126.236,-7.8225],[126.2285,-7.834],[126.2425,-7.8465],[126.245,-7.8605],[126.242,-7.887],[126.237,-7.889],[126.232,-7.9055],[126.222,-7.917],[126.2215,-7.928],[126.2485,-7.9205],[126.285,-7.917],[126.2915,-7.922],[126.31,-7.916],[126.333,-7.915],[126.3555,-7.925],[126.3605,-7.903],[126.3585,-7.8835],[126.3405,-7.843],[126.3415,-7.836],[126.3175,-7.8225],[126.3125,-7.8115],[126.3095,-7.8075],[126.3105,-7.8035],[126.3095,-7.801],[126.3105,-7.7955],[126.2915,-7.7815],[126.289,-7.771]]]},"properties":{"code":"81.08.06.2023","name":"Hiay","latitude":-7.859014765782461,"longitude":126.2884744084317}},{"type":"Feature","geometry":{"type":"Polygon","coordinates":[[[127.214,-8.0555],[127.215,-8.034],[127.208,-8.034],[127.207,-8.0345],[127.2025,-8.039],[127.198,-8.04],[127.197,-8.0405],[127.1865,-8.042],[127.1845,-8.0415],[127.181,-8.04],[127.1725,-8.0395],[127.1705,-8.0405],[127.159,-8.041],[127.156,-8.0425],[127.1535,-8.042],[127.139,-8.052],[127.149,-8.0835],[127.146,-8.1005],[127.1615,-8.0885],[127.1645,-8.083],[127.165,-8.0825],[127.1715,-8.073],[127.188,-8.0705],[127.187,-8.0815],[127.1885,-8.081],[127.1905,-8.081],[127.1935,-8.08],[127.195,-8.072],[127.196,-8.07],[127.197,-8.0695],[127.1975,-8.069],[127.1925,-8.0695],[127.19,-8.07],[127.1975,-8.058],[127.21,-8.057],[127.214,-8.0555]],[[127.165,-8.0585],[127.169,-8.066],[127.162,-8.0745],[127.16,-8.0635],[127.165,-8.0585]]]},"properties":{"code":"81.08.07.2001","name":"Wonreli","latitude":-8.059397359238451,"longitude":127.17326553914985}},{"type":"Feature","geometry":{"type":"MultiPolygon","coordinates":[[[[127.166,-8.087],[127.163,-8.086],[127.1615,-8.0885],[127.146,-8.1005],[127.1615,-8.1055],[127.1805,-8.106],[127.1825,-8.1055],[127.1835,-8.1055],[127.186,-8.093],[127.185,-8.091],[127.1755,-8.0925],[127.172,-8.092],[127.168,-8.09],[127.169,-8.088],[127.166,-8.087]]],[[[127.21,-8.057],[127.1975,-8.058],[127.19,-8.07],[127.192,-8.0695],[127.1935,-8.0695],[127.1975,-8.069],[127.199,-8.0695],[127.214,-8.0665],[127.214,-8.0555],[127.21,-8.057]]],[[[127.1465,-8.0325],[127.1445,-8.031],[127.1375,-8.035],[127.139,-8.052],[127.1535,-8.042],[127.153,-8.0405],[127.1465,-8.0335],[127.1465,-8.0325]]]]},"properties":{"code":"81.08.07.2002","name":"Lekloor","latitude":-8.076210697928333,"longitude":127.17230051206876}},{"type":"Feature","geometry":{"type":"Polygon","coordinates":[[[127.165,-8.0585],[127.16,-8.0635],[127.162,-8.0745],[127.169,-8.066],[127.165,-8.0585]]]},"properties":{"code":"81.08.07.2003","name":"Kota Lama","latitude":-8.065983973508393,"longitude":127.1629480016782}},{"type":"Feature","geometry":{"type":"Polygon","coordinates":[[[127.187,-8.0815],[127.188,-8.0705],[127.1715,-8.073],[127.165,-8.0825],[127.1645,-8.083],[127.163,-8.086],[127.166,-8.087],[127.169,-8.088],[127.168,-8.09],[127.172,-8.092],[127.1755,-8.0925],[127.185,-8.091],[127.1845,-8.09],[127.1845,-8.088],[127.186,-8.0815],[127.187,-8.0815]]]},"properties":{"code":"81.08.07.2004","name":"Abusur","latitude":-8.081709710741306,"longitude":127.17698977187314}},{"type":"Feature","geometry":{"type":"Polygon","coordinates":[[[127.214,-8.0665],[127.199,-8.0695],[127.1975,-8.069],[127.197,-8.0695],[127.196,-8.07],[127.195,-8.072],[127.1935,-8.08],[127.1905,-8.081],[127.1885,-8.081],[127.186,-8.0815],[127.1845,-8.088],[127.185,-8.089],[127.198,-8.0915],[127.211,-8.1055],[127.2295,-8.1045],[127.233,-8.0915],[127.2185,-8.0815],[127.214,-8.0665]]]},"properties":{"code":"81.08.07.2005","name":"Oirata Timur","latitude":-8.086862831926087,"longitude":127.20994122839852}},{"type":"Feature","geometry":{"type":"Polygon","coordinates":[[[127.211,-8.1055],[127.198,-8.0915],[127.185,-8.089],[127.1845,-8.09],[127.186,-8.093],[127.1835,-8.1055],[127.1825,-8.1055],[127.1805,-8.106],[127.211,-8.1055]]]},"properties":{"code":"81.08.07.2006","name":"Oirata Barat","latitude":-8.099826869651768,"longitude":127.19635105058724}},{"type":"Feature","geometry":{"type":"Polygon","coordinates":[[[127.747,-8.209],[127.7545,-8.1905],[127.746,-8.1765],[127.7335,-8.1725],[127.731,-8.18],[127.7355,-8.198],[127.747,-8.209]]]},"properties":{"code":"81.08.08.2001","name":"Laitutun","latitude":-8.190583876090411,"longitude":127.74333135438019}},{"type":"Feature","geometry":{"type":"Polygon","coordinates":[[[127.7225,-8.166],[127.701,-8.1575],[127.697,-8.1665],[127.704,-8.186],[127.712,-8.192],[127.723,-8.185],[127.7225,-8.166]]]},"properties":{"code":"81.08.08.2002","name":"Batumiau","latitude":-8.175392483003266,"longitude":127.7110471875614}},{"type":"Feature","geometry":{"type":"Polygon","coordinates":[[[127.701,-8.1575],[127.69,-8.1545],[127.6705,-8.1605],[127.682,-8.193],[127.7025,-8.1925],[127.712,-8.192],[127.704,-8.186],[127.697,-8.1665],[127.701,-8.1575]]]},"properties":{"code":"81.08.08.2003","name":"Tutukey","latitude":-8.174597846282401,"longitude":127.6885707846521}},{"type":"Feature","geometry":{"type":"Polygon","coordinates":[[[127.682,-8.193],[127.6705,-8.1605],[127.662,-8.1695],[127.649,-8.1735],[127.6555,-8.1915],[127.6545,-8.21],[127.6745,-8.208],[127.6765,-8.23],[127.6885,-8.2235],[127.6835,-8.2185],[127.682,-8.193]]]},"properties":{"code":"81.08.08.2004","name":"Tomra","latitude":-8.19329116989853,"longitude":127.66874143863727}},{"type":"Feature","geometry":{"type":"Polygon","coordinates":[[[127.6545,-8.21],[127.6555,-8.1915],[127.649,-8.1735],[127.63,-8.195],[127.605,-8.207],[127.602,-8.217],[127.63,-8.2245],[127.633,-8.2375],[127.6435,-8.2385],[127.6545,-8.21]]]},"properties":{"code":"81.08.08.2005","name":"Nuwewang","latitude":-8.208673002883879,"longitude":127.63493701644485}},{"type":"Feature","geometry":{"type":"Polygon","coordinates":[[[127.6545,-8.21],[127.6435,-8.2385],[127.645,-8.238],[127.6475,-8.2365],[127.649,-8.236],[127.6595,-8.238],[127.6765,-8.23],[127.6745,-8.208],[127.6545,-8.21]]]},"properties":{"code":"81.08.08.2006","name":"Tutuwaru","latitude":-8.223157999480028,"longitude":127.66179037739369}},{"type":"Feature","geometry":{"type":"Polygon","coordinates":[[[127.7335,-8.1725],[127.7225,-8.166],[127.723,-8.185],[127.712,-8.192],[127.7025,-8.1925],[127.682,-8.193],[127.6835,-8.2185],[127.6885,-8.2235],[127.7005,-8.221],[127.7175,-8.212],[127.7285,-8.218],[127.747,-8.209],[127.7355,-8.198],[127.731,-8.18],[127.7335,-8.1725]]]},"properties":{"code":"81.08.08.2007","name":"Luhuely","latitude":-8.20193430305477,"longitude":127.71233497852664}},{"type":"Feature","geometry":{"type":"Polygon","coordinates":[[[129.8925,-8.13],[129.8865,-8.1185],[129.8765,-8.1205],[129.858,-8.1325],[129.851,-8.1405],[129.8635,-8.1475],[129.8735,-8.137],[129.8925,-8.13]]]},"properties":{"code":"81.08.09.2001","name":"Latalola Besar","latitude":-8.132256950697004,"longitude":129.8718736600288}},{"type":"Feature","geometry":{"type":"Polygon","coordinates":[[[129.9035,-8.136],[129.9145,-8.1315],[129.9255,-8.105],[129.924,-8.092],[129.9125,-8.0965],[129.897,-8.1155],[129.8865,-8.1185],[129.8925,-8.13],[129.9035,-8.136]]]},"properties":{"code":"81.08.09.2002","name":"Serili","latitude":-8.114953830488806,"longitude":129.90937906654665}},{"type":"Feature","geometry":{"type":"Polygon","coordinates":[[[129.9035,-8.136],[129.8925,-8.13],[129.8735,-8.137],[129.8845,-8.1445],[129.9035,-8.136]]]},"properties":{"code":"81.08.09.2003","name":"Latalola Kecil","latitude":-8.136864643865103,"longitude":129.88784797242553}},{"type":"Feature","geometry":{"type":"Polygon","coordinates":[[[129.839,-8.207],[129.845,-8.192],[129.841,-8.1985],[129.8395,-8.201],[129.839,-8.207]]]},"properties":{"code":"81.08.09.2004","name":"Telalora","latitude":-8.197110634275923,"longitude":129.84526824277486}},{"type":"Feature","geometry":{"type":"Polygon","coordinates":[[[129.872,-8.1595],[129.871,-8.1575],[129.871,-8.1555],[129.871,-8.154],[129.8635,-8.1475],[129.8595,-8.1525],[129.8585,-8.1535],[129.8715,-8.161],[129.872,-8.1595]]]},"properties":{"code":"81.08.09.2005","name":"Marsela","latitude":-8.154156028318045,"longitude":129.86574541786948}},{"type":"Feature","geometry":{"type":"Polygon","coordinates":[[[129.862,-8.178],[129.8475,-8.169],[129.8415,-8.1785],[129.8395,-8.182],[129.8335,-8.194],[129.8325,-8.196],[129.84,-8.2005],[129.841,-8.1985],[129.845,-8.192],[129.855,-8.1915],[129.862,-8.178]]]},"properties":{"code":"81.08.09.2006","name":"Babiotang","latitude":-8.184449341868214,"longitude":129.84692235007105}},{"type":"Feature","geometry":{"type":"Polygon","coordinates":[[[129.84,-8.2005],[129.8325,-8.196],[129.825,-8.1915],[129.8125,-8.2045],[129.8145,-8.211],[129.8275,-8.2135],[129.839,-8.207],[129.8395,-8.201],[129.84,-8.2005]]]},"properties":{"code":"81.08.09.2007","name":"Iblatmuntah","latitude":-8.203342378602752,"longitude":129.8260805360736}},{"type":"Feature","geometry":{"type":"Polygon","coordinates":[[[129.8715,-8.161],[129.8585,-8.1535],[129.8545,-8.1595],[129.8515,-8.1625],[129.8475,-8.169],[129.862,-8.178],[129.8715,-8.161]]]},"properties":{"code":"81.08.09.2008","name":"Ilbutung","latitude":-8.165496404288639,"longitude":129.85933535624358}},{"type":"Feature","geometry":{"type":"Polygon","coordinates":[[[129.846,-8.171],[129.836,-8.166],[129.825,-8.1915],[129.8325,-8.196],[129.8335,-8.194],[129.8395,-8.182],[129.8415,-8.1785],[129.846,-8.171]]]},"properties":{"code":"81.08.09.2009","name":"Lawawang","latitude":-8.180606288663107,"longitude":129.83552576713276}},{"type":"Feature","geometry":{"type":"Polygon","coordinates":[[[129.8635,-8.1475],[129.851,-8.1405],[129.836,-8.166],[129.846,-8.171],[129.8515,-8.1625],[129.8545,-8.1595],[129.8595,-8.1525],[129.8635,-8.1475]]]},"properties":{"code":"81.08.09.2010","name":"Nura","latitude":-8.155285370447528,"longitude":129.84854155167866}},{"type":"Feature","geometry":{"type":"Polygon","coordinates":[[[129.8845,-8.1445],[129.8735,-8.137],[129.8635,-8.1475],[129.871,-8.154],[129.871,-8.1555],[129.871,-8.1575],[129.872,-8.1595],[129.8845,-8.1445]]]},"properties":{"code":"81.08.09.2011","name":"Bululora","latitude":-8.146864663463717,"longitude":129.87355142985982}},{"type":"Feature","geometry":{"type":"Polygon","coordinates":[[[130.065,-7.754],[130.0515,-7.7575],[130.0395,-7.754],[130.0385,-7.771],[130.0525,-7.766],[130.063,-7.7715],[130.0665,-7.7645],[130.067,-7.7625],[130.067,-7.761],[130.065,-7.754]]]},"properties":{"code":"81.08.10.2001","name":"Watuwei","latitude":-7.762512916836449,"longitude":130.0496219673051}},{"type":"Feature","geometry":{"type":"Polygon","coordinates":[[[130.013,-7.744],[130.0065,-7.722],[130.002,-7.7225],[129.995,-7.723],[130.002,-7.731],[130,-7.742],[130.013,-7.744]]]},"properties":{"code":"81.08.10.2002","name":"Ilmarang","latitude":-7.73184716754912,"longitude":130.00353330654033}},{"type":"Feature","geometry":{"type":"Polygon","coordinates":[[[130.013,-7.744],[130.026,-7.7425],[130.015,-7.7205],[130.0095,-7.722],[130.0065,-7.722],[130.013,-7.744]]]},"properties":{"code":"81.08.10.2003","name":"Letmasa","latitude":-7.7335731262773715,"longitude":130.0160449602642}},{"type":"Feature","geometry":{"type":"Polygon","coordinates":[[[130.015,-7.7205],[130.0115,-7.7065],[129.9975,-7.6975],[129.988,-7.7145],[129.995,-7.723],[130.002,-7.7225],[130.0095,-7.722],[130.015,-7.7205]]]},"properties":{"code":"81.08.10.2004","name":"Welora","latitude":-7.711692274713159,"longitude":130.00116730313778}},{"type":"Feature","geometry":{"type":"Polygon","coordinates":[[[130.091,-7.776],[130.0925,-7.762],[130.065,-7.754],[130.067,-7.761],[130.067,-7.7625],[130.0665,-7.7645],[130.0685,-7.7675],[130.07,-7.769],[130.0725,-7.77],[130.091,-7.776]]]},"properties":{"code":"81.08.10.2005","name":"Wiratan","latitude":-7.76440558665457,"longitude":130.07946037729286}},{"type":"Feature","geometry":{"type":"Polygon","coordinates":[[[130.091,-7.776],[130.0725,-7.77],[130.07,-7.769],[130.0685,-7.7675],[130.0665,-7.7645],[130.063,-7.7715],[130.0805,-7.7895],[130.091,-7.776]]]},"properties":{"code":"81.08.10.2006","name":"Nurnyaman","latitude":-7.777699410482538,"longitude":130.07745100151888}},{"type":"Feature","geometry":{"type":"Polygon","coordinates":[[[129.5645,-7.894],[129.551,-7.8885],[129.553,-7.8735],[129.547,-7.8635],[129.533,-7.859],[129.5295,-7.862],[129.538,-7.8715],[129.5415,-7.9005],[129.552,-7.9],[129.5605,-7.8975],[129.5645,-7.894]]]},"properties":{"code":"81.08.11.2001","name":"Herley","latitude":-7.881396599978319,"longitude":129.54547033432124}},{"type":"Feature","geometry":{"type":"Polygon","coordinates":[[[129.56,-7.9305],[129.564,-7.9155],[129.5705,-7.909],[129.5645,-7.894],[129.5605,-7.8975],[129.552,-7.9],[129.541,-7.903],[129.5395,-7.9245],[129.56,-7.9305]]]},"properties":{"code":"81.08.11.2002","name":"Upuhupun","latitude":-7.912860215714379,"longitude":129.55381158231393}},{"type":"Feature","geometry":{"type":"Polygon","coordinates":[[[129.56,-7.9305],[129.5395,-7.9245],[129.5425,-7.949],[129.56,-7.9305]]]},"properties":{"code":"81.08.11.2003","name":"Pota Besar","latitude":-7.93545437830325,"longitude":129.5473801631179}},{"type":"Feature","geometry":{"type":"Polygon","coordinates":[[[129.5395,-7.9245],[129.515,-7.9255],[129.5245,-7.943],[129.5425,-7.949],[129.5395,-7.9245]]]},"properties":{"code":"81.08.11.2004","name":"Pota Kecil","latitude":-7.935757348731209,"longitude":129.530703045346}},{"type":"Feature","geometry":{"type":"Polygon","coordinates":[[[129.5415,-7.9005],[129.521,-7.901],[129.515,-7.9255],[129.5395,-7.9245],[129.541,-7.903],[129.5415,-7.9005]]]},"properties":{"code":"81.08.11.2005","name":"Wasarili","latitude":-7.9128948521014095,"longitude":129.5288839782402}},{"type":"Feature","geometry":{"type":"Polygon","coordinates":[[[129.538,-7.8715],[129.5295,-7.862],[129.525,-7.8645],[129.524,-7.875],[129.538,-7.8715]]]},"properties":{"code":"81.08.11.2006","name":"Rumahlewang Kecil","latitude":-7.869137966183642,"longitude":129.52999597449218}},{"type":"Feature","geometry":{"type":"Polygon","coordinates":[[[129.5415,-7.9005],[129.538,-7.8715],[129.524,-7.875],[129.5175,-7.8815],[129.521,-7.901],[129.5415,-7.9005]]]},"properties":{"code":"81.08.11.2007","name":"Rumahlewang Besar","latitude":-7.887386099259349,"longitude":129.52985141430483}},{"type":"Feature","geometry":{"type":"Polygon","coordinates":[[[129.533,-7.859],[129.527,-7.8465],[129.515,-7.843],[129.5115,-7.851],[129.525,-7.8645],[129.5295,-7.862],[129.533,-7.859]]]},"properties":{"code":"81.08.11.2008","name":"Nusiata","latitude":-7.853032829004535,"longitude":129.52174775389975}},{"type":"Feature","geometry":{"type":"Polygon","coordinates":[[[128.185,-8.2415],[128.159,-8.2345],[128.1585,-8.24],[128.1545,-8.2465],[128.153,-8.251],[128.1515,-8.2635],[128.1505,-8.267],[128.148,-8.2705],[128.146,-8.2765],[128.1515,-8.278],[128.184,-8.278],[128.1845,-8.244],[128.185,-8.2415]]]},"properties":{"code":"81.08.12.2001","name":"Ketty","latitude":-8.259117263350301,"longitude":128.1676573354197}},{"type":"Feature","geometry":{"type":"Polygon","coordinates":[[[128.1585,-8.213],[128.124,-8.216],[128.092,-8.2065],[128.0935,-8.2235],[128.0815,-8.244],[128.0795,-8.2575],[128.0935,-8.2655],[128.1245,-8.2735],[128.146,-8.2765],[128.148,-8.2705],[128.1505,-8.267],[128.1515,-8.2635],[128.153,-8.251],[128.1545,-8.2465],[128.1585,-8.24],[128.159,-8.233],[128.1585,-8.213]]]},"properties":{"code":"81.08.12.2002","name":"Letoda","latitude":-8.241720883674963,"longitude":128.12133723406274}},{"type":"Feature","geometry":{"type":"Polygon","coordinates":[[[128.2,-8.202],[128.1865,-8.2025],[128.1585,-8.213],[128.159,-8.233],[128.159,-8.2345],[128.185,-8.2415],[128.187,-8.2385],[128.188,-8.235],[128.19,-8.2315],[128.1905,-8.228],[128.193,-8.222],[128.1935,-8.2195],[128.196,-8.211],[128.2,-8.202]]]},"properties":{"code":"81.08.12.2003","name":"Sera","latitude":-8.221245556558067,"longitude":128.17825100264687}},{"type":"Feature","geometry":{"type":"Polygon","coordinates":[[[128.228,-8.2445],[128.223,-8.2265],[128.2245,-8.217],[128.2125,-8.2055],[128.2,-8.202],[128.196,-8.211],[128.1935,-8.2195],[128.193,-8.222],[128.1905,-8.228],[128.19,-8.2315],[128.188,-8.236],[128.193,-8.2385],[128.201,-8.2405],[128.228,-8.2445]]]},"properties":{"code":"81.08.12.2004","name":"Yamluli","latitude":-8.224859704557998,"longitude":128.20863057223832}},{"type":"Feature","geometry":{"type":"Polygon","coordinates":[[[128.228,-8.2445],[128.201,-8.2405],[128.193,-8.2385],[128.188,-8.236],[128.187,-8.2385],[128.1845,-8.244],[128.184,-8.278],[128.1985,-8.279],[128.2325,-8.273],[128.228,-8.2445]]]},"properties":{"code":"81.08.12.2005","name":"Lolotuara","latitude":-8.259373019863704,"longitude":128.20601043334932}},{"type":"Feature","geometry":{"type":"MultiPolygon","coordinates":[[[[125.9265,-7.66],[125.908,-7.6705],[125.918,-7.6785],[125.932,-7.67],[125.9265,-7.66]]],[[[125.996,-7.6775],[125.9845,-7.657],[125.972,-7.6535],[125.9625,-7.6615],[125.9475,-7.662],[125.934,-7.6795],[125.9305,-7.7],[125.943,-7.7075],[125.944,-7.725],[125.952,-7.733],[125.951,-7.747],[125.968,-7.7685],[125.9865,-7.742],[125.985,-7.739],[125.987,-7.7375],[125.9925,-7.7265],[125.9935,-7.704],[125.991,-7.6995],[125.996,-7.6775]]]]},"properties":{"code":"81.08.13.2001","name":"Nabar","latitude":-7.7023872477800355,"longitude":125.96389331232623}},{"type":"Feature","geometry":{"type":"Polygon","coordinates":[[[126.0645,-7.7035],[126.0615,-7.6985],[126.045,-7.6925],[126.0345,-7.698],[126.0235,-7.692],[126.0135,-7.6735],[126.006,-7.6805],[125.996,-7.6775],[125.991,-7.6995],[125.9935,-7.704],[125.9925,-7.7265],[125.987,-7.7375],[125.986,-7.7405],[125.994,-7.743],[125.999,-7.742],[126.0145,-7.731],[126.0395,-7.7275],[126.049,-7.7295],[126.0495,-7.719],[126.0645,-7.7035]]]},"properties":{"code":"81.08.13.2002","name":"Elsulith","latitude":-7.709508345887897,"longitude":126.01966641744295}},{"type":"Feature","geometry":{"type":"Polygon","coordinates":[[[126.1345,-7.7205],[126.118,-7.7125],[126.108,-7.7115],[126.0875,-7.703],[126.0795,-7.708],[126.0645,-7.7035],[126.0495,-7.719],[126.049,-7.7295],[126.0615,-7.737],[126.0645,-7.7405],[126.068,-7.743],[126.0725,-7.746],[126.0745,-7.7465],[126.098,-7.7665],[126.102,-7.77],[126.1025,-7.77],[126.0995,-7.7555],[126.113,-7.745],[126.1345,-7.7205]]]},"properties":{"code":"81.08.13.2003","name":"Naumatang","latitude":-7.728758863919842,"longitude":126.08958787321203}},{"type":"Feature","geometry":{"type":"Polygon","coordinates":[[[126.285,-7.695],[126.2735,-7.689],[126.254,-7.6915],[126.25,-7.687],[126.234,-7.689],[126.214,-7.707],[126.197,-7.7145],[126.1845,-7.7275],[126.1725,-7.727],[126.155,-7.721],[126.146,-7.725],[126.1345,-7.7205],[126.113,-7.745],[126.0995,-7.7555],[126.1025,-7.77],[126.1045,-7.771],[126.1145,-7.7755],[126.1155,-7.776],[126.145,-7.7865],[126.1795,-7.7935],[126.1835,-7.7975],[126.204,-7.7955],[126.2245,-7.7985],[126.23,-7.799],[126.2425,-7.785],[126.2455,-7.7845],[126.2615,-7.7865],[126.2655,-7.785],[126.2665,-7.7805],[126.268,-7.7795],[126.2695,-7.7805],[126.289,-7.771],[126.29,-7.7695],[126.2925,-7.769],[126.292,-7.767],[126.293,-7.7655],[126.293,-7.7645],[126.294,-7.7635],[126.298,-7.7525],[126.2965,-7.7465],[126.292,-7.7305],[126.283,-7.7185],[126.285,-7.695]]]},"properties":{"code":"81.08.13.2004","name":"Lurang","latitude":-7.7483135921270465,"longitude":126.20970729099038}},{"type":"Feature","geometry":{"type":"Polygon","coordinates":[[[126.6315,-7.5835],[126.638,-7.571],[126.6325,-7.5585],[126.6175,-7.5575],[126.5885,-7.571],[126.5715,-7.575],[126.567,-7.5715],[126.5505,-7.5755],[126.5365,-7.572],[126.519,-7.5835],[126.4995,-7.589],[126.474,-7.5885],[126.466,-7.593],[126.453,-7.6195],[126.4385,-7.632],[126.4255,-7.631],[126.4065,-7.624],[126.3985,-7.6365],[126.3855,-7.639],[126.369,-7.6645],[126.36,-7.6725],[126.346,-7.675],[126.333,-7.683],[126.3235,-7.695],[126.2935,-7.6925],[126.285,-7.695],[126.283,-7.7185],[126.292,-7.7305],[126.2965,-7.7465],[126.298,-7.7525],[126.294,-7.7635],[126.293,-7.7645],[126.296,-7.765],[126.3005,-7.7635],[126.304,-7.7605],[126.3105,-7.76],[126.319,-7.7555],[126.331,-7.7425],[126.3345,-7.7405],[126.339,-7.7415],[126.367,-7.734],[126.375,-7.735],[126.3765,-7.7335],[126.3925,-7.723],[126.395,-7.7225],[126.397,-7.7215],[126.399,-7.722],[126.4095,-7.725],[126.428,-7.716],[126.441,-7.714],[126.4435,-7.712],[126.46,-7.71],[126.487,-7.691],[126.5195,-7.686],[126.521,-7.685],[126.5295,-7.6765],[126.543,-7.676],[126.5445,-7.676],[126.5455,-7.6615],[126.552,-7.654],[126.5875,-7.6285],[126.5925,-7.608],[126.6145,-7.5865],[126.6315,-7.5835]]]},"properties":{"code":"81.08.13.2005","name":"Uhak","latitude":-7.657811133346039,"longitude":126.45544126110677}},{"type":"Feature","geometry":{"type":"Polygon","coordinates":[[[125.968,-7.7685],[125.951,-7.747],[125.952,-7.733],[125.944,-7.725],[125.943,-7.7075],[125.9305,-7.7],[125.9235,-7.71],[125.9115,-7.736],[125.9145,-7.745],[125.901,-7.749],[125.894,-7.7585],[125.8815,-7.762],[125.891,-7.7685],[125.9035,-7.771],[125.913,-7.772],[125.922,-7.7665],[125.9475,-7.795],[125.9485,-7.7845],[125.968,-7.7685]]]},"properties":{"code":"81.08.13.2006","name":"Eray","latitude":-7.750085539203375,"longitude":125.93110484594821}},{"type":"Feature","geometry":{"type":"Polygon","coordinates":[[[125.947,-7.814],[125.94,-7.818],[125.9375,-7.815],[125.9235,-7.8015],[125.92,-7.8115],[125.9015,-7.8215],[125.8965,-7.833],[125.883,-7.842],[125.8795,-7.8525],[125.866,-7.868],[125.885,-7.89],[125.9065,-7.904],[125.9085,-7.9125],[125.9305,-7.933],[125.9445,-7.9175],[125.954,-7.914],[125.97,-7.919],[125.9845,-7.9185],[125.988,-7.9115],[126.01,-7.9025],[126.0095,-7.901],[126,-7.8805],[125.9985,-7.879],[125.9935,-7.8765],[125.993,-7.876],[125.992,-7.874],[125.9915,-7.8725],[125.9905,-7.8695],[125.986,-7.8605],[125.986,-7.858],[125.985,-7.8445],[125.9685,-7.8245],[125.947,-7.814]]]},"properties":{"code":"81.08.14.2001","name":"Telemar","latitude":-7.869639132012815,"longitude":125.93813166294669}},{"type":"Feature","geometry":{"type":"Polygon","coordinates":[[[125.866,-7.868],[125.8625,-7.8665],[125.8495,-7.8965],[125.843,-7.9185],[125.841,-7.9395],[125.8145,-7.9885],[125.817,-7.995],[125.857,-7.978],[125.8695,-7.977],[125.874,-7.964],[125.886,-7.9525],[125.926,-7.942],[125.9305,-7.933],[125.9085,-7.9125],[125.9065,-7.904],[125.885,-7.89],[125.866,-7.868]]]},"properties":{"code":"81.08.14.2002","name":"Karbubu","latitude":-7.933262525477806,"longitude":125.86917582537207}},{"type":"Feature","geometry":{"type":"Polygon","coordinates":[[[125.733,-7.9665],[125.725,-7.9825],[125.73,-7.9985],[125.7275,-8.0085],[125.732,-8.022],[125.732,-8.0475],[125.746,-8.046],[125.754,-8.029],[125.764,-8.015],[125.762,-7.9975],[125.7465,-7.9865],[125.733,-7.9665]]]},"properties":{"code":"81.08.14.2003","name":"Ustutun","latitude":-8.008568418640289,"longitude":125.74284440032402}},{"type":"Feature","geometry":{"type":"Polygon","coordinates":[[[125.8625,-7.8665],[125.861,-7.865],[125.8385,-7.8575],[125.837,-7.8565],[125.836,-7.8545],[125.835,-7.853],[125.83,-7.851],[125.8175,-7.852],[125.806,-7.863],[125.816,-7.8815],[125.8185,-7.898],[125.8255,-7.9045],[125.8225,-7.942],[125.818,-7.96],[125.803,-7.982],[125.7925,-7.9905],[125.789,-8.0065],[125.8005,-8.0165],[125.817,-7.995],[125.8145,-7.9885],[125.841,-7.9395],[125.843,-7.9185],[125.8495,-7.8965],[125.8625,-7.8665]]]},"properties":{"code":"81.08.14.2004","name":"Klishatu","latitude":-7.917220218238602,"longitude":125.82717274467981}},{"type":"Feature","geometry":{"type":"Polygon","coordinates":[[[125.9475,-7.795],[125.922,-7.7665],[125.913,-7.772],[125.9035,-7.771],[125.891,-7.7685],[125.8815,-7.762],[125.862,-7.7685],[125.8585,-7.783],[125.876,-7.797],[125.871,-7.815],[125.855,-7.823],[125.8425,-7.836],[125.8285,-7.845],[125.83,-7.851],[125.835,-7.853],[125.836,-7.8545],[125.837,-7.8565],[125.8385,-7.8575],[125.861,-7.865],[125.866,-7.868],[125.8795,-7.8525],[125.883,-7.842],[125.8965,-7.833],[125.9015,-7.8215],[125.92,-7.8115],[125.9235,-7.8015],[125.9375,-7.815],[125.94,-7.818],[125.947,-7.814],[125.9475,-7.795]]]},"properties":{"code":"81.08.14.2005","name":"Ilmamau","latitude":-7.809968911455733,"longitude":125.88876157359024}},{"type":"Feature","geometry":{"type":"Polygon","coordinates":[[[126.6315,-7.5835],[126.6145,-7.5865],[126.5925,-7.608],[126.5875,-7.6285],[126.552,-7.654],[126.5455,-7.6615],[126.5445,-7.676],[126.5455,-7.676],[126.5465,-7.6755],[126.549,-7.676],[126.553,-7.675],[126.5585,-7.678],[126.5725,-7.6725],[126.5765,-7.6725],[126.5775,-7.6725],[126.5845,-7.6795],[126.624,-7.681],[126.6445,-7.692],[126.667,-7.693],[126.673,-7.691],[126.6735,-7.691],[126.677,-7.684],[126.7035,-7.661],[126.713,-7.646],[126.693,-7.638],[126.6885,-7.6245],[126.68,-7.62],[126.6685,-7.6215],[126.6625,-7.614],[126.6395,-7.605],[126.6315,-7.5835]]]},"properties":{"code":"81.08.15.2001","name":"Moning","latitude":-7.646064281399051,"longitude":126.63047479170932}},{"type":"Feature","geometry":{"type":"Polygon","coordinates":[[[126.8095,-7.6805],[126.816,-7.662],[126.8085,-7.655],[126.783,-7.662],[126.76,-7.656],[126.738,-7.661],[126.727,-7.6675],[126.72,-7.665],[126.713,-7.646],[126.7035,-7.661],[126.677,-7.684],[126.6735,-7.691],[126.675,-7.691],[126.698,-7.6925],[126.715,-7.688],[126.716,-7.687],[126.722,-7.686],[126.7245,-7.6865],[126.7265,-7.686],[126.73,-7.686],[126.7325,-7.687],[126.734,-7.689],[126.761,-7.6965],[126.772,-7.692],[126.794,-7.6925],[126.8095,-7.6805]]]},"properties":{"code":"81.08.15.2002","name":"Arwala","latitude":-7.675427250751703,"longitude":126.74987224609254}},{"type":"Feature","geometry":{"type":"Polygon","coordinates":[[[126.8275,-7.696],[126.8195,-7.685],[126.8095,-7.6805],[126.794,-7.6925],[126.772,-7.692],[126.7745,-7.699],[126.787,-7.7045],[126.805,-7.703],[126.8275,-7.696]]]},"properties":{"code":"81.08.15.2003","name":"Ilway","latitude":-7.694881730666461,"longitude":126.80171362512229}},{"type":"Feature","geometry":{"type":"Polygon","coordinates":[[[126.772,-7.692],[126.761,-7.6965],[126.734,-7.689],[126.7325,-7.687],[126.73,-7.686],[126.7265,-7.686],[126.7245,-7.6865],[126.722,-7.686],[126.716,-7.687],[126.715,-7.688],[126.698,-7.6925],[126.675,-7.691],[126.673,-7.691],[126.667,-7.693],[126.6795,-7.712],[126.6825,-7.7145],[126.685,-7.7175],[126.6915,-7.7255],[126.6915,-7.727],[126.69,-7.7275],[126.69,-7.7315],[126.6935,-7.731],[126.6945,-7.731],[126.706,-7.751],[126.72,-7.7445],[126.7325,-7.7485],[126.763,-7.748],[126.793,-7.742],[126.8055,-7.744],[126.8175,-7.7545],[126.8265,-7.753],[126.8425,-7.734],[126.8335,-7.716],[126.8275,-7.696],[126.805,-7.703],[126.787,-7.7045],[126.7745,-7.699],[126.772,-7.692]]]},"properties":{"code":"81.08.15.2004","name":"Kahilin","latitude":-7.719947028460987,"longitude":126.75611333680021}},{"type":"Feature","geometry":{"type":"Polygon","coordinates":[[[126.667,-7.693],[126.6445,-7.692],[126.624,-7.681],[126.5845,-7.6795],[126.5775,-7.6725],[126.576,-7.672],[126.576,-7.6735],[126.5775,-7.675],[126.578,-7.6785],[126.5765,-7.688],[126.5855,-7.6995],[126.5885,-7.71],[126.5995,-7.7275],[126.599,-7.73],[126.6,-7.732],[126.601,-7.734],[126.603,-7.736],[126.605,-7.7355],[126.606,-7.7345],[126.6125,-7.7375],[126.6135,-7.739],[126.615,-7.739],[126.616,-7.739],[126.6165,-7.7375],[126.6165,-7.737],[126.6165,-7.7345],[126.622,-7.703],[126.6245,-7.7],[126.6675,-7.7035],[126.6795,-7.712],[126.667,-7.693]]]},"properties":{"code":"81.08.15.2005","name":"Ilpokil","latitude":-7.701233049303358,"longitude":126.61352118501983}},{"type":"Feature","geometry":{"type":"Polygon","coordinates":[[[126.599,-7.7295],[126.5995,-7.7275],[126.5885,-7.71],[126.5855,-7.6995],[126.5765,-7.688],[126.578,-7.6785],[126.5775,-7.675],[126.576,-7.6735],[126.576,-7.672],[126.5725,-7.6725],[126.5585,-7.678],[126.553,-7.675],[126.549,-7.676],[126.5465,-7.6755],[126.5455,-7.676],[126.543,-7.676],[126.5295,-7.6765],[126.521,-7.685],[126.5195,-7.686],[126.487,-7.691],[126.46,-7.71],[126.4435,-7.712],[126.443,-7.7125],[126.4445,-7.7255],[126.455,-7.7345],[126.452,-7.741],[126.4575,-7.761],[126.4565,-7.77],[126.456,-7.773],[126.4565,-7.7755],[126.459,-7.776],[126.463,-7.782],[126.464,-7.783],[126.4675,-7.7835],[126.4705,-7.783],[126.474,-7.781],[126.4755,-7.7785],[126.475,-7.7765],[126.4775,-7.7755],[126.4775,-7.774],[126.4775,-7.771],[126.477,-7.77],[126.477,-7.769],[126.4785,-7.7675],[126.484,-7.753],[126.4845,-7.752],[126.4835,-7.75],[126.485,-7.7505],[126.503,-7.7515],[126.5095,-7.756],[126.5105,-7.756],[126.515,-7.756],[126.515,-7.7555],[126.542,-7.742],[126.553,-7.745],[126.5565,-7.745],[126.5625,-7.74],[126.564,-7.74],[126.5655,-7.7405],[126.5665,-7.7405],[126.5675,-7.739],[126.5815,-7.734],[126.5815,-7.7285],[126.5825,-7.721],[126.5845,-7.721],[126.599,-7.7295]]]},"properties":{"code":"81.08.15.2006","name":"Tomliapat","latitude":-7.719956244286378,"longitude":126.51678098905685}},{"type":"Feature","geometry":{"type":"Polygon","coordinates":[[[127.4095,-7.5425],[127.38,-7.5365],[127.36,-7.5395],[127.3565,-7.54],[127.3605,-7.571],[127.371,-7.585],[127.3665,-7.5915],[127.3415,-7.5945],[127.3275,-7.608],[127.3235,-7.6275],[127.3395,-7.649],[127.3555,-7.6505],[127.3605,-7.6465],[127.3795,-7.6125],[127.385,-7.587],[127.4035,-7.55],[127.4095,-7.5425]]]},"properties":{"code":"81.08.16.2001","name":"Hila","latitude":-7.593217152847356,"longitude":127.3640547182357}},{"type":"Feature","geometry":{"type":"MultiPolygon","coordinates":[[[[127.5935,-7.558],[127.5825,-7.556],[127.596,-7.5885],[127.5985,-7.602],[127.595,-7.6125],[127.5985,-7.621],[127.616,-7.6075],[127.618,-7.598],[127.6045,-7.591],[127.605,-7.5795],[127.5935,-7.558]]],[[[127.3555,-7.6505],[127.367,-7.6545],[127.3865,-7.649],[127.4,-7.6365],[127.4055,-7.625],[127.4055,-7.6065],[127.431,-7.5985],[127.4395,-7.602],[127.462,-7.5905],[127.4705,-7.5895],[127.4815,-7.5755],[127.489,-7.5485],[127.483,-7.5395],[127.4835,-7.522],[127.468,-7.5165],[127.4605,-7.527],[127.4415,-7.524],[127.4325,-7.517],[127.4255,-7.5275],[127.4145,-7.5325],[127.4125,-7.541],[127.4035,-7.55],[127.385,-7.587],[127.3795,-7.6125],[127.3605,-7.6465],[127.3555,-7.6505]]]]},"properties":{"code":"81.08.16.2002","name":"Jerusu","latitude":-7.576049296432524,"longitude":127.44729404178752}},{"type":"Feature","geometry":{"type":"MultiPolygon","coordinates":[[[[127.2945,-7.511],[127.282,-7.5125],[127.274,-7.5195],[127.2825,-7.527],[127.2945,-7.53],[127.2995,-7.517],[127.2945,-7.511]]],[[[127.4325,-7.517],[127.427,-7.5115],[127.412,-7.511],[127.4075,-7.4985],[127.3895,-7.5],[127.382,-7.494],[127.3655,-7.501],[127.355,-7.529],[127.3565,-7.54],[127.36,-7.5395],[127.38,-7.5365],[127.4095,-7.5425],[127.4125,-7.541],[127.4145,-7.5325],[127.4255,-7.5275],[127.4325,-7.517]]]]},"properties":{"code":"81.08.16.2003","name":"Solath","latitude":-7.5200791580389055,"longitude":127.37675795183613}},{"type":"Feature","geometry":{"type":"Polygon","coordinates":[[[127.2065,-8.028],[127.205,-8.0175],[127.196,-8.013],[127.166,-8.014],[127.1595,-8.0185],[127.169,-8.0235],[127.17,-8.034],[127.1815,-8.0295],[127.2065,-8.028]]]},"properties":{"code":"81.08.17.2001","name":"Purpura","latitude":-8.022006779134822,"longitude":127.18418881638262}},{"type":"Feature","geometry":{"type":"Polygon","coordinates":[[[127.2065,-8.028],[127.1815,-8.0295],[127.17,-8.034],[127.1715,-8.04],[127.1725,-8.0395],[127.181,-8.04],[127.1845,-8.0415],[127.1865,-8.042],[127.197,-8.0405],[127.198,-8.04],[127.2025,-8.039],[127.207,-8.0345],[127.208,-8.034],[127.2065,-8.028]]]},"properties":{"code":"81.08.17.2002","name":"Nomaha","latitude":-8.034596604182873,"longitude":127.19100042288302}},{"type":"Feature","geometry":{"type":"Polygon","coordinates":[[[127.17,-8.034],[127.169,-8.0235],[127.1595,-8.0185],[127.1445,-8.031],[127.1465,-8.0325],[127.1465,-8.0335],[127.153,-8.0405],[127.1535,-8.042],[127.156,-8.0425],[127.159,-8.041],[127.1705,-8.0405],[127.1715,-8.04],[127.17,-8.034]]]},"properties":{"code":"81.08.17.2003","name":"Labelau","latitude":-8.031390497687685,"longitude":127.15902690945121}}]}