{"type":"FeatureCollection","features":[{"type":"Feature","geometry":{"type":"Polygon","coordinates":[[[129.0975,-3.237],[129.086,-3.228],[129.0715,-3.227],[129.067,-3.2305],[129.075,-3.242],[129.0705,-3.249],[129.077,-3.2515],[129.08,-3.2555],[129.0875,-3.258],[129.093,-3.2545],[129.105,-3.2625],[129.11,-3.248],[129.106,-3.238],[129.0975,-3.237]]]},"properties":{"code":"81.01.01.1009","name":"Hollo"}},{"type":"Feature","geometry":{"type":"Polygon","coordinates":[[[129.32,-3.0755],[129.317,-3.075],[129.286,-3.0695],[129.256,-3.0595],[129.227,-3.0535],[129.226,-3.0755],[129.2425,-3.088],[129.2495,-3.1035],[129.255,-3.1255],[129.266,-3.155],[129.251,-3.2005],[129.249,-3.2455],[129.255,-3.276],[129.2495,-3.3145],[129.245,-3.3235],[129.2195,-3.344],[129.206,-3.3505],[129.203,-3.3695],[129.196,-3.3725],[129.188,-3.388],[129.2045,-3.3895],[129.227,-3.4],[129.2475,-3.4065],[129.2615,-3.407],[129.288,-3.414],[129.3095,-3.411],[129.32,-3.406],[129.3085,-3.3875],[129.3075,-3.378],[129.326,-3.3565],[129.3295,-3.3435],[129.324,-3.3335],[129.329,-3.3085],[129.3275,-3.2975],[129.353,-3.3],[129.378,-3.3075],[129.3905,-3.305],[129.389,-3.2945],[129.398,-3.25],[129.386,-3.2365],[129.3805,-3.214],[129.356,-3.1655],[129.348,-3.1405],[129.349,-3.128],[129.3445,-3.1105],[129.3285,-3.0945],[129.32,-3.0755]]]},"properties":{"code":"81.01.01.2001","name":"Tamilouw"}},{"type":"Feature","geometry":{"type":"MultiPolygon","coordinates":[[[[129.1575,-3.368],[129.157,-3.3475],[129.136,-3.346],[129.136,-3.3625],[129.1455,-3.361],[129.1575,-3.368]]],[[[129.129,-3.3625],[129.1285,-3.346],[129.116,-3.3375],[129.102,-3.347],[129.116,-3.3505],[129.129,-3.3625]]],[[[129.042,-3.273],[129.0495,-3.273],[129.05,-3.272],[129.05,-3.2705],[129.0505,-3.2695],[129.0495,-3.2595],[129.042,-3.259],[129.042,-3.273]]],[[[129.0295,-3.252],[129.028,-3.251],[129.024,-3.266],[129.018,-3.2705],[129.0335,-3.2705],[129.0295,-3.252]]],[[[129.0705,-3.249],[129.05,-3.2525],[129.0535,-3.2635],[129.0685,-3.2595],[129.074,-3.2505],[129.0705,-3.249]]],[[[129.0425,-3.2],[129.051,-3.1975],[129.06,-3.1855],[129.0465,-3.1805],[129.046,-3.1755],[129.0345,-3.165],[129.031,-3.184],[129.031,-3.2005],[129.0405,-3.201],[129.0425,-3.2]]]]},"properties":{"code":"81.01.01.2002","name":"Sepa"}},{"type":"Feature","geometry":{"type":"Polygon","coordinates":[[[129.047,-3.339],[129.045,-3.3045],[129.0325,-3.3065],[129.031,-3.309],[128.9385,-3.35],[128.935,-3.356],[128.953,-3.3555],[128.9625,-3.3615],[128.9775,-3.361],[128.9905,-3.3545],[129.0205,-3.3535],[129.0335,-3.348],[129.0485,-3.3495],[129.047,-3.339]]]},"properties":{"code":"81.01.01.2003","name":"Rutah"}},{"type":"Feature","geometry":{"type":"Polygon","coordinates":[[[128.9255,-3.338],[128.9235,-3.345],[128.935,-3.356],[128.9385,-3.35],[128.945,-3.347],[128.935,-3.3455],[128.925,-3.3425],[128.9255,-3.338]]]},"properties":{"code":"81.01.01.2004","name":"Soahuku"}},{"type":"Feature","geometry":{"type":"Polygon","coordinates":[[[129.0285,-3.289],[129.018,-3.28],[129.004,-3.295],[128.987,-3.306],[128.975,-3.3045],[128.9715,-3.307],[128.9715,-3.308],[128.9695,-3.3085],[128.957,-3.317],[128.9515,-3.312],[128.94,-3.3095],[128.928,-3.323],[128.9255,-3.338],[128.925,-3.3425],[128.935,-3.3455],[128.945,-3.347],[129.031,-3.309],[129.0385,-3.2975],[129.0285,-3.289]]]},"properties":{"code":"81.01.01.2005","name":"Amahai"}},{"type":"Feature","geometry":{"type":"Polygon","coordinates":[[[129.018,-3.2705],[128.9955,-3.2705],[128.9895,-3.27],[128.985,-3.2805],[128.969,-3.278],[128.966,-3.2915],[128.975,-3.3045],[128.987,-3.306],[129.004,-3.295],[129.018,-3.28],[129.018,-3.2705]]]},"properties":{"code":"81.01.01.2006","name":"Haruru"}},{"type":"Feature","geometry":{"type":"Polygon","coordinates":[[[128.9895,-3.27],[128.972,-3.268],[128.9705,-3.266],[128.969,-3.278],[128.985,-3.2805],[128.9895,-3.27]]]},"properties":{"code":"81.01.01.2007","name":"Sehati"}},{"type":"Feature","geometry":{"type":"Polygon","coordinates":[[[129.0495,-3.2595],[129.0485,-3.2425],[129.0285,-3.243],[129.0205,-3.25],[129.006,-3.246],[128.9945,-3.2515],[128.9755,-3.2385],[128.968,-3.238],[128.9665,-3.2455],[128.9705,-3.266],[128.972,-3.268],[128.9955,-3.2705],[129.018,-3.2705],[129.024,-3.266],[129.028,-3.251],[129.0295,-3.252],[129.0335,-3.2705],[129.042,-3.2705],[129.042,-3.259],[129.0495,-3.2595]]]},"properties":{"code":"81.01.01.2008","name":"Makariki"}},{"type":"Feature","geometry":{"type":"Polygon","coordinates":[[[129.064,-3.2265],[129.0665,-3.2255],[129.0655,-3.2225],[129.0625,-3.2255],[129.064,-3.2265]]]},"properties":{"code":"81.01.01.2010","name":"Yafila"}},{"type":"Feature","geometry":{"type":"Polygon","coordinates":[[[129.0975,-3.237],[129.095,-3.2155],[129.0775,-3.219],[129.0765,-3.221],[129.0745,-3.2225],[129.0715,-3.227],[129.086,-3.228],[129.0975,-3.237]]]},"properties":{"code":"81.01.01.2011","name":"Banda Baru"}},{"type":"Feature","geometry":{"type":"Polygon","coordinates":[[[129.0735,-3.345],[129.0725,-3.336],[129.047,-3.339],[129.0485,-3.3495],[129.06,-3.3505],[129.0735,-3.345]]]},"properties":{"code":"81.01.01.2020","name":"Yainuelo"}},{"type":"Feature","geometry":{"type":"MultiPolygon","coordinates":[[[[129.147,-6.951],[129.126,-6.9625],[129.123,-6.972],[129.128,-6.9835],[129.146,-6.9905],[129.156,-6.9855],[129.163,-6.9685],[129.1585,-6.9545],[129.147,-6.951]]],[[[129.532,-6.7125],[129.5105,-6.719],[129.501,-6.7145],[129.4915,-6.725],[129.487,-6.741],[129.5015,-6.755],[129.5115,-6.7585],[129.524,-6.7515],[129.5315,-6.742],[129.531,-6.73],[129.537,-6.7235],[129.532,-6.7125]]],[[[130.008,-6.299],[130.0005,-6.3075],[130.017,-6.323],[130.0315,-6.321],[130.024,-6.3055],[130.008,-6.299]]],[[[129.105,-3.2625],[129.093,-3.2545],[129.0875,-3.258],[129.085,-3.257],[129.0825,-3.265],[129.102,-3.272],[129.1055,-3.262],[129.105,-3.2625]]]]},"properties":{"code":"81.01.01.2021","name":"Nua Nea"}},{"type":"Feature","geometry":{"type":"Polygon","coordinates":[[[129.0335,-3.2705],[129.018,-3.2705],[129.018,-3.28],[129.0285,-3.289],[129.052,-3.2895],[129.052,-3.271],[129.05,-3.271],[129.05,-3.272],[129.0495,-3.273],[129.042,-3.273],[129.042,-3.2705],[129.0335,-3.2705]]]},"properties":{"code":"81.01.01.2022","name":"Hatuhenu"}},{"type":"Feature","geometry":{"type":"Polygon","coordinates":[[[129.033,-3.036],[129.0095,-3.0355],[128.985,-3.0445],[128.985,-3.052],[128.9615,-3.07],[128.9715,-3.091],[128.9655,-3.1045],[128.9665,-3.1215],[128.961,-3.134],[128.976,-3.1405],[128.986,-3.173],[128.9855,-3.173],[129.012,-3.18],[129.016,-3.1845],[129.0305,-3.1835],[129.031,-3.184],[129.0345,-3.165],[129.046,-3.1755],[129.0465,-3.1805],[129.06,-3.1855],[129.051,-3.1975],[129.0425,-3.2],[129.0585,-3.213],[129.066,-3.218],[129.075,-3.22],[129.0765,-3.221],[129.0775,-3.219],[129.095,-3.2155],[129.0975,-3.237],[129.106,-3.238],[129.11,-3.248],[129.1055,-3.262],[129.102,-3.272],[129.0825,-3.265],[129.085,-3.257],[129.08,-3.2555],[129.077,-3.2515],[129.074,-3.2505],[129.0685,-3.2595],[129.0535,-3.2635],[129.05,-3.2525],[129.0705,-3.249],[129.075,-3.242],[129.067,-3.2305],[129.066,-3.231],[129.0625,-3.236],[129.043,-3.2385],[129.0315,-3.224],[129.014,-3.2375],[129.0115,-3.235],[129.014,-3.2325],[129.006,-3.229],[128.9885,-3.2195],[128.986,-3.2165],[128.984,-3.2155],[128.983,-3.2145],[128.9715,-3.224],[128.9615,-3.213],[128.9555,-3.2205],[128.966,-3.226],[128.968,-3.238],[128.9755,-3.2385],[128.9945,-3.2515],[129.006,-3.246],[129.0205,-3.25],[129.0285,-3.243],[129.0485,-3.2425],[129.0495,-3.2595],[129.0505,-3.2695],[129.05,-3.271],[129.052,-3.271],[129.052,-3.2895],[129.0285,-3.289],[129.0385,-3.2975],[129.0325,-3.3065],[129.045,-3.3045],[129.047,-3.339],[129.0725,-3.336],[129.0735,-3.345],[129.079,-3.3425],[129.09,-3.3345],[129.092,-3.3455],[129.102,-3.347],[129.116,-3.3375],[129.1285,-3.346],[129.129,-3.3625],[129.136,-3.3625],[129.136,-3.346],[129.157,-3.3475],[129.1575,-3.368],[129.1665,-3.37],[129.188,-3.388],[129.196,-3.3725],[129.203,-3.3695],[129.206,-3.3505],[129.2195,-3.344],[129.245,-3.3235],[129.2495,-3.3145],[129.255,-3.276],[129.249,-3.2455],[129.251,-3.2005],[129.266,-3.155],[129.255,-3.1255],[129.2495,-3.1035],[129.2425,-3.088],[129.226,-3.0755],[129.227,-3.0535],[129.033,-3.036]]]},"properties":{"code":"81.01.01.2023","name":"Nuweletetu"}},{"type":"Feature","geometry":{"type":"Polygon","coordinates":[[[128.9945,-3.203],[128.985,-3.2035],[128.97,-3.2005],[128.968,-3.203],[128.9615,-3.213],[128.969,-3.221],[128.97,-3.22],[128.9705,-3.216],[128.9835,-3.2095],[128.9945,-3.203]]]},"properties":{"code":"81.01.02.2001","name":"Usliapan"}},{"type":"Feature","geometry":{"type":"Polygon","coordinates":[[[128.9835,-3.2095],[128.9705,-3.216],[128.97,-3.22],[128.969,-3.221],[128.9715,-3.224],[128.986,-3.212],[128.9835,-3.2095]]]},"properties":{"code":"81.01.02.2002","name":"Kuralele"}},{"type":"Feature","geometry":{"type":"Polygon","coordinates":[[[128.997,-3.213],[128.9945,-3.203],[128.9835,-3.2095],[128.986,-3.212],[128.983,-3.2145],[128.984,-3.2155],[128.986,-3.2165],[128.9885,-3.2195],[128.997,-3.213]]]},"properties":{"code":"81.01.02.2003","name":"Kokroman"}},{"type":"Feature","geometry":{"type":"Polygon","coordinates":[[[129.006,-3.217],[128.997,-3.213],[128.9885,-3.2195],[129.006,-3.229],[129.0075,-3.228],[129.006,-3.2185],[129.006,-3.217]]]},"properties":{"code":"81.01.02.2004","name":"Messa"}},{"type":"Feature","geometry":{"type":"Polygon","coordinates":[[[129.01,-3.214],[129.005,-3.207],[128.997,-3.213],[129.006,-3.217],[129.01,-3.214]]]},"properties":{"code":"81.01.02.2005","name":"Ameth"}},{"type":"Feature","geometry":{"type":"Polygon","coordinates":[[[129.016,-3.1845],[129.012,-3.18],[129.002,-3.2025],[128.9945,-3.203],[128.997,-3.213],[129.0075,-3.2055],[129.0155,-3.203],[129.016,-3.1845]]]},"properties":{"code":"81.01.02.2006","name":"Waru"}},{"type":"Feature","geometry":{"type":"Polygon","coordinates":[[[129.0195,-3.2075],[129.0185,-3.2065],[129.0155,-3.203],[129.0075,-3.2055],[129.005,-3.207],[129.01,-3.214],[129.0195,-3.2075]]]},"properties":{"code":"81.01.02.2007","name":"Bumey"}},{"type":"Feature","geometry":{"type":"Polygon","coordinates":[[[129.023,-3.2125],[129.0195,-3.2075],[129.006,-3.2185],[129.0075,-3.228],[129.009,-3.227],[129.023,-3.2125]]]},"properties":{"code":"81.01.02.2008","name":"Sifluru"}},{"type":"Feature","geometry":{"type":"Polygon","coordinates":[[[129.031,-3.184],[129.0305,-3.1835],[129.016,-3.1845],[129.0155,-3.203],[129.0185,-3.2065],[129.0275,-3.2185],[129.0435,-3.2055],[129.0405,-3.201],[129.031,-3.2005],[129.031,-3.184]]]},"properties":{"code":"81.01.02.2009","name":"Layeni"}},{"type":"Feature","geometry":{"type":"Polygon","coordinates":[[[129.0275,-3.2185],[129.023,-3.2125],[129.009,-3.227],[129.006,-3.229],[129.014,-3.2325],[129.015,-3.232],[129.0155,-3.228],[129.0275,-3.2185]]]},"properties":{"code":"81.01.02.2010","name":"Wotay"}},{"type":"Feature","geometry":{"type":"Polygon","coordinates":[[[129.0355,-3.221],[129.031,-3.215],[129.0155,-3.228],[129.015,-3.232],[129.0115,-3.235],[129.014,-3.2375],[129.0355,-3.221]]]},"properties":{"code":"81.01.02.2011","name":"Issu"}},{"type":"Feature","geometry":{"type":"Polygon","coordinates":[[[129.049,-3.213],[129.0435,-3.2055],[129.031,-3.215],[129.0355,-3.221],[129.0435,-3.217],[129.049,-3.213]]]},"properties":{"code":"81.01.02.2012","name":"Lesluru"}},{"type":"Feature","geometry":{"type":"Polygon","coordinates":[[[129.0435,-3.217],[129.0355,-3.221],[129.0315,-3.224],[129.043,-3.2385],[129.0625,-3.236],[129.0435,-3.217]]]},"properties":{"code":"81.01.02.2013","name":"Watludan"}},{"type":"Feature","geometry":{"type":"Polygon","coordinates":[[[129.0625,-3.2255],[129.055,-3.221],[129.049,-3.213],[129.0435,-3.217],[129.0625,-3.236],[129.066,-3.231],[129.0665,-3.229],[129.0625,-3.2255]]]},"properties":{"code":"81.01.02.2014","name":"Trana"}},{"type":"Feature","geometry":{"type":"Polygon","coordinates":[[[129.0765,-3.221],[129.075,-3.22],[129.066,-3.218],[129.0585,-3.213],[129.0425,-3.2],[129.0405,-3.201],[129.055,-3.221],[129.0625,-3.2255],[129.0655,-3.2225],[129.0665,-3.2255],[129.064,-3.2265],[129.0665,-3.229],[129.067,-3.2305],[129.0715,-3.227],[129.0745,-3.2225],[129.0765,-3.221]]]},"properties":{"code":"81.01.02.2015","name":"Jerili"}},{"type":"Feature","geometry":{"type":"Polygon","coordinates":[[[129.012,-3.18],[128.9855,-3.173],[128.983,-3.1765],[128.976,-3.1945],[128.9705,-3.2],[128.97,-3.2005],[128.985,-3.2035],[129.002,-3.2025],[129.012,-3.18]]]},"properties":{"code":"81.01.02.2016","name":"Nakupia"}},{"type":"Feature","geometry":{"type":"Polygon","coordinates":[[[129.542,-2.7955],[129.543,-2.7855],[129.525,-2.774],[129.5225,-2.7955],[129.523,-2.8095],[129.5135,-2.8045],[129.518,-2.797],[129.514,-2.7895],[129.4985,-2.795],[129.47,-2.7845],[129.455,-2.787],[129.435,-2.7825],[129.44,-2.812],[129.3865,-2.816],[129.377,-2.79],[129.3645,-2.8035],[129.3735,-2.814],[129.3755,-2.813],[129.3755,-2.8165],[129.373,-2.816],[129.3695,-2.8265],[129.35,-2.8545],[129.3365,-2.866],[129.309,-2.877],[129.262,-2.905],[129.2565,-2.906],[129.2595,-2.911],[129.2855,-2.923],[129.3,-2.9205],[129.315,-2.936],[129.3285,-2.9355],[129.335,-2.9405],[129.346,-2.938],[129.4015,-2.855],[129.448,-2.8475],[129.5095,-2.8395],[129.55,-2.848],[129.5355,-2.832],[129.5415,-2.821],[129.5315,-2.8075],[129.532,-2.7995],[129.542,-2.7955]]]},"properties":{"code":"81.01.06.2001","name":"Wahai"}},{"type":"Feature","geometry":{"type":"Polygon","coordinates":[[[129.518,-2.797],[129.5135,-2.8045],[129.523,-2.8095],[129.5225,-2.7955],[129.518,-2.797]]]},"properties":{"code":"81.01.06.2002","name":"Air Besar"}},{"type":"Feature","geometry":{"type":"Polygon","coordinates":[[[129.7085,-2.835],[129.679,-2.833],[129.6695,-2.825],[129.643,-2.8285],[129.6305,-2.823],[129.623,-2.806],[129.6175,-2.8025],[129.599,-2.8085],[129.5825,-2.8095],[129.557,-2.8035],[129.542,-2.7955],[129.532,-2.7995],[129.5315,-2.8075],[129.5415,-2.821],[129.5355,-2.832],[129.55,-2.848],[129.6025,-2.8595],[129.7055,-2.872],[129.7085,-2.835]]]},"properties":{"code":"81.01.06.2003","name":"Pasahari"}},{"type":"Feature","geometry":{"type":"MultiPolygon","coordinates":[[[[129.641,-2.956],[129.644,-2.958],[129.6415,-2.971],[129.6145,-3.002],[129.6125,-3.0165],[129.625,-3.0485],[129.6425,-3.054],[129.6625,-3.07],[129.711,-3.07],[129.7125,-3.0675],[129.7135,-3.062],[129.7145,-3.0465],[129.7205,-3.041],[129.7235,-3.017],[129.719,-2.994],[129.721,-2.986],[129.706,-2.9915],[129.681,-2.9655],[129.664,-2.958],[129.641,-2.956]]],[[[129.641,-2.956],[129.649,-2.953],[129.652,-2.9435],[129.635,-2.9305],[129.597,-2.896],[129.593,-2.9005],[129.5965,-2.9215],[129.593,-2.946],[129.587,-2.9625],[129.4895,-2.966],[129.471,-3.0195],[129.48,-3.0365],[129.482,-3.065],[129.4945,-3.0945],[129.577,-3.1025],[129.588,-3.105],[129.5695,-3.0775],[129.5645,-3.0575],[129.5625,-3.035],[129.5655,-3.0155],[129.573,-2.995],[129.585,-2.9835],[129.6145,-2.9735],[129.6305,-2.965],[129.641,-2.956]]],[[[129.487,-2.9145],[129.533,-2.9055],[129.5355,-2.885],[129.5445,-2.88],[129.55,-2.848],[129.5095,-2.8395],[129.448,-2.8475],[129.45,-2.9125],[129.487,-2.9145]]]]},"properties":{"code":"81.01.06.2007","name":"Manusela"}},{"type":"Feature","geometry":{"type":"Polygon","coordinates":[[[129.7055,-2.872],[129.6025,-2.8595],[129.597,-2.896],[129.635,-2.9305],[129.652,-2.9435],[129.721,-2.9425],[129.7285,-2.9295],[129.7415,-2.9235],[129.729,-2.9165],[129.723,-2.8995],[129.7105,-2.893],[129.7055,-2.872]],[[129.715,-2.9255],[129.7,-2.9255],[129.7,-2.912],[129.719,-2.912],[129.715,-2.9255]],[[129.6685,-2.9415],[129.6585,-2.9415],[129.6585,-2.934],[129.6685,-2.934],[129.6685,-2.9415]]]},"properties":{"code":"81.01.06.2009","name":"Kaloa"}},{"type":"Feature","geometry":{"type":"Polygon","coordinates":[[[129.588,-3.105],[129.577,-3.1025],[129.4945,-3.0945],[129.482,-3.065],[129.48,-3.0365],[129.471,-3.0195],[129.4895,-2.966],[129.355,-3.0015],[129.364,-3.0685],[129.4035,-3.093],[129.437,-3.121],[129.478,-3.1435],[129.522,-3.163],[129.584,-3.175],[129.6165,-3.1795],[129.6445,-3.173],[129.6875,-3.1755],[129.7015,-3.1805],[129.715,-3.182],[129.7325,-3.179],[129.742,-3.181],[129.7625,-3.189],[129.772,-3.2],[129.7805,-3.212],[129.7975,-3.22],[129.8125,-3.2235],[129.8195,-3.2265],[129.8315,-3.2305],[129.8435,-3.235],[129.8785,-3.229],[129.8895,-3.2255],[129.896,-3.2225],[129.8935,-3.2215],[129.8935,-3.22],[129.8925,-3.2195],[129.892,-3.217],[129.8935,-3.214],[129.894,-3.211],[129.903,-3.2055],[129.907,-3.193],[129.9025,-3.1755],[129.9035,-3.164],[129.903,-3.162],[129.903,-3.16],[129.903,-3.1585],[129.8295,-3.143],[129.814,-3.148],[129.7955,-3.16],[129.7825,-3.155],[129.7655,-3.135],[129.7405,-3.131],[129.694,-3.114],[129.612,-3.109],[129.588,-3.105]]]},"properties":{"code":"81.01.06.2010","name":"Kanikeh"}},{"type":"Feature","geometry":{"type":"Polygon","coordinates":[[[129.487,-2.915],[129.487,-2.9145],[129.45,-2.9125],[129.448,-2.8475],[129.4015,-2.855],[129.346,-2.938],[129.3435,-2.955],[129.3315,-2.9655],[129.3415,-2.9835],[129.353,-2.9895],[129.355,-3.0015],[129.4895,-2.966],[129.4925,-2.9535],[129.487,-2.9295],[129.487,-2.915]]]},"properties":{"code":"81.01.06.2011","name":"Roho"}},{"type":"Feature","geometry":{"type":"MultiPolygon","coordinates":[[[[129.353,-2.9895],[129.3415,-2.9835],[129.3315,-2.9655],[129.3435,-2.955],[129.346,-2.938],[129.337,-2.946],[129.3035,-2.9535],[129.191,-2.9945],[129.1275,-2.9995],[129.068,-3.012],[129.0445,-3.023],[129.0335,-3.035],[129.033,-3.036],[129.227,-3.0535],[129.256,-3.0595],[129.286,-3.0695],[129.317,-3.075],[129.3235,-3.0765],[129.3515,-3.0855],[129.364,-3.0685],[129.353,-2.9895]]],[[[129.223,-2.9305],[129.2185,-2.927],[129.217,-2.931],[129.2205,-2.934],[129.223,-2.9305]]]]},"properties":{"code":"81.01.06.2012","name":"Huaulu"}},{"type":"Feature","geometry":{"type":"Polygon","coordinates":[[[129.373,-2.816],[129.3755,-2.8165],[129.3755,-2.813],[129.3735,-2.814],[129.373,-2.816]]]},"properties":{"code":"81.01.06.2021","name":"Rumahsokat"}},{"type":"Feature","geometry":{"type":"Polygon","coordinates":[[[129.2565,-2.906],[129.234,-2.9195],[129.223,-2.9305],[129.2205,-2.934],[129.2155,-2.9485],[129.2015,-2.942],[129.189,-2.949],[129.181,-2.9585],[129.1795,-2.9715],[129.1705,-2.983],[129.167,-2.9965],[129.191,-2.9945],[129.2025,-2.9905],[129.1895,-2.969],[129.1975,-2.963],[129.2125,-2.9865],[129.3035,-2.9535],[129.337,-2.946],[129.346,-2.938],[129.335,-2.9405],[129.3285,-2.9355],[129.315,-2.936],[129.3,-2.9205],[129.2855,-2.923],[129.2595,-2.911],[129.2565,-2.906]]]},"properties":{"code":"81.01.06.2022","name":"Sawai"}},{"type":"Feature","geometry":{"type":"Polygon","coordinates":[[[129.2205,-2.934],[129.217,-2.931],[129.2095,-2.9435],[129.2155,-2.9485],[129.2205,-2.934]]]},"properties":{"code":"81.01.06.2044","name":"Besi"}},{"type":"Feature","geometry":{"type":"Polygon","coordinates":[[[129.377,-2.79],[129.3865,-2.816],[129.44,-2.812],[129.435,-2.7825],[129.419,-2.791],[129.403,-2.7865],[129.377,-2.79]]]},"properties":{"code":"81.01.06.2045","name":"Malaku"}},{"type":"Feature","geometry":{"type":"Polygon","coordinates":[[[129.711,-3.07],[129.6625,-3.07],[129.6425,-3.054],[129.625,-3.0485],[129.6125,-3.0165],[129.6145,-3.002],[129.6415,-2.971],[129.644,-2.958],[129.641,-2.956],[129.6305,-2.965],[129.6145,-2.9735],[129.585,-2.9835],[129.573,-2.995],[129.5655,-3.0155],[129.5625,-3.035],[129.5645,-3.0575],[129.5695,-3.0775],[129.588,-3.105],[129.612,-3.109],[129.694,-3.114],[129.7205,-3.1095],[129.724,-3.094],[129.7115,-3.0785],[129.711,-3.07]]]},"properties":{"code":"81.01.06.2046","name":"Maraina"}},{"type":"Feature","geometry":{"type":"Polygon","coordinates":[[[129.6025,-2.8595],[129.55,-2.848],[129.5445,-2.88],[129.5355,-2.885],[129.533,-2.9055],[129.487,-2.915],[129.487,-2.9295],[129.4925,-2.9535],[129.4895,-2.966],[129.587,-2.9625],[129.593,-2.946],[129.5965,-2.9215],[129.593,-2.9005],[129.597,-2.896],[129.6025,-2.8595]]]},"properties":{"code":"81.01.06.2047","name":"Solea"}},{"type":"Feature","geometry":{"type":"Polygon","coordinates":[[[129.715,-2.9255],[129.719,-2.912],[129.7,-2.912],[129.7,-2.9255],[129.715,-2.9255]]]},"properties":{"code":"81.01.06.2048","name":"Elemata"}},{"type":"Feature","geometry":{"type":"Polygon","coordinates":[[[129.6685,-2.9415],[129.6685,-2.934],[129.6585,-2.934],[129.6585,-2.9415],[129.6685,-2.9415]]]},"properties":{"code":"81.01.06.2049","name":"Hatuolo"}},{"type":"Feature","geometry":{"type":"Polygon","coordinates":[[[129.787,-2.866],[129.759,-2.861],[129.7315,-2.849],[129.7085,-2.835],[129.7055,-2.872],[129.7105,-2.893],[129.723,-2.8995],[129.729,-2.9165],[129.7415,-2.9235],[129.7475,-2.911],[129.7495,-2.9115],[129.7505,-2.9115],[129.7505,-2.91],[129.752,-2.9065],[129.752,-2.905],[129.7515,-2.905],[129.752,-2.9025],[129.753,-2.902],[129.7735,-2.891],[129.774,-2.888],[129.7735,-2.8865],[129.776,-2.873],[129.787,-2.866]]]},"properties":{"code":"81.01.06.2050","name":"Siatele"}},{"type":"Feature","geometry":{"type":"Polygon","coordinates":[[[129.2125,-2.9865],[129.1975,-2.963],[129.1895,-2.969],[129.2025,-2.9905],[129.2125,-2.9865]]]},"properties":{"code":"81.01.06.2051","name":"Masihulan"}},{"type":"Feature","geometry":{"type":"Polygon","coordinates":[[[129.223,-2.9305],[129.234,-2.9195],[129.2185,-2.927],[129.223,-2.9305]]]},"properties":{"code":"81.01.06.2052","name":"Oping"}},{"type":"Feature","geometry":{"type":"Polygon","coordinates":[[[129.2015,-2.942],[129.186,-2.9225],[129.177,-2.9315],[129.177,-2.9415],[129.189,-2.949],[129.2015,-2.942]]]},"properties":{"code":"81.01.06.2053","name":"Olong"}},{"type":"Feature","geometry":{"type":"Polygon","coordinates":[[[129.8795,-4.5065],[129.866,-4.523],[129.874,-4.534],[129.8895,-4.5355],[129.8915,-4.515],[129.8795,-4.5065]]]},"properties":{"code":"81.01.09.2001","name":"Nusantara"}},{"type":"Feature","geometry":{"type":"Polygon","coordinates":[[[129.9045,-4.531],[129.9035,-4.522],[129.9035,-4.524],[129.902,-4.5245],[129.9025,-4.525],[129.9005,-4.5245],[129.9005,-4.5295],[129.9045,-4.531]]]},"properties":{"code":"81.01.09.2002","name":"Dwiwarna"}},{"type":"Feature","geometry":{"type":"MultiPolygon","coordinates":[[[[129.9025,-4.525],[129.902,-4.5245],[129.9035,-4.524],[129.9035,-4.518],[129.901,-4.518],[129.9005,-4.52],[129.9005,-4.5245],[129.9025,-4.525]]],[[[129.9035,-4.5045],[129.896,-4.509],[129.9,-4.5075],[129.901,-4.507],[129.903,-4.505],[129.9035,-4.5045]]]]},"properties":{"code":"81.01.09.2003","name":"Merdeka"}},{"type":"Feature","geometry":{"type":"Polygon","coordinates":[[[129.907,-4.5085],[129.9035,-4.5045],[129.903,-4.505],[129.901,-4.507],[129.9,-4.5075],[129.896,-4.509],[129.8985,-4.5145],[129.907,-4.5085]]]},"properties":{"code":"81.01.09.2004","name":"Rajawali"}},{"type":"Feature","geometry":{"type":"Polygon","coordinates":[[[129.9045,-4.531],[129.9085,-4.514],[129.8995,-4.5155],[129.901,-4.518],[129.9035,-4.518],[129.9035,-4.522],[129.9045,-4.531]]]},"properties":{"code":"81.01.09.2005","name":"Kampung Baru"}},{"type":"Feature","geometry":{"type":"Polygon","coordinates":[[[130.0455,-4.5835],[130.039,-4.5785],[130.0305,-4.587],[130.0335,-4.6025],[130.0415,-4.6055],[130.0475,-4.5945],[130.0455,-4.5835]]]},"properties":{"code":"81.01.09.2006","name":"Pulau Hatta"}},{"type":"Feature","geometry":{"type":"Polygon","coordinates":[[[129.9435,-4.527],[129.9395,-4.5265],[129.925,-4.5415],[129.9325,-4.546],[129.9345,-4.549],[129.9395,-4.5505],[129.9405,-4.551],[129.9455,-4.5405],[129.944,-4.5395],[129.9385,-4.538],[129.943,-4.53],[129.943,-4.5285],[129.9435,-4.527]]]},"properties":{"code":"81.01.09.2007","name":"Selamon"}},{"type":"Feature","geometry":{"type":"Polygon","coordinates":[[[129.91,-4.5485],[129.8995,-4.5455],[129.884,-4.5475],[129.8735,-4.543],[129.8625,-4.5465],[129.865,-4.5625],[129.884,-4.553],[129.8855,-4.561],[129.9,-4.5575],[129.9045,-4.565],[129.9215,-4.5675],[129.934,-4.573],[129.937,-4.5655],[129.947,-4.5565],[129.9445,-4.553],[129.9395,-4.5505],[129.9345,-4.549],[129.9335,-4.5475],[129.932,-4.551],[129.9275,-4.5555],[129.921,-4.557],[129.92,-4.5565],[129.9145,-4.5575],[129.91,-4.5485]]]},"properties":{"code":"81.01.09.2008","name":"Lonthoir"}},{"type":"Feature","geometry":{"type":"Polygon","coordinates":[[[129.7665,-4.5185],[129.7715,-4.537],[129.7815,-4.5325],[129.781,-4.52],[129.7665,-4.5185]]]},"properties":{"code":"81.01.09.2009","name":"Pulau Ay"}},{"type":"Feature","geometry":{"type":"Polygon","coordinates":[[[129.694,-4.543],[129.681,-4.55],[129.6705,-4.565],[129.6865,-4.562],[129.6945,-4.5525],[129.694,-4.543]]]},"properties":{"code":"81.01.09.2010","name":"Pulau Rhun"}},{"type":"Feature","geometry":{"type":"Polygon","coordinates":[[[129.907,-4.5085],[129.8985,-4.5145],[129.8995,-4.5155],[129.9085,-4.514],[129.907,-4.5085]]]},"properties":{"code":"81.01.09.2011","name":"Tanah Rata"}},{"type":"Feature","geometry":{"type":"Polygon","coordinates":[[[129.9525,-4.542],[129.9475,-4.5405],[129.9455,-4.5405],[129.9405,-4.551],[129.9495,-4.5555],[129.9525,-4.542]]]},"properties":{"code":"81.01.09.2012","name":"Waer"}},{"type":"Feature","geometry":{"type":"Polygon","coordinates":[[[129.921,-4.557],[129.9185,-4.546],[129.91,-4.5485],[129.9145,-4.5575],[129.92,-4.5565],[129.921,-4.557]]]},"properties":{"code":"81.01.09.2013","name":"Boiyauw"}},{"type":"Feature","geometry":{"type":"Polygon","coordinates":[[[129.95,-4.5265],[129.946,-4.5275],[129.9435,-4.527],[129.943,-4.5285],[129.943,-4.53],[129.9385,-4.538],[129.944,-4.5395],[129.9475,-4.5405],[129.9525,-4.542],[129.95,-4.5265]]]},"properties":{"code":"81.01.09.2014","name":"Dender"}},{"type":"Feature","geometry":{"type":"Polygon","coordinates":[[[129.9495,-4.5555],[129.9445,-4.553],[129.947,-4.5565],[129.9505,-4.557],[129.9495,-4.5555]]]},"properties":{"code":"81.01.09.2015","name":"Lautang"}},{"type":"Feature","geometry":{"type":"Polygon","coordinates":[[[129.9505,-4.557],[129.947,-4.5565],[129.937,-4.5655],[129.9505,-4.557]]]},"properties":{"code":"81.01.09.2016","name":"Uring Tutra"}},{"type":"Feature","geometry":{"type":"Polygon","coordinates":[[[129.9335,-4.5475],[129.9325,-4.546],[129.925,-4.5415],[129.9185,-4.546],[129.921,-4.557],[129.9275,-4.5555],[129.932,-4.551],[129.9335,-4.5475]]]},"properties":{"code":"81.01.09.2017","name":"Walling Spanciby"}},{"type":"Feature","geometry":{"type":"Polygon","coordinates":[[[129.95,-4.5265],[129.9395,-4.5265],[129.946,-4.5275],[129.95,-4.5265]]]},"properties":{"code":"81.01.09.2018","name":"Combir Kasestoren"}},{"type":"Feature","geometry":{"type":"Polygon","coordinates":[[[129.6495,-3.317],[129.6505,-3.3025],[129.658,-3.281],[129.6605,-3.2405],[129.6525,-3.221],[129.637,-3.2085],[129.631,-3.1835],[129.6365,-3.175],[129.6165,-3.1795],[129.621,-3.2015],[129.6175,-3.22],[129.613,-3.2295],[129.635,-3.2365],[129.6335,-3.266],[129.64,-3.29],[129.6315,-3.3115],[129.6495,-3.317]]]},"properties":{"code":"81.01.11.2011","name":"Telutih Baru"}},{"type":"Feature","geometry":{"type":"Polygon","coordinates":[[[129.6315,-3.3115],[129.64,-3.29],[129.6335,-3.266],[129.635,-3.2365],[129.613,-3.2295],[129.607,-3.2385],[129.604,-3.2555],[129.611,-3.28],[129.6125,-3.2995],[129.6085,-3.316],[129.6315,-3.3115]]]},"properties":{"code":"81.01.11.2012","name":"Mosso"}},{"type":"Feature","geometry":{"type":"Polygon","coordinates":[[[129.613,-3.2295],[129.609,-3.2235],[129.5885,-3.224],[129.585,-3.2305],[129.595,-3.2425],[129.587,-3.2605],[129.5865,-3.2725],[129.577,-3.2785],[129.578,-3.289],[129.59,-3.305],[129.5915,-3.3125],[129.6085,-3.316],[129.6125,-3.2995],[129.611,-3.28],[129.604,-3.2555],[129.607,-3.2385],[129.613,-3.2295]]]},"properties":{"code":"81.01.11.2013","name":"Hatumete"}},{"type":"Feature","geometry":{"type":"Polygon","coordinates":[[[129.5915,-3.3125],[129.59,-3.305],[129.578,-3.289],[129.577,-3.2785],[129.5865,-3.2725],[129.587,-3.2605],[129.595,-3.2425],[129.585,-3.2305],[129.5405,-3.235],[129.5285,-3.2395],[129.531,-3.275],[129.549,-3.2855],[129.5505,-3.308],[129.5715,-3.3045],[129.5915,-3.3125]]]},"properties":{"code":"81.01.11.2014","name":"Hatu"}},{"type":"Feature","geometry":{"type":"Polygon","coordinates":[[[129.6165,-3.1795],[129.584,-3.175],[129.522,-3.163],[129.506,-3.1685],[129.499,-3.1795],[129.516,-3.2175],[129.5285,-3.2395],[129.5405,-3.235],[129.585,-3.2305],[129.5885,-3.224],[129.609,-3.2235],[129.6175,-3.22],[129.621,-3.2015],[129.6165,-3.1795]]]},"properties":{"code":"81.01.11.2015","name":"PIliana"}},{"type":"Feature","geometry":{"type":"Polygon","coordinates":[[[129.522,-3.163],[129.478,-3.1435],[129.4695,-3.139],[129.4635,-3.1525],[129.469,-3.1765],[129.469,-3.209],[129.479,-3.2285],[129.478,-3.2375],[129.498,-3.2705],[129.5035,-3.305],[129.508,-3.3085],[129.5255,-3.2985],[129.5505,-3.308],[129.549,-3.2855],[129.531,-3.275],[129.5285,-3.2395],[129.516,-3.2175],[129.499,-3.1795],[129.506,-3.1685],[129.522,-3.163]]]},"properties":{"code":"81.01.11.2016","name":"Yaputih"}},{"type":"Feature","geometry":{"type":"Polygon","coordinates":[[[129.4695,-3.139],[129.445,-3.125],[129.418,-3.1275],[129.4125,-3.1365],[129.4125,-3.1615],[129.423,-3.1825],[129.4325,-3.192],[129.4385,-3.229],[129.4485,-3.257],[129.489,-3.319],[129.4995,-3.32],[129.508,-3.3085],[129.5035,-3.305],[129.498,-3.2705],[129.478,-3.2375],[129.479,-3.2285],[129.469,-3.209],[129.469,-3.1765],[129.4635,-3.1525],[129.4695,-3.139]]]},"properties":{"code":"81.01.11.2017","name":"Saunulu"}},{"type":"Feature","geometry":{"type":"Polygon","coordinates":[[[129.445,-3.125],[129.437,-3.121],[129.4035,-3.093],[129.3825,-3.0795],[129.3695,-3.0885],[129.368,-3.1085],[129.377,-3.124],[129.378,-3.149],[129.3815,-3.1645],[129.395,-3.1955],[129.4205,-3.2435],[129.4625,-3.344],[129.4935,-3.39],[129.543,-3.422],[129.5665,-3.422],[129.559,-3.397],[129.546,-3.3775],[129.535,-3.37],[129.5115,-3.3355],[129.489,-3.319],[129.4485,-3.257],[129.4385,-3.229],[129.4325,-3.192],[129.423,-3.1825],[129.4125,-3.1615],[129.4125,-3.1365],[129.418,-3.1275],[129.445,-3.125]]]},"properties":{"code":"81.01.11.2018","name":"Tehoru"}},{"type":"Feature","geometry":{"type":"Polygon","coordinates":[[[129.3825,-3.0795],[129.364,-3.0685],[129.3515,-3.0855],[129.3235,-3.0765],[129.32,-3.0755],[129.3285,-3.0945],[129.3445,-3.1105],[129.349,-3.128],[129.348,-3.1405],[129.356,-3.1655],[129.3805,-3.214],[129.386,-3.2365],[129.398,-3.25],[129.389,-3.2945],[129.3905,-3.305],[129.378,-3.3075],[129.353,-3.3],[129.3275,-3.2975],[129.329,-3.3085],[129.324,-3.3335],[129.3295,-3.3435],[129.326,-3.3565],[129.3075,-3.378],[129.3085,-3.3875],[129.32,-3.406],[129.3095,-3.411],[129.336,-3.417],[129.356,-3.41],[129.366,-3.4145],[129.3765,-3.412],[129.385,-3.417],[129.4005,-3.418],[129.406,-3.4],[129.414,-3.386],[129.4295,-3.3695],[129.452,-3.37],[129.467,-3.393],[129.4675,-3.415],[129.459,-3.4385],[129.4765,-3.448],[129.4805,-3.4555],[129.5335,-3.47],[129.5505,-3.4655],[129.566,-3.446],[129.5665,-3.422],[129.543,-3.422],[129.4935,-3.39],[129.4625,-3.344],[129.4205,-3.2435],[129.395,-3.1955],[129.3815,-3.1645],[129.378,-3.149],[129.377,-3.124],[129.368,-3.1085],[129.3695,-3.0885],[129.3825,-3.0795]]]},"properties":{"code":"81.01.11.2019","name":"Haya"}},{"type":"Feature","geometry":{"type":"Polygon","coordinates":[[[129.459,-3.4385],[129.4675,-3.415],[129.467,-3.393],[129.452,-3.37],[129.4295,-3.3695],[129.414,-3.386],[129.406,-3.4],[129.4005,-3.418],[129.459,-3.4385]]]},"properties":{"code":"81.01.11.2020","name":"Salamahu"}},{"type":"Feature","geometry":{"type":"Polygon","coordinates":[[[128.664,-3.603],[128.643,-3.6015],[128.6465,-3.6105],[128.647,-3.613],[128.6495,-3.6205],[128.6515,-3.622],[128.653,-3.628],[128.66,-3.619],[128.664,-3.603]]]},"properties":{"code":"81.01.12.2001","name":"Booi"}},{"type":"Feature","geometry":{"type":"Polygon","coordinates":[[[128.6525,-3.574],[128.635,-3.571],[128.639,-3.588],[128.643,-3.6015],[128.664,-3.603],[128.666,-3.591],[128.6515,-3.583],[128.6525,-3.574]]]},"properties":{"code":"81.01.12.2002","name":"Paperu"}},{"type":"Feature","geometry":{"type":"Polygon","coordinates":[[[128.654,-3.546],[128.651,-3.5455],[128.6295,-3.5375],[128.63,-3.5625],[128.633,-3.564],[128.635,-3.571],[128.6525,-3.574],[128.6565,-3.5725],[128.662,-3.57],[128.661,-3.565],[128.66,-3.559],[128.654,-3.546]]]},"properties":{"code":"81.01.12.2003","name":"Tiouw"}},{"type":"Feature","geometry":{"type":"Polygon","coordinates":[[[128.639,-3.588],[128.633,-3.564],[128.63,-3.5625],[128.6165,-3.5835],[128.6245,-3.5905],[128.61,-3.5975],[128.6265,-3.6035],[128.638,-3.6225],[128.653,-3.628],[128.6515,-3.622],[128.6495,-3.6205],[128.647,-3.613],[128.6465,-3.6105],[128.643,-3.6015],[128.639,-3.588]]]},"properties":{"code":"81.01.12.2004","name":"Haria"}},{"type":"Feature","geometry":{"type":"Polygon","coordinates":[[[128.6345,-3.5195],[128.6105,-3.504],[128.611,-3.5225],[128.6035,-3.537],[128.5835,-3.535],[128.5695,-3.5245],[128.557,-3.52],[128.5575,-3.533],[128.5775,-3.5485],[128.5965,-3.551],[128.6065,-3.575],[128.6165,-3.5835],[128.63,-3.5625],[128.6295,-3.5375],[128.6345,-3.5195]]]},"properties":{"code":"81.01.12.2005","name":"Porto"}},{"type":"Feature","geometry":{"type":"Polygon","coordinates":[[[128.6105,-3.504],[128.581,-3.494],[128.566,-3.4985],[128.557,-3.52],[128.5695,-3.5245],[128.5835,-3.535],[128.6035,-3.537],[128.611,-3.5225],[128.6105,-3.504]]]},"properties":{"code":"81.01.12.2006","name":"Kulur"}},{"type":"Feature","geometry":{"type":"Polygon","coordinates":[[[128.6735,-3.576],[128.677,-3.555],[128.6685,-3.55],[128.654,-3.546],[128.66,-3.559],[128.661,-3.565],[128.662,-3.57],[128.6565,-3.5725],[128.6735,-3.576]]]},"properties":{"code":"81.01.12.2012","name":"Saparua"}},{"type":"Feature","geometry":{"type":"Polygon","coordinates":[[[128.576,-3.5845],[128.544,-3.5795],[128.507,-3.568],[128.496,-3.564],[128.5,-3.5795],[128.4945,-3.596],[128.4975,-3.624],[128.5145,-3.6065],[128.5235,-3.617],[128.542,-3.614],[128.549,-3.6],[128.5645,-3.5995],[128.576,-3.5845]]]},"properties":{"code":"81.01.13.2001","name":"Aboru"}},{"type":"Feature","geometry":{"type":"Polygon","coordinates":[[[128.496,-3.564],[128.4895,-3.574],[128.4825,-3.5795],[128.4735,-3.598],[128.4735,-3.6165],[128.4975,-3.624],[128.4945,-3.596],[128.5,-3.5795],[128.496,-3.564]]]},"properties":{"code":"81.01.13.2002","name":"Wassu"}},{"type":"Feature","geometry":{"type":"Polygon","coordinates":[[[128.4735,-3.6165],[128.4735,-3.598],[128.4825,-3.5795],[128.4895,-3.574],[128.496,-3.564],[128.4645,-3.5725],[128.4625,-3.583],[128.447,-3.599],[128.4355,-3.6045],[128.434,-3.6125],[128.424,-3.6315],[128.44,-3.631],[128.447,-3.621],[128.456,-3.622],[128.465,-3.614],[128.4735,-3.6165]]]},"properties":{"code":"81.01.13.2003","name":"Oma"}},{"type":"Feature","geometry":{"type":"Polygon","coordinates":[[[128.435,-3.6055],[128.4355,-3.6045],[128.447,-3.599],[128.4625,-3.583],[128.4645,-3.5725],[128.461,-3.579],[128.424,-3.591],[128.4175,-3.609],[128.418,-3.615],[128.427,-3.6135],[128.428,-3.607],[128.4315,-3.607],[128.434,-3.607],[128.435,-3.6055]]]},"properties":{"code":"81.01.13.2004","name":"Haruku"}},{"type":"Feature","geometry":{"type":"MultiPolygon","coordinates":[[[[128.435,-3.6055],[128.434,-3.607],[128.4315,-3.607],[128.428,-3.607],[128.427,-3.6135],[128.418,-3.615],[128.399,-3.6285],[128.404,-3.635],[128.424,-3.6315],[128.434,-3.6125],[128.435,-3.6055]]],[[[128.417,-3.6035],[128.418,-3.603],[128.417,-3.602],[128.417,-3.6035]]]]},"properties":{"code":"81.01.13.2005","name":"Sameth"}},{"type":"Feature","geometry":{"type":"Polygon","coordinates":[[[128.486,-3.5585],[128.4705,-3.566],[128.456,-3.562],[128.4435,-3.554],[128.4345,-3.5585],[128.424,-3.5545],[128.4205,-3.555],[128.423,-3.5695],[128.4105,-3.587],[128.417,-3.602],[128.418,-3.603],[128.417,-3.6035],[128.4175,-3.609],[128.424,-3.591],[128.461,-3.579],[128.4645,-3.5725],[128.496,-3.564],[128.489,-3.56],[128.486,-3.5585]]]},"properties":{"code":"81.01.13.2006","name":"Rohomoni"}},{"type":"Feature","geometry":{"type":"Polygon","coordinates":[[[128.486,-3.5585],[128.463,-3.547],[128.4625,-3.5465],[128.438,-3.553],[128.4215,-3.5495],[128.4205,-3.555],[128.424,-3.5545],[128.4345,-3.5585],[128.4435,-3.554],[128.456,-3.562],[128.4705,-3.566],[128.486,-3.5585]]]},"properties":{"code":"81.01.13.2007","name":"Kabauw"}},{"type":"Feature","geometry":{"type":"Polygon","coordinates":[[[128.434,-3.5205],[128.4215,-3.5245],[128.4135,-3.539],[128.4215,-3.5495],[128.438,-3.553],[128.4625,-3.5465],[128.434,-3.5205]]]},"properties":{"code":"81.01.13.2008","name":"Kailolo"}},{"type":"Feature","geometry":{"type":"Polygon","coordinates":[[[128.478,-3.518],[128.4485,-3.51],[128.434,-3.5205],[128.463,-3.547],[128.489,-3.56],[128.496,-3.564],[128.531,-3.5495],[128.536,-3.5395],[128.5235,-3.5275],[128.501,-3.514],[128.49,-3.518],[128.4895,-3.5195],[128.489,-3.5215],[128.488,-3.523],[128.4885,-3.5245],[128.493,-3.5335],[128.4825,-3.538],[128.478,-3.522],[128.4765,-3.5205],[128.478,-3.518]]]},"properties":{"code":"81.01.13.2009","name":"Pelauw"}},{"type":"Feature","geometry":{"type":"Polygon","coordinates":[[[128.49,-3.518],[128.478,-3.518],[128.4765,-3.5205],[128.478,-3.522],[128.4825,-3.538],[128.493,-3.5335],[128.4885,-3.5245],[128.488,-3.523],[128.489,-3.5215],[128.4895,-3.5195],[128.49,-3.518]]]},"properties":{"code":"81.01.13.2010","name":"Kariu"}},{"type":"Feature","geometry":{"type":"Polygon","coordinates":[[[128.576,-3.5845],[128.5695,-3.5655],[128.5505,-3.5385],[128.536,-3.5395],[128.531,-3.5495],[128.496,-3.564],[128.507,-3.568],[128.544,-3.5795],[128.576,-3.5845]]]},"properties":{"code":"81.01.13.2011","name":"Hulaliu"}},{"type":"Feature","geometry":{"type":"Polygon","coordinates":[[[128.345,-3.5075],[128.337,-3.502],[128.314,-3.507],[128.308,-3.4995],[128.285,-3.4905],[128.258,-3.495],[128.2345,-3.512],[128.234,-3.516],[128.237,-3.5275],[128.249,-3.5465],[128.261,-3.5505],[128.266,-3.554],[128.2885,-3.5475],[128.303,-3.5315],[128.324,-3.534],[128.345,-3.5075]]]},"properties":{"code":"81.01.14.2001","name":"Liang"}},{"type":"Feature","geometry":{"type":"Polygon","coordinates":[[[128.329,-3.588],[128.3215,-3.5685],[128.3265,-3.557],[128.347,-3.5405],[128.3525,-3.522],[128.345,-3.5075],[128.324,-3.534],[128.303,-3.5315],[128.2885,-3.5475],[128.266,-3.554],[128.261,-3.5505],[128.261,-3.563],[128.243,-3.5745],[128.242,-3.5755],[128.2445,-3.5765],[128.2455,-3.577],[128.251,-3.5835],[128.2585,-3.5875],[128.261,-3.5865],[128.265,-3.586],[128.291,-3.5835],[128.2965,-3.585],[128.301,-3.5845],[128.322,-3.587],[128.329,-3.588]]]},"properties":{"code":"81.01.14.2002","name":"Waai"}},{"type":"Feature","geometry":{"type":"Polygon","coordinates":[[[128.2965,-3.585],[128.291,-3.5835],[128.266,-3.586],[128.2665,-3.587],[128.267,-3.5875],[128.2685,-3.589],[128.272,-3.589],[128.277,-3.592],[128.2785,-3.5925],[128.2865,-3.5975],[128.2875,-3.5985],[128.2885,-3.6015],[128.309,-3.6045],[128.307,-3.6095],[128.3065,-3.6105],[128.3065,-3.611],[128.3235,-3.616],[128.334,-3.6125],[128.355,-3.6],[128.3405,-3.59],[128.329,-3.588],[128.322,-3.587],[128.301,-3.5845],[128.2965,-3.585]]]},"properties":{"code":"81.01.14.2003","name":"Tulehu"}},{"type":"Feature","geometry":{"type":"Polygon","coordinates":[[[128.334,-3.6125],[128.3235,-3.616],[128.3215,-3.618],[128.319,-3.6215],[128.3035,-3.625],[128.311,-3.6325],[128.347,-3.636],[128.355,-3.6305],[128.334,-3.6125]]]},"properties":{"code":"81.01.14.2004","name":"Tial"}},{"type":"Feature","geometry":{"type":"Polygon","coordinates":[[[128.355,-3.6305],[128.355,-3.6],[128.334,-3.6125],[128.355,-3.6305]]]},"properties":{"code":"81.01.14.2005","name":"Tengah Tengah"}},{"type":"Feature","geometry":{"type":"Polygon","coordinates":[[[128.3235,-3.616],[128.3065,-3.611],[128.3065,-3.6105],[128.307,-3.6095],[128.309,-3.6045],[128.2885,-3.6015],[128.2875,-3.5985],[128.2865,-3.5975],[128.2785,-3.5925],[128.277,-3.592],[128.272,-3.589],[128.2685,-3.589],[128.267,-3.5875],[128.2665,-3.587],[128.266,-3.586],[128.261,-3.5865],[128.2585,-3.5875],[128.269,-3.599],[128.2705,-3.6165],[128.3035,-3.625],[128.319,-3.6215],[128.3215,-3.618],[128.3235,-3.616]]]},"properties":{"code":"81.01.14.2006","name":"Suli"}},{"type":"Feature","geometry":{"type":"Polygon","coordinates":[[[127.948,-3.681],[127.9355,-3.676],[127.9225,-3.681],[127.9245,-3.703],[127.9335,-3.706],[127.9695,-3.699],[127.981,-3.702],[127.9865,-3.708],[127.995,-3.695],[127.9735,-3.686],[127.948,-3.681]]]},"properties":{"code":"81.01.15.2006","name":"Asilulu"}},{"type":"Feature","geometry":{"type":"Polygon","coordinates":[[[128.0005,-3.6765],[127.9785,-3.666],[127.9565,-3.66],[127.9355,-3.676],[127.948,-3.681],[127.9735,-3.686],[127.995,-3.695],[128.0065,-3.679],[128.0005,-3.6765]]]},"properties":{"code":"81.01.15.2007","name":"Ureng"}},{"type":"Feature","geometry":{"type":"Polygon","coordinates":[[[128.0245,-3.6535],[128.0225,-3.648],[128.007,-3.6395],[128.0055,-3.637],[127.9975,-3.622],[127.9755,-3.64],[127.966,-3.6415],[127.9565,-3.66],[127.9785,-3.666],[128.0005,-3.6765],[128.0065,-3.679],[128.0095,-3.6835],[128.0245,-3.6535]]]},"properties":{"code":"81.01.15.2008","name":"Negeri Lima"}},{"type":"Feature","geometry":{"type":"Polygon","coordinates":[[[128.035,-3.593],[128.0255,-3.593],[128.022,-3.6025],[127.9975,-3.622],[128.0055,-3.637],[128.007,-3.6395],[128.0225,-3.648],[128.0245,-3.6535],[128.037,-3.6635],[128.058,-3.6905],[128.0665,-3.694],[128.068,-3.6765],[128.069,-3.675],[128.0675,-3.6735],[128.066,-3.673],[128.063,-3.6665],[128.056,-3.6585],[128.0495,-3.6455],[128.05,-3.6335],[128.051,-3.631],[128.05,-3.629],[128.0385,-3.619],[128.034,-3.6055],[128.032,-3.6025],[128.031,-3.5965],[128.0325,-3.5955],[128.035,-3.593]]]},"properties":{"code":"81.01.15.2009","name":"Seith"}},{"type":"Feature","geometry":{"type":"Polygon","coordinates":[[[128.082,-3.5865],[128.0755,-3.59],[128.052,-3.5895],[128.035,-3.593],[128.0325,-3.5955],[128.031,-3.5965],[128.032,-3.6025],[128.034,-3.6055],[128.0385,-3.619],[128.05,-3.629],[128.051,-3.631],[128.05,-3.6335],[128.0495,-3.6455],[128.056,-3.6585],[128.063,-3.6665],[128.066,-3.673],[128.0675,-3.6735],[128.069,-3.675],[128.071,-3.6725],[128.1005,-3.652],[128.1025,-3.651],[128.101,-3.649],[128.1005,-3.6475],[128.094,-3.6385],[128.0875,-3.6305],[128.0805,-3.6255],[128.0815,-3.61],[128.0895,-3.5945],[128.082,-3.5865]]]},"properties":{"code":"81.01.15.2010","name":"Kaitetu"}},{"type":"Feature","geometry":{"type":"Polygon","coordinates":[[[128.1325,-3.5845],[128.0995,-3.587],[128.0865,-3.5805],[128.082,-3.5865],[128.0895,-3.5945],[128.0815,-3.61],[128.0805,-3.6255],[128.0875,-3.6305],[128.094,-3.6385],[128.1005,-3.6475],[128.101,-3.649],[128.1025,-3.651],[128.1085,-3.648],[128.1195,-3.6445],[128.1225,-3.644],[128.122,-3.6335],[128.133,-3.6135],[128.13,-3.5885],[128.1325,-3.5845]]]},"properties":{"code":"81.01.15.2011","name":"Hila"}},{"type":"Feature","geometry":{"type":"Polygon","coordinates":[[[128.165,-3.588],[128.1385,-3.591],[128.1325,-3.5845],[128.13,-3.5885],[128.133,-3.6135],[128.122,-3.6335],[128.1225,-3.644],[128.1315,-3.6435],[128.151,-3.644],[128.1515,-3.644],[128.162,-3.6455],[128.174,-3.6385],[128.1765,-3.6395],[128.1865,-3.629],[128.186,-3.6285],[128.1765,-3.624],[128.1655,-3.6085],[128.1655,-3.6045],[128.1655,-3.6025],[128.1635,-3.5995],[128.165,-3.598],[128.165,-3.595],[128.165,-3.588]]]},"properties":{"code":"81.01.15.2012","name":"Wakal"}},{"type":"Feature","geometry":{"type":"MultiPolygon","coordinates":[[[[128.172,-3.596],[128.1765,-3.5995],[128.172,-3.5895],[128.1745,-3.5955],[128.172,-3.596]]],[[[128.168,-3.5925],[128.1705,-3.592],[128.169,-3.587],[128.1665,-3.588],[128.168,-3.5925]]],[[[128.2375,-3.577],[128.236,-3.576],[128.215,-3.577],[128.211,-3.5765],[128.198,-3.594],[128.2075,-3.602],[128.2145,-3.6195],[128.222,-3.6095],[128.2275,-3.5975],[128.228,-3.594],[128.221,-3.5865],[128.226,-3.578],[128.232,-3.5815],[128.2375,-3.578],[128.2375,-3.577]]],[[[128.1975,-3.5805],[128.2,-3.5755],[128.1985,-3.575],[128.1945,-3.574],[128.19,-3.58],[128.1975,-3.5805]]]]},"properties":{"code":"81.01.15.2013","name":"Hitulama"}},{"type":"Feature","geometry":{"type":"MultiPolygon","coordinates":[[[[128.232,-3.5815],[128.226,-3.578],[128.221,-3.5865],[128.228,-3.594],[128.2285,-3.587],[128.229,-3.5845],[128.232,-3.5815]]],[[[128.19,-3.58],[128.1945,-3.574],[128.18,-3.5705],[128.1795,-3.581],[128.169,-3.587],[128.1705,-3.592],[128.168,-3.5925],[128.1665,-3.588],[128.165,-3.588],[128.165,-3.595],[128.165,-3.598],[128.1635,-3.5995],[128.1655,-3.6025],[128.1655,-3.6045],[128.1655,-3.6085],[128.1765,-3.624],[128.186,-3.6285],[128.187,-3.628],[128.203,-3.63],[128.2115,-3.622],[128.2145,-3.622],[128.2145,-3.6195],[128.2075,-3.602],[128.198,-3.594],[128.211,-3.5765],[128.2,-3.5755],[128.1975,-3.5805],[128.19,-3.58]],[[128.1745,-3.5955],[128.172,-3.5895],[128.1765,-3.5995],[128.172,-3.596],[128.1745,-3.5955]]]]},"properties":{"code":"81.01.15.2014","name":"Hitumessing"}},{"type":"Feature","geometry":{"type":"Polygon","coordinates":[[[128.261,-3.5505],[128.249,-3.5465],[128.244,-3.557],[128.2315,-3.5535],[128.1905,-3.5575],[128.18,-3.5705],[128.1985,-3.575],[128.215,-3.577],[128.236,-3.576],[128.2375,-3.577],[128.2375,-3.578],[128.243,-3.5745],[128.261,-3.563],[128.261,-3.5505]]]},"properties":{"code":"81.01.15.2015","name":"Mamala"}},{"type":"Feature","geometry":{"type":"Polygon","coordinates":[[[128.249,-3.5465],[128.237,-3.5275],[128.234,-3.516],[128.224,-3.516],[128.2135,-3.5255],[128.2095,-3.5385],[128.1975,-3.545],[128.1905,-3.5575],[128.2315,-3.5535],[128.244,-3.557],[128.249,-3.5465]]]},"properties":{"code":"81.01.15.2016","name":"Morella"}},{"type":"Feature","geometry":{"type":"Polygon","coordinates":[[[128.809,-3.663],[128.8065,-3.6475],[128.791,-3.6445],[128.7825,-3.6655],[128.809,-3.663]]]},"properties":{"code":"81.01.16.2001","name":"Ameth"}},{"type":"Feature","geometry":{"type":"Polygon","coordinates":[[[128.775,-3.6925],[128.7805,-3.68],[128.78,-3.6665],[128.7645,-3.6755],[128.7615,-3.688],[128.775,-3.6925]]]},"properties":{"code":"81.01.16.2002","name":"Titawaai"}},{"type":"Feature","geometry":{"type":"Polygon","coordinates":[[[128.7825,-3.6655],[128.78,-3.6665],[128.7805,-3.68],[128.775,-3.6925],[128.7865,-3.6935],[128.805,-3.6855],[128.7955,-3.6815],[128.7825,-3.6655]]]},"properties":{"code":"81.01.16.2003","name":"Abubu"}},{"type":"Feature","geometry":{"type":"Polygon","coordinates":[[[128.809,-3.663],[128.7825,-3.6655],[128.7955,-3.6815],[128.805,-3.6855],[128.8115,-3.6755],[128.809,-3.663]]]},"properties":{"code":"81.01.16.2004","name":"Akoon"}},{"type":"Feature","geometry":{"type":"Polygon","coordinates":[[[128.7825,-3.6655],[128.791,-3.6445],[128.7805,-3.6455],[128.78,-3.6665],[128.7825,-3.6655]]]},"properties":{"code":"81.01.16.2005","name":"Nalahia"}},{"type":"Feature","geometry":{"type":"Polygon","coordinates":[[[128.7805,-3.6455],[128.77,-3.6485],[128.773,-3.661],[128.78,-3.6665],[128.7805,-3.6455]]]},"properties":{"code":"81.01.16.2006","name":"Sila"}},{"type":"Feature","geometry":{"type":"Polygon","coordinates":[[[128.77,-3.6485],[128.759,-3.652],[128.759,-3.6675],[128.7645,-3.6755],[128.78,-3.6665],[128.773,-3.661],[128.77,-3.6485]]]},"properties":{"code":"81.01.16.2007","name":"Leinitu"}},{"type":"Feature","geometry":{"type":"Polygon","coordinates":[[[128.9645,-3.2925],[128.9615,-3.2935],[128.9595,-3.297],[128.9465,-3.307],[128.948,-3.3095],[128.957,-3.317],[128.9695,-3.3085],[128.9715,-3.308],[128.9715,-3.307],[128.971,-3.306],[128.9645,-3.2925]]]},"properties":{"code":"81.01.17.1001","name":"Namaelo"}},{"type":"Feature","geometry":{"type":"Polygon","coordinates":[[[128.9465,-3.307],[128.945,-3.306],[128.94,-3.3095],[128.9515,-3.312],[128.948,-3.3095],[128.9465,-3.307]]]},"properties":{"code":"81.01.17.1002","name":"Namasina"}},{"type":"Feature","geometry":{"type":"Polygon","coordinates":[[[128.9585,-3.2955],[128.945,-3.306],[128.9465,-3.307],[128.9595,-3.297],[128.9585,-3.2955]]]},"properties":{"code":"81.01.17.1003","name":"Ampera"}},{"type":"Feature","geometry":{"type":"Polygon","coordinates":[[[128.9595,-3.297],[128.9615,-3.2935],[128.9585,-3.2955],[128.9595,-3.297]]]},"properties":{"code":"81.01.17.1004","name":"Lesane"}},{"type":"Feature","geometry":{"type":"Polygon","coordinates":[[[128.975,-3.3045],[128.966,-3.2915],[128.9645,-3.2925],[128.971,-3.306],[128.975,-3.3045]]]},"properties":{"code":"81.01.17.1005","name":"Letwaru"}},{"type":"Feature","geometry":{"type":"Polygon","coordinates":[[[129.181,-2.9585],[129.1565,-2.9485],[129.14,-2.9585],[129.1315,-2.9695],[129.1155,-2.9555],[129.087,-2.941],[129.087,-2.942],[129.0885,-2.9425],[129.0875,-2.9425],[129.0895,-2.9435],[129.089,-2.9445],[129.0885,-2.945],[129.087,-2.9455],[129.0885,-2.948],[129.092,-2.952],[129.093,-2.954],[129.09,-2.9555],[129.087,-2.956],[129.085,-2.958],[129.0905,-2.971],[129.0885,-2.997],[129.0895,-2.999],[129.09,-3.0005],[129.09,-3.0025],[129.09,-3.003],[129.09,-3.007],[129.1275,-2.9995],[129.167,-2.9965],[129.1705,-2.983],[129.1795,-2.9715],[129.181,-2.9585]]]},"properties":{"code":"81.01.20.2001","name":"Saleman"}},{"type":"Feature","geometry":{"type":"MultiPolygon","coordinates":[[[[129.087,-2.941],[129.0805,-2.9285],[129.082,-2.9215],[129.074,-2.9105],[129.059,-2.9245],[129.0485,-2.924],[129.0475,-2.928],[129.041,-2.9395],[129.0405,-2.9395],[129.0385,-2.953],[129.0375,-2.955],[129.034,-2.965],[129.034,-2.9665],[129.0365,-2.9715],[129.037,-2.9755],[129.041,-2.9775],[129.0445,-3.0175],[129.0415,-3.0245],[129.0335,-3.0315],[129.033,-3.036],[129.0335,-3.035],[129.0445,-3.023],[129.068,-3.012],[129.09,-3.007],[129.09,-3.003],[129.09,-3.0025],[129.09,-3.0005],[129.0895,-2.999],[129.0885,-2.997],[129.0905,-2.971],[129.085,-2.958],[129.087,-2.956],[129.09,-2.9555],[129.093,-2.954],[129.092,-2.952],[129.0885,-2.948],[129.087,-2.9455],[129.0885,-2.945],[129.089,-2.9445],[129.0895,-2.9435],[129.0875,-2.9425],[129.0885,-2.9425],[129.087,-2.942],[129.087,-2.941]]],[[[129.0535,-2.9045],[129.053,-2.895],[129.0515,-2.8965],[129.053,-2.904],[129.0535,-2.9045]]]]},"properties":{"code":"81.01.20.2002","name":"Horale"}},{"type":"Feature","geometry":{"type":"Polygon","coordinates":[[[129.074,-2.9105],[129.0665,-2.9095],[129.066,-2.8925],[129.0565,-2.8815],[129.045,-2.8855],[129.038,-2.8965],[129.038,-2.896],[129.038,-2.898],[129.038,-2.902],[129.0355,-2.904],[129.034,-2.9055],[129.0335,-2.9165],[129.0445,-2.9165],[129.041,-2.935],[129.041,-2.9395],[129.0475,-2.928],[129.0485,-2.924],[129.059,-2.9245],[129.074,-2.9105]],[[129.0515,-2.8965],[129.053,-2.895],[129.0535,-2.9045],[129.053,-2.904],[129.0515,-2.8965]]]},"properties":{"code":"81.01.20.2003","name":"Wailulu"}},{"type":"Feature","geometry":{"type":"Polygon","coordinates":[[[129.0705,-2.861],[129.0695,-2.861],[129.069,-2.8615],[129.0685,-2.8605],[129.056,-2.849],[129.054,-2.8515],[129.039,-2.8575],[129.0375,-2.8595],[129.036,-2.86],[129.0395,-2.878],[129.038,-2.8965],[129.045,-2.8855],[129.0565,-2.8815],[129.066,-2.8925],[129.071,-2.882],[129.069,-2.877],[129.0705,-2.876],[129.067,-2.8725],[129.0695,-2.8715],[129.0705,-2.861]]]},"properties":{"code":"81.01.20.2004","name":"Paa"}},{"type":"Feature","geometry":{"type":"Polygon","coordinates":[[[129.0495,-2.803],[129.033,-2.796],[129.036,-2.86],[129.0375,-2.8595],[129.039,-2.8575],[129.054,-2.8515],[129.056,-2.849],[129.0685,-2.8605],[129.069,-2.8615],[129.0695,-2.861],[129.0705,-2.861],[129.0775,-2.856],[129.0715,-2.846],[129.0695,-2.8215],[129.066,-2.81],[129.0495,-2.803]]]},"properties":{"code":"81.01.20.2005","name":"Karlutu Kara"}},{"type":"Feature","geometry":{"type":"MultiPolygon","coordinates":[[[[129.066,-2.81],[129.0525,-2.7955],[129.0495,-2.803],[129.066,-2.81]]],[[[128.991,-2.726],[128.9805,-2.7315],[128.981,-2.7435],[128.9925,-2.734],[128.991,-2.726]]]]},"properties":{"code":"81.01.20.2006","name":"Pasanea"}},{"type":"Feature","geometry":{"type":"Polygon","coordinates":[[[129.0525,-2.7955],[129.033,-2.796],[129.0495,-2.803],[129.0525,-2.7955]]]},"properties":{"code":"81.01.20.2007","name":"Labuan"}},{"type":"Feature","geometry":{"type":"Polygon","coordinates":[[[129.036,-2.86],[129.033,-2.796],[129.018,-2.8035],[129.0035,-2.8185],[128.99,-2.8255],[128.9975,-2.833],[128.994,-2.842],[129.0005,-2.86],[129.008,-2.8925],[129.0005,-2.9075],[129.0025,-2.926],[128.999,-2.9435],[129.0035,-2.9535],[128.9925,-2.9675],[129.0035,-2.9865],[129.0055,-3.002],[129.031,-3.0185],[129.0265,-3.0265],[129.033,-3.035],[129.033,-3.036],[129.0335,-3.0315],[129.0415,-3.0245],[129.0445,-3.0175],[129.041,-2.9775],[129.037,-2.9755],[129.0365,-2.9715],[129.034,-2.9665],[129.034,-2.965],[129.0375,-2.955],[129.0385,-2.953],[129.0405,-2.9395],[129.041,-2.935],[129.0445,-2.9165],[129.0335,-2.9165],[129.034,-2.9055],[129.0355,-2.904],[129.038,-2.902],[129.038,-2.898],[129.038,-2.896],[129.038,-2.8965],[129.0395,-2.878],[129.036,-2.86]]]},"properties":{"code":"81.01.20.2008","name":"Gale-gale"}},{"type":"Feature","geometry":{"type":"MultiPolygon","coordinates":[[[[128.8745,-2.8585],[128.868,-2.86],[128.8745,-2.864],[128.875,-2.863],[128.8745,-2.8585]]],[[[128.99,-2.8255],[128.9545,-2.843],[128.9195,-2.852],[128.89,-2.854],[128.8985,-2.862],[128.905,-2.8875],[128.926,-2.908],[128.938,-2.929],[128.9535,-2.939],[128.9625,-2.9655],[128.9645,-2.9795],[128.96,-2.999],[128.9385,-3.0305],[129.0095,-3.0355],[129.033,-3.036],[129.033,-3.035],[129.0265,-3.0265],[129.031,-3.0185],[129.0055,-3.002],[129.0035,-2.9865],[128.9925,-2.9675],[129.0035,-2.9535],[128.999,-2.9435],[129.0025,-2.926],[129.0005,-2.9075],[129.008,-2.8925],[129.0005,-2.86],[128.994,-2.842],[128.9975,-2.833],[128.99,-2.8255]]]]},"properties":{"code":"81.01.20.2009","name":"Latea"}},{"type":"Feature","geometry":{"type":"Polygon","coordinates":[[[128.9385,-3.0305],[128.96,-2.999],[128.9645,-2.9795],[128.9625,-2.9655],[128.9535,-2.939],[128.938,-2.929],[128.926,-2.908],[128.905,-2.8875],[128.8985,-2.862],[128.89,-2.854],[128.8745,-2.8585],[128.875,-2.863],[128.874,-2.8665],[128.865,-2.8955],[128.878,-2.9085],[128.887,-2.9235],[128.89,-2.9425],[128.9035,-2.976],[128.889,-2.993],[128.885,-3.003],[128.891,-3.0415],[128.913,-3.032],[128.9385,-3.0305]]]},"properties":{"code":"81.01.20.2010","name":"Lisabata Timur"}},{"type":"Feature","geometry":{"type":"Polygon","coordinates":[[[128.8745,-2.864],[128.868,-2.86],[128.839,-2.8665],[128.827,-2.866],[128.8175,-2.887],[128.819,-2.899],[128.8195,-2.9635],[128.815,-2.9735],[128.813,-3.0335],[128.816,-3.0625],[128.856,-3.052],[128.865,-3.046],[128.891,-3.0415],[128.885,-3.003],[128.889,-2.993],[128.9035,-2.976],[128.89,-2.9425],[128.887,-2.9235],[128.878,-2.9085],[128.865,-2.8955],[128.874,-2.8665],[128.8745,-2.864]]]},"properties":{"code":"81.01.20.2011","name":"Rumahwey"}},{"type":"Feature","geometry":{"type":"Polygon","coordinates":[[[128.827,-2.866],[128.802,-2.867],[128.789,-2.864],[128.753,-2.8505],[128.755,-2.866],[128.7515,-2.8785],[128.7535,-2.8885],[128.751,-2.8895],[128.751,-2.8935],[128.7505,-2.8945],[128.7505,-2.898],[128.7515,-2.899],[128.7515,-2.901],[128.7505,-2.9055],[128.7515,-2.9065],[128.7525,-2.9065],[128.7565,-2.9205],[128.7575,-2.9225],[128.755,-2.924],[128.7575,-2.9265],[128.763,-2.9365],[128.7605,-2.94],[128.756,-2.958],[128.7545,-2.9565],[128.754,-2.958],[128.7655,-2.9655],[128.771,-2.977],[128.793,-2.9915],[128.8075,-2.9955],[128.786,-3.0065],[128.782,-3.015],[128.776,-3.042],[128.776,-3.0425],[128.8135,-3.0385],[128.813,-3.0335],[128.815,-2.9735],[128.8195,-2.9635],[128.819,-2.899],[128.8175,-2.887],[128.827,-2.866]]]},"properties":{"code":"81.01.20.2012","name":"Warasiwa"}},{"type":"Feature","geometry":{"type":"Polygon","coordinates":[[[129.071,-2.882],[129.0705,-2.876],[129.069,-2.877],[129.071,-2.882]]]},"properties":{"code":"81.01.20.2013","name":"Herlau Pauni"}},{"type":"Feature","geometry":{"type":"Polygon","coordinates":[[[129.0095,-3.0355],[128.9385,-3.0305],[128.913,-3.032],[128.913,-3.0715],[128.9235,-3.1215],[128.9475,-3.1785],[128.9365,-3.211],[128.9555,-3.2205],[128.9615,-3.213],[128.968,-3.203],[128.9705,-3.2],[128.976,-3.1945],[128.983,-3.1765],[128.986,-3.173],[128.976,-3.1405],[128.961,-3.134],[128.9665,-3.1215],[128.9655,-3.1045],[128.9715,-3.091],[128.9615,-3.07],[128.985,-3.052],[128.985,-3.0445],[129.0095,-3.0355]]]},"properties":{"code":"81.01.21.2001","name":"Waraka"}},{"type":"Feature","geometry":{"type":"Polygon","coordinates":[[[128.9365,-3.211],[128.9475,-3.1785],[128.9235,-3.1215],[128.913,-3.0715],[128.913,-3.032],[128.891,-3.0415],[128.865,-3.046],[128.856,-3.052],[128.8645,-3.063],[128.8775,-3.097],[128.8875,-3.114],[128.8875,-3.123],[128.879,-3.131],[128.8825,-3.1445],[128.8825,-3.174],[128.889,-3.1855],[128.8895,-3.2035],[128.9365,-3.211]]]},"properties":{"code":"81.01.21.2002","name":"Tananahu"}},{"type":"Feature","geometry":{"type":"Polygon","coordinates":[[[128.8895,-3.2035],[128.889,-3.1855],[128.8825,-3.174],[128.8825,-3.1445],[128.879,-3.131],[128.8875,-3.123],[128.8875,-3.114],[128.8775,-3.097],[128.8645,-3.063],[128.856,-3.052],[128.816,-3.0625],[128.8255,-3.104],[128.8365,-3.1025],[128.8495,-3.12],[128.8595,-3.1465],[128.8595,-3.1555],[128.8715,-3.1745],[128.873,-3.1965],[128.877,-3.2015],[128.8895,-3.2035]]]},"properties":{"code":"81.01.21.2003","name":"Liang"}},{"type":"Feature","geometry":{"type":"Polygon","coordinates":[[[128.816,-3.0625],[128.8135,-3.0385],[128.776,-3.0425],[128.771,-3.0525],[128.7745,-3.063],[128.8155,-3.066],[128.813,-3.08],[128.806,-3.087],[128.8075,-3.111],[128.8005,-3.128],[128.799,-3.142],[128.793,-3.1545],[128.7935,-3.1685],[128.8185,-3.1995],[128.8235,-3.2155],[128.835,-3.2405],[128.838,-3.241],[128.8405,-3.2395],[128.8505,-3.229],[128.8585,-3.2115],[128.8775,-3.206],[128.877,-3.2015],[128.873,-3.1965],[128.8715,-3.1745],[128.8595,-3.1555],[128.8595,-3.1465],[128.8495,-3.12],[128.8365,-3.1025],[128.8255,-3.104],[128.816,-3.0625]]]},"properties":{"code":"81.01.21.2004","name":"Sahulauw"}},{"type":"Feature","geometry":{"type":"Polygon","coordinates":[[[127.975,-3.7005],[127.9695,-3.699],[127.9335,-3.706],[127.9245,-3.703],[127.9175,-3.7195],[127.9315,-3.7485],[127.955,-3.73],[127.9705,-3.7105],[127.975,-3.7005]]]},"properties":{"code":"81.01.22.2001","name":"Larike"}},{"type":"Feature","geometry":{"type":"Polygon","coordinates":[[[127.9865,-3.708],[127.981,-3.702],[127.975,-3.7005],[127.9705,-3.7105],[127.955,-3.73],[127.9315,-3.7485],[127.9435,-3.7745],[127.9645,-3.7735],[127.9775,-3.7815],[127.9805,-3.7585],[127.99,-3.735],[127.9865,-3.708]]]},"properties":{"code":"81.01.22.2002","name":"Wakasihu"}},{"type":"Feature","geometry":{"type":"Polygon","coordinates":[[[128.024,-3.752],[128.013,-3.717],[128.0035,-3.702],[127.995,-3.695],[127.9865,-3.708],[127.99,-3.735],[127.9805,-3.7585],[127.9775,-3.7815],[127.9985,-3.781],[128.0095,-3.7675],[128.0195,-3.7645],[128.024,-3.752]]]},"properties":{"code":"81.01.22.2003","name":"Allang"}},{"type":"Feature","geometry":{"type":"Polygon","coordinates":[[[128.0095,-3.6835],[128.0065,-3.679],[127.995,-3.695],[128.0035,-3.702],[128.013,-3.717],[128.024,-3.752],[128.043,-3.7325],[128.039,-3.7195],[128.016,-3.7055],[128.0095,-3.6835]]]},"properties":{"code":"81.01.22.2004","name":"Liliboy"}},{"type":"Feature","geometry":{"type":"Polygon","coordinates":[[[128.0665,-3.694],[128.058,-3.6905],[128.037,-3.6635],[128.0245,-3.6535],[128.0095,-3.6835],[128.016,-3.7055],[128.039,-3.7195],[128.043,-3.7325],[128.069,-3.7205],[128.0845,-3.722],[128.0855,-3.7155],[128.0665,-3.694]]]},"properties":{"code":"81.01.22.2005","name":"Hatu"}},{"type":"Feature","geometry":{"type":"Polygon","coordinates":[[[129.9,-3.2585],[129.9015,-3.233],[129.8965,-3.223],[129.8895,-3.2255],[129.8785,-3.229],[129.8695,-3.239],[129.858,-3.273],[129.8605,-3.2835],[129.853,-3.3135],[129.8395,-3.3305],[129.8585,-3.3365],[129.859,-3.319],[129.8715,-3.307],[129.8815,-3.2915],[129.881,-3.2745],[129.893,-3.261],[129.895,-3.26],[129.9,-3.2585]]]},"properties":{"code":"81.01.23.2001","name":"Ulahahan"}},{"type":"Feature","geometry":{"type":"Polygon","coordinates":[[[129.8395,-3.3305],[129.853,-3.3135],[129.8605,-3.2835],[129.858,-3.273],[129.8695,-3.239],[129.8785,-3.229],[129.8435,-3.235],[129.8475,-3.26],[129.8355,-3.284],[129.8325,-3.311],[129.826,-3.3305],[129.8395,-3.3305]]]},"properties":{"code":"81.01.23.2002","name":"Laha Kaba"}},{"type":"Feature","geometry":{"type":"Polygon","coordinates":[[[129.707,-3.181],[129.7015,-3.1805],[129.6875,-3.1755],[129.677,-3.175],[129.6655,-3.186],[129.6625,-3.1985],[129.667,-3.212],[129.687,-3.239],[129.686,-3.247],[129.6755,-3.257],[129.6715,-3.297],[129.6605,-3.3175],[129.6715,-3.3225],[129.685,-3.322],[129.696,-3.28],[129.6965,-3.2675],[129.705,-3.2365],[129.7085,-3.2065],[129.707,-3.181]]]},"properties":{"code":"81.01.23.2003","name":"Lafa"}},{"type":"Feature","geometry":{"type":"Polygon","coordinates":[[[129.829,-3.2295],[129.8195,-3.2265],[129.8125,-3.2235],[129.815,-3.25],[129.829,-3.2655],[129.816,-3.281],[129.809,-3.298],[129.8055,-3.3215],[129.8175,-3.324],[129.822,-3.296],[129.836,-3.264],[129.8285,-3.2375],[129.829,-3.2295]]]},"properties":{"code":"81.01.23.2004","name":"Yamalatu"}},{"type":"Feature","geometry":{"type":"Polygon","coordinates":[[[129.8125,-3.2235],[129.7975,-3.22],[129.8005,-3.2315],[129.7985,-3.259],[129.8045,-3.2705],[129.796,-3.281],[129.7895,-3.3165],[129.7915,-3.3245],[129.8055,-3.3215],[129.809,-3.298],[129.816,-3.281],[129.829,-3.2655],[129.815,-3.25],[129.8125,-3.2235]]]},"properties":{"code":"81.01.23.2005","name":"Hunisi"}},{"type":"Feature","geometry":{"type":"Polygon","coordinates":[[[129.7975,-3.22],[129.7805,-3.212],[129.772,-3.2],[129.7595,-3.2295],[129.7565,-3.2415],[129.776,-3.2595],[129.761,-3.277],[129.7555,-3.3085],[129.749,-3.328],[129.7675,-3.331],[129.783,-3.3285],[129.7895,-3.3165],[129.796,-3.281],[129.8045,-3.2705],[129.7985,-3.259],[129.8005,-3.2315],[129.7975,-3.22]]]},"properties":{"code":"81.01.23.2006","name":"Laimu"}},{"type":"Feature","geometry":{"type":"Polygon","coordinates":[[[129.772,-3.2],[129.7625,-3.189],[129.742,-3.181],[129.7415,-3.2035],[129.745,-3.2305],[129.738,-3.25],[129.7345,-3.2805],[129.721,-3.3155],[129.7345,-3.316],[129.749,-3.328],[129.7555,-3.3085],[129.761,-3.277],[129.776,-3.2595],[129.7565,-3.2415],[129.7595,-3.2295],[129.772,-3.2]]]},"properties":{"code":"81.01.23.2007","name":"Maneoratu"}},{"type":"Feature","geometry":{"type":"Polygon","coordinates":[[[129.742,-3.181],[129.7325,-3.179],[129.715,-3.182],[129.707,-3.181],[129.7085,-3.2065],[129.705,-3.2365],[129.6965,-3.2675],[129.696,-3.28],[129.685,-3.322],[129.702,-3.318],[129.714,-3.317],[129.7175,-3.316],[129.719,-3.316],[129.721,-3.3155],[129.7345,-3.2805],[129.738,-3.25],[129.745,-3.2305],[129.7415,-3.2035],[129.742,-3.181]]]},"properties":{"code":"81.01.23.2008","name":"Tehua"}},{"type":"Feature","geometry":{"type":"Polygon","coordinates":[[[129.8435,-3.235],[129.829,-3.2295],[129.8285,-3.2375],[129.836,-3.264],[129.822,-3.296],[129.8175,-3.324],[129.826,-3.3305],[129.8325,-3.311],[129.8355,-3.284],[129.8475,-3.26],[129.8435,-3.235]]]},"properties":{"code":"81.01.23.2009","name":"Laha"}},{"type":"Feature","geometry":{"type":"Polygon","coordinates":[[[129.677,-3.175],[129.6445,-3.173],[129.6365,-3.175],[129.631,-3.1835],[129.637,-3.2085],[129.6525,-3.221],[129.6605,-3.2405],[129.658,-3.281],[129.6505,-3.3025],[129.6495,-3.317],[129.6605,-3.3175],[129.6715,-3.297],[129.6755,-3.257],[129.686,-3.247],[129.687,-3.239],[129.667,-3.212],[129.6625,-3.1985],[129.6655,-3.186],[129.677,-3.175]]]},"properties":{"code":"81.01.23.2010","name":"Wolu"}},{"type":"Feature","geometry":{"type":"Polygon","coordinates":[[[129.8805,-2.9105],[129.8615,-2.916],[129.849,-2.935],[129.8765,-2.957],[129.8745,-2.9595],[129.884,-2.9675],[129.8935,-2.9745],[129.8855,-2.994],[129.8785,-3.0025],[129.877,-3.02],[129.8755,-3.02],[129.8755,-3.021],[129.873,-3.0215],[129.8735,-3.023],[129.8745,-3.028],[129.8745,-3.0305],[129.8735,-3.0325],[129.8735,-3.0335],[129.863,-3.036],[129.86,-3.049],[129.8645,-3.0735],[129.86,-3.0845],[129.8485,-3.092],[129.858,-3.1085],[129.853,-3.1185],[129.8355,-3.13],[129.8295,-3.143],[129.903,-3.1585],[129.903,-3.16],[129.972,-3.174],[129.989,-3.1455],[129.985,-3.129],[130.008,-3.1215],[130.017,-3.105],[130.0355,-3.0925],[130.032,-3.0715],[130.0115,-3.053],[130.0105,-3.0355],[130.02,-3.0165],[130.01,-2.9785],[129.998,-2.984],[129.9705,-2.974],[129.9655,-2.987],[129.943,-3.0185],[129.9475,-3.0205],[129.9655,-3.0255],[129.9695,-3.02],[129.981,-3.0275],[129.9925,-3.031],[129.9875,-3.0465],[129.9735,-3.054],[129.964,-3.0455],[129.9675,-3.0355],[129.96,-3.033],[129.958,-3.0375],[129.947,-3.038],[129.9205,-3.0275],[129.9295,-3.0235],[129.9305,-3.013],[129.927,-3.0115],[129.9055,-3.0035],[129.9135,-2.987],[129.9055,-2.9705],[129.911,-2.9625],[129.9115,-2.944],[129.9065,-2.9355],[129.903,-2.915],[129.8805,-2.9105]]]},"properties":{"code":"81.01.24.2001","name":"Seti"}},{"type":"Feature","geometry":{"type":"Polygon","coordinates":[[[129.936,-2.9565],[129.9115,-2.944],[129.911,-2.9625],[129.9055,-2.9705],[129.9135,-2.987],[129.9305,-2.9925],[129.9285,-3.001],[129.9245,-3.0105],[129.927,-3.0115],[129.9305,-3.013],[129.936,-2.988],[129.93,-2.979],[129.936,-2.969],[129.936,-2.9565]]]},"properties":{"code":"81.01.24.2002","name":"Kobisonta"}},{"type":"Feature","geometry":{"type":"Polygon","coordinates":[[[129.9705,-2.974],[129.9495,-2.9595],[129.936,-2.9565],[129.936,-2.969],[129.93,-2.979],[129.936,-2.988],[129.9305,-3.013],[129.9445,-3.021],[129.9455,-3.0205],[129.9475,-3.0205],[129.943,-3.0185],[129.9655,-2.987],[129.9705,-2.974]]]},"properties":{"code":"81.01.24.2003","name":"Wailoping"}},{"type":"Feature","geometry":{"type":"Polygon","coordinates":[[[129.9445,-3.021],[129.9305,-3.013],[129.9295,-3.0235],[129.9205,-3.0275],[129.94,-3.0355],[129.946,-3.0215],[129.9445,-3.021]]]},"properties":{"code":"81.01.24.2004","name":"Tihuana"}},{"type":"Feature","geometry":{"type":"Polygon","coordinates":[[[129.9675,-3.0355],[129.964,-3.0455],[129.9735,-3.054],[129.9875,-3.0465],[129.9925,-3.031],[129.981,-3.0275],[129.972,-3.037],[129.9675,-3.0355]]]},"properties":{"code":"81.01.24.2005","name":"Waitila"}},{"type":"Feature","geometry":{"type":"Polygon","coordinates":[[[129.981,-3.0275],[129.9695,-3.02],[129.9655,-3.0255],[129.9615,-3.0285],[129.96,-3.033],[129.972,-3.037],[129.981,-3.0275]]]},"properties":{"code":"81.01.24.2006","name":"Waiputih"}},{"type":"Feature","geometry":{"type":"Polygon","coordinates":[[[130.092,-3.0445],[130.0835,-3.0295],[130.068,-3.0295],[130.065,-3.0425],[130.075,-3.054],[130.0855,-3.053],[130.088,-3.0445],[130.092,-3.0445]]]},"properties":{"code":"81.01.24.2007","name":"Waimusal"}},{"type":"Feature","geometry":{"type":"Polygon","coordinates":[[[130.037,-3.0615],[130.048,-3.0515],[130.032,-3.0325],[130.0235,-3.039],[130.027,-3.0545],[130.037,-3.0615]]]},"properties":{"code":"81.01.24.2008","name":"Tanah Merah"}},{"type":"Feature","geometry":{"type":"Polygon","coordinates":[[[130.128,-2.9975],[130.098,-2.9935],[130.0745,-3.004],[130.0495,-3.006],[130.036,-3.004],[130.0205,-2.9945],[130.01,-2.9785],[130.02,-3.0165],[130.0105,-3.0355],[130.0115,-3.053],[130.032,-3.0715],[130.0355,-3.0925],[130.017,-3.105],[130.008,-3.1215],[129.985,-3.129],[129.989,-3.1455],[129.972,-3.174],[129.9795,-3.1775],[130.0055,-3.183],[130.0255,-3.186],[130.04,-3.189],[130.0515,-3.1915],[130.0745,-3.1975],[130.0945,-3.206],[130.1235,-3.212],[130.147,-3.219],[130.155,-3.2155],[130.1575,-3.2135],[130.158,-3.195],[130.136,-3.1755],[130.1385,-3.1565],[130.143,-3.1505],[130.14,-3.1295],[130.1265,-3.111],[130.1265,-3.0925],[130.1365,-3.0865],[130.137,-3.077],[130.131,-3.069],[130.1295,-3.067],[130.129,-3.065],[130.13,-3.064],[130.1285,-3.062],[130.1245,-3.0605],[130.124,-3.0595],[130.1235,-3.0585],[130.117,-3.043],[130.1165,-3.0385],[130.1195,-3.034],[130.121,-3.033],[130.122,-3.033],[130.125,-3.03],[130.127,-3.0285],[130.1255,-3.028],[130.125,-3.0265],[130.1245,-3.0235],[130.1275,-3.021],[130.126,-3.0205],[130.1265,-3.0195],[130.1265,-3.019],[130.1285,-3.019],[130.132,-3.014],[130.132,-3.0125],[130.1325,-3.0125],[130.133,-3.0115],[130.1325,-3.0115],[130.1315,-3.0115],[130.1325,-3.0095],[130.131,-3.0105],[130.1315,-3.0095],[130.131,-3.0015],[130.13,-3.001],[130.1295,-2.9995],[130.126,-2.999],[130.127,-2.9985],[130.128,-2.9975]],[[130.0815,-3.0295],[130.0815,-3.026],[130.102,-3.026],[130.1055,-3.0375],[130.093,-3.0445],[130.088,-3.0445],[130.0855,-3.053],[130.075,-3.054],[130.065,-3.0425],[130.068,-3.0295],[130.0815,-3.0295]],[[130.037,-3.0615],[130.027,-3.0545],[130.0235,-3.039],[130.032,-3.0325],[130.048,-3.0515],[130.037,-3.0615]]]},"properties":{"code":"81.01.24.2009","name":"Aketernate"}},{"type":"Feature","geometry":{"type":"Polygon","coordinates":[[[130.092,-3.0445],[130.093,-3.0445],[130.1055,-3.0375],[130.102,-3.026],[130.0815,-3.026],[130.0815,-3.0295],[130.0835,-3.0295],[130.092,-3.0445]]]},"properties":{"code":"81.01.24.2010","name":"Namto"}},{"type":"Feature","geometry":{"type":"Polygon","coordinates":[[[129.9655,-3.0255],[129.9475,-3.0205],[129.9455,-3.0205],[129.946,-3.0215],[129.94,-3.0355],[129.947,-3.038],[129.958,-3.0375],[129.9615,-3.0285],[129.9655,-3.0255]]]},"properties":{"code":"81.01.24.2011","name":"Loping Mulyo"}},{"type":"Feature","geometry":{"type":"Polygon","coordinates":[[[129.9245,-3.0105],[129.9285,-3.001],[129.9305,-2.9925],[129.9135,-2.987],[129.9055,-3.0035],[129.9245,-3.0105]]]},"properties":{"code":"81.01.24.2012","name":"Wonosari"}},{"type":"Feature","geometry":{"type":"Polygon","coordinates":[[[129.8825,-2.9085],[129.8805,-2.897],[129.8525,-2.898],[129.8275,-2.9125],[129.809,-2.912],[129.8015,-2.9005],[129.791,-2.9105],[129.797,-2.916],[129.8065,-2.94],[129.819,-2.951],[129.828,-2.9535],[129.843,-2.939],[129.8465,-2.9415],[129.848,-2.94],[129.849,-2.935],[129.8615,-2.916],[129.8805,-2.9105],[129.8805,-2.91],[129.8825,-2.9085]]]},"properties":{"code":"81.01.25.2001","name":"Kobi"}},{"type":"Feature","geometry":{"type":"Polygon","coordinates":[[[129.7735,-2.891],[129.753,-2.902],[129.752,-2.9025],[129.7515,-2.905],[129.752,-2.905],[129.752,-2.9065],[129.7505,-2.91],[129.7505,-2.9115],[129.7495,-2.9115],[129.7475,-2.911],[129.7415,-2.9235],[129.745,-2.9305],[129.753,-2.9265],[129.7535,-2.9235],[129.779,-2.903],[129.777,-2.902],[129.7775,-2.9],[129.778,-2.8985],[129.776,-2.898],[129.779,-2.8955],[129.778,-2.894],[129.7775,-2.893],[129.7735,-2.891]]]},"properties":{"code":"81.01.25.2002","name":"Sariputih"}},{"type":"Feature","geometry":{"type":"Polygon","coordinates":[[[129.8015,-2.9005],[129.7925,-2.8895],[129.787,-2.866],[129.776,-2.873],[129.7735,-2.8865],[129.774,-2.888],[129.7735,-2.891],[129.7775,-2.893],[129.778,-2.894],[129.779,-2.8955],[129.7805,-2.894],[129.783,-2.905],[129.779,-2.903],[129.7535,-2.9235],[129.753,-2.9265],[129.745,-2.9305],[129.7415,-2.9235],[129.7285,-2.9295],[129.721,-2.9425],[129.7225,-2.978],[129.721,-2.986],[129.719,-2.994],[129.7235,-3.017],[129.7205,-3.041],[129.7145,-3.0465],[129.7135,-3.062],[129.7125,-3.0675],[129.711,-3.07],[129.7115,-3.0785],[129.724,-3.094],[129.7205,-3.1095],[129.694,-3.114],[129.7405,-3.131],[129.7655,-3.135],[129.7825,-3.155],[129.7955,-3.16],[129.814,-3.148],[129.8295,-3.143],[129.8355,-3.13],[129.853,-3.1185],[129.858,-3.1085],[129.8485,-3.092],[129.86,-3.0845],[129.8645,-3.0735],[129.86,-3.049],[129.863,-3.036],[129.8735,-3.0335],[129.8735,-3.0325],[129.8745,-3.0305],[129.8745,-3.028],[129.8735,-3.023],[129.873,-3.0215],[129.8755,-3.021],[129.8755,-3.0205],[129.8755,-3.02],[129.8565,-3.016],[129.859,-2.997],[129.8645,-2.991],[129.8505,-2.996],[129.845,-2.992],[129.834,-2.9985],[129.833,-2.9975],[129.8295,-2.9945],[129.8255,-2.993],[129.8235,-2.994],[129.8235,-2.995],[129.7975,-2.9875],[129.7945,-2.982],[129.7955,-2.9795],[129.764,-2.9385],[129.7945,-2.9135],[129.791,-2.9105],[129.8015,-2.9005]]]},"properties":{"code":"81.01.25.2003","name":"Maneo Rendah"}},{"type":"Feature","geometry":{"type":"Polygon","coordinates":[[[129.828,-2.9535],[129.819,-2.951],[129.8065,-2.94],[129.797,-2.916],[129.7945,-2.9135],[129.764,-2.9385],[129.7955,-2.9795],[129.798,-2.979],[129.8205,-2.9765],[129.8405,-2.97],[129.842,-2.968],[129.8305,-2.9535],[129.828,-2.9535]]]},"properties":{"code":"81.01.25.2004","name":"Kobimukti"}},{"type":"Feature","geometry":{"type":"MultiPolygon","coordinates":[[[[129.845,-2.944],[129.8465,-2.9415],[129.843,-2.939],[129.8305,-2.9535],[129.842,-2.968],[129.8425,-2.9675],[129.8505,-2.9625],[129.845,-2.944]]],[[[129.7805,-2.894],[129.776,-2.898],[129.778,-2.8985],[129.7775,-2.9],[129.777,-2.902],[129.783,-2.905],[129.7805,-2.894]]]]},"properties":{"code":"81.01.25.2005","name":"Leaway"}},{"type":"Feature","geometry":{"type":"Polygon","coordinates":[[[129.8745,-2.9595],[129.8765,-2.957],[129.849,-2.935],[129.848,-2.94],[129.845,-2.944],[129.8505,-2.9625],[129.851,-2.9625],[129.8505,-2.964],[129.8505,-2.9655],[129.8645,-2.9695],[129.8745,-2.9595]]]},"properties":{"code":"81.01.25.2006","name":"Samal"}},{"type":"Feature","geometry":{"type":"Polygon","coordinates":[[[129.884,-2.9675],[129.8745,-2.9595],[129.8645,-2.9695],[129.8505,-2.9655],[129.845,-2.992],[129.8505,-2.996],[129.8645,-2.991],[129.865,-2.99],[129.8655,-2.988],[129.865,-2.987],[129.8655,-2.986],[129.884,-2.9675]]]},"properties":{"code":"81.01.25.2007","name":"Morokai"}},{"type":"Feature","geometry":{"type":"Polygon","coordinates":[[[129.8505,-2.9625],[129.8425,-2.9675],[129.8405,-2.97],[129.8205,-2.9765],[129.8235,-2.994],[129.8255,-2.993],[129.8295,-2.9945],[129.833,-2.9975],[129.834,-2.9985],[129.845,-2.992],[129.8505,-2.9655],[129.8505,-2.964],[129.851,-2.9625],[129.8505,-2.9625]]]},"properties":{"code":"81.01.25.2008","name":"Waimusi"}},{"type":"Feature","geometry":{"type":"Polygon","coordinates":[[[129.8205,-2.9765],[129.798,-2.979],[129.7945,-2.982],[129.7975,-2.9875],[129.8235,-2.995],[129.8205,-2.9765]]]},"properties":{"code":"81.01.25.2009","name":"Way Asih"}},{"type":"Feature","geometry":{"type":"Polygon","coordinates":[[[129.8855,-2.994],[129.8935,-2.9745],[129.884,-2.9675],[129.8655,-2.986],[129.865,-2.987],[129.8695,-2.989],[129.8855,-2.994]]]},"properties":{"code":"81.01.25.2010","name":"Waitonipa"}},{"type":"Feature","geometry":{"type":"Polygon","coordinates":[[[129.8855,-2.994],[129.8695,-2.989],[129.865,-2.987],[129.8655,-2.988],[129.865,-2.99],[129.859,-2.997],[129.8565,-3.016],[129.877,-3.02],[129.8785,-3.0025],[129.8855,-2.994]]]},"properties":{"code":"81.01.25.2011","name":"Marasahua"}},{"type":"Feature","geometry":{"type":"Polygon","coordinates":[[[129.721,-2.9425],[129.652,-2.9435],[129.649,-2.953],[129.641,-2.956],[129.664,-2.958],[129.681,-2.9655],[129.706,-2.9915],[129.721,-2.986],[129.7225,-2.978],[129.721,-2.9425]]]},"properties":{"code":"81.01.25.2012","name":"Kabauhari"}},{"type":"Feature","geometry":{"type":"Polygon","coordinates":[[[128.7165,-3.6065],[128.7225,-3.6195],[128.7335,-3.6175],[128.7385,-3.5995],[128.7345,-3.572],[128.7265,-3.585],[128.722,-3.602],[128.7165,-3.6065]]]},"properties":{"code":"81.01.26.2001","name":"Ouw"}},{"type":"Feature","geometry":{"type":"Polygon","coordinates":[[[128.7265,-3.585],[128.7225,-3.5795],[128.71,-3.589],[128.7055,-3.5955],[128.7165,-3.6065],[128.722,-3.602],[128.7265,-3.585]]]},"properties":{"code":"81.01.26.2002","name":"Ullath"}},{"type":"Feature","geometry":{"type":"Polygon","coordinates":[[[128.7225,-3.5795],[128.7165,-3.5715],[128.7035,-3.5655],[128.697,-3.582],[128.699,-3.5875],[128.71,-3.589],[128.7225,-3.5795]]]},"properties":{"code":"81.01.26.2003","name":"Siri Sori Islam"}},{"type":"Feature","geometry":{"type":"Polygon","coordinates":[[[128.686,-3.5425],[128.6825,-3.5445],[128.6585,-3.5295],[128.637,-3.5285],[128.6345,-3.5195],[128.6295,-3.5375],[128.651,-3.5455],[128.6685,-3.55],[128.677,-3.555],[128.6735,-3.576],[128.699,-3.5875],[128.697,-3.582],[128.7035,-3.5655],[128.69,-3.5515],[128.686,-3.5425]]]},"properties":{"code":"81.01.26.2004","name":"Siri Sori Amalatu"}},{"type":"Feature","geometry":{"type":"Polygon","coordinates":[[[128.6965,-3.54],[128.695,-3.525],[128.687,-3.5255],[128.6885,-3.534],[128.6965,-3.54]]]},"properties":{"code":"81.01.26.2005","name":"Mahu"}},{"type":"Feature","geometry":{"type":"Polygon","coordinates":[[[128.6965,-3.54],[128.6885,-3.534],[128.686,-3.5425],[128.69,-3.5515],[128.7035,-3.5655],[128.7165,-3.5715],[128.7225,-3.5795],[128.7265,-3.585],[128.7345,-3.572],[128.7305,-3.537],[128.7065,-3.5415],[128.6965,-3.54]]]},"properties":{"code":"81.01.26.2006","name":"Tuhaha"}},{"type":"Feature","geometry":{"type":"Polygon","coordinates":[[[128.7025,-3.5045],[128.6905,-3.5045],[128.689,-3.508],[128.693,-3.5095],[128.6915,-3.5125],[128.6885,-3.5125],[128.687,-3.5255],[128.695,-3.525],[128.6965,-3.54],[128.7065,-3.5415],[128.7305,-3.537],[128.7295,-3.522],[128.7105,-3.515],[128.7025,-3.5045]]]},"properties":{"code":"81.01.26.2007","name":"Ihamahu"}},{"type":"Feature","geometry":{"type":"MultiPolygon","coordinates":[[[[128.6885,-3.5125],[128.6915,-3.5125],[128.693,-3.5095],[128.689,-3.508],[128.6885,-3.5125]]],[[[129.092,-3.3455],[129.09,-3.3345],[129.079,-3.3425],[129.092,-3.3455]]]]},"properties":{"code":"81.01.26.2008","name":"Iha"}},{"type":"Feature","geometry":{"type":"Polygon","coordinates":[[[128.7,-3.4965],[128.6905,-3.5045],[128.7025,-3.5045],[128.7,-3.4965]]]},"properties":{"code":"81.01.26.2009","name":"Nolloth"}},{"type":"Feature","geometry":{"type":"Polygon","coordinates":[[[128.7295,-3.522],[128.7305,-3.5155],[128.716,-3.4985],[128.7,-3.4965],[128.7025,-3.5045],[128.7105,-3.515],[128.7295,-3.522]]]},"properties":{"code":"81.01.26.2010","name":"Itawaka"}}]}