{"type":"FeatureCollection","features":[{"type":"Feature","geometry":{"type":"Polygon","coordinates":[[[132.7615,-5.5775],[132.7585,-5.5735],[132.7535,-5.5755],[132.75,-5.589],[132.7515,-5.6095],[132.759,-5.612],[132.766,-5.6055],[132.776,-5.607],[132.786,-5.596],[132.786,-5.594],[132.7895,-5.588],[132.7905,-5.585],[132.7925,-5.5815],[132.794,-5.5785],[132.7615,-5.5775]]]},"properties":{"code":"81.72.01.2001","name":"Fiditan","latitude":-5.59097474049991,"longitude":132.76835721161416}},{"type":"Feature","geometry":{"type":"Polygon","coordinates":[[[132.793,-5.5675],[132.773,-5.567],[132.7595,-5.57],[132.7535,-5.5755],[132.7585,-5.5735],[132.7615,-5.5775],[132.794,-5.5785],[132.795,-5.577],[132.7945,-5.576],[132.7955,-5.5715],[132.797,-5.569],[132.793,-5.5675]]]},"properties":{"code":"81.72.01.2002","name":"Ngadi","latitude":-5.57305910470341,"longitude":132.77622481200683}},{"type":"Feature","geometry":{"type":"Polygon","coordinates":[[[132.7945,-5.561],[132.7695,-5.557],[132.7595,-5.57],[132.773,-5.567],[132.793,-5.5675],[132.7945,-5.561]]]},"properties":{"code":"81.72.01.2003","name":"Dullah","latitude":-5.563595791750273,"longitude":132.7787102996863}},{"type":"Feature","geometry":{"type":"Polygon","coordinates":[[[132.7995,-5.544],[132.7835,-5.534],[132.7695,-5.557],[132.7945,-5.561],[132.7995,-5.544]]]},"properties":{"code":"81.72.01.2004","name":"Labetawi","latitude":-5.548813577950928,"longitude":132.78496153135245}},{"type":"Feature","geometry":{"type":"Polygon","coordinates":[[[132.7995,-5.544],[132.8025,-5.528],[132.7955,-5.524],[132.7835,-5.534],[132.7995,-5.544]]]},"properties":{"code":"81.72.01.2005","name":"Tamedan","latitude":-5.5332823444629415,"longitude":132.7945068810992}},{"type":"Feature","geometry":{"type":"Polygon","coordinates":[[[132.801,-5.602],[132.8045,-5.597],[132.817,-5.553],[132.8115,-5.543],[132.802,-5.5645],[132.797,-5.569],[132.7955,-5.5715],[132.7945,-5.576],[132.795,-5.577],[132.7925,-5.5815],[132.7905,-5.585],[132.79,-5.5865],[132.801,-5.602]]]},"properties":{"code":"81.72.01.2006","name":"Ohoitahit","latitude":-5.5741935851112885,"longitude":132.80387193861284}},{"type":"Feature","geometry":{"type":"Polygon","coordinates":[[[132.801,-5.602],[132.79,-5.5865],[132.7895,-5.588],[132.786,-5.594],[132.786,-5.596],[132.776,-5.607],[132.766,-5.6055],[132.759,-5.612],[132.757,-5.622],[132.757,-5.6285],[132.7605,-5.6265],[132.769,-5.6285],[132.77,-5.63],[132.795,-5.6245],[132.7895,-5.644],[132.79,-5.6445],[132.7925,-5.6455],[132.7935,-5.6465],[132.797,-5.652],[132.7965,-5.667],[132.8025,-5.677],[132.7925,-5.69],[132.8005,-5.6985],[132.814,-5.6865],[132.816,-5.6755],[132.8125,-5.654],[132.8025,-5.6305],[132.7995,-5.6105],[132.801,-5.602]]]},"properties":{"code":"81.72.01.2007","name":"Ohoitel","latitude":-5.6378487895149965,"longitude":132.7920864157983}},{"type":"Feature","geometry":{"type":"MultiPolygon","coordinates":[[[[132.739,-5.529],[132.717,-5.532],[132.707,-5.5305],[132.699,-5.5385],[132.6985,-5.552],[132.7055,-5.554],[132.7205,-5.5485],[132.733,-5.553],[132.746,-5.548],[132.7495,-5.5345],[132.739,-5.529]]],[[[132.764,-5.4755],[132.758,-5.479],[132.7455,-5.497],[132.7585,-5.4985],[132.764,-5.4755]]]]},"properties":{"code":"81.72.01.2008","name":"Dullah Laut","latitude":-5.516135813411998,"longitude":132.72633826603087}},{"type":"Feature","geometry":{"type":"Polygon","coordinates":[[[132.7445,-5.6445],[132.755,-5.6405],[132.7545,-5.6375],[132.747,-5.638],[132.7435,-5.6375],[132.743,-5.6425],[132.7445,-5.6445]]]},"properties":{"code":"81.72.02.1003","name":"Ketsoblak","latitude":-5.640524917291656,"longitude":132.74853212868123}},{"type":"Feature","geometry":{"type":"Polygon","coordinates":[[[132.7525,-5.627],[132.7425,-5.624],[132.7415,-5.634],[132.7425,-5.634],[132.7425,-5.635],[132.744,-5.635],[132.7445,-5.635],[132.7455,-5.633],[132.7525,-5.627]]]},"properties":{"code":"81.72.02.1004","name":"Masrum","latitude":-5.627964936526828,"longitude":132.74697496449204}},{"type":"Feature","geometry":{"type":"Polygon","coordinates":[[[132.757,-5.6285],[132.7535,-5.627],[132.7525,-5.627],[132.7455,-5.633],[132.7445,-5.636],[132.745,-5.6365],[132.745,-5.6375],[132.747,-5.638],[132.7545,-5.6375],[132.7545,-5.6345],[132.7575,-5.633],[132.757,-5.6285]]]},"properties":{"code":"81.72.02.1005","name":"Lodar El","latitude":-5.632714302272896,"longitude":132.7517150865079}},{"type":"Feature","geometry":{"type":"MultiPolygon","coordinates":[[[[132.7425,-5.634],[132.7415,-5.634],[132.743,-5.6425],[132.7435,-5.6375],[132.745,-5.6375],[132.745,-5.6365],[132.7445,-5.636],[132.7445,-5.635],[132.744,-5.635],[132.7425,-5.635],[132.7425,-5.634]]],[[[132.725,-5.6225],[132.7155,-5.623],[132.72,-5.635],[132.7255,-5.6355],[132.725,-5.6225]]],[[[132.759,-5.612],[132.7515,-5.6095],[132.7435,-5.612],[132.7425,-5.624],[132.7525,-5.627],[132.7535,-5.627],[132.757,-5.622],[132.759,-5.612]]],[[[132.731,-5.582],[132.7275,-5.5735],[132.714,-5.585],[132.7185,-5.594],[132.731,-5.582]]]]},"properties":{"code":"81.72.02.2001","name":"Tual","latitude":-5.607942684429267,"longitude":132.73036189619}},{"type":"Feature","geometry":{"type":"Polygon","coordinates":[[[132.77,-5.63],[132.769,-5.6285],[132.7605,-5.6265],[132.7575,-5.633],[132.7545,-5.6345],[132.755,-5.6405],[132.7445,-5.6445],[132.7445,-5.6525],[132.7575,-5.6615],[132.772,-5.6905],[132.78,-5.689],[132.792,-5.6735],[132.791,-5.6625],[132.797,-5.652],[132.7935,-5.6465],[132.7925,-5.6455],[132.79,-5.6445],[132.7895,-5.644],[132.795,-5.6245],[132.77,-5.63]]]},"properties":{"code":"81.72.02.2002","name":"Taar","latitude":-5.655338170294549,"longitude":132.77335794600754}},{"type":"Feature","geometry":{"type":"Polygon","coordinates":[[[132.342,-5.5445],[132.3255,-5.544],[132.317,-5.55],[132.3215,-5.562],[132.3165,-5.567],[132.3235,-5.5795],[132.3405,-5.583],[132.352,-5.5775],[132.3465,-5.5585],[132.348,-5.5515],[132.342,-5.5445]]]},"properties":{"code":"81.72.03.2001","name":"Tam Ngurhir","latitude":-5.56359646025339,"longitude":132.33400117020443}},{"type":"Feature","geometry":{"type":"Polygon","coordinates":[[[132.352,-5.5775],[132.3675,-5.5585],[132.3785,-5.553],[132.376,-5.5395],[132.3615,-5.552],[132.348,-5.5515],[132.3465,-5.5585],[132.352,-5.5775]]]},"properties":{"code":"81.72.03.2002","name":"Tayando Langgiar","latitude":-5.557486016255122,"longitude":132.36116643103236}},{"type":"Feature","geometry":{"type":"Polygon","coordinates":[[[132.197,-5.718],[132.182,-5.7205],[132.174,-5.7265],[132.17,-5.739],[132.173,-5.7535],[132.185,-5.7675],[132.195,-5.7615],[132.1985,-5.746],[132.197,-5.718]]]},"properties":{"code":"81.72.03.2003","name":"Tayando Yamtel","latitude":-5.737545846835044,"longitude":132.19392016024008}},{"type":"Feature","geometry":{"type":"MultiPolygon","coordinates":[[[[132.327,-5.599],[132.3145,-5.606],[132.328,-5.619],[132.336,-5.6135],[132.327,-5.599]]],[[[132.262,-5.581],[132.257,-5.585],[132.2595,-5.598],[132.2835,-5.6],[132.2855,-5.634],[132.292,-5.6545],[132.299,-5.653],[132.3175,-5.6345],[132.3195,-5.627],[132.303,-5.6065],[132.307,-5.5905],[132.2855,-5.5965],[132.2775,-5.584],[132.262,-5.581]]]]},"properties":{"code":"81.72.03.2004","name":"Tayando Ohoiel","latitude":-5.616167197118473,"longitude":132.29494470454034}},{"type":"Feature","geometry":{"type":"Polygon","coordinates":[[[132.342,-5.5445],[132.337,-5.5325],[132.325,-5.5295],[132.3185,-5.521],[132.3025,-5.53],[132.317,-5.55],[132.3255,-5.544],[132.342,-5.5445]]]},"properties":{"code":"81.72.03.2005","name":"Tayando Yamru","latitude":-5.53550244759878,"longitude":132.3214471553729}},{"type":"Feature","geometry":{"type":"Polygon","coordinates":[[[132.022,-5.3365],[132.0165,-5.3275],[132.001,-5.316],[131.988,-5.3135],[131.987,-5.316],[131.9895,-5.317],[132.0015,-5.332],[132.019,-5.344],[132.022,-5.3365]]]},"properties":{"code":"81.72.04.2001","name":"Tubyal","latitude":-5.327632081504126,"longitude":132.00699636888078}},{"type":"Feature","geometry":{"type":"Polygon","coordinates":[[[132.0205,-5.1535],[132.011,-5.174],[132.023,-5.1855],[132.0245,-5.1625],[132.0205,-5.1535]]]},"properties":{"code":"81.72.04.2002","name":"Kaimear","latitude":-5.163333556837248,"longitude":132.0173543900452}},{"type":"Feature","geometry":{"type":"Polygon","coordinates":[[[132.019,-5.3125],[132.013,-5.3045],[131.9995,-5.3125],[132.019,-5.3125]]]},"properties":{"code":"81.72.04.2004","name":"Lokwirin","latitude":-5.310809213267831,"longitude":132.01018391595565}},{"type":"Feature","geometry":{"type":"Polygon","coordinates":[[[131.9995,-5.3125],[131.988,-5.3135],[132.001,-5.316],[132.0165,-5.3275],[132.022,-5.3365],[132.024,-5.3255],[132.019,-5.3125],[131.9995,-5.3125]]]},"properties":{"code":"81.72.04.2005","name":"Finualen","latitude":-5.320401490804265,"longitude":132.01308502552527}},{"type":"Feature","geometry":{"type":"Polygon","coordinates":[[[131.9895,-5.317],[131.987,-5.316],[131.98,-5.326],[131.9895,-5.317]]]},"properties":{"code":"81.72.04.2012","name":"Sermaf","latitude":-5.320740574556061,"longitude":131.98479592854287}},{"type":"Feature","geometry":{"type":"Polygon","coordinates":[[[132.019,-5.344],[132.0015,-5.332],[131.9895,-5.317],[131.98,-5.326],[131.972,-5.3345],[131.9945,-5.3365],[132.014,-5.349],[132.019,-5.344]]]},"properties":{"code":"81.72.05.2001","name":"Kanara","latitude":-5.332664544332421,"longitude":131.99529841929237}},{"type":"Feature","geometry":{"type":"Polygon","coordinates":[[[132.014,-5.349],[131.9945,-5.3365],[131.972,-5.3345],[131.968,-5.351],[131.9975,-5.344],[132.012,-5.3535],[132.014,-5.349]]]},"properties":{"code":"81.72.05.2002","name":"Warkar","latitude":-5.342227153579948,"longitude":131.9867892351724}},{"type":"Feature","geometry":{"type":"Polygon","coordinates":[[[132.012,-5.3535],[131.9975,-5.344],[131.968,-5.351],[131.9665,-5.3595],[131.9735,-5.362],[131.994,-5.351],[132.0095,-5.3615],[132.012,-5.3535]]]},"properties":{"code":"81.72.05.2003","name":"Yapas","latitude":-5.3528433476720725,"longitude":131.9883874812342}},{"type":"Feature","geometry":{"type":"Polygon","coordinates":[[[132.0095,-5.3615],[131.994,-5.351],[131.9735,-5.362],[131.9665,-5.3595],[131.965,-5.376],[131.9725,-5.3675],[131.9835,-5.3675],[131.9895,-5.374],[132.003,-5.3715],[132.0095,-5.3615]]]},"properties":{"code":"81.72.05.2004","name":"Rumoin","latitude":-5.364154736911688,"longitude":131.98759869143544}},{"type":"Feature","geometry":{"type":"Polygon","coordinates":[[[131.9895,-5.374],[131.9835,-5.3675],[131.9725,-5.3675],[131.965,-5.376],[131.9705,-5.3845],[131.9895,-5.374]]]},"properties":{"code":"81.72.05.2005","name":"Hirit","latitude":-5.3749479293824125,"longitude":131.97637497772706}},{"type":"Feature","geometry":{"type":"MultiPolygon","coordinates":[[[[131.9395,-5.6645],[131.933,-5.668],[131.935,-5.674],[131.9405,-5.6705],[131.9395,-5.6645]]],[[[132.0035,-5.575],[132.0045,-5.575],[132.0005,-5.5745],[132.0035,-5.575]]]]},"properties":{"code":"81.72.05.2006","name":"Tiflen","latitude":-5.63505611635909,"longitude":131.9381413495728}},{"type":"Feature","geometry":{"type":"Polygon","coordinates":[[[132.0035,-5.575],[132.0005,-5.5745],[131.995,-5.591],[132.0065,-5.596],[132.0045,-5.575],[132.0035,-5.575]]]},"properties":{"code":"81.72.05.2007","name":"Niela","latitude":-5.586876614659784,"longitude":132.00207905658777}}]}