{"type":"FeatureCollection","features":[{"type":"Feature","geometry":{"type":"Polygon","coordinates":[[[125.9795,-1.918],[126.0075,-1.9045],[126.009,-1.9015],[126.0105,-1.8745],[126.01,-1.8715],[126.0105,-1.8695],[126.011,-1.8665],[126.0105,-1.866],[126.011,-1.8645],[126.012,-1.8415],[126.008,-1.8425],[125.979,-1.8575],[125.9775,-1.859],[125.978,-1.8735],[125.9745,-1.8775],[125.978,-1.886],[125.9795,-1.918]]]},"properties":{"code":"82.05.01.2001","name":"Waitina","latitude":-1.8802505242367522,"longitude":125.99441766450359}},{"type":"Feature","geometry":{"type":"Polygon","coordinates":[[[126.077,-1.883],[126.077,-1.8815],[126.077,-1.8785],[126.0775,-1.876],[126.0745,-1.871],[126.0735,-1.8595],[126.0745,-1.854],[126.074,-1.8445],[126.074,-1.824],[126.07,-1.825],[126.0665,-1.83],[126.041,-1.8335],[126.0345,-1.835],[126.0345,-1.888],[126.0385,-1.8945],[126.066,-1.883],[126.077,-1.883]]]},"properties":{"code":"82.05.01.2006","name":"Kau","latitude":-1.8596015779198247,"longitude":126.05457080122243}},{"type":"Feature","geometry":{"type":"Polygon","coordinates":[[[126.157,-1.807],[126.148,-1.809],[126.148,-1.81],[126.148,-1.8105],[126.122,-1.82],[126.0985,-1.817],[126.0945,-1.817],[126.082,-1.822],[126.074,-1.824],[126.074,-1.8445],[126.0745,-1.854],[126.0735,-1.8595],[126.0745,-1.871],[126.0775,-1.876],[126.077,-1.8785],[126.077,-1.8815],[126.077,-1.883],[126.0985,-1.8785],[126.1385,-1.891],[126.147,-1.877],[126.1425,-1.862],[126.147,-1.8415],[126.1425,-1.826],[126.157,-1.807]]]},"properties":{"code":"82.05.01.2007","name":"Waitamela","latitude":-1.8508133750340878,"longitude":126.1117212617676}},{"type":"Feature","geometry":{"type":"Polygon","coordinates":[[[125.9795,-1.918],[125.978,-1.886],[125.9745,-1.8775],[125.978,-1.8735],[125.9775,-1.859],[125.9715,-1.865],[125.9655,-1.8945],[125.9605,-1.901],[125.9575,-1.918],[125.9795,-1.918]]]},"properties":{"code":"82.05.01.2013","name":"Karamat Titdoy","latitude":-1.8956583012705024,"longitude":125.97110150513932}},{"type":"Feature","geometry":{"type":"Polygon","coordinates":[[[126.0075,-1.9045],[126.016,-1.9045],[126.0295,-1.8955],[126.0385,-1.8945],[126.0345,-1.888],[126.0345,-1.835],[126.012,-1.8415],[126.011,-1.8645],[126.0105,-1.866],[126.011,-1.8665],[126.0105,-1.8695],[126.01,-1.8715],[126.0105,-1.8745],[126.009,-1.9015],[126.0075,-1.9045]]]},"properties":{"code":"82.05.01.2016","name":"Naflo","latitude":-1.8703755598092902,"longitude":126.02241479976392}},{"type":"Feature","geometry":{"type":"Polygon","coordinates":[[[125.9925,-2.044],[125.9615,-2.0325],[125.9595,-2.0325],[125.9585,-2.0335],[125.9555,-2.0335],[125.945,-2.036],[125.978,-2.055],[125.979,-2.055],[125.9805,-2.056],[125.981,-2.056],[125.9925,-2.044]]]},"properties":{"code":"82.05.02.2001","name":"Mangon","latitude":-2.0435295301348946,"longitude":125.97151052785921}},{"type":"Feature","geometry":{"type":"Polygon","coordinates":[[[125.981,-2.056],[125.9805,-2.056],[125.979,-2.055],[125.978,-2.055],[125.9745,-2.053],[125.972,-2.0595],[125.9825,-2.059],[125.981,-2.056]]]},"properties":{"code":"82.05.02.2002","name":"Fagudu","latitude":-2.0578312836727064,"longitude":125.9770365588823}},{"type":"Feature","geometry":{"type":"Polygon","coordinates":[[[125.9745,-2.053],[125.945,-2.036],[125.9355,-2.0385],[125.9695,-2.0585],[125.972,-2.0595],[125.9745,-2.053]]]},"properties":{"code":"82.05.02.2003","name":"Waibau","latitude":-2.04697473005105,"longitude":125.95697393739397}},{"type":"Feature","geometry":{"type":"Polygon","coordinates":[[[125.972,-2.0595],[125.9695,-2.0585],[125.9355,-2.0385],[125.932,-2.039],[125.9735,-2.063],[125.984,-2.062],[125.9825,-2.059],[125.972,-2.0595]]]},"properties":{"code":"82.05.02.2004","name":"Falahu","latitude":-2.052085474199712,"longitude":125.95767092884958}},{"type":"Feature","geometry":{"type":"Polygon","coordinates":[[[125.984,-2.062],[125.9735,-2.063],[125.932,-2.039],[125.9275,-2.0405],[125.951,-2.053],[125.9815,-2.0695],[125.984,-2.062]]]},"properties":{"code":"82.05.02.2005","name":"Fatcei","latitude":-2.0549811302750496,"longitude":125.95793678694017}},{"type":"Feature","geometry":{"type":"Polygon","coordinates":[[[125.9815,-2.0695],[125.951,-2.053],[125.9275,-2.0405],[125.9265,-2.0405],[125.918,-2.041],[125.918,-2.0415],[125.943,-2.0555],[125.9605,-2.0615],[125.971,-2.071],[125.9725,-2.072],[125.978,-2.0745],[125.9815,-2.0695]]]},"properties":{"code":"82.05.02.2006","name":"Fogi","latitude":-2.0558244955471845,"longitude":125.95003958906628}},{"type":"Feature","geometry":{"type":"Polygon","coordinates":[[[125.978,-2.0745],[125.9725,-2.072],[125.971,-2.071],[125.9605,-2.0615],[125.943,-2.0555],[125.918,-2.0415],[125.9175,-2.044],[125.9165,-2.0535],[125.916,-2.058],[125.9205,-2.06],[125.9275,-2.061],[125.944,-2.072],[125.974,-2.0865],[125.978,-2.0745]]]},"properties":{"code":"82.05.02.2007","name":"Waihama","latitude":-2.0645067993761423,"longitude":125.94646094283422}},{"type":"Feature","geometry":{"type":"Polygon","coordinates":[[[125.974,-2.0865],[125.944,-2.072],[125.9275,-2.061],[125.9205,-2.06],[125.916,-2.058],[125.9155,-2.068],[125.9145,-2.0755],[125.914,-2.0835],[125.915,-2.0835],[125.9155,-2.083],[125.9165,-2.0825],[125.9185,-2.083],[125.933,-2.089],[125.9385,-2.0965],[125.951,-2.1005],[125.9645,-2.099],[125.965,-2.107],[125.974,-2.0865]]]},"properties":{"code":"82.05.02.2008","name":"Wai Ipa","latitude":-2.0818741463068147,"longitude":125.94140620729969}},{"type":"Feature","geometry":{"type":"Polygon","coordinates":[[[125.965,-2.107],[125.9645,-2.099],[125.951,-2.1005],[125.9385,-2.0965],[125.933,-2.089],[125.9185,-2.083],[125.9165,-2.0825],[125.9155,-2.083],[125.915,-2.0835],[125.914,-2.0835],[125.9135,-2.0905],[125.9125,-2.092],[125.9125,-2.0965],[125.914,-2.0995],[125.9125,-2.1],[125.912,-2.1055],[125.913,-2.105],[125.953,-2.105],[125.964,-2.1095],[125.965,-2.107]]]},"properties":{"code":"82.05.02.2009","name":"Umaloya","latitude":-2.0982669917015384,"longitude":125.93325672862576}},{"type":"Feature","geometry":{"type":"Polygon","coordinates":[[[125.964,-2.1095],[125.953,-2.105],[125.913,-2.105],[125.9165,-2.1155],[125.9515,-2.1275],[125.953,-2.1285],[125.9535,-2.129],[125.955,-2.1285],[125.959,-2.1295],[125.964,-2.1095]]]},"properties":{"code":"82.05.02.2010","name":"Pastina","latitude":-2.114630844394028,"longitude":125.9414393902015}},{"type":"Feature","geometry":{"type":"Polygon","coordinates":[[[125.959,-2.1295],[125.955,-2.1285],[125.9535,-2.129],[125.953,-2.1285],[125.9515,-2.1275],[125.9165,-2.1155],[125.9175,-2.1405],[125.915,-2.152],[125.9155,-2.159],[125.9175,-2.162],[125.9185,-2.164],[125.924,-2.163],[125.9345,-2.1605],[125.958,-2.1585],[125.959,-2.1295]]]},"properties":{"code":"82.05.02.2011","name":"Wailau","latitude":-2.1415489155974305,"longitude":125.93555758138429}},{"type":"Feature","geometry":{"type":"Polygon","coordinates":[[[125.9535,-2.2375],[125.9025,-2.241],[125.9265,-2.275],[125.9695,-2.2605],[125.969,-2.2595],[125.9645,-2.2525],[125.9625,-2.2495],[125.9555,-2.2405],[125.9535,-2.2375]]]},"properties":{"code":"82.05.03.2005","name":"Wai Ina","latitude":-2.253639143106823,"longitude":125.93665898094397}},{"type":"Feature","geometry":{"type":"Polygon","coordinates":[[[125.932,-2.203],[125.9135,-2.2055],[125.9085,-2.2055],[125.8965,-2.207],[125.8835,-2.186],[125.88,-2.1935],[125.8805,-2.212],[125.888,-2.2245],[125.9025,-2.241],[125.9535,-2.2375],[125.953,-2.237],[125.949,-2.2315],[125.945,-2.222],[125.9395,-2.2165],[125.94,-2.2135],[125.9385,-2.2115],[125.9365,-2.2095],[125.934,-2.2065],[125.9325,-2.204],[125.932,-2.203]]]},"properties":{"code":"82.05.03.2006","name":"Kabau Pantai","latitude":-2.2199315948214595,"longitude":125.9129763321007}},{"type":"Feature","geometry":{"type":"Polygon","coordinates":[[[125.9165,-2.1155],[125.913,-2.105],[125.9115,-2.1055],[125.909,-2.1075],[125.907,-2.1085],[125.905,-2.1095],[125.9015,-2.1135],[125.897,-2.1155],[125.8765,-2.1305],[125.8875,-2.1745],[125.901,-2.1775],[125.9215,-2.173],[125.9205,-2.171],[125.9195,-2.1675],[125.9175,-2.162],[125.9155,-2.159],[125.915,-2.152],[125.9175,-2.1405],[125.9165,-2.1155]]]},"properties":{"code":"82.05.03.2007","name":"Ona","latitude":-2.1443923739475013,"longitude":125.90085288470725}},{"type":"Feature","geometry":{"type":"Polygon","coordinates":[[[125.932,-2.203],[125.932,-2.2025],[125.923,-2.178],[125.9215,-2.173],[125.901,-2.1775],[125.8875,-2.1745],[125.8835,-2.186],[125.8965,-2.207],[125.9085,-2.2055],[125.9135,-2.2055],[125.932,-2.203]]]},"properties":{"code":"82.05.03.2008","name":"Kabau Darat","latitude":-2.190504759933182,"longitude":125.90792318834042}},{"type":"Feature","geometry":{"type":"Polygon","coordinates":[[[125.912,-2.1055],[125.9125,-2.1],[125.914,-2.0995],[125.9125,-2.0965],[125.9125,-2.092],[125.9135,-2.0905],[125.9135,-2.088],[125.913,-2.0885],[125.913,-2.0895],[125.912,-2.09],[125.9105,-2.0895],[125.9075,-2.0925],[125.8995,-2.0965],[125.8925,-2.0925],[125.8605,-2.0965],[125.8765,-2.1305],[125.897,-2.1155],[125.9015,-2.1135],[125.905,-2.1095],[125.907,-2.1085],[125.909,-2.1075],[125.9115,-2.1055],[125.912,-2.1055]]]},"properties":{"code":"82.05.03.2009","name":"Nahi","latitude":-2.1067433270010176,"longitude":125.88607241603087}},{"type":"Feature","geometry":{"type":"Polygon","coordinates":[[[125.916,-2.058],[125.8995,-2.059],[125.889,-2.054],[125.862,-2.0505],[125.8585,-2.0585],[125.8565,-2.091],[125.8605,-2.0965],[125.8925,-2.0925],[125.8995,-2.0965],[125.9075,-2.0925],[125.9105,-2.0895],[125.912,-2.09],[125.913,-2.0895],[125.913,-2.0885],[125.9135,-2.088],[125.9145,-2.0755],[125.9155,-2.068],[125.916,-2.058]]]},"properties":{"code":"82.05.03.2010","name":"Paratina","latitude":-2.0743500680019906,"longitude":125.88499397098148}},{"type":"Feature","geometry":{"type":"Polygon","coordinates":[[[125.3905,-1.7845],[125.375,-1.779],[125.366,-1.7815],[125.3565,-1.7955],[125.3735,-1.799],[125.3655,-1.8105],[125.353,-1.8045],[125.342,-1.813],[125.337,-1.823],[125.3625,-1.833],[125.3955,-1.8375],[125.3905,-1.7845]]]},"properties":{"code":"82.05.06.2001","name":"Dofa","latitude":-1.8108250412829718,"longitude":125.37237543957687}},{"type":"Feature","geometry":{"type":"Polygon","coordinates":[[[125.4275,-1.8095],[125.4125,-1.7975],[125.41,-1.778],[125.394,-1.7785],[125.3905,-1.7845],[125.3955,-1.8375],[125.428,-1.842],[125.4275,-1.8095]]]},"properties":{"code":"82.05.06.2002","name":"Lekokadai","latitude":-1.8115003313347808,"longitude":125.40839871384141}},{"type":"Feature","geometry":{"type":"Polygon","coordinates":[[[125.466,-1.7805],[125.454,-1.783],[125.45,-1.8],[125.443,-1.7985],[125.4275,-1.8095],[125.428,-1.842],[125.461,-1.845],[125.46,-1.812],[125.466,-1.7805]]]},"properties":{"code":"82.05.06.2003","name":"Lekosula","latitude":-1.817701050165512,"longitude":125.44690561834614}},{"type":"Feature","geometry":{"type":"Polygon","coordinates":[[[125.385,-1.8805],[125.3765,-1.8815],[125.377,-1.89],[125.3855,-1.8905],[125.385,-1.8805]]]},"properties":{"code":"82.05.06.2009","name":"Pas Ipa","latitude":-1.8855751268383054,"longitude":125.38089503684752}},{"type":"Feature","geometry":{"type":"Polygon","coordinates":[[[125.3625,-1.833],[125.337,-1.823],[125.3275,-1.8335],[125.329,-1.858],[125.3325,-1.8755],[125.343,-1.8855],[125.349,-1.879],[125.349,-1.8765],[125.3465,-1.866],[125.3545,-1.855],[125.3625,-1.833]]]},"properties":{"code":"82.05.06.2014","name":"Pelita","latitude":-1.8498326651375645,"longitude":125.34233533735558}},{"type":"Feature","geometry":{"type":"Polygon","coordinates":[[[125.3955,-1.8375],[125.3625,-1.833],[125.3545,-1.855],[125.3465,-1.866],[125.349,-1.8765],[125.349,-1.879],[125.343,-1.8855],[125.359,-1.8845],[125.3675,-1.8475],[125.373,-1.8595],[125.3885,-1.866],[125.3925,-1.859],[125.3955,-1.8375]]]},"properties":{"code":"82.05.06.2017","name":"Johor","latitude":-1.8558901282269846,"longitude":125.36929445786306}},{"type":"Feature","geometry":{"type":"Polygon","coordinates":[[[125.4655,-1.9425],[125.466,-1.9045],[125.463,-1.891],[125.461,-1.845],[125.428,-1.842],[125.3955,-1.8375],[125.3925,-1.859],[125.407,-1.8775],[125.436,-1.888],[125.4385,-1.899],[125.4335,-1.915],[125.44,-1.9285],[125.418,-1.944],[125.4225,-1.9505],[125.4655,-1.9425]]]},"properties":{"code":"82.05.06.2018","name":"Lelyaba","latitude":-1.8854784980689796,"longitude":125.43677582991629}},{"type":"Feature","geometry":{"type":"Polygon","coordinates":[[[125.9715,-2.201],[125.9635,-2.1845],[125.958,-2.1585],[125.9345,-2.1605],[125.924,-2.163],[125.9185,-2.164],[125.9195,-2.1675],[125.9205,-2.171],[125.923,-2.178],[125.932,-2.2025],[125.9325,-2.204],[125.934,-2.2065],[125.9365,-2.2095],[125.937,-2.21],[125.951,-2.2085],[125.9715,-2.201]]]},"properties":{"code":"82.05.07.2001","name":"Waiboga","latitude":-2.183800850390077,"longitude":125.94499109125498}},{"type":"Feature","geometry":{"type":"Polygon","coordinates":[[[125.9955,-2.2485],[125.9825,-2.2265],[125.9725,-2.229],[125.9475,-2.2275],[125.949,-2.2315],[125.953,-2.237],[125.9555,-2.2405],[125.9625,-2.2495],[125.9645,-2.252],[125.9955,-2.2485]]]},"properties":{"code":"82.05.07.2002","name":"Soamole","latitude":-2.2396126527493236,"longitude":125.97200791550817}},{"type":"Feature","geometry":{"type":"Polygon","coordinates":[[[125.9825,-2.2265],[125.9715,-2.201],[125.951,-2.2085],[125.937,-2.21],[125.9385,-2.2115],[125.94,-2.2135],[125.9395,-2.2165],[125.945,-2.222],[125.9475,-2.2275],[125.9725,-2.229],[125.9825,-2.2265]]]},"properties":{"code":"82.05.07.2003","name":"Waiman","latitude":-2.217055275707969,"longitude":125.9612681806594}},{"type":"Feature","geometry":{"type":"Polygon","coordinates":[[[126.014,-2.287],[125.9955,-2.2485],[125.9645,-2.252],[125.9645,-2.2525],[125.969,-2.2595],[125.971,-2.2625],[125.982,-2.2865],[126.014,-2.287]]]},"properties":{"code":"82.05.07.2004","name":"Fat Iba","latitude":-2.268921325640323,"longitude":125.99030438883766}},{"type":"Feature","geometry":{"type":"Polygon","coordinates":[[[126.014,-2.287],[125.982,-2.2865],[125.985,-2.291],[125.991,-2.296],[125.9945,-2.3205],[126.017,-2.3175],[126.0225,-2.314],[126.02,-2.299],[126.014,-2.287]]]},"properties":{"code":"82.05.07.2005","name":"Bega","latitude":-2.302330309980175,"longitude":126.00452472615083}},{"type":"Feature","geometry":{"type":"Polygon","coordinates":[[[126.0325,-2.3375],[126.0225,-2.314],[126.017,-2.3175],[125.9945,-2.3205],[125.9945,-2.3215],[126.001,-2.338],[126.0185,-2.3455],[126.0325,-2.3375]]]},"properties":{"code":"82.05.07.2006","name":"Manaf","latitude":-2.329755247462934,"longitude":126.01446707237699}},{"type":"Feature","geometry":{"type":"Polygon","coordinates":[[[126.0495,-2.375],[126.0395,-2.3575],[126.0325,-2.3375],[126.0185,-2.3455],[126.001,-2.338],[126.002,-2.3405],[126.003,-2.342],[126.0085,-2.3635],[126.0105,-2.366],[126.013,-2.369],[126.014,-2.3715],[126.0135,-2.3735],[126.0135,-2.3745],[126.0495,-2.375]]]},"properties":{"code":"82.05.08.2001","name":"Waigoiyofa","latitude":-2.357779061249138,"longitude":126.0244420394938}},{"type":"Feature","geometry":{"type":"Polygon","coordinates":[[[126.0575,-2.3885],[126.036,-2.39],[126.025,-2.387],[126.022,-2.387],[126.016,-2.391],[126.0155,-2.392],[126.018,-2.4045],[126.018,-2.4055],[126.0385,-2.4015],[126.0415,-2.408],[126.063,-2.402],[126.0575,-2.3885]]]},"properties":{"code":"82.05.08.2002","name":"Baleha","latitude":-2.396733402088941,"longitude":126.03810543474701}},{"type":"Feature","geometry":{"type":"Polygon","coordinates":[[[126.0735,-2.43],[126.056,-2.433],[126.031,-2.432],[126.0285,-2.43],[126.0265,-2.4295],[126.027,-2.43],[126.04,-2.446],[126.0515,-2.4685],[126.0495,-2.477],[126.064,-2.462],[126.073,-2.445],[126.0735,-2.43]]]},"properties":{"code":"82.05.08.2003","name":"Fatkauyon","latitude":-2.4469635387871063,"longitude":126.055023399267}},{"type":"Feature","geometry":{"type":"Polygon","coordinates":[[[126.022,-2.4255],[126.0215,-2.4245],[126.0185,-2.4085],[126.018,-2.407],[125.9905,-2.432],[125.989,-2.4365],[125.999,-2.447],[126.018,-2.46],[126.0495,-2.477],[126.0515,-2.4685],[126.04,-2.446],[126.027,-2.43],[126.025,-2.427],[126.022,-2.4255]]]},"properties":{"code":"82.05.08.2004","name":"Wailia","latitude":-2.4435387885152706,"longitude":126.02022481157357}},{"type":"Feature","geometry":{"type":"Polygon","coordinates":[[[126.063,-2.402],[126.0415,-2.408],[126.0385,-2.4015],[126.018,-2.4055],[126.0185,-2.4085],[126.0215,-2.4245],[126.022,-2.4255],[126.025,-2.427],[126.0265,-2.4295],[126.0285,-2.43],[126.031,-2.432],[126.056,-2.433],[126.0735,-2.43],[126.063,-2.402]]]},"properties":{"code":"82.05.08.2005","name":"Sama","latitude":-2.418035382218541,"longitude":126.04582851862193}},{"type":"Feature","geometry":{"type":"Polygon","coordinates":[[[126.0495,-2.375],[126.0135,-2.3745],[126.016,-2.3895],[126.016,-2.391],[126.022,-2.387],[126.025,-2.387],[126.036,-2.39],[126.0575,-2.3885],[126.0495,-2.375]]]},"properties":{"code":"82.05.08.2006","name":"Waisepa","latitude":-2.3819424145908488,"longitude":126.03488584659952}},{"type":"Feature","geometry":{"type":"Polygon","coordinates":[[[126.0135,-2.3745],[126.0135,-2.3735],[126.014,-2.3715],[126.013,-2.369],[126.0105,-2.366],[126.01,-2.365],[125.967,-2.396],[125.9765,-2.418],[125.989,-2.4365],[125.9905,-2.432],[126.018,-2.407],[126.018,-2.4045],[126.0155,-2.392],[126.016,-2.3895],[126.0135,-2.3745]]]},"properties":{"code":"82.05.09.2001","name":"Waigai","latitude":-2.3995953250311586,"longitude":125.99553029593862}},{"type":"Feature","geometry":{"type":"Polygon","coordinates":[[[126.01,-2.365],[126.0085,-2.3635],[126.003,-2.342],[126.0025,-2.341],[125.994,-2.3445],[125.9905,-2.344],[125.9595,-2.3595],[125.967,-2.396],[126.01,-2.365]]]},"properties":{"code":"82.05.09.2002","name":"Fuata","latitude":-2.3664199798848324,"longitude":125.98274622590178}},{"type":"Feature","geometry":{"type":"Polygon","coordinates":[[[125.9945,-2.3205],[125.991,-2.296],[125.987,-2.2935],[125.949,-2.3085],[125.959,-2.3255],[125.959,-2.335],[125.98,-2.324],[125.987,-2.3235],[125.9895,-2.322],[125.9915,-2.322],[125.9945,-2.3205]]]},"properties":{"code":"82.05.09.2003","name":"Wainib","latitude":-2.313311897034922,"longitude":125.97361443318353}},{"type":"Feature","geometry":{"type":"Polygon","coordinates":[[[125.982,-2.2865],[125.971,-2.2625],[125.9695,-2.2605],[125.9265,-2.275],[125.93,-2.2855],[125.949,-2.3085],[125.987,-2.2935],[125.985,-2.291],[125.982,-2.2865]]]},"properties":{"code":"82.05.09.2004","name":"Skom","latitude":-2.283913307996642,"longitude":125.95685728680876}},{"type":"Feature","geometry":{"type":"Polygon","coordinates":[[[126.001,-2.338],[125.9945,-2.3215],[125.9945,-2.3205],[125.9915,-2.322],[125.9895,-2.322],[125.987,-2.3235],[125.98,-2.324],[125.959,-2.335],[125.9595,-2.3595],[125.9905,-2.344],[125.994,-2.3445],[126.0025,-2.341],[126.002,-2.3405],[126.001,-2.338]]]},"properties":{"code":"82.05.09.2005","name":"Wai Tamua","latitude":-2.3390056113114985,"longitude":125.97914231547337}},{"type":"Feature","geometry":{"type":"Polygon","coordinates":[[[126.2115,-1.8155],[126.204,-1.808],[126.18,-1.807],[126.1755,-1.81],[126.157,-1.807],[126.1425,-1.826],[126.147,-1.8415],[126.1425,-1.862],[126.147,-1.877],[126.1385,-1.891],[126.166,-1.8835],[126.199,-1.8685],[126.2035,-1.866],[126.2035,-1.863],[126.203,-1.8625],[126.202,-1.86],[126.2025,-1.8575],[126.2025,-1.856],[126.204,-1.8555],[126.203,-1.854],[126.2115,-1.8155]]]},"properties":{"code":"82.05.10.2001","name":"Kawata","latitude":-1.8438332986271413,"longitude":126.17403308931138}},{"type":"Feature","geometry":{"type":"Polygon","coordinates":[[[126.228,-1.8765],[126.2455,-1.8795],[126.2765,-1.8565],[126.294,-1.854],[126.304,-1.847],[126.323,-1.8405],[126.326,-1.832],[126.3435,-1.8115],[126.332,-1.8115],[126.305,-1.8285],[126.2985,-1.822],[126.275,-1.821],[126.267,-1.8155],[126.2505,-1.817],[126.228,-1.8765]]]},"properties":{"code":"82.05.10.2002","name":"Waisakai","latitude":-1.8415582375107882,"longitude":126.27658546691472}},{"type":"Feature","geometry":{"type":"Polygon","coordinates":[[[126.2505,-1.817],[126.2245,-1.8185],[126.2115,-1.8155],[126.203,-1.854],[126.204,-1.8555],[126.2025,-1.856],[126.2025,-1.8575],[126.202,-1.86],[126.203,-1.8625],[126.2035,-1.863],[126.2035,-1.866],[126.199,-1.8685],[126.219,-1.8705],[126.228,-1.8765],[126.2505,-1.817]]]},"properties":{"code":"82.05.10.2003","name":"Pelita Jaya","latitude":-1.8428486045563126,"longitude":126.2231779524668}},{"type":"Feature","geometry":{"type":"Polygon","coordinates":[[[126.4565,-1.801],[126.439,-1.802],[126.427,-1.8115],[126.397,-1.814],[126.371,-1.8225],[126.386,-1.8385],[126.413,-1.8275],[126.459,-1.839],[126.4795,-1.8325],[126.4835,-1.8195],[126.4665,-1.8215],[126.4675,-1.804],[126.4565,-1.801]]]},"properties":{"code":"82.05.10.2004","name":"Waisum","latitude":-1.8222737892025622,"longitude":126.42923484930084}},{"type":"Feature","geometry":{"type":"Polygon","coordinates":[[[125.776,-1.926],[125.7935,-1.8855],[125.799,-1.869],[125.8105,-1.8565],[125.819,-1.8405],[125.821,-1.8375],[125.7965,-1.8365],[125.797,-1.84],[125.794,-1.8595],[125.7845,-1.862],[125.7835,-1.8645],[125.7805,-1.8655],[125.778,-1.8685],[125.7635,-1.8825],[125.7505,-1.891],[125.732,-1.9105],[125.735,-1.9285],[125.7765,-1.927],[125.776,-1.926]]]},"properties":{"code":"82.05.11.2001","name":"Buruakol","latitude":-1.8909124816413754,"longitude":125.77313728800237}},{"type":"Feature","geometry":{"type":"Polygon","coordinates":[[[125.906,-1.8515],[125.893,-1.848],[125.8595,-1.8435],[125.8575,-1.849],[125.8545,-1.8485],[125.854,-1.8545],[125.8565,-1.864],[125.851,-1.8675],[125.841,-1.8955],[125.8535,-1.8985],[125.878,-1.9125],[125.8935,-1.8905],[125.8995,-1.8575],[125.902,-1.8545],[125.906,-1.8515]]]},"properties":{"code":"82.05.11.2002","name":"Capalulu","latitude":-1.8753513537881732,"longitude":125.87258949012465}},{"type":"Feature","geometry":{"type":"Polygon","coordinates":[[[125.901,-1.933],[125.9035,-1.931],[125.917,-1.8795],[125.925,-1.863],[125.926,-1.8525],[125.9235,-1.85],[125.9255,-1.8425],[125.9215,-1.845],[125.9205,-1.849],[125.9215,-1.8515],[125.9195,-1.8555],[125.9185,-1.8645],[125.9025,-1.8985],[125.887,-1.921],[125.901,-1.933]]]},"properties":{"code":"82.05.11.2003","name":"Urifola","latitude":-1.8971668446333243,"longitude":125.90708220226848}},{"type":"Feature","geometry":{"type":"Polygon","coordinates":[[[126.148,-1.809],[126.1305,-1.8115],[126.0935,-1.8085],[126.067,-1.804],[126.0315,-1.8],[125.9805,-1.798],[125.9565,-1.8195],[125.9285,-1.8405],[125.927,-1.8415],[125.927,-1.8615],[125.926,-1.865],[125.928,-1.8905],[125.9185,-1.8995],[125.927,-1.917],[125.926,-1.9355],[125.949,-1.9205],[125.945,-1.9085],[125.9525,-1.8915],[125.9535,-1.879],[125.9455,-1.8605],[125.962,-1.8605],[125.969,-1.852],[125.9755,-1.8565],[125.977,-1.857],[125.978,-1.8585],[125.979,-1.8575],[126.008,-1.8425],[126.041,-1.8335],[126.0665,-1.83],[126.07,-1.825],[126.082,-1.822],[126.0945,-1.817],[126.0985,-1.817],[126.122,-1.82],[126.148,-1.8105],[126.148,-1.81],[126.148,-1.809]]]},"properties":{"code":"82.05.11.2004","name":"Mangoli","latitude":-1.839723054265793,"longitude":125.9940291638768}},{"type":"Feature","geometry":{"type":"Polygon","coordinates":[[[125.9805,-1.798],[125.9575,-1.796],[125.943,-1.797],[125.9135,-1.793],[125.907,-1.797],[125.8835,-1.796],[125.874,-1.807],[125.853,-1.8025],[125.826,-1.8045],[125.8175,-1.811],[125.8175,-1.8115],[125.818,-1.8145],[125.817,-1.815],[125.814,-1.819],[125.801,-1.8275],[125.797,-1.8295],[125.7955,-1.831],[125.7965,-1.8365],[125.821,-1.8375],[125.893,-1.848],[125.906,-1.8515],[125.909,-1.8525],[125.9285,-1.8405],[125.9565,-1.8195],[125.9805,-1.798]]]},"properties":{"code":"82.05.11.2005","name":"Wailoba","latitude":-1.8208683402383004,"longitude":125.88833357432006}},{"type":"Feature","geometry":{"type":"Polygon","coordinates":[[[125.8595,-1.8435],[125.821,-1.8375],[125.819,-1.8405],[125.8105,-1.8565],[125.799,-1.869],[125.7935,-1.8855],[125.776,-1.926],[125.7765,-1.927],[125.787,-1.917],[125.8005,-1.9135],[125.8275,-1.899],[125.841,-1.8955],[125.851,-1.8675],[125.8565,-1.864],[125.854,-1.8545],[125.8545,-1.8485],[125.8575,-1.849],[125.8595,-1.8435]]]},"properties":{"code":"82.05.11.2006","name":"Paslal","latitude":-1.8770340065657893,"longitude":125.82013249425246}},{"type":"Feature","geometry":{"type":"Polygon","coordinates":[[[125.926,-1.9355],[125.927,-1.917],[125.9185,-1.8995],[125.928,-1.8905],[125.926,-1.865],[125.927,-1.8615],[125.927,-1.8415],[125.9255,-1.8425],[125.9235,-1.85],[125.926,-1.8525],[125.925,-1.863],[125.917,-1.8795],[125.9035,-1.931],[125.901,-1.933],[125.9175,-1.939],[125.926,-1.9355]]]},"properties":{"code":"82.05.11.2007","name":"Waitulia","latitude":-1.9069854023093968,"longitude":125.91794903108386}},{"type":"Feature","geometry":{"type":"Polygon","coordinates":[[[125.887,-1.921],[125.9025,-1.8985],[125.9185,-1.8645],[125.9195,-1.8555],[125.9215,-1.8515],[125.9205,-1.849],[125.9215,-1.845],[125.909,-1.8525],[125.906,-1.8515],[125.902,-1.8545],[125.8995,-1.8575],[125.8935,-1.8905],[125.878,-1.9125],[125.887,-1.921]]]},"properties":{"code":"82.05.11.2008","name":"Wai U","latitude":-1.8809315772019868,"longitude":125.90129808166654}},{"type":"Feature","geometry":{"type":"Polygon","coordinates":[[[125.978,-1.8585],[125.977,-1.857],[125.9755,-1.8565],[125.969,-1.852],[125.962,-1.8605],[125.9455,-1.8605],[125.9535,-1.879],[125.9525,-1.8915],[125.945,-1.9085],[125.949,-1.9205],[125.9575,-1.918],[125.9605,-1.901],[125.9655,-1.8945],[125.9715,-1.865],[125.978,-1.8585]]]},"properties":{"code":"82.05.11.2009","name":"Jere","latitude":-1.8835759857255445,"longitude":125.95871934536098}},{"type":"Feature","geometry":{"type":"Polygon","coordinates":[[[125.78,-1.866],[125.77,-1.867],[125.765,-1.8645],[125.7535,-1.867],[125.7475,-1.8725],[125.71,-1.873],[125.702,-1.8735],[125.702,-1.882],[125.703,-1.8855],[125.702,-1.89],[125.702,-1.898],[125.7055,-1.904],[125.7005,-1.9185],[125.702,-1.929],[125.735,-1.9285],[125.732,-1.9105],[125.7505,-1.891],[125.7635,-1.8825],[125.778,-1.8685],[125.78,-1.866]]]},"properties":{"code":"82.05.12.2001","name":"Kaporo","latitude":-1.8948315233495148,"longitude":125.72887581811906}},{"type":"Feature","geometry":{"type":"Polygon","coordinates":[[[125.667,-1.8745],[125.665,-1.8745],[125.639,-1.8705],[125.6305,-1.8665],[125.615,-1.867],[125.609,-1.8665],[125.609,-1.871],[125.607,-1.8815],[125.609,-1.892],[125.609,-1.9285],[125.6255,-1.9305],[125.667,-1.931],[125.667,-1.8745]]]},"properties":{"code":"82.05.12.2002","name":"Waikafia","latitude":-1.9002057453499006,"longitude":125.63751679892538}},{"type":"Feature","geometry":{"type":"Polygon","coordinates":[[[125.566,-1.863],[125.527,-1.855],[125.524,-1.8665],[125.5265,-1.88],[125.5255,-1.948],[125.539,-1.9425],[125.5725,-1.9355],[125.5775,-1.929],[125.609,-1.9285],[125.609,-1.892],[125.607,-1.8815],[125.609,-1.871],[125.609,-1.8665],[125.571,-1.864],[125.566,-1.863]]]},"properties":{"code":"82.05.12.2003","name":"Buya","latitude":-1.899085812319976,"longitude":125.56421849227732}},{"type":"Feature","geometry":{"type":"Polygon","coordinates":[[[125.5105,-1.8485],[125.461,-1.845],[125.463,-1.891],[125.466,-1.9045],[125.4655,-1.9425],[125.4985,-1.936],[125.51,-1.9485],[125.5255,-1.948],[125.5265,-1.88],[125.524,-1.8665],[125.527,-1.855],[125.5105,-1.854],[125.5105,-1.8485]]]},"properties":{"code":"82.05.12.2004","name":"Auponhia","latitude":-1.8945003385713828,"longitude":125.49443225053916}},{"type":"Feature","geometry":{"type":"Polygon","coordinates":[[[125.702,-1.8735],[125.7,-1.8735],[125.6805,-1.874],[125.667,-1.8745],[125.667,-1.931],[125.702,-1.929],[125.7005,-1.9185],[125.7055,-1.904],[125.702,-1.898],[125.702,-1.89],[125.703,-1.8855],[125.702,-1.882],[125.702,-1.8735]]]},"properties":{"code":"82.05.12.2005","name":"Wailab","latitude":-1.9017531654882749,"longitude":125.68469336516118}},{"type":"Feature","geometry":{"type":"Polygon","coordinates":[[[125.51,-1.81],[125.502,-1.821],[125.486,-1.814],[125.4785,-1.797],[125.487,-1.7835],[125.466,-1.7805],[125.46,-1.812],[125.461,-1.845],[125.5105,-1.8485],[125.51,-1.81]]]},"properties":{"code":"82.05.13.2001","name":"Falabisahaya","latitude":-1.8211387391420675,"longitude":125.4820963422708}},{"type":"Feature","geometry":{"type":"Polygon","coordinates":[[[125.8175,-1.811],[125.781,-1.805],[125.7715,-1.813],[125.7655,-1.8055],[125.7485,-1.8065],[125.736,-1.814],[125.7275,-1.827],[125.7135,-1.817],[125.7045,-1.8195],[125.6975,-1.83],[125.69,-1.8235],[125.665,-1.825],[125.649,-1.8215],[125.64,-1.83],[125.629,-1.828],[125.6235,-1.8165],[125.6115,-1.8205],[125.6165,-1.8335],[125.6145,-1.8375],[125.6145,-1.8505],[125.613,-1.8555],[125.613,-1.867],[125.615,-1.867],[125.6305,-1.8665],[125.639,-1.8705],[125.665,-1.8745],[125.6805,-1.874],[125.7,-1.8735],[125.71,-1.873],[125.7475,-1.8725],[125.7535,-1.867],[125.765,-1.8645],[125.77,-1.867],[125.78,-1.866],[125.7805,-1.8655],[125.7835,-1.8645],[125.7845,-1.862],[125.794,-1.8595],[125.797,-1.84],[125.7955,-1.831],[125.797,-1.8295],[125.801,-1.8275],[125.814,-1.819],[125.817,-1.815],[125.818,-1.8145],[125.8175,-1.8115],[125.8175,-1.811]]]},"properties":{"code":"82.05.13.2002","name":"Modapia","latitude":-1.8420949263659134,"longitude":125.71216907021835}},{"type":"Feature","geometry":{"type":"Polygon","coordinates":[[[125.591,-1.8145],[125.566,-1.805],[125.5645,-1.808],[125.5645,-1.8095],[125.567,-1.81],[125.5675,-1.811],[125.5665,-1.8215],[125.591,-1.8215],[125.591,-1.8145]]]},"properties":{"code":"82.05.13.2003","name":"Modapuhi","latitude":-1.8146725281729523,"longitude":125.57744515750564}},{"type":"Feature","geometry":{"type":"Polygon","coordinates":[[[125.5455,-1.77],[125.538,-1.7565],[125.529,-1.7665],[125.522,-1.761],[125.515,-1.771],[125.5275,-1.7735],[125.5335,-1.78],[125.5455,-1.7815],[125.5455,-1.77]]]},"properties":{"code":"82.05.13.2004","name":"Pastabulu","latitude":-1.7710393226246743,"longitude":125.53122926798773}},{"type":"Feature","geometry":{"type":"Polygon","coordinates":[[[125.6115,-1.8205],[125.591,-1.8145],[125.591,-1.8215],[125.5905,-1.8315],[125.5895,-1.8335],[125.5895,-1.8355],[125.591,-1.8385],[125.592,-1.8385],[125.5945,-1.84],[125.5945,-1.841],[125.5945,-1.8425],[125.5885,-1.8425],[125.588,-1.8435],[125.5905,-1.8585],[125.591,-1.8615],[125.59,-1.8625],[125.5895,-1.8635],[125.5895,-1.865],[125.613,-1.867],[125.613,-1.8555],[125.6145,-1.8505],[125.6145,-1.8375],[125.6165,-1.8335],[125.6115,-1.8205]]]},"properties":{"code":"82.05.13.2005","name":"Saniahaya","latitude":-1.841279826851619,"longitude":125.60168643454625}},{"type":"Feature","geometry":{"type":"Polygon","coordinates":[[[125.566,-1.805],[125.539,-1.803],[125.539,-1.7865],[125.51,-1.81],[125.5105,-1.854],[125.527,-1.855],[125.566,-1.863],[125.5665,-1.8215],[125.5675,-1.811],[125.567,-1.81],[125.5645,-1.8095],[125.5645,-1.808],[125.566,-1.805]]]},"properties":{"code":"82.05.13.2006","name":"Minaluli","latitude":-1.8293754555352568,"longitude":125.53942684570028}},{"type":"Feature","geometry":{"type":"Polygon","coordinates":[[[125.5895,-1.865],[125.5895,-1.8635],[125.59,-1.8625],[125.591,-1.8615],[125.5905,-1.8585],[125.588,-1.8435],[125.5885,-1.8425],[125.5945,-1.8425],[125.5945,-1.841],[125.5945,-1.84],[125.592,-1.8385],[125.591,-1.8385],[125.5895,-1.8355],[125.5895,-1.8335],[125.5905,-1.8315],[125.591,-1.8215],[125.5665,-1.8215],[125.566,-1.863],[125.571,-1.864],[125.5895,-1.865]]]},"properties":{"code":"82.05.13.2007","name":"Modapuhi Trans","latitude":-1.8427632900459887,"longitude":125.5784523664038}},{"type":"Feature","geometry":{"type":"Polygon","coordinates":[[[125.9925,-2.044],[125.9885,-2.0185],[125.9625,-2.032],[125.9615,-2.0325],[125.9925,-2.044]]]},"properties":{"code":"82.05.18.2001","name":"Man-Gega","latitude":-2.03216739500813,"longitude":125.9813204041199}},{"type":"Feature","geometry":{"type":"Polygon","coordinates":[[[125.976,-2.0065],[125.9755,-2.005],[125.9745,-2.0075],[125.976,-2.0065]]]},"properties":{"code":"82.05.18.2002","name":"Bajo","latitude":-2.0060554820885663,"longitude":125.97521477543863}},{"type":"Feature","geometry":{"type":"Polygon","coordinates":[[[125.976,-2.0065],[125.9745,-2.01],[125.972,-2.0065],[125.97,-2.0005],[125.951,-1.989],[125.9495,-1.994],[125.9505,-1.9985],[125.949,-2.003],[125.9435,-2.02],[125.935,-2.03],[125.918,-2.041],[125.9265,-2.0405],[125.9555,-2.0335],[125.9585,-2.0335],[125.9595,-2.0325],[125.9625,-2.032],[125.9885,-2.0185],[125.976,-2.0065]]]},"properties":{"code":"82.05.18.2003","name":"Pohea","latitude":-2.017785564851213,"longitude":125.9568662724764}},{"type":"Feature","geometry":{"type":"Polygon","coordinates":[[[125.9495,-1.994],[125.942,-1.9785],[125.923,-1.98],[125.921,-2.0015],[125.9165,-2.0125],[125.922,-2.0205],[125.918,-2.041],[125.935,-2.03],[125.9435,-2.02],[125.949,-2.003],[125.9505,-1.9985],[125.9495,-1.994]]]},"properties":{"code":"82.05.18.2004","name":"Fukweu","latitude":-2.0044284370530394,"longitude":125.93313656054974}},{"type":"Feature","geometry":{"type":"Polygon","coordinates":[[[125.923,-1.98],[125.907,-1.9765],[125.899,-1.9835],[125.8945,-1.9975],[125.902,-2.009],[125.903,-2.0235],[125.918,-2.041],[125.922,-2.0205],[125.9165,-2.0125],[125.921,-2.0015],[125.923,-1.98]]]},"properties":{"code":"82.05.18.2005","name":"Wainin","latitude":-2.003626480465998,"longitude":125.91094704205325}},{"type":"Feature","geometry":{"type":"Polygon","coordinates":[[[125.918,-2.041],[125.903,-2.0235],[125.902,-2.009],[125.8945,-1.9975],[125.89,-1.9995],[125.8795,-2.0205],[125.8705,-2.028],[125.897,-2.039],[125.918,-2.041]]]},"properties":{"code":"82.05.18.2006","name":"Malbufa","latitude":-2.022535075415334,"longitude":125.89343226792599}},{"type":"Feature","geometry":{"type":"Polygon","coordinates":[[[125.918,-2.041],[125.897,-2.039],[125.8705,-2.028],[125.862,-2.0505],[125.889,-2.054],[125.8995,-2.059],[125.916,-2.058],[125.9165,-2.0535],[125.9175,-2.044],[125.918,-2.041]]]},"properties":{"code":"82.05.18.2007","name":"Fokalik","latitude":-2.0450557226174384,"longitude":125.89015156130604}}]}