{"type":"FeatureCollection","features":[{"type":"Feature","geometry":{"type":"Polygon","coordinates":[[[127.4345,0.6605],[127.426,0.6605],[127.4405,0.654],[127.44,0.6485],[127.4425,0.647],[127.4485,0.6565],[127.446,0.6575],[127.4345,0.6605]]]},"properties":{"code":"82.72.01.1001","name":"Soasio"}},{"type":"Feature","geometry":{"type":"Polygon","coordinates":[[[127.4505,0.663],[127.4465,0.664],[127.4445,0.6645],[127.444,0.658],[127.446,0.6575],[127.4485,0.6565],[127.4505,0.663]]]},"properties":{"code":"82.72.01.1002","name":"Gamtufkange"}},{"type":"Feature","geometry":{"type":"Polygon","coordinates":[[[127.4565,0.673],[127.451,0.6795],[127.4495,0.68],[127.4485,0.6785],[127.4475,0.677],[127.4565,0.673]]]},"properties":{"code":"82.72.01.1003","name":"Indonesiana"}},{"type":"Feature","geometry":{"type":"Polygon","coordinates":[[[127.4335,0.642],[127.4025,0.662],[127.423,0.639],[127.432,0.6325],[127.4355,0.64],[127.4335,0.642]]]},"properties":{"code":"82.72.01.1005","name":"Seli"}},{"type":"Feature","geometry":{"type":"Polygon","coordinates":[[[127.44,0.6485],[127.4375,0.6495],[127.4335,0.6455],[127.4335,0.642],[127.4355,0.64],[127.4425,0.647],[127.44,0.6485]]]},"properties":{"code":"82.72.01.1006","name":"Soadara"}},{"type":"Feature","geometry":{"type":"Polygon","coordinates":[[[127.4235,0.6585],[127.4025,0.662],[127.4335,0.642],[127.4335,0.6455],[127.4375,0.6495],[127.4325,0.652],[127.4235,0.6585]]]},"properties":{"code":"82.72.01.1007","name":"Topo"}},{"type":"Feature","geometry":{"type":"Polygon","coordinates":[[[127.439,0.674],[127.433,0.675],[127.4175,0.6815],[127.4175,0.68],[127.4025,0.662],[127.4235,0.6585],[127.426,0.6605],[127.4365,0.6725],[127.439,0.674]]]},"properties":{"code":"82.72.01.1008","name":"Gurabunga"}},{"type":"Feature","geometry":{"type":"Polygon","coordinates":[[[127.4555,0.6855],[127.44,0.6925],[127.4365,0.6915],[127.435,0.6905],[127.4175,0.687],[127.418,0.684],[127.4475,0.677],[127.4485,0.6785],[127.4495,0.68],[127.451,0.6795],[127.4555,0.6855]]]},"properties":{"code":"82.72.01.1012","name":"Goto"}},{"type":"Feature","geometry":{"type":"Polygon","coordinates":[[[127.4535,0.668],[127.445,0.6735],[127.439,0.674],[127.438,0.6735],[127.436,0.666],[127.44,0.6655],[127.4465,0.664],[127.4505,0.663],[127.4535,0.668]]]},"properties":{"code":"82.72.01.1013","name":"Tomagoba"}},{"type":"Feature","geometry":{"type":"Polygon","coordinates":[[[127.436,0.666],[127.438,0.6735],[127.4365,0.6725],[127.426,0.6605],[127.4345,0.6605],[127.436,0.666]]]},"properties":{"code":"82.72.01.1014","name":"Folarora"}},{"type":"Feature","geometry":{"type":"Polygon","coordinates":[[[127.44,0.6485],[127.4405,0.654],[127.426,0.6605],[127.4235,0.6585],[127.4325,0.652],[127.44,0.6485]]]},"properties":{"code":"82.72.01.1015","name":"Topo Tiga"}},{"type":"Feature","geometry":{"type":"Polygon","coordinates":[[[127.4445,0.6645],[127.44,0.6655],[127.436,0.666],[127.4345,0.6605],[127.444,0.658],[127.4445,0.6645]]]},"properties":{"code":"82.72.01.1016","name":"Tambula"}},{"type":"Feature","geometry":{"type":"Polygon","coordinates":[[[127.4475,0.677],[127.418,0.684],[127.4175,0.6815],[127.433,0.675],[127.445,0.6735],[127.4535,0.668],[127.4565,0.673],[127.4475,0.677]]]},"properties":{"code":"82.72.01.1017","name":"Tuguwaji"}},{"type":"Feature","geometry":{"type":"Polygon","coordinates":[[[127.604,0.778],[127.6035,0.7785],[127.6025,0.778],[127.6025,0.761],[127.5785,0.753],[127.5895,0.7465],[127.599,0.7475],[127.6185,0.7395],[127.646,0.742],[127.6575,0.7495],[127.632,0.751],[127.6295,0.767],[127.6195,0.7745],[127.6085,0.769],[127.6085,0.772],[127.607,0.7735],[127.607,0.774],[127.604,0.778]]]},"properties":{"code":"82.72.02.1002","name":"Guraping"}},{"type":"Feature","geometry":{"type":"Polygon","coordinates":[[[127.5745,0.7355],[127.5615,0.742],[127.5485,0.7305],[127.567,0.7245],[127.5745,0.7355]]]},"properties":{"code":"82.72.02.1003","name":"Sofifi"}},{"type":"Feature","geometry":{"type":"Polygon","coordinates":[[[127.6255,0.783],[127.6235,0.784],[127.624,0.786],[127.6205,0.7855],[127.618,0.789],[127.6155,0.7825],[127.6105,0.7795],[127.609,0.7805],[127.603,0.779],[127.6025,0.778],[127.6035,0.7785],[127.604,0.778],[127.607,0.774],[127.612,0.776],[127.6145,0.7765],[127.6155,0.777],[127.617,0.7765],[127.6195,0.7745],[127.6295,0.767],[127.632,0.751],[127.6575,0.7495],[127.672,0.7485],[127.6975,0.742],[127.757,0.744],[127.757,0.7445],[127.757,0.752],[127.7555,0.7525],[127.7535,0.754],[127.743,0.757],[127.74,0.7565],[127.7375,0.7555],[127.735,0.757],[127.7315,0.759],[127.7315,0.7595],[127.731,0.759],[127.7295,0.7585],[127.728,0.7575],[127.7255,0.76],[127.7185,0.7615],[127.7185,0.7625],[127.718,0.7635],[127.7155,0.764],[127.705,0.7625],[127.7025,0.762],[127.701,0.7575],[127.7005,0.7555],[127.6925,0.7555],[127.6855,0.7585],[127.683,0.758],[127.68,0.7595],[127.673,0.77],[127.672,0.771],[127.663,0.7745],[127.662,0.7755],[127.658,0.7755],[127.6575,0.773],[127.654,0.7745],[127.6515,0.7745],[127.6515,0.774],[127.6485,0.7735],[127.636,0.7705],[127.624,0.778],[127.623,0.7815],[127.6245,0.7825],[127.6255,0.783]]]},"properties":{"code":"82.72.02.2001","name":"Kaiyasa"}},{"type":"Feature","geometry":{"type":"Polygon","coordinates":[[[127.567,0.7245],[127.5485,0.7305],[127.5485,0.711],[127.553,0.711],[127.5545,0.712],[127.558,0.7115],[127.567,0.7155],[127.5715,0.717],[127.574,0.7185],[127.576,0.7185],[127.5745,0.721],[127.567,0.7245]]]},"properties":{"code":"82.72.02.2005","name":"Oba"}},{"type":"Feature","geometry":{"type":"Polygon","coordinates":[[[127.5545,0.6985],[127.554,0.699],[127.5545,0.7085],[127.5545,0.71],[127.5545,0.7105],[127.554,0.7115],[127.553,0.711],[127.5485,0.711],[127.5515,0.696],[127.5545,0.6985]]]},"properties":{"code":"82.72.02.2006","name":"Somahode"}},{"type":"Feature","geometry":{"type":"Polygon","coordinates":[[[127.567,0.7155],[127.558,0.7115],[127.562,0.7035],[127.563,0.6995],[127.5635,0.6985],[127.5635,0.6975],[127.5635,0.6965],[127.5655,0.697],[127.5775,0.697],[127.567,0.7155]]]},"properties":{"code":"82.72.02.2007","name":"Ake Kolano"}},{"type":"Feature","geometry":{"type":"Polygon","coordinates":[[[127.5745,0.7355],[127.572,0.751],[127.5615,0.742],[127.5745,0.7355]]]},"properties":{"code":"82.72.02.2009","name":"Balbar"}},{"type":"Feature","geometry":{"type":"Polygon","coordinates":[[[127.757,0.744],[127.6975,0.742],[127.672,0.7485],[127.6575,0.7495],[127.646,0.742],[127.6185,0.7395],[127.6035,0.7355],[127.5905,0.7375],[127.579,0.7345],[127.5745,0.7355],[127.567,0.7245],[127.5745,0.721],[127.5755,0.719],[127.576,0.718],[127.5875,0.71],[127.5895,0.7095],[127.5895,0.709],[127.589,0.708],[127.588,0.7065],[127.592,0.7],[127.5935,0.698],[127.617,0.6885],[127.6325,0.6905],[127.6415,0.6955],[127.668,0.697],[127.6755,0.706],[127.6955,0.7],[127.7055,0.711],[127.7215,0.7075],[127.7335,0.7125],[127.754,0.7085],[127.767,0.7105],[127.767,0.711],[127.767,0.732],[127.7655,0.734],[127.7575,0.7425],[127.757,0.744]]]},"properties":{"code":"82.72.02.2010","name":"Bukit Durian"}},{"type":"Feature","geometry":{"type":"Polygon","coordinates":[[[127.5785,0.753],[127.572,0.751],[127.5745,0.7355],[127.579,0.7345],[127.5905,0.7375],[127.6035,0.7355],[127.6185,0.7395],[127.599,0.7475],[127.5895,0.7465],[127.5785,0.753]]]},"properties":{"code":"82.72.02.2011","name":"Galala"}},{"type":"Feature","geometry":{"type":"Polygon","coordinates":[[[127.593,0.699],[127.592,0.7],[127.588,0.7065],[127.589,0.708],[127.5895,0.709],[127.5895,0.7095],[127.5875,0.71],[127.576,0.718],[127.576,0.7185],[127.574,0.7185],[127.5715,0.717],[127.567,0.7155],[127.5775,0.697],[127.581,0.6945],[127.591,0.697],[127.593,0.699]]]},"properties":{"code":"82.72.02.2012","name":"Ampera"}},{"type":"Feature","geometry":{"type":"Polygon","coordinates":[[[127.767,0.7105],[127.754,0.7085],[127.7335,0.7125],[127.7215,0.7075],[127.7055,0.711],[127.6955,0.7],[127.6755,0.706],[127.668,0.697],[127.6415,0.6955],[127.6325,0.6905],[127.617,0.6885],[127.5935,0.698],[127.593,0.699],[127.591,0.697],[127.581,0.6945],[127.5775,0.697],[127.5655,0.697],[127.5595,0.6965],[127.5585,0.6965],[127.557,0.6975],[127.555,0.6985],[127.5545,0.6985],[127.5515,0.696],[127.551,0.6825],[127.5405,0.654],[127.541,0.653],[127.542,0.652],[127.5485,0.653],[127.5485,0.654],[127.5495,0.6545],[127.5505,0.654],[127.552,0.6565],[127.5535,0.656],[127.5555,0.6565],[127.5555,0.655],[127.563,0.646],[127.584,0.6435],[127.6025,0.646],[127.627,0.641],[127.645,0.648],[127.653,0.657],[127.6695,0.6625],[127.6815,0.6505],[127.71,0.634],[127.724,0.642],[127.7265,0.6555],[127.741,0.6485],[127.748,0.632],[127.761,0.636],[127.7645,0.624],[127.767,0.6205],[127.773,0.622],[127.781,0.6405],[127.792,0.643],[127.7885,0.6625],[127.782,0.6725],[127.7825,0.693],[127.768,0.707],[127.767,0.7105]]]},"properties":{"code":"82.72.02.2013","name":"Kusu"}},{"type":"Feature","geometry":{"type":"Polygon","coordinates":[[[127.558,0.7115],[127.5545,0.712],[127.554,0.7115],[127.5545,0.71],[127.5545,0.7085],[127.554,0.699],[127.555,0.6985],[127.557,0.6975],[127.5585,0.6965],[127.5605,0.6965],[127.5635,0.6965],[127.5635,0.6975],[127.5635,0.6985],[127.563,0.6995],[127.562,0.7035],[127.558,0.7115]]]},"properties":{"code":"82.72.02.2014","name":"Garojou"}},{"type":"Feature","geometry":{"type":"Polygon","coordinates":[[[127.6195,0.7745],[127.617,0.7765],[127.6155,0.777],[127.6145,0.7765],[127.612,0.776],[127.607,0.774],[127.607,0.7735],[127.6085,0.772],[127.6085,0.769],[127.6195,0.7745]]]},"properties":{"code":"82.72.02.2015","name":"Gosale"}},{"type":"Feature","geometry":{"type":"Polygon","coordinates":[[[127.8055,0.346],[127.8005,0.362],[127.8065,0.3735],[127.7985,0.3855],[127.791,0.388],[127.7905,0.3875],[127.79,0.3555],[127.7865,0.3465],[127.775,0.3395],[127.7675,0.356],[127.756,0.3635],[127.742,0.3505],[127.723,0.3385],[127.7345,0.31],[127.7325,0.299],[127.7445,0.2955],[127.75,0.2995],[127.776,0.299],[127.7905,0.3015],[127.7975,0.304],[127.802,0.308],[127.8005,0.309],[127.7995,0.3165],[127.7995,0.321],[127.804,0.3355],[127.8065,0.338],[127.807,0.343],[127.8055,0.346]]]},"properties":{"code":"82.72.03.1004","name":"Payahe"}},{"type":"Feature","geometry":{"type":"Polygon","coordinates":[[[127.709,0.41],[127.709,0.4115],[127.7085,0.42],[127.704,0.419],[127.7035,0.4095],[127.7075,0.4095],[127.709,0.41]]]},"properties":{"code":"82.72.03.2001","name":"Woda"}},{"type":"Feature","geometry":{"type":"Polygon","coordinates":[[[127.6655,0.399],[127.6605,0.4225],[127.6495,0.415],[127.635,0.4195],[127.61,0.406],[127.6055,0.404],[127.602,0.402],[127.6225,0.396],[127.622,0.3835],[127.6265,0.383],[127.6315,0.384],[127.642,0.3925],[127.6655,0.399]]]},"properties":{"code":"82.72.03.2002","name":"Gita"}},{"type":"Feature","geometry":{"type":"Polygon","coordinates":[[[127.664,0.3855],[127.6685,0.387],[127.6655,0.399],[127.642,0.3925],[127.6315,0.384],[127.6265,0.383],[127.622,0.3835],[127.6185,0.377],[127.6235,0.3595],[127.646,0.358],[127.6615,0.382],[127.664,0.3855]]]},"properties":{"code":"82.72.03.2003","name":"Toseho"}},{"type":"Feature","geometry":{"type":"Polygon","coordinates":[[[127.8105,0.2655],[127.8005,0.272],[127.7755,0.262],[127.769,0.262],[127.7455,0.2425],[127.722,0.249],[127.7155,0.2475],[127.7065,0.2225],[127.7085,0.2135],[127.696,0.185],[127.696,0.16],[127.7145,0.16],[127.7505,0.184],[127.7525,0.203],[127.7715,0.207],[127.79,0.2045],[127.8105,0.2095],[127.815,0.2125],[127.8165,0.213],[127.819,0.215],[127.817,0.216],[127.813,0.2295],[127.8145,0.2305],[127.813,0.231],[127.8055,0.234],[127.802,0.236],[127.8015,0.237],[127.801,0.237],[127.7975,0.25],[127.8085,0.2605],[127.8105,0.2655]]]},"properties":{"code":"82.72.03.2005","name":"Kususinopa"}},{"type":"Feature","geometry":{"type":"Polygon","coordinates":[[[127.7125,0.424],[127.713,0.433],[127.706,0.445],[127.697,0.4495],[127.689,0.442],[127.698,0.413],[127.693,0.3945],[127.6995,0.379],[127.702,0.378],[127.7085,0.3855],[127.709,0.409],[127.709,0.41],[127.7075,0.4095],[127.7035,0.4095],[127.704,0.419],[127.7085,0.42],[127.7065,0.4215],[127.7075,0.423],[127.7125,0.424]]]},"properties":{"code":"82.72.03.2008","name":"Bale"}},{"type":"Feature","geometry":{"type":"Polygon","coordinates":[[[127.7745,0.439],[127.774,0.439],[127.765,0.4425],[127.756,0.439],[127.73,0.4395],[127.7265,0.432],[127.7125,0.424],[127.7075,0.423],[127.7065,0.4215],[127.7085,0.42],[127.709,0.4115],[127.709,0.409],[127.7085,0.3855],[127.753,0.397],[127.7635,0.3885],[127.7905,0.3875],[127.7895,0.389],[127.791,0.394],[127.79,0.3975],[127.7865,0.4015],[127.775,0.413],[127.7725,0.4275],[127.7725,0.433],[127.7745,0.4365],[127.7745,0.439]]]},"properties":{"code":"82.72.03.2009","name":"Koli"}},{"type":"Feature","geometry":{"type":"Polygon","coordinates":[[[127.7905,0.3875],[127.7635,0.3885],[127.753,0.397],[127.7085,0.3855],[127.702,0.378],[127.7015,0.378],[127.698,0.373],[127.6965,0.3515],[127.693,0.345],[127.7075,0.3525],[127.723,0.3385],[127.742,0.3505],[127.756,0.3635],[127.7675,0.356],[127.775,0.3395],[127.7865,0.3465],[127.79,0.3555],[127.7905,0.3875]]]},"properties":{"code":"82.72.03.2010","name":"Kosa"}},{"type":"Feature","geometry":{"type":"Polygon","coordinates":[[[127.681,0.4415],[127.666,0.4425],[127.6645,0.4425],[127.6605,0.4225],[127.6655,0.399],[127.6685,0.387],[127.679,0.38],[127.6835,0.385],[127.684,0.414],[127.676,0.426],[127.681,0.4415]]]},"properties":{"code":"82.72.03.2011","name":"Tului"}},{"type":"Feature","geometry":{"type":"Polygon","coordinates":[[[127.679,0.38],[127.6685,0.387],[127.664,0.3855],[127.6615,0.382],[127.646,0.358],[127.6585,0.344],[127.677,0.3495],[127.689,0.349],[127.681,0.363],[127.679,0.38]]]},"properties":{"code":"82.72.03.2012","name":"Todapa"}},{"type":"Feature","geometry":{"type":"Polygon","coordinates":[[[127.6645,0.4425],[127.6625,0.4445],[127.654,0.445],[127.652,0.446],[127.6535,0.461],[127.65,0.462],[127.632,0.463],[127.6275,0.461],[127.6265,0.4605],[127.624,0.4595],[127.624,0.4535],[127.625,0.4515],[127.623,0.4445],[127.62,0.4425],[127.6195,0.4405],[127.621,0.437],[127.6225,0.4365],[127.624,0.436],[127.6255,0.437],[127.627,0.434],[127.627,0.4235],[127.6235,0.42],[127.6215,0.4195],[127.6205,0.419],[127.6205,0.418],[127.6135,0.4175],[127.5995,0.4085],[127.599,0.407],[127.6015,0.403],[127.602,0.402],[127.6055,0.404],[127.61,0.406],[127.635,0.4195],[127.6495,0.415],[127.6605,0.4225],[127.6645,0.4425]]]},"properties":{"code":"82.72.03.2013","name":"Talasi"}},{"type":"Feature","geometry":{"type":"Polygon","coordinates":[[[127.802,0.3005],[127.802,0.308],[127.7975,0.304],[127.7905,0.3015],[127.776,0.299],[127.75,0.2995],[127.7445,0.2955],[127.7325,0.299],[127.7235,0.273],[127.716,0.2635],[127.7155,0.2475],[127.722,0.249],[127.7455,0.2425],[127.769,0.262],[127.7755,0.262],[127.8005,0.272],[127.8105,0.2655],[127.8115,0.2695],[127.8125,0.2705],[127.8175,0.2725],[127.8195,0.2725],[127.8175,0.279],[127.8175,0.2795],[127.816,0.281],[127.802,0.3005]]]},"properties":{"code":"82.72.03.2014","name":"Sigela Yef"}},{"type":"Feature","geometry":{"type":"Polygon","coordinates":[[[127.7015,0.378],[127.6995,0.379],[127.693,0.3945],[127.698,0.413],[127.689,0.442],[127.681,0.4415],[127.676,0.426],[127.684,0.414],[127.6835,0.385],[127.679,0.38],[127.681,0.363],[127.689,0.349],[127.693,0.345],[127.6965,0.3515],[127.698,0.373],[127.7015,0.378]]]},"properties":{"code":"82.72.03.2015","name":"Talagamori"}},{"type":"Feature","geometry":{"type":"Polygon","coordinates":[[[127.3715,0.6405],[127.4025,0.662],[127.3825,0.6565],[127.365,0.6585],[127.3715,0.6405]]]},"properties":{"code":"82.72.04.1001","name":"Toloa"}},{"type":"Feature","geometry":{"type":"Polygon","coordinates":[[[127.3785,0.631],[127.389,0.6405],[127.4025,0.662],[127.3715,0.6405],[127.3785,0.631]]]},"properties":{"code":"82.72.04.1002","name":"Dokiri"}},{"type":"Feature","geometry":{"type":"Polygon","coordinates":[[[127.395,0.624],[127.3985,0.652],[127.4025,0.662],[127.389,0.6405],[127.3785,0.631],[127.395,0.624]]]},"properties":{"code":"82.72.04.1003","name":"Tuguiha"}},{"type":"Feature","geometry":{"type":"Polygon","coordinates":[[[127.409,0.6225],[127.409,0.635],[127.402,0.6485],[127.4025,0.662],[127.3985,0.652],[127.395,0.624],[127.409,0.6225]]]},"properties":{"code":"82.72.04.1004","name":"Tomalou"}},{"type":"Feature","geometry":{"type":"Polygon","coordinates":[[[127.4215,0.626],[127.4185,0.636],[127.4025,0.662],[127.402,0.6485],[127.409,0.635],[127.409,0.6225],[127.4215,0.626]]]},"properties":{"code":"82.72.04.1005","name":"Gurabati"}},{"type":"Feature","geometry":{"type":"Polygon","coordinates":[[[127.432,0.6325],[127.423,0.639],[127.4025,0.662],[127.4185,0.636],[127.4215,0.626],[127.432,0.6325]]]},"properties":{"code":"82.72.04.1006","name":"Tongowai"}},{"type":"Feature","geometry":{"type":"Polygon","coordinates":[[[127.4005,0.5665],[127.3895,0.58],[127.38,0.5655],[127.3905,0.562],[127.4005,0.5665]]]},"properties":{"code":"82.72.04.2007","name":"Mare Kofo"}},{"type":"Feature","geometry":{"type":"Polygon","coordinates":[[[127.4005,0.5665],[127.411,0.5735],[127.4095,0.5835],[127.3985,0.586],[127.3895,0.58],[127.4005,0.5665]]]},"properties":{"code":"82.72.04.2008","name":"Mare Gam"}},{"type":"Feature","geometry":{"type":"Polygon","coordinates":[[[127.421,0.7295],[127.406,0.734],[127.4,0.7335],[127.387,0.7275],[127.3795,0.712],[127.39,0.711],[127.404,0.7065],[127.4175,0.7185],[127.426,0.714],[127.43,0.715],[127.4335,0.718],[127.4355,0.7195],[127.437,0.7235],[127.4355,0.7275],[127.4275,0.7315],[127.421,0.7295]]]},"properties":{"code":"82.72.05.1001","name":"Rum"}},{"type":"Feature","geometry":{"type":"Polygon","coordinates":[[[127.404,0.7065],[127.39,0.711],[127.39,0.7085],[127.384,0.7025],[127.3895,0.6985],[127.407,0.6995],[127.406,0.701],[127.404,0.7065]]]},"properties":{"code":"82.72.05.1002","name":"Fobaharu"}},{"type":"Feature","geometry":{"type":"Polygon","coordinates":[[[127.407,0.6995],[127.3895,0.6985],[127.3965,0.6925],[127.4025,0.662],[127.4175,0.68],[127.418,0.684],[127.4175,0.687],[127.407,0.6995]]]},"properties":{"code":"82.72.05.1003","name":"Jaya"}},{"type":"Feature","geometry":{"type":"Polygon","coordinates":[[[127.39,0.711],[127.3795,0.712],[127.37,0.695],[127.3745,0.6925],[127.39,0.7085],[127.39,0.711]]]},"properties":{"code":"82.72.05.1004","name":"Ome"}},{"type":"Feature","geometry":{"type":"Polygon","coordinates":[[[127.3745,0.6925],[127.37,0.695],[127.3625,0.674],[127.368,0.6755],[127.3685,0.6775],[127.3795,0.685],[127.3795,0.686],[127.3745,0.6925]]]},"properties":{"code":"82.72.05.1005","name":"Mareku"}},{"type":"Feature","geometry":{"type":"Polygon","coordinates":[[[127.4025,0.662],[127.3745,0.682],[127.3685,0.6775],[127.368,0.6755],[127.375,0.668],[127.4025,0.662]]]},"properties":{"code":"82.72.05.1006","name":"Afa Afa"}},{"type":"Feature","geometry":{"type":"Polygon","coordinates":[[[127.4025,0.662],[127.375,0.668],[127.368,0.6755],[127.3625,0.674],[127.365,0.6585],[127.3825,0.6565],[127.4025,0.662]]]},"properties":{"code":"82.72.05.1008","name":"Bobo"}},{"type":"Feature","geometry":{"type":"Polygon","coordinates":[[[127.3895,0.6985],[127.384,0.7025],[127.3745,0.6925],[127.3795,0.686],[127.389,0.6835],[127.4025,0.662],[127.3965,0.6925],[127.3895,0.6985]]]},"properties":{"code":"82.72.05.1009","name":"Gubu Kusuma"}},{"type":"Feature","geometry":{"type":"Polygon","coordinates":[[[127.4025,0.662],[127.389,0.6835],[127.3795,0.686],[127.3795,0.685],[127.3745,0.682],[127.4025,0.662]]]},"properties":{"code":"82.72.05.1010","name":"Sirongo Folaraha"}},{"type":"Feature","geometry":{"type":"Polygon","coordinates":[[[127.421,0.7295],[127.3985,0.745],[127.398,0.756],[127.3855,0.7475],[127.387,0.7275],[127.4,0.7335],[127.406,0.734],[127.421,0.7295]]]},"properties":{"code":"82.72.05.1011","name":"Rum Balibunga"}},{"type":"Feature","geometry":{"type":"Polygon","coordinates":[[[127.37,0.741],[127.363,0.7295],[127.366,0.7305],[127.3685,0.7305],[127.369,0.731],[127.3685,0.731],[127.37,0.741]]]},"properties":{"code":"82.72.05.2007","name":"Maitara"}},{"type":"Feature","geometry":{"type":"Polygon","coordinates":[[[127.376,0.7265],[127.369,0.731],[127.3685,0.7305],[127.366,0.7305],[127.363,0.7295],[127.376,0.7265]]]},"properties":{"code":"82.72.05.2012","name":"Maitara Selatan"}},{"type":"Feature","geometry":{"type":"Polygon","coordinates":[[[127.379,0.7335],[127.37,0.741],[127.3685,0.731],[127.379,0.7335]]]},"properties":{"code":"82.72.05.2013","name":"Maitara Utara"}},{"type":"Feature","geometry":{"type":"Polygon","coordinates":[[[127.376,0.7265],[127.379,0.7335],[127.3685,0.731],[127.376,0.7265]]]},"properties":{"code":"82.72.05.2014","name":"Maitara Tengah"}},{"type":"Feature","geometry":{"type":"Polygon","coordinates":[[[127.815,0.535],[127.816,0.537],[127.826,0.5425],[127.8215,0.5565],[127.829,0.5695],[127.83,0.57],[127.8315,0.572],[127.829,0.577],[127.8285,0.578],[127.8215,0.5885],[127.8215,0.5895],[127.781,0.5825],[127.77,0.5725],[127.755,0.588],[127.734,0.575],[127.7205,0.571],[127.7,0.575],[127.668,0.57],[127.6525,0.5745],[127.6315,0.5675],[127.608,0.5685],[127.597,0.565],[127.584,0.569],[127.5825,0.5685],[127.5695,0.5505],[127.56,0.556],[127.5575,0.5565],[127.5485,0.5425],[127.539,0.5345],[127.5505,0.527],[127.559,0.5345],[127.578,0.537],[127.5935,0.5435],[127.597,0.54],[127.604,0.5385],[127.607,0.5395],[127.608,0.539],[127.6085,0.539],[127.609,0.539],[127.618,0.5515],[127.6335,0.5395],[127.6445,0.536],[127.664,0.5455],[127.687,0.535],[127.7065,0.5345],[127.7235,0.5305],[127.737,0.532],[127.7445,0.5385],[127.7665,0.5325],[127.7765,0.5425],[127.7885,0.5375],[127.8,0.541],[127.808,0.537],[127.813,0.5355],[127.815,0.535]]]},"properties":{"code":"82.72.06.1001","name":"Akelamo"}},{"type":"Feature","geometry":{"type":"Polygon","coordinates":[[[127.6145,0.47],[127.606,0.46],[127.6025,0.444],[127.585,0.439],[127.58,0.4365],[127.575,0.439],[127.5745,0.4275],[127.585,0.4255],[127.601,0.436],[127.6195,0.442],[127.62,0.4425],[127.623,0.4445],[127.625,0.4515],[127.624,0.4535],[127.624,0.4595],[127.626,0.4605],[127.625,0.461],[127.622,0.463],[127.6195,0.464],[127.6145,0.47]]]},"properties":{"code":"82.72.06.2002","name":"Lola"}},{"type":"Feature","geometry":{"type":"Polygon","coordinates":[[[127.5825,0.5685],[127.5815,0.5685],[127.566,0.572],[127.536,0.5725],[127.527,0.5545],[127.555,0.558],[127.56,0.556],[127.5695,0.5505],[127.5825,0.5685]]]},"properties":{"code":"82.72.06.2003","name":"Aketobololo"}},{"type":"Feature","geometry":{"type":"Polygon","coordinates":[[[127.792,0.643],[127.781,0.6405],[127.773,0.622],[127.767,0.6205],[127.7645,0.624],[127.761,0.636],[127.748,0.632],[127.741,0.6485],[127.7265,0.6555],[127.724,0.642],[127.71,0.634],[127.6815,0.6505],[127.6695,0.6625],[127.653,0.657],[127.645,0.648],[127.627,0.641],[127.6025,0.646],[127.584,0.6435],[127.563,0.646],[127.5555,0.655],[127.5555,0.6565],[127.5535,0.656],[127.552,0.6565],[127.5505,0.654],[127.5495,0.6545],[127.5485,0.654],[127.5485,0.653],[127.542,0.652],[127.541,0.653],[127.5405,0.654],[127.541,0.632],[127.53,0.6085],[127.544,0.61],[127.5575,0.5985],[127.571,0.602],[127.5895,0.599],[127.5985,0.6065],[127.6155,0.613],[127.6305,0.6055],[127.6625,0.6155],[127.68,0.602],[127.6935,0.5965],[127.7265,0.595],[127.7335,0.61],[127.753,0.603],[127.7705,0.602],[127.785,0.6065],[127.793,0.6135],[127.81,0.612],[127.792,0.6315],[127.7915,0.6365],[127.792,0.643]]]},"properties":{"code":"82.72.06.2004","name":"Aketobatu"}},{"type":"Feature","geometry":{"type":"Polygon","coordinates":[[[127.81,0.612],[127.793,0.6135],[127.785,0.6065],[127.7705,0.602],[127.753,0.603],[127.7335,0.61],[127.7265,0.595],[127.6935,0.5965],[127.68,0.602],[127.6625,0.6155],[127.6305,0.6055],[127.6155,0.613],[127.5985,0.6065],[127.5895,0.599],[127.571,0.602],[127.5575,0.5985],[127.544,0.61],[127.53,0.6085],[127.536,0.5725],[127.566,0.572],[127.5815,0.5685],[127.584,0.569],[127.597,0.565],[127.608,0.5685],[127.6315,0.5675],[127.6525,0.5745],[127.668,0.57],[127.7,0.575],[127.7205,0.571],[127.734,0.575],[127.755,0.588],[127.77,0.5725],[127.781,0.5825],[127.8215,0.5895],[127.8215,0.59],[127.821,0.5915],[127.82,0.5925],[127.816,0.595],[127.811,0.597],[127.81,0.599],[127.811,0.6035],[127.81,0.612]]]},"properties":{"code":"82.72.06.2005","name":"Akedotilou"}},{"type":"Feature","geometry":{"type":"Polygon","coordinates":[[[127.6435,0.486],[127.643,0.487],[127.642,0.4875],[127.641,0.489],[127.6395,0.4885],[127.618,0.502],[127.59,0.4965],[127.5855,0.494],[127.5835,0.494],[127.581,0.492],[127.579,0.492],[127.5765,0.492],[127.5755,0.4925],[127.575,0.4955],[127.5735,0.4965],[127.5665,0.4925],[127.567,0.48],[127.5895,0.4795],[127.599,0.4885],[127.6145,0.4895],[127.626,0.4805],[127.6435,0.486]]]},"properties":{"code":"82.72.06.2006","name":"Akeguraci"}},{"type":"Feature","geometry":{"type":"Polygon","coordinates":[[[127.815,0.535],[127.813,0.5355],[127.808,0.537],[127.8,0.541],[127.7885,0.5375],[127.7765,0.5425],[127.7665,0.5325],[127.7445,0.5385],[127.737,0.532],[127.7235,0.5305],[127.7065,0.5345],[127.687,0.535],[127.664,0.5455],[127.6445,0.536],[127.6335,0.5395],[127.618,0.5515],[127.609,0.539],[127.6065,0.5365],[127.5995,0.5335],[127.583,0.535],[127.5825,0.5355],[127.5605,0.522],[127.561,0.521],[127.5595,0.5205],[127.5635,0.505],[127.576,0.508],[127.586,0.5165],[127.601,0.51],[127.624,0.511],[127.641,0.507],[127.6435,0.5155],[127.6575,0.5145],[127.675,0.5205],[127.687,0.5135],[127.689,0.512],[127.6915,0.511],[127.704,0.513],[127.7255,0.5085],[127.7265,0.508],[127.7445,0.512],[127.75,0.5075],[127.7885,0.5155],[127.806,0.513],[127.808,0.5145],[127.8105,0.529],[127.812,0.5315],[127.8145,0.5335],[127.815,0.535]]]},"properties":{"code":"82.72.06.2007","name":"Akesai"}},{"type":"Feature","geometry":{"type":"Polygon","coordinates":[[[127.6435,0.486],[127.626,0.4805],[127.6145,0.4895],[127.599,0.4885],[127.5895,0.4795],[127.567,0.48],[127.569,0.456],[127.5915,0.4605],[127.5975,0.472],[127.6145,0.47],[127.6195,0.464],[127.622,0.463],[127.625,0.461],[127.626,0.4605],[127.6265,0.4605],[127.6275,0.461],[127.632,0.463],[127.65,0.462],[127.6535,0.461],[127.652,0.446],[127.654,0.445],[127.6625,0.4445],[127.666,0.4425],[127.681,0.4415],[127.689,0.442],[127.697,0.4495],[127.706,0.445],[127.713,0.433],[127.7125,0.424],[127.7265,0.432],[127.73,0.4395],[127.756,0.439],[127.765,0.4425],[127.774,0.439],[127.7745,0.439],[127.7745,0.4445],[127.7735,0.4455],[127.7735,0.4485],[127.771,0.45],[127.7695,0.45],[127.769,0.4515],[127.7685,0.454],[127.77,0.456],[127.7735,0.461],[127.775,0.4645],[127.776,0.4665],[127.775,0.4665],[127.7735,0.467],[127.7555,0.4595],[127.753,0.464],[127.7515,0.4685],[127.7495,0.478],[127.7485,0.4815],[127.7275,0.4845],[127.7115,0.4805],[127.7,0.4885],[127.693,0.4845],[127.678,0.488],[127.6695,0.4805],[127.6435,0.486]]]},"properties":{"code":"82.72.06.2008","name":"Togeme"}},{"type":"Feature","geometry":{"type":"Polygon","coordinates":[[[127.621,0.4195],[127.6125,0.421],[127.582,0.419],[127.586,0.4085],[127.6015,0.403],[127.599,0.407],[127.5995,0.4085],[127.6135,0.4175],[127.6205,0.418],[127.6205,0.419],[127.621,0.4195]]]},"properties":{"code":"82.72.06.2009","name":"Tadupi"}},{"type":"Feature","geometry":{"type":"Polygon","coordinates":[[[127.5575,0.5565],[127.555,0.558],[127.527,0.5545],[127.539,0.5345],[127.5485,0.5425],[127.5575,0.5565]]]},"properties":{"code":"82.72.06.2010","name":"Beringin Jaya"}},{"type":"Feature","geometry":{"type":"Polygon","coordinates":[[[127.6195,0.442],[127.601,0.436],[127.585,0.4255],[127.582,0.419],[127.6125,0.421],[127.621,0.4195],[127.6215,0.4195],[127.6235,0.42],[127.627,0.4235],[127.627,0.434],[127.6255,0.437],[127.624,0.436],[127.6225,0.4365],[127.621,0.437],[127.6195,0.4405],[127.6195,0.442]]]},"properties":{"code":"82.72.06.2011","name":"Tauno"}},{"type":"Feature","geometry":{"type":"Polygon","coordinates":[[[127.806,0.513],[127.7885,0.5155],[127.75,0.5075],[127.7445,0.512],[127.7265,0.508],[127.7255,0.5085],[127.704,0.513],[127.6915,0.511],[127.689,0.512],[127.687,0.5135],[127.675,0.5205],[127.6575,0.5145],[127.6435,0.5155],[127.641,0.507],[127.624,0.511],[127.601,0.51],[127.586,0.5165],[127.576,0.508],[127.5635,0.505],[127.5665,0.4925],[127.5735,0.4965],[127.575,0.4955],[127.5755,0.4925],[127.5765,0.492],[127.579,0.492],[127.581,0.492],[127.5835,0.494],[127.5855,0.494],[127.59,0.4965],[127.618,0.502],[127.6395,0.4885],[127.641,0.489],[127.642,0.4875],[127.643,0.487],[127.6435,0.486],[127.6695,0.4805],[127.678,0.488],[127.693,0.4845],[127.7,0.4885],[127.7115,0.4805],[127.7275,0.4845],[127.7485,0.4815],[127.7495,0.478],[127.7515,0.4685],[127.753,0.464],[127.7555,0.4595],[127.7735,0.467],[127.775,0.4665],[127.776,0.4665],[127.7765,0.467],[127.7785,0.467],[127.7795,0.468],[127.779,0.4695],[127.7795,0.4855],[127.7835,0.4875],[127.79,0.487],[127.7935,0.4865],[127.7945,0.483],[127.7965,0.4815],[127.799,0.481],[127.801,0.481],[127.806,0.49],[127.806,0.4915],[127.8035,0.508],[127.806,0.513]]]},"properties":{"code":"82.72.06.2012","name":"Fanaha"}},{"type":"Feature","geometry":{"type":"Polygon","coordinates":[[[127.6145,0.47],[127.5975,0.472],[127.5915,0.4605],[127.569,0.456],[127.575,0.439],[127.58,0.4365],[127.585,0.439],[127.6025,0.444],[127.606,0.46],[127.6145,0.47]]]},"properties":{"code":"82.72.06.2013","name":"Yehu"}},{"type":"Feature","geometry":{"type":"Polygon","coordinates":[[[127.6085,0.539],[127.608,0.539],[127.607,0.5395],[127.604,0.5385],[127.597,0.54],[127.5935,0.5435],[127.578,0.537],[127.559,0.5345],[127.5505,0.527],[127.5595,0.5205],[127.561,0.521],[127.5605,0.522],[127.5825,0.5355],[127.583,0.535],[127.5995,0.5335],[127.6065,0.5365],[127.6085,0.539]]]},"properties":{"code":"82.72.06.2014","name":"Siokona"}},{"type":"Feature","geometry":{"type":"Polygon","coordinates":[[[127.717,0.1195],[127.707,0.1305],[127.701,0.1305],[127.6995,0.1205],[127.69,0.112],[127.6965,0.1005],[127.71,0.104],[127.715,0.111],[127.7335,0.113],[127.717,0.1195]]]},"properties":{"code":"82.72.07.2001","name":"Maidi"}},{"type":"Feature","geometry":{"type":"Polygon","coordinates":[[[127.7985,0.1055],[127.7975,0.105],[127.7965,0.104],[127.7955,0.1015],[127.7805,0.103],[127.7665,0.1],[127.744,0.1],[127.718,0.0805],[127.7225,0.0665],[127.7295,0.0665],[127.7425,0.053],[127.754,0.0655],[127.761,0.0645],[127.798,0.074],[127.7985,0.1055]]]},"properties":{"code":"82.72.07.2002","name":"Lifofa"}},{"type":"Feature","geometry":{"type":"Polygon","coordinates":[[[127.7405,0.1195],[127.741,0.1205],[127.7395,0.1255],[127.7365,0.1285],[127.736,0.139],[127.715,0.1385],[127.717,0.1195],[127.7335,0.113],[127.735,0.115],[127.7365,0.1155],[127.738,0.116],[127.7395,0.1195],[127.7405,0.1195]]]},"properties":{"code":"82.72.07.2003","name":"Hager"}},{"type":"Feature","geometry":{"type":"Polygon","coordinates":[[[127.7915,0.148],[127.789,0.152],[127.774,0.149],[127.7685,0.1495],[127.7595,0.1395],[127.755,0.1265],[127.741,0.1195],[127.7395,0.1195],[127.738,0.116],[127.7365,0.1155],[127.735,0.115],[127.7335,0.113],[127.715,0.111],[127.71,0.104],[127.718,0.0805],[127.744,0.1],[127.7665,0.1],[127.7805,0.103],[127.7955,0.1015],[127.7965,0.104],[127.7975,0.105],[127.7985,0.1055],[127.799,0.1315],[127.7915,0.148]]]},"properties":{"code":"82.72.07.2004","name":"Wama"}},{"type":"Feature","geometry":{"type":"Polygon","coordinates":[[[127.8195,0.2005],[127.8235,0.209],[127.8215,0.2125],[127.8205,0.2135],[127.819,0.215],[127.8165,0.213],[127.815,0.2125],[127.8105,0.2095],[127.79,0.2045],[127.7715,0.207],[127.7525,0.203],[127.7505,0.184],[127.7145,0.16],[127.696,0.16],[127.692,0.1455],[127.701,0.1305],[127.707,0.1305],[127.717,0.1195],[127.715,0.1385],[127.736,0.139],[127.7365,0.1285],[127.7395,0.1255],[127.741,0.1205],[127.7405,0.1195],[127.741,0.1195],[127.755,0.1265],[127.7595,0.1395],[127.7685,0.1495],[127.774,0.149],[127.789,0.152],[127.7875,0.1545],[127.794,0.1695],[127.7955,0.1735],[127.797,0.1745],[127.7985,0.179],[127.8065,0.192],[127.8095,0.196],[127.8195,0.2005]]]},"properties":{"code":"82.72.07.2005","name":"Selamalofo"}},{"type":"Feature","geometry":{"type":"Polygon","coordinates":[[[127.798,0.074],[127.761,0.0645],[127.754,0.0655],[127.7425,0.053],[127.7295,0.0665],[127.7225,0.0665],[127.7215,0.0655],[127.717,0.045],[127.708,0.0275],[127.735,0.017],[127.748,0.0235],[127.7685,0.0235],[127.7685,0.014],[127.77,0.004],[127.786,0.0055],[127.788,0.009],[127.797,0.015],[127.7965,0.024],[127.7975,0.0335],[127.798,0.074]]]},"properties":{"code":"82.72.07.2006","name":"Tagalaya"}},{"type":"Feature","geometry":{"type":"Polygon","coordinates":[[[127.797,0.015],[127.788,0.009],[127.786,0.0055],[127.77,0.004],[127.7685,0.014],[127.7685,0.0235],[127.748,0.0235],[127.735,0.017],[127.708,0.0275],[127.6975,0.007],[127.759,-0.0105],[127.7965,-0.0245],[127.797,0.015]]]},"properties":{"code":"82.72.07.2007","name":"Nuku"}},{"type":"Feature","geometry":{"type":"Polygon","coordinates":[[[127.45,0.7435],[127.428,0.7485],[127.4255,0.731],[127.4275,0.7315],[127.4355,0.7275],[127.4365,0.725],[127.45,0.7435]]]},"properties":{"code":"82.72.08.1001","name":"Mafututu"}},{"type":"Feature","geometry":{"type":"Polygon","coordinates":[[[127.4575,0.715],[127.45,0.7435],[127.4365,0.725],[127.437,0.7235],[127.4355,0.7195],[127.434,0.7185],[127.438,0.7185],[127.4425,0.715],[127.4575,0.715]]]},"properties":{"code":"82.72.08.1002","name":"Tosa"}},{"type":"Feature","geometry":{"type":"Polygon","coordinates":[[[127.456,0.6935],[127.4545,0.7045],[127.4465,0.7055],[127.435,0.707],[127.4345,0.7055],[127.4345,0.7035],[127.44,0.7],[127.4395,0.696],[127.456,0.6935]]]},"properties":{"code":"82.72.08.1003","name":"Dowora"}},{"type":"Feature","geometry":{"type":"Polygon","coordinates":[[[127.4265,0.714],[127.426,0.714],[127.4175,0.7185],[127.404,0.7065],[127.406,0.701],[127.407,0.6995],[127.4175,0.687],[127.435,0.6905],[127.44,0.6975],[127.44,0.7],[127.4345,0.7035],[127.4345,0.7055],[127.435,0.707],[127.4285,0.7085],[127.427,0.7095],[127.427,0.7115],[127.4265,0.714]]]},"properties":{"code":"82.72.08.1004","name":"Kalaodi"}},{"type":"Feature","geometry":{"type":"Polygon","coordinates":[[[127.456,0.6935],[127.4395,0.696],[127.44,0.6975],[127.435,0.6905],[127.4365,0.6915],[127.44,0.6925],[127.4555,0.6855],[127.456,0.6935]]]},"properties":{"code":"82.72.08.1005","name":"Cobodoe"}},{"type":"Feature","geometry":{"type":"Polygon","coordinates":[[[127.4575,0.715],[127.4425,0.715],[127.438,0.7185],[127.434,0.7185],[127.4335,0.718],[127.43,0.715],[127.4265,0.714],[127.427,0.7115],[127.427,0.7095],[127.4285,0.7085],[127.4465,0.7055],[127.4545,0.7045],[127.4575,0.715]]]},"properties":{"code":"82.72.08.1006","name":"Doyado"}},{"type":"Feature","geometry":{"type":"Polygon","coordinates":[[[127.428,0.7485],[127.4205,0.752],[127.409,0.7475],[127.398,0.756],[127.3985,0.745],[127.421,0.7295],[127.4255,0.731],[127.428,0.7485]]]},"properties":{"code":"82.72.08.1007","name":"Jiko Cobo"}}]}