{"type":"FeatureCollection","features":[{"type":"Feature","geometry":{"type":"Polygon","coordinates":[[[136.065,-1.1455],[136.056,-1.1455],[136.0515,-1.1515],[136.0485,-1.1565],[136.049,-1.165],[136.0565,-1.165],[136.059,-1.161],[136.0665,-1.1635],[136.0685,-1.1605],[136.067,-1.1585],[136.065,-1.153],[136.065,-1.1455]]]},"properties":{"code":"91.06.01.1001","name":"Sorido","latitude":-1.1555732149701827,"longitude":136.05781706477921}},{"type":"Feature","geometry":{"type":"Polygon","coordinates":[[[136.0665,-1.1705],[136.063,-1.174],[136.0575,-1.17],[136.057,-1.1705],[136.0535,-1.1745],[136.0775,-1.184],[136.0755,-1.18],[136.0745,-1.18],[136.0735,-1.1755],[136.0715,-1.1745],[136.0665,-1.1705]]]},"properties":{"code":"91.06.01.1002","name":"Waupnor","latitude":-1.1772137818080646,"longitude":136.0655654537163}},{"type":"Feature","geometry":{"type":"Polygon","coordinates":[[[136.076,-1.1765],[136.0735,-1.1755],[136.0745,-1.18],[136.075,-1.18],[136.076,-1.1765]]]},"properties":{"code":"91.06.01.1003","name":"Saramon","latitude":-1.1782578822372476,"longitude":136.07411724834296}},{"type":"Feature","geometry":{"type":"Polygon","coordinates":[[[136.0805,-1.1785],[136.076,-1.1765],[136.075,-1.18],[136.0755,-1.18],[136.0775,-1.184],[136.08,-1.184],[136.0805,-1.1785]]]},"properties":{"code":"91.06.01.1004","name":"Burokup","latitude":-1.1808514745666705,"longitude":136.07772926920612}},{"type":"Feature","geometry":{"type":"Polygon","coordinates":[[[136.0855,-1.179],[136.0825,-1.179],[136.0805,-1.1785],[136.08,-1.184],[136.0845,-1.1875],[136.085,-1.185],[136.0855,-1.179]]]},"properties":{"code":"91.06.01.1005","name":"Fandoi","latitude":-1.1825988556903235,"longitude":136.08278778481343}},{"type":"Feature","geometry":{"type":"Polygon","coordinates":[[[136.0915,-1.178],[136.0855,-1.179],[136.085,-1.185],[136.09,-1.1855],[136.094,-1.1875],[136.103,-1.1905],[136.1035,-1.191],[136.1055,-1.1915],[136.106,-1.192],[136.107,-1.1925],[136.108,-1.1905],[136.105,-1.182],[136.0915,-1.178]]]},"properties":{"code":"91.06.01.1006","name":"Mandala","latitude":-1.1839173281893476,"longitude":136.09644945943398}},{"type":"Feature","geometry":{"type":"Polygon","coordinates":[[[136.107,-1.1925],[136.106,-1.192],[136.1055,-1.1915],[136.1035,-1.191],[136.103,-1.1905],[136.094,-1.1875],[136.09,-1.1855],[136.085,-1.185],[136.0845,-1.1875],[136.107,-1.1935],[136.107,-1.1925]]]},"properties":{"code":"91.06.01.1016","name":"Yenures","latitude":-1.1889138673860153,"longitude":136.09505262137364}},{"type":"Feature","geometry":{"type":"Polygon","coordinates":[[[136.118,-1.1875],[136.105,-1.182],[136.108,-1.1905],[136.107,-1.1935],[136.123,-1.1965],[136.121,-1.194],[136.122,-1.1915],[136.118,-1.1875]]]},"properties":{"code":"91.06.01.2007","name":"Mnubabo","latitude":-1.1896759322175405,"longitude":136.1133320845325}},{"type":"Feature","geometry":{"type":"Polygon","coordinates":[[[136.131,-1.1825],[136.1195,-1.178],[136.119,-1.181],[136.119,-1.182],[136.118,-1.1875],[136.122,-1.1915],[136.121,-1.194],[136.123,-1.1965],[136.125,-1.1965],[136.128,-1.192],[136.131,-1.1825]]]},"properties":{"code":"91.06.01.2008","name":"Swapodibo","latitude":-1.1865321061858094,"longitude":136.12408418250138}},{"type":"Feature","geometry":{"type":"Polygon","coordinates":[[[136.147,-1.199],[136.146,-1.197],[136.136,-1.199],[136.135,-1.199],[136.1325,-1.198],[136.1325,-1.1985],[136.132,-1.199],[136.1405,-1.2],[136.147,-1.199]]]},"properties":{"code":"91.06.01.2009","name":"Mokmer","latitude":-1.198891039100229,"longitude":136.14111306951563}},{"type":"Feature","geometry":{"type":"Polygon","coordinates":[[[136.056,-1.1455],[136.0485,-1.1405],[136.044,-1.147],[136.0435,-1.1475],[136.0455,-1.1505],[136.0465,-1.152],[136.05,-1.154],[136.0515,-1.1515],[136.056,-1.1455]]]},"properties":{"code":"91.06.01.2010","name":"Inggiri","latitude":-1.147086434423102,"longitude":136.0494095690066}},{"type":"Feature","geometry":{"type":"Polygon","coordinates":[[[136.156,-1.193],[136.149,-1.1825],[136.146,-1.183],[136.143,-1.183],[136.1465,-1.1965],[136.147,-1.199],[136.156,-1.193]]]},"properties":{"code":"91.06.01.2011","name":"Parai","latitude":-1.1906335426699672,"longitude":136.14888814121727}},{"type":"Feature","geometry":{"type":"Polygon","coordinates":[[[136.0565,-1.165],[136.049,-1.165],[136.0535,-1.1745],[136.057,-1.1705],[136.0575,-1.17],[136.0555,-1.1675],[136.0565,-1.165]]]},"properties":{"code":"91.06.01.2012","name":"Samau","latitude":-1.168798466133866,"longitude":136.05296796495347}},{"type":"Feature","geometry":{"type":"Polygon","coordinates":[[[136.0485,-1.1405],[136.0395,-1.139],[136.0355,-1.1475],[136.039,-1.1495],[136.0415,-1.1485],[136.044,-1.147],[136.0485,-1.1405]]]},"properties":{"code":"91.06.01.2013","name":"Insrom","latitude":-1.1438477650985084,"longitude":136.04154421637705}},{"type":"Feature","geometry":{"type":"Polygon","coordinates":[[[136.157,-1.1805],[136.149,-1.1825],[136.156,-1.193],[136.162,-1.186],[136.157,-1.1805]]]},"properties":{"code":"91.06.01.2014","name":"Anggraidi","latitude":-1.1860378926501138,"longitude":136.15553635091368}},{"type":"Feature","geometry":{"type":"Polygon","coordinates":[[[136.1335,-1.195],[136.128,-1.192],[136.125,-1.1965],[136.132,-1.199],[136.1325,-1.1985],[136.1335,-1.195]]]},"properties":{"code":"91.06.01.2015","name":"Manswam","latitude":-1.1957400786941546,"longitude":136.12944203137903}},{"type":"Feature","geometry":{"type":"Polygon","coordinates":[[[136.146,-1.197],[136.1465,-1.1965],[136.1455,-1.1935],[136.1335,-1.195],[136.1325,-1.198],[136.135,-1.199],[136.136,-1.199],[136.146,-1.197]]]},"properties":{"code":"91.06.01.2017","name":"Sanumi","latitude":-1.1965785259989246,"longitude":136.13924150569906}},{"type":"Feature","geometry":{"type":"Polygon","coordinates":[[[136.143,-1.183],[136.1385,-1.1835],[136.131,-1.1825],[136.128,-1.192],[136.1335,-1.195],[136.1455,-1.1935],[136.143,-1.183]]]},"properties":{"code":"91.06.01.2018","name":"Manggandisapi","latitude":-1.189156073856642,"longitude":136.13688531623262}},{"type":"Feature","geometry":{"type":"Polygon","coordinates":[[[136.1195,-1.178],[136.1135,-1.1755],[136.1095,-1.1765],[136.1075,-1.177],[136.119,-1.182],[136.119,-1.181],[136.1195,-1.178]]]},"properties":{"code":"91.06.01.2019","name":"Karyendi","latitude":-1.178185714905857,"longitude":136.11452529638748}},{"type":"Feature","geometry":{"type":"Polygon","coordinates":[[[136.119,-1.182],[136.1075,-1.177],[136.107,-1.177],[136.105,-1.178],[136.1055,-1.1795],[136.105,-1.182],[136.118,-1.1875],[136.119,-1.182]]]},"properties":{"code":"91.06.01.2020","name":"Kababur","latitude":-1.1817686325890528,"longitude":136.1120008177136}},{"type":"Feature","geometry":{"type":"Polygon","coordinates":[[[136.0665,-1.1635],[136.059,-1.161],[136.0555,-1.1675],[136.0575,-1.17],[136.063,-1.174],[136.0665,-1.1705],[136.066,-1.167],[136.0665,-1.1635]]]},"properties":{"code":"91.06.01.2021","name":"Babrinbo","latitude":-1.1670504953560075,"longitude":136.06162017203354}},{"type":"Feature","geometry":{"type":"Polygon","coordinates":[[[136.05,-1.154],[136.0465,-1.152],[136.0455,-1.1505],[136.0435,-1.1475],[136.0415,-1.1485],[136.039,-1.1495],[136.0485,-1.1565],[136.05,-1.154]]]},"properties":{"code":"91.06.01.2022","name":"Inggupi","latitude":-1.1522924691176721,"longitude":136.04447951690628}},{"type":"Feature","geometry":{"type":"Polygon","coordinates":[[[136.108,-0.9695],[136.0985,-0.959],[136.0945,-0.948],[136.051,-0.9645],[136.012,-0.969],[135.9885,-0.966],[135.978,-0.976],[135.972,-0.982],[135.9715,-0.9835],[136.0505,-0.982],[136.108,-0.9695]]]},"properties":{"code":"91.06.02.2001","name":"Sarwom","latitude":-0.9710035838842107,"longitude":136.04420327242465}},{"type":"Feature","geometry":{"type":"Polygon","coordinates":[[[136.037,-0.903],[136.0205,-0.904],[136.03,-0.9335],[136.0475,-0.929],[136.045,-0.9235],[136.037,-0.903]]]},"properties":{"code":"91.06.02.2002","name":"Andei","latitude":-0.9176217966053737,"longitude":136.03339717943587}},{"type":"Feature","geometry":{"type":"Polygon","coordinates":[[[136.05,-0.8615],[136.0385,-0.8485],[136.034,-0.8495],[136.0335,-0.853],[136.034,-0.8585],[136.042,-0.866],[136.047,-0.864],[136.05,-0.8615]]]},"properties":{"code":"91.06.02.2004","name":"Waromi","latitude":-0.8584969228872397,"longitude":136.04242476639953}},{"type":"Feature","geometry":{"type":"Polygon","coordinates":[[[136.1585,-1.0075],[136.151,-0.9955],[136.1335,-0.988],[136.1145,-0.993],[136.0785,-0.9975],[136.054,-0.999],[135.966,-0.999],[135.966,-1.007],[135.995,-1.022],[136.0225,-1.02],[136.0375,-1.0165],[136.057,-1.0135],[136.079,-1.013],[136.1265,-1.009],[136.1585,-1.0075]]]},"properties":{"code":"91.06.02.2006","name":"Kobeoser","latitude":-1.005489852378283,"longitude":136.0587402608847}},{"type":"Feature","geometry":{"type":"Polygon","coordinates":[[[136.0945,-0.948],[136.098,-0.9315],[136.0915,-0.9175],[136.075,-0.9105],[136.06,-0.9235],[136.0475,-0.929],[136.03,-0.9335],[136.0135,-0.9395],[136.003,-0.939],[135.992,-0.963],[135.9885,-0.966],[136.012,-0.969],[136.051,-0.9645],[136.0945,-0.948]]]},"properties":{"code":"91.06.02.2007","name":"Mambesak","latitude":-0.9444263513294158,"longitude":136.04848440117934}},{"type":"Feature","geometry":{"type":"Polygon","coordinates":[[[136.075,-0.9105],[136.07,-0.8965],[136.0605,-0.887],[136.039,-0.894],[136.037,-0.8955],[136.0355,-0.895],[136.0375,-0.9005],[136.037,-0.903],[136.044,-0.904],[136.045,-0.9235],[136.0475,-0.929],[136.06,-0.9235],[136.075,-0.9105]]]},"properties":{"code":"91.06.02.2008","name":"Saukobye","latitude":-0.9072637341301838,"longitude":136.055975374863}},{"type":"Feature","geometry":{"type":"Polygon","coordinates":[[[136.0455,-0.88],[136.05,-0.8615],[136.047,-0.864],[136.0395,-0.867],[136.026,-0.8735],[136.0235,-0.8805],[136.024,-0.8825],[136.027,-0.8895],[136.0455,-0.88]]]},"properties":{"code":"91.06.02.2010","name":"Yobdi","latitude":-0.8760889370025088,"longitude":136.035613055557}},{"type":"Feature","geometry":{"type":"Polygon","coordinates":[[[136.1335,-0.988],[136.108,-0.9695],[136.0505,-0.982],[135.9715,-0.9835],[135.967,-0.9895],[135.966,-0.997],[135.966,-0.999],[136.054,-0.999],[136.0785,-0.9975],[136.1145,-0.993],[136.1335,-0.988]]]},"properties":{"code":"91.06.02.2012","name":"Dernafi","latitude":-0.988089661938357,"longitude":136.05219098738107}},{"type":"Feature","geometry":{"type":"Polygon","coordinates":[[[136.0205,-0.904],[136.019,-0.8995],[136.018,-0.8995],[136.009,-0.905],[136.0095,-0.9165],[136.0055,-0.9225],[136.0245,-0.917],[136.0205,-0.904]]]},"properties":{"code":"91.06.02.2013","name":"Rosayendi","latitude":-0.9113495361906381,"longitude":136.01546774718767}},{"type":"Feature","geometry":{"type":"Polygon","coordinates":[[[136.1585,-1.0075],[136.1265,-1.009],[136.079,-1.013],[136.057,-1.0135],[136.0375,-1.0165],[136.0335,-1.0175],[136.04,-1.039],[136.0615,-1.0895],[136.0635,-1.0995],[136.07,-1.102],[136.0835,-1.1055],[136.0985,-1.1165],[136.107,-1.1175],[136.1335,-1.119],[136.1455,-1.086],[136.164,-1.0375],[136.159,-1.029],[136.1585,-1.0075]]]},"properties":{"code":"91.06.02.2016","name":"Warsansan","latitude":-1.05701083524204,"longitude":136.1030449744876}},{"type":"Feature","geometry":{"type":"Polygon","coordinates":[[[136.03,-0.9335],[136.0245,-0.917],[136.0055,-0.9225],[136.003,-0.9275],[136.0005,-0.933],[136.003,-0.939],[136.0135,-0.9395],[136.03,-0.9335]]]},"properties":{"code":"91.06.02.2017","name":"Nermnu","latitude":-0.9293244470836582,"longitude":136.0151091030806}},{"type":"Feature","geometry":{"type":"Polygon","coordinates":[[[136.0455,-0.88],[136.027,-0.8895],[136.0275,-0.894],[136.027,-0.8955],[136.03,-0.895],[136.0345,-0.895],[136.037,-0.8955],[136.039,-0.894],[136.0455,-0.88]]]},"properties":{"code":"91.06.02.2018","name":"Korem","latitude":-0.887956460684064,"longitude":136.03722915578342}},{"type":"Feature","geometry":{"type":"Polygon","coordinates":[[[136.0355,-0.895],[136.03,-0.895],[136.027,-0.8955],[136.026,-0.898],[136.023,-0.899],[136.019,-0.8995],[136.0205,-0.904],[136.037,-0.903],[136.0375,-0.9005],[136.0355,-0.895]]]},"properties":{"code":"91.06.02.2019","name":"Mnuswor","latitude":-0.8997779690093188,"longitude":136.02898984131102}},{"type":"Feature","geometry":{"type":"Polygon","coordinates":[[[136.0635,-1.0995],[136.0615,-1.0895],[136.04,-1.039],[136.0335,-1.0175],[136.0225,-1.02],[135.995,-1.022],[136.0105,-1.036],[136.0115,-1.049],[136.015,-1.062],[136.0185,-1.076],[136.033,-1.089],[136.038,-1.0995],[136.0635,-1.0995]]]},"properties":{"code":"91.06.02.2020","name":"Dofyo Wafor","latitude":-1.0586123544362689,"longitude":136.03245782165422}},{"type":"Feature","geometry":{"type":"Polygon","coordinates":[[[136.045,-0.9235],[136.044,-0.904],[136.037,-0.903],[136.045,-0.9235]]]},"properties":{"code":"91.06.02.2021","name":"Warbon","latitude":-0.9110355002371638,"longitude":136.04216178611506}},{"type":"Feature","geometry":{"type":"Polygon","coordinates":[[[136.042,-0.866],[136.034,-0.8585],[136.0335,-0.853],[136.034,-0.8495],[136.0235,-0.8535],[136.0165,-0.862],[136.026,-0.8735],[136.0395,-0.867],[136.042,-0.866]]]},"properties":{"code":"91.06.02.2022","name":"Wari","latitude":-0.8618126112966323,"longitude":136.0285862377684}},{"type":"Feature","geometry":{"type":"Polygon","coordinates":[[[136.2425,-1.1485],[136.2415,-1.1425],[136.2395,-1.1355],[136.2145,-1.1375],[136.212,-1.141],[136.217,-1.151],[136.229,-1.1495],[136.229,-1.151],[136.2425,-1.1485]]]},"properties":{"code":"91.06.03.2002","name":"Rimba Jaya","latitude":-1.1434355773795357,"longitude":136.22650150020425}},{"type":"Feature","geometry":{"type":"Polygon","coordinates":[[[136.203,-1.233],[136.188,-1.248],[136.1935,-1.254],[136.209,-1.2425],[136.203,-1.233]]]},"properties":{"code":"91.06.03.2003","name":"Owi","latitude":-1.2533626015492652,"longitude":136.2001529490869}},{"type":"Feature","geometry":{"type":"Polygon","coordinates":[[[136.229,-1.151],[136.229,-1.1495],[136.2205,-1.1505],[136.2215,-1.154],[136.2225,-1.1615],[136.226,-1.167],[136.2345,-1.1675],[136.2335,-1.1605],[136.2295,-1.1605],[136.229,-1.151]]]},"properties":{"code":"91.06.03.2004","name":"Woniki","latitude":-1.1588075116985947,"longitude":136.22693469329081}},{"type":"Feature","geometry":{"type":"Polygon","coordinates":[[[136.2585,-1.1625],[136.2565,-1.1575],[136.253,-1.1585],[136.249,-1.158],[136.25,-1.163],[136.2585,-1.1625]]]},"properties":{"code":"91.06.03.2005","name":"Kajasi","latitude":-1.1612913216407472,"longitude":136.2534212545746}},{"type":"Feature","geometry":{"type":"Polygon","coordinates":[[[136.2135,-1.1385],[136.2115,-1.1335],[136.207,-1.1265],[136.204,-1.12],[136.204,-1.121],[136.19,-1.126],[136.202,-1.1505],[136.2045,-1.1645],[136.214,-1.163],[136.214,-1.1635],[136.217,-1.1625],[136.2195,-1.162],[136.217,-1.151],[136.212,-1.141],[136.2135,-1.1385]]]},"properties":{"code":"91.06.03.2010","name":"Sunde","latitude":-1.1427229535341952,"longitude":136.20580011647152}},{"type":"Feature","geometry":{"type":"Polygon","coordinates":[[[136.203,-1.1115],[136.2005,-1.11],[136.189,-1.1095],[136.1865,-1.11],[136.1865,-1.1115],[136.19,-1.126],[136.204,-1.121],[136.2045,-1.1175],[136.203,-1.1115]]]},"properties":{"code":"91.06.03.2011","name":"Sepse","latitude":-1.1167822700338608,"longitude":136.19531958251332}},{"type":"Feature","geometry":{"type":"Polygon","coordinates":[[[136.235,-1.0825],[136.2185,-1.0885],[136.209,-1.0775],[136.198,-1.0815],[136.203,-1.1115],[136.2045,-1.1175],[136.204,-1.12],[136.207,-1.1265],[136.2115,-1.1335],[136.2135,-1.1385],[136.2145,-1.1375],[136.2395,-1.1355],[136.2425,-1.1115],[136.238,-1.0925],[136.235,-1.0825]]]},"properties":{"code":"91.06.03.2012","name":"Soon","latitude":-1.1088209938900309,"longitude":136.22127459252746}},{"type":"Feature","geometry":{"type":"Polygon","coordinates":[[[136.214,-1.25],[136.2255,-1.2405],[136.2285,-1.2305],[136.209,-1.2425],[136.214,-1.25]]]},"properties":{"code":"91.06.03.2013","name":"Sareidi","latitude":-1.2401417559647274,"longitude":136.21990428122527}},{"type":"Feature","geometry":{"type":"Polygon","coordinates":[[[136.247,-1.168],[136.2465,-1.167],[136.2345,-1.1675],[136.2345,-1.171],[136.247,-1.168]]]},"properties":{"code":"91.06.03.2014","name":"Bindusi","latitude":-1.1695034026619784,"longitude":136.23993772785573}},{"type":"Feature","geometry":{"type":"Polygon","coordinates":[[[136.227,-1.171],[136.226,-1.167],[136.219,-1.169],[136.216,-1.169],[136.217,-1.172],[136.227,-1.171]]]},"properties":{"code":"91.06.03.2015","name":"Orwer","latitude":-1.1697020646824694,"longitude":136.22183231035146}},{"type":"Feature","geometry":{"type":"Polygon","coordinates":[[[136.2065,-1.1735],[136.217,-1.172],[136.214,-1.163],[136.2045,-1.1645],[136.2065,-1.1735]]]},"properties":{"code":"91.06.03.2016","name":"Yenusi","latitude":-1.1682882911126324,"longitude":136.21028597014083}},{"type":"Feature","geometry":{"type":"Polygon","coordinates":[[[136.253,-1.142],[136.2525,-1.133],[136.2425,-1.1115],[136.2395,-1.1355],[136.2415,-1.1425],[136.243,-1.1515],[136.245,-1.158],[136.247,-1.158],[136.248,-1.156],[136.2485,-1.1485],[136.2485,-1.146],[136.2475,-1.1425],[136.253,-1.142]]]},"properties":{"code":"91.06.03.2017","name":"Kajasbo","latitude":-1.1358087968399517,"longitude":136.2455983807206}},{"type":"Feature","geometry":{"type":"Polygon","coordinates":[[[136.1725,-1.1355],[136.1665,-1.136],[136.1455,-1.086],[136.1335,-1.119],[136.157,-1.1805],[136.162,-1.186],[136.185,-1.18],[136.181,-1.1705],[136.1725,-1.1355]]]},"properties":{"code":"91.06.03.2021","name":"Ruar","latitude":-1.1428585767653687,"longitude":136.15762721500357}},{"type":"Feature","geometry":{"type":"Polygon","coordinates":[[[136.2055,-1.17],[136.1965,-1.172],[136.2065,-1.1735],[136.2055,-1.17]]]},"properties":{"code":"91.06.03.2022","name":"Mandon","latitude":-1.1735868187300462,"longitude":136.20125484755567}},{"type":"Feature","geometry":{"type":"Polygon","coordinates":[[[136.247,-1.158],[136.245,-1.158],[136.2435,-1.162],[136.247,-1.168],[136.25,-1.163],[136.249,-1.158],[136.247,-1.158]]]},"properties":{"code":"91.06.03.2023","name":"Soryar","latitude":-1.1629368518509156,"longitude":136.24734099500176}},{"type":"Feature","geometry":{"type":"Polygon","coordinates":[[[136.245,-1.158],[136.243,-1.1515],[136.2425,-1.1485],[136.229,-1.151],[136.2295,-1.1605],[136.2335,-1.1605],[136.233,-1.1585],[136.245,-1.158]]]},"properties":{"code":"91.06.03.2028","name":"Insumarires","latitude":-1.1543474482814986,"longitude":136.23652342689564}},{"type":"Feature","geometry":{"type":"Polygon","coordinates":[[[136.178,-1.046],[136.164,-1.0375],[136.1455,-1.086],[136.1665,-1.136],[136.1725,-1.1355],[136.19,-1.126],[136.1865,-1.1115],[136.186,-1.106],[136.178,-1.065],[136.178,-1.046]]]},"properties":{"code":"91.06.03.2030","name":"Rim","latitude":-1.0899460843336142,"longitude":136.16841311488142}},{"type":"Feature","geometry":{"type":"Polygon","coordinates":[[[136.2345,-1.1675],[136.226,-1.167],[136.227,-1.171],[136.2345,-1.171],[136.2345,-1.1675]]]},"properties":{"code":"91.06.03.2031","name":"Adorbari","latitude":-1.168969554691115,"longitude":136.23032585553688}},{"type":"Feature","geometry":{"type":"Polygon","coordinates":[[[136.2225,-1.1615],[136.2215,-1.154],[136.2205,-1.1505],[136.217,-1.151],[136.2195,-1.162],[136.2225,-1.1615]]]},"properties":{"code":"91.06.03.2032","name":"Bosnik Sup","latitude":-1.1560866890240542,"longitude":136.21973643133686}},{"type":"Feature","geometry":{"type":"Polygon","coordinates":[[[136.2465,-1.167],[136.2435,-1.162],[136.245,-1.158],[136.233,-1.1585],[136.2345,-1.1675],[136.2465,-1.167]]]},"properties":{"code":"91.06.03.2033","name":"Inofi","latitude":-1.163501169334202,"longitude":136.23923811871143}},{"type":"Feature","geometry":{"type":"Polygon","coordinates":[[[136.226,-1.167],[136.2225,-1.1615],[136.217,-1.1625],[136.214,-1.1635],[136.216,-1.169],[136.219,-1.169],[136.226,-1.167]]]},"properties":{"code":"91.06.03.2034","name":"Yenberok","latitude":-1.1653366837979235,"longitude":136.21953572687022}},{"type":"Feature","geometry":{"type":"Polygon","coordinates":[[[136.214,-1.25],[136.209,-1.2425],[136.194,-1.254],[136.201,-1.2585],[136.214,-1.25]]]},"properties":{"code":"91.06.03.2035","name":"Wasori","latitude":-1.2512891222924991,"longitude":136.20456283880347}},{"type":"Feature","geometry":{"type":"Polygon","coordinates":[[[136.225,-1.23],[136.215,-1.2295],[136.203,-1.233],[136.209,-1.2425],[136.2285,-1.2305],[136.225,-1.23]]]},"properties":{"code":"91.06.03.2036","name":"Yendakem","latitude":-1.2343174076316283,"longitude":136.2141100995374}},{"type":"Feature","geometry":{"type":"Polygon","coordinates":[[[136.256,-1.156],[136.255,-1.1495],[136.253,-1.142],[136.2475,-1.1425],[136.2485,-1.146],[136.2485,-1.1485],[136.248,-1.156],[136.247,-1.158],[136.253,-1.1585],[136.2565,-1.1575],[136.256,-1.156]]]},"properties":{"code":"91.06.03.2037","name":"Waderbo","latitude":-1.1510014690618129,"longitude":136.25149869602353}},{"type":"Feature","geometry":{"type":"Polygon","coordinates":[[[136.2045,-1.1645],[136.202,-1.1505],[136.19,-1.126],[136.1725,-1.1355],[136.181,-1.1705],[136.185,-1.1795],[136.1965,-1.172],[136.2055,-1.17],[136.2045,-1.1645]]]},"properties":{"code":"91.06.03.2038","name":"Afefbo","latitude":-1.1532462035597753,"longitude":136.18938157556641}},{"type":"Feature","geometry":{"type":"Polygon","coordinates":[[[136.209,-1.0775],[136.2095,-1.062],[136.1945,-1.0425],[136.178,-1.046],[136.178,-1.065],[136.186,-1.106],[136.1865,-1.11],[136.189,-1.1095],[136.2005,-1.11],[136.203,-1.1115],[136.198,-1.0815],[136.209,-1.0775]]]},"properties":{"code":"91.06.03.2039","name":"Inmdi","latitude":-1.0736670180677694,"longitude":136.19265721435625}},{"type":"Feature","geometry":{"type":"Polygon","coordinates":[[[134.8285,-1.068],[134.8235,-1.069],[134.827,-1.086],[134.842,-1.0875],[134.848,-1.0875],[134.833,-1.08],[134.8285,-1.068]]]},"properties":{"code":"91.06.04.2003","name":"Namber","latitude":-1.0812822572159526,"longitude":134.82621048461118}},{"type":"Feature","geometry":{"type":"Polygon","coordinates":[[[134.8285,-1.068],[134.8265,-1.06],[134.8235,-1.0575],[134.821,-1.053],[134.813,-1.0555],[134.8235,-1.069],[134.8285,-1.068]]]},"properties":{"code":"91.06.04.2004","name":"Baruki","latitude":-1.0605140414215972,"longitude":134.82134499192662}},{"type":"Feature","geometry":{"type":"Polygon","coordinates":[[[134.8085,-0.9835],[134.797,-0.9905],[134.8,-1.001],[134.807,-1.0015],[134.8085,-1],[134.8085,-0.998],[134.807,-0.9925],[134.811,-0.985],[134.8085,-0.9835]]]},"properties":{"code":"91.06.04.2005","name":"Kameri","latitude":-0.9930742374091067,"longitude":134.803070477235}},{"type":"Feature","geometry":{"type":"Polygon","coordinates":[[[134.89,-1.0165],[134.7965,-1.015],[134.7965,-1.036],[134.813,-1.0555],[134.828,-1.0505],[134.8955,-1.0285],[134.89,-1.0165]]]},"properties":{"code":"91.06.04.2008","name":"Warido","latitude":-1.0302733732178169,"longitude":134.83829661763397}},{"type":"Feature","geometry":{"type":"Polygon","coordinates":[[[134.84,-0.9815],[134.84,-0.9805],[134.8335,-0.969],[134.8165,-0.9745],[134.8175,-0.98],[134.84,-0.9815]]]},"properties":{"code":"91.06.04.2012","name":"Sub Manggunsi","latitude":-0.9765402214908185,"longitude":134.82831422274793}},{"type":"Feature","geometry":{"type":"Polygon","coordinates":[[[134.812,-0.974],[134.8025,-0.9715],[134.792,-0.9815],[134.8085,-0.9835],[134.817,-0.9885],[134.845,-0.993],[134.84,-0.9815],[134.8175,-0.98],[134.8165,-0.9745],[134.812,-0.974]]]},"properties":{"code":"91.06.04.2013","name":"Serbin","latitude":-0.9828807065542126,"longitude":134.8189371845299}},{"type":"Feature","geometry":{"type":"Polygon","coordinates":[[[134.858,-1.0015],[134.844,-1.001],[134.8155,-1.002],[134.8,-1.001],[134.7965,-1.015],[134.89,-1.0165],[134.884,-1.0025],[134.858,-1.0015]]]},"properties":{"code":"91.06.04.2014","name":"Kansai","latitude":-1.0087990842762997,"longitude":134.84188002121067}},{"type":"Feature","geometry":{"type":"Polygon","coordinates":[[[134.858,-1.067],[134.846,-1.0665],[134.8445,-1.0765],[134.853,-1.0885],[134.862,-1.09],[134.858,-1.067]]]},"properties":{"code":"91.06.04.2015","name":"Pomdori","latitude":-1.0770889092258773,"longitude":134.85369736744937}},{"type":"Feature","geometry":{"type":"Polygon","coordinates":[[[134.9,-1.066],[134.9,-1.059],[134.8995,-1.0375],[134.8955,-1.0285],[134.821,-1.053],[134.8235,-1.0575],[134.8265,-1.06],[134.8285,-1.068],[134.846,-1.0665],[134.858,-1.067],[134.8715,-1.067],[134.9,-1.066]]]},"properties":{"code":"91.06.04.2019","name":"Semayen","latitude":-1.0523951410460797,"longitude":134.8674717047751}},{"type":"Feature","geometry":{"type":"Polygon","coordinates":[[[134.845,-0.993],[134.817,-0.9885],[134.811,-0.985],[134.807,-0.9925],[134.8085,-0.998],[134.8085,-1],[134.807,-1.0015],[134.8155,-1.002],[134.844,-1.001],[134.845,-0.993]]]},"properties":{"code":"91.06.04.2020","name":"Mambodo Sawai","latitude":-0.9954927963658378,"longitude":134.8241977792802}},{"type":"Feature","geometry":{"type":"Polygon","coordinates":[[[134.846,-1.0665],[134.8285,-1.068],[134.833,-1.08],[134.848,-1.0875],[134.853,-1.0885],[134.8445,-1.0765],[134.846,-1.0665]]]},"properties":{"code":"91.06.04.2021","name":"Rimbaraya","latitude":-1.0753422368616632,"longitude":134.84022644109416}},{"type":"Feature","geometry":{"type":"Polygon","coordinates":[[[134.8715,-1.067],[134.858,-1.067],[134.862,-1.09],[134.874,-1.0915],[134.8715,-1.067]]]},"properties":{"code":"91.06.04.2022","name":"Pomdori Sup","latitude":-1.078659053473846,"longitude":134.8663872298039}},{"type":"Feature","geometry":{"type":"Polygon","coordinates":[[[134.8625,-0.9335],[134.8545,-0.931],[134.8335,-0.9395],[134.848,-0.965],[134.864,-0.9635],[134.8625,-0.9335]]]},"properties":{"code":"91.06.05.2006","name":"Yenburwo","latitude":-0.9470714531871791,"longitude":134.85132710634292}},{"type":"Feature","geometry":{"type":"Polygon","coordinates":[[[134.848,-0.965],[134.8335,-0.9395],[134.8185,-0.9485],[134.8335,-0.969],[134.848,-0.965]]]},"properties":{"code":"91.06.05.2011","name":"Kornasoren","latitude":-0.955483163863894,"longitude":134.83358420276656}},{"type":"Feature","geometry":{"type":"Polygon","coordinates":[[[134.9,-0.941],[134.887,-0.936],[134.8765,-0.963],[134.875,-1.0025],[134.884,-1.0025],[134.881,-0.997],[134.895,-0.9545],[134.9,-0.941]]]},"properties":{"code":"91.06.05.2014","name":"Rarsibo","latitude":-0.9665071335995155,"longitude":134.8845118531478}},{"type":"Feature","geometry":{"type":"Polygon","coordinates":[[[134.887,-0.936],[134.8625,-0.9335],[134.865,-0.9975],[134.865,-1.002],[134.875,-1.0025],[134.8765,-0.963],[134.887,-0.936]]]},"properties":{"code":"91.06.05.2015","name":"Asaryendi","latitude":-0.9621132723048974,"longitude":134.87144682566915}},{"type":"Feature","geometry":{"type":"Polygon","coordinates":[[[134.8245,-0.9565],[134.8185,-0.9485],[134.81,-0.9535],[134.8025,-0.9715],[134.812,-0.974],[134.8245,-0.9565]]]},"properties":{"code":"91.06.05.2016","name":"Yenmanu","latitude":-0.9618102629895591,"longitude":134.8136974077673}},{"type":"Feature","geometry":{"type":"Polygon","coordinates":[[[134.9,-1.0745],[134.9,-1.066],[134.8715,-1.067],[134.874,-1.0915],[134.9,-1.0955],[134.9,-1.0745]]]},"properties":{"code":"91.06.05.2017","name":"Pyefuri","latitude":-1.0799217688222102,"longitude":134.88679027314095}},{"type":"Feature","geometry":{"type":"Polygon","coordinates":[[[134.865,-1.002],[134.865,-0.9975],[134.864,-0.9635],[134.848,-0.965],[134.858,-1.0015],[134.865,-1.002]]]},"properties":{"code":"91.06.05.2018","name":"Indaibori","latitude":-0.980433491748249,"longitude":134.8586550858653}},{"type":"Feature","geometry":{"type":"Polygon","coordinates":[[[134.858,-1.0015],[134.848,-0.965],[134.8335,-0.969],[134.84,-0.9805],[134.845,-0.993],[134.844,-1.001],[134.858,-1.0015]]]},"properties":{"code":"91.06.05.2019","name":"Barkori","latitude":-0.9834636552523478,"longitude":134.84708752334575}},{"type":"Feature","geometry":{"type":"Polygon","coordinates":[[[134.8335,-0.969],[134.8245,-0.9565],[134.812,-0.974],[134.8165,-0.9745],[134.8335,-0.969]]]},"properties":{"code":"91.06.05.2020","name":"Asaibori","latitude":-0.9673051107098949,"longitude":134.82344442335932}},{"type":"Feature","geometry":{"type":"Polygon","coordinates":[[[135.8735,-1.071],[135.869,-1.0645],[135.8675,-1.0655],[135.855,-1.067],[135.8435,-1.0675],[135.839,-1.085],[135.866,-1.0765],[135.8735,-1.071]]]},"properties":{"code":"91.06.08.2001","name":"Andei","latitude":-1.0739023028567212,"longitude":135.85455315391803}},{"type":"Feature","geometry":{"type":"Polygon","coordinates":[[[135.8465,-1.028],[135.824,-1.0285],[135.8215,-1.0525],[135.842,-1.053],[135.8465,-1.0365],[135.8465,-1.028]]]},"properties":{"code":"91.06.08.2002","name":"Kanaan","latitude":-1.040546545288534,"longitude":135.83423524900243}},{"type":"Feature","geometry":{"type":"Polygon","coordinates":[[[135.8475,-1.028],[135.8475,-1.026],[135.8475,-1.025],[135.855,-1.024],[135.8665,-1.0115],[135.8605,-1.0115],[135.837,-1.015],[135.829,-1.02],[135.824,-1.0285],[135.8475,-1.028]]]},"properties":{"code":"91.06.08.2003","name":"Asaryendi","latitude":-1.0207139925125603,"longitude":135.84338066809804}},{"type":"Feature","geometry":{"type":"Polygon","coordinates":[[[135.8605,-1.0015],[135.857,-0.9955],[135.8645,-0.9805],[135.846,-0.986],[135.835,-0.988],[135.812,-0.9955],[135.806,-1.0035],[135.817,-1.014],[135.8445,-1.0035],[135.8605,-1.0015]]]},"properties":{"code":"91.06.08.2004","name":"Sopendo","latitude":-0.9971321436922518,"longitude":135.835437192047}},{"type":"Feature","geometry":{"type":"Polygon","coordinates":[[[135.8615,-0.876],[135.859,-0.8735],[135.7895,-0.914],[135.7765,-0.919],[135.781,-0.922],[135.8615,-0.876]]]},"properties":{"code":"91.06.08.2006","name":"Ampunbukor","latitude":-0.8996650305285046,"longitude":135.81700910576757}},{"type":"Feature","geometry":{"type":"Polygon","coordinates":[[[135.8905,-1.066],[135.8855,-1.063],[135.866,-1.0765],[135.839,-1.085],[135.8425,-1.0945],[135.846,-1.102],[135.8905,-1.066]]]},"properties":{"code":"91.06.08.2008","name":"Wasyai","latitude":-1.083478929412801,"longitude":135.86010291623253}},{"type":"Feature","geometry":{"type":"Polygon","coordinates":[[[135.9125,-1.0565],[135.9035,-1.0465],[135.896,-1.0305],[135.895,-1.016],[135.8805,-1.017],[135.8755,-1.0185],[135.8775,-1.045],[135.8825,-1.058],[135.8855,-1.063],[135.8905,-1.066],[135.897,-1.0715],[135.9015,-1.0765],[135.9005,-1.0645],[135.9125,-1.0565]]]},"properties":{"code":"91.06.08.2009","name":"Kababur","latitude":-1.0434276067927848,"longitude":135.89097599192348}},{"type":"Feature","geometry":{"type":"Polygon","coordinates":[[[135.9055,-1.016],[135.895,-1.016],[135.896,-1.0305],[135.9035,-1.0465],[135.9135,-1.058],[135.9275,-1.073],[135.9335,-1.0645],[135.9285,-1.0585],[135.916,-1.0405],[135.905,-1.027],[135.9055,-1.016]]]},"properties":{"code":"91.06.08.2010","name":"Warberik","latitude":-1.044518317221226,"longitude":135.91208864708165}},{"type":"Feature","geometry":{"type":"Polygon","coordinates":[[[135.842,-1.053],[135.8215,-1.0525],[135.8235,-1.064],[135.8195,-1.088],[135.8035,-1.0925],[135.806,-1.104],[135.8425,-1.0945],[135.839,-1.085],[135.8435,-1.0675],[135.842,-1.053]]]},"properties":{"code":"91.06.08.2011","name":"Sosmai","latitude":-1.0791275255755193,"longitude":135.82778047519238}},{"type":"Feature","geometry":{"type":"Polygon","coordinates":[[[135.8825,-1.058],[135.8775,-1.045],[135.8755,-1.0185],[135.8675,-1.02],[135.8585,-1.025],[135.8595,-1.0325],[135.855,-1.067],[135.8675,-1.0655],[135.8825,-1.058]]]},"properties":{"code":"91.06.08.2012","name":"Yomdori","latitude":-1.0442244010340218,"longitude":135.86792573623052}},{"type":"Feature","geometry":{"type":"Polygon","coordinates":[[[135.897,-0.996],[135.886,-0.9835],[135.861,-1.0015],[135.8445,-1.0035],[135.817,-1.014],[135.829,-1.02],[135.837,-1.015],[135.8605,-1.0115],[135.869,-1.0115],[135.9055,-1.006],[135.897,-0.996]]]},"properties":{"code":"91.06.08.2013","name":"Opuri","latitude":-1.0045765410854839,"longitude":135.86449583905386}},{"type":"Feature","geometry":{"type":"Polygon","coordinates":[[[135.8375,-0.9875],[135.8425,-0.9805],[135.843,-0.9755],[135.844,-0.9665],[135.8435,-0.965],[135.838,-0.9645],[135.7935,-0.9825],[135.806,-1.0035],[135.812,-0.9955],[135.835,-0.988],[135.8375,-0.9875]]]},"properties":{"code":"91.06.08.2014","name":"Mamoribo","latitude":-0.9819830982598682,"longitude":135.81991261190532}},{"type":"Feature","geometry":{"type":"Polygon","coordinates":[[[135.878,-1.137],[135.853,-1.117],[135.83,-1.1375],[135.8425,-1.148],[135.8575,-1.166],[135.8655,-1.153],[135.878,-1.137]]]},"properties":{"code":"91.06.08.2021","name":"Insiri","latitude":-1.139583020116227,"longitude":135.85470292022694}},{"type":"Feature","geometry":{"type":"Polygon","coordinates":[[[135.897,-1.0715],[135.8905,-1.066],[135.846,-1.102],[135.853,-1.117],[135.876,-1.097],[135.883,-1.086],[135.897,-1.0715]]]},"properties":{"code":"91.06.08.2024","name":"Asarkir","latitude":-1.0917779261730653,"longitude":135.86959331467722}},{"type":"Feature","geometry":{"type":"Polygon","coordinates":[[[135.9015,-1.0765],[135.897,-1.0715],[135.883,-1.086],[135.876,-1.097],[135.853,-1.117],[135.878,-1.137],[135.8945,-1.115],[135.9075,-1.099],[135.915,-1.09],[135.9015,-1.0765]]]},"properties":{"code":"91.06.08.2025","name":"Dousi","latitude":-1.1045874265201918,"longitude":135.88535590955618}},{"type":"Feature","geometry":{"type":"Polygon","coordinates":[[[135.855,-1.067],[135.8595,-1.0325],[135.8585,-1.025],[135.8525,-1.028],[135.8465,-1.028],[135.8465,-1.0365],[135.842,-1.053],[135.8435,-1.0675],[135.855,-1.067]]]},"properties":{"code":"91.06.08.2026","name":"Marisen","latitude":-1.0471130246630982,"longitude":135.8509372034765}},{"type":"Feature","geometry":{"type":"Polygon","coordinates":[[[135.846,-1.102],[135.8425,-1.0945],[135.806,-1.104],[135.8165,-1.1155],[135.8235,-1.132],[135.83,-1.1375],[135.853,-1.117],[135.846,-1.102]]]},"properties":{"code":"91.06.08.2027","name":"Sumbinya","latitude":-1.1137774709906911,"longitude":135.83123198965853}},{"type":"Feature","geometry":{"type":"Polygon","coordinates":[[[135.876,-0.9715],[135.8725,-0.9675],[135.863,-0.962],[135.849,-0.965],[135.8435,-0.965],[135.844,-0.9665],[135.843,-0.9755],[135.8425,-0.9805],[135.8375,-0.9875],[135.846,-0.986],[135.8645,-0.9805],[135.876,-0.9715]]]},"properties":{"code":"91.06.08.2029","name":"Rarsbari","latitude":-0.9740126686531576,"longitude":135.85598026817132}},{"type":"Feature","geometry":{"type":"Polygon","coordinates":[[[135.9275,-1.073],[135.9125,-1.0565],[135.9005,-1.0645],[135.9015,-1.0765],[135.915,-1.09],[135.922,-1.0815],[135.9275,-1.073]]]},"properties":{"code":"91.06.08.2030","name":"Banasrares","latitude":-1.0726334465587017,"longitude":135.9128711676692}},{"type":"Feature","geometry":{"type":"Polygon","coordinates":[[[135.8855,-1.063],[135.8825,-1.058],[135.869,-1.0645],[135.8735,-1.071],[135.8855,-1.063]]]},"properties":{"code":"91.06.08.2031","name":"Karnindi","latitude":-1.0648478884100734,"longitude":135.8765926098905}},{"type":"Feature","geometry":{"type":"Polygon","coordinates":[[[135.9055,-1.016],[135.9055,-1.006],[135.869,-1.0115],[135.8665,-1.0115],[135.855,-1.024],[135.8475,-1.025],[135.8475,-1.026],[135.8475,-1.028],[135.8525,-1.028],[135.8675,-1.02],[135.8805,-1.017],[135.8965,-1.016],[135.9055,-1.016]]]},"properties":{"code":"91.06.08.2032","name":"Dedifu","latitude":-1.0148178242396049,"longitude":135.88038123907796}},{"type":"Feature","geometry":{"type":"Polygon","coordinates":[[[135.886,-0.9835],[135.876,-0.9715],[135.8645,-0.9805],[135.857,-0.9955],[135.8605,-1.0015],[135.861,-1.0015],[135.886,-0.9835]]]},"properties":{"code":"91.06.08.2033","name":"Sopendo Sup Karkir","latitude":-0.986258994683088,"longitude":135.8705834942568}},{"type":"Feature","geometry":{"type":"Polygon","coordinates":[[[135.9655,-0.8065],[135.957,-0.814],[135.9585,-0.8155],[135.9665,-0.8075],[135.9655,-0.8065]]]},"properties":{"code":"91.06.09.2003","name":"Marur","latitude":-0.8107504923944524,"longitude":135.96172241296046}},{"type":"Feature","geometry":{"type":"Polygon","coordinates":[[[135.9635,-0.805],[135.961,-0.8005],[135.956,-0.8075],[135.9515,-0.812],[135.955,-0.814],[135.9635,-0.805]]]},"properties":{"code":"91.06.09.2004","name":"Diano","latitude":-0.8080674913986623,"longitude":135.95770865213802}},{"type":"Feature","geometry":{"type":"Polygon","coordinates":[[[135.961,-0.8005],[135.957,-0.7985],[135.9565,-0.8015],[135.954,-0.8055],[135.947,-0.813],[135.9425,-0.817],[135.944,-0.82],[135.956,-0.8075],[135.961,-0.8005]]]},"properties":{"code":"91.06.09.2005","name":"Sawai","latitude":-0.8091777223466982,"longitude":135.95199252530486}},{"type":"Feature","geometry":{"type":"Polygon","coordinates":[[[135.957,-0.7985],[135.947,-0.795],[135.945,-0.7975],[135.9445,-0.7995],[135.9515,-0.801],[135.954,-0.805],[135.9565,-0.8015],[135.957,-0.7985]]]},"properties":{"code":"91.06.09.2006","name":"Aman","latitude":-0.7994412723713694,"longitude":135.95166874569952}},{"type":"Feature","geometry":{"type":"Polygon","coordinates":[[[135.943,-0.79],[135.937,-0.786],[135.9375,-0.793],[135.943,-0.79]]]},"properties":{"code":"91.06.09.2007","name":"Yeruboi","latitude":-0.7894696258295074,"longitude":135.93958795862758}},{"type":"Feature","geometry":{"type":"Polygon","coordinates":[[[135.9485,-0.826],[135.9325,-0.814],[135.9215,-0.8135],[135.9125,-0.8215],[135.9055,-0.824],[135.902,-0.822],[135.9015,-0.824],[135.884,-0.8385],[135.879,-0.84],[135.8785,-0.8405],[135.8825,-0.859],[135.882,-0.861],[135.875,-0.87],[135.878,-0.8735],[135.8825,-0.8745],[135.8865,-0.8735],[135.8915,-0.8755],[135.897,-0.8705],[135.908,-0.862],[135.933,-0.84],[135.9485,-0.826]]]},"properties":{"code":"91.06.09.2008","name":"Amoi","latitude":-0.8425248323485661,"longitude":135.90787137365544}},{"type":"Feature","geometry":{"type":"Polygon","coordinates":[[[135.9245,-0.79],[135.918,-0.7775],[135.902,-0.7955],[135.8875,-0.8005],[135.873,-0.811],[135.8475,-0.836],[135.856,-0.846],[135.858,-0.8535],[135.879,-0.84],[135.884,-0.8385],[135.9015,-0.824],[135.9025,-0.8205],[135.9245,-0.79]]]},"properties":{"code":"91.06.09.2009","name":"Inswambesi","latitude":-0.8182028975719055,"longitude":135.88602101973373}},{"type":"Feature","geometry":{"type":"Polygon","coordinates":[[[135.9145,-0.7725],[135.909,-0.7575],[135.902,-0.7655],[135.9055,-0.772],[135.9145,-0.7725]]]},"properties":{"code":"91.06.09.2010","name":"Koyomi","latitude":-0.7665810145157725,"longitude":135.90774653761616}},{"type":"Feature","geometry":{"type":"Polygon","coordinates":[[[135.902,-0.7655],[135.8935,-0.768],[135.8475,-0.762],[135.8345,-0.775],[135.8255,-0.782],[135.8375,-0.7885],[135.8405,-0.7995],[135.838,-0.815],[135.867,-0.8045],[135.87,-0.7985],[135.8885,-0.782],[135.9055,-0.772],[135.902,-0.7655]]]},"properties":{"code":"91.06.09.2011","name":"Wasani","latitude":-0.7830890399066579,"longitude":135.8623617097258}},{"type":"Feature","geometry":{"type":"Polygon","coordinates":[[[135.9655,-0.8065],[135.9635,-0.805],[135.955,-0.814],[135.957,-0.814],[135.9655,-0.8065]]]},"properties":{"code":"91.06.09.2017","name":"Karuiberik","latitude":-0.8096137086684612,"longitude":135.9600736693841}},{"type":"Feature","geometry":{"type":"Polygon","coordinates":[[[135.947,-0.795],[135.943,-0.79],[135.9375,-0.793],[135.937,-0.8005],[135.943,-0.802],[135.945,-0.7975],[135.947,-0.795]]]},"properties":{"code":"91.06.09.2018","name":"Komboi","latitude":-0.7965367539651034,"longitude":135.94139705599102}},{"type":"Feature","geometry":{"type":"Polygon","coordinates":[[[135.9145,-0.7725],[135.9055,-0.772],[135.8885,-0.782],[135.87,-0.7985],[135.867,-0.8045],[135.838,-0.815],[135.8445,-0.8285],[135.8475,-0.836],[135.873,-0.811],[135.8875,-0.8005],[135.902,-0.7955],[135.918,-0.7775],[135.9145,-0.7725]]]},"properties":{"code":"91.06.09.2020","name":"Inswambesi Sup","latitude":-0.8022273663839374,"longitude":135.87591282543286}},{"type":"Feature","geometry":{"type":"Polygon","coordinates":[[[135.909,-0.7575],[135.894,-0.7435],[135.887,-0.731],[135.872,-0.7155],[135.863,-0.7265],[135.861,-0.735],[135.8515,-0.7495],[135.8475,-0.762],[135.8935,-0.768],[135.902,-0.7655],[135.909,-0.7575]]]},"properties":{"code":"91.06.09.2021","name":"Inyobi","latitude":-0.7474366075782808,"longitude":135.87593877929967}},{"type":"Feature","geometry":{"type":"Polygon","coordinates":[[[135.9375,-0.793],[135.937,-0.786],[135.9245,-0.79],[135.9025,-0.8205],[135.902,-0.822],[135.9055,-0.824],[135.9125,-0.8215],[135.9215,-0.8135],[135.9325,-0.814],[135.9485,-0.826],[135.9505,-0.824],[135.9495,-0.822],[135.9475,-0.8215],[135.944,-0.82],[135.9425,-0.817],[135.937,-0.8145],[135.9395,-0.8095],[135.937,-0.8025],[135.9375,-0.793]]]},"properties":{"code":"91.06.09.2023","name":"Maniri","latitude":-0.8070057809464278,"longitude":135.92525254331116}},{"type":"Feature","geometry":{"type":"Polygon","coordinates":[[[135.8915,-0.8755],[135.8865,-0.8735],[135.8825,-0.8745],[135.878,-0.8735],[135.875,-0.87],[135.882,-0.861],[135.8825,-0.859],[135.8785,-0.8405],[135.879,-0.84],[135.858,-0.8535],[135.8585,-0.856],[135.8565,-0.871],[135.862,-0.8765],[135.8705,-0.8825],[135.8795,-0.893],[135.889,-0.8785],[135.8915,-0.8755]]]},"properties":{"code":"91.06.09.2024","name":"Imbari","latitude":-0.8671518989110207,"longitude":135.8719308760996}},{"type":"Feature","geometry":{"type":"Polygon","coordinates":[[[135.957,-0.814],[135.955,-0.814],[135.9475,-0.8215],[135.9495,-0.822],[135.957,-0.814]]]},"properties":{"code":"91.06.09.2025","name":"Manbeori","latitude":-0.8179760453803842,"longitude":135.95214533834672}},{"type":"Feature","geometry":{"type":"Polygon","coordinates":[[[135.9585,-0.8155],[135.957,-0.814],[135.9495,-0.822],[135.9505,-0.824],[135.954,-0.82],[135.9585,-0.8155]]]},"properties":{"code":"91.06.09.2026","name":"Warawaf","latitude":-0.8189122154523666,"longitude":135.95391988178378}},{"type":"Feature","geometry":{"type":"Polygon","coordinates":[[[135.955,-0.814],[135.9515,-0.812],[135.944,-0.82],[135.9475,-0.8215],[135.955,-0.814]]]},"properties":{"code":"91.06.09.2027","name":"Wir Insos","latitude":-0.8173209805689061,"longitude":135.94907131512142}},{"type":"Feature","geometry":{"type":"Polygon","coordinates":[[[135.954,-0.805],[135.9515,-0.801],[135.9445,-0.7995],[135.937,-0.8145],[135.9425,-0.817],[135.947,-0.813],[135.954,-0.805]]]},"properties":{"code":"91.06.09.2028","name":"Biawer","latitude":-0.8074407262824954,"longitude":135.9455415928088}},{"type":"Feature","geometry":{"type":"Polygon","coordinates":[[[135.943,-0.802],[135.937,-0.8005],[135.937,-0.8025],[135.9395,-0.8095],[135.943,-0.802]]]},"properties":{"code":"91.06.09.2029","name":"Mamfias","latitude":-0.8047482084552467,"longitude":135.9392420845436}},{"type":"Feature","geometry":{"type":"Polygon","coordinates":[[[136.442,-1.217],[136.4335,-1.207],[136.437,-1.221],[136.4405,-1.2185],[136.442,-1.217]]]},"properties":{"code":"91.06.10.2001","name":"Pai","latitude":-1.2144242488897845,"longitude":136.4354978676895}},{"type":"Feature","geometry":{"type":"Polygon","coordinates":[[[136.3405,-1.2295],[136.3365,-1.2275],[136.3355,-1.2295],[136.3405,-1.2295]]]},"properties":{"code":"91.06.10.2002","name":"Auki","latitude":-1.2321501360406977,"longitude":136.3394246976922}},{"type":"Feature","geometry":{"type":"Polygon","coordinates":[[[136.3785,-1.2515],[136.3725,-1.2505],[136.3745,-1.254],[136.3755,-1.2585],[136.3785,-1.2515]]]},"properties":{"code":"91.06.10.2003","name":"Wundi","latitude":-1.2542987858770944,"longitude":136.375905169701}},{"type":"Feature","geometry":{"type":"Polygon","coordinates":[[[136.411,-1.28],[136.41,-1.287],[136.412,-1.301],[136.4145,-1.3],[136.411,-1.29],[136.412,-1.2805],[136.411,-1.28]]]},"properties":{"code":"91.06.10.2004","name":"Nusi Babaruk","latitude":-1.2948238601033004,"longitude":136.40842693786195}},{"type":"Feature","geometry":{"type":"Polygon","coordinates":[[[136.412,-1.2805],[136.416,-1.2735],[136.4205,-1.2705],[136.418,-1.268],[136.4125,-1.274],[136.411,-1.28],[136.412,-1.2805]]]},"properties":{"code":"91.06.10.2005","name":"Nusi","latitude":-1.2724910145740025,"longitude":136.41605595919003}},{"type":"Feature","geometry":{"type":"Polygon","coordinates":[[[136.437,-1.221],[136.446,-1.2345],[136.4505,-1.222],[136.448,-1.212],[136.4405,-1.2185],[136.437,-1.221]]]},"properties":{"code":"91.06.10.2014","name":"Inbeyomi","latitude":-1.2234281795834852,"longitude":136.44535688816674}},{"type":"Feature","geometry":{"type":"Polygon","coordinates":[[[136.3785,-1.2515],[136.372,-1.249],[136.3695,-1.2505],[136.3785,-1.2515]]]},"properties":{"code":"91.06.10.2015","name":"Sorina","latitude":-1.2497129046757187,"longitude":136.37325081703975}},{"type":"Feature","geometry":{"type":"Polygon","coordinates":[[[136.34,-1.2225],[136.3175,-1.218],[136.2945,-1.231],[136.3,-1.244],[136.309,-1.2355],[136.3285,-1.2285],[136.3355,-1.2295],[136.34,-1.2225]]]},"properties":{"code":"91.06.10.2016","name":"Sandidori","latitude":-1.2326840280052518,"longitude":136.31431980584208}},{"type":"Feature","geometry":{"type":"Polygon","coordinates":[[[136.448,-1.212],[136.443,-1.1995],[136.4335,-1.207],[136.442,-1.217],[136.448,-1.212]]]},"properties":{"code":"91.06.10.2020","name":"Paidori","latitude":-1.208130057430681,"longitude":136.441241936813}},{"type":"Feature","geometry":{"type":"Polygon","coordinates":[[[136.3405,-1.2295],[136.34,-1.2225],[136.3365,-1.2275],[136.3405,-1.2295]]]},"properties":{"code":"91.06.10.2021","name":"Kanai","latitude":-1.225275267112904,"longitude":136.34209919168669}},{"type":"Feature","geometry":{"type":"Polygon","coordinates":[[[136.3725,-1.2505],[136.3695,-1.2505],[136.3755,-1.2585],[136.3745,-1.254],[136.3725,-1.2505]]]},"properties":{"code":"91.06.10.2022","name":"Sokani","latitude":-1.2538190240616032,"longitude":136.37309019282594}},{"type":"Feature","geometry":{"type":"Polygon","coordinates":[[[136.038,-1.0995],[136.033,-1.089],[136.0185,-1.076],[136.013,-1.1065],[136.013,-1.1365],[136.0135,-1.1445],[136.0355,-1.1475],[136.0395,-1.139],[136.039,-1.1215],[136.038,-1.0995]]]},"properties":{"code":"91.06.11.2001","name":"Yendidori","latitude":-1.1161454340896135,"longitude":136.02546308618955}},{"type":"Feature","geometry":{"type":"Polygon","coordinates":[[[136.013,-1.1365],[136.013,-1.131],[135.976,-1.1305],[135.9755,-1.147],[136,-1.1425],[136.0135,-1.1445],[136.013,-1.1365]]]},"properties":{"code":"91.06.11.2002","name":"Adoki","latitude":-1.1374266627614074,"longitude":135.99363022711864}},{"type":"Feature","geometry":{"type":"Polygon","coordinates":[[[135.945,-1.1225],[135.934,-1.121],[135.9225,-1.106],[135.9095,-1.097],[135.9075,-1.099],[135.8945,-1.115],[135.889,-1.1225],[135.8975,-1.1345],[135.8995,-1.151],[135.915,-1.1465],[135.934,-1.142],[135.9375,-1.1495],[135.952,-1.1465],[135.954,-1.125],[135.945,-1.1225]]]},"properties":{"code":"91.06.11.2003","name":"Urfu","latitude":-1.1278179198916205,"longitude":135.91992728299422}},{"type":"Feature","geometry":{"type":"Polygon","coordinates":[[[135.918,-1.158],[135.915,-1.1465],[135.8995,-1.151],[135.8975,-1.1685],[135.896,-1.172],[135.906,-1.171],[135.918,-1.159],[135.918,-1.158]]]},"properties":{"code":"91.06.11.2004","name":"Samber","latitude":-1.1593435923346096,"longitude":135.90666456620326}},{"type":"Feature","geometry":{"type":"Polygon","coordinates":[[[135.973,-1.117],[135.971,-1.0975],[135.965,-1.089],[135.9535,-1.1055],[135.95,-1.1125],[135.945,-1.1225],[135.954,-1.125],[135.952,-1.1465],[135.9755,-1.147],[135.976,-1.127],[135.973,-1.117]]]},"properties":{"code":"91.06.11.2005","name":"Kabidon","latitude":-1.1226871659094537,"longitude":135.963081133918}},{"type":"Feature","geometry":{"type":"Polygon","coordinates":[[[135.948,-1.0715],[135.942,-1.0695],[135.9335,-1.0645],[135.927,-1.074],[135.922,-1.0815],[135.915,-1.09],[135.9095,-1.097],[135.9225,-1.106],[135.934,-1.121],[135.945,-1.1225],[135.9495,-1.114],[135.9485,-1.114],[135.948,-1.113],[135.9465,-1.112],[135.9455,-1.111],[135.941,-1.1105],[135.9435,-1.0825],[135.944,-1.0805],[135.9435,-1.0785],[135.946,-1.0755],[135.949,-1.0745],[135.9495,-1.073],[135.948,-1.0715]]]},"properties":{"code":"91.06.11.2006","name":"Sunyar","latitude":-1.093958069695943,"longitude":135.9323416978571}},{"type":"Feature","geometry":{"type":"Polygon","coordinates":[[[136.0165,-1.069],[136.0135,-1.056],[135.9805,-1.066],[135.962,-1.0665],[135.9515,-1.0725],[135.9725,-1.0855],[135.979,-1.0825],[136,-1.074],[136.0165,-1.069]]]},"properties":{"code":"91.06.11.2007","name":"Moibaken","latitude":-1.0709126919276295,"longitude":135.98574120933964}},{"type":"Feature","geometry":{"type":"Polygon","coordinates":[[[136.0135,-1.056],[136.0115,-1.049],[136.0105,-1.036],[135.9645,-1.0455],[135.9375,-1.048],[135.925,-1.053],[135.9285,-1.0585],[135.9335,-1.0645],[135.942,-1.0695],[135.9475,-1.071],[135.9515,-1.0725],[135.962,-1.0665],[135.9805,-1.066],[136.0135,-1.056]]]},"properties":{"code":"91.06.11.2008","name":"Wirmaker","latitude":-1.0544187978995476,"longitude":135.9716595644361}},{"type":"Feature","geometry":{"type":"Polygon","coordinates":[[[135.966,-1.007],[135.9635,-1.006],[135.953,-1.006],[135.946,-1.0125],[135.942,-1.0205],[135.959,-1.031],[135.952,-1.0465],[135.9645,-1.0455],[136.0105,-1.036],[135.995,-1.022],[135.966,-1.007]]]},"properties":{"code":"91.06.11.2009","name":"Syabes","latitude":-1.0267008630974355,"longitude":135.97204028819704}},{"type":"Feature","geometry":{"type":"Polygon","coordinates":[[[135.95,-1.047],[135.94,-1.027],[135.93,-1.0305],[135.9095,-1.0325],[135.916,-1.0405],[135.925,-1.053],[135.9375,-1.048],[135.95,-1.047]]]},"properties":{"code":"91.06.11.2010","name":"Samber Sup","latitude":-1.0397370381657052,"longitude":135.93064447727784}},{"type":"Feature","geometry":{"type":"Polygon","coordinates":[[[136.0185,-1.076],[136.0165,-1.069],[136,-1.074],[135.979,-1.0825],[135.965,-1.089],[135.971,-1.0975],[135.973,-1.117],[136.013,-1.116],[136.013,-1.1065],[136.0185,-1.076]]]},"properties":{"code":"91.06.11.2011","name":"Suneri","latitude":-1.0956582341689802,"longitude":135.99424039193067}},{"type":"Feature","geometry":{"type":"Polygon","coordinates":[[[135.953,-1.006],[135.9415,-1.006],[135.9055,-1.006],[135.905,-1.027],[135.9095,-1.0325],[135.93,-1.0305],[135.94,-1.027],[135.9415,-1.021],[135.946,-1.0125],[135.953,-1.006]]]},"properties":{"code":"91.06.11.2012","name":"Rarnpimbo","latitude":-1.017812154246576,"longitude":135.9248055852776}},{"type":"Feature","geometry":{"type":"Polygon","coordinates":[[[135.934,-1.143],[135.934,-1.142],[135.915,-1.1465],[135.918,-1.158],[135.927,-1.1565],[135.931,-1.1515],[135.934,-1.143]]]},"properties":{"code":"91.06.11.2013","name":"Padwa","latitude":-1.1510319231473913,"longitude":135.92409134463048}},{"type":"Feature","geometry":{"type":"Polygon","coordinates":[[[135.8995,-1.151],[135.8975,-1.1345],[135.889,-1.1225],[135.8655,-1.153],[135.8575,-1.166],[135.873,-1.173],[135.8935,-1.176],[135.8975,-1.1685],[135.8995,-1.151]]]},"properties":{"code":"91.06.11.2014","name":"Waroi","latitude":-1.1535072830154744,"longitude":135.88326676628523}},{"type":"Feature","geometry":{"type":"Polygon","coordinates":[[[136.013,-1.131],[136.013,-1.116],[135.973,-1.117],[135.976,-1.127],[135.976,-1.1305],[136.013,-1.131]]]},"properties":{"code":"91.06.11.2015","name":"Inpendi","latitude":-1.1232799454176987,"longitude":135.9941981656456}},{"type":"Feature","geometry":{"type":"Polygon","coordinates":[[[135.9515,-1.0725],[135.948,-1.0715],[135.9495,-1.073],[135.949,-1.0745],[135.946,-1.0755],[135.9435,-1.0785],[135.944,-1.0805],[135.9435,-1.0825],[135.941,-1.1105],[135.9455,-1.111],[135.9465,-1.112],[135.948,-1.113],[135.9485,-1.114],[135.9495,-1.114],[135.9535,-1.1055],[135.965,-1.089],[135.9725,-1.0855],[135.9515,-1.0725]]]},"properties":{"code":"91.06.11.2016","name":"Amyambenram","latitude":-1.0909823752114942,"longitude":135.95281089866205}},{"type":"Feature","geometry":{"type":"Polygon","coordinates":[[[135.952,-1.0465],[135.959,-1.031],[135.942,-1.0205],[135.9415,-1.021],[135.94,-1.027],[135.95,-1.047],[135.952,-1.0465]]]},"properties":{"code":"91.06.11.2017","name":"Birubi","latitude":-1.0331973050918342,"longitude":135.94886200421172}},{"type":"Feature","geometry":{"type":"Polygon","coordinates":[[[135.8935,-1.176],[135.906,-1.171],[135.896,-1.172],[135.8935,-1.176]]]},"properties":{"code":"91.06.11.2018","name":"Binyeri","latitude":-1.1749284293039592,"longitude":135.90117599950608}},{"type":"Feature","geometry":{"type":"Polygon","coordinates":[[[135.918,-1.159],[135.928,-1.1565],[135.9355,-1.1495],[135.934,-1.143],[135.931,-1.1515],[135.927,-1.1565],[135.918,-1.158],[135.918,-1.159]]]},"properties":{"code":"91.06.11.2019","name":"Padwa Pantai","latitude":-1.1509332090371727,"longitude":135.9314555745215}},{"type":"Feature","geometry":{"type":"Polygon","coordinates":[[[136.0745,-1.165],[136.0725,-1.1665],[136.0705,-1.166],[136.069,-1.1655],[136.066,-1.167],[136.0665,-1.1705],[136.0715,-1.1745],[136.0825,-1.179],[136.0855,-1.179],[136.0915,-1.178],[136.09,-1.172],[136.0775,-1.1655],[136.0745,-1.165]]]},"properties":{"code":"91.06.12.1001","name":"Samofa","latitude":-1.172008127633251,"longitude":136.07866563836868}},{"type":"Feature","geometry":{"type":"Polygon","coordinates":[[[136.075,-1.158],[136.074,-1.162],[136.0735,-1.1625],[136.0805,-1.1635],[136.0815,-1.1645],[136.084,-1.165],[136.0845,-1.1645],[136.0855,-1.1645],[136.097,-1.1685],[136.0975,-1.1655],[136.097,-1.165],[136.091,-1.1625],[136.0875,-1.1615],[136.086,-1.1605],[136.078,-1.1585],[136.075,-1.158]]]},"properties":{"code":"91.06.12.1002","name":"Brambaken","latitude":-1.1632124869941307,"longitude":136.0848167394484}},{"type":"Feature","geometry":{"type":"Polygon","coordinates":[[[136.0985,-1.175],[136.0955,-1.1745],[136.09,-1.172],[136.0915,-1.178],[136.105,-1.182],[136.1055,-1.1805],[136.098,-1.176],[136.0985,-1.175]]]},"properties":{"code":"91.06.12.1010","name":"Karang Mulia","latitude":-1.1765341933539746,"longitude":136.0961041968781}},{"type":"Feature","geometry":{"type":"Polygon","coordinates":[[[136.0755,-1.1525],[136.065,-1.1485],[136.065,-1.153],[136.067,-1.1585],[136.07,-1.1595],[136.074,-1.162],[136.075,-1.158],[136.0755,-1.1565],[136.075,-1.154],[136.0755,-1.1525]]]},"properties":{"code":"91.06.12.1011","name":"Yafdas","latitude":-1.1552403628980714,"longitude":136.06987676657386}},{"type":"Feature","geometry":{"type":"Polygon","coordinates":[[[136.1005,-1.159],[136.1,-1.159],[136.099,-1.1575],[136.0975,-1.1565],[136.0975,-1.157],[136.097,-1.165],[136.0975,-1.1655],[136.097,-1.1685],[136.0985,-1.1735],[136.098,-1.176],[136.1055,-1.1805],[136.1055,-1.1795],[136.1045,-1.177],[136.1015,-1.174],[136.0995,-1.1705],[136.101,-1.162],[136.1005,-1.159]]]},"properties":{"code":"91.06.12.1012","name":"Mansinyas","latitude":-1.1698903851329483,"longitude":136.10010754222338}},{"type":"Feature","geometry":{"type":"Polygon","coordinates":[[[136.074,-1.162],[136.07,-1.1595],[136.0685,-1.1605],[136.0665,-1.1635],[136.069,-1.1655],[136.0705,-1.166],[136.0725,-1.1665],[136.0745,-1.165],[136.075,-1.163],[136.0735,-1.1625],[136.074,-1.162]]]},"properties":{"code":"91.06.12.1013","name":"Snerbo","latitude":-1.1633495274719308,"longitude":136.07074705161176}},{"type":"Feature","geometry":{"type":"Polygon","coordinates":[[[136.1335,-1.119],[136.107,-1.1175],[136.104,-1.117],[136.095,-1.145],[136.0975,-1.146],[136.0975,-1.1565],[136.099,-1.1575],[136.1,-1.159],[136.1005,-1.159],[136.1005,-1.158],[136.101,-1.1575],[136.1055,-1.162],[136.1065,-1.1605],[136.1215,-1.1665],[136.129,-1.1485],[136.13,-1.1465],[136.1305,-1.144],[136.13,-1.1415],[136.131,-1.1395],[136.1355,-1.131],[136.138,-1.131],[136.1335,-1.119]]]},"properties":{"code":"91.06.12.1014","name":"Anjareuw","latitude":-1.1392860759123398,"longitude":136.11537596288406}},{"type":"Feature","geometry":{"type":"Polygon","coordinates":[[[136.095,-1.145],[136.0815,-1.145],[136.0865,-1.16],[136.086,-1.1605],[136.0875,-1.1615],[136.091,-1.1625],[136.097,-1.165],[136.0975,-1.157],[136.0975,-1.146],[136.095,-1.145]]]},"properties":{"code":"91.06.12.2003","name":"Mandouw","latitude":-1.1536234212966712,"longitude":136.09053313145247}},{"type":"Feature","geometry":{"type":"Polygon","coordinates":[[[136.138,-1.131],[136.1355,-1.131],[136.131,-1.1395],[136.13,-1.1415],[136.1305,-1.144],[136.13,-1.1465],[136.129,-1.1485],[136.1215,-1.1665],[136.154,-1.1725],[136.138,-1.131]]]},"properties":{"code":"91.06.12.2004","name":"Sumberker","latitude":-1.1553987628047107,"longitude":136.1377758579538}},{"type":"Feature","geometry":{"type":"Polygon","coordinates":[[[136.104,-1.117],[136.0985,-1.1165],[136.0835,-1.1055],[136.0745,-1.103],[136.0735,-1.128],[136.069,-1.1435],[136.075,-1.1455],[136.0785,-1.145],[136.0815,-1.145],[136.095,-1.145],[136.104,-1.117]]]},"properties":{"code":"91.06.12.2006","name":"Maryendi","latitude":-1.126991399464665,"longitude":136.08517968751414}},{"type":"Feature","geometry":{"type":"Polygon","coordinates":[[[136.0635,-1.0995],[136.038,-1.0995],[136.039,-1.1215],[136.039,-1.128],[136.0735,-1.128],[136.0745,-1.103],[136.07,-1.102],[136.0635,-1.0995]]]},"properties":{"code":"91.06.12.2007","name":"Sambawofuar","latitude":-1.1137753163324706,"longitude":136.05605516707112}},{"type":"Feature","geometry":{"type":"Polygon","coordinates":[[[136.069,-1.1435],[136.065,-1.1415],[136.065,-1.1485],[136.0755,-1.1525],[136.076,-1.1495],[136.076,-1.145],[136.075,-1.1455],[136.069,-1.1435]]]},"properties":{"code":"91.06.12.2008","name":"Adainasnosen","latitude":-1.1473014815416813,"longitude":136.07020927748147}},{"type":"Feature","geometry":{"type":"Polygon","coordinates":[[[136.069,-1.1435],[136.0735,-1.128],[136.039,-1.128],[136.0395,-1.139],[136.0485,-1.1405],[136.056,-1.1455],[136.065,-1.1455],[136.065,-1.1415],[136.069,-1.1435]]]},"properties":{"code":"91.06.12.2009","name":"Darmopis","latitude":-1.1352420944975476,"longitude":136.05643407176734}},{"type":"Feature","geometry":{"type":"Polygon","coordinates":[[[136.0815,-1.145],[136.0785,-1.145],[136.076,-1.145],[136.076,-1.1495],[136.075,-1.154],[136.0755,-1.1565],[136.078,-1.1585],[136.086,-1.1605],[136.0865,-1.16],[136.0815,-1.145]]]},"properties":{"code":"91.06.12.2015","name":"Kamorfuar","latitude":-1.1529949965498072,"longitude":136.07947431352054}},{"type":"Feature","geometry":{"type":"Polygon","coordinates":[[[136.1215,-1.1665],[136.1065,-1.1605],[136.1055,-1.162],[136.101,-1.1575],[136.1005,-1.158],[136.101,-1.162],[136.0995,-1.1705],[136.1015,-1.174],[136.1045,-1.177],[136.105,-1.178],[136.107,-1.177],[136.1095,-1.1765],[136.1135,-1.1755],[136.131,-1.1825],[136.1385,-1.1835],[136.146,-1.183],[136.157,-1.1805],[136.154,-1.1725],[136.1215,-1.1665]]]},"properties":{"code":"91.06.12.2016","name":"Anjareuw","latitude":-1.1729653419156623,"longitude":136.1258117254794}},{"type":"Feature","geometry":{"type":"Polygon","coordinates":[[[136.097,-1.1685],[136.0855,-1.1645],[136.0845,-1.1645],[136.084,-1.165],[136.0825,-1.1645],[136.0825,-1.1655],[136.0815,-1.166],[136.0815,-1.1675],[136.09,-1.172],[136.0955,-1.1745],[136.0985,-1.175],[136.0985,-1.1735],[136.097,-1.1685]]]},"properties":{"code":"91.06.12.2017","name":"Wisata Binsari","latitude":-1.1695430289586652,"longitude":136.09055707138276}},{"type":"Feature","geometry":{"type":"Polygon","coordinates":[[[136.0825,-1.1645],[136.0815,-1.1645],[136.0805,-1.1635],[136.075,-1.163],[136.0745,-1.165],[136.0775,-1.1655],[136.0815,-1.1675],[136.0815,-1.166],[136.0825,-1.1655],[136.0825,-1.1645]]]},"properties":{"code":"91.06.12.2018","name":"Kinmom","latitude":-1.1649914583075893,"longitude":136.07868237012016}},{"type":"Feature","geometry":{"type":"Polygon","coordinates":[[[136.0385,-0.8485],[136.0295,-0.8375],[136.023,-0.845],[136.0105,-0.8565],[136.0125,-0.858],[136.0165,-0.862],[136.0235,-0.8535],[136.028,-0.8515],[136.0385,-0.8485]]]},"properties":{"code":"91.06.13.2001","name":"Asur","latitude":-0.8492313430370071,"longitude":136.02518533736304}},{"type":"Feature","geometry":{"type":"Polygon","coordinates":[[[136.0295,-0.8375],[136.012,-0.832],[136.001,-0.853],[136.0015,-0.8535],[136.0175,-0.8365],[136.0265,-0.841],[136.0295,-0.8375]]]},"properties":{"code":"91.06.13.2002","name":"Bosnabraidi","latitude":-0.8384553959784355,"longitude":136.01619607804736}},{"type":"Feature","geometry":{"type":"Polygon","coordinates":[[[136.012,-0.832],[136.0015,-0.824],[135.994,-0.848],[135.995,-0.849],[135.998,-0.851],[136.001,-0.853],[136.012,-0.832]]]},"properties":{"code":"91.06.13.2003","name":"Wasori","latitude":-0.838958371809855,"longitude":136.00299189040157}},{"type":"Feature","geometry":{"type":"Polygon","coordinates":[[[135.9925,-0.8205],[135.978,-0.815],[135.978,-0.816],[135.975,-0.8205],[135.9615,-0.835],[135.966,-0.8435],[135.9745,-0.8455],[135.985,-0.846],[135.9925,-0.8205]]]},"properties":{"code":"91.06.13.2004","name":"Soor","latitude":-0.8314710604103684,"longitude":135.97839125964674}},{"type":"Feature","geometry":{"type":"Polygon","coordinates":[[[135.978,-0.815],[135.9665,-0.8075],[135.9575,-0.8165],[135.97,-0.8255],[135.975,-0.8205],[135.978,-0.816],[135.978,-0.815]]]},"properties":{"code":"91.06.13.2005","name":"Karmon","latitude":-0.8164423827189263,"longitude":135.96843670518996}},{"type":"Feature","geometry":{"type":"Polygon","coordinates":[[[136.0015,-0.824],[135.9925,-0.8205],[135.985,-0.846],[135.9915,-0.847],[135.994,-0.848],[136.0015,-0.824]]]},"properties":{"code":"91.06.13.2006","name":"Fanindi","latitude":-0.8352364540733274,"longitude":135.99337537959696}},{"type":"Feature","geometry":{"type":"Polygon","coordinates":[[[136.0265,-0.841],[136.0175,-0.8365],[136.0015,-0.8535],[136.0045,-0.855],[136.0105,-0.8565],[136.023,-0.845],[136.0265,-0.841]]]},"properties":{"code":"91.06.13.2007","name":"Madirai","latitude":-0.8466355809965268,"longitude":136.01422715663657}},{"type":"Feature","geometry":{"type":"Polygon","coordinates":[[[135.97,-0.8255],[135.9575,-0.8165],[135.954,-0.82],[135.9505,-0.824],[135.9615,-0.835],[135.97,-0.8255]]]},"properties":{"code":"91.06.13.2008","name":"Indawi","latitude":-0.8258775399757293,"longitude":135.95991849645964}},{"type":"Feature","geometry":{"type":"Polygon","coordinates":[[[135.97,-0.901],[135.9695,-0.9015],[135.949,-0.9045],[135.9155,-0.8845],[135.914,-0.8855],[135.9135,-0.8865],[135.9095,-0.888],[135.908,-0.8915],[135.906,-0.8955],[135.905,-0.901],[135.905,-0.906],[135.9015,-0.926],[135.9015,-0.9285],[135.903,-0.9305],[135.907,-0.932],[135.9105,-0.9265],[135.913,-0.925],[135.9135,-0.9255],[135.915,-0.925],[135.916,-0.9255],[135.9175,-0.927],[135.92,-0.945],[135.9175,-0.9545],[135.9155,-0.956],[135.916,-0.9565],[135.925,-0.9605],[135.9305,-0.9605],[135.931,-0.963],[135.932,-0.9625],[135.9325,-0.9635],[135.954,-0.9435],[135.9805,-0.915],[135.97,-0.901]]]},"properties":{"code":"91.06.14.2001","name":"Rumbin","latitude":-0.9217489581326973,"longitude":135.9360402816821}},{"type":"Feature","geometry":{"type":"Polygon","coordinates":[[[136.027,-0.8955],[136.0175,-0.8985],[136.001,-0.8955],[135.9855,-0.9205],[136.001,-0.933],[136.003,-0.9275],[136.0055,-0.922],[136.0095,-0.9165],[136.009,-0.905],[136.018,-0.8995],[136.023,-0.899],[136.026,-0.898],[136.027,-0.8955]]]},"properties":{"code":"91.06.14.2002","name":"Warbinsi","latitude":-0.9126469371064777,"longitude":136.00063654074876}},{"type":"Feature","geometry":{"type":"Polygon","coordinates":[[[136.0165,-0.862],[136.0165,-0.8615],[136.0025,-0.8685],[135.9825,-0.886],[135.9865,-0.8885],[135.993,-0.8965],[135.995,-0.897],[135.999,-0.893],[136.0235,-0.881],[136.0235,-0.8805],[136.026,-0.8735],[136.0165,-0.862]]]},"properties":{"code":"91.06.14.2003","name":"Rodifu","latitude":-0.8790551881683769,"longitude":136.005142586922}},{"type":"Feature","geometry":{"type":"Polygon","coordinates":[[[135.9855,-0.9205],[135.9805,-0.915],[135.954,-0.9435],[135.9465,-0.95],[135.942,-0.9635],[135.9335,-0.9735],[135.937,-0.995],[135.938,-0.997],[135.936,-0.9985],[135.9365,-0.999],[135.9385,-1],[135.9395,-1],[135.943,-1.0015],[135.942,-1.0025],[135.9455,-1.004],[135.95,-1.002],[135.955,-1.005],[135.956,-1.006],[135.9635,-1.006],[135.966,-1.007],[135.966,-0.997],[135.967,-0.9895],[135.972,-0.982],[135.978,-0.976],[135.992,-0.963],[136.003,-0.939],[136.0005,-0.933],[136.001,-0.933],[135.9855,-0.9205]]]},"properties":{"code":"91.06.14.2004","name":"Wonabraidi","latitude":-0.9620072970423389,"longitude":135.96622404395873}},{"type":"Feature","geometry":{"type":"Polygon","coordinates":[[[135.985,-0.846],[135.9745,-0.8455],[135.967,-0.844],[135.96,-0.854],[135.946,-0.863],[135.9555,-0.8695],[135.9675,-0.881],[135.9825,-0.886],[136.0025,-0.8685],[136.0165,-0.8615],[136.0125,-0.858],[136.0105,-0.8565],[136.0045,-0.855],[135.998,-0.851],[135.995,-0.849],[135.9915,-0.847],[135.985,-0.846]]]},"properties":{"code":"91.06.14.2005","name":"Wouna","latitude":-0.8631126890655175,"longitude":135.97985659986196}},{"type":"Feature","geometry":{"type":"Polygon","coordinates":[[[135.9155,-0.8845],[135.895,-0.872],[135.889,-0.8785],[135.8795,-0.893],[135.8735,-0.9075],[135.875,-0.915],[135.8755,-0.931],[135.8745,-0.935],[135.8725,-0.94],[135.863,-0.962],[135.8725,-0.9675],[135.897,-0.996],[135.9165,-0.9785],[135.9325,-0.9635],[135.932,-0.9625],[135.931,-0.963],[135.9305,-0.9605],[135.925,-0.9605],[135.916,-0.9565],[135.9155,-0.956],[135.9175,-0.9545],[135.92,-0.945],[135.9175,-0.927],[135.916,-0.9255],[135.915,-0.925],[135.9135,-0.9255],[135.913,-0.925],[135.9105,-0.9265],[135.907,-0.932],[135.903,-0.9305],[135.9015,-0.9285],[135.9015,-0.926],[135.905,-0.906],[135.905,-0.901],[135.906,-0.8955],[135.908,-0.8915],[135.9095,-0.888],[135.9135,-0.8865],[135.914,-0.8855],[135.9155,-0.8845]]]},"properties":{"code":"91.06.14.2007","name":"Mamorbo","latitude":-0.9388249749369456,"longitude":135.8948275842771}},{"type":"Feature","geometry":{"type":"Polygon","coordinates":[[[135.995,-0.897],[135.993,-0.8965],[135.9865,-0.8885],[135.9825,-0.886],[135.978,-0.893],[135.97,-0.901],[135.9805,-0.915],[135.991,-0.901],[135.995,-0.897]]]},"properties":{"code":"91.06.14.2008","name":"Faknikdi","latitude":-0.9000623427554894,"longitude":135.98208540296665}},{"type":"Feature","geometry":{"type":"Polygon","coordinates":[[[136.027,-0.8895],[136.024,-0.8825],[136.0235,-0.881],[135.999,-0.893],[135.991,-0.901],[135.9805,-0.915],[135.9855,-0.9205],[136.001,-0.8955],[136.0175,-0.8985],[136.027,-0.8955],[136.0275,-0.894],[136.027,-0.8895]]]},"properties":{"code":"91.06.14.2009","name":"Armnu","latitude":-0.8961452479213857,"longitude":136.0073231031397}},{"type":"Feature","geometry":{"type":"Polygon","coordinates":[[[135.9555,-0.8695],[135.945,-0.8685],[135.921,-0.8515],[135.908,-0.862],[135.897,-0.8705],[135.895,-0.872],[135.949,-0.9045],[135.9695,-0.9015],[135.978,-0.893],[135.9825,-0.886],[135.9675,-0.881],[135.9555,-0.8695]]]},"properties":{"code":"91.06.14.2010","name":"Sup Mbrur","latitude":-0.8802261784084443,"longitude":135.9389350317958}},{"type":"Feature","geometry":{"type":"Polygon","coordinates":[[[135.9615,-0.835],[135.9505,-0.824],[135.933,-0.84],[135.921,-0.8515],[135.945,-0.8685],[135.9555,-0.8695],[135.946,-0.863],[135.96,-0.854],[135.967,-0.844],[135.966,-0.8435],[135.9615,-0.835]]]},"properties":{"code":"91.06.14.2011","name":"Wodu","latitude":-0.8473282847577351,"longitude":135.94518870963185}},{"type":"Feature","geometry":{"type":"Polygon","coordinates":[[[135.956,-1.006],[135.955,-1.005],[135.95,-1.002],[135.9455,-1.004],[135.942,-1.0025],[135.943,-1.0015],[135.9395,-1],[135.9385,-1],[135.9365,-0.999],[135.936,-0.9985],[135.938,-0.997],[135.937,-0.995],[135.9335,-0.9735],[135.942,-0.9635],[135.9465,-0.95],[135.9165,-0.9785],[135.897,-0.996],[135.9055,-1.006],[135.9415,-1.006],[135.956,-1.006]]]},"properties":{"code":"91.06.14.2012","name":"Dasdo","latitude":-0.9890855744550047,"longitude":135.9239550207382}},{"type":"Feature","geometry":{"type":"Polygon","coordinates":[[[135.863,-0.962],[135.8725,-0.94],[135.8745,-0.9345],[135.8215,-0.95],[135.815,-0.9515],[135.808,-0.954],[135.7925,-0.958],[135.789,-0.958],[135.7935,-0.9825],[135.838,-0.9645],[135.849,-0.965],[135.863,-0.962]]]},"properties":{"code":"91.06.15.2001","name":"Farusi","latitude":-0.957741738421675,"longitude":135.83021745410946}},{"type":"Feature","geometry":{"type":"Polygon","coordinates":[[[135.8745,-0.9345],[135.8755,-0.931],[135.875,-0.915],[135.873,-0.9115],[135.8235,-0.936],[135.7875,-0.9445],[135.7925,-0.958],[135.808,-0.954],[135.815,-0.9515],[135.8215,-0.95],[135.8745,-0.9345]]]},"properties":{"code":"91.06.15.2002","name":"Mandenderi","latitude":-0.9365870117349104,"longitude":135.83689106087905}},{"type":"Feature","geometry":{"type":"Polygon","coordinates":[[[135.8795,-0.893],[135.874,-0.8865],[135.822,-0.914],[135.815,-0.9235],[135.79,-0.9325],[135.7875,-0.9375],[135.7875,-0.9445],[135.8235,-0.936],[135.873,-0.9115],[135.8735,-0.9075],[135.8795,-0.893]]]},"properties":{"code":"91.06.15.2003","name":"Swainober","latitude":-0.9173272812671431,"longitude":135.83679105631063}},{"type":"Feature","geometry":{"type":"Polygon","coordinates":[[[135.7805,-0.9305],[135.7865,-0.937],[135.783,-0.9295],[135.7805,-0.9305]]]},"properties":{"code":"91.06.15.2004","name":"Mardori","latitude":-0.9337439669321864,"longitude":135.78346827335653}},{"type":"Feature","geometry":{"type":"Polygon","coordinates":[[[135.8675,-0.8805],[135.862,-0.8765],[135.8615,-0.876],[135.781,-0.922],[135.7805,-0.9305],[135.785,-0.9285],[135.8125,-0.9105],[135.8675,-0.8805]]]},"properties":{"code":"91.06.15.2005","name":"Swaipak","latitude":-0.902284184116861,"longitude":135.82241858978418}},{"type":"Feature","geometry":{"type":"Polygon","coordinates":[[[135.859,-0.8735],[135.8565,-0.871],[135.8095,-0.8995],[135.7765,-0.915],[135.7765,-0.919],[135.7895,-0.914],[135.859,-0.8735]]]},"properties":{"code":"91.06.15.2006","name":"Yenbepioper","latitude":-0.8958274218254697,"longitude":135.81715369004823}},{"type":"Feature","geometry":{"type":"Polygon","coordinates":[[[135.8565,-0.871],[135.8585,-0.856],[135.826,-0.875],[135.816,-0.8845],[135.804,-0.8895],[135.7695,-0.895],[135.7765,-0.915],[135.8095,-0.8995],[135.8565,-0.871]]]},"properties":{"code":"91.06.15.2007","name":"Sarwa","latitude":-0.8886032827316545,"longitude":135.8128062536487}},{"type":"Feature","geometry":{"type":"Polygon","coordinates":[[[135.8475,-0.836],[135.8445,-0.8285],[135.818,-0.8375],[135.8085,-0.862],[135.786,-0.862],[135.7745,-0.8755],[135.773,-0.878],[135.769,-0.8785],[135.7695,-0.895],[135.804,-0.8895],[135.816,-0.8845],[135.826,-0.875],[135.8585,-0.856],[135.856,-0.846],[135.8475,-0.836]]]},"properties":{"code":"91.06.15.2008","name":"Napdori","latitude":-0.864725257818466,"longitude":135.81425920787544}},{"type":"Feature","geometry":{"type":"Polygon","coordinates":[[[135.7735,-0.874],[135.7735,-0.863],[135.7645,-0.857],[135.7605,-0.842],[135.7545,-0.843],[135.7735,-0.874]]]},"properties":{"code":"91.06.15.2009","name":"Ramdori","latitude":-0.8609463807980607,"longitude":135.76632746740486}},{"type":"Feature","geometry":{"type":"Polygon","coordinates":[[[135.7605,-0.842],[135.7525,-0.825],[135.7495,-0.828],[135.7545,-0.843],[135.7605,-0.842]]]},"properties":{"code":"91.06.15.2010","name":"Busdori","latitude":-0.8354284892062478,"longitude":135.7548068850774}},{"type":"Feature","geometry":{"type":"Polygon","coordinates":[[[135.7525,-0.825],[135.7445,-0.8165],[135.742,-0.8055],[135.7415,-0.816],[135.7495,-0.828],[135.7525,-0.825]]]},"properties":{"code":"91.06.15.2011","name":"Wombrisau","latitude":-0.8154098874703841,"longitude":135.74390337194734}},{"type":"Feature","geometry":{"type":"Polygon","coordinates":[[[135.7815,-0.7635],[135.7805,-0.7635],[135.7745,-0.77],[135.7615,-0.7735],[135.7565,-0.785],[135.755,-0.789],[135.7525,-0.792],[135.752,-0.792],[135.751,-0.791],[135.7495,-0.7885],[135.7475,-0.788],[135.7455,-0.79],[135.746,-0.7985],[135.745,-0.799],[135.741,-0.8025],[135.742,-0.8055],[135.7445,-0.8165],[135.7525,-0.825],[135.7565,-0.817],[135.783,-0.805],[135.79,-0.7875],[135.7815,-0.7635]]]},"properties":{"code":"91.06.15.2012","name":"Orkdori","latitude":-0.794388755647202,"longitude":135.76627847560792}},{"type":"Feature","geometry":{"type":"Polygon","coordinates":[[[135.8255,-0.782],[135.7915,-0.7505],[135.7815,-0.7345],[135.778,-0.736],[135.7745,-0.738],[135.771,-0.7425],[135.772,-0.7445],[135.7815,-0.7585],[135.7805,-0.758],[135.781,-0.7595],[135.7815,-0.76],[135.783,-0.762],[135.781,-0.762],[135.781,-0.7625],[135.782,-0.763],[135.782,-0.7635],[135.7815,-0.7635],[135.79,-0.7875],[135.783,-0.805],[135.7565,-0.817],[135.7525,-0.825],[135.7605,-0.842],[135.7835,-0.835],[135.818,-0.8185],[135.8315,-0.7945],[135.8375,-0.7885],[135.8255,-0.782]]]},"properties":{"code":"91.06.15.2013","name":"Saswarbo","latitude":-0.797838326635103,"longitude":135.79416984415627}},{"type":"Feature","geometry":{"type":"Polygon","coordinates":[[[135.838,-0.815],[135.8405,-0.7995],[135.8375,-0.7885],[135.8315,-0.7945],[135.818,-0.8185],[135.7835,-0.835],[135.7605,-0.842],[135.7645,-0.857],[135.7735,-0.863],[135.7735,-0.874],[135.774,-0.8765],[135.7745,-0.8755],[135.786,-0.862],[135.8085,-0.862],[135.818,-0.8375],[135.8445,-0.8285],[135.838,-0.815]]]},"properties":{"code":"91.06.15.2014","name":"Andoina","latitude":-0.8371402025437986,"longitude":135.80365791621566}},{"type":"Feature","geometry":{"type":"Polygon","coordinates":[[[135.874,-0.8865],[135.8705,-0.8825],[135.8675,-0.8805],[135.8125,-0.9105],[135.785,-0.9285],[135.783,-0.9295],[135.7865,-0.937],[135.7875,-0.9375],[135.79,-0.9325],[135.815,-0.9235],[135.822,-0.914],[135.874,-0.8865]]]},"properties":{"code":"91.06.15.2015","name":"Insusbari","latitude":-0.9078604591189919,"longitude":135.82735266528334}},{"type":"Feature","geometry":{"type":"Polygon","coordinates":[[[134.9195,-1.0655],[134.9275,-1.0445],[134.935,-1.0435],[134.9315,-1.024],[134.9395,-1.009],[134.9185,-1.0165],[134.9135,-1.023],[134.913,-1.025],[134.9075,-1.0445],[134.907,-1.058],[134.909,-1.0625],[134.9125,-1.0665],[134.9135,-1.069],[134.915,-1.0685],[134.9195,-1.0655]]]},"properties":{"code":"91.06.16.2001","name":"Sandau","latitude":-1.0352474859992868,"longitude":134.92699819201692}},{"type":"Feature","geometry":{"type":"Polygon","coordinates":[[[134.981,-1.0655],[134.9725,-1.065],[134.961,-1.0835],[134.947,-1.091],[134.9445,-1.094],[134.965,-1.101],[134.972,-1.0945],[134.982,-1.0705],[134.981,-1.0655]]]},"properties":{"code":"91.06.16.2002","name":"Bruyadori","latitude":-1.085187227702074,"longitude":134.96573394142226}},{"type":"Feature","geometry":{"type":"Polygon","coordinates":[[[134.9785,-1.0495],[134.985,-1.0365],[134.9805,-1.012],[134.969,-1.015],[134.965,-1.026],[134.9645,-1.028],[134.9645,-1.0285],[134.9655,-1.0345],[134.9665,-1.037],[134.9695,-1.042],[134.97,-1.048],[134.9785,-1.0495]]]},"properties":{"code":"91.06.16.2003","name":"Dafi","latitude":-1.0303236372909603,"longitude":134.9749350042284}},{"type":"Feature","geometry":{"type":"Polygon","coordinates":[[[134.9345,-1.0735],[134.926,-1.075],[134.9195,-1.0655],[134.915,-1.0685],[134.907,-1.071],[134.9,-1.0745],[134.9,-1.0955],[134.9165,-1.097],[134.9185,-1.088],[134.9455,-1.079],[134.9425,-1.0715],[134.9345,-1.0735]]]},"properties":{"code":"91.06.16.2004","name":"Amberparem","latitude":-1.081268260483956,"longitude":134.9169480246759}},{"type":"Feature","geometry":{"type":"Polygon","coordinates":[[[134.9785,-1.0495],[134.97,-1.048],[134.97,-1.0495],[134.9705,-1.0525],[134.972,-1.06],[134.966,-1.0615],[134.945,-1.0625],[134.943,-1.0715],[134.9525,-1.072],[134.9695,-1.065],[134.981,-1.0655],[134.9785,-1.0495]]]},"properties":{"code":"91.06.16.2005","name":"Mandori","latitude":-1.0629533601691272,"longitude":134.9626411513193}},{"type":"Feature","geometry":{"type":"Polygon","coordinates":[[[134.9725,-1.065],[134.9695,-1.065],[134.9525,-1.072],[134.9425,-1.0715],[134.9455,-1.079],[134.9185,-1.088],[134.9165,-1.097],[134.94,-1.099],[134.947,-1.091],[134.961,-1.0835],[134.9725,-1.065]]]},"properties":{"code":"91.06.16.2006","name":"Duai","latitude":-1.0842535375291704,"longitude":134.94381790731708}},{"type":"Feature","geometry":{"type":"Polygon","coordinates":[[[134.972,-1.06],[134.9705,-1.0525],[134.97,-1.0495],[134.97,-1.048],[134.962,-1.047],[134.9385,-1.0645],[134.9345,-1.0735],[134.9425,-1.0715],[134.943,-1.0715],[134.945,-1.0625],[134.966,-1.0615],[134.972,-1.06]]]},"properties":{"code":"91.06.16.2007","name":"Mandori Sup","latitude":-1.05762166711175,"longitude":134.95699580517478}},{"type":"Feature","geometry":{"type":"Polygon","coordinates":[[[134.9135,-1.069],[134.9125,-1.0665],[134.909,-1.0625],[134.907,-1.058],[134.9075,-1.0445],[134.913,-1.025],[134.9135,-1.023],[134.9185,-1.0165],[134.8955,-1.0285],[134.8995,-1.0375],[134.9,-1.059],[134.9,-1.0745],[134.907,-1.071],[134.9135,-1.069]]]},"properties":{"code":"91.06.16.2008","name":"Kamumi","latitude":-1.0445482907077963,"longitude":134.90545192586515}},{"type":"Feature","geometry":{"type":"Polygon","coordinates":[[[134.97,-1.048],[134.9695,-1.042],[134.9665,-1.037],[134.9655,-1.0345],[134.9645,-1.0285],[134.9645,-1.028],[134.965,-1.026],[134.969,-1.015],[134.957,-1.021],[134.952,-1.0335],[134.962,-1.047],[134.97,-1.048]]]},"properties":{"code":"91.06.16.2009","name":"Arimi Jaya","latitude":-1.0317436527641273,"longitude":134.96203853872234}},{"type":"Feature","geometry":{"type":"Polygon","coordinates":[[[134.965,-1.101],[134.9445,-1.094],[134.94,-1.099],[134.9565,-1.107],[134.962,-1.1095],[134.965,-1.101]]]},"properties":{"code":"91.06.16.2010","name":"Warbukor","latitude":-1.1011558294392094,"longitude":134.9532031759147}},{"type":"Feature","geometry":{"type":"Polygon","coordinates":[[[134.867,-1.132],[134.876,-1.1205],[134.8675,-1.1105],[134.855,-1.119],[134.8535,-1.1325],[134.867,-1.132]]]},"properties":{"code":"91.06.17.2001","name":"Yenbeba","latitude":-1.1231558722442796,"longitude":134.86367288823388}},{"type":"Feature","geometry":{"type":"Polygon","coordinates":[[[134.8835,-1.093],[134.874,-1.0915],[134.85,-1.113],[134.855,-1.119],[134.8675,-1.1105],[134.8835,-1.093]]]},"properties":{"code":"91.06.17.2002","name":"Yenbepon","latitude":-1.1047602819921623,"longitude":134.86622701763926}},{"type":"Feature","geometry":{"type":"Polygon","coordinates":[[[134.891,-1.0945],[134.8835,-1.093],[134.8675,-1.1105],[134.876,-1.1205],[134.867,-1.132],[134.8805,-1.1355],[134.887,-1.121],[134.891,-1.0945]]]},"properties":{"code":"91.06.17.2003","name":"Saribi","latitude":-1.113922652687097,"longitude":134.87994869395297}},{"type":"Feature","geometry":{"type":"Polygon","coordinates":[[[134.848,-1.0875],[134.842,-1.0875],[134.8355,-1.103],[134.85,-1.113],[134.874,-1.0915],[134.853,-1.0885],[134.848,-1.0875]]]},"properties":{"code":"91.06.17.2004","name":"Sub Mander","latitude":-1.0987743108532515,"longitude":134.85174830394297}},{"type":"Feature","geometry":{"type":"Polygon","coordinates":[[[134.9,-1.1385],[134.9245,-1.128],[134.922,-1.0975],[134.9,-1.0955],[134.901,-1.132],[134.9,-1.1385]]]},"properties":{"code":"91.06.17.2005","name":"Rawar","latitude":-1.116015170585647,"longitude":134.91154960945136}},{"type":"Feature","geometry":{"type":"Polygon","coordinates":[[[134.9005,-1.1375],[134.8825,-1.1315],[134.8805,-1.1355],[134.8855,-1.1405],[134.9,-1.1385],[134.9005,-1.1375]]]},"properties":{"code":"91.06.17.2006","name":"Pakreki","latitude":-1.1373351002985645,"longitude":134.88761770106294}},{"type":"Feature","geometry":{"type":"Polygon","coordinates":[[[134.94,-1.099],[134.922,-1.0975],[134.9245,-1.128],[134.942,-1.1285],[134.934,-1.1145],[134.9435,-1.1005],[134.94,-1.099]]]},"properties":{"code":"91.06.17.2007","name":"Masyarah","latitude":-1.1135593975398237,"longitude":134.9306246679228}},{"type":"Feature","geometry":{"type":"Polygon","coordinates":[[[134.942,-1.1285],[134.9505,-1.128],[134.955,-1.1145],[134.962,-1.1095],[134.9565,-1.107],[134.9435,-1.1005],[134.934,-1.1145],[134.942,-1.1285]]]},"properties":{"code":"91.06.17.2008","name":"Wansra","latitude":-1.1150389652635293,"longitude":134.94589211153274}},{"type":"Feature","geometry":{"type":"Polygon","coordinates":[[[134.9,-1.0955],[134.891,-1.0945],[134.887,-1.121],[134.8825,-1.1315],[134.9005,-1.1375],[134.901,-1.132],[134.9,-1.0955]]]},"properties":{"code":"91.06.17.2009","name":"Manwor Indah","latitude":-1.1183678860809585,"longitude":134.89390625982543}},{"type":"Feature","geometry":{"type":"Polygon","coordinates":[[[134.918,-0.952],[134.9,-0.941],[134.8985,-0.9455],[134.9015,-0.9465],[134.903,-0.9475],[134.904,-0.947],[134.9075,-0.9475],[134.908,-0.951],[134.91,-0.959],[134.9105,-0.9595],[134.918,-0.952]]]},"properties":{"code":"91.06.18.2001","name":"Andei","latitude":-0.9501415204355026,"longitude":134.90897816984005}},{"type":"Feature","geometry":{"type":"Polygon","coordinates":[[[134.946,-0.9945],[134.947,-0.986],[134.944,-0.977],[134.9445,-0.9725],[134.9415,-0.968],[134.941,-0.9685],[134.9425,-0.97],[134.9335,-0.978],[134.934,-0.9795],[134.937,-0.9875],[134.9385,-0.993],[134.9385,-0.995],[134.946,-0.9945]]]},"properties":{"code":"91.06.18.2002","name":"Syoribo","latitude":-0.9831174264905066,"longitude":134.94106532901452}},{"type":"Feature","geometry":{"type":"Polygon","coordinates":[[[134.9415,-0.968],[134.9315,-0.96],[134.9175,-0.978],[134.8875,-1.0105],[134.89,-1.0165],[134.9355,-0.973],[134.9415,-0.968]]]},"properties":{"code":"91.06.18.2003","name":"Sauribru","latitude":-0.9860241249197103,"longitude":134.915678216046}},{"type":"Feature","geometry":{"type":"Polygon","coordinates":[[[134.9315,-0.96],[134.918,-0.952],[134.9105,-0.9595],[134.911,-0.96],[134.9105,-0.962],[134.9115,-0.9635],[134.9145,-0.9655],[134.9195,-0.967],[134.924,-0.967],[134.9265,-0.9665],[134.9315,-0.96]]]},"properties":{"code":"91.06.18.2004","name":"Manggari","latitude":-0.9599731976706223,"longitude":134.92070537148732}},{"type":"Feature","geometry":{"type":"Polygon","coordinates":[[[134.9395,-1.009],[134.946,-0.9945],[134.9385,-0.995],[134.9355,-1.0035],[134.931,-1.006],[134.9185,-1.0165],[134.9395,-1.009]]]},"properties":{"code":"91.06.18.2005","name":"Bawei","latitude":-1.0052875477265855,"longitude":134.93531415164148}},{"type":"Feature","geometry":{"type":"Polygon","coordinates":[[[134.9385,-0.995],[134.9225,-0.9965],[134.9185,-0.9895],[134.89,-1.0165],[134.8955,-1.0285],[134.9185,-1.0165],[134.931,-1.006],[134.9355,-1.0035],[134.9385,-0.995]]]},"properties":{"code":"91.06.18.2006","name":"Sauri","latitude":-1.0086815364544097,"longitude":134.9123487116949}},{"type":"Feature","geometry":{"type":"Polygon","coordinates":[[[134.9105,-0.9595],[134.91,-0.959],[134.908,-0.951],[134.9075,-0.9475],[134.904,-0.947],[134.903,-0.9475],[134.9015,-0.9465],[134.8985,-0.9455],[134.895,-0.9545],[134.881,-0.997],[134.884,-1.0025],[134.9105,-0.9595]]]},"properties":{"code":"91.06.18.2007","name":"Andei Sup","latitude":-0.9701335039187253,"longitude":134.89611372130727}},{"type":"Feature","geometry":{"type":"Polygon","coordinates":[[[134.9265,-0.9665],[134.924,-0.967],[134.9195,-0.967],[134.9145,-0.9655],[134.9115,-0.9635],[134.9105,-0.962],[134.911,-0.96],[134.9105,-0.9595],[134.884,-1.0025],[134.8875,-1.0105],[134.9175,-0.978],[134.9265,-0.9665]]]},"properties":{"code":"91.06.18.2008","name":"Surdori","latitude":-0.9835641187038211,"longitude":134.90357575264684}},{"type":"Feature","geometry":{"type":"Polygon","coordinates":[[[134.9385,-0.995],[134.9385,-0.993],[134.937,-0.9875],[134.934,-0.9795],[134.9335,-0.978],[134.9425,-0.97],[134.941,-0.9685],[134.9355,-0.973],[134.9185,-0.9895],[134.9225,-0.9965],[134.9385,-0.995]]]},"properties":{"code":"91.06.18.2009","name":"Koryakam","latitude":-0.9873311448028864,"longitude":134.92993149339682}},{"type":"Feature","geometry":{"type":"MultiPolygon","coordinates":[[[[136.605,-1.3235],[136.606,-1.322],[136.6065,-1.321],[136.6065,-1.3195],[136.6065,-1.318],[136.6065,-1.3195],[136.6055,-1.3225],[136.6045,-1.3235],[136.604,-1.323],[136.604,-1.3235],[136.605,-1.3235]]],[[[136.6065,-1.3035],[136.603,-1.2975],[136.608,-1.2735],[136.597,-1.271],[136.5905,-1.283],[136.6005,-1.2955],[136.6025,-1.304],[136.6065,-1.3035]]]]},"properties":{"code":"91.06.19.2001","name":"Mios Mangguandi","latitude":-1.280476029030953,"longitude":136.6244383250227}},{"type":"Feature","geometry":{"type":"Polygon","coordinates":[[[136.6065,-1.3035],[136.6025,-1.304],[136.604,-1.323],[136.6045,-1.3235],[136.6055,-1.3225],[136.6065,-1.3195],[136.6065,-1.318],[136.6065,-1.3195],[136.606,-1.3215],[136.605,-1.3235],[136.6055,-1.323],[136.607,-1.319],[136.6065,-1.3035]]]},"properties":{"code":"91.06.19.2002","name":"Supraima","latitude":-1.318276628039901,"longitude":136.60875716384717}},{"type":"Feature","geometry":{"type":"Polygon","coordinates":[[[136.5945,-1.2425],[136.6045,-1.255],[136.6155,-1.25],[136.6175,-1.241],[136.5945,-1.2425]]]},"properties":{"code":"91.06.19.2003","name":"Samber Pasi","latitude":-1.2471790931447546,"longitude":136.60631827825412}},{"type":"Feature","geometry":{"type":"Polygon","coordinates":[[[136.616,-1.2355],[136.6025,-1.229],[136.595,-1.2375],[136.616,-1.2355]]]},"properties":{"code":"91.06.19.2004","name":"Pasi","latitude":-1.2333369535245622,"longitude":136.60563579521622}},{"type":"Feature","geometry":{"type":"Polygon","coordinates":[[[136.6075,-1.2245],[136.603,-1.203],[136.593,-1.2035],[136.5945,-1.207],[136.597,-1.2205],[136.5895,-1.2245],[136.59,-1.2265],[136.5905,-1.2275],[136.596,-1.228],[136.5925,-1.2275],[136.5955,-1.228],[136.5995,-1.2275],[136.6075,-1.2245]]]},"properties":{"code":"91.06.19.2005","name":"Mbromsi","latitude":-1.2161926130976497,"longitude":136.59951269175963}},{"type":"Feature","geometry":{"type":"Polygon","coordinates":[[[136.5875,-1.191],[136.576,-1.1995],[136.5845,-1.206],[136.5895,-1.2245],[136.597,-1.2205],[136.5945,-1.207],[136.5875,-1.191]]]},"properties":{"code":"91.06.19.2006","name":"Karabai","latitude":-1.207404913114394,"longitude":136.5880114177807}},{"type":"Feature","geometry":{"type":"MultiPolygon","coordinates":[[[[136.5245,-1.228],[136.501,-1.2295],[136.501,-1.2395],[136.5185,-1.243],[136.5335,-1.2415],[136.535,-1.233],[136.5245,-1.228]]],[[[136.593,-1.2035],[136.6105,-1.2025],[136.6105,-1.2015],[136.6085,-1.1975],[136.6045,-1.1935],[136.5975,-1.1895],[136.5875,-1.191],[136.593,-1.2035]]]]},"properties":{"code":"91.06.19.2007","name":"Saribra","latitude":-1.2224196430999277,"longitude":136.54527566270812}},{"type":"Feature","geometry":{"type":"Polygon","coordinates":[[[136.6075,-1.2245],[136.6145,-1.216],[136.6135,-1.2095],[136.6105,-1.2025],[136.603,-1.203],[136.6075,-1.2245]]]},"properties":{"code":"91.06.19.2008","name":"Nyansoren","latitude":-1.2152930117316558,"longitude":136.64916389195415}},{"type":"Feature","geometry":{"type":"Polygon","coordinates":[[[136.6105,-1.145],[136.602,-1.143],[136.5995,-1.1495],[136.607,-1.1525],[136.6105,-1.145]]]},"properties":{"code":"91.06.19.2009","name":"Sasari","latitude":-1.147394049046784,"longitude":136.6047865936493}},{"type":"Feature","geometry":{"type":"Polygon","coordinates":[[[136.5985,-1.161],[136.6005,-1.173],[136.611,-1.1675],[136.5985,-1.161]]]},"properties":{"code":"91.06.19.2010","name":"Padaido","latitude":-1.1674824579472216,"longitude":136.60173208475805}},{"type":"Feature","geometry":{"type":"Polygon","coordinates":[[[136.611,-1.1675],[136.6205,-1.1535],[136.6135,-1.1395],[136.607,-1.1525],[136.5995,-1.1495],[136.598,-1.161],[136.5985,-1.161],[136.611,-1.1675]]]},"properties":{"code":"91.06.19.2011","name":"Yeri","latitude":-1.1545827241269278,"longitude":136.6101504344908}},{"type":"Feature","geometry":{"type":"Polygon","coordinates":[[[136.6135,-1.1395],[136.602,-1.143],[136.6105,-1.145],[136.6135,-1.1395]]]},"properties":{"code":"91.06.19.2012","name":"Anobo","latitude":-1.1399387792766296,"longitude":136.60677416620453}},{"type":"Feature","geometry":{"type":"Polygon","coordinates":[[[136.616,-1.2355],[136.595,-1.2375],[136.5945,-1.2425],[136.6175,-1.241],[136.616,-1.2355]]]},"properties":{"code":"91.06.19.2013","name":"Yen Manaina","latitude":-1.239143341101245,"longitude":136.6057209254928}},{"type":"Feature","geometry":{"type":"Polygon","coordinates":[[[136.271,-1.159],[136.267,-1.1525],[136.2655,-1.153],[136.256,-1.156],[136.256,-1.157],[136.2575,-1.1565],[136.2595,-1.157],[136.263,-1.1555],[136.2665,-1.16],[136.271,-1.159]]]},"properties":{"code":"91.06.20.2001","name":"Opiaref","latitude":-1.156516283975742,"longitude":136.26601536730755}},{"type":"Feature","geometry":{"type":"Polygon","coordinates":[[[136.2665,-1.153],[136.2495,-1.109],[136.2425,-1.1115],[136.2525,-1.133],[136.255,-1.1495],[136.256,-1.156],[136.2655,-1.153],[136.2665,-1.153]]]},"properties":{"code":"91.06.20.2002","name":"Bakribo","latitude":-1.133966868146315,"longitude":136.254711095678}},{"type":"Feature","geometry":{"type":"Polygon","coordinates":[[[136.279,-1.152],[136.2895,-1.148],[136.2675,-1.101],[136.2575,-1.1055],[136.274,-1.148],[136.279,-1.152]]]},"properties":{"code":"91.06.20.2003","name":"Sawa","latitude":-1.1278307064789428,"longitude":136.27309567530747}},{"type":"Feature","geometry":{"type":"Polygon","coordinates":[[[136.279,-1.152],[136.274,-1.148],[136.2575,-1.1055],[136.2495,-1.109],[136.2665,-1.153],[136.267,-1.1525],[136.271,-1.159],[136.279,-1.152]]]},"properties":{"code":"91.06.20.2004","name":"Marauw","latitude":-1.133183637388295,"longitude":136.26365048175495}},{"type":"Feature","geometry":{"type":"Polygon","coordinates":[[[136.3085,-1.142],[136.304,-1.1265],[136.2935,-1.117],[136.2905,-1.1125],[136.282,-1.094],[136.2675,-1.101],[136.2895,-1.148],[136.3085,-1.142]]]},"properties":{"code":"91.06.20.2005","name":"Wadibu","latitude":-1.1223099717770986,"longitude":136.287842613745}},{"type":"Feature","geometry":{"type":"Polygon","coordinates":[[[136.3185,-1.1375],[136.305,-1.107],[136.306,-1.101],[136.295,-1.0875],[136.282,-1.094],[136.2905,-1.1125],[136.2935,-1.117],[136.304,-1.1265],[136.3085,-1.142],[136.3185,-1.1375]]]},"properties":{"code":"91.06.20.2006","name":"Anggopi","latitude":-1.1126102052313978,"longitude":136.30049262790575}},{"type":"Feature","geometry":{"type":"Polygon","coordinates":[[[136.3255,-1.1335],[136.314,-1.1105],[136.312,-1.093],[136.306,-1.082],[136.295,-1.0875],[136.306,-1.101],[136.305,-1.107],[136.3185,-1.1375],[136.3255,-1.1335]]]},"properties":{"code":"91.06.20.2007","name":"Anggaduber","latitude":-1.1074205329855118,"longitude":136.31045899671105}},{"type":"Feature","geometry":{"type":"Polygon","coordinates":[[[136.3385,-1.1225],[136.313,-1.078],[136.306,-1.082],[136.312,-1.093],[136.314,-1.1105],[136.3255,-1.1335],[136.3385,-1.1225]]]},"properties":{"code":"91.06.20.2008","name":"Animi","latitude":-1.1076802750315191,"longitude":136.32179171906446}},{"type":"Feature","geometry":{"type":"Polygon","coordinates":[[[136.3335,-1.075],[136.3225,-1.073],[136.313,-1.078],[136.3385,-1.1225],[136.3545,-1.1105],[136.3335,-1.075]]]},"properties":{"code":"91.06.20.2009","name":"Kakur","latitude":-1.0960567527803122,"longitude":136.33389987159384}},{"type":"Feature","geometry":{"type":"Polygon","coordinates":[[[136.3545,-1.1105],[136.3585,-1.0975],[136.3695,-1.0895],[136.3795,-1.09],[136.3865,-1.074],[136.3765,-1.0695],[136.3645,-1.081],[136.348,-1.083],[136.341,-1.088],[136.3545,-1.1105]]]},"properties":{"code":"91.06.20.2010","name":"Tanjung Barari","latitude":-1.086914960937166,"longitude":136.36437140287543}},{"type":"Feature","geometry":{"type":"Polygon","coordinates":[[[136.3765,-1.0695],[136.3595,-1.0635],[136.345,-1.066],[136.3335,-1.075],[136.341,-1.088],[136.348,-1.083],[136.3645,-1.081],[136.3765,-1.0695]]]},"properties":{"code":"91.06.20.2011","name":"Sawadori","latitude":-1.0742815185152834,"longitude":136.3541573691945}},{"type":"Feature","geometry":{"type":"Polygon","coordinates":[[[136.3225,-1.073],[136.314,-1.063],[136.2955,-1.0545],[136.2915,-1.032],[136.2755,-1.0215],[136.2545,-1.018],[136.2365,-1.0295],[136.2195,-1.0295],[136.234,-1.08],[136.238,-1.0925],[136.2425,-1.1115],[136.2575,-1.1055],[136.2675,-1.101],[136.295,-1.0875],[136.3225,-1.073]]]},"properties":{"code":"91.06.20.2012","name":"Sauri","latitude":-1.0620228660217077,"longitude":136.26441718029332}},{"type":"Feature","geometry":{"type":"Polygon","coordinates":[[[136.2195,-1.0295],[136.208,-1.0315],[136.1945,-1.0425],[136.2095,-1.062],[136.209,-1.0775],[136.2185,-1.0885],[136.235,-1.0825],[136.234,-1.08],[136.2195,-1.0295]]]},"properties":{"code":"91.06.20.2013","name":"Makmakerbo","latitude":-1.0588145828770712,"longitude":136.21612973811852}},{"type":"Feature","geometry":{"type":"Polygon","coordinates":[[[136.2665,-1.16],[136.263,-1.1555],[136.2595,-1.157],[136.257,-1.1565],[136.256,-1.157],[136.2585,-1.1625],[136.2665,-1.16]]]},"properties":{"code":"91.06.20.2014","name":"Yensama","latitude":-1.1587249565242257,"longitude":136.261235256668}},{"type":"Feature","geometry":{"type":"Polygon","coordinates":[[[135.872,-0.7155],[135.8625,-0.705],[135.8115,-0.6855],[135.802,-0.6885],[135.797,-0.6995],[135.8635,-0.7255],[135.872,-0.7155]]]},"properties":{"code":"91.06.21.2001","name":"Wopes","latitude":-0.7045280435979311,"longitude":135.83494566162364}},{"type":"Feature","geometry":{"type":"Polygon","coordinates":[[[135.8435,-0.766],[135.8035,-0.741],[135.788,-0.728],[135.7875,-0.7295],[135.783,-0.7345],[135.7815,-0.7345],[135.7915,-0.7505],[135.8255,-0.782],[135.8345,-0.775],[135.8435,-0.766]]]},"properties":{"code":"91.06.21.2002","name":"Wandos","latitude":-0.7570479956309794,"longitude":135.81235873935466}},{"type":"Feature","geometry":{"type":"Polygon","coordinates":[[[135.8505,-0.752],[135.811,-0.7305],[135.796,-0.721],[135.79,-0.7215],[135.7865,-0.721],[135.786,-0.7215],[135.788,-0.728],[135.8035,-0.741],[135.8435,-0.766],[135.8475,-0.762],[135.8505,-0.752]]]},"properties":{"code":"91.06.21.2003","name":"Doubo","latitude":-0.7430918090768389,"longitude":135.82019145160098}},{"type":"Feature","geometry":{"type":"Polygon","coordinates":[[[135.8585,-0.7385],[135.7885,-0.71],[135.7815,-0.722],[135.7915,-0.7145],[135.7945,-0.717],[135.7865,-0.721],[135.79,-0.7215],[135.796,-0.721],[135.811,-0.7305],[135.8505,-0.752],[135.8515,-0.7495],[135.8585,-0.7385]]]},"properties":{"code":"91.06.21.2004","name":"Syurdori","latitude":-0.7308709970786426,"longitude":135.82425425611436}},{"type":"Feature","geometry":{"type":"Polygon","coordinates":[[[135.8635,-0.7255],[135.797,-0.6995],[135.7885,-0.71],[135.8585,-0.7385],[135.861,-0.735],[135.863,-0.7265],[135.8635,-0.7255]]]},"properties":{"code":"91.06.21.2005","name":"Sansundi","latitude":-0.7185479556604162,"longitude":135.82720916621255}}]}