{"type":"FeatureCollection","features":[{"type":"Feature","geometry":{"type":"Polygon","coordinates":[[[138.754,-1.8865],[138.756,-1.885],[138.757,-1.8805],[138.751,-1.8695],[138.7065,-1.902],[138.71,-1.907],[138.7165,-1.915],[138.754,-1.8865]]]},"properties":{"code":"91.10.01.1001","name":"Mararena"}},{"type":"Feature","geometry":{"type":"Polygon","coordinates":[[[138.751,-1.8695],[138.7475,-1.8585],[138.7525,-1.8505],[138.7495,-1.8535],[138.7465,-1.857],[138.693,-1.882],[138.7065,-1.902],[138.751,-1.8695]]]},"properties":{"code":"91.10.01.1002","name":"Sarmi Kota"}},{"type":"Feature","geometry":{"type":"Polygon","coordinates":[[[138.7495,-1.8535],[138.75,-1.849],[138.748,-1.8525],[138.7495,-1.8535]]]},"properties":{"code":"91.10.01.2003","name":"Sarmo"}},{"type":"Feature","geometry":{"type":"Polygon","coordinates":[[[138.7475,-1.618],[138.739,-1.597],[138.7185,-1.582],[138.709,-1.597],[138.709,-1.605],[138.7175,-1.6175],[138.735,-1.6245],[138.7475,-1.618]]]},"properties":{"code":"91.10.01.2004","name":"Liki"}},{"type":"Feature","geometry":{"type":"Polygon","coordinates":[[[138.78,-1.905],[138.769,-1.893],[138.7245,-1.925],[138.725,-1.9255],[138.743,-1.94],[138.7695,-1.9205],[138.78,-1.905]]]},"properties":{"code":"91.10.01.2006","name":"Sawar"}},{"type":"Feature","geometry":{"type":"Polygon","coordinates":[[[138.786,-1.914],[138.78,-1.905],[138.7695,-1.9205],[138.786,-1.914]]]},"properties":{"code":"91.10.01.2007","name":"Bagaiserwar"}},{"type":"Feature","geometry":{"type":"Polygon","coordinates":[[[138.8005,-1.6635],[138.7895,-1.6755],[138.7995,-1.694],[138.805,-1.679],[138.8005,-1.6635]]]},"properties":{"code":"91.10.01.2014","name":"Armo"}},{"type":"Feature","geometry":{"type":"Polygon","coordinates":[[[138.7895,-1.9205],[138.786,-1.914],[138.7695,-1.9205],[138.743,-1.94],[138.745,-1.945],[138.7465,-1.949],[138.7465,-1.9505],[138.7475,-1.953],[138.774,-1.93],[138.7895,-1.9205]]]},"properties":{"code":"91.10.01.2018","name":"Bagaisewar II"}},{"type":"Feature","geometry":{"type":"Polygon","coordinates":[[[138.7475,-1.8325],[138.745,-1.8295],[138.7435,-1.833],[138.7475,-1.8325]]]},"properties":{"code":"91.10.01.2019","name":"Pulau Armo"}},{"type":"Feature","geometry":{"type":"Polygon","coordinates":[[[138.769,-1.893],[138.757,-1.8805],[138.756,-1.885],[138.754,-1.8865],[138.7165,-1.915],[138.7245,-1.925],[138.769,-1.893]]]},"properties":{"code":"91.10.01.2020","name":"Lembah Neidam"}},{"type":"Feature","geometry":{"type":"Polygon","coordinates":[[[138.748,-1.8525],[138.738,-1.8535],[138.7255,-1.8455],[138.7115,-1.857],[138.6935,-1.878],[138.693,-1.882],[138.7465,-1.857],[138.7495,-1.8535],[138.748,-1.8525]]]},"properties":{"code":"91.10.01.2021","name":"Tefarewar"}},{"type":"Feature","geometry":{"type":"Polygon","coordinates":[[[138.684,-2.2715],[138.6485,-2.278],[138.632,-2.2735],[138.612,-2.264],[138.589,-2.266],[138.5775,-2.272],[138.57,-2.265],[138.551,-2.27],[138.543,-2.263],[138.533,-2.3365],[138.476,-2.3755],[138.4695,-2.4115],[138.4605,-2.4245],[138.462,-2.4305],[138.462,-2.434],[138.447,-2.4425],[138.436,-2.459],[138.4215,-2.4615],[138.4185,-2.463],[138.419,-2.469],[138.4195,-2.473],[138.4195,-2.4735],[138.4195,-2.475],[138.4205,-2.49],[138.4365,-2.523],[138.448,-2.5315],[138.4535,-2.5275],[138.4935,-2.537],[138.5115,-2.534],[138.5215,-2.54],[138.5405,-2.539],[138.555,-2.531],[138.563,-2.521],[138.572,-2.521],[138.577,-2.522],[138.585,-2.5195],[138.5875,-2.516],[138.5885,-2.5025],[138.591,-2.499],[138.591,-2.495],[138.593,-2.4895],[138.594,-2.489],[138.5965,-2.487],[138.599,-2.4855],[138.602,-2.4855],[138.6085,-2.481],[138.6105,-2.4805],[138.624,-2.4785],[138.6265,-2.48],[138.631,-2.486],[138.6325,-2.489],[138.6345,-2.5005],[138.66,-2.5125],[138.666,-2.5085],[138.6675,-2.5095],[138.67,-2.51],[138.6735,-2.511],[138.676,-2.5125],[138.685,-2.519],[138.6895,-2.5195],[138.692,-2.5185],[138.693,-2.516],[138.6935,-2.516],[138.697,-2.5115],[138.692,-2.4945],[138.7035,-2.463],[138.705,-2.4425],[138.7125,-2.4035],[138.718,-2.401],[138.723,-2.3855],[138.7205,-2.3595],[138.7375,-2.355],[138.744,-2.342],[138.725,-2.329],[138.7075,-2.3015],[138.706,-2.293],[138.696,-2.2845],[138.6955,-2.28],[138.6945,-2.273],[138.694,-2.2735],[138.6905,-2.272],[138.6885,-2.272],[138.6885,-2.271],[138.684,-2.2715]]]},"properties":{"code":"91.10.02.2001","name":"Bota-Bora"}},{"type":"Feature","geometry":{"type":"Polygon","coordinates":[[[138.5925,-2.2145],[138.591,-2.2115],[138.5895,-2.2135],[138.5895,-2.214],[138.588,-2.213],[138.58,-2.232],[138.5595,-2.244],[138.55,-2.2585],[138.542,-2.2625],[138.5415,-2.263],[138.543,-2.263],[138.551,-2.27],[138.57,-2.265],[138.5775,-2.272],[138.589,-2.266],[138.612,-2.264],[138.632,-2.2735],[138.6485,-2.278],[138.684,-2.2715],[138.6885,-2.271],[138.6885,-2.272],[138.6905,-2.272],[138.694,-2.2735],[138.6965,-2.273],[138.6985,-2.2745],[138.7,-2.275],[138.7005,-2.277],[138.7025,-2.277],[138.7095,-2.275],[138.71,-2.2755],[138.727,-2.278],[138.7285,-2.2785],[138.75,-2.2865],[138.792,-2.285],[138.797,-2.2895],[138.828,-2.2895],[138.8345,-2.2995],[138.8635,-2.2925],[138.8925,-2.302],[138.9085,-2.3045],[138.921,-2.315],[138.922,-2.315],[138.9245,-2.314],[138.9385,-2.313],[138.94,-2.3045],[138.942,-2.303],[138.947,-2.3015],[138.9495,-2.302],[138.956,-2.3075],[138.968,-2.306],[138.9805,-2.309],[138.9825,-2.31],[138.9855,-2.312],[138.9875,-2.313],[138.991,-2.3125],[138.9895,-2.31],[138.9935,-2.2995],[138.9925,-2.2815],[138.9865,-2.269],[138.986,-2.266],[138.985,-2.264],[138.9845,-2.2615],[138.978,-2.2585],[138.977,-2.2565],[138.9785,-2.253],[138.9795,-2.252],[138.9755,-2.2535],[138.967,-2.251],[138.958,-2.245],[138.9375,-2.2445],[138.9145,-2.2375],[138.9075,-2.2405],[138.902,-2.239],[138.8915,-2.234],[138.8795,-2.2355],[138.861,-2.241],[138.854,-2.2375],[138.8525,-2.239],[138.8475,-2.2375],[138.8445,-2.238],[138.8305,-2.2405],[138.822,-2.2475],[138.803,-2.2465],[138.785,-2.235],[138.7695,-2.2305],[138.754,-2.239],[138.7345,-2.236],[138.726,-2.2425],[138.6955,-2.237],[138.6905,-2.2435],[138.6795,-2.237],[138.673,-2.2415],[138.6515,-2.2395],[138.644,-2.228],[138.6285,-2.2215],[138.622,-2.2265],[138.599,-2.2185],[138.597,-2.22],[138.5945,-2.216],[138.5925,-2.2145]]]},"properties":{"code":"91.10.02.2002","name":"Toganto"}},{"type":"Feature","geometry":{"type":"Polygon","coordinates":[[[138.867,-2.1875],[138.8645,-2.1865],[138.857,-2.189],[138.848,-2.187],[138.8465,-2.1845],[138.8455,-2.1845],[138.833,-2.186],[138.829,-2.1895],[138.824,-2.207],[138.828,-2.2255],[138.823,-2.2335],[138.822,-2.2475],[138.8305,-2.2405],[138.8445,-2.238],[138.8475,-2.2375],[138.8525,-2.239],[138.854,-2.2375],[138.8625,-2.2275],[138.8735,-2.2275],[138.874,-2.226],[138.8725,-2.223],[138.8695,-2.223],[138.8585,-2.2155],[138.867,-2.1875]]]},"properties":{"code":"91.10.02.2003","name":"Samanente"}},{"type":"Feature","geometry":{"type":"Polygon","coordinates":[[[138.9525,-2.1265],[138.9325,-2.125],[138.909,-2.1175],[138.8885,-2.1265],[138.87,-2.1265],[138.867,-2.126],[138.863,-2.123],[138.8475,-2.1285],[138.843,-2.13],[138.8445,-2.1385],[138.8445,-2.1405],[138.8455,-2.1435],[138.847,-2.1495],[138.844,-2.1565],[138.8655,-2.161],[138.9125,-2.1605],[138.9355,-2.163],[138.9355,-2.158],[138.9385,-2.151],[138.958,-2.138],[138.9625,-2.1345],[138.9645,-2.132],[138.9675,-2.13],[138.969,-2.1285],[138.96,-2.127],[138.9525,-2.1265]]]},"properties":{"code":"91.10.02.2004","name":"Kanderjan"}},{"type":"Feature","geometry":{"type":"Polygon","coordinates":[[[138.9645,-2.0565],[138.9645,-2.056],[138.9635,-2.055],[138.9635,-2.0525],[138.9595,-2.0295],[138.9525,-2.026],[138.936,-2.0325],[138.9225,-2.0205],[138.9275,-2.008],[138.9235,-2.0095],[138.9215,-2.009],[138.921,-2.0085],[138.9215,-2.0045],[138.898,-2.01],[138.891,-2.011],[138.8645,-2.013],[138.86,-2.021],[138.8435,-2.0295],[138.833,-2.0605],[138.831,-2.0785],[138.8255,-2.0905],[138.8195,-2.116],[138.808,-2.128],[138.807,-2.1295],[138.807,-2.131],[138.806,-2.1325],[138.8055,-2.1335],[138.805,-2.134],[138.8115,-2.1345],[138.8415,-2.1305],[138.8425,-2.13],[138.845,-2.1295],[138.8475,-2.1285],[138.863,-2.123],[138.867,-2.126],[138.87,-2.1265],[138.8885,-2.1265],[138.909,-2.1175],[138.9325,-2.125],[138.9525,-2.1265],[138.955,-2.119],[138.9525,-2.1],[138.953,-2.0995],[138.9545,-2.097],[138.956,-2.081],[138.9625,-2.073],[138.9635,-2.072],[138.962,-2.0675],[138.961,-2.066],[138.9645,-2.0565]]]},"properties":{"code":"91.10.02.2005","name":"Omte"}},{"type":"Feature","geometry":{"type":"Polygon","coordinates":[[[138.9425,-2.205],[138.94,-2.205],[138.938,-2.2045],[138.9335,-2.2065],[138.9325,-2.2065],[138.9315,-2.2045],[138.902,-2.204],[138.896,-2.202],[138.889,-2.197],[138.889,-2.1955],[138.8895,-2.1935],[138.8905,-2.1925],[138.8905,-2.1895],[138.873,-2.187],[138.869,-2.188],[138.867,-2.1875],[138.8585,-2.2155],[138.8695,-2.223],[138.8725,-2.223],[138.874,-2.226],[138.8735,-2.2275],[138.8625,-2.2275],[138.854,-2.2375],[138.861,-2.241],[138.8795,-2.2355],[138.8915,-2.234],[138.902,-2.239],[138.9075,-2.2405],[138.9145,-2.2375],[138.9375,-2.2445],[138.958,-2.245],[138.967,-2.251],[138.9755,-2.2535],[138.9795,-2.252],[138.98,-2.251],[138.9795,-2.25],[138.977,-2.248],[138.973,-2.242],[138.972,-2.24],[138.972,-2.2395],[138.9715,-2.2395],[138.971,-2.2395],[138.9675,-2.238],[138.9655,-2.2355],[138.964,-2.233],[138.963,-2.234],[138.963,-2.22],[138.964,-2.2175],[138.9615,-2.215],[138.9555,-2.215],[138.9545,-2.2145],[138.953,-2.2125],[138.952,-2.2105],[138.952,-2.21],[138.9505,-2.206],[138.9515,-2.2045],[138.953,-2.206],[138.953,-2.204],[138.951,-2.2025],[138.9445,-2.2045],[138.9425,-2.205]]]},"properties":{"code":"91.10.02.2006","name":"Safrom Tane"}},{"type":"Feature","geometry":{"type":"Polygon","coordinates":[[[138.9355,-2.163],[138.9125,-2.1605],[138.8655,-2.161],[138.844,-2.1565],[138.8415,-2.1665],[138.8385,-2.1765],[138.833,-2.186],[138.8455,-2.1845],[138.8465,-2.1845],[138.848,-2.187],[138.857,-2.189],[138.8645,-2.1865],[138.869,-2.188],[138.873,-2.187],[138.8905,-2.1895],[138.8905,-2.1925],[138.8895,-2.1935],[138.889,-2.1955],[138.889,-2.197],[138.896,-2.202],[138.902,-2.204],[138.9315,-2.2045],[138.9325,-2.2065],[138.9335,-2.2065],[138.938,-2.2045],[138.94,-2.205],[138.9425,-2.205],[138.9355,-2.168],[138.9355,-2.163]]]},"properties":{"code":"91.10.02.2007","name":"Denender"}},{"type":"Feature","geometry":{"type":"Polygon","coordinates":[[[138.844,-2.1565],[138.847,-2.1495],[138.8455,-2.1435],[138.8445,-2.1405],[138.8445,-2.1385],[138.843,-2.13],[138.8415,-2.1305],[138.8115,-2.1345],[138.803,-2.134],[138.7985,-2.1355],[138.762,-2.1335],[138.737,-2.1335],[138.7315,-2.1415],[138.7215,-2.138],[138.708,-2.1405],[138.688,-2.151],[138.66,-2.137],[138.659,-2.138],[138.6205,-2.165],[138.6215,-2.183],[138.608,-2.1915],[138.6005,-2.2095],[138.5925,-2.2145],[138.5945,-2.216],[138.597,-2.22],[138.599,-2.2185],[138.622,-2.2265],[138.6285,-2.2215],[138.644,-2.228],[138.6515,-2.2395],[138.673,-2.2415],[138.6795,-2.237],[138.6905,-2.2435],[138.6955,-2.237],[138.726,-2.2425],[138.7345,-2.236],[138.754,-2.239],[138.7695,-2.2305],[138.785,-2.235],[138.803,-2.2465],[138.822,-2.2475],[138.823,-2.2335],[138.828,-2.2255],[138.824,-2.207],[138.829,-2.1895],[138.8385,-2.1765],[138.8415,-2.1665],[138.844,-2.1565]]]},"properties":{"code":"91.10.02.2009","name":"Safron Tane"}},{"type":"Feature","geometry":{"type":"Polygon","coordinates":[[[138.9765,-2.13],[138.969,-2.1285],[138.9675,-2.13],[138.9645,-2.132],[138.9625,-2.1345],[138.958,-2.138],[138.9385,-2.151],[138.9355,-2.158],[138.9355,-2.168],[138.9425,-2.205],[138.9445,-2.2045],[138.951,-2.2025],[138.953,-2.204],[138.9535,-2.2035],[138.9645,-2.2075],[138.9765,-2.2],[138.9755,-2.1915],[139.0035,-2.1805],[139.0165,-2.1775],[139.018,-2.176],[139.034,-2.1525],[139.0315,-2.145],[139.032,-2.1445],[139.0335,-2.143],[139.0355,-2.1425],[139.0355,-2.141],[139.037,-2.1395],[139.0385,-2.14],[139.0385,-2.139],[139.0355,-2.1385],[139.036,-2.138],[139.0365,-2.1375],[139.0365,-2.138],[139.039,-2.137],[139.039,-2.136],[139.0385,-2.134],[139.037,-2.1345],[139.0185,-2.1365],[138.9765,-2.13]]]},"properties":{"code":"91.10.02.2010","name":"Denander"}},{"type":"Feature","geometry":{"type":"Polygon","coordinates":[[[138.7,-2.275],[138.6985,-2.2745],[138.6965,-2.273],[138.6945,-2.273],[138.6955,-2.28],[138.696,-2.2845],[138.706,-2.293],[138.7075,-2.3015],[138.725,-2.329],[138.744,-2.342],[138.7375,-2.355],[138.7205,-2.3595],[138.723,-2.3855],[138.718,-2.401],[138.7125,-2.4035],[138.705,-2.4425],[138.7035,-2.463],[138.692,-2.4945],[138.697,-2.5115],[138.6935,-2.516],[138.7005,-2.524],[138.7175,-2.532],[138.7325,-2.5305],[138.749,-2.525],[138.769,-2.529],[138.7745,-2.5225],[138.788,-2.5205],[138.794,-2.5285],[138.805,-2.5295],[138.815,-2.537],[138.836,-2.544],[138.839,-2.5455],[138.862,-2.543],[138.9015,-2.5625],[138.905,-2.576],[138.913,-2.575],[138.9085,-2.5655],[138.9105,-2.5315],[138.9185,-2.5155],[138.9155,-2.4935],[138.917,-2.4775],[138.9165,-2.4755],[138.9135,-2.4725],[138.9145,-2.4675],[138.92,-2.4575],[138.9225,-2.4495],[138.9455,-2.4255],[138.9535,-2.414],[138.9785,-2.39],[138.9885,-2.385],[138.995,-2.375],[139.0035,-2.3725],[139.0045,-2.3725],[139.004,-2.37],[139.004,-2.3675],[139.0015,-2.3665],[139,-2.3635],[138.993,-2.3425],[138.9855,-2.3265],[138.9865,-2.322],[138.992,-2.319],[138.9935,-2.318],[138.995,-2.316],[138.991,-2.3125],[138.9875,-2.313],[138.9855,-2.312],[138.9825,-2.31],[138.9805,-2.309],[138.968,-2.306],[138.956,-2.3075],[138.9495,-2.302],[138.947,-2.3015],[138.942,-2.303],[138.94,-2.3045],[138.9385,-2.313],[138.9245,-2.314],[138.922,-2.315],[138.921,-2.315],[138.9085,-2.3045],[138.8925,-2.302],[138.8635,-2.2925],[138.8345,-2.2995],[138.828,-2.2895],[138.797,-2.2895],[138.792,-2.285],[138.75,-2.2865],[138.7285,-2.2785],[138.727,-2.278],[138.71,-2.2755],[138.7095,-2.275],[138.7025,-2.277],[138.7005,-2.277],[138.7,-2.275]]]},"properties":{"code":"91.10.02.2011","name":"Waaf"}},{"type":"Feature","geometry":{"type":"Polygon","coordinates":[[[138.642,-1.784],[138.6175,-1.7775],[138.5805,-1.7705],[138.577,-1.78],[138.5875,-1.7965],[138.576,-1.81],[138.576,-1.842],[138.5685,-1.853],[138.567,-1.8655],[138.5805,-1.8695],[138.601,-1.887],[138.602,-1.887],[138.6035,-1.8885],[138.604,-1.89],[138.6045,-1.89],[138.6055,-1.887],[138.608,-1.888],[138.6075,-1.8845],[138.609,-1.8855],[138.615,-1.8885],[138.6175,-1.8895],[138.6165,-1.8875],[138.6165,-1.886],[138.618,-1.886],[138.6195,-1.8865],[138.62,-1.888],[138.621,-1.888],[138.62,-1.884],[138.621,-1.883],[138.63,-1.8645],[138.6425,-1.8],[138.642,-1.784]]]},"properties":{"code":"91.10.03.2005","name":"Mertewar"}},{"type":"Feature","geometry":{"type":"Polygon","coordinates":[[[138.3225,-1.7915],[138.3155,-1.7885],[138.3025,-1.7765],[138.289,-1.7775],[138.2845,-1.77],[138.27,-1.7685],[138.255,-1.7825],[138.245,-1.7815],[138.2415,-1.798],[138.241,-1.802],[138.242,-1.805],[138.242,-1.8085],[138.2475,-1.8145],[138.248,-1.8265],[138.2425,-1.8455],[138.218,-1.869],[138.2165,-1.8755],[138.215,-1.875],[138.213,-1.8745],[138.213,-1.875],[138.213,-1.877],[138.2145,-1.8775],[138.2175,-1.8785],[138.237,-1.884],[138.2475,-1.8945],[138.2465,-1.908],[138.251,-1.914],[138.2765,-1.922],[138.294,-1.9245],[138.2935,-1.9305],[138.294,-1.9315],[138.2955,-1.9335],[138.296,-1.934],[138.2975,-1.934],[138.2975,-1.9335],[138.299,-1.933],[138.3155,-1.9455],[138.3315,-1.954],[138.3585,-1.938],[138.3705,-1.918],[138.3785,-1.911],[138.3835,-1.8965],[138.386,-1.891],[138.401,-1.8615],[138.4005,-1.8565],[138.3975,-1.856],[138.3935,-1.843],[138.393,-1.842],[138.396,-1.8355],[138.392,-1.8215],[138.389,-1.8195],[138.3895,-1.8185],[138.39,-1.818],[138.3895,-1.8185],[138.388,-1.817],[138.3845,-1.8215],[138.3835,-1.8215],[138.364,-1.8045],[138.3565,-1.804],[138.334,-1.8035],[138.331,-1.803],[138.3225,-1.7915]]]},"properties":{"code":"91.10.03.2006","name":"Samorkena"}},{"type":"Feature","geometry":{"type":"Polygon","coordinates":[[[138.4925,-1.753],[138.4635,-1.7455],[138.459,-1.7605],[138.451,-1.8115],[138.4485,-1.8145],[138.4485,-1.8275],[138.448,-1.828],[138.4475,-1.83],[138.447,-1.8305],[138.4805,-1.8405],[138.4895,-1.8045],[138.4795,-1.7665],[138.4925,-1.753]]]},"properties":{"code":"91.10.03.2007","name":"Arbais"}},{"type":"Feature","geometry":{"type":"Polygon","coordinates":[[[138.242,-1.8085],[138.239,-1.8085],[138.2325,-1.794],[138.217,-1.784],[138.1835,-1.778],[138.1805,-1.7785],[138.1785,-1.7795],[138.167,-1.7815],[138.1645,-1.783],[138.165,-1.784],[138.1655,-1.7885],[138.165,-1.789],[138.1625,-1.789],[138.1565,-1.787],[138.1565,-1.791],[138.1585,-1.7945],[138.158,-1.798],[138.1605,-1.8015],[138.1585,-1.8075],[138.156,-1.8095],[138.141,-1.808],[138.1375,-1.82],[138.149,-1.827],[138.151,-1.8255],[138.151,-1.8225],[138.1535,-1.8205],[138.1535,-1.8235],[138.1545,-1.8285],[138.1595,-1.835],[138.159,-1.837],[138.1505,-1.8475],[138.1455,-1.85],[138.146,-1.852],[138.156,-1.857],[138.1565,-1.8595],[138.156,-1.8605],[138.154,-1.861],[138.149,-1.8575],[138.148,-1.8585],[138.148,-1.861],[138.15,-1.8645],[138.1465,-1.8685],[138.145,-1.8715],[138.1455,-1.873],[138.152,-1.873],[138.1585,-1.873],[138.16,-1.8735],[138.173,-1.8685],[138.1745,-1.8685],[138.177,-1.8715],[138.196,-1.869],[138.199,-1.868],[138.203,-1.865],[138.2085,-1.8645],[138.2105,-1.864],[138.211,-1.868],[138.2115,-1.87],[138.2115,-1.8725],[138.213,-1.8745],[138.215,-1.875],[138.2165,-1.8755],[138.218,-1.869],[138.2425,-1.8455],[138.248,-1.8265],[138.2475,-1.8145],[138.242,-1.8085]]]},"properties":{"code":"91.10.03.2008","name":"Kapeso"}},{"type":"Feature","geometry":{"type":"Polygon","coordinates":[[[138.2595,-1.673],[138.2545,-1.674],[138.252,-1.6725],[138.249,-1.6715],[138.2355,-1.669],[138.2315,-1.67],[138.2315,-1.6705],[138.231,-1.672],[138.26,-1.6855],[138.2625,-1.6855],[138.2635,-1.686],[138.266,-1.6885],[138.2685,-1.6895],[138.2805,-1.697],[138.281,-1.698],[138.29,-1.7125],[138.313,-1.7175],[138.3405,-1.734],[138.3495,-1.7125],[138.311,-1.697],[138.2595,-1.673]]]},"properties":{"code":"91.10.03.2009","name":"Masep"}},{"type":"Feature","geometry":{"type":"Polygon","coordinates":[[[138.5365,-1.8565],[138.52,-1.852],[138.5065,-1.8615],[138.5035,-1.8835],[138.491,-1.8905],[138.4905,-1.902],[138.477,-1.9185],[138.5005,-1.916],[138.5105,-1.9195],[138.5275,-1.9365],[138.5395,-1.938],[138.541,-1.9365],[138.5405,-1.936],[138.541,-1.9355],[138.548,-1.9325],[138.549,-1.9315],[138.5565,-1.9375],[138.567,-1.937],[138.577,-1.9385],[138.5875,-1.935],[138.59,-1.937],[138.5975,-1.9355],[138.6,-1.935],[138.599,-1.9325],[138.5985,-1.931],[138.597,-1.9195],[138.6025,-1.889],[138.601,-1.887],[138.5805,-1.8695],[138.5365,-1.8565]]]},"properties":{"code":"91.10.03.2012","name":"Nisro"}},{"type":"Feature","geometry":{"type":"Polygon","coordinates":[[[138.56,-1.767],[138.534,-1.7615],[138.5185,-1.7745],[138.5165,-1.7815],[138.514,-1.785],[138.5165,-1.7905],[138.5105,-1.8085],[138.5145,-1.818],[138.515,-1.837],[138.5215,-1.848],[138.516,-1.851],[138.5365,-1.8565],[138.5415,-1.8345],[138.536,-1.8255],[138.5505,-1.797],[138.5525,-1.7945],[138.5515,-1.7925],[138.56,-1.767]]]},"properties":{"code":"91.10.03.2013","name":"Aruswar"}},{"type":"Feature","geometry":{"type":"Polygon","coordinates":[[[138.477,-1.9185],[138.4635,-1.92],[138.4285,-1.919],[138.41,-1.914],[138.402,-1.9],[138.385,-1.893],[138.3835,-1.8965],[138.3785,-1.911],[138.3705,-1.918],[138.3585,-1.938],[138.3315,-1.954],[138.364,-1.976],[138.371,-1.989],[138.376,-2.0035],[138.3855,-2.0135],[138.39,-2.021],[138.402,-2.0315],[138.416,-2.0125],[138.447,-1.989],[138.466,-1.988],[138.4665,-1.9865],[138.466,-1.986],[138.4665,-1.984],[138.479,-1.9945],[138.481,-1.996],[138.484,-1.997],[138.4845,-1.9975],[138.489,-1.995],[138.5005,-1.997],[138.506,-2.004],[138.51,-2.0035],[138.5145,-2.0035],[138.527,-2.0105],[138.5305,-2.009],[138.5325,-2.007],[138.533,-2.0045],[138.533,-2.002],[138.535,-2.0015],[138.5355,-2],[138.5405,-1.9995],[138.541,-1.9965],[138.531,-1.9755],[138.5295,-1.969],[138.5315,-1.968],[138.5395,-1.9695],[138.5495,-1.9605],[138.549,-1.954],[138.548,-1.954],[138.5465,-1.9555],[138.5425,-1.9475],[138.5395,-1.9485],[138.54,-1.946],[138.543,-1.9435],[138.5415,-1.9375],[138.541,-1.9365],[138.5395,-1.938],[138.5275,-1.9365],[138.5105,-1.9195],[138.5005,-1.916],[138.477,-1.9185]]]},"properties":{"code":"91.10.03.2014","name":"Kamenawari"}},{"type":"Feature","geometry":{"type":"Polygon","coordinates":[[[138.442,-1.7395],[138.417,-1.733],[138.412,-1.737],[138.411,-1.738],[138.4105,-1.7375],[138.4105,-1.735],[138.4105,-1.7335],[138.409,-1.734],[138.409,-1.7385],[138.4085,-1.739],[138.41,-1.7415],[138.407,-1.7405],[138.4065,-1.741],[138.406,-1.7515],[138.398,-1.772],[138.3995,-1.789],[138.398,-1.791],[138.4,-1.791],[138.401,-1.7925],[138.401,-1.7935],[138.3975,-1.794],[138.3965,-1.7945],[138.3985,-1.7965],[138.398,-1.7975],[138.3945,-1.7975],[138.395,-1.7985],[138.396,-1.798],[138.3975,-1.798],[138.3985,-1.799],[138.3985,-1.8],[138.3965,-1.799],[138.395,-1.8],[138.395,-1.801],[138.398,-1.802],[138.3975,-1.8035],[138.399,-1.805],[138.4005,-1.8055],[138.4015,-1.805],[138.403,-1.8065],[138.4035,-1.808],[138.405,-1.81],[138.4045,-1.811],[138.4065,-1.811],[138.407,-1.8125],[138.408,-1.813],[138.4085,-1.817],[138.4085,-1.8175],[138.419,-1.822],[138.419,-1.8215],[138.418,-1.8205],[138.4185,-1.8175],[138.417,-1.8155],[138.4165,-1.812],[138.4185,-1.8095],[138.442,-1.7395]]]},"properties":{"code":"91.10.03.2015","name":"Waim"}},{"type":"Feature","geometry":{"type":"Polygon","coordinates":[[[138.2595,-1.673],[138.1735,-1.63],[138.147,-1.6275],[138.164,-1.6445],[138.167,-1.663],[138.16,-1.7015],[138.1725,-1.7175],[138.167,-1.729],[138.1655,-1.731],[138.166,-1.7315],[138.168,-1.7315],[138.1705,-1.732],[138.174,-1.7455],[138.166,-1.762],[138.1575,-1.77],[138.1545,-1.7715],[138.155,-1.774],[138.158,-1.7745],[138.156,-1.781],[138.1565,-1.7835],[138.1595,-1.784],[138.162,-1.783],[138.1645,-1.783],[138.167,-1.7815],[138.1785,-1.7795],[138.1805,-1.7785],[138.1835,-1.778],[138.217,-1.784],[138.2325,-1.794],[138.239,-1.8085],[138.242,-1.805],[138.241,-1.802],[138.2415,-1.798],[138.245,-1.7815],[138.245,-1.759],[138.2335,-1.712],[138.226,-1.6905],[138.2265,-1.679],[138.227,-1.6775],[138.2305,-1.6735],[138.2315,-1.6705],[138.2315,-1.67],[138.2355,-1.669],[138.249,-1.6715],[138.252,-1.6725],[138.2545,-1.674],[138.2595,-1.673]]]},"properties":{"code":"91.10.03.2016","name":"Subu"}},{"type":"Feature","geometry":{"type":"Polygon","coordinates":[[[138.417,-1.733],[138.3895,-1.7255],[138.3495,-1.7125],[138.3405,-1.734],[138.3455,-1.7435],[138.3455,-1.762],[138.3485,-1.7645],[138.3505,-1.7685],[138.3505,-1.7695],[138.3495,-1.772],[138.349,-1.777],[138.3485,-1.779],[138.3475,-1.7825],[138.3445,-1.785],[138.3405,-1.7875],[138.3385,-1.788],[138.3245,-1.791],[138.3225,-1.7915],[138.331,-1.803],[138.334,-1.8035],[138.3565,-1.804],[138.364,-1.8045],[138.3835,-1.8215],[138.3845,-1.8215],[138.388,-1.817],[138.3895,-1.8185],[138.39,-1.818],[138.39,-1.817],[138.3965,-1.8135],[138.397,-1.8125],[138.391,-1.8045],[138.3915,-1.804],[138.3975,-1.8035],[138.398,-1.802],[138.395,-1.801],[138.395,-1.8],[138.3965,-1.799],[138.3985,-1.8],[138.3985,-1.799],[138.3975,-1.798],[138.396,-1.798],[138.395,-1.7985],[138.3945,-1.7975],[138.398,-1.7975],[138.3985,-1.7965],[138.3965,-1.7945],[138.3975,-1.794],[138.401,-1.7935],[138.401,-1.7925],[138.4,-1.791],[138.398,-1.791],[138.3995,-1.789],[138.398,-1.772],[138.406,-1.7515],[138.4065,-1.741],[138.407,-1.7405],[138.41,-1.7415],[138.4085,-1.739],[138.409,-1.7385],[138.409,-1.734],[138.4105,-1.7335],[138.4105,-1.735],[138.4105,-1.7375],[138.411,-1.738],[138.412,-1.737],[138.417,-1.733]]]},"properties":{"code":"91.10.03.2017","name":"Karfasia"}},{"type":"Feature","geometry":{"type":"Polygon","coordinates":[[[138.3405,-1.734],[138.313,-1.7175],[138.29,-1.7125],[138.281,-1.698],[138.2805,-1.697],[138.2685,-1.6895],[138.266,-1.6885],[138.2635,-1.686],[138.2625,-1.6855],[138.26,-1.6855],[138.231,-1.672],[138.2305,-1.6735],[138.227,-1.6775],[138.2265,-1.679],[138.226,-1.6905],[138.2335,-1.712],[138.245,-1.759],[138.245,-1.7815],[138.255,-1.7825],[138.27,-1.7685],[138.2845,-1.77],[138.289,-1.7775],[138.3025,-1.7765],[138.3155,-1.7885],[138.3245,-1.791],[138.3385,-1.788],[138.3405,-1.7875],[138.3445,-1.785],[138.3475,-1.7825],[138.3485,-1.779],[138.349,-1.777],[138.3495,-1.772],[138.3505,-1.7695],[138.3505,-1.7685],[138.3485,-1.7645],[138.3455,-1.762],[138.3455,-1.7435],[138.3405,-1.734]]]},"properties":{"code":"91.10.03.2023","name":"Burgena"}},{"type":"Feature","geometry":{"type":"Polygon","coordinates":[[[138.4635,-1.7455],[138.442,-1.7395],[138.4185,-1.8095],[138.4165,-1.812],[138.417,-1.8155],[138.4185,-1.8175],[138.418,-1.8205],[138.419,-1.8215],[138.419,-1.822],[138.4235,-1.824],[138.447,-1.8305],[138.4475,-1.83],[138.448,-1.828],[138.4485,-1.8275],[138.4485,-1.8145],[138.451,-1.8115],[138.459,-1.7605],[138.4635,-1.7455]]]},"properties":{"code":"91.10.03.2024","name":"Webro"}},{"type":"Feature","geometry":{"type":"Polygon","coordinates":[[[138.3975,-1.8035],[138.3915,-1.804],[138.391,-1.8045],[138.397,-1.8125],[138.3965,-1.8135],[138.39,-1.817],[138.3895,-1.8185],[138.389,-1.8195],[138.392,-1.8215],[138.396,-1.8355],[138.393,-1.842],[138.3935,-1.843],[138.3975,-1.856],[138.4005,-1.8565],[138.401,-1.8615],[138.386,-1.891],[138.385,-1.893],[138.402,-1.9],[138.41,-1.914],[138.4285,-1.919],[138.4635,-1.92],[138.477,-1.9185],[138.4905,-1.902],[138.491,-1.8905],[138.5035,-1.8835],[138.5065,-1.8615],[138.52,-1.852],[138.478,-1.84],[138.4235,-1.824],[138.4085,-1.8175],[138.4085,-1.817],[138.408,-1.813],[138.407,-1.8125],[138.4065,-1.811],[138.4045,-1.811],[138.405,-1.81],[138.4035,-1.808],[138.403,-1.8065],[138.4015,-1.805],[138.4005,-1.8055],[138.399,-1.805],[138.3975,-1.8035]]]},"properties":{"code":"91.10.03.2025","name":"Siantoa"}},{"type":"Feature","geometry":{"type":"Polygon","coordinates":[[[138.534,-1.7615],[138.4925,-1.753],[138.4795,-1.7665],[138.4895,-1.8045],[138.4805,-1.8405],[138.516,-1.851],[138.5215,-1.848],[138.515,-1.837],[138.5145,-1.818],[138.5105,-1.8085],[138.5165,-1.7905],[138.514,-1.785],[138.5165,-1.7815],[138.5185,-1.7745],[138.534,-1.7615]]]},"properties":{"code":"91.10.03.2026","name":"Niwerawar"}},{"type":"Feature","geometry":{"type":"Polygon","coordinates":[[[138.5805,-1.7705],[138.56,-1.767],[138.5515,-1.7925],[138.5525,-1.7945],[138.5505,-1.797],[138.536,-1.8255],[138.5415,-1.8345],[138.5365,-1.8565],[138.567,-1.8655],[138.5685,-1.853],[138.576,-1.842],[138.576,-1.81],[138.5875,-1.7965],[138.577,-1.78],[138.5805,-1.7705]]]},"properties":{"code":"91.10.03.2027","name":"Wari"}},{"type":"Feature","geometry":{"type":"Polygon","coordinates":[[[139.3525,-2.1445],[139.3295,-2.1405],[139.3325,-2.1615],[139.333,-2.1625],[139.3475,-2.162],[139.3615,-2.1465],[139.3525,-2.1445]]]},"properties":{"code":"91.10.04.2001","name":"Ansudu"}},{"type":"Feature","geometry":{"type":"Polygon","coordinates":[[[139.218,-2.412],[139.217,-2.3855],[139.22,-2.3805],[139.221,-2.3565],[139.231,-2.333],[139.235,-2.264],[139.24,-2.2315],[139.2505,-2.209],[139.252,-2.185],[139.25,-2.1635],[139.2565,-2.13],[139.2615,-2.1145],[139.238,-2.102],[139.2245,-2.1335],[139.221,-2.1605],[139.222,-2.2015],[139.2005,-2.1985],[139.198,-2.212],[139.196,-2.286],[139.189,-2.334],[139.171,-2.3765],[139.1545,-2.446],[139.1545,-2.486],[139.1475,-2.5],[139.141,-2.5245],[139.1415,-2.5565],[139.1445,-2.571],[139.1375,-2.6025],[139.1325,-2.614],[139.122,-2.6345],[139.125,-2.638],[139.132,-2.6525],[139.1575,-2.64],[139.1685,-2.639],[139.181,-2.636],[139.189,-2.619],[139.1905,-2.6055],[139.1905,-2.6045],[139.198,-2.5935],[139.2005,-2.591],[139.1945,-2.5735],[139.1975,-2.5675],[139.185,-2.5555],[139.19,-2.546],[139.189,-2.5325],[139.2,-2.521],[139.1925,-2.4695],[139.214,-2.45],[139.208,-2.433],[139.2065,-2.431],[139.209,-2.43],[139.208,-2.422],[139.21,-2.421],[139.217,-2.4145],[139.218,-2.412]]]},"properties":{"code":"91.10.04.2002","name":"Betaf"}},{"type":"Feature","geometry":{"type":"Polygon","coordinates":[[[139.122,-2.6345],[139.1325,-2.614],[139.1375,-2.6025],[139.1445,-2.571],[139.1415,-2.5565],[139.141,-2.5245],[139.1475,-2.5],[139.1545,-2.486],[139.1545,-2.446],[139.171,-2.3765],[139.189,-2.334],[139.196,-2.286],[139.198,-2.212],[139.2005,-2.1985],[139.222,-2.2015],[139.221,-2.1605],[139.2245,-2.1335],[139.238,-2.102],[139.1835,-2.067],[139.1615,-2.0585],[139.1425,-2.0475],[139.14,-2.08],[139.1405,-2.0855],[139.135,-2.1145],[139.136,-2.141],[139.1355,-2.142],[139.139,-2.147],[139.1535,-2.146],[139.1645,-2.15],[139.163,-2.17],[139.1675,-2.2115],[139.1665,-2.249],[139.168,-2.261],[139.16,-2.305],[139.1485,-2.334],[139.134,-2.34],[139.1355,-2.3655],[139.1265,-2.375],[139.118,-2.375],[139.122,-2.395],[139.1235,-2.422],[139.118,-2.4485],[139.1135,-2.4535],[139.1075,-2.4775],[139.103,-2.515],[139.107,-2.5575],[139.104,-2.569],[139.093,-2.5865],[139.0935,-2.5945],[139.082,-2.612],[139.0935,-2.618],[139.112,-2.6205],[139.1195,-2.6315],[139.122,-2.6345]]]},"properties":{"code":"91.10.04.2003","name":"Yamben"}},{"type":"Feature","geometry":{"type":"Polygon","coordinates":[[[139.3525,-2.1445],[139.314,-2.1335],[139.31,-2.158],[139.311,-2.176],[139.309,-2.193],[139.3025,-2.202],[139.2975,-2.2205],[139.2865,-2.238],[139.2785,-2.278],[139.2735,-2.3125],[139.265,-2.341],[139.264,-2.3755],[139.257,-2.4485],[139.2485,-2.4745],[139.25,-2.5435],[139.2485,-2.566],[139.239,-2.5945],[139.2335,-2.6305],[139.2335,-2.6325],[139.2315,-2.646],[139.23,-2.6495],[139.229,-2.652],[139.2285,-2.655],[139.2285,-2.6775],[139.2325,-2.689],[139.233,-2.692],[139.2205,-2.695],[139.22,-2.7075],[139.2075,-2.7475],[139.21,-2.7545],[139.1845,-2.7625],[139.1725,-2.7765],[139.183,-2.797],[139.1715,-2.828],[139.1695,-2.827],[139.17,-2.8255],[139.1635,-2.824],[139.1605,-2.8245],[139.137,-2.8355],[139.1395,-2.8455],[139.1145,-2.86],[139.1155,-2.868],[139.1065,-2.882],[139.115,-2.908],[139.1095,-2.921],[139.103,-2.923],[139.1025,-2.924],[139.103,-2.925],[139.107,-2.9255],[139.125,-2.926],[139.1265,-2.9295],[139.138,-2.942],[139.1445,-2.9555],[139.136,-2.967],[139.135,-2.967],[139.1335,-2.969],[139.1415,-2.975],[139.131,-2.9885],[139.1195,-2.9845],[139.119,-2.9865],[139.127,-3.0075],[139.1015,-3.014],[139.098,-3.024],[139.0885,-3.033],[139.0905,-3.0415],[139.108,-3.0425],[139.1205,-3.052],[139.1205,-3.1175],[139.112,-3.119],[139.068,-3.1155],[139.062,-3.1125],[139.06,-3.11],[139.0585,-3.1095],[139.0535,-3.1075],[139.0425,-3.121],[139.0285,-3.1335],[139.0305,-3.143],[139.0225,-3.148],[139.023,-3.1775],[139.0145,-3.1895],[139.0055,-3.1905],[139.003,-3.2035],[139.007,-3.228],[139.013,-3.23],[139.0125,-3.2495],[139.021,-3.254],[139.036,-3.2515],[139.0655,-3.2765],[139.0865,-3.282],[139.094,-3.29],[139.095,-3.307],[139.083,-3.3045],[139.08,-3.293],[139.069,-3.298],[139.073,-3.324],[139.0835,-3.335],[139.098,-3.332],[139.107,-3.345],[139.103,-3.3645],[139.107,-3.376],[139.121,-3.3815],[139.1255,-3.3725],[139.1215,-3.361],[139.13,-3.3545],[139.1405,-3.3605],[139.1475,-3.373],[139.1425,-3.3855],[139.151,-3.387],[139.162,-3.3595],[139.1735,-3.2885],[139.184,-3.263],[139.196,-3.229],[139.2085,-3.182],[139.224,-3.106],[139.2365,-3.032],[139.247,-2.9845],[139.249,-2.9315],[139.258,-2.888],[139.2645,-2.809],[139.2655,-2.7665],[139.2705,-2.724],[139.2795,-2.6805],[139.284,-2.6315],[139.293,-2.5765],[139.2945,-2.524],[139.2915,-2.478],[139.2985,-2.431],[139.3015,-2.3265],[139.3075,-2.2935],[139.3065,-2.2785],[139.314,-2.241],[139.3115,-2.224],[139.312,-2.2225],[139.319,-2.205],[139.3245,-2.2035],[139.3255,-2.2015],[139.326,-2.1965],[139.328,-2.169],[139.3285,-2.1665],[139.33,-2.168],[139.3335,-2.1625],[139.3325,-2.1615],[139.3295,-2.1405],[139.3525,-2.1445]]]},"properties":{"code":"91.10.04.2010","name":"Sunum"}},{"type":"Feature","geometry":{"type":"Polygon","coordinates":[[[139.3695,-2.167],[139.3755,-2.154],[139.3615,-2.1465],[139.3475,-2.162],[139.3555,-2.163],[139.3525,-2.1645],[139.3475,-2.179],[139.3515,-2.1795],[139.349,-2.1915],[139.355,-2.203],[139.354,-2.204],[139.3495,-2.2155],[139.34,-2.221],[139.3385,-2.2315],[139.3415,-2.233],[139.343,-2.25],[139.343,-2.2525],[139.345,-2.2775],[139.3385,-2.3035],[139.334,-2.3625],[139.3365,-2.411],[139.335,-2.4585],[139.351,-2.4915],[139.358,-2.5345],[139.3595,-2.575],[139.355,-2.608],[139.345,-2.6395],[139.3365,-2.688],[139.3275,-2.747],[139.319,-2.7745],[139.299,-2.9105],[139.289,-2.964],[139.2815,-3.0315],[139.2745,-3.0745],[139.2685,-3.132],[139.2555,-3.1705],[139.247,-3.2265],[139.2385,-3.255],[139.2225,-3.324],[139.221,-3.3555],[139.2095,-3.4],[139.1965,-3.413],[139.1975,-3.421],[139.21,-3.4285],[139.214,-3.444],[139.2205,-3.437],[139.24,-3.4305],[139.2415,-3.4285],[139.2415,-3.426],[139.248,-3.404],[139.2475,-3.3935],[139.255,-3.37],[139.2605,-3.341],[139.2685,-3.315],[139.2775,-3.265],[139.2855,-3.2145],[139.3075,-3.188],[139.309,-3.1535],[139.314,-3.108],[139.312,-3.0715],[139.3235,-3.04],[139.3285,-3.0065],[139.3245,-2.9555],[139.337,-2.9115],[139.3515,-2.893],[139.3565,-2.8735],[139.3655,-2.8515],[139.3635,-2.8205],[139.3595,-2.8095],[139.369,-2.7855],[139.3705,-2.775],[139.378,-2.763],[139.3845,-2.74],[139.3935,-2.7255],[139.3915,-2.707],[139.3905,-2.7035],[139.39,-2.703],[139.3855,-2.702],[139.3845,-2.7005],[139.3805,-2.697],[139.3605,-2.6725],[139.3665,-2.658],[139.3805,-2.6575],[139.3825,-2.6555],[139.388,-2.6515],[139.3895,-2.6515],[139.39,-2.6505],[139.3905,-2.65],[139.3905,-2.643],[139.394,-2.6295],[139.3935,-2.612],[139.409,-2.5685],[139.4045,-2.555],[139.404,-2.526],[139.382,-2.485],[139.3725,-2.442],[139.3705,-2.4235],[139.3695,-2.3675],[139.3705,-2.2725],[139.369,-2.242],[139.3705,-2.213],[139.3755,-2.1945],[139.3695,-2.1825],[139.3695,-2.167]]]},"properties":{"code":"91.10.04.2011","name":"Komra"}},{"type":"Feature","geometry":{"type":"Polygon","coordinates":[[[139.2335,-2.6305],[139.239,-2.5945],[139.2485,-2.566],[139.25,-2.5435],[139.2485,-2.4745],[139.257,-2.4485],[139.264,-2.3755],[139.265,-2.341],[139.2735,-2.3125],[139.2785,-2.278],[139.2865,-2.238],[139.2975,-2.2205],[139.3025,-2.202],[139.309,-2.193],[139.311,-2.176],[139.31,-2.158],[139.314,-2.1335],[139.2615,-2.1145],[139.2565,-2.13],[139.25,-2.1635],[139.252,-2.185],[139.2505,-2.209],[139.24,-2.2315],[139.235,-2.264],[139.231,-2.333],[139.221,-2.3565],[139.22,-2.3805],[139.217,-2.3855],[139.218,-2.412],[139.217,-2.4145],[139.21,-2.421],[139.208,-2.422],[139.209,-2.43],[139.2065,-2.431],[139.208,-2.433],[139.214,-2.45],[139.1925,-2.4695],[139.2,-2.521],[139.189,-2.5325],[139.19,-2.546],[139.185,-2.5555],[139.1975,-2.5675],[139.1945,-2.5735],[139.2005,-2.591],[139.198,-2.5935],[139.1905,-2.6045],[139.1905,-2.6055],[139.189,-2.619],[139.181,-2.636],[139.1815,-2.636],[139.1955,-2.6295],[139.229,-2.626],[139.2335,-2.63],[139.2335,-2.6305]]]},"properties":{"code":"91.10.04.2013","name":"Betaf Dua"}},{"type":"Feature","geometry":{"type":"Polygon","coordinates":[[[139.3525,-2.1645],[139.3555,-2.163],[139.3475,-2.162],[139.333,-2.1625],[139.3335,-2.1625],[139.33,-2.168],[139.3285,-2.1665],[139.328,-2.169],[139.326,-2.1965],[139.3255,-2.2015],[139.3245,-2.2035],[139.319,-2.205],[139.312,-2.2225],[139.3115,-2.224],[139.314,-2.241],[139.3065,-2.2785],[139.3075,-2.2935],[139.3015,-2.3265],[139.2985,-2.431],[139.2915,-2.478],[139.2945,-2.524],[139.293,-2.5765],[139.284,-2.6315],[139.2795,-2.6805],[139.2705,-2.724],[139.2655,-2.7665],[139.2645,-2.809],[139.258,-2.888],[139.249,-2.9315],[139.247,-2.9845],[139.2365,-3.032],[139.224,-3.106],[139.2085,-3.182],[139.196,-3.229],[139.184,-3.263],[139.1735,-3.2885],[139.162,-3.3595],[139.151,-3.387],[139.1425,-3.3855],[139.1445,-3.4015],[139.1385,-3.4125],[139.1405,-3.426],[139.165,-3.4335],[139.181,-3.427],[139.189,-3.432],[139.1935,-3.444],[139.2065,-3.449],[139.214,-3.444],[139.21,-3.4285],[139.1975,-3.421],[139.1965,-3.413],[139.2095,-3.4],[139.221,-3.3555],[139.2225,-3.324],[139.2385,-3.255],[139.247,-3.2265],[139.2555,-3.1705],[139.2685,-3.132],[139.2745,-3.0745],[139.2815,-3.0315],[139.289,-2.964],[139.299,-2.9105],[139.319,-2.7745],[139.3275,-2.747],[139.3365,-2.688],[139.345,-2.6395],[139.355,-2.608],[139.3595,-2.575],[139.358,-2.5345],[139.351,-2.4915],[139.335,-2.4585],[139.3365,-2.411],[139.334,-2.3625],[139.3385,-2.3035],[139.345,-2.2775],[139.343,-2.2525],[139.343,-2.25],[139.3415,-2.233],[139.3385,-2.2315],[139.34,-2.221],[139.3495,-2.2155],[139.354,-2.204],[139.355,-2.203],[139.349,-2.1915],[139.3515,-2.1795],[139.3475,-2.179],[139.3525,-2.1645]]]},"properties":{"code":"91.10.04.2014","name":"Ansudu Dua"}},{"type":"Feature","geometry":{"type":"Polygon","coordinates":[[[139.645,-2.292],[139.588,-2.274],[139.584,-2.278],[139.5905,-2.2875],[139.5945,-2.2935],[139.5995,-2.325],[139.608,-2.333],[139.606,-2.324],[139.6085,-2.3245],[139.6195,-2.3235],[139.6205,-2.3225],[139.628,-2.323],[139.6285,-2.322],[139.62,-2.315],[139.624,-2.306],[139.6255,-2.303],[139.6295,-2.307],[139.6305,-2.3085],[139.6365,-2.3055],[139.638,-2.3045],[139.6425,-2.3005],[139.6425,-2.3015],[139.644,-2.302],[139.645,-2.301],[139.6455,-2.3],[139.645,-2.2945],[139.645,-2.292]]]},"properties":{"code":"91.10.05.2004","name":"Armopa"}},{"type":"Feature","geometry":{"type":"Polygon","coordinates":[[[139.588,-2.274],[139.5325,-2.247],[139.482,-2.214],[139.4795,-2.2175],[139.4785,-2.2185],[139.4795,-2.219],[139.481,-2.219],[139.496,-2.2295],[139.5025,-2.2435],[139.515,-2.2515],[139.5285,-2.2535],[139.5455,-2.267],[139.5665,-2.2705],[139.584,-2.278],[139.588,-2.274]]]},"properties":{"code":"91.10.05.2005","name":"Tarontha Srum"}},{"type":"Feature","geometry":{"type":"Polygon","coordinates":[[[139.467,-2.2025],[139.4395,-2.1855],[139.4325,-2.1955],[139.4335,-2.202],[139.4355,-2.207],[139.435,-2.209],[139.4365,-2.2085],[139.441,-2.2065],[139.448,-2.2115],[139.4545,-2.2145],[139.455,-2.2145],[139.4555,-2.213],[139.4575,-2.21],[139.459,-2.206],[139.4605,-2.2065],[139.4625,-2.2045],[139.4635,-2.2035],[139.4615,-2.2035],[139.462,-2.202],[139.4635,-2.2015],[139.4645,-2.2025],[139.466,-2.204],[139.467,-2.2025]]]},"properties":{"code":"91.10.05.2006","name":"Anus"}},{"type":"Feature","geometry":{"type":"MultiPolygon","coordinates":[[[[139.473,-2.7965],[139.471,-2.7965],[139.47,-2.7945],[139.4695,-2.794],[139.468,-2.796],[139.468,-2.7965],[139.464,-2.7965],[139.4625,-2.796],[139.461,-2.798],[139.46,-2.7995],[139.4715,-2.8225],[139.471,-2.8255],[139.4625,-2.841],[139.466,-2.8545],[139.461,-2.864],[139.4715,-2.883],[139.467,-2.9075],[139.467,-2.9095],[139.469,-2.917],[139.467,-2.922],[139.4625,-2.924],[139.463,-2.928],[139.451,-2.9315],[139.453,-2.947],[139.459,-2.9515],[139.462,-2.9745],[139.462,-2.978],[139.4525,-2.986],[139.4565,-2.996],[139.442,-3.0175],[139.4365,-3.047],[139.4385,-3.0575],[139.4335,-3.0735],[139.442,-3.094],[139.441,-3.1095],[139.43,-3.142],[139.4325,-3.1495],[139.4325,-3.18],[139.427,-3.195],[139.431,-3.2115],[139.424,-3.219],[139.424,-3.2225],[139.4235,-3.224],[139.424,-3.2265],[139.425,-3.241],[139.433,-3.2705],[139.4315,-3.284],[139.426,-3.297],[139.427,-3.3155],[139.4235,-3.329],[139.4235,-3.35],[139.412,-3.371],[139.4105,-3.3805],[139.4,-3.4085],[139.3985,-3.434],[139.394,-3.4435],[139.399,-3.4445],[139.4025,-3.445],[139.4065,-3.445],[139.4205,-3.4445],[139.423,-3.446],[139.439,-3.3815],[139.4435,-3.3505],[139.4555,-3.339],[139.4505,-3.313],[139.473,-3.29],[139.4615,-3.267],[139.4595,-3.2495],[139.4685,-3.235],[139.4645,-3.2135],[139.471,-3.208],[139.4715,-3.191],[139.4775,-3.176],[139.4795,-3.171],[139.4785,-3.1695],[139.4785,-3.1675],[139.479,-3.1665],[139.4785,-3.165],[139.478,-3.1395],[139.478,-3.137],[139.4765,-3.133],[139.4765,-3.13],[139.4765,-3.129],[139.4775,-3.128],[139.4835,-3.1245],[139.492,-3.1065],[139.493,-3.084],[139.488,-3.064],[139.497,-3.0515],[139.4885,-3.025],[139.496,-3.01],[139.491,-2.9935],[139.4995,-2.9685],[139.5055,-2.9605],[139.504,-2.9465],[139.51,-2.9105],[139.512,-2.8395],[139.5135,-2.8115],[139.5095,-2.812],[139.5075,-2.8115],[139.5065,-2.812],[139.5035,-2.81],[139.488,-2.8025],[139.4835,-2.8],[139.4805,-2.7995],[139.4785,-2.7975],[139.4745,-2.7975],[139.473,-2.7965]]],[[[139.5465,-2.4555],[139.5455,-2.4555],[139.5395,-2.4455],[139.5375,-2.4455],[139.5205,-2.4505],[139.4815,-2.458],[139.48,-2.4585],[139.482,-2.459],[139.4815,-2.46],[139.4795,-2.46],[139.479,-2.4595],[139.4795,-2.4605],[139.482,-2.467],[139.4825,-2.468],[139.491,-2.4865],[139.4925,-2.509],[139.496,-2.523],[139.4905,-2.536],[139.491,-2.557],[139.4985,-2.5695],[139.49,-2.586],[139.494,-2.59],[139.494,-2.591],[139.495,-2.592],[139.495,-2.593],[139.4955,-2.594],[139.494,-2.5945],[139.4945,-2.598],[139.4955,-2.5995],[139.4975,-2.6055],[139.4985,-2.6065],[139.5015,-2.6055],[139.504,-2.6055],[139.509,-2.6045],[139.511,-2.606],[139.5105,-2.6075],[139.51,-2.6105],[139.5145,-2.6155],[139.5315,-2.609],[139.538,-2.61],[139.538,-2.6095],[139.5375,-2.6085],[139.537,-2.608],[139.538,-2.605],[139.536,-2.6],[139.543,-2.5945],[139.5355,-2.576],[139.538,-2.5545],[139.5375,-2.534],[139.528,-2.5205],[139.53,-2.509],[139.542,-2.5],[139.543,-2.4835],[139.544,-2.4815],[139.5485,-2.462],[139.5465,-2.461],[139.5465,-2.46],[139.547,-2.4585],[139.5465,-2.4555]]]]},"properties":{"code":"91.10.05.2007","name":"Kiren"}},{"type":"Feature","geometry":{"type":"Polygon","coordinates":[[[139.425,-2.178],[139.3755,-2.154],[139.3695,-2.167],[139.3695,-2.1825],[139.3755,-2.1945],[139.3705,-2.213],[139.369,-2.2435],[139.3705,-2.2725],[139.3705,-2.3045],[139.3865,-2.289],[139.384,-2.282],[139.3885,-2.267],[139.396,-2.254],[139.3945,-2.235],[139.3955,-2.232],[139.396,-2.23],[139.398,-2.226],[139.4115,-2.212],[139.411,-2.192],[139.4195,-2.185],[139.421,-2.182],[139.4215,-2.1815],[139.4235,-2.1815],[139.425,-2.178]]]},"properties":{"code":"91.10.05.2008","name":"Maweswares"}},{"type":"Feature","geometry":{"type":"Polygon","coordinates":[[[139.584,-2.278],[139.5665,-2.2705],[139.5455,-2.267],[139.5285,-2.2535],[139.515,-2.2515],[139.5025,-2.2435],[139.496,-2.2295],[139.481,-2.219],[139.4795,-2.219],[139.4785,-2.2185],[139.478,-2.2185],[139.478,-2.2195],[139.478,-2.227],[139.477,-2.232],[139.477,-2.234],[139.475,-2.238],[139.4675,-2.2455],[139.471,-2.258],[139.463,-2.2695],[139.4655,-2.308],[139.456,-2.313],[139.4505,-2.3365],[139.456,-2.3475],[139.4515,-2.3605],[139.466,-2.3835],[139.488,-2.363],[139.495,-2.361],[139.502,-2.3265],[139.51,-2.322],[139.5115,-2.304],[139.5135,-2.3025],[139.532,-2.2885],[139.5495,-2.2855],[139.566,-2.293],[139.5845,-2.2925],[139.588,-2.291],[139.593,-2.291],[139.5905,-2.2875],[139.584,-2.278]]]},"properties":{"code":"91.10.05.2010","name":"Bebon Jaya"}},{"type":"Feature","geometry":{"type":"MultiPolygon","coordinates":[[[[139.4835,-3.178],[139.4775,-3.176],[139.4715,-3.191],[139.471,-3.208],[139.4645,-3.2135],[139.4685,-3.235],[139.4595,-3.2495],[139.4615,-3.267],[139.473,-3.29],[139.4505,-3.313],[139.4555,-3.339],[139.4435,-3.3505],[139.439,-3.3815],[139.423,-3.446],[139.4255,-3.4475],[139.433,-3.46],[139.4375,-3.4625],[139.45,-3.4645],[139.4635,-3.46],[139.461,-3.454],[139.463,-3.454],[139.4605,-3.4495],[139.46,-3.449],[139.459,-3.451],[139.4555,-3.4555],[139.4545,-3.4545],[139.4555,-3.448],[139.441,-3.438],[139.4415,-3.436],[139.4445,-3.4285],[139.4685,-3.4215],[139.4765,-3.407],[139.47,-3.399],[139.4865,-3.3705],[139.4965,-3.357],[139.4965,-3.337],[139.5055,-3.325],[139.5135,-3.3085],[139.5085,-3.2985],[139.51,-3.293],[139.5085,-3.2915],[139.507,-3.293],[139.5055,-3.296],[139.505,-3.29],[139.5005,-3.291],[139.4995,-3.29],[139.5005,-3.288],[139.4985,-3.2865],[139.497,-3.2825],[139.499,-3.281],[139.5,-3.279],[139.4975,-3.2795],[139.497,-3.276],[139.497,-3.2715],[139.5005,-3.268],[139.4995,-3.264],[139.4965,-3.2595],[139.489,-3.2445],[139.4885,-3.2435],[139.488,-3.2345],[139.488,-3.233],[139.489,-3.226],[139.4885,-3.2275],[139.489,-3.228],[139.4895,-3.228],[139.49,-3.2275],[139.4905,-3.227],[139.4915,-3.226],[139.4925,-3.2245],[139.4925,-3.2235],[139.4925,-3.2215],[139.492,-3.2205],[139.491,-3.22],[139.4905,-3.2205],[139.49,-3.221],[139.489,-3.22],[139.4895,-3.214],[139.489,-3.2135],[139.4895,-3.212],[139.491,-3.208],[139.491,-3.205],[139.49,-3.2025],[139.486,-3.2045],[139.484,-3.1935],[139.4765,-3.187],[139.483,-3.1855],[139.4835,-3.178]]],[[[139.5155,-2.816],[139.5145,-2.8155],[139.5135,-2.8115],[139.512,-2.8395],[139.51,-2.9105],[139.504,-2.9465],[139.5055,-2.9605],[139.4995,-2.9685],[139.491,-2.9935],[139.496,-3.01],[139.4885,-3.025],[139.497,-3.0515],[139.488,-3.064],[139.493,-3.084],[139.492,-3.1065],[139.4835,-3.1245],[139.4775,-3.128],[139.4765,-3.129],[139.4765,-3.13],[139.4765,-3.133],[139.478,-3.137],[139.478,-3.1395],[139.4785,-3.165],[139.479,-3.1665],[139.4815,-3.1685],[139.488,-3.1675],[139.491,-3.163],[139.4915,-3.161],[139.494,-3.1625],[139.5005,-3.159],[139.513,-3.1275],[139.512,-3.118],[139.4995,-3.1045],[139.525,-3.0835],[139.533,-3.0475],[139.529,-3.021],[139.5335,-3.016],[139.532,-2.9955],[139.525,-2.9875],[139.526,-2.963],[139.5205,-2.9435],[139.522,-2.94],[139.535,-2.925],[139.5505,-2.9225],[139.552,-2.914],[139.5665,-2.9035],[139.57,-2.894],[139.584,-2.89],[139.5865,-2.8795],[139.582,-2.865],[139.5695,-2.8635],[139.5605,-2.8475],[139.5505,-2.843],[139.5485,-2.824],[139.5335,-2.821],[139.5285,-2.82],[139.525,-2.819],[139.5225,-2.816],[139.519,-2.819],[139.5155,-2.816]]],[[[139.624,-2.4355],[139.6235,-2.4285],[139.5925,-2.434],[139.545,-2.4455],[139.5395,-2.4455],[139.5455,-2.4555],[139.5465,-2.4555],[139.547,-2.4585],[139.5465,-2.46],[139.5465,-2.461],[139.5485,-2.462],[139.544,-2.4815],[139.543,-2.4835],[139.542,-2.5],[139.53,-2.509],[139.528,-2.5205],[139.5375,-2.534],[139.538,-2.5545],[139.5355,-2.576],[139.543,-2.5945],[139.536,-2.6],[139.538,-2.605],[139.537,-2.608],[139.5375,-2.6085],[139.538,-2.6095],[139.538,-2.61],[139.539,-2.61],[139.54,-2.609],[139.541,-2.6085],[139.5425,-2.609],[139.544,-2.6115],[139.5455,-2.6115],[139.551,-2.608],[139.554,-2.6015],[139.5515,-2.5875],[139.57,-2.5755],[139.573,-2.572],[139.574,-2.5705],[139.578,-2.5655],[139.58,-2.5625],[139.5835,-2.557],[139.5835,-2.5565],[139.5795,-2.552],[139.576,-2.547],[139.583,-2.54],[139.5865,-2.5405],[139.5965,-2.4375],[139.624,-2.4355]]]]},"properties":{"code":"91.10.05.2011","name":"Tetom"}},{"type":"Feature","geometry":{"type":"Polygon","coordinates":[[[139.4545,-2.2145],[139.448,-2.2115],[139.441,-2.2065],[139.4365,-2.2085],[139.4345,-2.209],[139.4345,-2.2105],[139.434,-2.2305],[139.434,-2.2325],[139.453,-2.2275],[139.453,-2.2165],[139.4545,-2.2145]]]},"properties":{"code":"91.10.05.2015","name":"Rimsersari"}},{"type":"Feature","geometry":{"type":"MultiPolygon","coordinates":[[[[139.398,-2.706],[139.391,-2.704],[139.3905,-2.7035],[139.3915,-2.707],[139.3935,-2.7255],[139.3845,-2.74],[139.378,-2.763],[139.3705,-2.775],[139.369,-2.7855],[139.3595,-2.8095],[139.3635,-2.8205],[139.3655,-2.8515],[139.3565,-2.8735],[139.3515,-2.893],[139.337,-2.9115],[139.3245,-2.9555],[139.3285,-3.0065],[139.3235,-3.04],[139.312,-3.0715],[139.314,-3.108],[139.309,-3.1535],[139.3075,-3.188],[139.2855,-3.2145],[139.2775,-3.265],[139.2685,-3.315],[139.2605,-3.341],[139.255,-3.37],[139.2475,-3.3935],[139.248,-3.404],[139.2415,-3.426],[139.2415,-3.4285],[139.2445,-3.425],[139.252,-3.419],[139.2555,-3.418],[139.2665,-3.4185],[139.2695,-3.4185],[139.272,-3.424],[139.271,-3.4265],[139.256,-3.4275],[139.249,-3.435],[139.248,-3.4385],[139.248,-3.446],[139.2495,-3.4525],[139.2575,-3.4535],[139.2645,-3.4415],[139.2735,-3.447],[139.2735,-3.4595],[139.2835,-3.468],[139.2965,-3.4685],[139.302,-3.471],[139.3155,-3.423],[139.3265,-3.355],[139.337,-3.298],[139.342,-3.265],[139.3595,-3.2005],[139.374,-3.1195],[139.3845,-3.0285],[139.3825,-2.978],[139.405,-2.9015],[139.4225,-2.77],[139.422,-2.7685],[139.4265,-2.7615],[139.427,-2.7445],[139.431,-2.7375],[139.422,-2.7235],[139.423,-2.713],[139.398,-2.706]]],[[[139.4395,-2.1855],[139.425,-2.178],[139.4235,-2.1815],[139.4215,-2.1815],[139.421,-2.182],[139.4195,-2.185],[139.411,-2.192],[139.4115,-2.212],[139.398,-2.226],[139.396,-2.23],[139.3955,-2.232],[139.3945,-2.235],[139.396,-2.254],[139.3885,-2.267],[139.384,-2.282],[139.3865,-2.289],[139.3705,-2.3045],[139.3695,-2.3675],[139.3705,-2.4235],[139.3725,-2.442],[139.382,-2.485],[139.404,-2.526],[139.4045,-2.555],[139.409,-2.5685],[139.3935,-2.612],[139.394,-2.6295],[139.3905,-2.643],[139.3905,-2.65],[139.391,-2.6475],[139.401,-2.634],[139.404,-2.6295],[139.4045,-2.627],[139.4065,-2.619],[139.4095,-2.6145],[139.41,-2.611],[139.4255,-2.591],[139.43,-2.5905],[139.432,-2.5895],[139.433,-2.591],[139.431,-2.5925],[139.4315,-2.594],[139.434,-2.5955],[139.436,-2.597],[139.4385,-2.599],[139.44,-2.5995],[139.441,-2.5315],[139.4325,-2.4685],[139.409,-2.383],[139.405,-2.3615],[139.4105,-2.3465],[139.4025,-2.328],[139.4115,-2.321],[139.419,-2.3055],[139.4165,-2.292],[139.419,-2.2755],[139.434,-2.26],[139.434,-2.254],[139.4305,-2.244],[139.434,-2.2305],[139.4345,-2.2105],[139.4345,-2.209],[139.435,-2.209],[139.4355,-2.207],[139.4335,-2.202],[139.4325,-2.1955],[139.4395,-2.1855]]]]},"properties":{"code":"91.10.05.2017","name":"Krim Podena"}},{"type":"Feature","geometry":{"type":"MultiPolygon","coordinates":[[[[139.4325,-2.7825],[139.43,-2.7805],[139.427,-2.779],[139.425,-2.7715],[139.4225,-2.77],[139.405,-2.9015],[139.3825,-2.978],[139.3845,-3.0285],[139.374,-3.1195],[139.3595,-3.2005],[139.342,-3.265],[139.337,-3.298],[139.3265,-3.355],[139.3155,-3.423],[139.302,-3.471],[139.3045,-3.473],[139.312,-3.47],[139.3165,-3.4545],[139.325,-3.446],[139.3285,-3.4455],[139.3355,-3.4565],[139.331,-3.469],[139.335,-3.481],[139.338,-3.4835],[139.3395,-3.484],[139.3565,-3.483],[139.3765,-3.4715],[139.3765,-3.459],[139.3695,-3.4555],[139.3695,-3.4395],[139.375,-3.436],[139.379,-3.437],[139.3825,-3.439],[139.386,-3.441],[139.394,-3.4435],[139.3985,-3.434],[139.4,-3.4085],[139.4105,-3.3805],[139.412,-3.371],[139.4235,-3.35],[139.4235,-3.329],[139.427,-3.3155],[139.426,-3.297],[139.4315,-3.284],[139.433,-3.2705],[139.425,-3.241],[139.424,-3.2265],[139.4235,-3.224],[139.424,-3.2225],[139.424,-3.219],[139.431,-3.2115],[139.427,-3.195],[139.4325,-3.18],[139.4325,-3.1495],[139.43,-3.142],[139.441,-3.1095],[139.442,-3.094],[139.4335,-3.0735],[139.4385,-3.0575],[139.4365,-3.047],[139.442,-3.0175],[139.4565,-2.996],[139.4525,-2.986],[139.462,-2.978],[139.462,-2.9745],[139.459,-2.9515],[139.453,-2.947],[139.451,-2.9315],[139.463,-2.928],[139.4625,-2.924],[139.467,-2.922],[139.469,-2.917],[139.467,-2.9095],[139.467,-2.9075],[139.4715,-2.883],[139.461,-2.864],[139.466,-2.8545],[139.4625,-2.841],[139.471,-2.8255],[139.4715,-2.8225],[139.46,-2.7995],[139.461,-2.798],[139.4625,-2.796],[139.4615,-2.7955],[139.461,-2.796],[139.4595,-2.7975],[139.456,-2.799],[139.4505,-2.8015],[139.4355,-2.8065],[139.4255,-2.797],[139.4275,-2.791],[139.4275,-2.79],[139.4315,-2.7855],[139.4325,-2.7825]]],[[[139.4645,-2.2025],[139.4635,-2.2015],[139.462,-2.202],[139.4615,-2.2035],[139.4635,-2.2035],[139.4625,-2.2045],[139.4605,-2.2065],[139.459,-2.206],[139.4575,-2.21],[139.4555,-2.213],[139.455,-2.2145],[139.453,-2.2165],[139.453,-2.2275],[139.434,-2.2325],[139.4305,-2.244],[139.434,-2.254],[139.434,-2.26],[139.419,-2.2755],[139.4165,-2.292],[139.419,-2.3055],[139.4115,-2.321],[139.4025,-2.328],[139.4105,-2.3465],[139.405,-2.3615],[139.409,-2.383],[139.4325,-2.4685],[139.441,-2.5315],[139.44,-2.5995],[139.4405,-2.6],[139.4455,-2.599],[139.4465,-2.602],[139.4865,-2.623],[139.4945,-2.614],[139.4955,-2.606],[139.495,-2.602],[139.4955,-2.602],[139.496,-2.6015],[139.495,-2.5995],[139.4945,-2.598],[139.494,-2.5945],[139.4955,-2.594],[139.495,-2.593],[139.495,-2.592],[139.494,-2.591],[139.494,-2.59],[139.49,-2.586],[139.4985,-2.5695],[139.491,-2.557],[139.4905,-2.536],[139.496,-2.523],[139.4925,-2.509],[139.491,-2.4865],[139.4825,-2.468],[139.482,-2.467],[139.4795,-2.4605],[139.479,-2.4595],[139.4795,-2.46],[139.4815,-2.46],[139.482,-2.459],[139.48,-2.4585],[139.4815,-2.458],[139.5205,-2.4505],[139.5375,-2.4455],[139.545,-2.4455],[139.5925,-2.434],[139.6235,-2.4285],[139.6145,-2.4235],[139.6135,-2.423],[139.6125,-2.4215],[139.613,-2.42],[139.621,-2.413],[139.6215,-2.4115],[139.62,-2.398],[139.6185,-2.3975],[139.6005,-2.3865],[139.6045,-2.3705],[139.6045,-2.368],[139.61,-2.353],[139.6115,-2.351],[139.6115,-2.348],[139.61,-2.3465],[139.608,-2.333],[139.5995,-2.325],[139.5945,-2.2935],[139.593,-2.291],[139.588,-2.291],[139.5845,-2.2925],[139.566,-2.293],[139.5495,-2.2855],[139.532,-2.2885],[139.5135,-2.3025],[139.5115,-2.304],[139.51,-2.322],[139.502,-2.3265],[139.495,-2.361],[139.488,-2.363],[139.466,-2.3835],[139.4515,-2.3605],[139.456,-2.3475],[139.4505,-2.3365],[139.456,-2.313],[139.4655,-2.308],[139.463,-2.2695],[139.471,-2.258],[139.4675,-2.2455],[139.475,-2.238],[139.477,-2.234],[139.477,-2.232],[139.478,-2.227],[139.478,-2.2195],[139.478,-2.2185],[139.4795,-2.2185],[139.4795,-2.2175],[139.482,-2.214],[139.467,-2.2025],[139.466,-2.204],[139.4645,-2.2025]]]]},"properties":{"code":"91.10.05.2018","name":"Rotea"}},{"type":"Feature","geometry":{"type":"Polygon","coordinates":[[[138.527,-2.0105],[138.5145,-2.0035],[138.51,-2.0035],[138.506,-2.004],[138.5005,-1.997],[138.489,-1.995],[138.4845,-1.9975],[138.484,-1.997],[138.481,-1.996],[138.479,-1.9945],[138.4665,-1.984],[138.4795,-2.012],[138.485,-2.0185],[138.49,-2.0415],[138.504,-2.0605],[138.5255,-2.099],[138.5335,-2.1075],[138.5345,-2.106],[138.5345,-2.105],[138.54,-2.101],[138.542,-2.0995],[138.5705,-2.086],[138.5815,-2.071],[138.5825,-2.07],[138.582,-2.0695],[138.5825,-2.0685],[138.5835,-2.0685],[138.5835,-2.0665],[138.5835,-2.0655],[138.591,-2.0635],[138.594,-2.0615],[138.5955,-2.0585],[138.5945,-2.054],[138.595,-2.0515],[138.5775,-2.04],[138.5695,-2.041],[138.5465,-2.034],[138.544,-2.024],[138.54,-2.023],[138.5345,-2.0235],[138.532,-2.0245],[138.5315,-2.024],[138.532,-2.0225],[138.528,-2.0105],[138.527,-2.0105]]]},"properties":{"code":"91.10.09.2001","name":"Wamariri"}},{"type":"Feature","geometry":{"type":"Polygon","coordinates":[[[138.517,-2.132],[138.5145,-2.124],[138.4995,-2.121],[138.482,-2.1035],[138.4675,-2.1005],[138.4515,-2.102],[138.449,-2.105],[138.446,-2.1095],[138.4235,-2.107],[138.422,-2.1075],[138.406,-2.1185],[138.4095,-2.1255],[138.411,-2.126],[138.4095,-2.126],[138.411,-2.129],[138.4095,-2.129],[138.41,-2.132],[138.4095,-2.1325],[138.408,-2.134],[138.4075,-2.135],[138.407,-2.1335],[138.4,-2.143],[138.3995,-2.1435],[138.398,-2.148],[138.399,-2.1555],[138.4105,-2.1715],[138.415,-2.19],[138.4075,-2.2005],[138.408,-2.201],[138.4075,-2.2025],[138.4095,-2.206],[138.4075,-2.214],[138.4365,-2.222],[138.4385,-2.2225],[138.44,-2.223],[138.441,-2.223],[138.4595,-2.2165],[138.4625,-2.21],[138.463,-2.208],[138.464,-2.2095],[138.4655,-2.2085],[138.468,-2.2095],[138.4685,-2.2095],[138.47,-2.209],[138.4685,-2.208],[138.4705,-2.189],[138.4665,-2.169],[138.4785,-2.148],[138.4855,-2.1425],[138.5155,-2.135],[138.517,-2.132]]]},"properties":{"code":"91.10.09.2002","name":"Aurimi"}},{"type":"Feature","geometry":{"type":"Polygon","coordinates":[[[138.398,-2.148],[138.3885,-2.1445],[138.37,-2.1505],[138.369,-2.1515],[138.3635,-2.1555],[138.3615,-2.1565],[138.3485,-2.1555],[138.33,-2.15],[138.302,-2.1535],[138.3005,-2.157],[138.298,-2.1645],[138.299,-2.168],[138.331,-2.193],[138.3385,-2.178],[138.348,-2.1695],[138.349,-2.1725],[138.3495,-2.1785],[138.3525,-2.1775],[138.353,-2.177],[138.353,-2.172],[138.3555,-2.1695],[138.3575,-2.17],[138.3585,-2.1745],[138.3575,-2.1805],[138.3605,-2.1805],[138.372,-2.1765],[138.3765,-2.1845],[138.397,-2.1845],[138.399,-2.18],[138.4015,-2.18],[138.4025,-2.181],[138.407,-2.1925],[138.3845,-2.201],[138.382,-2.2005],[138.3795,-2.2],[138.378,-2.2],[138.376,-2.2],[138.3705,-2.197],[138.3665,-2.1975],[138.3625,-2.1985],[138.3485,-2.213],[138.3645,-2.218],[138.365,-2.2175],[138.3685,-2.216],[138.3715,-2.2155],[138.3715,-2.219],[138.3735,-2.222],[138.3755,-2.2255],[138.4055,-2.2005],[138.4075,-2.2005],[138.415,-2.19],[138.4105,-2.1715],[138.399,-2.1555],[138.398,-2.148]]]},"properties":{"code":"91.10.09.2003","name":"Tamaja"}},{"type":"Feature","geometry":{"type":"Polygon","coordinates":[[[138.3875,-2.017],[138.3855,-2.0135],[138.376,-2.0035],[138.371,-1.989],[138.3495,-2.0085],[138.342,-2.008],[138.3255,-2.0155],[138.279,-2.0285],[138.2665,-2.0275],[138.2625,-2.026],[138.262,-2.027],[138.254,-2.025],[138.249,-2.0345],[138.249,-2.0365],[138.254,-2.0415],[138.253,-2.044],[138.254,-2.0455],[138.256,-2.0455],[138.2685,-2.052],[138.281,-2.05],[138.282,-2.0495],[138.285,-2.0465],[138.2875,-2.045],[138.288,-2.045],[138.2895,-2.046],[138.2895,-2.059],[138.291,-2.0565],[138.293,-2.056],[138.3005,-2.0615],[138.3025,-2.0635],[138.3025,-2.06],[138.3035,-2.059],[138.3065,-2.062],[138.3075,-2.0615],[138.3095,-2.0585],[138.309,-2.0575],[138.31,-2.0575],[138.31,-2.057],[138.313,-2.0595],[138.3135,-2.0585],[138.3145,-2.0575],[138.3155,-2.0555],[138.315,-2.053],[138.316,-2.0525],[138.335,-2.052],[138.334,-2.051],[138.3375,-2.0445],[138.3665,-2.0235],[138.3875,-2.017]]]},"properties":{"code":"91.10.09.2004","name":"Airoran"}},{"type":"Feature","geometry":{"type":"Polygon","coordinates":[[[138.3315,-1.954],[138.3155,-1.9455],[138.299,-1.933],[138.2975,-1.9335],[138.2975,-1.934],[138.296,-1.934],[138.2955,-1.9335],[138.294,-1.9335],[138.2805,-1.9435],[138.2505,-1.96],[138.236,-1.962],[138.236,-1.9625],[138.2315,-1.968],[138.2325,-1.9745],[138.2425,-1.9775],[138.2415,-1.979],[138.2335,-1.978],[138.2325,-1.979],[138.232,-1.9795],[138.233,-1.9805],[138.2365,-1.9825],[138.24,-1.992],[138.241,-1.992],[138.244,-1.9885],[138.2465,-1.9845],[138.2525,-1.9895],[138.25,-1.989],[138.2475,-1.9885],[138.245,-1.9915],[138.25,-1.9995],[138.2525,-1.9945],[138.2545,-1.99],[138.258,-1.993],[138.2565,-1.9955],[138.2605,-1.9985],[138.2575,-2.017],[138.257,-2.019],[138.263,-2.025],[138.2625,-2.026],[138.2665,-2.0275],[138.279,-2.0285],[138.3255,-2.0155],[138.342,-2.008],[138.3495,-2.0085],[138.371,-1.989],[138.364,-1.976],[138.3315,-1.954]]]},"properties":{"code":"91.10.09.2005","name":"Murara"}},{"type":"Feature","geometry":{"type":"Polygon","coordinates":[[[138.6205,-2.165],[138.6115,-2.1655],[138.5995,-2.151],[138.58,-2.1495],[138.574,-2.1505],[138.567,-2.152],[138.5655,-2.152],[138.5625,-2.152],[138.561,-2.1515],[138.561,-2.1525],[138.561,-2.155],[138.5615,-2.1605],[138.5615,-2.162],[138.5655,-2.166],[138.554,-2.192],[138.517,-2.219],[138.528,-2.2305],[138.523,-2.24],[138.4915,-2.268],[138.467,-2.2795],[138.467,-2.2825],[138.467,-2.283],[138.4665,-2.285],[138.4655,-2.3215],[138.4555,-2.3305],[138.4465,-2.331],[138.4475,-2.349],[138.445,-2.3495],[138.4385,-2.3385],[138.4375,-2.3415],[138.4375,-2.3455],[138.4235,-2.3445],[138.421,-2.3455],[138.4215,-2.352],[138.422,-2.3565],[138.4215,-2.3565],[138.417,-2.358],[138.415,-2.356],[138.411,-2.356],[138.406,-2.3545],[138.405,-2.355],[138.402,-2.3625],[138.401,-2.365],[138.4,-2.3655],[138.398,-2.366],[138.3955,-2.3805],[138.385,-2.3885],[138.3825,-2.3895],[138.3835,-2.393],[138.3915,-2.401],[138.3935,-2.405],[138.4085,-2.4165],[138.411,-2.4175],[138.42,-2.4295],[138.4205,-2.4425],[138.414,-2.4525],[138.418,-2.459],[138.419,-2.4615],[138.4215,-2.4615],[138.436,-2.459],[138.447,-2.4425],[138.462,-2.434],[138.462,-2.4305],[138.4605,-2.4245],[138.4695,-2.4115],[138.476,-2.3755],[138.533,-2.3365],[138.543,-2.263],[138.5415,-2.263],[138.542,-2.2625],[138.55,-2.2585],[138.5595,-2.244],[138.58,-2.232],[138.588,-2.213],[138.5895,-2.214],[138.5895,-2.2135],[138.591,-2.2115],[138.5925,-2.2145],[138.6005,-2.2095],[138.608,-2.1915],[138.6215,-2.183],[138.6205,-2.165]]]},"properties":{"code":"91.10.09.2006","name":"Sasawapece"}},{"type":"Feature","geometry":{"type":"Polygon","coordinates":[[[138.402,-2.0315],[138.39,-2.021],[138.3875,-2.017],[138.3665,-2.0235],[138.3375,-2.0445],[138.334,-2.051],[138.335,-2.052],[138.316,-2.0525],[138.315,-2.053],[138.3155,-2.0555],[138.3145,-2.0575],[138.3135,-2.0585],[138.313,-2.0595],[138.31,-2.057],[138.31,-2.0575],[138.309,-2.0575],[138.3095,-2.0585],[138.3075,-2.0615],[138.3065,-2.062],[138.3035,-2.059],[138.3025,-2.06],[138.3025,-2.0635],[138.3055,-2.0675],[138.31,-2.0695],[138.3075,-2.0775],[138.2945,-2.0785],[138.3025,-2.091],[138.3035,-2.1105],[138.295,-2.1255],[138.2945,-2.1285],[138.3025,-2.149],[138.302,-2.1535],[138.33,-2.15],[138.3485,-2.1555],[138.3615,-2.1565],[138.3635,-2.1555],[138.369,-2.1515],[138.37,-2.1505],[138.3885,-2.1445],[138.398,-2.148],[138.3995,-2.1435],[138.4,-2.143],[138.407,-2.1335],[138.4075,-2.135],[138.408,-2.134],[138.4095,-2.1325],[138.41,-2.132],[138.4095,-2.129],[138.411,-2.129],[138.4095,-2.126],[138.411,-2.126],[138.4095,-2.1255],[138.406,-2.1185],[138.422,-2.1075],[138.4235,-2.107],[138.425,-2.0955],[138.426,-2.092],[138.42,-2.0695],[138.413,-2.0655],[138.4035,-2.0435],[138.402,-2.0315]]]},"properties":{"code":"91.10.09.2011","name":"Maniwa"}},{"type":"Feature","geometry":{"type":"Polygon","coordinates":[[[138.561,-2.1515],[138.5605,-2.1515],[138.5605,-2.151],[138.558,-2.1485],[138.5575,-2.148],[138.554,-2.1495],[138.549,-2.149],[138.532,-2.117],[138.5295,-2.1185],[138.527,-2.1205],[138.5235,-2.125],[138.522,-2.1275],[138.5195,-2.1315],[138.518,-2.133],[138.5155,-2.135],[138.4855,-2.1425],[138.4785,-2.148],[138.4665,-2.169],[138.4705,-2.189],[138.4685,-2.208],[138.47,-2.209],[138.4685,-2.2095],[138.468,-2.2095],[138.4655,-2.2085],[138.464,-2.2095],[138.463,-2.208],[138.4625,-2.21],[138.4595,-2.2165],[138.441,-2.223],[138.4405,-2.2235],[138.438,-2.226],[138.4365,-2.232],[138.438,-2.2435],[138.462,-2.272],[138.463,-2.273],[138.4665,-2.278],[138.467,-2.2795],[138.4915,-2.268],[138.523,-2.24],[138.528,-2.2305],[138.517,-2.219],[138.554,-2.192],[138.5655,-2.166],[138.5615,-2.162],[138.5615,-2.1605],[138.561,-2.155],[138.561,-2.1525],[138.561,-2.1515]]]},"properties":{"code":"91.10.09.2012","name":"Surimania"}},{"type":"Feature","geometry":{"type":"Polygon","coordinates":[[[138.5335,-2.1075],[138.5255,-2.099],[138.504,-2.0605],[138.49,-2.0415],[138.485,-2.0185],[138.4795,-2.012],[138.4665,-1.984],[138.466,-1.986],[138.4665,-1.9865],[138.466,-1.988],[138.447,-1.989],[138.416,-2.0125],[138.402,-2.0315],[138.4035,-2.0435],[138.413,-2.0655],[138.42,-2.0695],[138.426,-2.092],[138.425,-2.0955],[138.4235,-2.107],[138.446,-2.1095],[138.449,-2.105],[138.4515,-2.102],[138.4675,-2.1005],[138.482,-2.1035],[138.4995,-2.121],[138.5145,-2.124],[138.517,-2.132],[138.518,-2.133],[138.5195,-2.1315],[138.522,-2.1275],[138.5235,-2.125],[138.527,-2.1205],[138.5295,-2.1185],[138.533,-2.115],[138.534,-2.1145],[138.5325,-2.112],[138.533,-2.109],[138.5335,-2.1075]]]},"properties":{"code":"91.10.09.2013","name":"Kwawitania"}},{"type":"Feature","geometry":{"type":"Polygon","coordinates":[[[138.213,-1.8745],[138.2115,-1.8725],[138.2115,-1.87],[138.211,-1.868],[138.2105,-1.864],[138.2085,-1.8645],[138.203,-1.865],[138.199,-1.868],[138.196,-1.869],[138.177,-1.8715],[138.1745,-1.8685],[138.173,-1.8685],[138.16,-1.8735],[138.16,-1.8765],[138.155,-1.8765],[138.15,-1.886],[138.1485,-1.891],[138.1505,-1.892],[138.1515,-1.892],[138.155,-1.8895],[138.164,-1.891],[138.1615,-1.8955],[138.171,-1.907],[138.1695,-1.912],[138.1675,-1.9135],[138.1565,-1.908],[138.149,-1.9155],[138.151,-1.9215],[138.1545,-1.9205],[138.154,-1.9165],[138.154,-1.914],[138.1615,-1.914],[138.1675,-1.923],[138.169,-1.929],[138.1665,-1.9295],[138.161,-1.929],[138.16,-1.9315],[138.164,-1.9355],[138.169,-1.9325],[138.1735,-1.9305],[138.176,-1.9275],[138.18,-1.9225],[138.1795,-1.9175],[138.18,-1.916],[138.182,-1.9165],[138.185,-1.916],[138.1875,-1.914],[138.1905,-1.9145],[138.19,-1.919],[138.1845,-1.92],[138.1865,-1.925],[138.1875,-1.9265],[138.189,-1.93],[138.1865,-1.9335],[138.185,-1.939],[138.185,-1.9425],[138.187,-1.9455],[138.188,-1.9455],[138.192,-1.9435],[138.219,-1.938],[138.221,-1.938],[138.224,-1.941],[138.229,-1.944],[138.2255,-1.9465],[138.226,-1.949],[138.236,-1.962],[138.2505,-1.96],[138.2805,-1.9435],[138.294,-1.9335],[138.294,-1.9315],[138.2935,-1.9305],[138.294,-1.9245],[138.2765,-1.922],[138.251,-1.914],[138.2465,-1.908],[138.2475,-1.8945],[138.237,-1.884],[138.2175,-1.8785],[138.2145,-1.8775],[138.213,-1.877],[138.213,-1.875],[138.213,-1.8745]]]},"properties":{"code":"91.10.09.2014","name":"Bina"}},{"type":"Feature","geometry":{"type":"Polygon","coordinates":[[[138.7045,-1.8265],[138.6825,-1.8035],[138.6675,-1.7935],[138.642,-1.784],[138.6425,-1.8],[138.63,-1.8645],[138.621,-1.883],[138.62,-1.884],[138.621,-1.888],[138.62,-1.888],[138.6195,-1.8865],[138.618,-1.886],[138.6165,-1.886],[138.6165,-1.8875],[138.6175,-1.8895],[138.615,-1.8885],[138.609,-1.8855],[138.6075,-1.8845],[138.608,-1.888],[138.6055,-1.887],[138.6045,-1.89],[138.604,-1.89],[138.6035,-1.8885],[138.602,-1.887],[138.601,-1.887],[138.6025,-1.889],[138.597,-1.9195],[138.5985,-1.931],[138.599,-1.9325],[138.6,-1.935],[138.6045,-1.9335],[138.6165,-1.939],[138.6205,-1.939],[138.6275,-1.9365],[138.6295,-1.932],[138.6315,-1.928],[138.635,-1.9255],[138.6365,-1.9235],[138.6405,-1.913],[138.6395,-1.898],[138.664,-1.861],[138.6935,-1.84],[138.7045,-1.8265]]]},"properties":{"code":"91.10.12.2001","name":"Amsira"}},{"type":"Feature","geometry":{"type":"Polygon","coordinates":[[[138.7255,-1.8455],[138.7045,-1.8265],[138.6935,-1.84],[138.664,-1.861],[138.6395,-1.898],[138.6405,-1.913],[138.6365,-1.9235],[138.6355,-1.9245],[138.6615,-1.9425],[138.6635,-1.9415],[138.6695,-1.9435],[138.673,-1.946],[138.6765,-1.947],[138.679,-1.948],[138.68,-1.9475],[138.6805,-1.9475],[138.682,-1.9485],[138.7065,-1.9435],[138.7085,-1.943],[138.71,-1.9415],[138.712,-1.938],[138.713,-1.937],[138.714,-1.936],[138.7145,-1.935],[138.7155,-1.934],[138.7245,-1.925],[138.71,-1.907],[138.693,-1.882],[138.6935,-1.878],[138.7115,-1.857],[138.7255,-1.8455]]]},"properties":{"code":"91.10.12.2002","name":"Siaratesa"}},{"type":"Feature","geometry":{"type":"Polygon","coordinates":[[[138.6635,-2.088],[138.6575,-2.0695],[138.651,-2.059],[138.6345,-2.0475],[138.6015,-2.0435],[138.6025,-2.0535],[138.598,-2.057],[138.5965,-2.056],[138.5955,-2.0585],[138.594,-2.0615],[138.591,-2.0635],[138.5835,-2.0655],[138.5835,-2.0665],[138.5835,-2.0685],[138.5825,-2.0685],[138.582,-2.0695],[138.5825,-2.07],[138.5815,-2.071],[138.5705,-2.086],[138.542,-2.0995],[138.54,-2.101],[138.5345,-2.105],[138.5345,-2.1065],[138.533,-2.109],[138.5325,-2.112],[138.534,-2.1145],[138.533,-2.115],[138.532,-2.117],[138.549,-2.149],[138.554,-2.1495],[138.5575,-2.148],[138.558,-2.1485],[138.5605,-2.151],[138.5605,-2.1515],[138.561,-2.1515],[138.5625,-2.152],[138.5655,-2.152],[138.567,-2.152],[138.574,-2.1505],[138.58,-2.1495],[138.5995,-2.151],[138.6115,-2.1655],[138.6205,-2.165],[138.659,-2.138],[138.664,-2.131],[138.669,-2.1055],[138.6635,-2.088]]]},"properties":{"code":"91.10.12.2003","name":"Munukania"}},{"type":"Feature","geometry":{"type":"Polygon","coordinates":[[[138.743,-1.94],[138.725,-1.9255],[138.7245,-1.925],[138.7155,-1.934],[138.7145,-1.935],[138.714,-1.936],[138.713,-1.937],[138.712,-1.938],[138.71,-1.9415],[138.709,-1.943],[138.71,-1.9455],[138.71,-1.948],[138.71,-1.949],[138.7085,-1.9555],[138.71,-1.9585],[138.704,-1.989],[138.695,-2.0075],[138.7165,-2.01],[138.737,-2.004],[138.7435,-2.003],[138.7515,-2.0025],[138.7515,-2.001],[138.7535,-1.9835],[138.755,-1.9815],[138.7545,-1.9795],[138.754,-1.979],[138.7545,-1.978],[138.755,-1.9775],[138.754,-1.9765],[138.754,-1.9755],[138.753,-1.974],[138.7525,-1.968],[138.752,-1.965],[138.75,-1.9635],[138.7505,-1.9605],[138.749,-1.958],[138.7465,-1.9505],[138.7465,-1.949],[138.745,-1.945],[138.743,-1.94]]]},"properties":{"code":"91.10.12.2004","name":"Kasukwe"}},{"type":"Feature","geometry":{"type":"Polygon","coordinates":[[[138.709,-1.943],[138.7085,-1.943],[138.7065,-1.9435],[138.682,-1.9485],[138.6815,-1.948],[138.6805,-1.9485],[138.68,-1.95],[138.6805,-1.9535],[138.6665,-1.9695],[138.651,-1.9835],[138.636,-1.984],[138.6355,-1.9845],[138.634,-1.998],[138.624,-2.0115],[138.6235,-2.0125],[138.623,-2.0145],[138.622,-2.0165],[138.611,-2.016],[138.6075,-2.0195],[138.6035,-2.0275],[138.6005,-2.0285],[138.597,-2.033],[138.5995,-2.038],[138.6015,-2.0435],[138.6345,-2.0475],[138.651,-2.059],[138.6575,-2.0695],[138.6635,-2.088],[138.6785,-2.0825],[138.687,-2.0885],[138.7075,-2.0905],[138.718,-2.084],[138.7255,-2.0645],[138.7445,-2.0525],[138.746,-2.0505],[138.749,-2.0475],[138.7515,-2.032],[138.748,-2.011],[138.748,-2.0095],[138.7485,-2.009],[138.75,-2.0065],[138.7515,-2.0025],[138.7435,-2.003],[138.737,-2.004],[138.7165,-2.01],[138.695,-2.0075],[138.704,-1.989],[138.71,-1.9585],[138.7085,-1.9555],[138.71,-1.949],[138.71,-1.948],[138.71,-1.9455],[138.709,-1.943]]]},"properties":{"code":"91.10.12.2005","name":"Wapo"}},{"type":"Feature","geometry":{"type":"Polygon","coordinates":[[[138.6815,-1.948],[138.6805,-1.9475],[138.679,-1.948],[138.6765,-1.947],[138.673,-1.946],[138.6695,-1.9435],[138.6635,-1.9415],[138.6615,-1.9425],[138.6355,-1.9245],[138.635,-1.9255],[138.6315,-1.928],[138.6295,-1.932],[138.6275,-1.9365],[138.6205,-1.939],[138.6165,-1.939],[138.6045,-1.9335],[138.5975,-1.9355],[138.59,-1.937],[138.5875,-1.935],[138.577,-1.9385],[138.567,-1.937],[138.5565,-1.9375],[138.549,-1.9315],[138.548,-1.9325],[138.541,-1.9355],[138.5405,-1.936],[138.5415,-1.9375],[138.543,-1.9435],[138.54,-1.946],[138.5395,-1.9485],[138.5425,-1.9475],[138.5465,-1.9555],[138.548,-1.954],[138.549,-1.954],[138.5495,-1.9605],[138.5395,-1.9695],[138.5315,-1.968],[138.5295,-1.969],[138.531,-1.9755],[138.541,-1.9965],[138.5405,-1.9995],[138.5355,-2],[138.535,-2.0015],[138.533,-2.002],[138.533,-2.0045],[138.5325,-2.007],[138.5305,-2.009],[138.527,-2.0105],[138.528,-2.0105],[138.532,-2.0225],[138.5315,-2.024],[138.532,-2.0245],[138.5345,-2.0235],[138.54,-2.023],[138.544,-2.024],[138.5465,-2.034],[138.5695,-2.041],[138.5775,-2.04],[138.595,-2.0515],[138.5945,-2.054],[138.5965,-2.056],[138.598,-2.057],[138.6025,-2.0535],[138.6015,-2.0435],[138.5995,-2.038],[138.597,-2.033],[138.6005,-2.0285],[138.6035,-2.0275],[138.6075,-2.0195],[138.611,-2.016],[138.622,-2.0165],[138.623,-2.0145],[138.6235,-2.0125],[138.624,-2.0115],[138.634,-1.998],[138.6355,-1.9845],[138.636,-1.984],[138.651,-1.9835],[138.6665,-1.9695],[138.6805,-1.9535],[138.68,-1.95],[138.6805,-1.9485],[138.6815,-1.948]]]},"properties":{"code":"91.10.12.2008","name":"Angkasa Dua"}},{"type":"Feature","geometry":{"type":"Polygon","coordinates":[[[138.9025,-1.9565],[138.8945,-1.9555],[138.8775,-1.969],[138.8895,-1.982],[138.8925,-2.011],[138.898,-2.01],[138.9215,-2.0045],[138.928,-2.005],[138.931,-2.0055],[138.933,-2.004],[138.9325,-2.002],[138.9155,-1.9985],[138.9145,-1.9975],[138.9225,-1.983],[138.924,-1.9845],[138.9235,-1.974],[138.9135,-1.9795],[138.9005,-1.968],[138.9025,-1.967],[138.9025,-1.9565]]]},"properties":{"code":"91.10.13.2001","name":"Holmafen"}},{"type":"Feature","geometry":{"type":"Polygon","coordinates":[[[138.859,-1.9825],[138.8395,-1.983],[138.8365,-1.97],[138.834,-1.9685],[138.8315,-1.967],[138.8185,-1.9845],[138.818,-1.986],[138.8195,-1.9875],[138.8215,-1.9915],[138.8215,-1.9925],[138.821,-1.9925],[138.8175,-1.9895],[138.814,-1.986],[138.813,-1.9865],[138.8135,-1.985],[138.8125,-1.985],[138.811,-1.9825],[138.8085,-1.982],[138.7985,-1.9925],[138.7825,-1.988],[138.7695,-1.991],[138.7605,-1.984],[138.7545,-1.978],[138.754,-1.9785],[138.7545,-1.979],[138.7545,-1.9795],[138.755,-1.9815],[138.7535,-1.9835],[138.7515,-2.001],[138.7515,-2.0025],[138.7515,-2.0035],[138.75,-2.0065],[138.7485,-2.009],[138.748,-2.0095],[138.748,-2.011],[138.7515,-2.032],[138.749,-2.0475],[138.7485,-2.048],[138.7495,-2.0505],[138.75,-2.0545],[138.7525,-2.059],[138.761,-2.0665],[138.7655,-2.079],[138.7635,-2.107],[138.7735,-2.116],[138.7725,-2.1295],[138.762,-2.1335],[138.7985,-2.1355],[138.803,-2.134],[138.805,-2.134],[138.8055,-2.1335],[138.806,-2.1325],[138.807,-2.131],[138.807,-2.1295],[138.808,-2.128],[138.8195,-2.116],[138.8255,-2.0905],[138.831,-2.0785],[138.833,-2.0605],[138.8435,-2.0295],[138.86,-2.021],[138.8645,-2.013],[138.8615,-2],[138.865,-1.9915],[138.859,-1.9825]]]},"properties":{"code":"91.10.13.2002","name":"Sewan"}},{"type":"Feature","geometry":{"type":"Polygon","coordinates":[[[138.8775,-1.969],[138.859,-1.963],[138.859,-1.9825],[138.865,-1.9915],[138.8615,-2],[138.8645,-2.013],[138.891,-2.011],[138.8925,-2.011],[138.8895,-1.982],[138.8775,-1.969]]]},"properties":{"code":"91.10.13.2004","name":"Ebram"}},{"type":"Feature","geometry":{"type":"Polygon","coordinates":[[[138.762,-2.1335],[138.7725,-2.1295],[138.7735,-2.116],[138.7635,-2.107],[138.7655,-2.079],[138.761,-2.0665],[138.7525,-2.059],[138.75,-2.0545],[138.7495,-2.0505],[138.7485,-2.048],[138.7445,-2.0525],[138.7255,-2.0645],[138.718,-2.084],[138.7075,-2.0905],[138.687,-2.0885],[138.6785,-2.0825],[138.6635,-2.088],[138.669,-2.1055],[138.664,-2.131],[138.66,-2.137],[138.688,-2.151],[138.708,-2.1405],[138.7215,-2.138],[138.7315,-2.1415],[138.737,-2.1335],[138.762,-2.1335]]]},"properties":{"code":"91.10.13.2005","name":"Binyer"}},{"type":"Feature","geometry":{"type":"Polygon","coordinates":[[[138.823,-1.943],[138.8025,-1.9315],[138.7895,-1.9205],[138.774,-1.93],[138.7475,-1.953],[138.749,-1.958],[138.7505,-1.9605],[138.75,-1.9635],[138.752,-1.965],[138.7525,-1.968],[138.753,-1.974],[138.754,-1.9755],[138.754,-1.9765],[138.755,-1.9775],[138.7545,-1.978],[138.7605,-1.984],[138.7695,-1.991],[138.7825,-1.988],[138.7985,-1.9925],[138.8085,-1.982],[138.8085,-1.9795],[138.812,-1.96],[138.823,-1.943]]]},"properties":{"code":"91.10.13.2006","name":"Bagaiserwar Dua"}},{"type":"Feature","geometry":{"type":"Polygon","coordinates":[[[138.8375,-1.95],[138.823,-1.943],[138.812,-1.96],[138.8085,-1.9795],[138.811,-1.9825],[138.8125,-1.985],[138.8135,-1.985],[138.813,-1.9865],[138.814,-1.986],[138.8175,-1.9895],[138.821,-1.9925],[138.8215,-1.9925],[138.8215,-1.9915],[138.8195,-1.9875],[138.818,-1.986],[138.8185,-1.9845],[138.8315,-1.967],[138.8325,-1.965],[138.8345,-1.963],[138.833,-1.961],[138.8375,-1.95]]]},"properties":{"code":"91.10.13.2007","name":"Waskey"}},{"type":"Feature","geometry":{"type":"Polygon","coordinates":[[[138.859,-1.963],[138.8375,-1.95],[138.833,-1.961],[138.8345,-1.963],[138.8325,-1.965],[138.8315,-1.967],[138.834,-1.9685],[138.8365,-1.97],[138.8395,-1.983],[138.859,-1.9825],[138.859,-1.963]]]},"properties":{"code":"91.10.13.2008","name":"Tanjung Batu"}},{"type":"Feature","geometry":{"type":"Polygon","coordinates":[[[138.9715,-1.97],[138.906,-1.9555],[138.9025,-1.9565],[138.9025,-1.967],[138.9005,-1.968],[138.9135,-1.9795],[138.9235,-1.974],[138.924,-1.9845],[138.9225,-1.983],[138.9145,-1.9975],[138.9155,-1.9985],[138.9325,-2.002],[138.933,-2.004],[138.931,-2.0055],[138.928,-2.005],[138.9215,-2.0045],[138.921,-2.0085],[138.9215,-2.009],[138.9235,-2.0095],[138.9275,-2.008],[138.9225,-2.0205],[138.936,-2.0325],[138.9525,-2.026],[138.9595,-2.0295],[138.9635,-2.0525],[138.9635,-2.055],[138.9645,-2.056],[138.9645,-2.0565],[138.9805,-2.0535],[138.9815,-2.0515],[138.984,-2.048],[138.9865,-2.046],[138.9895,-2.0455],[138.992,-2.045],[138.989,-2.0375],[138.982,-2.0065],[138.9755,-1.9915],[138.9715,-1.97]]]},"properties":{"code":"91.10.14.2001","name":"Arare"}},{"type":"Feature","geometry":{"type":"Polygon","coordinates":[[[139.002,-1.9805],[139.002,-1.9785],[139.003,-1.9775],[138.99,-1.9725],[138.9715,-1.97],[138.9755,-1.9915],[138.982,-2.0065],[138.989,-2.0375],[138.995,-2.0485],[139.0105,-2.038],[139.014,-2.0325],[139.015,-2.0295],[139.018,-1.999],[139.0025,-1.9835],[139.004,-1.9845],[139.005,-1.985],[139.0055,-1.984],[139.0045,-1.9815],[139.003,-1.9825],[139.0025,-1.982],[139.0025,-1.981],[139.0025,-1.9805],[139.002,-1.9805]]]},"properties":{"code":"91.10.14.2002","name":"Wakde"}},{"type":"Feature","geometry":{"type":"Polygon","coordinates":[[[139.0885,-2.02],[139.061,-2.0105],[139.046,-2.0255],[139.0435,-2.0285],[139.0575,-2.035],[139.0645,-2.037],[139.066,-2.0385],[139.076,-2.0395],[139.0885,-2.02]]]},"properties":{"code":"91.10.14.2003","name":"Timron/Keder"}},{"type":"Feature","geometry":{"type":"Polygon","coordinates":[[[139.099,-2.0235],[139.0885,-2.02],[139.076,-2.0395],[139.082,-2.04],[139.0825,-2.0375],[139.084,-2.035],[139.0835,-2.037],[139.085,-2.037],[139.087,-2.033],[139.084,-2.0315],[139.087,-2.031],[139.099,-2.0235]]]},"properties":{"code":"91.10.14.2004","name":"Dabe"}},{"type":"Feature","geometry":{"type":"Polygon","coordinates":[[[139.128,-2.0345],[139.1135,-2.028],[139.109,-2.048],[139.119,-2.05],[139.128,-2.0345]]]},"properties":{"code":"91.10.14.2005","name":"Nengke"}},{"type":"Feature","geometry":{"type":"Polygon","coordinates":[[[139.132,-2.039],[139.128,-2.0345],[139.119,-2.05],[139.127,-2.052],[139.132,-2.039]]]},"properties":{"code":"91.10.14.2006","name":"Finyabor"}},{"type":"Feature","geometry":{"type":"Polygon","coordinates":[[[139.1135,-2.028],[139.099,-2.0235],[139.087,-2.031],[139.084,-2.0315],[139.087,-2.033],[139.085,-2.037],[139.0835,-2.037],[139.084,-2.035],[139.0825,-2.0375],[139.0825,-2.0395],[139.0835,-2.039],[139.086,-2.0375],[139.0875,-2.04],[139.0885,-2.041],[139.0875,-2.0415],[139.097,-2.0455],[139.109,-2.048],[139.1135,-2.028]]]},"properties":{"code":"91.10.14.2012","name":"Tambrawar"}},{"type":"Feature","geometry":{"type":"Polygon","coordinates":[[[139.061,-2.0105],[139.0465,-2.005],[139.0225,-1.9915],[139.003,-1.9775],[139.002,-1.9785],[139.002,-1.9805],[139.0025,-1.9805],[139.0025,-1.981],[139.0025,-1.982],[139.003,-1.9825],[139.0045,-1.9815],[139.0055,-1.984],[139.005,-1.985],[139.004,-1.9845],[139.0025,-1.9835],[139.018,-1.999],[139.015,-2.0295],[139.014,-2.0325],[139.0105,-2.038],[138.995,-2.0485],[138.992,-2.045],[138.9895,-2.0455],[138.9865,-2.046],[138.984,-2.048],[138.9815,-2.0515],[138.9805,-2.0535],[138.9645,-2.0565],[138.961,-2.066],[138.962,-2.0675],[138.9635,-2.072],[138.9625,-2.073],[138.956,-2.081],[138.9545,-2.097],[138.953,-2.0995],[138.9525,-2.1],[138.955,-2.119],[138.9525,-2.1265],[138.96,-2.127],[138.9765,-2.13],[138.9815,-2.104],[138.9945,-2.0905],[138.9965,-2.089],[138.997,-2.0875],[138.998,-2.0795],[139,-2.0775],[139.015,-2.0685],[139.017,-2.0655],[139.0195,-2.06],[139.041,-2.0305],[139.0425,-2.029],[139.046,-2.0255],[139.061,-2.0105]]]},"properties":{"code":"91.10.14.2013","name":"Keder Lama"}},{"type":"Feature","geometry":{"type":"Polygon","coordinates":[[[139.1425,-2.0475],[139.132,-2.039],[139.127,-2.052],[139.1235,-2.0515],[139.124,-2.057],[139.1225,-2.066],[139.1225,-2.071],[139.123,-2.074],[139.1255,-2.0765],[139.1315,-2.082],[139.137,-2.0845],[139.1405,-2.086],[139.14,-2.08],[139.1425,-2.0475]]]},"properties":{"code":"91.10.14.2014","name":"Finyabor Dua"}},{"type":"Feature","geometry":{"type":"Polygon","coordinates":[[[139.076,-2.0395],[139.066,-2.0385],[139.0645,-2.037],[139.0575,-2.035],[139.0435,-2.0285],[139.041,-2.0305],[139.0195,-2.06],[139.017,-2.0655],[139.015,-2.0685],[139,-2.0775],[138.998,-2.0795],[138.997,-2.0875],[138.9965,-2.089],[138.9945,-2.0905],[138.9815,-2.104],[138.9765,-2.13],[139.0185,-2.1365],[139.037,-2.1345],[139.0385,-2.133],[139.0445,-2.132],[139.0505,-2.129],[139.0585,-2.1245],[139.063,-2.108],[139.0545,-2.096],[139.0545,-2.094],[139.0545,-2.092],[139.054,-2.0915],[139.0535,-2.092],[139.053,-2.094],[139.0515,-2.091],[139.0525,-2.088],[139.0645,-2.0755],[139.0665,-2.059],[139.0805,-2.056],[139.0855,-2.0425],[139.0885,-2.041],[139.0875,-2.04],[139.086,-2.0375],[139.0835,-2.039],[139.0825,-2.0395],[139.082,-2.04],[139.076,-2.0395]]]},"properties":{"code":"91.10.14.2015","name":"Dabe Dua"}},{"type":"Feature","geometry":{"type":"Polygon","coordinates":[[[139.097,-2.0455],[139.0885,-2.042],[139.0875,-2.0415],[139.0855,-2.0425],[139.0805,-2.056],[139.0665,-2.059],[139.0645,-2.0755],[139.0525,-2.088],[139.0515,-2.091],[139.053,-2.094],[139.0535,-2.092],[139.054,-2.0915],[139.0545,-2.092],[139.0545,-2.094],[139.0545,-2.096],[139.063,-2.108],[139.0585,-2.1245],[139.0505,-2.129],[139.0445,-2.132],[139.0385,-2.133],[139.037,-2.1345],[139.0385,-2.134],[139.039,-2.136],[139.039,-2.137],[139.0365,-2.138],[139.0365,-2.1375],[139.036,-2.138],[139.0355,-2.1385],[139.0385,-2.139],[139.0385,-2.14],[139.037,-2.1395],[139.0355,-2.141],[139.0355,-2.1425],[139.0335,-2.143],[139.032,-2.1445],[139.0315,-2.145],[139.034,-2.1525],[139.018,-2.176],[139.0165,-2.1775],[139.0035,-2.1805],[138.9755,-2.1915],[138.9765,-2.2],[138.9645,-2.2075],[138.9535,-2.2035],[138.953,-2.206],[138.9515,-2.2045],[138.9505,-2.206],[138.952,-2.21],[138.952,-2.2105],[138.953,-2.2125],[138.9545,-2.2145],[138.9555,-2.215],[138.9615,-2.215],[138.964,-2.2175],[138.963,-2.22],[138.963,-2.234],[138.964,-2.233],[138.9655,-2.2355],[138.9675,-2.238],[138.971,-2.2395],[138.9715,-2.2395],[138.972,-2.2395],[138.972,-2.24],[138.973,-2.242],[138.977,-2.248],[138.9795,-2.25],[138.98,-2.2505],[138.98,-2.251],[138.9795,-2.252],[138.9785,-2.253],[138.977,-2.2565],[138.978,-2.2585],[138.9845,-2.2615],[138.985,-2.264],[138.986,-2.266],[138.9865,-2.269],[138.9925,-2.2815],[138.9935,-2.2995],[138.9895,-2.31],[138.991,-2.3125],[138.995,-2.316],[138.9935,-2.318],[138.992,-2.319],[138.9865,-2.322],[138.9855,-2.3265],[138.993,-2.3425],[139,-2.3635],[139.0015,-2.3665],[139.004,-2.3675],[139.004,-2.37],[139.0045,-2.3725],[139.0035,-2.3725],[138.995,-2.375],[138.9885,-2.385],[138.9785,-2.39],[138.9535,-2.414],[138.9455,-2.4255],[138.9225,-2.4495],[138.92,-2.4575],[138.9145,-2.4675],[138.9135,-2.4725],[138.9165,-2.4755],[138.917,-2.4775],[138.9155,-2.4935],[138.9185,-2.5155],[138.9105,-2.5315],[138.9085,-2.5655],[138.913,-2.575],[138.926,-2.5805],[138.947,-2.5775],[138.9585,-2.5865],[138.97,-2.5895],[138.9755,-2.599],[138.991,-2.596],[138.996,-2.5915],[139.017,-2.5995],[139.0255,-2.6115],[139.034,-2.611],[139.0455,-2.5975],[139.054,-2.5945],[139.079,-2.601],[139.082,-2.612],[139.0935,-2.5945],[139.093,-2.5865],[139.104,-2.569],[139.107,-2.5575],[139.103,-2.515],[139.1075,-2.4775],[139.1135,-2.4535],[139.118,-2.4485],[139.1235,-2.422],[139.122,-2.395],[139.118,-2.375],[139.1265,-2.375],[139.1355,-2.3655],[139.134,-2.34],[139.1485,-2.334],[139.16,-2.305],[139.168,-2.261],[139.1665,-2.249],[139.1675,-2.2115],[139.163,-2.17],[139.1645,-2.15],[139.1535,-2.146],[139.139,-2.147],[139.1355,-2.142],[139.136,-2.141],[139.135,-2.1145],[139.1405,-2.086],[139.137,-2.0845],[139.1315,-2.082],[139.1255,-2.0765],[139.123,-2.074],[139.1225,-2.071],[139.1225,-2.066],[139.124,-2.057],[139.1235,-2.0515],[139.119,-2.05],[139.109,-2.048],[139.097,-2.0455]]]},"properties":{"code":"91.10.14.2016","name":"Nengke Dua"}},{"type":"Feature","geometry":{"type":"Polygon","coordinates":[[[139.699,-2.328],[139.669,-2.3055],[139.645,-2.292],[139.645,-2.2945],[139.6455,-2.3],[139.645,-2.301],[139.644,-2.302],[139.6425,-2.3015],[139.6425,-2.3005],[139.638,-2.3045],[139.6365,-2.3055],[139.6305,-2.3085],[139.6295,-2.307],[139.6255,-2.303],[139.624,-2.306],[139.62,-2.315],[139.6285,-2.322],[139.628,-2.323],[139.6205,-2.3225],[139.6195,-2.3235],[139.6085,-2.3245],[139.606,-2.324],[139.608,-2.333],[139.61,-2.3465],[139.6115,-2.348],[139.6115,-2.351],[139.61,-2.353],[139.6045,-2.368],[139.6045,-2.3705],[139.6005,-2.3865],[139.6185,-2.3975],[139.62,-2.398],[139.6215,-2.4115],[139.621,-2.413],[139.613,-2.42],[139.6125,-2.4215],[139.6135,-2.423],[139.6145,-2.4235],[139.6235,-2.4285],[139.624,-2.4355],[139.5965,-2.4375],[139.5885,-2.5235],[139.606,-2.5135],[139.613,-2.5215],[139.631,-2.508],[139.6455,-2.5115],[139.652,-2.499],[139.6545,-2.475],[139.6625,-2.47],[139.66,-2.4565],[139.65,-2.4465],[139.65,-2.4265],[139.654,-2.4165],[139.658,-2.393],[139.667,-2.379],[139.663,-2.3645],[139.674,-2.348],[139.699,-2.328]]]},"properties":{"code":"91.10.15.2001","name":"Gwinjaya"}},{"type":"Feature","geometry":{"type":"Polygon","coordinates":[[[139.711,-2.361],[139.7135,-2.3595],[139.72,-2.3525],[139.725,-2.347],[139.7275,-2.3445],[139.699,-2.328],[139.674,-2.348],[139.663,-2.3645],[139.667,-2.379],[139.658,-2.393],[139.654,-2.4165],[139.65,-2.4265],[139.65,-2.4465],[139.66,-2.4565],[139.6625,-2.47],[139.6545,-2.475],[139.652,-2.499],[139.6455,-2.5115],[139.631,-2.508],[139.613,-2.5215],[139.606,-2.5135],[139.5885,-2.5235],[139.5865,-2.5405],[139.5875,-2.54],[139.5945,-2.5365],[139.616,-2.538],[139.6225,-2.5435],[139.6475,-2.5435],[139.6495,-2.552],[139.66,-2.555],[139.6645,-2.554],[139.6685,-2.5535],[139.6715,-2.552],[139.674,-2.5505],[139.675,-2.5435],[139.678,-2.536],[139.684,-2.5325],[139.682,-2.514],[139.6875,-2.504],[139.6865,-2.486],[139.674,-2.4755],[139.6775,-2.4565],[139.673,-2.425],[139.68,-2.4085],[139.691,-2.397],[139.6915,-2.3935],[139.686,-2.3785],[139.6855,-2.3775],[139.688,-2.372],[139.6875,-2.371],[139.7045,-2.364],[139.7075,-2.362],[139.711,-2.361]]]},"properties":{"code":"91.10.15.2002","name":"Tamar Sari"}},{"type":"Feature","geometry":{"type":"Polygon","coordinates":[[[139.732,-2.3625],[139.732,-2.3595],[139.7245,-2.348],[139.72,-2.3525],[139.7135,-2.3595],[139.711,-2.361],[139.7075,-2.362],[139.7045,-2.364],[139.6875,-2.371],[139.688,-2.372],[139.6855,-2.3775],[139.686,-2.3785],[139.6915,-2.3935],[139.691,-2.397],[139.68,-2.4085],[139.673,-2.425],[139.6775,-2.4565],[139.674,-2.4755],[139.6865,-2.486],[139.6875,-2.504],[139.682,-2.514],[139.684,-2.5325],[139.678,-2.536],[139.675,-2.5435],[139.674,-2.5505],[139.676,-2.548],[139.678,-2.546],[139.6925,-2.5485],[139.7075,-2.5435],[139.7165,-2.5345],[139.7185,-2.535],[139.7195,-2.5165],[139.7115,-2.4845],[139.7185,-2.479],[139.7155,-2.465],[139.723,-2.4475],[139.7155,-2.439],[139.704,-2.4355],[139.699,-2.4215],[139.7085,-2.393],[139.718,-2.397],[139.7205,-2.397],[139.7235,-2.394],[139.724,-2.3915],[139.7265,-2.376],[139.728,-2.374],[139.7315,-2.367],[139.73,-2.366],[139.7315,-2.365],[139.732,-2.3645],[139.732,-2.3625]]]},"properties":{"code":"91.10.15.2003","name":"Mawes Mukti"}},{"type":"Feature","geometry":{"type":"Polygon","coordinates":[[[139.794,-2.3715],[139.752,-2.357],[139.7275,-2.3445],[139.725,-2.347],[139.7245,-2.348],[139.732,-2.3595],[139.732,-2.3625],[139.732,-2.3645],[139.7315,-2.365],[139.73,-2.366],[139.7315,-2.367],[139.728,-2.374],[139.7265,-2.376],[139.724,-2.3915],[139.7235,-2.394],[139.7205,-2.397],[139.718,-2.397],[139.7085,-2.393],[139.699,-2.4215],[139.704,-2.4355],[139.7155,-2.439],[139.723,-2.4475],[139.7155,-2.465],[139.7185,-2.479],[139.7115,-2.4845],[139.7195,-2.5165],[139.7185,-2.535],[139.7205,-2.534],[139.7255,-2.5395],[139.741,-2.537],[139.7595,-2.5285],[139.7635,-2.526],[139.7625,-2.524],[139.7765,-2.5015],[139.773,-2.4895],[139.7815,-2.4855],[139.7765,-2.4705],[139.7635,-2.462],[139.7525,-2.448],[139.7505,-2.4465],[139.7545,-2.437],[139.7515,-2.4335],[139.746,-2.417],[139.752,-2.4075],[139.771,-2.407],[139.779,-2.4035],[139.78,-2.4045],[139.7855,-2.407],[139.7865,-2.4075],[139.7875,-2.4075],[139.7875,-2.4065],[139.785,-2.4025],[139.785,-2.401],[139.7905,-2.3955],[139.792,-2.3955],[139.7925,-2.3975],[139.795,-2.399],[139.7935,-2.3945],[139.791,-2.383],[139.794,-2.3715]]]},"properties":{"code":"91.10.15.2004","name":"Mawesday"}},{"type":"Feature","geometry":{"type":"Polygon","coordinates":[[[139.9995,-2.36],[139.99,-2.3595],[139.962,-2.3655],[139.9475,-2.366],[139.887,-2.3745],[139.822,-2.3755],[139.8105,-2.3785],[139.794,-2.3715],[139.791,-2.383],[139.7935,-2.3945],[139.795,-2.399],[139.7925,-2.3975],[139.792,-2.3955],[139.7905,-2.3955],[139.785,-2.401],[139.785,-2.4025],[139.7875,-2.4065],[139.7875,-2.4075],[139.7865,-2.4075],[139.7865,-2.408],[139.793,-2.408],[139.9715,-2.4415],[139.983,-2.4365],[139.9855,-2.4285],[139.986,-2.4275],[139.989,-2.421],[139.983,-2.4035],[139.989,-2.385],[139.9955,-2.38],[139.9995,-2.36]]]},"properties":{"code":"91.10.15.2005","name":"Kapitiau"}}]}