{"type":"FeatureCollection","features":[{"type":"Feature","geometry":{"type":"Polygon","coordinates":[[[134.658,-2.7185],[134.6355,-2.715],[134.6325,-2.7135],[134.6295,-2.713],[134.623,-2.713],[134.6215,-2.713],[134.62,-2.7135],[134.611,-2.7125],[134.603,-2.7115],[134.5845,-2.7235],[134.5775,-2.7235],[134.542,-2.72],[134.5385,-2.72],[134.5335,-2.719],[134.532,-2.719],[134.5285,-2.7195],[134.5265,-2.72],[134.5195,-2.7225],[134.518,-2.722],[134.516,-2.721],[134.512,-2.72],[134.509,-2.7235],[134.5055,-2.726],[134.504,-2.725],[134.5115,-2.7335],[134.5345,-2.7285],[134.539,-2.728],[134.549,-2.733],[134.57,-2.735],[134.6075,-2.73],[134.626,-2.7345],[134.643,-2.73],[134.647,-2.732],[134.651,-2.735],[134.6515,-2.735],[134.6585,-2.7345],[134.658,-2.7185]]]},"properties":{"code":"92.07.01.1001","name":"Wasior I","latitude":-2.7247986930976538,"longitude":134.59252215669233}},{"type":"Feature","geometry":{"type":"Polygon","coordinates":[[[134.6545,-2.681],[134.6525,-2.6815],[134.648,-2.679],[134.644,-2.677],[134.642,-2.677],[134.6375,-2.6755],[134.626,-2.674],[134.624,-2.674],[134.6135,-2.6715],[134.59,-2.6805],[134.56,-2.6805],[134.548,-2.6765],[134.545,-2.6755],[134.5435,-2.675],[134.5405,-2.674],[134.538,-2.6735],[134.535,-2.6735],[134.5315,-2.6735],[134.529,-2.6745],[134.527,-2.675],[134.4965,-2.6835],[134.495,-2.683],[134.494,-2.683],[134.5005,-2.6995],[134.502,-2.7],[134.5015,-2.701],[134.529,-2.692],[134.5825,-2.6925],[134.605,-2.6885],[134.6225,-2.697],[134.6415,-2.6995],[134.643,-2.6985],[134.6585,-2.6945],[134.6545,-2.681]]]},"properties":{"code":"92.07.01.2002","name":"Rado","latitude":-2.6857096685098383,"longitude":134.57770083737475}},{"type":"Feature","geometry":{"type":"Polygon","coordinates":[[[134.655,-2.5775],[134.646,-2.58],[134.6175,-2.581],[134.6055,-2.5765],[134.5905,-2.5795],[134.5785,-2.5875],[134.5665,-2.5855],[134.555,-2.594],[134.5285,-2.5915],[134.525,-2.591],[134.522,-2.5905],[134.521,-2.5905],[134.5195,-2.5925],[134.5165,-2.5935],[134.5145,-2.592],[134.5005,-2.601],[134.476,-2.611],[134.471,-2.6145],[134.4745,-2.6415],[134.488,-2.6555],[134.4985,-2.657],[134.5165,-2.6515],[134.532,-2.656],[134.577,-2.657],[134.5865,-2.6475],[134.59,-2.6315],[134.604,-2.631],[134.6115,-2.6375],[134.6155,-2.639],[134.62,-2.637],[134.647,-2.646],[134.6585,-2.6455],[134.6565,-2.639],[134.6615,-2.6125],[134.657,-2.606],[134.658,-2.5895],[134.655,-2.5775]]]},"properties":{"code":"92.07.01.2003","name":"Dotir","latitude":-2.618511464335462,"longitude":134.56904324593282}},{"type":"Feature","geometry":{"type":"Polygon","coordinates":[[[134.651,-2.735],[134.647,-2.732],[134.643,-2.73],[134.626,-2.7345],[134.6075,-2.73],[134.57,-2.735],[134.549,-2.733],[134.539,-2.728],[134.5345,-2.7285],[134.5115,-2.7335],[134.5055,-2.7495],[134.509,-2.7635],[134.5185,-2.759],[134.523,-2.755],[134.551,-2.746],[134.557,-2.752],[134.568,-2.751],[134.5725,-2.7435],[134.6065,-2.7405],[134.629,-2.743],[134.6475,-2.7375],[134.6505,-2.735],[134.651,-2.735]]]},"properties":{"code":"92.07.01.2004","name":"Maniwak","latitude":-2.7406042114431464,"longitude":134.56345942150176}},{"type":"Feature","geometry":{"type":"Polygon","coordinates":[[[134.657,-2.709],[134.607,-2.701],[134.5945,-2.7065],[134.57,-2.7095],[134.5605,-2.7065],[134.5305,-2.7075],[134.529,-2.706],[134.5265,-2.707],[134.5245,-2.7075],[134.523,-2.711],[134.519,-2.7105],[134.514,-2.714],[134.5115,-2.7135],[134.509,-2.7145],[134.5005,-2.716],[134.504,-2.725],[134.5055,-2.726],[134.509,-2.7235],[134.512,-2.72],[134.516,-2.721],[134.518,-2.722],[134.5195,-2.7225],[134.5265,-2.72],[134.5285,-2.7195],[134.532,-2.719],[134.5335,-2.719],[134.5385,-2.72],[134.542,-2.72],[134.5775,-2.7235],[134.5845,-2.7235],[134.603,-2.7115],[134.611,-2.7125],[134.62,-2.7135],[134.6215,-2.713],[134.623,-2.713],[134.6295,-2.713],[134.6325,-2.7135],[134.6355,-2.715],[134.658,-2.7185],[134.657,-2.709]]]},"properties":{"code":"92.07.01.2005","name":"Wasior II","latitude":-2.7131889134319276,"longitude":134.57680892480718}},{"type":"Feature","geometry":{"type":"Polygon","coordinates":[[[134.6585,-2.6455],[134.647,-2.646],[134.62,-2.637],[134.6155,-2.639],[134.6115,-2.6375],[134.604,-2.631],[134.59,-2.6315],[134.5865,-2.6475],[134.577,-2.657],[134.532,-2.656],[134.5165,-2.6515],[134.4985,-2.657],[134.4985,-2.675],[134.494,-2.683],[134.495,-2.683],[134.4965,-2.6835],[134.527,-2.675],[134.529,-2.6745],[134.5315,-2.6735],[134.535,-2.6735],[134.538,-2.6735],[134.5405,-2.674],[134.5435,-2.675],[134.545,-2.6755],[134.548,-2.6765],[134.56,-2.6805],[134.59,-2.6805],[134.6135,-2.6715],[134.624,-2.674],[134.626,-2.674],[134.6375,-2.6755],[134.642,-2.677],[134.644,-2.677],[134.648,-2.679],[134.6525,-2.6815],[134.6545,-2.681],[134.6585,-2.6455]]]},"properties":{"code":"92.07.01.2006","name":"Maimari","latitude":-2.6613758364695568,"longitude":134.58506276120616}},{"type":"Feature","geometry":{"type":"Polygon","coordinates":[[[134.6585,-2.6945],[134.643,-2.6985],[134.6415,-2.6995],[134.6225,-2.697],[134.605,-2.6885],[134.5825,-2.6925],[134.529,-2.692],[134.5015,-2.701],[134.502,-2.7],[134.5005,-2.6995],[134.5005,-2.716],[134.509,-2.7145],[134.5115,-2.7135],[134.514,-2.714],[134.519,-2.7105],[134.523,-2.711],[134.5245,-2.7075],[134.5265,-2.707],[134.529,-2.706],[134.5305,-2.7075],[134.5605,-2.7065],[134.57,-2.7095],[134.5945,-2.7065],[134.607,-2.701],[134.657,-2.709],[134.6585,-2.6945]]]},"properties":{"code":"92.07.01.2007","name":"Moru","latitude":-2.70069171255992,"longitude":134.5708260002927}},{"type":"Feature","geometry":{"type":"Polygon","coordinates":[[[134.6375,-2.758],[134.631,-2.751],[134.618,-2.7525],[134.582,-2.7525],[134.575,-2.757],[134.5365,-2.772],[134.5165,-2.781],[134.518,-2.786],[134.53,-2.7795],[134.5475,-2.7795],[134.5745,-2.7645],[134.588,-2.7615],[134.5985,-2.7615],[134.617,-2.7685],[134.6225,-2.7695],[134.629,-2.7675],[134.633,-2.765],[134.6335,-2.765],[134.635,-2.764],[134.6375,-2.758]]]},"properties":{"code":"92.07.01.2009","name":"Manopi","latitude":-2.764792496594872,"longitude":134.5823647551393}},{"type":"Feature","geometry":{"type":"Polygon","coordinates":[[[134.6335,-2.765],[134.633,-2.765],[134.629,-2.7675],[134.6225,-2.7695],[134.617,-2.7685],[134.5985,-2.7615],[134.588,-2.7615],[134.5745,-2.7645],[134.5475,-2.7795],[134.53,-2.7795],[134.518,-2.786],[134.5245,-2.791],[134.5375,-2.787],[134.5585,-2.787],[134.5855,-2.7805],[134.626,-2.7775],[134.627,-2.776],[134.6315,-2.77],[134.6325,-2.7665],[134.633,-2.7655],[134.6335,-2.765]]]},"properties":{"code":"92.07.01.2010","name":"Ramiki","latitude":-2.7753854062897814,"longitude":134.57922233384767}},{"type":"Feature","geometry":{"type":"Polygon","coordinates":[[[134.6585,-2.7345],[134.6515,-2.735],[134.6505,-2.735],[134.6475,-2.7375],[134.629,-2.743],[134.6065,-2.7405],[134.5725,-2.7435],[134.568,-2.751],[134.557,-2.752],[134.551,-2.746],[134.523,-2.755],[134.5185,-2.759],[134.5135,-2.7655],[134.5165,-2.781],[134.5365,-2.772],[134.575,-2.757],[134.582,-2.7525],[134.618,-2.7525],[134.631,-2.751],[134.6375,-2.758],[134.65,-2.7555],[134.654,-2.7555],[134.658,-2.757],[134.6605,-2.756],[134.6585,-2.7345]]]},"properties":{"code":"92.07.01.2011","name":"Iriati","latitude":-2.7539322133957502,"longitude":134.5815458400246}},{"type":"Feature","geometry":{"type":"Polygon","coordinates":[[[134.29,-2.485],[134.2745,-2.475],[134.276,-2.4655],[134.2645,-2.461],[134.268,-2.4515],[134.259,-2.4465],[134.2605,-2.431],[134.253,-2.427],[134.2475,-2.44],[134.238,-2.4365],[134.236,-2.428],[134.224,-2.422],[134.224,-2.431],[134.1985,-2.4265],[134.1915,-2.425],[134.191,-2.44],[134.1905,-2.442],[134.192,-2.443],[134.2045,-2.4525],[134.2125,-2.466],[134.2145,-2.479],[134.221,-2.484],[134.221,-2.487],[134.221,-2.488],[134.218,-2.49],[134.214,-2.5075],[134.216,-2.5155],[134.217,-2.517],[134.218,-2.5175],[134.219,-2.5205],[134.235,-2.5115],[134.274,-2.501],[134.282,-2.489],[134.29,-2.485]]]},"properties":{"code":"92.07.02.2001","name":"Wamesa Tengah","latitude":-2.468981591815482,"longitude":134.238232253608}},{"type":"Feature","geometry":{"type":"Polygon","coordinates":[[[134.3765,-2.521],[134.37,-2.524],[134.3695,-2.549],[134.3825,-2.5745],[134.3915,-2.5735],[134.394,-2.5565],[134.3935,-2.5365],[134.378,-2.5265],[134.3765,-2.521]]]},"properties":{"code":"92.07.02.2002","name":"Yopmeos","latitude":-2.5475819223297687,"longitude":134.38184787502888}},{"type":"Feature","geometry":{"type":"Polygon","coordinates":[[[134.307,-2.499],[134.307,-2.491],[134.3015,-2.494],[134.307,-2.499]]]},"properties":{"code":"92.07.02.2004","name":"Sombokoro","latitude":-2.4891994204341477,"longitude":134.30397878353108}},{"type":"Feature","geometry":{"type":"Polygon","coordinates":[[[134.224,-2.422],[134.2135,-2.4145],[134.199,-2.3915],[134.2035,-2.383],[134.202,-2.376],[134.202,-2.3805],[134.201,-2.3835],[134.1975,-2.388],[134.1945,-2.3975],[134.1945,-2.401],[134.1955,-2.405],[134.195,-2.41],[134.1925,-2.4225],[134.1985,-2.4265],[134.224,-2.431],[134.224,-2.422]]]},"properties":{"code":"92.07.02.2007","name":"Windesi","latitude":-2.414834415609667,"longitude":134.205223214588}},{"type":"Feature","geometry":{"type":"Polygon","coordinates":[[[134.3605,-2.64],[134.357,-2.6245],[134.3425,-2.6035],[134.3355,-2.5865],[134.3395,-2.577],[134.3335,-2.5665],[134.337,-2.549],[134.3195,-2.544],[134.3205,-2.5295],[134.311,-2.5155],[134.3125,-2.507],[134.3,-2.505],[134.2905,-2.494],[134.29,-2.485],[134.282,-2.489],[134.274,-2.501],[134.235,-2.5115],[134.219,-2.5205],[134.22,-2.5235],[134.22,-2.527],[134.2185,-2.5325],[134.219,-2.5335],[134.2195,-2.5325],[134.218,-2.544],[134.2195,-2.552],[134.2415,-2.559],[134.255,-2.5765],[134.252,-2.5845],[134.2625,-2.606],[134.2605,-2.6065],[134.26,-2.6075],[134.2615,-2.6085],[134.262,-2.6185],[134.261,-2.6215],[134.258,-2.631],[134.2575,-2.633],[134.2475,-2.648],[134.2485,-2.6495],[134.255,-2.666],[134.2665,-2.681],[134.2575,-2.703],[134.265,-2.7215],[134.2705,-2.725],[134.274,-2.745],[134.281,-2.7465],[134.2825,-2.746],[134.2825,-2.7455],[134.2825,-2.7445],[134.282,-2.744],[134.281,-2.7425],[134.2825,-2.7415],[134.2805,-2.7385],[134.282,-2.73],[134.284,-2.7285],[134.2965,-2.724],[134.2985,-2.721],[134.302,-2.7065],[134.3175,-2.7005],[134.333,-2.6875],[134.3315,-2.6835],[134.327,-2.677],[134.3255,-2.6715],[134.3265,-2.665],[134.328,-2.6625],[134.346,-2.656],[134.3605,-2.64]]]},"properties":{"code":"92.07.02.2010","name":"Sandey","latitude":-2.6044024279286315,"longitude":134.2903555680692}},{"type":"Feature","geometry":{"type":"Polygon","coordinates":[[[134.5785,-2.479],[134.5705,-2.4735],[134.5675,-2.456],[134.5575,-2.4565],[134.5325,-2.4495],[134.534,-2.4595],[134.5285,-2.468],[134.518,-2.4635],[134.5135,-2.4735],[134.543,-2.476],[134.5425,-2.488],[134.516,-2.4825],[134.506,-2.4925],[134.5235,-2.515],[134.542,-2.523],[134.544,-2.5505],[134.5345,-2.5535],[134.5665,-2.565],[134.5755,-2.553],[134.5835,-2.5065],[134.584,-2.504],[134.5845,-2.4925],[134.5785,-2.479]]]},"properties":{"code":"92.07.03.2001","name":"Aisandami","latitude":-2.506131998496571,"longitude":134.5522744631457}},{"type":"Feature","geometry":{"type":"Polygon","coordinates":[[[134.4665,-2.55],[134.46,-2.581],[134.462,-2.5935],[134.476,-2.602],[134.476,-2.611],[134.5005,-2.601],[134.5145,-2.592],[134.5165,-2.5935],[134.5195,-2.5925],[134.521,-2.5905],[134.522,-2.5905],[134.525,-2.591],[134.5285,-2.5915],[134.555,-2.594],[134.5665,-2.5855],[134.5665,-2.565],[134.5345,-2.5535],[134.4805,-2.556],[134.477,-2.5545],[134.4745,-2.554],[134.473,-2.5535],[134.4665,-2.55]]]},"properties":{"code":"92.07.03.2002","name":"Sobey","latitude":-2.576680762409909,"longitude":134.50934817664427}},{"type":"Feature","geometry":{"type":"Polygon","coordinates":[[[134.655,-2.5775],[134.6505,-2.551],[134.6505,-2.532],[134.642,-2.517],[134.641,-2.507],[134.629,-2.496],[134.632,-2.4765],[134.618,-2.4885],[134.6065,-2.4895],[134.5785,-2.479],[134.5845,-2.4925],[134.584,-2.504],[134.5835,-2.5065],[134.5755,-2.553],[134.5665,-2.565],[134.5665,-2.5855],[134.5785,-2.5875],[134.5905,-2.5795],[134.6055,-2.5765],[134.6175,-2.581],[134.646,-2.58],[134.655,-2.5775]]]},"properties":{"code":"92.07.03.2006","name":"Yopanggar","latitude":-2.537493403579226,"longitude":134.6109081781564}},{"type":"Feature","geometry":{"type":"Polygon","coordinates":[[[134.5345,-2.5535],[134.544,-2.5505],[134.542,-2.523],[134.5235,-2.515],[134.506,-2.4925],[134.487,-2.5115],[134.4725,-2.5305],[134.4665,-2.55],[134.473,-2.5535],[134.4745,-2.554],[134.477,-2.5545],[134.4805,-2.556],[134.5345,-2.5535]]]},"properties":{"code":"92.07.03.2011","name":"Sobey Indah","latitude":-2.5317085068468255,"longitude":134.5066813000937}},{"type":"Feature","geometry":{"type":"Polygon","coordinates":[[[134.5865,-2.7955],[134.5795,-2.7935],[134.5765,-2.794],[134.558,-2.798],[134.5475,-2.805],[134.533,-2.806],[134.5245,-2.807],[134.525,-2.8145],[134.527,-2.8155],[134.5435,-2.8185],[134.549,-2.8105],[134.551,-2.8115],[134.55,-2.8125],[134.553,-2.816],[134.554,-2.816],[134.556,-2.8155],[134.5605,-2.8135],[134.561,-2.8125],[134.579,-2.81],[134.584,-2.808],[134.5875,-2.8075],[134.588,-2.7985],[134.5865,-2.796],[134.5865,-2.7955]]]},"properties":{"code":"92.07.04.2002","name":"Wondiboy","latitude":-2.806600004822264,"longitude":134.55834410809223}},{"type":"Feature","geometry":{"type":"Polygon","coordinates":[[[134.624,-2.7865],[134.6225,-2.787],[134.6175,-2.7865],[134.595,-2.783],[134.5795,-2.784],[134.554,-2.7955],[134.5395,-2.7995],[134.5235,-2.8],[134.533,-2.806],[134.5475,-2.805],[134.558,-2.798],[134.5765,-2.794],[134.5795,-2.7935],[134.5865,-2.7955],[134.5885,-2.7955],[134.618,-2.7925],[134.6215,-2.79],[134.6235,-2.788],[134.624,-2.7865]]]},"properties":{"code":"92.07.04.2009","name":"Kabouw","latitude":-2.793768224229105,"longitude":134.5745411733947}},{"type":"Feature","geometry":{"type":"Polygon","coordinates":[[[134.5245,-2.807],[134.521,-2.814],[134.525,-2.8145],[134.5245,-2.807]]]},"properties":{"code":"92.07.04.2010","name":"Issui","latitude":-2.810619790572008,"longitude":134.52270629617462}},{"type":"Feature","geometry":{"type":"Polygon","coordinates":[[[134.626,-2.7775],[134.5855,-2.7805],[134.5585,-2.787],[134.5375,-2.787],[134.5245,-2.791],[134.5235,-2.8],[134.5395,-2.7995],[134.554,-2.7955],[134.5795,-2.784],[134.595,-2.783],[134.6175,-2.7865],[134.6225,-2.787],[134.624,-2.7865],[134.6255,-2.7835],[134.626,-2.7785],[134.626,-2.7775]]]},"properties":{"code":"92.07.04.2015","name":"Kaibi","latitude":-2.787641254394762,"longitude":134.57100011113806}},{"type":"Feature","geometry":{"type":"Polygon","coordinates":[[[134.1425,-2.1745],[134.115,-2.174],[134.1065,-2.171],[134.095,-2.1705],[134.0845,-2.171],[134.0815,-2.1715],[134.082,-2.173],[134.082,-2.178],[134.0825,-2.182],[134.077,-2.196],[134.0805,-2.2165],[134.085,-2.2195],[134.091,-2.2205],[134.1035,-2.2065],[134.112,-2.2045],[134.121,-2.205],[134.123,-2.2055],[134.125,-2.206],[134.139,-2.213],[134.1465,-2.1965],[134.142,-2.191],[134.1425,-2.1745]]]},"properties":{"code":"92.07.05.2001","name":"Sabubar","latitude":-2.19250958487538,"longitude":134.10972374699577}},{"type":"Feature","geometry":{"type":"Polygon","coordinates":[[[134.095,-2.0395],[134.0925,-2.033],[134.0915,-2.032],[134.089,-2.0325],[134.078,-2.0395],[134.0765,-2.04],[134.069,-2.0435],[134.062,-2.043],[134.0655,-2.066],[134.0715,-2.082],[134.0695,-2.093],[134.076,-2.1005],[134.0775,-2.101],[134.0925,-2.102],[134.0985,-2.1005],[134.1035,-2.0965],[134.1045,-2.098],[134.105,-2.0985],[134.1125,-2.097],[134.1035,-2.072],[134.107,-2.06],[134.1065,-2.044],[134.1055,-2.0425],[134.104,-2.0415],[134.0985,-2.042],[134.095,-2.0395]]]},"properties":{"code":"92.07.05.2002","name":"Ambuar","latitude":-2.0696682925995824,"longitude":134.08863868696434}},{"type":"Feature","geometry":{"type":"Polygon","coordinates":[[[134.1485,-2.2555],[134.1495,-2.2415],[134.136,-2.2365],[134.1395,-2.222],[134.125,-2.206],[134.123,-2.2055],[134.121,-2.205],[134.112,-2.2045],[134.1035,-2.2065],[134.091,-2.2205],[134.0915,-2.2205],[134.0925,-2.2235],[134.0865,-2.2345],[134.088,-2.237],[134.0895,-2.239],[134.0945,-2.263],[134.0895,-2.265],[134.09,-2.266],[134.093,-2.279],[134.1115,-2.277],[134.116,-2.259],[134.1345,-2.2475],[134.1485,-2.2555]]]},"properties":{"code":"92.07.05.2003","name":"Karuan","latitude":-2.2389719844938902,"longitude":134.11387831595133}},{"type":"Feature","geometry":{"type":"Polygon","coordinates":[[[134.1045,-2.098],[134.1035,-2.0965],[134.0985,-2.1005],[134.0925,-2.102],[134.0775,-2.101],[134.079,-2.1025],[134.0795,-2.1075],[134.08,-2.109],[134.0855,-2.152],[134.0815,-2.1665],[134.0815,-2.1715],[134.0845,-2.171],[134.095,-2.1705],[134.1065,-2.171],[134.115,-2.174],[134.1425,-2.1745],[134.1395,-2.1545],[134.1155,-2.15],[134.1125,-2.132],[134.1145,-2.108],[134.105,-2.0985],[134.1045,-2.098]]]},"properties":{"code":"92.07.05.2007","name":"Yarpate","latitude":-2.1412811674011647,"longitude":134.1043835934409}},{"type":"Feature","geometry":{"type":"Polygon","coordinates":[[[134.342,-2.08],[134.3385,-2.0785],[134.334,-2.0765],[134.328,-2.0725],[134.325,-2.0705],[134.3225,-2.068],[134.3155,-2.0785],[134.3195,-2.0855],[134.3135,-2.0965],[134.3375,-2.107],[134.3395,-2.114],[134.337,-2.1365],[134.35,-2.1675],[134.3545,-2.146],[134.3515,-2.1275],[134.3605,-2.099],[134.3645,-2.0945],[134.3645,-2.09],[134.3555,-2.0865],[134.3505,-2.0835],[134.342,-2.08]]]},"properties":{"code":"92.07.05.2009","name":"Nordiwar","latitude":-2.1071613699561635,"longitude":134.34165172635522}},{"type":"Feature","geometry":{"type":"Polygon","coordinates":[[[134.177,-1.8515],[134.177,-1.8475],[134.177,-1.846],[134.1775,-1.8435],[134.18,-1.8335],[134.1805,-1.8305],[134.1475,-1.8335],[134.147,-1.8445],[134.1705,-1.8535],[134.177,-1.8515]]]},"properties":{"code":"92.07.06.2001","name":"Yombekiri I","latitude":-1.8415182744232113,"longitude":134.1640677961667}},{"type":"Feature","geometry":{"type":"Polygon","coordinates":[[[134.172,-1.912],[134.1765,-1.9145],[134.191,-1.9045],[134.204,-1.8655],[134.2045,-1.8575],[134.2155,-1.8295],[134.208,-1.811],[134.197,-1.8225],[134.191,-1.827],[134.1825,-1.8245],[134.18,-1.8335],[134.1775,-1.8435],[134.177,-1.846],[134.177,-1.8475],[134.177,-1.856],[134.1755,-1.875],[134.1715,-1.8795],[134.1685,-1.887],[134.1685,-1.89],[134.172,-1.912]]]},"properties":{"code":"92.07.06.2002","name":"Isenebuay","latitude":-1.8614850758796084,"longitude":134.1902208735655}},{"type":"Feature","geometry":{"type":"Polygon","coordinates":[[[134.1595,-1.8805],[134.158,-1.878],[134.147,-1.881],[134.1445,-1.9005],[134.154,-1.9095],[134.158,-1.9295],[134.17,-1.932],[134.176,-1.9155],[134.172,-1.912],[134.1685,-1.89],[134.1685,-1.887],[134.1715,-1.8795],[134.1725,-1.8785],[134.1715,-1.8785],[134.1705,-1.8785],[134.165,-1.8805],[134.163,-1.8805],[134.161,-1.8815],[134.1595,-1.8805]]]},"properties":{"code":"92.07.06.2003","name":"Yomakan","latitude":-1.9077005049627516,"longitude":134.1582674592101}},{"type":"Feature","geometry":{"type":"Polygon","coordinates":[[[134.2205,-1.743],[134.203,-1.7415],[134.2035,-1.7535],[134.173,-1.8055],[134.176,-1.8125],[134.178,-1.814],[134.179,-1.8145],[134.185,-1.8155],[134.187,-1.8065],[134.1885,-1.7965],[134.19,-1.791],[134.206,-1.7665],[134.2145,-1.76],[134.2205,-1.743]]]},"properties":{"code":"92.07.06.2005","name":"Iseren","latitude":-1.773717884194912,"longitude":134.197030597196}},{"type":"Feature","geometry":{"type":"Polygon","coordinates":[[[134.177,-1.8515],[134.1705,-1.8535],[134.147,-1.8445],[134.1495,-1.872],[134.147,-1.881],[134.158,-1.878],[134.1595,-1.8805],[134.161,-1.8815],[134.163,-1.8805],[134.165,-1.8805],[134.1705,-1.8785],[134.1715,-1.8785],[134.1725,-1.8785],[134.1755,-1.875],[134.177,-1.856],[134.177,-1.8515]]]},"properties":{"code":"92.07.06.2008","name":"Yembekiri II","latitude":-1.8642823012055336,"longitude":134.16101933075336}},{"type":"Feature","geometry":{"type":"Polygon","coordinates":[[[134.197,-1.8225],[134.1965,-1.7955],[134.208,-1.7985],[134.22,-1.7935],[134.225,-1.78],[134.238,-1.7585],[134.2395,-1.747],[134.222,-1.734],[134.2205,-1.743],[134.2145,-1.76],[134.206,-1.7665],[134.19,-1.791],[134.1885,-1.7965],[134.187,-1.8065],[134.1825,-1.8245],[134.191,-1.827],[134.197,-1.8225]]]},"properties":{"code":"92.07.06.2009","name":"Yariari","latitude":-1.7779077694524237,"longitude":134.21259156906814}},{"type":"Feature","geometry":{"type":"Polygon","coordinates":[[[134.173,-1.8055],[134.1475,-1.8335],[134.1805,-1.8305],[134.181,-1.828],[134.1825,-1.824],[134.185,-1.8155],[134.179,-1.8145],[134.178,-1.814],[134.176,-1.8125],[134.173,-1.8055]]]},"properties":{"code":"92.07.06.2011","name":"Wetitindau","latitude":-1.8231210398632325,"longitude":134.16754555720786}},{"type":"Feature","geometry":{"type":"Polygon","coordinates":[[[134.597,-3.0395],[134.597,-3.0385],[134.596,-3.0355],[134.5955,-3.0345],[134.5865,-3.0225],[134.5845,-3.02],[134.5815,-3.02],[134.568,-3.017],[134.559,-2.9935],[134.5565,-2.992],[134.531,-2.9935],[134.532,-3],[134.528,-3.0015],[134.517,-2.9895],[134.4955,-2.9955],[134.4755,-2.9795],[134.4735,-2.978],[134.4685,-2.979],[134.4665,-2.979],[134.4635,-2.9805],[134.4585,-2.981],[134.457,-2.981],[134.456,-2.9835],[134.4545,-2.9865],[134.4635,-2.996],[134.491,-3.005],[134.504,-3.0135],[134.5215,-3.0195],[134.5285,-3.016],[134.5495,-3.0265],[134.579,-3.045],[134.597,-3.0395]]]},"properties":{"code":"92.07.07.2001","name":"Wosimi","latitude":-3.0091769255482497,"longitude":134.5313268381223}},{"type":"Feature","geometry":{"type":"Polygon","coordinates":[[[134.5495,-3.0265],[134.5285,-3.016],[134.5215,-3.0195],[134.504,-3.0135],[134.491,-3.005],[134.4635,-2.996],[134.4545,-2.9865],[134.444,-2.993],[134.4375,-3.0195],[134.4365,-3.021],[134.4265,-3.0245],[134.4245,-3.028],[134.424,-3.03],[134.4285,-3.054],[134.4125,-3.0605],[134.402,-3.077],[134.394,-3.08],[134.378,-3.0985],[134.374,-3.116],[134.3755,-3.1345],[134.375,-3.136],[134.3695,-3.1405],[134.369,-3.142],[134.3695,-3.144],[134.3685,-3.144],[134.3685,-3.145],[134.368,-3.158],[134.3685,-3.1595],[134.368,-3.1655],[134.3685,-3.167],[134.3695,-3.1715],[134.37,-3.1725],[134.3725,-3.174],[134.372,-3.1745],[134.373,-3.176],[134.374,-3.176],[134.375,-3.1755],[134.376,-3.1755],[134.3895,-3.191],[134.3885,-3.201],[134.4005,-3.2225],[134.421,-3.2205],[134.421,-3.222],[134.4215,-3.226],[134.4215,-3.227],[134.4155,-3.248],[134.4075,-3.257],[134.4105,-3.2825],[134.4315,-3.294],[134.433,-3.3055],[134.4435,-3.3225],[134.4525,-3.3305],[134.462,-3.329],[134.4835,-3.3485],[134.497,-3.3695],[134.502,-3.383],[134.5145,-3.4015],[134.518,-3.405],[134.518,-3.4025],[134.5205,-3.3985],[134.5245,-3.3935],[134.5435,-3.3935],[134.5405,-3.3785],[134.5435,-3.3695],[134.533,-3.3645],[134.534,-3.347],[134.524,-3.3375],[134.5125,-3.317],[134.4925,-3.309],[134.4795,-3.287],[134.48,-3.2735],[134.4885,-3.2595],[134.484,-3.2415],[134.4705,-3.218],[134.4705,-3.216],[134.472,-3.214],[134.4725,-3.211],[134.4715,-3.2065],[134.471,-3.2045],[134.471,-3.2025],[134.478,-3.2035],[134.4805,-3.204],[134.4975,-3.206],[134.504,-3.202],[134.5105,-3.177],[134.508,-3.1665],[134.5185,-3.1395],[134.537,-3.137],[134.547,-3.1195],[134.542,-3.09],[134.5455,-3.0565],[134.5525,-3.048],[134.5495,-3.0265]]]},"properties":{"code":"92.07.07.2002","name":"Sararti","latitude":-3.161046247210556,"longitude":134.46339391193607}},{"type":"Feature","geometry":{"type":"Polygon","coordinates":[[[134.597,-3.0395],[134.579,-3.045],[134.5495,-3.0265],[134.5525,-3.048],[134.5455,-3.0565],[134.542,-3.09],[134.547,-3.1195],[134.537,-3.137],[134.5185,-3.1395],[134.508,-3.1665],[134.5105,-3.177],[134.504,-3.202],[134.4975,-3.206],[134.4805,-3.204],[134.478,-3.2035],[134.471,-3.2025],[134.471,-3.2045],[134.4715,-3.2065],[134.4725,-3.211],[134.472,-3.214],[134.4705,-3.216],[134.4705,-3.218],[134.484,-3.2415],[134.4885,-3.2595],[134.48,-3.2735],[134.4795,-3.287],[134.4925,-3.309],[134.5125,-3.317],[134.524,-3.3375],[134.534,-3.347],[134.533,-3.3645],[134.5435,-3.3695],[134.5405,-3.3785],[134.5435,-3.3935],[134.5245,-3.3935],[134.5205,-3.3985],[134.518,-3.4025],[134.518,-3.405],[134.5185,-3.4055],[134.5195,-3.407],[134.5245,-3.415],[134.526,-3.4175],[134.524,-3.425],[134.5245,-3.426],[134.538,-3.43],[134.5585,-3.4475],[134.574,-3.468],[134.576,-3.4755],[134.5765,-3.4755],[134.578,-3.476],[134.5825,-3.481],[134.5855,-3.481],[134.5895,-3.4775],[134.5965,-3.476],[134.6015,-3.473],[134.6015,-3.47],[134.6035,-3.4635],[134.6055,-3.4625],[134.5975,-3.444],[134.597,-3.4305],[134.5885,-3.426],[134.591,-3.4095],[134.592,-3.4105],[134.5925,-3.4095],[134.5935,-3.404],[134.595,-3.401],[134.5955,-3.4005],[134.5975,-3.401],[134.6015,-3.402],[134.603,-3.402],[134.605,-3.403],[134.6065,-3.4025],[134.6075,-3.4025],[134.6085,-3.403],[134.6125,-3.404],[134.6145,-3.4045],[134.619,-3.4025],[134.6195,-3.4],[134.6155,-3.393],[134.62,-3.383],[134.62,-3.361],[134.607,-3.341],[134.5985,-3.312],[134.624,-3.319],[134.6315,-3.3125],[134.6535,-3.315],[134.6785,-3.296],[134.681,-3.2955],[134.693,-3.308],[134.71,-3.309],[134.7145,-3.301],[134.713,-3.3005],[134.708,-3.2965],[134.6935,-3.291],[134.693,-3.276],[134.684,-3.261],[134.685,-3.2405],[134.6785,-3.2275],[134.6785,-3.223],[134.6805,-3.2],[134.672,-3.192],[134.6675,-3.173],[134.648,-3.167],[134.641,-3.157],[134.644,-3.1445],[134.611,-3.1315],[134.609,-3.1275],[134.6145,-3.114],[134.6305,-3.115],[134.6255,-3.095],[134.6175,-3.085],[134.628,-3.075],[134.6155,-3.07],[134.6145,-3.069],[134.6165,-3.0555],[134.601,-3.046],[134.6005,-3.045],[134.6,-3.044],[134.5995,-3.043],[134.5995,-3.0425],[134.5975,-3.04],[134.597,-3.0395]]]},"properties":{"code":"92.07.07.2003","name":"Yabore","latitude":-3.2456244879574125,"longitude":134.58062639658414}},{"type":"Feature","geometry":{"type":"Polygon","coordinates":[[[134.4075,-3.257],[134.407,-3.2565],[134.406,-3.2565],[134.4055,-3.256],[134.4045,-3.2545],[134.4015,-3.2515],[134.4005,-3.251],[134.3995,-3.2515],[134.3975,-3.252],[134.395,-3.2525],[134.392,-3.253],[134.3785,-3.2625],[134.3755,-3.264],[134.372,-3.2635],[134.3715,-3.262],[134.3465,-3.2585],[134.3365,-3.2455],[134.3355,-3.244],[134.335,-3.242],[134.3335,-3.241],[134.3285,-3.241],[134.323,-3.243],[134.322,-3.245],[134.321,-3.249],[134.306,-3.25],[134.3045,-3.2505],[134.297,-3.2515],[134.295,-3.253],[134.296,-3.2555],[134.276,-3.2675],[134.2605,-3.268],[134.2615,-3.2885],[134.248,-3.3025],[134.247,-3.303],[134.244,-3.306],[134.2425,-3.3065],[134.244,-3.3065],[134.2445,-3.308],[134.2445,-3.311],[134.249,-3.314],[134.2505,-3.3175],[134.2495,-3.3175],[134.25,-3.319],[134.259,-3.3235],[134.261,-3.325],[134.2605,-3.327],[134.2595,-3.3325],[134.259,-3.3325],[134.259,-3.3315],[134.2595,-3.3345],[134.261,-3.336],[134.2615,-3.3375],[134.248,-3.352],[134.2525,-3.36],[134.253,-3.3635],[134.2565,-3.3655],[134.276,-3.3735],[134.2885,-3.3865],[134.2965,-3.4015],[134.316,-3.4215],[134.327,-3.439],[134.33,-3.454],[134.3425,-3.466],[134.344,-3.468],[134.3535,-3.4675],[134.3695,-3.473],[134.377,-3.465],[134.393,-3.4615],[134.4185,-3.4755],[134.4305,-3.479],[134.4355,-3.487],[134.446,-3.48],[134.4735,-3.486],[134.484,-3.4935],[134.502,-3.499],[134.509,-3.498],[134.521,-3.486],[134.533,-3.4795],[134.543,-3.4885],[134.551,-3.479],[134.5705,-3.479],[134.576,-3.4755],[134.574,-3.468],[134.5585,-3.4475],[134.538,-3.43],[134.5245,-3.426],[134.524,-3.425],[134.526,-3.4175],[134.5245,-3.415],[134.5195,-3.407],[134.5185,-3.4055],[134.5145,-3.4015],[134.502,-3.383],[134.497,-3.3695],[134.4835,-3.3485],[134.462,-3.329],[134.4525,-3.3305],[134.4435,-3.3225],[134.433,-3.3055],[134.4315,-3.294],[134.4105,-3.2825],[134.4075,-3.257]]]},"properties":{"code":"92.07.07.2004","name":"Oyaa","latitude":-3.3758022614897087,"longitude":134.393606135705}},{"type":"Feature","geometry":{"type":"Polygon","coordinates":[[[134.4255,-2.965],[134.412,-2.967],[134.3985,-2.9585],[134.388,-2.968],[134.373,-2.9665],[134.3635,-2.9845],[134.361,-2.9835],[134.3495,-2.978],[134.348,-2.974],[134.345,-2.977],[134.334,-2.9915],[134.3345,-3.0125],[134.323,-3.0225],[134.316,-3.0345],[134.314,-3.0495],[134.307,-3.059],[134.284,-3.0675],[134.284,-3.068],[134.2995,-3.074],[134.314,-3.0705],[134.3155,-3.0715],[134.325,-3.086],[134.3285,-3.1065],[134.342,-3.1165],[134.3295,-3.12],[134.3315,-3.131],[134.3245,-3.141],[134.324,-3.162],[134.328,-3.168],[134.315,-3.18],[134.3155,-3.192],[134.307,-3.2005],[134.3005,-3.2155],[134.3005,-3.2175],[134.3015,-3.2185],[134.3005,-3.226],[134.3,-3.2385],[134.303,-3.244],[134.305,-3.2485],[134.306,-3.25],[134.321,-3.249],[134.322,-3.245],[134.323,-3.243],[134.3285,-3.241],[134.3335,-3.241],[134.335,-3.242],[134.3355,-3.244],[134.3365,-3.2455],[134.3465,-3.2585],[134.3715,-3.262],[134.372,-3.2635],[134.3755,-3.264],[134.3785,-3.2625],[134.392,-3.253],[134.395,-3.2525],[134.3975,-3.252],[134.3995,-3.2515],[134.4005,-3.251],[134.4015,-3.2515],[134.4045,-3.2545],[134.4055,-3.256],[134.406,-3.2565],[134.407,-3.2565],[134.4075,-3.257],[134.4155,-3.248],[134.4215,-3.227],[134.4215,-3.226],[134.421,-3.222],[134.421,-3.2205],[134.4005,-3.2225],[134.3885,-3.201],[134.3895,-3.191],[134.376,-3.1755],[134.375,-3.1755],[134.374,-3.176],[134.373,-3.176],[134.372,-3.1745],[134.3725,-3.174],[134.37,-3.1725],[134.3695,-3.1715],[134.3685,-3.167],[134.368,-3.1655],[134.3685,-3.1595],[134.368,-3.158],[134.3685,-3.145],[134.3685,-3.144],[134.3695,-3.144],[134.369,-3.142],[134.3695,-3.1405],[134.375,-3.136],[134.3755,-3.1345],[134.374,-3.116],[134.378,-3.0985],[134.394,-3.08],[134.402,-3.077],[134.4125,-3.0605],[134.4285,-3.054],[134.424,-3.03],[134.4245,-3.028],[134.4265,-3.0245],[134.4365,-3.021],[134.4375,-3.0195],[134.444,-2.993],[134.4545,-2.9865],[134.456,-2.9835],[134.457,-2.981],[134.4565,-2.981],[134.448,-2.9655],[134.4415,-2.962],[134.4255,-2.965]]]},"properties":{"code":"92.07.07.2005","name":"Inyora","latitude":-3.1028250643496538,"longitude":134.36667432807775}},{"type":"Feature","geometry":{"type":"Polygon","coordinates":[[[134.306,-3.25],[134.305,-3.2485],[134.303,-3.244],[134.3,-3.2385],[134.3005,-3.226],[134.3015,-3.2185],[134.3005,-3.2175],[134.3005,-3.2155],[134.307,-3.2005],[134.3155,-3.192],[134.315,-3.18],[134.328,-3.168],[134.324,-3.162],[134.3245,-3.141],[134.3315,-3.131],[134.3295,-3.12],[134.342,-3.1165],[134.3285,-3.1065],[134.325,-3.086],[134.3155,-3.0715],[134.314,-3.0705],[134.2995,-3.074],[134.284,-3.068],[134.284,-3.0695],[134.289,-3.0845],[134.29,-3.1085],[134.259,-3.128],[134.2565,-3.119],[134.241,-3.116],[134.2295,-3.119],[134.2285,-3.0985],[134.223,-3.088],[134.2125,-3.0865],[134.204,-3.0775],[134.202,-3.098],[134.1975,-3.103],[134.1995,-3.123],[134.2075,-3.1355],[134.197,-3.1565],[134.198,-3.1815],[134.215,-3.2115],[134.223,-3.242],[134.213,-3.2475],[134.209,-3.257],[134.229,-3.2785],[134.2315,-3.299],[134.2415,-3.3065],[134.244,-3.306],[134.247,-3.303],[134.248,-3.3025],[134.2615,-3.2885],[134.2605,-3.268],[134.276,-3.2675],[134.296,-3.2555],[134.295,-3.253],[134.297,-3.2515],[134.3045,-3.2505],[134.306,-3.25]]]},"properties":{"code":"92.07.07.2006","name":"Undurara","latitude":-3.177752679238305,"longitude":134.2621164436592}},{"type":"Feature","geometry":{"type":"Polygon","coordinates":[[[134.525,-2.8145],[134.521,-2.814],[134.5195,-2.8185],[134.5265,-2.8215],[134.527,-2.8155],[134.525,-2.8145]]]},"properties":{"code":"92.07.08.2001","name":"Rasiei","latitude":-2.8172773833914557,"longitude":134.52373971257313}},{"type":"Feature","geometry":{"type":"Polygon","coordinates":[[[134.5265,-2.8215],[134.5195,-2.8185],[134.514,-2.8335],[134.517,-2.8345],[134.522,-2.835],[134.5265,-2.8265],[134.5265,-2.8215]]]},"properties":{"code":"92.07.08.2002","name":"Torey","latitude":-2.8273979400069766,"longitude":134.52068357453416}},{"type":"Feature","geometry":{"type":"Polygon","coordinates":[[[134.5915,-2.8305],[134.5915,-2.83],[134.5885,-2.814],[134.588,-2.8085],[134.5875,-2.8075],[134.584,-2.808],[134.579,-2.81],[134.561,-2.8125],[134.5605,-2.8135],[134.556,-2.8155],[134.554,-2.816],[134.553,-2.816],[134.55,-2.8125],[134.551,-2.8115],[134.549,-2.8105],[134.5435,-2.8185],[134.527,-2.8155],[134.5265,-2.8265],[134.522,-2.835],[134.5245,-2.8355],[134.526,-2.8355],[134.5295,-2.8355],[134.5515,-2.833],[134.5535,-2.833],[134.5915,-2.8305]]]},"properties":{"code":"92.07.08.2003","name":"Isey","latitude":-2.8235627310410374,"longitude":134.55751028989607}},{"type":"Feature","geometry":{"type":"Polygon","coordinates":[[[134.5915,-2.8305],[134.5535,-2.833],[134.5515,-2.833],[134.5295,-2.8355],[134.526,-2.8355],[134.5245,-2.8355],[134.522,-2.835],[134.517,-2.8345],[134.514,-2.8335],[134.5,-2.845],[134.5015,-2.846],[134.506,-2.847],[134.5255,-2.851],[134.5275,-2.8505],[134.5315,-2.8495],[134.5435,-2.8455],[134.573,-2.8495],[134.582,-2.846],[134.5835,-2.8455],[134.5855,-2.8445],[134.5895,-2.843],[134.592,-2.839],[134.592,-2.832],[134.5915,-2.8305]]]},"properties":{"code":"92.07.08.2004","name":"Uriemi","latitude":-2.8407476605259117,"longitude":134.54991620266503}},{"type":"Feature","geometry":{"type":"Polygon","coordinates":[[[134.593,-2.855],[134.592,-2.839],[134.5895,-2.843],[134.5855,-2.8445],[134.5835,-2.8455],[134.582,-2.846],[134.573,-2.8495],[134.5435,-2.8455],[134.5315,-2.8495],[134.5275,-2.8505],[134.5255,-2.851],[134.506,-2.847],[134.5015,-2.846],[134.5,-2.845],[134.4975,-2.8475],[134.504,-2.848],[134.506,-2.8485],[134.5055,-2.85],[134.5075,-2.852],[134.5085,-2.853],[134.512,-2.855],[134.5135,-2.8565],[134.5145,-2.8565],[134.515,-2.8565],[134.5175,-2.856],[134.5255,-2.8535],[134.5315,-2.8545],[134.549,-2.856],[134.551,-2.8555],[134.553,-2.8555],[134.5575,-2.857],[134.562,-2.858],[134.5635,-2.859],[134.567,-2.8615],[134.5695,-2.8625],[134.573,-2.861],[134.5775,-2.857],[134.5885,-2.857],[134.593,-2.856],[134.593,-2.855]]]},"properties":{"code":"92.07.08.2005","name":"Sasirei","latitude":-2.8518824800352958,"longitude":134.55444076268287}},{"type":"Feature","geometry":{"type":"Polygon","coordinates":[[[134.593,-2.856],[134.5885,-2.857],[134.5775,-2.857],[134.573,-2.861],[134.5695,-2.8625],[134.567,-2.8615],[134.5635,-2.859],[134.562,-2.858],[134.5575,-2.857],[134.553,-2.8555],[134.551,-2.8555],[134.549,-2.856],[134.5315,-2.8545],[134.5255,-2.8535],[134.5175,-2.856],[134.515,-2.8565],[134.5145,-2.8565],[134.5135,-2.8565],[134.512,-2.855],[134.5085,-2.853],[134.5075,-2.852],[134.5055,-2.85],[134.506,-2.8485],[134.504,-2.848],[134.4975,-2.8475],[134.496,-2.8595],[134.5,-2.862],[134.501,-2.868],[134.5,-2.871],[134.5035,-2.871],[134.5045,-2.8695],[134.511,-2.867],[134.5115,-2.8675],[134.5125,-2.868],[134.515,-2.8665],[134.528,-2.8585],[134.5335,-2.857],[134.537,-2.8595],[134.54,-2.8595],[134.551,-2.861],[134.5615,-2.8695],[134.5805,-2.8655],[134.5835,-2.866],[134.5845,-2.8675],[134.588,-2.868],[134.5905,-2.8685],[134.5945,-2.868],[134.598,-2.8665],[134.598,-2.865],[134.593,-2.857],[134.593,-2.856]]]},"properties":{"code":"92.07.08.2006","name":"Tandia","latitude":-2.860257715248701,"longitude":134.5422522241352}},{"type":"Feature","geometry":{"type":"Polygon","coordinates":[[[134.54,-2.8595],[134.537,-2.8595],[134.5335,-2.857],[134.528,-2.8585],[134.515,-2.8665],[134.5125,-2.868],[134.5115,-2.8675],[134.511,-2.867],[134.5045,-2.8695],[134.5035,-2.871],[134.5,-2.871],[134.501,-2.868],[134.5,-2.862],[134.496,-2.8595],[134.488,-2.8615],[134.4885,-2.8635],[134.4895,-2.8645],[134.491,-2.867],[134.4905,-2.869],[134.4925,-2.8695],[134.4905,-2.8705],[134.493,-2.874],[134.4915,-2.8735],[134.489,-2.8765],[134.4895,-2.879],[134.503,-2.885],[134.5055,-2.8825],[134.506,-2.8755],[134.5085,-2.873],[134.5125,-2.874],[134.514,-2.8735],[134.5145,-2.874],[134.516,-2.8765],[134.5155,-2.8795],[134.516,-2.8815],[134.518,-2.8825],[134.5335,-2.88],[134.5345,-2.88],[134.558,-2.9],[134.5785,-2.889],[134.584,-2.8915],[134.5955,-2.889],[134.6005,-2.896],[134.602,-2.8965],[134.6065,-2.8965],[134.6065,-2.8955],[134.5975,-2.868],[134.598,-2.8665],[134.5945,-2.868],[134.5905,-2.8685],[134.588,-2.868],[134.5845,-2.8675],[134.5835,-2.866],[134.5805,-2.8655],[134.5615,-2.8695],[134.551,-2.861],[134.54,-2.8595]]]},"properties":{"code":"92.07.08.2007","name":"Webi","latitude":-2.876610721889801,"longitude":134.54862522586885}},{"type":"Feature","geometry":{"type":"Polygon","coordinates":[[[134.488,-2.8615],[134.484,-2.8615],[134.481,-2.885],[134.48,-2.8885],[134.4745,-2.8895],[134.473,-2.8925],[134.471,-2.941],[134.466,-2.946],[134.4765,-2.945],[134.4785,-2.9455],[134.4795,-2.943],[134.4795,-2.9395],[134.4945,-2.938],[134.495,-2.936],[134.5005,-2.9245],[134.5135,-2.9165],[134.5485,-2.9225],[134.552,-2.9275],[134.5545,-2.927],[134.579,-2.919],[134.592,-2.924],[134.5965,-2.924],[134.6035,-2.923],[134.609,-2.907],[134.6085,-2.9055],[134.6065,-2.898],[134.6065,-2.8965],[134.602,-2.8965],[134.6005,-2.896],[134.5955,-2.889],[134.584,-2.8915],[134.5785,-2.889],[134.558,-2.9],[134.5345,-2.88],[134.5335,-2.88],[134.518,-2.8825],[134.516,-2.8815],[134.5155,-2.8795],[134.516,-2.8765],[134.5145,-2.874],[134.514,-2.8735],[134.5125,-2.874],[134.5085,-2.873],[134.506,-2.8755],[134.5055,-2.8825],[134.503,-2.885],[134.4895,-2.879],[134.489,-2.8765],[134.4915,-2.8735],[134.493,-2.874],[134.4905,-2.8705],[134.4925,-2.8695],[134.4905,-2.869],[134.491,-2.867],[134.4895,-2.8645],[134.4885,-2.8635],[134.488,-2.8615]]]},"properties":{"code":"92.07.08.2008","name":"Nggatum","latitude":-2.9057282885671514,"longitude":134.52923765941938}},{"type":"Feature","geometry":{"type":"Polygon","coordinates":[[[134.6035,-2.923],[134.5965,-2.924],[134.592,-2.924],[134.579,-2.919],[134.5545,-2.927],[134.552,-2.9275],[134.5485,-2.9225],[134.5135,-2.9165],[134.5005,-2.9245],[134.495,-2.936],[134.4945,-2.938],[134.4795,-2.9395],[134.4795,-2.943],[134.4785,-2.9455],[134.4765,-2.945],[134.466,-2.946],[134.4575,-2.9545],[134.466,-2.9795],[134.4665,-2.979],[134.4685,-2.979],[134.4735,-2.978],[134.4755,-2.9795],[134.4955,-2.9955],[134.517,-2.9895],[134.528,-3.0015],[134.532,-3],[134.531,-2.9935],[134.5565,-2.992],[134.559,-2.9935],[134.568,-3.017],[134.5815,-3.02],[134.5845,-3.02],[134.5865,-3.0225],[134.5955,-3.0345],[134.596,-3.0355],[134.597,-3.0385],[134.5975,-3.04],[134.5995,-3.0425],[134.5995,-3.043],[134.6,-3.044],[134.6005,-3.045],[134.601,-3.046],[134.6165,-3.0555],[134.6145,-3.069],[134.6155,-3.07],[134.628,-3.075],[134.631,-3.062],[134.6305,-3.0445],[134.627,-3.0355],[134.6285,-3.0295],[134.6285,-3.0275],[134.6265,-3.025],[134.62,-2.9985],[134.617,-2.998],[134.611,-2.9765],[134.6115,-2.964],[134.6195,-2.964],[134.6205,-2.964],[134.6205,-2.9635],[134.619,-2.9575],[134.6035,-2.923]]]},"properties":{"code":"92.07.08.2009","name":"Senderawoy","latitude":-2.9734777455854533,"longitude":134.55695870682055}},{"type":"Feature","geometry":{"type":"Polygon","coordinates":[[[134.4475,-2.831],[134.443,-2.8315],[134.4425,-2.832],[134.4395,-2.8365],[134.438,-2.839],[134.4355,-2.8415],[134.4345,-2.843],[134.4335,-2.8435],[134.4165,-2.842],[134.4155,-2.8395],[134.4105,-2.829],[134.388,-2.8205],[134.382,-2.8265],[134.345,-2.831],[134.3495,-2.8405],[134.3415,-2.8475],[134.332,-2.85],[134.3275,-2.8495],[134.3225,-2.848],[134.3235,-2.8495],[134.324,-2.852],[134.318,-2.8645],[134.317,-2.866],[134.33,-2.886],[134.329,-2.8875],[134.331,-2.899],[134.3245,-2.909],[134.325,-2.9105],[134.335,-2.9185],[134.3415,-2.933],[134.3525,-2.9435],[134.3565,-2.948],[134.3585,-2.9495],[134.3595,-2.9515],[134.36,-2.953],[134.3515,-2.9715],[134.3505,-2.973],[134.3495,-2.974],[134.348,-2.974],[134.3495,-2.978],[134.361,-2.9835],[134.3635,-2.9845],[134.373,-2.9665],[134.388,-2.968],[134.3985,-2.9585],[134.412,-2.967],[134.4255,-2.965],[134.4235,-2.9525],[134.4135,-2.9455],[134.4095,-2.927],[134.419,-2.911],[134.4295,-2.9105],[134.4335,-2.9],[134.448,-2.8955],[134.44,-2.886],[134.452,-2.8755],[134.4525,-2.8655],[134.4575,-2.861],[134.446,-2.8505],[134.4475,-2.831]]]},"properties":{"code":"92.07.09.2001","name":"Ambumi","latitude":-2.8917346643116155,"longitude":134.38386501912427}},{"type":"Feature","geometry":{"type":"Polygon","coordinates":[[[134.4475,-2.831],[134.4485,-2.8085],[134.4355,-2.7995],[134.4225,-2.784],[134.4215,-2.774],[134.402,-2.768],[134.3585,-2.7805],[134.3565,-2.78],[134.354,-2.7765],[134.3515,-2.777],[134.347,-2.7795],[134.3245,-2.7725],[134.317,-2.774],[134.3145,-2.775],[134.308,-2.7975],[134.31,-2.81],[134.3185,-2.827],[134.315,-2.8325],[134.3215,-2.844],[134.3225,-2.848],[134.3275,-2.8495],[134.332,-2.85],[134.3415,-2.8475],[134.3495,-2.8405],[134.345,-2.831],[134.382,-2.8265],[134.388,-2.8205],[134.4105,-2.829],[134.4155,-2.8395],[134.4165,-2.842],[134.4335,-2.8435],[134.4345,-2.843],[134.4355,-2.8415],[134.438,-2.839],[134.4395,-2.8365],[134.4425,-2.832],[134.443,-2.8315],[134.4475,-2.831]]]},"properties":{"code":"92.07.09.2002","name":"Nanimori","latitude":-2.8062956227047953,"longitude":134.37579646589995}},{"type":"Feature","geometry":{"type":"Polygon","coordinates":[[[134.391,-2.707],[134.381,-2.6785],[134.37,-2.674],[134.3655,-2.6605],[134.3705,-2.653],[134.3605,-2.64],[134.346,-2.656],[134.328,-2.6625],[134.3265,-2.665],[134.3255,-2.6715],[134.327,-2.677],[134.3315,-2.6835],[134.3325,-2.6855],[134.3405,-2.6885],[134.3425,-2.702],[134.352,-2.7145],[134.35,-2.7295],[134.3515,-2.7315],[134.3535,-2.733],[134.3525,-2.7345],[134.37,-2.7315],[134.391,-2.707]]]},"properties":{"code":"92.07.09.2003","name":"Dusner","latitude":-2.6881496222159633,"longitude":134.3595611235021}},{"type":"Feature","geometry":{"type":"Polygon","coordinates":[[[134.484,-2.8615],[134.4575,-2.861],[134.4525,-2.8655],[134.452,-2.8755],[134.44,-2.886],[134.448,-2.8955],[134.4335,-2.9],[134.4295,-2.9105],[134.419,-2.911],[134.4095,-2.927],[134.4135,-2.9455],[134.4235,-2.9525],[134.4255,-2.965],[134.4415,-2.962],[134.448,-2.9655],[134.4565,-2.981],[134.4585,-2.981],[134.4635,-2.9805],[134.466,-2.9795],[134.4575,-2.9545],[134.471,-2.941],[134.473,-2.8925],[134.4745,-2.8895],[134.48,-2.8885],[134.481,-2.885],[134.484,-2.8615]]]},"properties":{"code":"92.07.09.2004","name":"Yerenusi","latitude":-2.9194389528946694,"longitude":134.44879290743572}},{"type":"Feature","geometry":{"type":"Polygon","coordinates":[[[134.35,-2.7295],[134.352,-2.7145],[134.3425,-2.702],[134.3405,-2.6885],[134.3325,-2.6855],[134.333,-2.6875],[134.3175,-2.7005],[134.302,-2.7065],[134.2985,-2.721],[134.2965,-2.724],[134.284,-2.7285],[134.282,-2.73],[134.2805,-2.7385],[134.2825,-2.7415],[134.281,-2.7425],[134.282,-2.743],[134.2855,-2.7425],[134.286,-2.7425],[134.2975,-2.743],[134.3045,-2.737],[134.3145,-2.747],[134.32,-2.7355],[134.32,-2.738],[134.321,-2.738],[134.325,-2.738],[134.3265,-2.738],[134.333,-2.7335],[134.3345,-2.733],[134.3385,-2.733],[134.343,-2.733],[134.3455,-2.73],[134.3465,-2.729],[134.3495,-2.7295],[134.35,-2.7295]]]},"properties":{"code":"92.07.09.2005","name":"Sobiar","latitude":-2.719296544079817,"longitude":134.32031432495336}},{"type":"Feature","geometry":{"type":"Polygon","coordinates":[[[134.402,-2.768],[134.41,-2.7495],[134.4025,-2.7345],[134.408,-2.7185],[134.397,-2.717],[134.391,-2.707],[134.37,-2.7315],[134.3525,-2.7345],[134.3535,-2.733],[134.3515,-2.7315],[134.3495,-2.7295],[134.3465,-2.729],[134.3455,-2.73],[134.343,-2.733],[134.3385,-2.733],[134.3345,-2.733],[134.333,-2.7335],[134.3265,-2.738],[134.325,-2.738],[134.321,-2.738],[134.32,-2.738],[134.32,-2.7355],[134.3145,-2.747],[134.3045,-2.737],[134.2975,-2.743],[134.286,-2.7425],[134.2855,-2.7425],[134.282,-2.743],[134.282,-2.744],[134.2825,-2.7445],[134.2825,-2.7455],[134.283,-2.745],[134.289,-2.7465],[134.299,-2.7595],[134.3135,-2.772],[134.317,-2.774],[134.3245,-2.7725],[134.347,-2.7795],[134.3515,-2.777],[134.354,-2.7765],[134.3565,-2.78],[134.3585,-2.7805],[134.402,-2.768]]]},"properties":{"code":"92.07.09.2006","name":"Simei","latitude":-2.7506516538302086,"longitude":134.35797191779284}},{"type":"Feature","geometry":{"type":"Polygon","coordinates":[[[134.5315,-2.3675],[134.528,-2.3665],[134.527,-2.37],[134.5275,-2.3745],[134.528,-2.3765],[134.528,-2.379],[134.528,-2.3815],[134.5295,-2.383],[134.53,-2.3835],[134.532,-2.38],[134.5325,-2.38],[134.5315,-2.3705],[134.5315,-2.3675]]]},"properties":{"code":"92.07.10.2001","name":"Yende","latitude":-2.3747338821211716,"longitude":134.53009369642967}},{"type":"Feature","geometry":{"type":"Polygon","coordinates":[[[134.528,-2.3665],[134.519,-2.3655],[134.518,-2.3825],[134.523,-2.3835],[134.5245,-2.384],[134.528,-2.3815],[134.528,-2.379],[134.528,-2.3765],[134.5275,-2.3745],[134.527,-2.37],[134.528,-2.3665]]]},"properties":{"code":"92.07.10.2002","name":"Syabes","latitude":-2.374233135503443,"longitude":134.5231750994458}},{"type":"Feature","geometry":{"type":"Polygon","coordinates":[[[134.5345,-2.382],[134.5335,-2.38],[134.532,-2.38],[134.53,-2.3835],[134.5295,-2.383],[134.5245,-2.384],[134.523,-2.3835],[134.507,-2.3905],[134.515,-2.402],[134.53,-2.401],[134.539,-2.399],[134.5475,-2.4075],[134.5495,-2.4075],[134.561,-2.4045],[134.581,-2.397],[134.59,-2.397],[134.5885,-2.3845],[134.581,-2.3825],[134.58,-2.388],[134.5785,-2.3885],[134.571,-2.3845],[134.568,-2.3835],[134.5585,-2.3855],[134.5345,-2.382]]]},"properties":{"code":"92.07.10.2003","name":"Menarbu","latitude":-2.3928494943209015,"longitude":134.54848297394562}},{"type":"Feature","geometry":{"type":"MultiPolygon","coordinates":[[[[134.581,-2.3825],[134.572,-2.355],[134.576,-2.3395],[134.572,-2.3325],[134.5765,-2.322],[134.5685,-2.3115],[134.5725,-2.294],[134.5635,-2.2815],[134.564,-2.3165],[134.5605,-2.3255],[134.5695,-2.3435],[134.5645,-2.3635],[134.559,-2.37],[134.5585,-2.3855],[134.568,-2.3835],[134.571,-2.3845],[134.5785,-2.3885],[134.58,-2.388],[134.581,-2.3825]]],[[[134.7375,-2.0165],[134.7255,-2.0235],[134.7305,-2.047],[134.7425,-2.05],[134.7455,-2.0375],[134.7375,-2.0165]]]]},"properties":{"code":"92.07.10.2004","name":"Niab","latitude":-2.240977457712074,"longitude":134.62324033814102}},{"type":"Feature","geometry":{"type":"Polygon","coordinates":[[[134.519,-2.3655],[134.5045,-2.367],[134.5105,-2.38],[134.518,-2.3825],[134.519,-2.3655]]]},"properties":{"code":"92.07.10.2005","name":"Inday","latitude":-2.3598154217517093,"longitude":134.5132104535611}},{"type":"Feature","geometry":{"type":"Polygon","coordinates":[[[134.5475,-2.4075],[134.539,-2.399],[134.53,-2.401],[134.5325,-2.414],[134.545,-2.41],[134.5575,-2.4125],[134.533,-2.428],[134.5445,-2.4355],[134.5555,-2.4345],[134.565,-2.441],[134.576,-2.4325],[134.578,-2.4205],[134.561,-2.4045],[134.5495,-2.4075],[134.5475,-2.4075]]]},"properties":{"code":"92.07.10.2006","name":"Sariay","latitude":-2.4217925463198315,"longitude":134.55347861439333}},{"type":"Feature","geometry":{"type":"Polygon","coordinates":[[[134.559,-2.37],[134.5545,-2.3675],[134.5315,-2.3675],[134.5315,-2.3705],[134.5325,-2.38],[134.5335,-2.38],[134.5345,-2.382],[134.5585,-2.3855],[134.559,-2.37]]]},"properties":{"code":"92.07.10.2007","name":"Mena","latitude":-2.3749393293607226,"longitude":134.54599397085784}},{"type":"Feature","geometry":{"type":"Polygon","coordinates":[[[134.3735,-2.0415],[134.371,-2.0395],[134.369,-2.032],[134.3675,-2.032],[134.367,-2.0325],[134.3665,-2.032],[134.3665,-2.0315],[134.367,-2.0275],[134.366,-2.012],[134.3595,-2.0095],[134.346,-2.0325],[134.3435,-2.0465],[134.3365,-2.0505],[134.3225,-2.068],[134.325,-2.0705],[134.328,-2.0725],[134.334,-2.0765],[134.3385,-2.0785],[134.342,-2.08],[134.3505,-2.0835],[134.3555,-2.0865],[134.3645,-2.09],[134.366,-2.0885],[134.3655,-2.0845],[134.3725,-2.0625],[134.371,-2.055],[134.373,-2.0465],[134.3735,-2.0415]]]},"properties":{"code":"92.07.11.2001","name":"Waprak","latitude":-2.054457734171035,"longitude":134.35372052464592}},{"type":"Feature","geometry":{"type":"Polygon","coordinates":[[[134.403,-2.06],[134.386,-2.0575],[134.375,-2.043],[134.3735,-2.0415],[134.373,-2.0465],[134.371,-2.055],[134.3725,-2.0625],[134.3655,-2.0845],[134.366,-2.0885],[134.3645,-2.09],[134.3645,-2.0945],[134.3605,-2.099],[134.3515,-2.1275],[134.3545,-2.146],[134.35,-2.1675],[134.3575,-2.1635],[134.3655,-2.1485],[134.373,-2.1435],[134.3745,-2.1285],[134.3805,-2.122],[134.3875,-2.0925],[134.3845,-2.0845],[134.3935,-2.077],[134.403,-2.06]]]},"properties":{"code":"92.07.11.2002","name":"Yomber","latitude":-2.0998505493826674,"longitude":134.37408375145964}},{"type":"Feature","geometry":{"type":"Polygon","coordinates":[[[134.403,-2.06],[134.41,-2.0365],[134.4045,-2.01],[134.4075,-2.004],[134.387,-1.9935],[134.3695,-1.998],[134.3595,-2.0095],[134.366,-2.012],[134.367,-2.0275],[134.3665,-2.0315],[134.3665,-2.032],[134.367,-2.0325],[134.3675,-2.032],[134.369,-2.032],[134.371,-2.0395],[134.374,-2.0415],[134.375,-2.043],[134.386,-2.0575],[134.403,-2.06]]]},"properties":{"code":"92.07.11.2003","name":"Syeiwar","latitude":-2.022397228599009,"longitude":134.38812259990752}},{"type":"Feature","geometry":{"type":"Polygon","coordinates":[[[134.173,-2.3485],[134.1645,-2.349],[134.16,-2.36],[134.1585,-2.36],[134.155,-2.351],[134.145,-2.347],[134.141,-2.344],[134.1385,-2.344],[134.1365,-2.344],[134.1415,-2.362],[134.138,-2.3755],[134.1155,-2.3725],[134.103,-2.375],[134.1025,-2.3745],[134.1005,-2.3935],[134.105,-2.418],[134.1055,-2.42],[134.106,-2.4195],[134.1085,-2.418],[134.111,-2.4175],[134.113,-2.416],[134.1115,-2.413],[134.114,-2.4115],[134.125,-2.4105],[134.13,-2.4085],[134.139,-2.4085],[134.1495,-2.409],[134.1575,-2.406],[134.1615,-2.4035],[134.164,-2.404],[134.169,-2.399],[134.174,-2.3925],[134.19,-2.3995],[134.1915,-2.397],[134.192,-2.3905],[134.1925,-2.386],[134.1935,-2.3835],[134.1895,-2.364],[134.176,-2.3565],[134.173,-2.3485]]]},"properties":{"code":"92.07.12.2001","name":"Werabur","latitude":-2.382950658965839,"longitude":134.1480573095715}},{"type":"Feature","geometry":{"type":"Polygon","coordinates":[[[134.1485,-2.2555],[134.1345,-2.2475],[134.116,-2.259],[134.1115,-2.277],[134.093,-2.279],[134.104,-2.3075],[134.1045,-2.3335],[134.1135,-2.3395],[134.1155,-2.3415],[134.1165,-2.343],[134.1165,-2.3455],[134.129,-2.3525],[134.1365,-2.344],[134.1385,-2.344],[134.141,-2.344],[134.145,-2.347],[134.155,-2.351],[134.1585,-2.36],[134.16,-2.36],[134.1645,-2.349],[134.173,-2.3485],[134.174,-2.3305],[134.1675,-2.313],[134.1545,-2.291],[134.155,-2.261],[134.1485,-2.2555]]]},"properties":{"code":"92.07.12.2002","name":"Mamisi","latitude":-2.3057124442605654,"longitude":134.13450915021355}},{"type":"Feature","geometry":{"type":"Polygon","coordinates":[[[134.1975,-2.388],[134.201,-2.3835],[134.202,-2.3805],[134.202,-2.376],[134.1935,-2.3835],[134.1925,-2.386],[134.192,-2.3905],[134.1915,-2.397],[134.19,-2.3995],[134.174,-2.3925],[134.169,-2.399],[134.164,-2.404],[134.1615,-2.4035],[134.1575,-2.406],[134.1495,-2.409],[134.139,-2.4085],[134.13,-2.4085],[134.1305,-2.414],[134.134,-2.436],[134.1425,-2.4475],[134.152,-2.4535],[134.164,-2.487],[134.151,-2.492],[134.1485,-2.489],[134.1475,-2.4885],[134.145,-2.488],[134.1415,-2.489],[134.1345,-2.487],[134.133,-2.488],[134.133,-2.489],[134.139,-2.4995],[134.1585,-2.5],[134.16,-2.5015],[134.16,-2.506],[134.163,-2.5065],[134.1655,-2.508],[134.166,-2.5085],[134.1705,-2.5345],[134.1755,-2.5345],[134.178,-2.5365],[134.178,-2.538],[134.1785,-2.539],[134.181,-2.546],[134.182,-2.547],[134.1835,-2.5535],[134.184,-2.5575],[134.1885,-2.568],[134.1915,-2.571],[134.1995,-2.5775],[134.2035,-2.5795],[134.208,-2.5775],[134.214,-2.5775],[134.22,-2.578],[134.224,-2.578],[134.228,-2.5825],[134.2415,-2.599],[134.243,-2.6035],[134.2515,-2.611],[134.254,-2.6105],[134.2545,-2.6085],[134.256,-2.608],[134.259,-2.6075],[134.26,-2.6075],[134.2605,-2.6065],[134.2625,-2.606],[134.252,-2.5845],[134.255,-2.5765],[134.2415,-2.559],[134.2195,-2.552],[134.218,-2.544],[134.2195,-2.5325],[134.219,-2.5335],[134.2185,-2.5325],[134.22,-2.527],[134.22,-2.5235],[134.218,-2.5175],[134.217,-2.517],[134.216,-2.5155],[134.214,-2.5075],[134.218,-2.49],[134.221,-2.488],[134.221,-2.487],[134.221,-2.484],[134.2145,-2.479],[134.2125,-2.466],[134.2045,-2.4525],[134.192,-2.443],[134.1905,-2.442],[134.191,-2.44],[134.1915,-2.425],[134.1925,-2.4225],[134.195,-2.41],[134.1955,-2.405],[134.1945,-2.401],[134.1945,-2.3975],[134.1975,-2.388]]]},"properties":{"code":"92.07.12.2003","name":"Werianggi","latitude":-2.4920500410611903,"longitude":134.18943507090515}},{"type":"Feature","geometry":{"type":"Polygon","coordinates":[[[134.1365,-2.344],[134.129,-2.3525],[134.1165,-2.3455],[134.1165,-2.343],[134.1155,-2.3415],[134.1135,-2.3395],[134.1045,-2.3335],[134.1055,-2.346],[134.102,-2.363],[134.1005,-2.363],[134.1015,-2.365],[134.102,-2.37],[134.103,-2.375],[134.1155,-2.3725],[134.138,-2.3755],[134.1415,-2.362],[134.1365,-2.344]]]},"properties":{"code":"92.07.12.2004","name":"Kurei","latitude":-2.360918315322846,"longitude":134.12030815024644}},{"type":"Feature","geometry":{"type":"Polygon","coordinates":[[[134.1305,-2.414],[134.125,-2.4105],[134.114,-2.4115],[134.1115,-2.413],[134.113,-2.416],[134.111,-2.4175],[134.1085,-2.418],[134.106,-2.4195],[134.1055,-2.42],[134.106,-2.4215],[134.1095,-2.436],[134.1185,-2.4415],[134.1165,-2.459],[134.1275,-2.4855],[134.1315,-2.486],[134.133,-2.4875],[134.133,-2.488],[134.1345,-2.487],[134.1415,-2.489],[134.145,-2.488],[134.1475,-2.4885],[134.1485,-2.489],[134.151,-2.492],[134.164,-2.487],[134.152,-2.4535],[134.1425,-2.4475],[134.134,-2.436],[134.1305,-2.414]]]},"properties":{"code":"92.07.12.2005","name":"Tamoge","latitude":-2.454417879354588,"longitude":134.13348429423704}},{"type":"Feature","geometry":{"type":"MultiPolygon","coordinates":[[[[134.1515,-2.0005],[134.149,-2.0135],[134.1495,-2.039],[134.1565,-2.0375],[134.158,-2.0135],[134.1515,-2.0005]]],[[[134.1065,-2.044],[134.1305,-2.0285],[134.1285,-2.02],[134.1405,-2.002],[134.137,-1.9785],[134.1385,-1.97],[134.134,-1.953],[134.1375,-1.942],[134.1255,-1.9055],[134.1045,-1.908],[134.0885,-1.906],[134.064,-1.912],[134.06,-1.911],[134.054,-1.9095],[134.054,-1.9105],[134.054,-1.912],[134.052,-1.926],[134.0585,-1.9725],[134.0615,-1.98],[134.0625,-1.9885],[134.058,-2.0045],[134.0635,-2.0245],[134.057,-2.0415],[134.06,-2.0425],[134.069,-2.0435],[134.0765,-2.04],[134.078,-2.0395],[134.089,-2.0325],[134.0915,-2.032],[134.0925,-2.033],[134.095,-2.0395],[134.0985,-2.042],[134.104,-2.0415],[134.1055,-2.0425],[134.1065,-2.044]]]]},"properties":{"code":"92.07.13.2001","name":"Kaprus","latitude":-1.9742330254154747,"longitude":134.09847326075322}},{"type":"Feature","geometry":{"type":"Polygon","coordinates":[[[134.101,-1.826],[134.103,-1.824],[134.0985,-1.787],[134.102,-1.766],[134.097,-1.77],[134.0785,-1.8025],[134.049,-1.8175],[134.047,-1.822],[134.0485,-1.8225],[134.0545,-1.822],[134.0585,-1.823],[134.063,-1.8205],[134.077,-1.823],[134.0925,-1.8205],[134.101,-1.826]]]},"properties":{"code":"92.07.13.2002","name":"Yarmatum","latitude":-1.8071293027335502,"longitude":134.08383905748263}},{"type":"Feature","geometry":{"type":"Polygon","coordinates":[[[134.101,-1.826],[134.0925,-1.8205],[134.077,-1.823],[134.063,-1.8205],[134.0585,-1.823],[134.0545,-1.822],[134.0485,-1.8225],[134.047,-1.822],[134.046,-1.8255],[134.0405,-1.8315],[134.0085,-1.8385],[134.0225,-1.8505],[134.0325,-1.854],[134.034,-1.8575],[134.0395,-1.8665],[134.058,-1.866],[134.079,-1.861],[134.1,-1.861],[134.105,-1.856],[134.101,-1.826]]]},"properties":{"code":"92.07.13.2003","name":"Reyob","latitude":-1.8434336884079896,"longitude":134.06359904393094}},{"type":"Feature","geometry":{"type":"Polygon","coordinates":[[[134.122,-1.884],[134.1075,-1.8925],[134.102,-1.889],[134.0855,-1.8915],[134.07,-1.8825],[134.0595,-1.8875],[134.054,-1.892],[134.0555,-1.908],[134.054,-1.9095],[134.06,-1.911],[134.064,-1.912],[134.0885,-1.906],[134.1045,-1.908],[134.1255,-1.9055],[134.122,-1.884]]]},"properties":{"code":"92.07.13.2004","name":"Siresi","latitude":-1.8978444463639272,"longitude":134.08777068204822}},{"type":"Feature","geometry":{"type":"Polygon","coordinates":[[[134.122,-1.884],[134.123,-1.8695],[134.108,-1.8675],[134.1,-1.861],[134.079,-1.861],[134.058,-1.866],[134.0395,-1.8665],[134.034,-1.8575],[134.035,-1.8595],[134.0395,-1.869],[134.04,-1.871],[134.037,-1.8785],[134.0425,-1.888],[134.049,-1.889],[134.054,-1.892],[134.0595,-1.8875],[134.07,-1.8825],[134.0855,-1.8915],[134.102,-1.889],[134.1075,-1.8925],[134.122,-1.884]]]},"properties":{"code":"92.07.13.2005","name":"Nuspairo","latitude":-1.8755219446605371,"longitude":134.08112772778946}}]}