{"type":"FeatureCollection","features":[{"type":"Feature","geometry":{"type":"Polygon","coordinates":[[[134.1935,-1.474],[134.1925,-1.4735],[134.192,-1.4725],[134.19,-1.472],[134.1855,-1.476],[134.181,-1.4795],[134.1785,-1.479],[134.177,-1.48],[134.1715,-1.482],[134.169,-1.4905],[134.1685,-1.4935],[134.167,-1.495],[134.1655,-1.502],[134.1625,-1.507],[134.1605,-1.5095],[134.162,-1.511],[134.163,-1.5115],[134.166,-1.512],[134.1665,-1.5125],[134.169,-1.514],[134.176,-1.519],[134.179,-1.5215],[134.1815,-1.522],[134.1865,-1.5235],[134.188,-1.5245],[134.1895,-1.525],[134.191,-1.52],[134.1925,-1.514],[134.1935,-1.48],[134.193,-1.478],[134.193,-1.4775],[134.1925,-1.475],[134.1935,-1.474]]]},"properties":{"code":"92.11.01.2001","name":"Ransiki"}},{"type":"Feature","geometry":{"type":"Polygon","coordinates":[[[134.116,-1.454],[134.114,-1.453],[134.1015,-1.444],[134.0965,-1.443],[134.0995,-1.45],[134.0985,-1.4655],[134.0995,-1.465],[134.1,-1.4665],[134.101,-1.466],[134.1015,-1.466],[134.107,-1.4625],[134.116,-1.454]]]},"properties":{"code":"92.11.01.2002","name":"Nuhuwei"}},{"type":"Feature","geometry":{"type":"Polygon","coordinates":[[[134.131,-1.4075],[134.1305,-1.407],[134.1305,-1.4055],[134.1315,-1.403],[134.1305,-1.401],[134.1295,-1.401],[134.126,-1.4015],[134.1245,-1.3995],[134.124,-1.391],[134.1015,-1.407],[134.08,-1.4175],[134.0795,-1.4165],[134.074,-1.4145],[134.064,-1.41],[134.056,-1.408],[134.05,-1.4045],[134.0255,-1.411],[134.0275,-1.414],[134.029,-1.416],[134.0305,-1.4175],[134.0305,-1.417],[134.038,-1.4115],[134.0405,-1.413],[134.0425,-1.414],[134.0665,-1.4145],[134.0775,-1.419],[134.082,-1.422],[134.0965,-1.443],[134.097,-1.439],[134.0995,-1.4365],[134.106,-1.4325],[134.1105,-1.431],[134.1125,-1.4185],[134.131,-1.4075]]]},"properties":{"code":"92.11.01.2003","name":"Yamboi"}},{"type":"Feature","geometry":{"type":"Polygon","coordinates":[[[134.1315,-1.473],[134.1285,-1.47],[134.1275,-1.4695],[134.1265,-1.4705],[134.124,-1.4705],[134.1165,-1.4735],[134.111,-1.476],[134.111,-1.487],[134.109,-1.492],[134.1065,-1.499],[134.1045,-1.501],[134.103,-1.5015],[134.1045,-1.5035],[134.109,-1.508],[134.1095,-1.5105],[134.128,-1.5095],[134.141,-1.5165],[134.1595,-1.516],[134.1605,-1.522],[134.1615,-1.524],[134.163,-1.522],[134.166,-1.517],[134.1675,-1.5135],[134.1665,-1.5125],[134.166,-1.512],[134.163,-1.5115],[134.162,-1.511],[134.1605,-1.5095],[134.157,-1.507],[134.1565,-1.507],[134.1535,-1.505],[134.134,-1.4775],[134.1335,-1.476],[134.1315,-1.473]]]},"properties":{"code":"92.11.01.2004","name":"Tobou"}},{"type":"Feature","geometry":{"type":"Polygon","coordinates":[[[134.1825,-1.4625],[134.1825,-1.462],[134.1815,-1.4615],[134.18,-1.46],[134.179,-1.458],[134.1695,-1.455],[134.168,-1.4545],[134.157,-1.437],[134.146,-1.4255],[134.1455,-1.4215],[134.143,-1.416],[134.142,-1.416],[134.1405,-1.4205],[134.1405,-1.429],[134.1405,-1.4315],[134.139,-1.4435],[134.138,-1.447],[134.1345,-1.4505],[134.133,-1.452],[134.132,-1.454],[134.132,-1.4545],[134.1345,-1.464],[134.136,-1.4655],[134.1365,-1.466],[134.1345,-1.469],[134.1345,-1.47],[134.1335,-1.4705],[134.1315,-1.473],[134.1335,-1.476],[134.134,-1.4775],[134.1535,-1.505],[134.1565,-1.507],[134.157,-1.507],[134.1605,-1.5095],[134.1625,-1.507],[134.1645,-1.5035],[134.167,-1.495],[134.1685,-1.4935],[134.169,-1.4905],[134.1715,-1.482],[134.177,-1.48],[134.1785,-1.479],[134.1775,-1.479],[134.1775,-1.478],[134.1765,-1.477],[134.18,-1.4675],[134.1805,-1.462],[134.182,-1.463],[134.1825,-1.4625]]]},"properties":{"code":"92.11.01.2005","name":"Sabri"}},{"type":"Feature","geometry":{"type":"Polygon","coordinates":[[[134.2015,-1.481],[134.1945,-1.475],[134.1935,-1.474],[134.1925,-1.475],[134.193,-1.4775],[134.193,-1.478],[134.1935,-1.48],[134.1925,-1.514],[134.191,-1.52],[134.1895,-1.525],[134.202,-1.531],[134.2105,-1.5075],[134.2105,-1.499],[134.2015,-1.481]]]},"properties":{"code":"92.11.01.2006","name":"Bamaha"}},{"type":"Feature","geometry":{"type":"Polygon","coordinates":[[[134.2015,-1.481],[134.199,-1.46],[134.1835,-1.4635],[134.1825,-1.463],[134.1825,-1.4625],[134.182,-1.463],[134.1805,-1.462],[134.18,-1.4675],[134.1765,-1.477],[134.1775,-1.478],[134.1775,-1.479],[134.181,-1.4795],[134.1855,-1.476],[134.19,-1.472],[134.192,-1.4725],[134.1925,-1.4735],[134.1935,-1.4735],[134.1945,-1.475],[134.2015,-1.481]]]},"properties":{"code":"92.11.01.2007","name":"Abreso"}},{"type":"Feature","geometry":{"type":"Polygon","coordinates":[[[134.1895,-1.525],[134.188,-1.5245],[134.1865,-1.5235],[134.1815,-1.522],[134.179,-1.5215],[134.176,-1.519],[134.169,-1.514],[134.1675,-1.5135],[134.166,-1.517],[134.163,-1.522],[134.1615,-1.524],[134.162,-1.525],[134.1635,-1.5255],[134.162,-1.5295],[134.172,-1.538],[134.178,-1.552],[134.179,-1.5515],[134.179,-1.551],[134.18,-1.55],[134.1815,-1.551],[134.1815,-1.5525],[134.1825,-1.5535],[134.1855,-1.5585],[134.1995,-1.552],[134.202,-1.531],[134.1895,-1.525]]]},"properties":{"code":"92.11.01.2008","name":"Hamawi"}},{"type":"Feature","geometry":{"type":"Polygon","coordinates":[[[134.167,-1.495],[134.1645,-1.5035],[134.1655,-1.502],[134.167,-1.495]]]},"properties":{"code":"92.11.01.2009","name":"Kobrey"}},{"type":"Feature","geometry":{"type":"Polygon","coordinates":[[[134.143,-1.416],[134.1455,-1.412],[134.139,-1.411],[134.1355,-1.412],[134.134,-1.4115],[134.1335,-1.4095],[134.1325,-1.408],[134.131,-1.4075],[134.1125,-1.4185],[134.1105,-1.431],[134.106,-1.4325],[134.0995,-1.4365],[134.097,-1.439],[134.0965,-1.443],[134.1015,-1.444],[134.114,-1.453],[134.116,-1.454],[134.1175,-1.4555],[134.1195,-1.458],[134.1205,-1.4595],[134.127,-1.4685],[134.1285,-1.47],[134.1315,-1.473],[134.1335,-1.4705],[134.1345,-1.47],[134.1345,-1.469],[134.1365,-1.466],[134.136,-1.4655],[134.1345,-1.464],[134.132,-1.4545],[134.132,-1.454],[134.133,-1.452],[134.1345,-1.4505],[134.138,-1.447],[134.139,-1.4435],[134.1405,-1.4315],[134.1405,-1.429],[134.1405,-1.4205],[134.142,-1.416],[134.143,-1.416]]]},"properties":{"code":"92.11.01.2010","name":"Wamcei"}},{"type":"Feature","geometry":{"type":"Polygon","coordinates":[[[134.1275,-1.4695],[134.127,-1.4685],[134.1205,-1.4595],[134.1195,-1.458],[134.1175,-1.4555],[134.116,-1.454],[134.107,-1.4625],[134.1015,-1.467],[134.101,-1.4685],[134.1015,-1.4685],[134.102,-1.47],[134.1015,-1.4705],[134.1025,-1.472],[134.103,-1.474],[134.104,-1.4745],[134.104,-1.4755],[134.101,-1.4845],[134.0995,-1.486],[134.104,-1.489],[134.1075,-1.4895],[134.109,-1.492],[134.111,-1.487],[134.111,-1.476],[134.1165,-1.4735],[134.124,-1.4705],[134.1265,-1.4705],[134.1275,-1.4695]]]},"properties":{"code":"92.11.01.2011","name":"Hamor"}},{"type":"Feature","geometry":{"type":"Polygon","coordinates":[[[134.0965,-1.443],[134.082,-1.422],[134.079,-1.421],[134.0785,-1.4235],[134.078,-1.425],[134.0785,-1.425],[134.0775,-1.4285],[134.077,-1.4295],[134.076,-1.433],[134.0755,-1.443],[134.061,-1.4395],[134.0615,-1.4405],[134.0615,-1.4595],[134.0555,-1.4735],[134.052,-1.4755],[134.045,-1.4875],[134.044,-1.4925],[134.044,-1.4965],[134.047,-1.5025],[134.0715,-1.503],[134.08,-1.512],[134.098,-1.517],[134.1055,-1.5145],[134.107,-1.5145],[134.1085,-1.513],[134.1095,-1.5125],[134.1095,-1.5105],[134.109,-1.508],[134.1045,-1.5035],[134.103,-1.5015],[134.1045,-1.501],[134.1065,-1.499],[134.109,-1.492],[134.1075,-1.4895],[134.104,-1.489],[134.0995,-1.486],[134.101,-1.4845],[134.104,-1.4755],[134.104,-1.4745],[134.103,-1.474],[134.1025,-1.472],[134.1015,-1.4705],[134.102,-1.47],[134.1015,-1.4685],[134.101,-1.4685],[134.1015,-1.467],[134.1015,-1.466],[134.101,-1.466],[134.1,-1.4665],[134.0995,-1.465],[134.0985,-1.4655],[134.0995,-1.45],[134.0965,-1.443]]]},"properties":{"code":"92.11.01.2012","name":"Susmorof"}},{"type":"Feature","geometry":{"type":"Polygon","coordinates":[[[134.046,-1.355],[134.0455,-1.355],[134.0475,-1.3795],[134.048,-1.3805],[134.05,-1.3795],[134.052,-1.381],[134.0535,-1.3815],[134.0535,-1.382],[134.0535,-1.383],[134.0755,-1.3955],[134.078,-1.413],[134.0785,-1.4145],[134.0795,-1.4165],[134.08,-1.4175],[134.1015,-1.407],[134.124,-1.391],[134.112,-1.378],[134.0855,-1.365],[134.0755,-1.373],[134.0585,-1.37],[134.046,-1.355]]]},"properties":{"code":"92.11.01.2013","name":"Mambrema"}},{"type":"Feature","geometry":{"type":"Polygon","coordinates":[[[134.26,-1.3465],[134.2785,-1.344],[134.2755,-1.3365],[134.2515,-1.3205],[134.2415,-1.331],[134.241,-1.333],[134.24,-1.3335],[134.239,-1.335],[134.2375,-1.335],[134.2365,-1.3355],[134.237,-1.3365],[134.2375,-1.3365],[134.238,-1.338],[134.2395,-1.338],[134.242,-1.3405],[134.251,-1.345],[134.26,-1.3465]]]},"properties":{"code":"92.11.02.2001","name":"Oransbari"}},{"type":"Feature","geometry":{"type":"Polygon","coordinates":[[[134.1915,-1.27],[134.185,-1.27],[134.1835,-1.271],[134.182,-1.2735],[134.176,-1.299],[134.149,-1.3215],[134.1325,-1.321],[134.118,-1.3335],[134.1125,-1.3435],[134.0935,-1.346],[134.0825,-1.336],[134.079,-1.3375],[134.0695,-1.3415],[134.0685,-1.342],[134.0705,-1.3435],[134.085,-1.348],[134.115,-1.35],[134.1585,-1.3365],[134.186,-1.323],[134.196,-1.321],[134.201,-1.323],[134.2025,-1.3235],[134.205,-1.324],[134.2095,-1.323],[134.2235,-1.3225],[134.2215,-1.3125],[134.215,-1.296],[134.219,-1.291],[134.2185,-1.2905],[134.218,-1.2895],[134.2155,-1.285],[134.211,-1.282],[134.2035,-1.277],[134.1885,-1.275],[134.1915,-1.27]]]},"properties":{"code":"92.11.02.2002","name":"Sidomulyo"}},{"type":"Feature","geometry":{"type":"Polygon","coordinates":[[[134.245,-1.311],[134.2385,-1.3125],[134.2385,-1.314],[134.2385,-1.3145],[134.2375,-1.3145],[134.237,-1.316],[134.2365,-1.3205],[134.237,-1.325],[134.2395,-1.3345],[134.2405,-1.3335],[134.2415,-1.331],[134.2515,-1.3205],[134.245,-1.311]]]},"properties":{"code":"92.11.02.2003","name":"Waroser"}},{"type":"Feature","geometry":{"type":"Polygon","coordinates":[[[134.2095,-1.323],[134.205,-1.324],[134.2025,-1.3235],[134.201,-1.323],[134.196,-1.321],[134.186,-1.323],[134.1585,-1.3365],[134.115,-1.35],[134.085,-1.348],[134.0705,-1.3435],[134.0685,-1.342],[134.0685,-1.343],[134.0655,-1.349],[134.0645,-1.354],[134.0855,-1.362],[134.105,-1.365],[134.1175,-1.3635],[134.1305,-1.371],[134.141,-1.368],[134.156,-1.3525],[134.1715,-1.348],[134.178,-1.3395],[134.196,-1.328],[134.2085,-1.329],[134.2095,-1.323]]]},"properties":{"code":"92.11.02.2004","name":"Margo Rukun"}},{"type":"Feature","geometry":{"type":"Polygon","coordinates":[[[134.26,-1.3465],[134.251,-1.345],[134.242,-1.3405],[134.2395,-1.338],[134.238,-1.338],[134.2375,-1.3365],[134.237,-1.3365],[134.2365,-1.3355],[134.236,-1.3355],[134.224,-1.3455],[134.215,-1.3445],[134.195,-1.367],[134.191,-1.369],[134.1885,-1.367],[134.187,-1.367],[134.1835,-1.3685],[134.1825,-1.369],[134.1815,-1.369],[134.1795,-1.3685],[134.176,-1.368],[134.175,-1.369],[134.174,-1.3695],[134.173,-1.3705],[134.187,-1.378],[134.21,-1.381],[134.2185,-1.3935],[134.219,-1.3945],[134.2195,-1.3945],[134.2195,-1.3965],[134.2205,-1.398],[134.2275,-1.3775],[134.2385,-1.363],[134.2515,-1.356],[134.26,-1.3465]]]},"properties":{"code":"92.11.02.2005","name":"Muari"}},{"type":"Feature","geometry":{"type":"Polygon","coordinates":[[[134.2415,-1.293],[134.2115,-1.253],[134.1935,-1.2665],[134.192,-1.27],[134.1915,-1.27],[134.1885,-1.275],[134.2035,-1.277],[134.211,-1.282],[134.2155,-1.285],[134.218,-1.2895],[134.2185,-1.2905],[134.22,-1.291],[134.2215,-1.292],[134.228,-1.292],[134.2285,-1.2905],[134.2415,-1.293]]]},"properties":{"code":"92.11.02.2006","name":"Watariri"}},{"type":"Feature","geometry":{"type":"Polygon","coordinates":[[[134.1925,-1.206],[134.185,-1.1975],[134.1845,-1.1995],[134.181,-1.2025],[134.1725,-1.2145],[134.166,-1.219],[134.158,-1.222],[134.1555,-1.222],[134.147,-1.225],[134.1425,-1.226],[134.1215,-1.2255],[134.118,-1.225],[134.102,-1.2245],[134.093,-1.2115],[134.0835,-1.2165],[134.0765,-1.2285],[134.068,-1.2285],[134.0635,-1.2295],[134.058,-1.231],[134.0565,-1.2335],[134.0535,-1.2385],[134.051,-1.239],[134.05,-1.24],[134.0445,-1.241],[134.0375,-1.2575],[134.0505,-1.2595],[134.0515,-1.2715],[134.0575,-1.28],[134.0595,-1.2805],[134.0805,-1.2815],[134.0825,-1.2895],[134.1025,-1.287],[134.1105,-1.28],[134.1195,-1.28],[134.1325,-1.261],[134.1485,-1.2445],[134.1875,-1.216],[134.1925,-1.206]]]},"properties":{"code":"92.11.02.2007","name":"Masabui"}},{"type":"Feature","geometry":{"type":"Polygon","coordinates":[[[134.2415,-1.293],[134.2285,-1.2905],[134.228,-1.2945],[134.231,-1.3045],[134.2385,-1.3125],[134.245,-1.311],[134.2415,-1.293]]]},"properties":{"code":"92.11.02.2008","name":"Warbiadi"}},{"type":"Feature","geometry":{"type":"Polygon","coordinates":[[[134.2085,-1.329],[134.196,-1.328],[134.178,-1.3395],[134.1715,-1.348],[134.156,-1.3525],[134.141,-1.368],[134.1305,-1.371],[134.1175,-1.3635],[134.105,-1.365],[134.0855,-1.362],[134.0645,-1.354],[134.064,-1.3545],[134.064,-1.356],[134.0585,-1.358],[134.053,-1.3565],[134.051,-1.3565],[134.046,-1.3555],[134.046,-1.355],[134.0585,-1.37],[134.0755,-1.373],[134.0855,-1.365],[134.112,-1.378],[134.1435,-1.3805],[134.1545,-1.3705],[134.1565,-1.369],[134.1585,-1.3715],[134.1635,-1.371],[134.166,-1.371],[134.1725,-1.3705],[134.174,-1.3695],[134.175,-1.369],[134.176,-1.368],[134.1795,-1.3685],[134.1815,-1.369],[134.1825,-1.369],[134.1835,-1.3685],[134.187,-1.367],[134.1885,-1.367],[134.191,-1.369],[134.195,-1.367],[134.215,-1.3445],[134.224,-1.3455],[134.236,-1.3355],[134.2375,-1.335],[134.239,-1.335],[134.2395,-1.3345],[134.238,-1.3285],[134.2085,-1.329]]]},"properties":{"code":"92.11.02.2009","name":"Margomulyo"}},{"type":"Feature","geometry":{"type":"Polygon","coordinates":[[[134.173,-1.3705],[134.1725,-1.3705],[134.166,-1.371],[134.1635,-1.371],[134.1585,-1.3715],[134.1565,-1.369],[134.1545,-1.3705],[134.1435,-1.3805],[134.112,-1.378],[134.124,-1.391],[134.1245,-1.3995],[134.126,-1.4015],[134.1295,-1.401],[134.1305,-1.401],[134.1315,-1.403],[134.1305,-1.4055],[134.1305,-1.407],[134.1325,-1.408],[134.1335,-1.4095],[134.134,-1.4115],[134.1355,-1.412],[134.139,-1.411],[134.1455,-1.412],[134.143,-1.416],[134.1455,-1.4215],[134.146,-1.4255],[134.157,-1.437],[134.168,-1.4545],[134.1695,-1.455],[134.179,-1.458],[134.18,-1.46],[134.1815,-1.4615],[134.1825,-1.462],[134.1825,-1.463],[134.1835,-1.4635],[134.199,-1.46],[134.198,-1.456],[134.2105,-1.4355],[134.2135,-1.4075],[134.2205,-1.398],[134.2195,-1.3965],[134.2195,-1.3945],[134.219,-1.3945],[134.2185,-1.3935],[134.21,-1.381],[134.187,-1.378],[134.173,-1.3705]]]},"properties":{"code":"92.11.02.2010","name":"Warkwandi"}},{"type":"Feature","geometry":{"type":"Polygon","coordinates":[[[134.228,-1.292],[134.2215,-1.292],[134.22,-1.291],[134.219,-1.291],[134.215,-1.296],[134.2215,-1.3125],[134.2235,-1.3225],[134.237,-1.325],[134.2365,-1.3205],[134.237,-1.316],[134.2375,-1.3145],[134.2385,-1.3145],[134.2385,-1.314],[134.231,-1.3045],[134.228,-1.2945],[134.228,-1.292]]]},"properties":{"code":"92.11.02.2011","name":"Sindang Jaya"}},{"type":"Feature","geometry":{"type":"Polygon","coordinates":[[[134.2005,-1.2275],[134.1905,-1.2285],[134.1715,-1.2535],[134.147,-1.268],[134.1295,-1.285],[134.1225,-1.298],[134.113,-1.306],[134.0965,-1.3085],[134.0925,-1.3075],[134.0925,-1.307],[134.0915,-1.306],[134.0885,-1.306],[134.0795,-1.304],[134.076,-1.305],[134.073,-1.3065],[134.082,-1.32],[134.084,-1.3325],[134.0825,-1.336],[134.0935,-1.346],[134.1125,-1.3435],[134.118,-1.3335],[134.1325,-1.321],[134.149,-1.3215],[134.176,-1.299],[134.182,-1.2735],[134.1835,-1.271],[134.185,-1.27],[134.1915,-1.27],[134.192,-1.27],[134.1935,-1.2665],[134.2115,-1.253],[134.2005,-1.2275]]]},"properties":{"code":"92.11.02.2012","name":"Wandoki"}},{"type":"Feature","geometry":{"type":"Polygon","coordinates":[[[134.237,-1.325],[134.2235,-1.3225],[134.2095,-1.323],[134.2085,-1.329],[134.238,-1.3285],[134.237,-1.325]]]},"properties":{"code":"92.11.02.2013","name":"Akeju"}},{"type":"Feature","geometry":{"type":"Polygon","coordinates":[[[134.2005,-1.2275],[134.202,-1.222],[134.1925,-1.206],[134.1875,-1.216],[134.1485,-1.2445],[134.1325,-1.261],[134.1195,-1.28],[134.1105,-1.28],[134.1025,-1.287],[134.0825,-1.2895],[134.0785,-1.3025],[134.0795,-1.304],[134.0885,-1.306],[134.0915,-1.306],[134.0925,-1.307],[134.0925,-1.3075],[134.0965,-1.3085],[134.113,-1.306],[134.1225,-1.298],[134.1295,-1.285],[134.147,-1.268],[134.1715,-1.2535],[134.1905,-1.2285],[134.2005,-1.2275]]]},"properties":{"code":"92.11.02.2014","name":"Masabui II"}},{"type":"Feature","geometry":{"type":"Polygon","coordinates":[[[133.99,-1.4945],[133.9895,-1.4945],[133.9885,-1.493],[133.987,-1.4925],[133.9865,-1.4925],[133.985,-1.493],[133.981,-1.4935],[133.966,-1.488],[133.9575,-1.4905],[133.952,-1.5095],[133.9395,-1.508],[133.9335,-1.5185],[133.941,-1.533],[133.9335,-1.5385],[133.9325,-1.539],[133.931,-1.543],[133.9305,-1.547],[133.9295,-1.5565],[133.93,-1.5735],[133.936,-1.599],[133.938,-1.6035],[133.945,-1.6095],[133.948,-1.6125],[133.9575,-1.625],[133.9705,-1.6335],[133.979,-1.6415],[133.9945,-1.6485],[134.0055,-1.6745],[134.009,-1.6765],[134.0135,-1.699],[134.0255,-1.705],[134.0265,-1.704],[134.0255,-1.7015],[134.031,-1.6855],[134.033,-1.6755],[134.021,-1.658],[134.0235,-1.649],[134.0245,-1.645],[134.0245,-1.6445],[134.0255,-1.6435],[134.03,-1.624],[134.033,-1.621],[134.0415,-1.608],[134.037,-1.601],[134.0445,-1.585],[134.046,-1.584],[134.044,-1.581],[134.0425,-1.579],[134.04,-1.575],[134.036,-1.5705],[134.0345,-1.5695],[134.0305,-1.5635],[134.0285,-1.559],[134.028,-1.5565],[134.0305,-1.55],[134.032,-1.5485],[134.033,-1.545],[134.033,-1.534],[134.0295,-1.5315],[134.0265,-1.53],[134.011,-1.5385],[134.0085,-1.5385],[134.0025,-1.5375],[133.998,-1.535],[133.9905,-1.5315],[133.988,-1.53],[133.987,-1.5265],[133.9965,-1.5005],[133.9955,-1.4975],[133.9935,-1.4995],[133.99,-1.4945]]]},"properties":{"code":"92.11.03.2001","name":"Wama"}},{"type":"Feature","geometry":{"type":"Polygon","coordinates":[[[133.9955,-1.4975],[133.9935,-1.494],[133.99,-1.4945],[133.9935,-1.4995],[133.9955,-1.4975]]]},"properties":{"code":"92.11.03.2002","name":"Disi"}},{"type":"Feature","geometry":{"type":"Polygon","coordinates":[[[134.0155,-1.4325],[134.015,-1.4325],[134.0085,-1.4315],[134.006,-1.4365],[134.01,-1.4565],[134.015,-1.459],[134.022,-1.454],[134.021,-1.452],[134.017,-1.4475],[134.016,-1.445],[134.016,-1.443],[134.0155,-1.4325]]]},"properties":{"code":"92.11.03.2003","name":"Hiyou"}},{"type":"Feature","geometry":{"type":"Polygon","coordinates":[[[134.045,-1.4875],[134.052,-1.4755],[134.0555,-1.4735],[134.0615,-1.4595],[134.0615,-1.4405],[134.061,-1.4405],[134.059,-1.4425],[134.0575,-1.4445],[134.055,-1.446],[134.055,-1.4465],[134.0535,-1.448],[134.0475,-1.4455],[134.0465,-1.4455],[134.045,-1.447],[134.036,-1.4515],[134.035,-1.4525],[134.0325,-1.4515],[134.032,-1.4525],[134.029,-1.456],[134.0255,-1.458],[134.0235,-1.4555],[134.022,-1.454],[134.015,-1.459],[134.012,-1.458],[134.0125,-1.46],[134.012,-1.462],[134.0125,-1.462],[134.013,-1.462],[134.0135,-1.4625],[134.015,-1.462],[134.016,-1.4615],[134.02,-1.4615],[134.022,-1.4645],[134.027,-1.478],[134.045,-1.4875]]]},"properties":{"code":"92.11.03.2004","name":"Sesum"}},{"type":"Feature","geometry":{"type":"Polygon","coordinates":[[[134.061,-1.4395],[134.0595,-1.44],[134.052,-1.4415],[134.041,-1.432],[134.0165,-1.4325],[134.0155,-1.4325],[134.016,-1.443],[134.016,-1.445],[134.017,-1.4475],[134.021,-1.452],[134.022,-1.454],[134.0235,-1.4555],[134.0255,-1.458],[134.029,-1.456],[134.032,-1.4525],[134.0325,-1.4515],[134.035,-1.4525],[134.036,-1.4515],[134.045,-1.447],[134.0465,-1.4455],[134.0475,-1.4455],[134.0535,-1.448],[134.055,-1.4465],[134.055,-1.446],[134.0575,-1.4445],[134.059,-1.4425],[134.061,-1.4405],[134.061,-1.4395]]]},"properties":{"code":"92.11.03.2005","name":"Benyas"}},{"type":"Feature","geometry":{"type":"Polygon","coordinates":[[[134.045,-1.4875],[134.027,-1.478],[134.022,-1.4645],[134.02,-1.4615],[134.016,-1.4615],[134.015,-1.462],[134.0135,-1.4625],[134.013,-1.462],[134.0125,-1.462],[134.012,-1.462],[134.0125,-1.4625],[134.007,-1.4655],[134.004,-1.466],[133.9935,-1.4675],[133.993,-1.468],[133.992,-1.471],[133.995,-1.4755],[133.998,-1.4785],[134.011,-1.4825],[134.014,-1.484],[134.0225,-1.494],[134.026,-1.499],[134.0295,-1.5],[134.0315,-1.5015],[134.038,-1.5125],[134.047,-1.5025],[134.044,-1.4965],[134.044,-1.4925],[134.045,-1.4875]]]},"properties":{"code":"92.11.03.2006","name":"Aryawenmoho"}},{"type":"Feature","geometry":{"type":"Polygon","coordinates":[[[133.993,-1.468],[133.992,-1.4685],[133.98,-1.4685],[133.978,-1.469],[133.9775,-1.47],[133.967,-1.487],[133.966,-1.488],[133.981,-1.4935],[133.985,-1.493],[133.9865,-1.4925],[133.987,-1.4925],[133.9885,-1.493],[133.9895,-1.4945],[133.99,-1.4945],[133.9935,-1.494],[133.995,-1.4975],[133.996,-1.4985],[133.9965,-1.5005],[133.987,-1.5265],[133.988,-1.53],[133.9905,-1.5315],[133.998,-1.535],[134.0025,-1.5375],[134.0085,-1.5385],[134.011,-1.5385],[134.0265,-1.53],[134.038,-1.5125],[134.0315,-1.5015],[134.0295,-1.5],[134.026,-1.499],[134.0225,-1.494],[134.014,-1.484],[134.011,-1.4825],[133.998,-1.4785],[133.995,-1.4755],[133.992,-1.471],[133.993,-1.468]]]},"properties":{"code":"92.11.03.2007","name":"Neney"}},{"type":"Feature","geometry":{"type":"Polygon","coordinates":[[[133.8755,-1.583],[133.858,-1.583],[133.85,-1.578],[133.839,-1.581],[133.8205,-1.579],[133.8175,-1.581],[133.816,-1.588],[133.816,-1.601],[133.8205,-1.6105],[133.821,-1.6125],[133.8165,-1.618],[133.8155,-1.6185],[133.813,-1.619],[133.812,-1.619],[133.811,-1.6185],[133.806,-1.6245],[133.8045,-1.6265],[133.8015,-1.6285],[133.7995,-1.63],[133.797,-1.635],[133.794,-1.6375],[133.791,-1.6415],[133.791,-1.643],[133.803,-1.6515],[133.801,-1.653],[133.7995,-1.655],[133.801,-1.6565],[133.8015,-1.657],[133.803,-1.6605],[133.804,-1.663],[133.8055,-1.6645],[133.8135,-1.6715],[133.8145,-1.6725],[133.824,-1.6735],[133.831,-1.682],[133.834,-1.6805],[133.8345,-1.6825],[133.837,-1.682],[133.8355,-1.6835],[133.8385,-1.683],[133.8395,-1.6815],[133.8405,-1.6815],[133.8545,-1.684],[133.8555,-1.695],[133.889,-1.713],[133.89,-1.7315],[133.894,-1.735],[133.896,-1.735],[133.895,-1.733],[133.898,-1.733],[133.901,-1.7315],[133.903,-1.7305],[133.9025,-1.729],[133.911,-1.724],[133.9115,-1.7235],[133.911,-1.7245],[133.915,-1.724],[133.916,-1.724],[133.916,-1.7235],[133.917,-1.7235],[133.9195,-1.723],[133.9205,-1.723],[133.9235,-1.7225],[133.924,-1.7215],[133.9245,-1.722],[133.9255,-1.7205],[133.93,-1.7155],[133.9315,-1.7145],[133.932,-1.714],[133.9325,-1.713],[133.9205,-1.7025],[133.9105,-1.654],[133.9015,-1.642],[133.875,-1.6255],[133.871,-1.6165],[133.874,-1.603],[133.8765,-1.589],[133.8755,-1.583]]]},"properties":{"code":"92.11.04.2001","name":"Isim"}},{"type":"Feature","geometry":{"type":"Polygon","coordinates":[[[133.9325,-1.539],[133.931,-1.539],[133.9145,-1.5335],[133.9075,-1.5265],[133.9055,-1.525],[133.9045,-1.5245],[133.9005,-1.5265],[133.897,-1.527],[133.895,-1.5295],[133.8925,-1.531],[133.888,-1.531],[133.8835,-1.5545],[133.875,-1.5655],[133.8755,-1.583],[133.8765,-1.589],[133.874,-1.603],[133.871,-1.6165],[133.885,-1.6145],[133.8955,-1.616],[133.9055,-1.6185],[133.926,-1.6165],[133.9295,-1.615],[133.9375,-1.6135],[133.9405,-1.614],[133.9455,-1.611],[133.945,-1.6095],[133.938,-1.6035],[133.936,-1.599],[133.93,-1.5735],[133.9295,-1.5565],[133.9305,-1.547],[133.931,-1.543],[133.9325,-1.539]]]},"properties":{"code":"92.11.04.2002","name":"Duhugesa"}},{"type":"Feature","geometry":{"type":"Polygon","coordinates":[[[133.9705,-1.6335],[133.9575,-1.625],[133.948,-1.6125],[133.9455,-1.611],[133.9405,-1.614],[133.9375,-1.6135],[133.9295,-1.615],[133.926,-1.6165],[133.9055,-1.6185],[133.8955,-1.616],[133.885,-1.6145],[133.871,-1.6165],[133.875,-1.6255],[133.9015,-1.642],[133.9105,-1.654],[133.9205,-1.7025],[133.9325,-1.713],[133.933,-1.713],[133.9425,-1.7075],[133.944,-1.7065],[133.951,-1.7],[133.9555,-1.69],[133.956,-1.689],[133.957,-1.6875],[133.957,-1.6855],[133.956,-1.684],[133.9555,-1.6835],[133.952,-1.6785],[133.9515,-1.6775],[133.951,-1.6765],[133.9535,-1.658],[133.9615,-1.651],[133.9705,-1.6335]]]},"properties":{"code":"92.11.04.2003","name":"Tubes"}},{"type":"Feature","geometry":{"type":"Polygon","coordinates":[[[133.791,-1.643],[133.782,-1.6445],[133.782,-1.6425],[133.7815,-1.642],[133.781,-1.641],[133.78,-1.6415],[133.778,-1.643],[133.7755,-1.6445],[133.775,-1.6455],[133.772,-1.649],[133.77,-1.65],[133.767,-1.651],[133.765,-1.6525],[133.7675,-1.6535],[133.769,-1.6545],[133.7695,-1.6585],[133.775,-1.6675],[133.7845,-1.6715],[133.788,-1.66],[133.8015,-1.6585],[133.8015,-1.657],[133.801,-1.6565],[133.7995,-1.655],[133.801,-1.653],[133.803,-1.6515],[133.791,-1.643]]]},"properties":{"code":"92.11.04.2004","name":"Umohousi"}},{"type":"Feature","geometry":{"type":"Polygon","coordinates":[[[133.7975,-1.5245],[133.7965,-1.525],[133.791,-1.5165],[133.79,-1.5145],[133.7895,-1.5145],[133.7865,-1.514],[133.7835,-1.5165],[133.7815,-1.521],[133.7795,-1.5235],[133.778,-1.525],[133.782,-1.5335],[133.787,-1.5585],[133.7865,-1.586],[133.789,-1.595],[133.7885,-1.6],[133.788,-1.603],[133.7905,-1.6045],[133.7905,-1.6075],[133.794,-1.6095],[133.7955,-1.61],[133.793,-1.6265],[133.792,-1.63],[133.79,-1.641],[133.791,-1.6415],[133.794,-1.6375],[133.797,-1.635],[133.7995,-1.63],[133.8015,-1.6285],[133.8045,-1.6265],[133.805,-1.623],[133.805,-1.619],[133.804,-1.6115],[133.8,-1.588],[133.803,-1.58],[133.7935,-1.5455],[133.7955,-1.5355],[133.7975,-1.5245]]]},"properties":{"code":"92.11.04.2005","name":"Tohosta"}},{"type":"Feature","geometry":{"type":"Polygon","coordinates":[[[133.778,-1.525],[133.7755,-1.527],[133.7605,-1.5255],[133.7555,-1.526],[133.7545,-1.529],[133.754,-1.5305],[133.7595,-1.5505],[133.756,-1.555],[133.7495,-1.585],[133.75,-1.5945],[133.751,-1.597],[133.7515,-1.599],[133.751,-1.6],[133.749,-1.604],[133.7505,-1.604],[133.751,-1.604],[133.753,-1.604],[133.7755,-1.604],[133.7765,-1.604],[133.778,-1.603],[133.7875,-1.604],[133.7885,-1.6],[133.789,-1.595],[133.7865,-1.586],[133.787,-1.5585],[133.782,-1.5335],[133.778,-1.525]]]},"properties":{"code":"92.11.04.2006","name":"Hugomot"}},{"type":"Feature","geometry":{"type":"Polygon","coordinates":[[[133.788,-1.603],[133.7875,-1.604],[133.778,-1.603],[133.7765,-1.604],[133.7755,-1.604],[133.753,-1.604],[133.751,-1.604],[133.7505,-1.604],[133.749,-1.604],[133.7485,-1.604],[133.7485,-1.6055],[133.7495,-1.6085],[133.751,-1.6125],[133.75,-1.6155],[133.752,-1.6185],[133.7505,-1.623],[133.751,-1.623],[133.7775,-1.634],[133.7785,-1.6365],[133.7775,-1.636],[133.7775,-1.6385],[133.781,-1.6395],[133.7815,-1.642],[133.782,-1.6425],[133.782,-1.6445],[133.791,-1.643],[133.79,-1.641],[133.792,-1.63],[133.793,-1.6265],[133.7955,-1.61],[133.794,-1.6095],[133.7905,-1.6075],[133.7905,-1.6045],[133.788,-1.603]]]},"properties":{"code":"92.11.04.2007","name":"Dihisu"}},{"type":"Feature","geometry":{"type":"Polygon","coordinates":[[[133.8195,-1.5455],[133.8175,-1.5445],[133.814,-1.5415],[133.8115,-1.5395],[133.811,-1.5435],[133.812,-1.548],[133.812,-1.5885],[133.8105,-1.5965],[133.812,-1.619],[133.813,-1.619],[133.8155,-1.6185],[133.8165,-1.618],[133.821,-1.6125],[133.8205,-1.6105],[133.816,-1.601],[133.816,-1.588],[133.8175,-1.581],[133.8195,-1.5455]]]},"properties":{"code":"92.11.04.2008","name":"Inyuara"}},{"type":"Feature","geometry":{"type":"Polygon","coordinates":[[[133.748,-1.5145],[133.732,-1.51],[133.7025,-1.521],[133.692,-1.5295],[133.6915,-1.531],[133.6955,-1.532],[133.7,-1.534],[133.697,-1.551],[133.6975,-1.5525],[133.706,-1.564],[133.7095,-1.5665],[133.711,-1.5715],[133.7105,-1.575],[133.714,-1.5775],[133.72,-1.588],[133.7225,-1.588],[133.715,-1.595],[133.716,-1.598],[133.7195,-1.601],[133.722,-1.6015],[133.7395,-1.6025],[133.7475,-1.599],[133.75,-1.5945],[133.7495,-1.585],[133.756,-1.555],[133.7595,-1.5505],[133.754,-1.5305],[133.754,-1.531],[133.748,-1.5145]]]},"properties":{"code":"92.11.04.2009","name":"Desra"}},{"type":"Feature","geometry":{"type":"Polygon","coordinates":[[[133.749,-1.604],[133.751,-1.6],[133.7515,-1.599],[133.751,-1.597],[133.7475,-1.599],[133.7395,-1.6025],[133.722,-1.6015],[133.7195,-1.601],[133.716,-1.598],[133.716,-1.609],[133.6985,-1.618],[133.693,-1.618],[133.6625,-1.6135],[133.6525,-1.6185],[133.652,-1.6215],[133.656,-1.6275],[133.678,-1.626],[133.7005,-1.621],[133.7105,-1.6215],[133.7205,-1.6305],[133.7325,-1.633],[133.7355,-1.6305],[133.745,-1.6245],[133.7505,-1.623],[133.752,-1.6185],[133.75,-1.6155],[133.751,-1.6125],[133.7495,-1.6085],[133.7485,-1.6055],[133.7485,-1.604],[133.749,-1.604]]]},"properties":{"code":"92.11.04.2010","name":"Mindermes"}},{"type":"Feature","geometry":{"type":"Polygon","coordinates":[[[133.888,-1.531],[133.8865,-1.5295],[133.8815,-1.5195],[133.869,-1.5175],[133.8495,-1.506],[133.847,-1.5105],[133.8535,-1.5275],[133.85,-1.547],[133.849,-1.5495],[133.843,-1.5605],[133.8415,-1.559],[133.8205,-1.5455],[133.8195,-1.5455],[133.8175,-1.581],[133.8205,-1.579],[133.839,-1.581],[133.85,-1.578],[133.858,-1.583],[133.8755,-1.583],[133.875,-1.5655],[133.8835,-1.5545],[133.888,-1.531]]]},"properties":{"code":"92.11.04.2011","name":"Sibjo"}},{"type":"Feature","geometry":{"type":"Polygon","coordinates":[[[133.8115,-1.5395],[133.811,-1.5385],[133.7985,-1.5245],[133.7975,-1.5245],[133.7955,-1.5355],[133.7935,-1.5455],[133.803,-1.58],[133.8,-1.588],[133.804,-1.6115],[133.805,-1.619],[133.805,-1.623],[133.806,-1.6245],[133.811,-1.6185],[133.812,-1.619],[133.8105,-1.5965],[133.812,-1.5885],[133.812,-1.548],[133.811,-1.5435],[133.8115,-1.5395]]]},"properties":{"code":"92.11.04.2012","name":"Dibera"}},{"type":"Feature","geometry":{"type":"Polygon","coordinates":[[[134.1095,-1.5105],[134.1095,-1.5125],[134.1085,-1.513],[134.107,-1.5145],[134.1055,-1.5145],[134.098,-1.517],[134.08,-1.512],[134.0715,-1.503],[134.047,-1.5025],[134.0525,-1.518],[134.052,-1.5285],[134.066,-1.5345],[134.0815,-1.558],[134.091,-1.5595],[134.0955,-1.569],[134.107,-1.577],[134.123,-1.5725],[134.123,-1.5735],[134.124,-1.5785],[134.125,-1.579],[134.1325,-1.582],[134.146,-1.597],[134.1625,-1.585],[134.1735,-1.569],[134.1855,-1.5585],[134.1825,-1.5535],[134.1815,-1.5525],[134.1815,-1.551],[134.18,-1.55],[134.179,-1.551],[134.179,-1.5515],[134.178,-1.552],[134.172,-1.538],[134.162,-1.5295],[134.1635,-1.5255],[134.162,-1.525],[134.161,-1.5225],[134.1605,-1.522],[134.1595,-1.516],[134.141,-1.5165],[134.128,-1.5095],[134.1095,-1.5105]]]},"properties":{"code":"92.11.05.2001","name":"Dembek"}},{"type":"Feature","geometry":{"type":"Polygon","coordinates":[[[134.0775,-1.608],[134.077,-1.6075],[134.0755,-1.6055],[134.0505,-1.586],[134.049,-1.5845],[134.0465,-1.5835],[134.046,-1.584],[134.0445,-1.585],[134.037,-1.601],[134.0415,-1.608],[134.0715,-1.6125],[134.0775,-1.608]]]},"properties":{"code":"92.11.05.2002","name":"Nij"}},{"type":"Feature","geometry":{"type":"Polygon","coordinates":[[[134.125,-1.579],[134.124,-1.5785],[134.123,-1.5735],[134.123,-1.5725],[134.107,-1.577],[134.0955,-1.569],[134.091,-1.5595],[134.0815,-1.558],[134.066,-1.5345],[134.052,-1.5285],[134.0525,-1.518],[134.047,-1.5025],[134.038,-1.5125],[134.0265,-1.53],[134.0295,-1.5315],[134.033,-1.534],[134.033,-1.545],[134.032,-1.5485],[134.0305,-1.55],[134.028,-1.5565],[134.0285,-1.559],[134.0305,-1.5635],[134.0345,-1.5695],[134.036,-1.5705],[134.04,-1.575],[134.0425,-1.579],[134.044,-1.581],[134.0465,-1.5835],[134.049,-1.5845],[134.0505,-1.586],[134.0755,-1.6055],[134.077,-1.608],[134.078,-1.608],[134.0785,-1.608],[134.078,-1.6065],[134.0795,-1.6055],[134.0795,-1.6035],[134.096,-1.602],[134.096,-1.5985],[134.096,-1.5965],[134.0965,-1.594],[134.1015,-1.5965],[134.1115,-1.5995],[134.121,-1.581],[134.125,-1.579]]]},"properties":{"code":"92.11.05.2003","name":"Siwi"}},{"type":"Feature","geometry":{"type":"Polygon","coordinates":[[[134.0775,-1.608],[134.0715,-1.6125],[134.0415,-1.608],[134.033,-1.621],[134.03,-1.624],[134.0255,-1.6435],[134.0245,-1.6445],[134.0245,-1.645],[134.024,-1.648],[134.032,-1.6495],[134.036,-1.6475],[134.0375,-1.647],[134.0405,-1.6495],[134.046,-1.6555],[134.068,-1.6565],[134.0685,-1.657],[134.0725,-1.65],[134.094,-1.641],[134.1175,-1.6395],[134.133,-1.6175],[134.131,-1.6175],[134.1315,-1.616],[134.1295,-1.6165],[134.1265,-1.6125],[134.125,-1.6125],[134.124,-1.612],[134.123,-1.613],[134.1195,-1.612],[134.1195,-1.613],[134.1185,-1.6135],[134.1125,-1.615],[134.1105,-1.615],[134.109,-1.613],[134.086,-1.612],[134.08,-1.6085],[134.0775,-1.608]]]},"properties":{"code":"92.11.05.2004","name":"Gaya Baru"}},{"type":"Feature","geometry":{"type":"Polygon","coordinates":[[[134.1115,-1.5995],[134.1015,-1.5965],[134.0965,-1.594],[134.096,-1.5965],[134.096,-1.5985],[134.096,-1.602],[134.0795,-1.6035],[134.0795,-1.6055],[134.078,-1.6065],[134.0785,-1.608],[134.078,-1.608],[134.08,-1.6085],[134.086,-1.612],[134.109,-1.613],[134.1105,-1.615],[134.1125,-1.615],[134.1185,-1.6135],[134.1195,-1.613],[134.1195,-1.612],[134.122,-1.6115],[134.1235,-1.61],[134.1225,-1.6045],[134.12,-1.6005],[134.116,-1.6005],[134.1115,-1.5995]]]},"properties":{"code":"92.11.05.2005","name":"Waren"}},{"type":"Feature","geometry":{"type":"Polygon","coordinates":[[[134.146,-1.597],[134.1325,-1.582],[134.121,-1.581],[134.1115,-1.5995],[134.116,-1.6005],[134.12,-1.6005],[134.1225,-1.6045],[134.1235,-1.61],[134.122,-1.6115],[134.123,-1.613],[134.124,-1.612],[134.125,-1.6125],[134.1265,-1.6125],[134.1295,-1.6165],[134.1315,-1.616],[134.131,-1.6175],[134.133,-1.6175],[134.146,-1.597]]]},"properties":{"code":"92.11.05.2006","name":"Demini"}},{"type":"Feature","geometry":{"type":"Polygon","coordinates":[[[134.0405,-1.6495],[134.0375,-1.647],[134.036,-1.6475],[134.032,-1.6495],[134.024,-1.648],[134.0235,-1.649],[134.021,-1.658],[134.033,-1.6755],[134.031,-1.6855],[134.0255,-1.7015],[134.0265,-1.704],[134.024,-1.7075],[134.0245,-1.7095],[134.0265,-1.712],[134.043,-1.71],[134.046,-1.714],[134.052,-1.725],[134.065,-1.734],[134.0685,-1.743],[134.0805,-1.747],[134.1015,-1.7455],[134.09,-1.736],[134.093,-1.729],[134.077,-1.678],[134.0665,-1.674],[134.0815,-1.659],[134.0685,-1.657],[134.068,-1.6565],[134.046,-1.6555],[134.0405,-1.6495]]]},"properties":{"code":"92.11.05.2007","name":"Yekwandi"}},{"type":"Feature","geometry":{"type":"Polygon","coordinates":[[[134.0975,-1.753],[134.069,-1.7465],[134.0585,-1.7475],[134.051,-1.735],[134.0415,-1.732],[134.037,-1.7325],[134.029,-1.7325],[133.9805,-1.7515],[133.974,-1.753],[133.9565,-1.7335],[133.949,-1.731],[133.9355,-1.7375],[133.9275,-1.751],[133.9255,-1.751],[133.9165,-1.7395],[133.9025,-1.733],[133.901,-1.733],[133.898,-1.733],[133.895,-1.733],[133.896,-1.735],[133.898,-1.738],[133.895,-1.739],[133.8865,-1.75],[133.885,-1.7525],[133.887,-1.7535],[133.894,-1.7545],[133.8955,-1.754],[133.895,-1.7525],[133.896,-1.7505],[133.899,-1.7505],[133.901,-1.753],[133.9025,-1.76],[133.904,-1.763],[133.908,-1.7625],[133.909,-1.7655],[133.906,-1.7715],[133.9055,-1.7745],[133.909,-1.7755],[133.9095,-1.776],[133.915,-1.7755],[133.92,-1.7775],[133.9335,-1.7825],[133.9365,-1.785],[133.95,-1.7805],[133.964,-1.7925],[133.9685,-1.7925],[133.987,-1.7905],[134.006,-1.7945],[134.0075,-1.7945],[134.007,-1.795],[134.009,-1.797],[134.0105,-1.7985],[134.0115,-1.799],[134.012,-1.8],[134.0105,-1.83],[134.008,-1.837],[134.0075,-1.8395],[134.0085,-1.8385],[134.0405,-1.8315],[134.046,-1.8255],[134.049,-1.8175],[134.0785,-1.8025],[134.097,-1.77],[134.102,-1.766],[134.0975,-1.753]]]},"properties":{"code":"92.11.06.2001","name":"Yarmatum"}},{"type":"Feature","geometry":{"type":"Polygon","coordinates":[[[134.007,-1.802],[134.0115,-1.799],[134.0105,-1.7985],[134.009,-1.797],[134.007,-1.795],[134.0075,-1.7945],[134.006,-1.7945],[133.987,-1.7905],[133.9685,-1.7925],[133.964,-1.7925],[133.95,-1.7805],[133.9365,-1.785],[133.9335,-1.7825],[133.92,-1.7775],[133.915,-1.7755],[133.9095,-1.776],[133.9095,-1.777],[133.908,-1.777],[133.907,-1.777],[133.907,-1.7835],[133.909,-1.783],[133.91,-1.7835],[133.9105,-1.7855],[133.908,-1.796],[133.9085,-1.7975],[133.9185,-1.8055],[133.9165,-1.808],[133.888,-1.8205],[133.8805,-1.8335],[133.9015,-1.832],[133.905,-1.833],[133.918,-1.8375],[133.944,-1.8225],[133.9495,-1.824],[133.9615,-1.822],[133.97,-1.821],[133.982,-1.8215],[133.987,-1.821],[134.0025,-1.8105],[134.007,-1.802]]]},"properties":{"code":"92.11.06.2002","name":"Reyob"}},{"type":"Feature","geometry":{"type":"Polygon","coordinates":[[[134.0075,-1.8395],[134.008,-1.837],[134.0105,-1.83],[134.012,-1.8],[134.007,-1.802],[134.0025,-1.8105],[133.987,-1.821],[133.982,-1.8215],[133.97,-1.821],[133.9615,-1.822],[133.9495,-1.824],[133.944,-1.8225],[133.918,-1.8375],[133.905,-1.833],[133.9015,-1.832],[133.8805,-1.8335],[133.878,-1.8375],[133.877,-1.839],[133.879,-1.839],[133.8795,-1.839],[133.88,-1.8395],[133.8805,-1.8405],[133.881,-1.841],[133.8825,-1.8445],[133.8865,-1.844],[133.9005,-1.85],[133.919,-1.8525],[133.927,-1.842],[133.938,-1.8485],[133.946,-1.8435],[133.9725,-1.839],[133.9875,-1.833],[133.9945,-1.8395],[133.995,-1.8415],[134.0035,-1.841],[134.0075,-1.8395]]]},"properties":{"code":"92.11.06.2003","name":"Kaprus"}},{"type":"Feature","geometry":{"type":"Polygon","coordinates":[[[134.0255,-1.705],[134.0135,-1.699],[134.009,-1.6765],[134.0055,-1.6745],[133.9945,-1.6485],[133.979,-1.6415],[133.9705,-1.6335],[133.9615,-1.651],[133.9535,-1.658],[133.951,-1.6765],[133.9515,-1.6775],[133.952,-1.6785],[133.9555,-1.6835],[133.956,-1.684],[133.957,-1.6855],[133.957,-1.6875],[133.956,-1.689],[133.9555,-1.69],[133.951,-1.7],[133.944,-1.7065],[133.9425,-1.7075],[133.933,-1.713],[133.932,-1.714],[133.9315,-1.7145],[133.93,-1.7155],[133.9255,-1.7205],[133.9245,-1.722],[133.924,-1.7215],[133.9235,-1.7225],[133.9205,-1.723],[133.9195,-1.723],[133.917,-1.7235],[133.916,-1.7235],[133.916,-1.724],[133.915,-1.724],[133.911,-1.7245],[133.9115,-1.7235],[133.911,-1.724],[133.9025,-1.729],[133.903,-1.7305],[133.901,-1.7315],[133.901,-1.733],[133.9025,-1.733],[133.9165,-1.7395],[133.9255,-1.751],[133.9275,-1.751],[133.9355,-1.7375],[133.949,-1.731],[133.9565,-1.7335],[133.974,-1.753],[133.9805,-1.7515],[134.029,-1.7325],[134.037,-1.7325],[134.0415,-1.732],[134.051,-1.735],[134.0585,-1.7475],[134.069,-1.7465],[134.0975,-1.753],[134.1015,-1.7455],[134.0805,-1.747],[134.0685,-1.743],[134.065,-1.734],[134.052,-1.725],[134.046,-1.714],[134.043,-1.71],[134.0265,-1.712],[134.0245,-1.7095],[134.024,-1.7075],[134.0255,-1.705]]]},"properties":{"code":"92.11.06.2004","name":"Seimeba"}}]}