{"type":"FeatureCollection","features":[{"type":"Feature","geometry":{"type":"Polygon","coordinates":[[[96.0764,4.1883],[96.1238,4.1386],[96.1556,4.1904],[96.1056,4.2096],[96.0764,4.1883]]]},"properties":{"code":"11.05.01","name":"Johan Pahlawan","latitude":4.185433010104652,"longitude":96.12004701555809}},{"type":"Feature","geometry":{"type":"Polygon","coordinates":[[[96.1997,4.273],[96.1991,4.2793],[96.1738,4.2963],[96.1709,4.29],[96.1997,4.273]]]},"properties":{"code":"11.05.02","name":"Kaway XVI","latitude":4.2727923070529235,"longitude":96.22238445310012}},{"type":"Feature","geometry":{"type":"Polygon","coordinates":[[[96.2603,4.7124],[96.2433,4.7123],[96.1676,4.7501],[96.1586,4.7107],[96.103,4.723],[96.1068,4.7497],[96.0002,4.7495],[96.0428,4.6599],[96.0259,4.6134],[96.0133,4.5512],[95.966,4.5194],[95.9791,4.4994],[96.0265,4.4942],[96.0468,4.5031],[96.0895,4.4891],[96.0927,4.5003],[96.1815,4.4742],[96.19,4.4928],[96.2033,4.4967],[96.2222,4.5508],[96.2585,4.5922],[96.2194,4.6178],[96.227,4.6582],[96.2964,4.6521],[96.3487,4.5923],[96.433,4.527],[96.4922,4.5477],[96.4957,4.6007],[96.4851,4.6306],[96.4475,4.6231],[96.4062,4.67],[96.3612,4.67],[96.2603,4.7124]]]},"properties":{"code":"11.05.03","name":"Sungai Mas","latitude":4.6138361747149785,"longitude":96.19806652133363}},{"type":"Feature","geometry":{"type":"Polygon","coordinates":[[[96.048,4.4477],[96.0315,4.4692],[96.0124,4.4426],[96.033,4.3835],[96.0428,4.3613],[96.0326,4.365],[96.0334,4.3731],[96.0222,4.3663],[96.0288,4.3315],[96.0502,4.3336],[96.0603,4.3167],[96.1166,4.3397],[96.1741,4.3294],[96.1548,4.4091],[96.0763,4.404],[96.049,4.4322],[96.048,4.4477]]]},"properties":{"code":"11.05.04","name":"Woyla","latitude":4.380920007256732,"longitude":96.08658135737984}},{"type":"Feature","geometry":{"type":"Polygon","coordinates":[[[96.0493,4.3131],[96.0332,4.3081],[96.0308,4.2896],[96.0204,4.2786],[95.9674,4.2674],[96.0197,4.2119],[96.0764,4.1883],[96.1056,4.2096],[96.1568,4.2708],[96.083,4.2737],[96.0493,4.3131]]]},"properties":{"code":"11.05.05","name":"Samatiga","latitude":4.2491702950054,"longitude":96.05575049131153}},{"type":"Feature","geometry":{"type":"Polygon","coordinates":[[[96.1741,4.3294],[96.1166,4.3397],[96.0493,4.3131],[96.083,4.2737],[96.1568,4.2708],[96.1741,4.3294]]]},"properties":{"code":"11.05.06","name":"Bubon","latitude":4.303115802091566,"longitude":96.11988037667902}},{"type":"Feature","geometry":{"type":"Polygon","coordinates":[[[95.9558,4.422],[95.9275,4.446],[95.8873,4.3956],[95.8763,4.3698],[95.9634,4.2714],[96.0204,4.2786],[96.0256,4.2824],[96.0021,4.3041],[95.98,4.3104],[95.9837,4.3503],[95.9558,4.422]]]},"properties":{"code":"11.05.07","name":"Arongan Lambalek","latitude":4.3585475379199465,"longitude":95.94537615387681}},{"type":"Feature","geometry":{"type":"Polygon","coordinates":[[[96.2964,4.6521],[96.227,4.6582],[96.2194,4.6178],[96.2585,4.5922],[96.2222,4.5508],[96.2381,4.5043],[96.2645,4.4502],[96.228,4.3757],[96.2213,4.3212],[96.3049,4.35],[96.3721,4.4179],[96.4377,4.4251],[96.4853,4.4705],[96.4838,4.5007],[96.4593,4.5011],[96.4433,4.5278],[96.4329,4.527],[96.3763,4.5677],[96.2964,4.6521]]]},"properties":{"code":"11.05.08","name":"Pante Ceureumen","latitude":4.488662929652092,"longitude":96.32048101428933}},{"type":"Feature","geometry":{"type":"Polygon","coordinates":[[[96.2713,4.1689],[96.2691,4.2161],[96.2098,4.227],[96.1619,4.2027],[96.1407,4.1478],[96.1897,4.1069],[96.2149,4.1107],[96.2433,4.1295],[96.2582,4.1471],[96.2757,4.1532],[96.2713,4.1689]]]},"properties":{"code":"11.05.09","name":"Meureubo","latitude":4.169510324819025,"longitude":96.21187747326414}},{"type":"Feature","geometry":{"type":"Polygon","coordinates":[[[96.0124,4.4426],[95.9791,4.4994],[95.966,4.5194],[95.9275,4.446],[95.9558,4.422],[95.9837,4.3503],[95.98,4.3104],[96.0021,4.3041],[96.0256,4.2824],[96.0332,4.3081],[96.0603,4.3167],[96.0509,4.3333],[96.0246,4.3372],[96.023,4.3675],[96.0334,4.3731],[96.0326,4.365],[96.0428,4.361],[96.033,4.3835],[96.0124,4.4426]]]},"properties":{"code":"11.05.10","name":"Woyla Barat","latitude":4.404537059103324,"longitude":95.99471828992823}},{"type":"Feature","geometry":{"type":"Polygon","coordinates":[[[96.0895,4.4891],[96.0468,4.5031],[96.0265,4.4942],[96.0315,4.4692],[96.048,4.4477],[96.049,4.4322],[96.0763,4.404],[96.1548,4.4091],[96.1658,4.4364],[96.1815,4.4742],[96.0927,4.5003],[96.0895,4.4891]]]},"properties":{"code":"11.05.11","name":"Woyla Timur","latitude":4.460463987668394,"longitude":96.0947485431241}},{"type":"Feature","geometry":{"type":"Polygon","coordinates":[[[96.2381,4.5043],[96.2033,4.4967],[96.19,4.4928],[96.1658,4.4364],[96.1532,4.403],[96.1645,4.36],[96.1904,4.3549],[96.228,4.3757],[96.2645,4.4502],[96.2381,4.5043]]]},"properties":{"code":"11.05.12","name":"Panton Reu","latitude":4.433641967431559,"longitude":96.20435962768991}}]}