{"type":"FeatureCollection","features":[{"type":"Feature","geometry":{"type":"Polygon","coordinates":[[[96.8376,4.8446],[96.823,4.8792],[96.8328,4.9016],[96.8272,4.9106],[96.753,4.964],[96.682,4.972],[96.6276,4.9684],[96.5732,4.9476],[96.5864,4.9398],[96.5984,4.9386],[96.6164,4.9556],[96.6758,4.9494],[96.6912,4.8378],[96.708,4.8198],[96.7494,4.8258],[96.7614,4.821],[96.7798,4.833],[96.8232,4.8336],[96.8376,4.8446]]]},"properties":{"code":"11.17.01","name":"Pintu Rime Gayo"}},{"type":"Feature","geometry":{"type":"Polygon","coordinates":[[[97.0296,4.8542],[97.0106,4.9038],[96.9554,4.8588],[96.9126,4.8742],[96.8462,4.8822],[96.8444,4.8982],[96.833,4.8558],[96.8634,4.8568],[96.8552,4.812],[96.8564,4.7926],[96.8604,4.7774],[96.9556,4.7752],[97.003,4.7958],[97.016,4.7922],[97.0296,4.8542]]]},"properties":{"code":"11.17.02","name":"Permata"}},{"type":"Feature","geometry":{"type":"Polygon","coordinates":[[[97.2594,4.6618],[97.3048,4.6646],[97.3188,4.7372],[97.2602,4.7556],[97.2522,4.758],[97.2802,4.8264],[97.2426,4.8736],[97.1456,4.9102],[97.1274,4.8572],[97.1158,4.8018],[97.1202,4.7858],[97.0608,4.7382],[97.0458,4.7156],[96.9796,4.7118],[96.968,4.65],[97.0208,4.6438],[97.0508,4.6032],[97.1474,4.5792],[97.1696,4.5782],[97.2322,4.6042],[97.3124,4.6046],[97.3044,4.6216],[97.2872,4.6274],[97.2756,4.6286],[97.2618,4.6166],[97.2594,4.6618]]]},"properties":{"code":"11.17.03","name":"Syiah Utama"}},{"type":"Feature","geometry":{"type":"Polygon","coordinates":[[[96.914,4.76],[96.9038,4.7134],[96.9364,4.6976],[96.931,4.6534],[96.968,4.65],[96.9796,4.7118],[96.9866,4.7456],[96.9666,4.7442],[96.914,4.76]]]},"properties":{"code":"11.17.04","name":"Bandar"}},{"type":"Feature","geometry":{"type":"Polygon","coordinates":[[[96.8564,4.7926],[96.8422,4.7614],[96.8192,4.7104],[96.842,4.6884],[96.8242,4.668],[96.8796,4.6614],[96.931,4.6534],[96.9364,4.6976],[96.9038,4.7134],[96.8604,4.7774],[96.8564,4.7926]]]},"properties":{"code":"11.17.05","name":"Bukit"}},{"type":"Feature","geometry":{"type":"Polygon","coordinates":[[[96.8422,4.7614],[96.8276,4.7762],[96.8,4.7546],[96.796,4.7352],[96.7714,4.7314],[96.7174,4.7414],[96.7468,4.7126],[96.8032,4.6944],[96.842,4.6884],[96.8192,4.7104],[96.8422,4.7614]]]},"properties":{"code":"11.17.06","name":"Wih Pesam"}},{"type":"Feature","geometry":{"type":"Polygon","coordinates":[[[96.7598,4.7898],[96.6858,4.7676],[96.7106,4.7526],[96.7174,4.7414],[96.7302,4.7436],[96.7388,4.735],[96.7992,4.737],[96.796,4.7488],[96.8172,4.7678],[96.8204,4.781],[96.7904,4.7902],[96.7598,4.7898]]]},"properties":{"code":"11.17.07","name":"Timang Gajah"}},{"type":"Feature","geometry":{"type":"Polygon","coordinates":[[[96.9666,4.7442],[96.9482,4.7742],[96.914,4.76],[96.9666,4.7442]]]},"properties":{"code":"11.17.08","name":"Bener Kelipah"}},{"type":"Feature","geometry":{"type":"Polygon","coordinates":[[[97.0796,4.9098],[97.0212,4.9124],[97.0296,4.8542],[97.016,4.7922],[97.003,4.7958],[96.9866,4.7456],[97.0458,4.7156],[97.0608,4.7382],[97.1202,4.7858],[97.1166,4.8064],[97.1456,4.9102],[97.121,4.9096],[97.1012,4.8986],[97.0796,4.9098]]]},"properties":{"code":"11.17.09","name":"Mesidah"}},{"type":"Feature","geometry":{"type":"Polygon","coordinates":[[[96.8552,4.812],[96.8376,4.8446],[96.8232,4.8336],[96.7856,4.8344],[96.7612,4.821],[96.7126,4.8246],[96.6996,4.8014],[96.7598,4.7898],[96.7904,4.7902],[96.8552,4.812]]]},"properties":{"code":"11.17.10","name":"Gajah Putih"}}]}