{"type":"FeatureCollection","features":[{"type":"Feature","geometry":{"type":"Polygon","coordinates":[[[97.3812,2.3626],[97.3815,2.337],[97.4096,2.3423],[97.3812,2.3626]]]},"properties":{"code":"11.10.01","name":"Pulau Banyak","latitude":2.2818307065785444,"longitude":97.3809126827174}},{"type":"Feature","geometry":{"type":"Polygon","coordinates":[[[97.9722,2.4749],[97.9624,2.4448],[98.0028,2.4056],[98.0287,2.4083],[98.1127,2.4199],[98.0947,2.4846],[98.0274,2.4611],[97.9722,2.4749]]]},"properties":{"code":"11.10.02","name":"Simpang Kanan","latitude":2.4420505394973784,"longitude":98.04057909568465}},{"type":"Feature","geometry":{"type":"Polygon","coordinates":[[[97.8688,2.3202],[97.8743,2.3516],[97.7634,2.4399],[97.7381,2.3369],[97.7657,2.2838],[97.8568,2.2556],[97.8701,2.2889],[97.8688,2.3202]]]},"properties":{"code":"11.10.04","name":"Singkil","latitude":2.3319748207906597,"longitude":97.80345072450945}},{"type":"Feature","geometry":{"type":"Polygon","coordinates":[[[97.9624,2.4448],[97.9245,2.4352],[97.9026,2.433],[97.8913,2.3933],[97.8679,2.3575],[97.9047,2.3439],[97.9153,2.3225],[97.9864,2.3266],[98.0313,2.3364],[98.0709,2.379],[98.0287,2.4083],[98.0028,2.4056],[97.9624,2.4448]]]},"properties":{"code":"11.10.06","name":"Gunung Meriah","latitude":2.378809691849046,"longitude":97.96410032568537}},{"type":"Feature","geometry":{"type":"Polygon","coordinates":[[[97.8788,2.5025],[97.8766,2.5506],[97.8551,2.5541],[97.8553,2.5274],[97.7912,2.5002],[97.7539,2.4479],[97.8679,2.3575],[97.8913,2.3933],[97.8719,2.4041],[97.8688,2.4395],[97.8788,2.5025]]]},"properties":{"code":"11.10.09","name":"Kota Baharu","latitude":2.4492588123172627,"longitude":97.83505946061979}},{"type":"Feature","geometry":{"type":"Polygon","coordinates":[[[97.9047,2.3439],[97.8688,2.3202],[97.8701,2.2889],[97.9515,2.27],[98.083,2.2034],[98.0828,2.2261],[98.0309,2.2721],[98.0214,2.3156],[97.9864,2.3266],[97.9153,2.3225],[97.9047,2.3439]]]},"properties":{"code":"11.10.10","name":"Singkil Utara","latitude":2.287998514177866,"longitude":97.95851853309556}},{"type":"Feature","geometry":{"type":"Polygon","coordinates":[[[98.1785,2.2391],[98.1865,2.2942],[98.1971,2.3115],[98.1494,2.4187],[98.1127,2.4199],[98.0709,2.379],[98.0214,2.3156],[98.0319,2.2706],[98.0828,2.2261],[98.083,2.2034],[98.1273,2.1695],[98.1785,2.2391]]]},"properties":{"code":"11.10.11","name":"Danau Paris","latitude":2.305689260313254,"longitude":98.11116714330025}},{"type":"Feature","geometry":{"type":"Polygon","coordinates":[[[98.0766,2.5748],[97.9776,2.578],[97.9822,2.5454],[97.9945,2.5333],[97.9722,2.4749],[98.0274,2.4611],[98.0947,2.4846],[98.0825,2.5109],[98.0766,2.5748]]]},"properties":{"code":"11.10.12","name":"Suro Makmur","latitude":2.518840117700495,"longitude":98.02967109173288}},{"type":"Feature","geometry":{"type":"Polygon","coordinates":[[[97.9822,2.5454],[97.9127,2.5706],[97.855,2.5646],[97.8551,2.5541],[97.8766,2.5506],[97.8788,2.5025],[97.8688,2.4395],[97.8719,2.4041],[97.9026,2.433],[97.9245,2.4352],[97.9945,2.5333],[97.9822,2.5454]]]},"properties":{"code":"11.10.13","name":"Singkohor","latitude":2.5043548276662335,"longitude":97.92132074762502}},{"type":"Feature","geometry":{"type":"Polygon","coordinates":[[[97.7657,2.2838],[97.7381,2.3369],[97.7539,2.4479],[97.7179,2.4133],[97.665,2.3949],[97.7657,2.2838]]]},"properties":{"code":"11.10.14","name":"Kuala Baru","latitude":2.370951034148627,"longitude":97.72911818708397}},{"type":"Feature","geometry":{"type":"MultiPolygon","coordinates":[[[[97.1132,2.1145],[97.0764,2.0766],[97.1206,2.0409],[97.1625,2.0715],[97.1132,2.1145]]],[[[97.1688,2.2364],[97.1738,2.1787],[97.2614,2.1353],[97.3069,2.0633],[97.3582,2.0978],[97.3388,2.1626],[97.27,2.2325],[97.1949,2.2021],[97.1688,2.2364]]]]},"properties":{"code":"11.10.16","name":"Pulau Banyak Barat","latitude":2.14251394874711,"longitude":97.2331450466268}}]}