{"type":"FeatureCollection","features":[{"type":"Feature","geometry":{"type":"Polygon","coordinates":[[[98.0694,2.7642],[98.105,2.7914],[98.0994,2.8226],[98.0476,2.8],[98.0094,2.7192],[97.9612,2.7048],[97.889,2.6884],[97.9462,2.6514],[97.972,2.6346],[98.0038,2.6166],[98.0412,2.6788],[98.0766,2.7506],[98.0694,2.7642]]]},"properties":{"code":"11.75.01","name":"Simpang Kiri"}},{"type":"Feature","geometry":{"type":"Polygon","coordinates":[[[98.0848,2.6034],[98.1092,2.606],[98.102,2.687],[98.0748,2.7272],[98.068,2.716],[98.0412,2.6788],[98.0038,2.6166],[97.9884,2.6098],[97.9776,2.578],[98.0766,2.5748],[98.0848,2.6034]]]},"properties":{"code":"11.75.02","name":"Penanggalan"}},{"type":"Feature","geometry":{"type":"Polygon","coordinates":[[[97.8074,2.8086],[97.7846,2.805],[97.7876,2.7996],[97.7666,2.788],[97.8172,2.6674],[97.8252,2.637],[97.8112,2.596],[97.8232,2.596],[97.8496,2.6014],[97.8494,2.612],[97.8732,2.6204],[97.8864,2.6396],[97.9462,2.6514],[97.889,2.6884],[97.9072,2.7194],[97.8284,2.7804],[97.8036,2.7848],[97.8256,2.7854],[97.8074,2.8086]]]},"properties":{"code":"11.75.03","name":"Rundeng"}},{"type":"Feature","geometry":{"type":"Polygon","coordinates":[[[97.955,2.9828],[97.9004,3.0074],[97.83,3.0006],[97.8148,2.983],[97.9004,2.9664],[97.9088,2.9246],[97.9028,2.9078],[97.8586,2.8818],[97.8602,2.846],[97.8516,2.836],[97.8102,2.8164],[97.8074,2.8086],[97.8256,2.7854],[97.8036,2.7848],[97.8284,2.7804],[97.9072,2.7194],[97.9612,2.7048],[98.0094,2.7192],[98.0476,2.8],[98.039,2.8474],[97.9444,2.899],[97.955,2.9828]]]},"properties":{"code":"11.75.04","name":"Sultan Daulat"}},{"type":"Feature","geometry":{"type":"Polygon","coordinates":[[[97.972,2.6346],[97.8864,2.6396],[97.8732,2.6204],[97.8494,2.612],[97.8496,2.6014],[97.8112,2.596],[97.7956,2.5484],[97.7912,2.5002],[97.8552,2.5274],[97.855,2.5646],[97.9126,2.5706],[97.9884,2.6098],[97.972,2.6346]]]},"properties":{"code":"11.75.05","name":"Longkib"}}]}