{"type":"FeatureCollection","features":[{"type":"Feature","geometry":{"type":"Polygon","coordinates":[[[97.5526,1.2818],[97.5354,1.2932],[97.5208,1.2624],[97.4948,1.2616],[97.4882,1.188],[97.519,1.1956],[97.5282,1.2114],[97.5614,1.2222],[97.5678,1.2416],[97.5526,1.2818]]]},"properties":{"code":"12.04.05","name":"Hiliduho"}},{"type":"Feature","geometry":{"type":"MultiPolygon","coordinates":[[[[97.7166,1.0572],[97.6894,1.0584],[97.7054,1.0496],[97.7166,1.0572]]],[[[97.7654,1.0838],[97.8194,1.1264],[97.7996,1.151],[97.7232,1.1706],[97.705,1.1618],[97.683,1.1368],[97.6498,1.0956],[97.6706,1.1084],[97.738,1.1118],[97.7976,1.1208],[97.753,1.0948],[97.7654,1.0838]]]]},"properties":{"code":"12.04.06","name":"Gido"}},{"type":"Feature","geometry":{"type":"Polygon","coordinates":[[[97.8522,1.0694],[97.7778,1.0794],[97.7732,1.0658],[97.7412,1.0616],[97.7312,1.0528],[97.7166,1.0572],[97.702,1.0266],[97.7434,0.9936],[97.7604,0.997],[97.7762,0.9792],[97.793,0.9886],[97.8334,1.0062],[97.833,1.045],[97.8522,1.0694]]]},"properties":{"code":"12.04.10","name":"Idanogawo"}},{"type":"Feature","geometry":{"type":"Polygon","coordinates":[[[97.9036,0.8944],[97.9466,0.9624],[97.8998,1.0508],[97.8522,1.0694],[97.833,1.045],[97.8334,1.0062],[97.793,0.9886],[97.7542,0.9676],[97.8046,0.9222],[97.8752,0.933],[97.9036,0.8944]]]},"properties":{"code":"12.04.11","name":"Bawolato"}},{"type":"Feature","geometry":{"type":"Polygon","coordinates":[[[97.613,1.1836],[97.5548,1.1998],[97.5862,1.1406],[97.5718,1.1168],[97.5988,1.1016],[97.603,1.1114],[97.6498,1.0956],[97.6492,1.1306],[97.636,1.1514],[97.6262,1.174],[97.6182,1.1928],[97.613,1.1836]]]},"properties":{"code":"12.04.20","name":"Hiliserangkai"}},{"type":"Feature","geometry":{"type":"Polygon","coordinates":[[[97.5548,1.1998],[97.5558,1.2164],[97.5282,1.2114],[97.519,1.1956],[97.4954,1.142],[97.5576,1.1414],[97.5862,1.1406],[97.5548,1.1998]]]},"properties":{"code":"12.04.21","name":"Botomuzoi"}},{"type":"Feature","geometry":{"type":"Polygon","coordinates":[[[97.7434,0.9936],[97.689,1.0028],[97.6944,0.9328],[97.751,0.9502],[97.7542,0.9676],[97.7762,0.9792],[97.7604,0.997],[97.7434,0.9936]]]},"properties":{"code":"12.04.27","name":"Ulugawo"}},{"type":"Feature","geometry":{"type":"Polygon","coordinates":[[[97.6438,1.0386],[97.6706,1.1084],[97.611,1.064],[97.6196,1.055],[97.653,1.0272],[97.6438,1.0386]]]},"properties":{"code":"12.04.28","name":"Ma'U"}},{"type":"Feature","geometry":{"type":"Polygon","coordinates":[[[97.6894,1.0584],[97.6438,1.0386],[97.653,1.0272],[97.661,0.9974],[97.702,1.0266],[97.7054,1.0496],[97.6894,1.0584]]]},"properties":{"code":"12.04.29","name":"Somolo-Molo"}},{"type":"Feature","geometry":{"type":"Polygon","coordinates":[[[97.753,1.0948],[97.7976,1.1208],[97.738,1.1118],[97.7312,1.0528],[97.7412,1.0616],[97.7732,1.0658],[97.7778,1.0794],[97.7654,1.0838],[97.753,1.0948]]]},"properties":{"code":"12.04.35","name":"Sogae'Adu"}}]}