{"type":"FeatureCollection","features":[{"type":"Feature","geometry":{"type":"Polygon","coordinates":[[[99.6401,0.9202],[99.6237,0.938],[99.6005,0.9211],[99.5667,0.9225],[99.5443,0.9014],[99.5227,0.8979],[99.5254,0.8866],[99.5199,0.8856],[99.5402,0.833],[99.5588,0.8207],[99.5742,0.7733],[99.6355,0.7692],[99.6082,0.7995],[99.595,0.8358],[99.6296,0.8347],[99.7112,0.8739],[99.7296,0.8943],[99.7113,0.9018],[99.7132,0.9139],[99.6401,0.9202]]]},"properties":{"code":"12.13.01","name":"Panyabungan","latitude":0.8678150774611206,"longitude":99.61455423563557}},{"type":"Feature","geometry":{"type":"Polygon","coordinates":[[[99.5917,0.964],[99.5757,0.9522],[99.5058,0.936],[99.4928,0.9085],[99.5364,0.8981],[99.5597,0.9201],[99.6053,0.9226],[99.6257,0.9435],[99.6047,0.9496],[99.5917,0.964]]]},"properties":{"code":"12.13.02","name":"Panyabungan Utara","latitude":0.9302595999632239,"longitude":99.55630678245706}},{"type":"Feature","geometry":{"type":"Polygon","coordinates":[[[99.7296,0.8943],[99.7112,0.8739],[99.6296,0.8347],[99.595,0.8358],[99.6082,0.7995],[99.6355,0.7692],[99.6984,0.7454],[99.7377,0.7126],[99.8355,0.7108],[99.8501,0.7911],[99.7987,0.8585],[99.7457,0.8671],[99.7296,0.8943]]]},"properties":{"code":"12.13.03","name":"Panyabungan Timur","latitude":0.7920140881120883,"longitude":99.73894271750716}},{"type":"Feature","geometry":{"type":"Polygon","coordinates":[[[99.5683,0.7155],[99.5726,0.7447],[99.5594,0.8105],[99.4884,0.7712],[99.5,0.7586],[99.5259,0.7168],[99.538,0.6865],[99.5683,0.7155]]]},"properties":{"code":"12.13.04","name":"Panyabungan Selatan","latitude":0.7540339699445651,"longitude":99.53695821964509}},{"type":"Feature","geometry":{"type":"Polygon","coordinates":[[[99.5402,0.833],[99.5271,0.8611],[99.4756,0.8437],[99.4178,0.831],[99.4561,0.7883],[99.4884,0.7712],[99.5594,0.8105],[99.5588,0.8207],[99.5402,0.833]]]},"properties":{"code":"12.13.05","name":"Panyabungan Barat","latitude":0.8193095667661796,"longitude":99.49340230641877}},{"type":"Feature","geometry":{"type":"Polygon","coordinates":[[[99.5391,1.1013],[99.4762,1.1152],[99.4244,1.0714],[99.4637,1.0189],[99.4216,0.9798],[99.3747,1.0235],[99.3477,1.0168],[99.3139,1.0236],[99.3277,0.9999],[99.3727,0.9575],[99.4646,0.9587],[99.4814,0.9622],[99.5815,1.021],[99.5697,1.0407],[99.5451,1.0697],[99.5391,1.1013]]]},"properties":{"code":"12.13.06","name":"Siabu","latitude":1.0313843393485753,"longitude":99.4705108753946}},{"type":"Feature","geometry":{"type":"Polygon","coordinates":[[[99.5903,0.9801],[99.6065,0.9958],[99.5935,1.0101],[99.5801,1.0208],[99.4814,0.9622],[99.5056,0.9358],[99.5758,0.9523],[99.5939,0.9644],[99.5903,0.9801]]]},"properties":{"code":"12.13.07","name":"Bukit Malintang","latitude":0.9735831775167746,"longitude":99.5470583230173}},{"type":"Feature","geometry":{"type":"Polygon","coordinates":[[[99.8512,0.6836],[99.7377,0.7126],[99.7287,0.7011],[99.6715,0.6924],[99.6358,0.633],[99.6525,0.6158],[99.5931,0.6089],[99.6368,0.5459],[99.6608,0.5246],[99.6631,0.4947],[99.6768,0.4727],[99.6992,0.4691],[99.7178,0.4514],[99.7371,0.474],[99.7313,0.4902],[99.7029,0.5243],[99.7144,0.5312],[99.7075,0.5892],[99.7154,0.6115],[99.8108,0.6102],[99.8158,0.6235],[99.8512,0.6836]]]},"properties":{"code":"12.13.08","name":"Kotanopan","latitude":0.6160971988605701,"longitude":99.72058483889901}},{"type":"Feature","geometry":{"type":"Polygon","coordinates":[[[99.6158,0.7288],[99.5726,0.7447],[99.5848,0.7303],[99.5978,0.7062],[99.6158,0.7288]]]},"properties":{"code":"12.13.09","name":"Lembah Sorik Marapi","latitude":0.7454627993681847,"longitude":99.59927159075076}},{"type":"Feature","geometry":{"type":"Polygon","coordinates":[[[99.6984,0.7454],[99.6355,0.7692],[99.6158,0.7288],[99.614,0.7034],[99.6186,0.6786],[99.6117,0.6552],[99.5903,0.6212],[99.5931,0.6089],[99.6525,0.6158],[99.6358,0.633],[99.6715,0.6924],[99.7287,0.7011],[99.6984,0.7454]]]},"properties":{"code":"12.13.10","name":"Tambangan","latitude":0.6929957973878904,"longitude":99.65046839219629}},{"type":"Feature","geometry":{"type":"Polygon","coordinates":[[[99.8108,0.6102],[99.7154,0.6115],[99.7075,0.5892],[99.7144,0.5312],[99.7029,0.5243],[99.7313,0.4902],[99.7371,0.474],[99.7823,0.4818],[99.8493,0.47],[99.8587,0.4636],[99.8928,0.4807],[99.8663,0.4795],[99.8274,0.536],[99.8275,0.5596],[99.836,0.574],[99.8327,0.5953],[99.8108,0.6102]]]},"properties":{"code":"12.13.11","name":"Ulu Pungkut","latitude":0.5398700350497319,"longitude":99.77389769663267}},{"type":"Feature","geometry":{"type":"Polygon","coordinates":[[[99.8962,0.6766],[99.8512,0.6836],[99.8158,0.6235],[99.8327,0.5953],[99.8457,0.5736],[99.9017,0.5658],[99.9204,0.6051],[99.9264,0.632],[99.8962,0.6766]]]},"properties":{"code":"12.13.12","name":"Muara Sipongi","latitude":0.6157237815033192,"longitude":99.87902790341822}},{"type":"Feature","geometry":{"type":"Polygon","coordinates":[[[99.5,0.7586],[99.4702,0.7855],[99.4545,0.7897],[99.4125,0.8377],[99.4111,0.8441],[99.3794,0.8435],[99.3262,0.8285],[99.2637,0.8419],[99.2396,0.8349],[99.2325,0.8267],[99.2309,0.7524],[99.2155,0.7114],[99.2603,0.6686],[99.3193,0.6243],[99.3369,0.6077],[99.3718,0.5946],[99.4247,0.5716],[99.5196,0.5521],[99.5125,0.5379],[99.5289,0.5219],[99.5586,0.5104],[99.5745,0.509],[99.6194,0.5306],[99.638,0.5468],[99.6349,0.5535],[99.5905,0.6168],[99.575,0.6213],[99.5686,0.6399],[99.5576,0.6454],[99.5259,0.7168],[99.5,0.7586]]]},"properties":{"code":"12.13.13","name":"Batang Natal","latitude":0.6849561297486333,"longitude":99.41278239250748}},{"type":"Feature","geometry":{"type":"Polygon","coordinates":[[[99.2603,0.6686],[99.179,0.7265],[99.1749,0.7141],[99.1545,0.7253],[99.2169,0.6381],[99.2232,0.6015],[99.2427,0.5117],[99.299,0.507],[99.303,0.5192],[99.3199,0.5535],[99.3369,0.6077],[99.3193,0.6243],[99.2603,0.6686]]]},"properties":{"code":"12.13.14","name":"Lingga Bayu","latitude":0.6094202334737351,"longitude":99.25611456830083}},{"type":"Feature","geometry":{"type":"Polygon","coordinates":[[[99.1676,0.4795],[99.1291,0.4779],[99.1346,0.3802],[99.1751,0.2494],[99.1937,0.3116],[99.2628,0.3446],[99.3167,0.3339],[99.3584,0.4066],[99.3373,0.4073],[99.3286,0.4095],[99.2827,0.4188],[99.1688,0.4299],[99.1676,0.4795]]]},"properties":{"code":"12.13.15","name":"Batahan","latitude":0.37078318146149936,"longitude":99.21522806592951}},{"type":"Feature","geometry":{"type":"Polygon","coordinates":[[[99.0918,0.8051],[99.0133,0.8201],[99.0585,0.7424],[99.0465,0.6705],[99.1089,0.5702],[99.13,0.4781],[99.1828,0.4804],[99.1823,0.5429],[99.2232,0.6015],[99.2169,0.6381],[99.1545,0.7253],[99.1335,0.7537],[99.0918,0.8051]]]},"properties":{"code":"12.13.16","name":"Natal","latitude":0.6514574500655262,"longitude":99.12423800098742}},{"type":"Feature","geometry":{"type":"Polygon","coordinates":[[[99.0063,1.3064],[98.9723,1.3452],[98.9377,1.3271],[98.881,1.2992],[98.8666,1.2796],[98.8419,1.2784],[98.9107,1.1233],[98.9285,1.0382],[98.9701,0.9358],[98.9948,0.8209],[99.0333,0.8222],[99.0918,0.8051],[99.1335,0.7537],[99.1749,0.7141],[99.179,0.7265],[99.2155,0.7114],[99.2309,0.7524],[99.2373,0.8325],[99.2637,0.8419],[99.3262,0.8285],[99.3766,0.8392],[99.4,0.9036],[99.3706,0.9634],[99.3277,0.9999],[99.3139,1.0236],[99.3146,1.0467],[99.2784,1.0957],[99.2695,1.0973],[99.2618,1.0521],[99.2404,1.0416],[99.187,1.0974],[99.1323,1.1104],[99.1328,1.1673],[99.0504,1.2045],[99.0063,1.3064]]]},"properties":{"code":"12.13.17","name":"Muara Batang Gadis","latitude":1.010356377253725,"longitude":99.10678008621905}},{"type":"Feature","geometry":{"type":"Polygon","coordinates":[[[99.3718,0.5946],[99.3199,0.5535],[99.303,0.5192],[99.299,0.507],[99.2799,0.4826],[99.2895,0.4578],[99.3035,0.4421],[99.3286,0.4095],[99.3373,0.4073],[99.3584,0.4066],[99.366,0.4315],[99.41,0.4844],[99.4385,0.4776],[99.4771,0.5265],[99.4247,0.5716],[99.3718,0.5946]]]},"properties":{"code":"12.13.18","name":"Ranto Baek","latitude":0.5084788560198361,"longitude":99.374036697456}},{"type":"Feature","geometry":{"type":"Polygon","coordinates":[[[99.4178,0.831],[99.4338,0.833],[99.5286,0.8633],[99.5215,0.8711],[99.5219,0.9036],[99.4926,0.9089],[99.4771,0.8991],[99.4026,0.9053],[99.3794,0.8435],[99.4111,0.8441],[99.4178,0.831]]]},"properties":{"code":"12.13.19","name":"Huta Bargot","latitude":0.8717946680940217,"longitude":99.45077725154403}},{"type":"Feature","geometry":{"type":"Polygon","coordinates":[[[99.5978,0.7062],[99.5848,0.7303],[99.5683,0.7155],[99.538,0.6865],[99.5734,0.623],[99.5903,0.6169],[99.6117,0.6552],[99.6186,0.6786],[99.614,0.7034],[99.5978,0.7062]]]},"properties":{"code":"12.13.20","name":"Puncak Sorik Marapi","latitude":0.6756977710140746,"longitude":99.5788055539656}},{"type":"Feature","geometry":{"type":"Polygon","coordinates":[[[99.9503,0.5248],[99.9017,0.5658],[99.8457,0.5736],[99.836,0.574],[99.8263,0.5381],[99.8663,0.4795],[99.8928,0.4807],[99.9607,0.5134],[99.9503,0.5248]]]},"properties":{"code":"12.13.21","name":"Pakantan","latitude":0.5283718057879756,"longitude":99.8968942119099}},{"type":"Feature","geometry":{"type":"Polygon","coordinates":[[[99.2427,0.5117],[99.2292,0.5512],[99.1823,0.5429],[99.1828,0.4804],[99.1676,0.4795],[99.1688,0.4299],[99.2827,0.4188],[99.3035,0.4421],[99.2895,0.4578],[99.2799,0.4826],[99.2427,0.5117]]]},"properties":{"code":"12.13.22","name":"Sinunukan","latitude":0.4724874198699876,"longitude":99.23325806348403}},{"type":"Feature","geometry":{"type":"Polygon","coordinates":[[[99.5056,0.9358],[99.4646,0.9587],[99.3727,0.9575],[99.3948,0.9076],[99.4216,0.9013],[99.4771,0.8991],[99.5056,0.9358]]]},"properties":{"code":"12.13.23","name":"Naga Juang","latitude":0.9307838534743225,"longitude":99.43956975658128}}]}