{"type":"FeatureCollection","features":[{"type":"Feature","geometry":{"type":"Polygon","coordinates":[[[99.274,1.3714],[99.2467,1.3941],[99.234,1.3861],[99.2404,1.375],[99.274,1.3714]]]},"properties":{"code":"12.77.01","name":"Padangsidimpuan Utara","latitude":1.3937572596608279,"longitude":99.25863102859687}},{"type":"Feature","geometry":{"type":"Polygon","coordinates":[[[99.2968,1.3908],[99.274,1.3714],[99.2404,1.375],[99.2437,1.3631],[99.2926,1.3642],[99.2968,1.3908]]]},"properties":{"code":"12.77.02","name":"Padangsidimpuan Selatan","latitude":1.3701091657179902,"longitude":99.27494604118247}},{"type":"Feature","geometry":{"type":"Polygon","coordinates":[[[99.3278,1.4155],[99.2878,1.4554],[99.2917,1.4314],[99.2968,1.3908],[99.2926,1.3642],[99.3168,1.3453],[99.3078,1.3568],[99.3278,1.4155]]]},"properties":{"code":"12.77.03","name":"Padangsidimpuan Batunadua","latitude":1.3991079496980003,"longitude":99.30661626144325}},{"type":"Feature","geometry":{"type":"Polygon","coordinates":[[[99.2432,1.4456],[99.2371,1.4598],[99.2225,1.438],[99.22,1.4108],[99.234,1.3861],[99.2467,1.3941],[99.2432,1.4456]]]},"properties":{"code":"12.77.04","name":"Padangsidimpuan Hutaimbaru","latitude":1.4220399351315776,"longitude":99.2404151091805}},{"type":"Feature","geometry":{"type":"Polygon","coordinates":[[[99.3493,1.3111],[99.3078,1.3568],[99.3168,1.3453],[99.311,1.3028],[99.3493,1.3111]]]},"properties":{"code":"12.77.05","name":"Padangsidimpuan Tenggara","latitude":1.3360419752543558,"longitude":99.31733506639516}},{"type":"Feature","geometry":{"type":"Polygon","coordinates":[[[99.2917,1.4314],[99.2871,1.4465],[99.2878,1.4554],[99.2723,1.4689],[99.2371,1.4598],[99.2432,1.4456],[99.2917,1.4314]]]},"properties":{"code":"12.77.06","name":"Padangsidimpuan Angkola Julu","latitude":1.448362585590312,"longitude":99.2660212076748}}]}