{"type":"FeatureCollection","features":[{"type":"Feature","geometry":{"type":"Polygon","coordinates":[[[100.3488,0.0342],[100.33,0.0504],[100.3194,0.0832],[100.2906,0.0892],[100.2806,0.0926],[100.2746,0.0792],[100.1886,0.0292],[100.174,-0.0156],[100.213,-0.07],[100.2464,-0.0736],[100.2666,-0.02],[100.3488,0.0342]]]},"properties":{"code":"13.08.04","name":"Bonjol"}},{"type":"Feature","geometry":{"type":"Polygon","coordinates":[[[100.123,0.2734],[100.0836,0.2602],[100.073,0.245],[100.048,0.2446],[100.0606,0.2442],[100.0636,0.1496],[100.0196,0.0958],[100.0786,0.0906],[100.0994,0.0506],[100.1246,0.0518],[100.1502,0.0654],[100.2746,0.0792],[100.2806,0.0926],[100.2672,0.0934],[100.242,0.119],[100.2408,0.144],[100.1954,0.1808],[100.1772,0.2632],[100.1604,0.2638],[100.1474,0.2758],[100.123,0.2734]]]},"properties":{"code":"13.08.05","name":"Lubuk Sikaping"}},{"type":"Feature","geometry":{"type":"Polygon","coordinates":[[[100.123,0.2734],[100.1494,0.2752],[100.1706,0.2676],[100.1758,0.3072],[100.1662,0.368],[100.1616,0.3904],[100.1418,0.4124],[100.1508,0.4472],[100.1154,0.4826],[100.0826,0.4612],[100.0808,0.3946],[100.0326,0.3474],[100.0354,0.324],[100.0222,0.3108],[100.0242,0.2898],[100.0098,0.2882],[100.0006,0.2776],[100.002,0.2646],[100.0226,0.2488],[100.034,0.255],[100.048,0.2446],[100.073,0.245],[100.0836,0.2602],[100.123,0.2734]]]},"properties":{"code":"13.08.07","name":"Panti"}},{"type":"Feature","geometry":{"type":"Polygon","coordinates":[[[100.0772,0.7866],[100.0896,0.6856],[100.1168,0.6488],[100.123,0.5532],[100.1568,0.5284],[100.2062,0.546],[100.1978,0.6282],[100.2844,0.6824],[100.2686,0.708],[100.273,0.7284],[100.2212,0.7426],[100.1876,0.761],[100.1708,0.7578],[100.1214,0.7812],[100.0772,0.7866]]]},"properties":{"code":"13.08.08","name":"Mapat Tunggul"}},{"type":"Feature","geometry":{"type":"Polygon","coordinates":[[[99.9862,0.4354],[99.9574,0.4216],[99.9194,0.4358],[99.8586,0.4636],[99.8494,0.47],[99.827,0.4594],[99.8282,0.4282],[99.767,0.4208],[99.7494,0.4014],[99.7768,0.3586],[99.7638,0.3118],[99.7866,0.321],[99.8326,0.3084],[99.8494,0.3024],[99.8842,0.31],[99.9228,0.2934],[99.9804,0.2874],[100.0354,0.324],[100.0176,0.3768],[100.0138,0.4032],[100.0194,0.4072],[100.0116,0.4256],[99.9862,0.4354]]]},"properties":{"code":"13.08.12","name":"Duo Koto"}},{"type":"Feature","geometry":{"type":"Polygon","coordinates":[[[100.1246,0.0518],[100.0802,0.0898],[100.0318,0.0932],[100.001,0.0896],[99.9806,0.0708],[100.028,0.0054],[100.0386,-0.0368],[100.0322,-0.0928],[100.039,-0.0818],[100.092,-0.0808],[100.1414,-0.0916],[100.1326,-0.067],[100.1372,-0.0422],[100.124,0.01],[100.1502,0.0654],[100.1246,0.0518]]]},"properties":{"code":"13.08.13","name":"Tigo Nagari"}},{"type":"Feature","geometry":{"type":"Polygon","coordinates":[[[99.9608,0.6392],[99.9264,0.632],[99.9204,0.605],[99.9504,0.5248],[99.9608,0.5134],[100.0384,0.5138],[100.056,0.543],[100.037,0.5634],[100.0298,0.5794],[100.0006,0.589],[99.9608,0.6392]]]},"properties":{"code":"13.08.14","name":"Rao"}},{"type":"Feature","geometry":{"type":"Polygon","coordinates":[[[100.2214,0.5152],[100.1568,0.5284],[100.1226,0.5542],[100.116,0.5258],[100.0958,0.5092],[100.1508,0.4472],[100.142,0.4114],[100.1618,0.3896],[100.1758,0.3072],[100.1706,0.2676],[100.1826,0.2476],[100.1954,0.1808],[100.2408,0.144],[100.2414,0.1198],[100.267,0.0934],[100.3158,0.0862],[100.3244,0.0974],[100.3528,0.1708],[100.3084,0.302],[100.3332,0.3522],[100.2748,0.4136],[100.2358,0.4746],[100.2214,0.5152]]]},"properties":{"code":"13.08.15","name":"Mapat Tunggul Selatan"}},{"type":"Feature","geometry":{"type":"Polygon","coordinates":[[[100.1696,0.0538],[100.1538,0.0352],[100.1372,0.0326],[100.1394,0.0234],[100.1234,0.005],[100.1372,-0.0422],[100.1326,-0.067],[100.144,-0.0758],[100.1846,-0.0558],[100.174,-0.0156],[100.1886,0.0292],[100.1696,0.0538]]]},"properties":{"code":"13.08.16","name":"Simpang Alahan Mati"}},{"type":"Feature","geometry":{"type":"Polygon","coordinates":[[[99.9862,0.4354],[100.0098,0.427],[100.0166,0.4168],[100.0378,0.3756],[100.0748,0.39],[100.085,0.4034],[100.077,0.434],[100.0826,0.4614],[99.9862,0.4354]]]},"properties":{"code":"13.08.17","name":"Padang Gelugur"}},{"type":"Feature","geometry":{"type":"Polygon","coordinates":[[[99.951,0.8802],[99.8726,0.9066],[99.8308,0.8804],[99.8502,0.7912],[99.8354,0.7108],[99.8962,0.6766],[99.9608,0.6392],[100.0006,0.589],[100.055,0.5726],[100.0718,0.5914],[100.0974,0.6022],[100.1214,0.5972],[100.1182,0.6448],[100.0896,0.6856],[100.0774,0.7376],[100.0536,0.7486],[100.0656,0.8],[100.0104,0.8398],[99.951,0.8802]]]},"properties":{"code":"13.08.18","name":"Rao Utara"}},{"type":"Feature","geometry":{"type":"Polygon","coordinates":[[[100.1154,0.4826],[100.0958,0.5092],[100.116,0.5258],[100.1008,0.5448],[100.123,0.5546],[100.116,0.5918],[100.1214,0.5972],[100.1084,0.6018],[100.077,0.595],[100.055,0.5726],[100.0322,0.5696],[100.0354,0.5564],[100.0384,0.5138],[99.9804,0.505],[99.9194,0.4358],[99.9574,0.4216],[100.011,0.4588],[100.1154,0.4826]]]},"properties":{"code":"13.08.19","name":"Rao Selatan"}}]}