{"type":"FeatureCollection","features":[{"type":"Feature","geometry":{"type":"Polygon","coordinates":[[[100.1504,-2.6402],[100.0626,-2.5725],[100.0283,-2.5266],[99.9726,-2.5119],[100.0003,-2.6971],[100.014,-2.7414],[99.9924,-2.7911],[100.0748,-2.8419],[100.0995,-2.8196],[100.0499,-2.7557],[100.1322,-2.6873],[100.1504,-2.6402]]]},"properties":{"code":"13.09.01","name":"Pagai Utara","latitude":-2.6724973713628883,"longitude":100.04612595608094}},{"type":"Feature","geometry":{"type":"Polygon","coordinates":[[[99.6399,-2.0928],[99.6168,-2.0983],[99.618,-2.1484],[99.6515,-2.2023],[99.6535,-2.2668],[99.7375,-2.3453],[99.8376,-2.3639],[99.8217,-2.3061],[99.7816,-2.2918],[99.7117,-2.1537],[99.676,-2.1077],[99.6399,-2.0928]]]},"properties":{"code":"13.09.02","name":"Sipora Selatan","latitude":-2.234777067270382,"longitude":99.71125362753803}},{"type":"Feature","geometry":{"type":"Polygon","coordinates":[[[99.011,-1.4959],[98.9745,-1.5199],[98.9934,-1.5568],[99.015,-1.5852],[99.1017,-1.6616],[99.1487,-1.6554],[99.191,-1.5951],[99.2797,-1.6412],[99.2668,-1.6021],[99.2199,-1.6049],[99.1821,-1.5313],[99.0642,-1.4969],[99.012,-1.5043],[99.011,-1.4959]]]},"properties":{"code":"13.09.03","name":"Siberut Selatan","latitude":-1.568688126746609,"longitude":99.09734800339976}},{"type":"Feature","geometry":{"type":"Polygon","coordinates":[[[98.991,-1.2451],[99.0412,-1.2054],[99.0012,-1.1158],[98.949,-1.0836],[98.9169,-1.0022],[98.9207,-0.958],[98.896,-0.9723],[98.8781,-0.99],[98.8108,-1.0381],[98.7536,-1.0594],[98.7863,-1.0989],[98.816,-1.2241],[98.8112,-1.2671],[98.8227,-1.3052],[98.7884,-1.337],[98.7888,-1.3767],[98.8327,-1.3911],[98.8557,-1.3323],[98.8977,-1.3401],[98.9558,-1.2645],[98.9748,-1.2469],[98.991,-1.2451]]]},"properties":{"code":"13.09.04","name":"Siberut Utara","latitude":-1.1715193701247446,"longitude":98.8869205676202}},{"type":"Feature","geometry":{"type":"Polygon","coordinates":[[[98.9207,-0.958],[98.8985,-0.9061],[98.7993,-0.9563],[98.7205,-0.9442],[98.6633,-0.98],[98.6617,-1.058],[98.6028,-1.2256],[98.6371,-1.2873],[98.7964,-1.5085],[98.8435,-1.5121],[98.8662,-1.4658],[98.9139,-1.4493],[98.9161,-1.4392],[98.938,-1.4485],[98.9465,-1.4217],[98.9097,-1.3811],[98.8962,-1.3623],[98.8557,-1.3323],[98.8327,-1.3911],[98.7888,-1.3767],[98.7884,-1.337],[98.8227,-1.3052],[98.8112,-1.2671],[98.816,-1.2241],[98.7863,-1.0989],[98.7536,-1.0594],[98.8108,-1.0381],[98.8781,-0.99],[98.896,-0.9723],[98.9207,-0.958]]]},"properties":{"code":"13.09.05","name":"Siberut Barat","latitude":-1.2159492829576857,"longitude":98.76045299714062}},{"type":"Feature","geometry":{"type":"Polygon","coordinates":[[[98.9745,-1.5199],[98.9139,-1.4493],[98.8662,-1.4658],[98.8435,-1.5121],[98.7964,-1.5085],[98.8369,-1.5861],[98.8252,-1.6157],[98.8779,-1.6791],[99.0117,-1.7624],[99.1074,-1.812],[99.1673,-1.7793],[99.2262,-1.7849],[99.2915,-1.7506],[99.2797,-1.6412],[99.191,-1.5951],[99.1487,-1.6554],[99.1017,-1.6616],[99.015,-1.5852],[98.9934,-1.5568],[98.9745,-1.5199]]]},"properties":{"code":"13.09.06","name":"Siberut Barat Daya","latitude":-1.6574526314562996,"longitude":99.04485272234247}},{"type":"Feature","geometry":{"type":"Polygon","coordinates":[[[99.1821,-1.5313],[99.1481,-1.485],[99.1686,-1.4413],[99.1088,-1.3793],[99.0566,-1.2374],[98.991,-1.2451],[98.9748,-1.2469],[98.9558,-1.2645],[98.8962,-1.3623],[98.9451,-1.4144],[98.9462,-1.439],[98.9297,-1.4492],[98.9553,-1.4822],[99.011,-1.4959],[99.012,-1.5043],[99.0642,-1.4969],[99.1821,-1.5313]]]},"properties":{"code":"13.09.07","name":"Siberut Tengah","latitude":-1.3885250165916172,"longitude":99.03389404440394}},{"type":"Feature","geometry":{"type":"Polygon","coordinates":[[[99.676,-2.1077],[99.6395,-2.0369],[99.5873,-2.0254],[99.5466,-2.0718],[99.5717,-2.1517],[99.5284,-2.1531],[99.6003,-2.2835],[99.6535,-2.2668],[99.6515,-2.2023],[99.618,-2.1484],[99.6168,-2.0983],[99.6399,-2.0928],[99.676,-2.1077]]]},"properties":{"code":"13.09.08","name":"Sipora Utara","latitude":-2.143259530627834,"longitude":99.6032707583776}},{"type":"Feature","geometry":{"type":"MultiPolygon","coordinates":[[[[100.2539,-2.828],[100.2417,-2.7883],[100.1762,-2.8033],[100.1801,-2.8428],[100.2027,-2.8951],[100.2306,-2.8796],[100.2539,-2.828]]],[[[100.0499,-2.7557],[100.101,-2.821],[100.2179,-2.7758],[100.2233,-2.7515],[100.1782,-2.6551],[100.1504,-2.6402],[100.1322,-2.6873],[100.0499,-2.7557]]]]},"properties":{"code":"13.09.09","name":"Sikakap","latitude":-2.7699092083617214,"longitude":100.16507203189046}},{"type":"Feature","geometry":{"type":"Polygon","coordinates":[[[100.2306,-2.8796],[100.1971,-2.8932],[100.1885,-2.9904],[100.3245,-3.1203],[100.3255,-3.1729],[100.3803,-3.2878],[100.4398,-3.3453],[100.4726,-3.336],[100.3973,-3.2268],[100.3933,-3.1516],[100.4602,-3.1237],[100.4691,-3.0445],[100.3547,-2.9011],[100.2539,-2.828],[100.2306,-2.8796]]]},"properties":{"code":"13.09.10","name":"Pagai Selatan","latitude":-3.0561290914275783,"longitude":100.34467617789866}}]}