{"type":"FeatureCollection","features":[{"type":"Feature","geometry":{"type":"Polygon","coordinates":[[[101.291,-1.4876],[101.2899,-1.4588],[101.2596,-1.4348],[101.2157,-1.4184],[101.1809,-1.46],[101.1483,-1.6095],[101.1468,-1.666],[101.1384,-1.6854],[101.1692,-1.7106],[101.2262,-1.7184],[101.2423,-1.7211],[101.2667,-1.6958],[101.3306,-1.6952],[101.3732,-1.6753],[101.403,-1.679],[101.3848,-1.6606],[101.3802,-1.6186],[101.4131,-1.5368],[101.387,-1.5301],[101.291,-1.4876]]]},"properties":{"code":"13.11.01","name":"Sangir","latitude":-1.5871261865433672,"longitude":101.26503312979123}},{"type":"Feature","geometry":{"type":"Polygon","coordinates":[[[101.2022,-1.3698],[101.1524,-1.3624],[101.0791,-1.3735],[101.0726,-1.3854],[101.076,-1.4059],[101.031,-1.4514],[100.9757,-1.4827],[100.9832,-1.5278],[101.0348,-1.5637],[101.0678,-1.5097],[101.1262,-1.4888],[101.1617,-1.4717],[101.211,-1.4088],[101.2022,-1.3698]]]},"properties":{"code":"13.11.02","name":"Sungai Pagu","latitude":-1.4519730584155892,"longitude":101.0919130897528}},{"type":"Feature","geometry":{"type":"Polygon","coordinates":[[[101.0628,-1.2789],[101.0034,-1.2594],[100.973,-1.2986],[100.9388,-1.2836],[100.9103,-1.2904],[100.8946,-1.304],[100.8881,-1.3378],[100.9065,-1.3706],[100.8928,-1.3903],[100.9168,-1.4014],[100.935,-1.4617],[100.9581,-1.4799],[100.9757,-1.4827],[101.031,-1.4514],[101.076,-1.4059],[101.0758,-1.3754],[101.1524,-1.3624],[101.1812,-1.3051],[101.1802,-1.2989],[101.1686,-1.3044],[101.1218,-1.2933],[101.0628,-1.2789]]]},"properties":{"code":"13.11.03","name":"Koto Parik Gadang Diateh","latitude":-1.3604949869752498,"longitude":101.01179631828336}},{"type":"Feature","geometry":{"type":"Polygon","coordinates":[[[101.418,-1.4078],[101.4132,-1.3978],[101.3608,-1.3877],[101.2958,-1.354],[101.1709,-1.3191],[101.1524,-1.3624],[101.2022,-1.3698],[101.211,-1.4088],[101.2181,-1.418],[101.266,-1.4386],[101.2667,-1.4459],[101.2913,-1.4606],[101.291,-1.4876],[101.387,-1.5301],[101.4349,-1.5131],[101.4296,-1.4333],[101.418,-1.4078]]]},"properties":{"code":"13.11.04","name":"Sangir Jujuan","latitude":-1.4237982680343373,"longitude":101.31125952274748}},{"type":"Feature","geometry":{"type":"Polygon","coordinates":[[[101.4536,-1.011],[101.424,-1.0066],[101.4168,-1.0277],[101.3443,-1.0436],[101.3507,-1.1315],[101.2323,-1.1511],[101.198,-1.107],[101.1666,-1.1028],[101.1769,-1.1352],[101.2451,-1.2134],[101.2626,-1.2631],[101.2154,-1.2817],[101.2057,-1.2929],[101.1902,-1.2818],[101.1709,-1.3191],[101.2958,-1.354],[101.3696,-1.3922],[101.405,-1.3977],[101.4259,-1.3947],[101.4798,-1.3321],[101.5257,-1.3042],[101.4686,-1.2813],[101.4205,-1.1948],[101.403,-1.1599],[101.4135,-1.1237],[101.4412,-1.0865],[101.4601,-1.0306],[101.4536,-1.011]]]},"properties":{"code":"13.11.05","name":"Sangir Batang Hari","latitude":-1.234765688158709,"longitude":101.35177443887919}},{"type":"Feature","geometry":{"type":"Polygon","coordinates":[[[101.1809,-1.46],[101.1617,-1.4717],[101.1262,-1.4888],[101.0678,-1.5097],[101.0348,-1.5637],[101.0129,-1.5951],[101.0214,-1.6107],[101.0653,-1.6353],[101.0594,-1.6434],[101.0654,-1.6579],[101.1405,-1.6825],[101.1483,-1.6095],[101.1809,-1.46]]]},"properties":{"code":"13.11.06","name":"Pauh Duo","latitude":-1.5710329536740355,"longitude":101.10778540709407}},{"type":"Feature","geometry":{"type":"Polygon","coordinates":[[[101.5969,-1.3489],[101.587,-1.3253],[101.5662,-1.3254],[101.5135,-1.3354],[101.4798,-1.3321],[101.4259,-1.3947],[101.418,-1.4078],[101.4296,-1.4333],[101.4349,-1.5131],[101.4134,-1.5256],[101.4022,-1.5753],[101.3819,-1.604],[101.3848,-1.6606],[101.403,-1.679],[101.4314,-1.6416],[101.5097,-1.573],[101.5409,-1.5142],[101.5574,-1.4624],[101.672,-1.3902],[101.5969,-1.3489]]]},"properties":{"code":"13.11.07","name":"Sangir Balai Janggo","latitude":-1.4652993890509445,"longitude":101.4963042607996}}]}