{"type":"FeatureCollection","features":[{"type":"Feature","geometry":{"type":"Polygon","coordinates":[[[100.6704,-0.7885],[100.6558,-0.794],[100.6366,-0.7686],[100.6327,-0.7646],[100.6053,-0.7835],[100.5708,-0.7867],[100.5415,-0.809],[100.5613,-0.819],[100.6416,-0.805],[100.6798,-0.8056],[100.6704,-0.7885]]]},"properties":{"code":"13.72.01","name":"Lubuk Sikarah","latitude":-0.795496090187332,"longitude":100.61163696096732}},{"type":"Feature","geometry":{"type":"Polygon","coordinates":[[[100.6709,-0.7707],[100.6839,-0.745],[100.6437,-0.7448],[100.6389,-0.7686],[100.6454,-0.7854],[100.6592,-0.7943],[100.6704,-0.7885],[100.6709,-0.7707]]]},"properties":{"code":"13.72.02","name":"Tanjung Harapan","latitude":-0.7632974675647095,"longitude":100.6581130854814}}]}