{"type":"FeatureCollection","features":[{"type":"Feature","geometry":{"type":"Polygon","coordinates":[[[100.3761,-0.2994],[100.3654,-0.3142],[100.389,-0.3176],[100.3761,-0.2994]]]},"properties":{"code":"13.75.01","name":"Guguak Panjang","latitude":-0.30452109438520636,"longitude":100.36714304744716}},{"type":"Feature","geometry":{"type":"Polygon","coordinates":[[[100.3761,-0.2994],[100.3478,-0.2758],[100.3424,-0.2935],[100.3761,-0.2994]]]},"properties":{"code":"13.75.02","name":"Mandiangin Koto Selayan","latitude":-0.2906773106992944,"longitude":100.36844248099699}},{"type":"Feature","geometry":{"type":"Polygon","coordinates":[[[100.389,-0.3176],[100.3757,-0.3117],[100.3656,-0.3163],[100.385,-0.3255],[100.4079,-0.3221],[100.3971,-0.3039],[100.389,-0.3176]]]},"properties":{"code":"13.75.03","name":"Aur Birugo Tigo Baleh","latitude":-0.31633776230272903,"longitude":100.38820574233976}}]}