{"type":"FeatureCollection","features":[{"type":"Feature","geometry":{"type":"Polygon","coordinates":[[[100.5208,0.7584],[100.5042,0.75],[100.4546,0.7384],[100.4826,0.7386],[100.4988,0.6808],[100.558,0.6742],[100.569,0.7292],[100.5208,0.7584]]]},"properties":{"code":"14.06.01","name":"Ujung Batu"}},{"type":"Feature","geometry":{"type":"Polygon","coordinates":[[[100.3608,0.7094],[100.3076,0.7698],[100.271,0.757],[100.2592,0.7336],[100.2736,0.7272],[100.2686,0.708],[100.2844,0.6824],[100.1978,0.6282],[100.24,0.5358],[100.2214,0.5152],[100.2358,0.4746],[100.2886,0.3992],[100.3232,0.4004],[100.3892,0.4072],[100.421,0.4244],[100.39,0.4842],[100.4754,0.546],[100.4832,0.5812],[100.5174,0.5798],[100.5208,0.674],[100.4988,0.6808],[100.4826,0.7386],[100.428,0.733],[100.3608,0.7094]]]},"properties":{"code":"14.06.02","name":"Rokan Iv Koto"}},{"type":"Feature","geometry":{"type":"Polygon","coordinates":[[[100.3092,0.9316],[100.2492,0.9228],[100.2556,0.9066],[100.1992,0.8574],[100.1462,0.8548],[100.1578,0.7992],[100.1812,0.7624],[100.2118,0.736],[100.219,0.7428],[100.2592,0.7336],[100.271,0.757],[100.3072,0.7702],[100.3222,0.7562],[100.3658,0.8298],[100.3482,0.8592],[100.3858,0.9192],[100.3092,0.9316]]]},"properties":{"code":"14.06.03","name":"Rambah"}},{"type":"Feature","geometry":{"type":"Polygon","coordinates":[[[100.1994,1.2836],[100.174,1.2876],[100.1492,1.2838],[100.1292,1.2608],[100.1112,1.2216],[100.1626,1.1396],[100.1402,1.0608],[100.148,0.9472],[100.163,0.9406],[100.1628,0.957],[100.174,0.9694],[100.254,0.995],[100.3306,1.0484],[100.371,1.037],[100.3888,1.0212],[100.4184,1.1334],[100.3724,1.1524],[100.2944,1.161],[100.2736,1.185],[100.237,1.1664],[100.1806,1.1916],[100.214,1.2518],[100.2148,1.271],[100.1994,1.2836]]]},"properties":{"code":"14.06.04","name":"Tambusai"}},{"type":"Feature","geometry":{"type":"Polygon","coordinates":[[[100.7484,1.2258],[100.7492,1.2412],[100.6982,1.2412],[100.6638,1.2922],[100.6436,1.2506],[100.6286,1.1556],[100.5106,1.1468],[100.4958,1.119],[100.4774,1.1184],[100.4938,1.0432],[100.5436,0.9954],[100.5962,1.004],[100.5978,0.979],[100.6232,0.9738],[100.6084,1.0376],[100.6088,1.0538],[100.6702,1.0508],[100.681,1.156],[100.7162,1.1544],[100.7662,1.2196],[100.7484,1.2258]]]},"properties":{"code":"14.06.05","name":"Kepenuhan"}},{"type":"Feature","geometry":{"type":"Polygon","coordinates":[[[100.745,0.8698],[100.7728,0.8636],[100.84,0.9472],[100.7866,1.0034],[100.6994,1.0538],[100.6088,1.0538],[100.6084,1.0376],[100.6232,0.9738],[100.5978,0.979],[100.5644,0.938],[100.5434,0.865],[100.519,0.8626],[100.5298,0.7766],[100.5854,0.7908],[100.614,0.7724],[100.6768,0.7746],[100.7038,0.7584],[100.745,0.8698]]]},"properties":{"code":"14.06.06","name":"Kunto Darussalam"}},{"type":"Feature","geometry":{"type":"Polygon","coordinates":[[[100.4172,0.9234],[100.3482,0.8592],[100.3658,0.8298],[100.3176,0.754],[100.3608,0.7094],[100.428,0.733],[100.4546,0.7384],[100.5042,0.75],[100.519,0.8626],[100.4846,0.883],[100.4186,0.887],[100.4172,0.9234]]]},"properties":{"code":"14.06.07","name":"Rambah Samo"}},{"type":"Feature","geometry":{"type":"Polygon","coordinates":[[[100.371,1.037],[100.3306,1.0484],[100.254,0.995],[100.2374,0.9674],[100.2358,0.9442],[100.2648,0.941],[100.2608,0.9282],[100.3092,0.9316],[100.4172,0.9234],[100.4186,0.887],[100.4406,0.9438],[100.479,0.9586],[100.455,1.0146],[100.4304,1.022],[100.3888,1.0212],[100.371,1.037]]]},"properties":{"code":"14.06.08","name":"Rambah Hilir"}},{"type":"Feature","geometry":{"type":"Polygon","coordinates":[[[100.3464,1.418],[100.3034,1.4166],[100.2538,1.4132],[100.1804,1.4168],[100.123,1.4062],[100.0726,1.3916],[100.0716,1.3388],[100.0876,1.3374],[100.1258,1.256],[100.1228,1.2472],[100.1528,1.286],[100.173,1.2888],[100.1994,1.2836],[100.2148,1.271],[100.214,1.2518],[100.1806,1.1916],[100.237,1.1664],[100.2736,1.185],[100.2944,1.161],[100.3724,1.1524],[100.4184,1.1334],[100.4314,1.1376],[100.4314,1.1478],[100.5106,1.1468],[100.6286,1.1556],[100.6436,1.2506],[100.6222,1.2298],[100.5594,1.2552],[100.4522,1.3378],[100.4578,1.3686],[100.3464,1.418]]]},"properties":{"code":"14.06.09","name":"Tambusai Utara"}},{"type":"Feature","geometry":{"type":"Polygon","coordinates":[[[100.2492,0.9228],[100.2366,0.9434],[100.2348,0.9746],[100.174,0.9694],[100.1628,0.957],[100.163,0.9406],[100.148,0.9472],[100.1238,0.911],[100.098,0.9096],[100.1218,0.8956],[100.133,0.8656],[100.1462,0.8548],[100.1992,0.8574],[100.2556,0.9066],[100.2492,0.9228]]]},"properties":{"code":"14.06.10","name":"Bangun Purba"}},{"type":"Feature","geometry":{"type":"Polygon","coordinates":[[[100.6386,0.6548],[100.558,0.6742],[100.5208,0.674],[100.5174,0.5798],[100.5654,0.5788],[100.5236,0.468],[100.512,0.4578],[100.5224,0.443],[100.5556,0.472],[100.5424,0.502],[100.603,0.5082],[100.677,0.5044],[100.7648,0.5834],[100.7194,0.599],[100.6386,0.6548]]]},"properties":{"code":"14.06.11","name":"Tandun"}},{"type":"Feature","geometry":{"type":"Polygon","coordinates":[[[100.797,0.5334],[100.7648,0.5834],[100.677,0.5044],[100.6498,0.4552],[100.72,0.3896],[100.7586,0.3914],[100.7868,0.4042],[100.7942,0.388],[100.8142,0.3806],[100.8324,0.3858],[100.8392,0.3766],[100.8404,0.46],[100.8544,0.5024],[100.812,0.5344],[100.797,0.5334]]]},"properties":{"code":"14.06.12","name":"Kabun"}},{"type":"Feature","geometry":{"type":"Polygon","coordinates":[[[100.9512,1.3874],[100.9542,1.396],[100.9206,1.3902],[100.8554,1.3452],[100.8202,1.3044],[100.786,1.2402],[100.7484,1.2258],[100.7662,1.2196],[100.7162,1.1544],[100.681,1.156],[100.6702,1.0508],[100.6994,1.0538],[100.7866,1.0034],[100.84,0.9472],[100.835,0.941],[100.9138,0.9594],[100.994,0.9564],[100.9898,0.9826],[100.9972,1.0196],[100.99,1.0662],[100.9808,1.0692],[100.9908,1.117],[100.9924,1.207],[100.9788,1.2638],[100.9676,1.331],[100.976,1.3788],[100.9512,1.3874]]]},"properties":{"code":"14.06.13","name":"Bonai Darussalam"}},{"type":"Feature","geometry":{"type":"Polygon","coordinates":[[[100.614,0.7724],[100.5854,0.7908],[100.5298,0.7766],[100.5208,0.7584],[100.569,0.7292],[100.648,0.7332],[100.6768,0.7746],[100.614,0.7724]]]},"properties":{"code":"14.06.14","name":"Pagaran Tapah Darussalam"}},{"type":"Feature","geometry":{"type":"Polygon","coordinates":[[[100.4958,1.119],[100.4314,1.1478],[100.4314,1.1376],[100.4304,1.022],[100.455,1.0146],[100.479,0.9586],[100.4406,0.9438],[100.4846,0.883],[100.5434,0.865],[100.5644,0.938],[100.5962,1.004],[100.5436,0.9954],[100.4938,1.0432],[100.4774,1.1184],[100.4958,1.119]]]},"properties":{"code":"14.06.15","name":"Kepenuhan Hulu"}},{"type":"Feature","geometry":{"type":"Polygon","coordinates":[[[100.5236,0.468],[100.5654,0.5788],[100.4832,0.5812],[100.4754,0.546],[100.39,0.4842],[100.421,0.4244],[100.4654,0.4334],[100.4938,0.4538],[100.5044,0.442],[100.5224,0.443],[100.512,0.4578],[100.5236,0.468]]]},"properties":{"code":"14.06.16","name":"Pendalian Iv Koto"}}]}