{"type":"FeatureCollection","features":[{"type":"Feature","geometry":{"type":"Polygon","coordinates":[[[102.7728,0.9308],[102.822,0.952],[102.7344,1.0222],[102.6734,1.002],[102.6524,0.9526],[102.7192,0.9456],[102.7728,0.9308]]]},"properties":{"code":"14.10.01","name":"Tebing Tinggi"}},{"type":"Feature","geometry":{"type":"Polygon","coordinates":[[[102.7392,1.1198],[102.6816,1.1114],[102.644,1.0076],[102.7298,1.04],[102.7724,1.0876],[102.7392,1.1198]]]},"properties":{"code":"14.10.02","name":"Rangsang Barat"}},{"type":"Feature","geometry":{"type":"Polygon","coordinates":[[[102.8614,0.9746],[103.0712,0.8322],[103.1446,0.8402],[103.1534,0.8948],[103.0218,1.0484],[102.9734,0.9846],[102.8938,1.0258],[102.8614,0.9746]]]},"properties":{"code":"14.10.03","name":"Rangsang"}},{"type":"Feature","geometry":{"type":"Polygon","coordinates":[[[102.6734,1.002],[102.5858,0.9992],[102.5598,0.9714],[102.483,0.9286],[102.4402,0.9354],[102.4074,0.8816],[102.431,0.8314],[102.5706,0.7676],[102.596,0.8384],[102.6354,0.8414],[102.68,0.9204],[102.6524,0.9526],[102.6734,1.002]]]},"properties":{"code":"14.10.04","name":"Tebing Tinggi Barat"}},{"type":"Feature","geometry":{"type":"Polygon","coordinates":[[[102.3672,1.1504],[102.3268,1.2256],[102.3146,1.2364],[102.264,1.2498],[102.2342,1.249],[102.2252,1.242],[102.2494,1.1766],[102.2364,1.1014],[102.2772,1.0038],[102.3862,0.9134],[102.4392,0.9488],[102.4684,1.0094],[102.4348,1.0906],[102.365,1.097],[102.3672,1.1504]]]},"properties":{"code":"14.10.05","name":"Merbau"}},{"type":"Feature","geometry":{"type":"Polygon","coordinates":[[[102.5352,1.1298],[102.4822,1.1258],[102.4598,1.0756],[102.5002,0.9454],[102.5588,0.9722],[102.6138,1.0468],[102.5352,1.1298]]]},"properties":{"code":"14.10.06","name":"Pulaumerbau"}},{"type":"Feature","geometry":{"type":"Polygon","coordinates":[[[102.596,0.8384],[102.5706,0.7676],[102.6728,0.791],[102.857,0.7938],[102.9262,0.7706],[102.9924,0.6908],[103.0488,0.721],[103.0464,0.8244],[102.9428,0.8878],[102.8796,0.9516],[102.7728,0.9308],[102.7192,0.9456],[102.68,0.9204],[102.6354,0.8414],[102.596,0.8384]]]},"properties":{"code":"14.10.07","name":"Tebing Tinggi Timur"}},{"type":"Feature","geometry":{"type":"Polygon","coordinates":[[[102.365,1.097],[102.424,1.0952],[102.4856,1.1998],[102.4848,1.2382],[102.3738,1.3258],[102.2964,1.4088],[102.2138,1.4144],[102.2294,1.3544],[102.206,1.2822],[102.2252,1.242],[102.2342,1.249],[102.2714,1.2494],[102.3178,1.235],[102.3672,1.1504],[102.365,1.097]]]},"properties":{"code":"14.10.08","name":"Tasik Putri Puyu"}},{"type":"Feature","geometry":{"type":"Polygon","coordinates":[[[102.9734,0.9846],[103.0214,1.0484],[102.9754,1.0936],[102.7708,1.159],[102.7392,1.1198],[102.7724,1.0876],[102.8098,0.9904],[102.8614,0.9746],[102.8938,1.0258],[102.9734,0.9846]]]},"properties":{"code":"14.10.09","name":"Rangsang Pesisir"}}]}