{"type":"FeatureCollection","features":[{"type":"Feature","geometry":{"type":"Polygon","coordinates":[[[101.6818,-2.2346],[101.6728,-2.217],[101.6428,-2.2033],[101.5756,-2.2061],[101.5217,-2.2433],[101.4602,-2.3924],[101.557,-2.4519],[101.5546,-2.3519],[101.6003,-2.3334],[101.6587,-2.3473],[101.6774,-2.3288],[101.7114,-2.3181],[101.7409,-2.2612],[101.6818,-2.2346]]]},"properties":{"code":"15.01.01","name":"Gunung Raya","latitude":-2.304645292907471,"longitude":101.58992971026001}},{"type":"Feature","geometry":{"type":"Polygon","coordinates":[[[101.6839,-1.981],[101.666,-1.9728],[101.6387,-1.923],[101.5778,-1.968],[101.5528,-2.0246],[101.4999,-2.0741],[101.5014,-2.0877],[101.4769,-2.0945],[101.4756,-2.1061],[101.4961,-2.1478],[101.5285,-2.1268],[101.5377,-2.1212],[101.6734,-2.004],[101.6839,-1.981]]]},"properties":{"code":"15.01.02","name":"Danau Kerinci","latitude":-2.0331086050678397,"longitude":101.58228070149733}},{"type":"Feature","geometry":{"type":"Polygon","coordinates":[[[101.4999,-2.0741],[101.5434,-2.0312],[101.4991,-2.0185],[101.4559,-2.0747],[101.5014,-2.0877],[101.4999,-2.0741]]]},"properties":{"code":"15.01.04","name":"Sitinjau Laut","latitude":-2.0532583386824235,"longitude":101.49264677437851}},{"type":"Feature","geometry":{"type":"Polygon","coordinates":[[[101.424,-1.9699],[101.3981,-1.9446],[101.3753,-1.9928],[101.3221,-2.0207],[101.3692,-2.0143],[101.3662,-2.0073],[101.3787,-2.0002],[101.3835,-2.0117],[101.3853,-1.9953],[101.3901,-1.9748],[101.424,-1.9699]]]},"properties":{"code":"15.01.05","name":"Air Hangat","latitude":-1.9815887384448418,"longitude":101.38233753538859}},{"type":"Feature","geometry":{"type":"Polygon","coordinates":[[[101.2115,-1.8432],[101.1344,-1.8034],[101.1383,-1.8989],[101.2088,-2.011],[101.2703,-1.9835],[101.3404,-1.8863],[101.3736,-1.9074],[101.4019,-1.8487],[101.3794,-1.8089],[101.354,-1.8339],[101.3084,-1.8501],[101.2115,-1.8432]]]},"properties":{"code":"15.01.06","name":"Gunung Kerinci","latitude":-1.8955359103029026,"longitude":101.24503479872557}},{"type":"Feature","geometry":{"type":"Polygon","coordinates":[[[101.7409,-2.2612],[101.8123,-2.1775],[101.7934,-2.1054],[101.7507,-2.0378],[101.7265,-2.0208],[101.7304,-2.0012],[101.6983,-1.997],[101.6839,-1.981],[101.6734,-2.004],[101.5813,-2.0897],[101.553,-2.1473],[101.6027,-2.1775],[101.6001,-2.2079],[101.6544,-2.2051],[101.6798,-2.2244],[101.6818,-2.2346],[101.7409,-2.2612]]]},"properties":{"code":"15.01.07","name":"Batang Merangin","latitude":-2.1286575545412774,"longitude":101.69179111769573}},{"type":"Feature","geometry":{"type":"Polygon","coordinates":[[[101.5321,-2.144],[101.5238,-2.1424],[101.456,-2.1476],[101.443,-2.161],[101.3686,-2.1744],[101.2797,-2.251],[101.2929,-2.2887],[101.3552,-2.3275],[101.37,-2.3473],[101.3866,-2.3564],[101.419,-2.3263],[101.4804,-2.2332],[101.5437,-2.1708],[101.5321,-2.144]]]},"properties":{"code":"15.01.08","name":"Keliling Danau","latitude":-2.2382852890097023,"longitude":101.40731495266299}},{"type":"Feature","geometry":{"type":"Polygon","coordinates":[[[101.2973,-1.729],[101.3107,-1.7008],[101.2791,-1.6963],[101.2653,-1.6962],[101.2529,-1.7138],[101.2319,-1.7219],[101.2641,-1.7775],[101.2857,-1.7948],[101.3084,-1.8501],[101.354,-1.8339],[101.4039,-1.7841],[101.3773,-1.7795],[101.3659,-1.7628],[101.3229,-1.7717],[101.2907,-1.726],[101.2973,-1.729]]]},"properties":{"code":"15.01.09","name":"Kayu Aro","latitude":-1.7791953470492874,"longitude":101.31283718880904}},{"type":"Feature","geometry":{"type":"Polygon","coordinates":[[[101.5778,-1.968],[101.5935,-1.9293],[101.536,-1.9324],[101.4652,-1.9482],[101.4327,-1.9834],[101.424,-1.9699],[101.3853,-1.9953],[101.3909,-2.0124],[101.4158,-2.0304],[101.4317,-2.0289],[101.4559,-2.0747],[101.4991,-2.0185],[101.5434,-2.0312],[101.5528,-2.0246],[101.5778,-1.968]]]},"properties":{"code":"15.01.11","name":"Air Hangat Timur","latitude":-1.9865837627163718,"longitude":101.48892756230312}},{"type":"Feature","geometry":{"type":"Polygon","coordinates":[[[101.4454,-1.7112],[101.4264,-1.6774],[101.3954,-1.69],[101.3732,-1.6753],[101.3306,-1.6952],[101.2973,-1.729],[101.2907,-1.726],[101.3229,-1.7717],[101.3659,-1.7628],[101.3773,-1.7795],[101.4039,-1.7841],[101.4621,-1.7246],[101.4454,-1.7112]]]},"properties":{"code":"15.01.15","name":"Gunung Tujuh","latitude":-1.7278851617055018,"longitude":101.37397927888266}},{"type":"Feature","geometry":{"type":"Polygon","coordinates":[[[101.3328,-1.9432],[101.3404,-1.8863],[101.2703,-1.9835],[101.2088,-2.011],[101.2397,-2.0667],[101.2716,-2.032],[101.2906,-2.0264],[101.3475,-1.9776],[101.3673,-1.9798],[101.3328,-1.9432]]]},"properties":{"code":"15.01.16","name":"Siulak","latitude":-1.978673359992925,"longitude":101.29331347380075}},{"type":"Feature","geometry":{"type":"Polygon","coordinates":[[[101.3787,-2.0002],[101.3662,-2.0073],[101.3692,-2.0143],[101.3545,-2.0078],[101.3093,-2.0063],[101.2906,-2.0264],[101.4158,-2.0304],[101.3909,-2.0124],[101.3835,-2.0117],[101.3787,-2.0002]]]},"properties":{"code":"15.01.17","name":"Depati Tujuh","latitude":-2.0185348571213355,"longitude":101.35650346987616}},{"type":"Feature","geometry":{"type":"Polygon","coordinates":[[[101.6387,-1.923],[101.6386,-1.9028],[101.6176,-1.874],[101.4621,-1.7246],[101.3794,-1.8089],[101.4019,-1.8487],[101.3736,-1.9074],[101.3328,-1.9432],[101.3981,-1.9446],[101.4206,-1.9603],[101.4327,-1.9834],[101.4652,-1.9482],[101.536,-1.9324],[101.5935,-1.9293],[101.6387,-1.923]]]},"properties":{"code":"15.01.18","name":"Siulak Mukai","latitude":-1.8667447900213985,"longitude":101.48247952526737}},{"type":"Feature","geometry":{"type":"Polygon","coordinates":[[[101.2262,-1.7184],[101.1692,-1.7106],[101.1317,-1.6847],[101.1344,-1.8034],[101.1538,-1.8052],[101.2115,-1.8432],[101.3084,-1.8501],[101.2857,-1.7948],[101.2641,-1.7775],[101.2262,-1.7184]]]},"properties":{"code":"15.01.19","name":"Kayu Aro Barat","latitude":-1.7745403102702473,"longitude":101.20527902651213}},{"type":"Feature","geometry":{"type":"Polygon","coordinates":[[[101.553,-2.1473],[101.5813,-2.0897],[101.5377,-2.1212],[101.5285,-2.1268],[101.5321,-2.144],[101.5437,-2.1708],[101.4804,-2.2332],[101.419,-2.3263],[101.3866,-2.3564],[101.4036,-2.3557],[101.4602,-2.3924],[101.5217,-2.2433],[101.5756,-2.2061],[101.6001,-2.2079],[101.6027,-2.1775],[101.553,-2.1473]]]},"properties":{"code":"15.01.20","name":"Bukit Kerman","latitude":-2.2550803762122307,"longitude":101.50071933163196}},{"type":"Feature","geometry":{"type":"Polygon","coordinates":[[[101.3673,-1.9798],[101.3519,-1.9759],[101.3093,-2.0063],[101.347,-2.0048],[101.3753,-1.9928],[101.3673,-1.9798]]]},"properties":{"code":"15.01.21","name":"Air Hangat Barat","latitude":-1.9942210179015711,"longitude":101.34434316349264}},{"type":"Feature","geometry":{"type":"Polygon","coordinates":[[[101.4961,-2.1478],[101.4764,-2.0978],[101.4388,-2.1043],[101.4763,-2.1458],[101.4961,-2.1478]]]},"properties":{"code":"15.01.22","name":"Tanah Cogok","latitude":-2.11946354852947,"longitude":101.46789351981494}},{"type":"Feature","geometry":{"type":"Polygon","coordinates":[[[101.4388,-2.1043],[101.4175,-2.105],[101.4156,-2.1558],[101.443,-2.161],[101.456,-2.1476],[101.4763,-2.1458],[101.4388,-2.1043]]]},"properties":{"code":"15.01.23","name":"Danau Kerinci Barat","latitude":-2.137593676717155,"longitude":101.43382780521348}}]}