{"type":"FeatureCollection","features":[{"type":"Feature","geometry":{"type":"Polygon","coordinates":[[[103.5789,-1.5611],[103.5525,-1.5344],[103.4924,-1.5383],[103.4719,-1.5291],[103.4664,-1.5294],[103.4728,-1.5439],[103.4272,-1.624],[103.4253,-1.7031],[103.4024,-1.7424],[103.5093,-1.743],[103.5495,-1.725],[103.5683,-1.6805],[103.5242,-1.6761],[103.5483,-1.6115],[103.535,-1.5892],[103.5466,-1.5879],[103.5789,-1.5611]]]},"properties":{"code":"15.05.01","name":"Jambi Luar Kota","latitude":-1.6442094773436506,"longitude":103.48663861092828}},{"type":"Feature","geometry":{"type":"Polygon","coordinates":[[[103.3298,-1.2655],[103.2711,-1.2346],[103.2705,-1.3153],[103.2246,-1.3312],[103.2206,-1.3745],[103.2548,-1.3932],[103.2892,-1.3931],[103.2946,-1.3738],[103.2852,-1.3529],[103.3311,-1.3667],[103.3816,-1.4705],[103.4161,-1.4785],[103.432,-1.4664],[103.4442,-1.4758],[103.4509,-1.4675],[103.4698,-1.4708],[103.4742,-1.4873],[103.4639,-1.5104],[103.4664,-1.5294],[103.5332,-1.5401],[103.5482,-1.5347],[103.5516,-1.5192],[103.5686,-1.5249],[103.5597,-1.4911],[103.5626,-1.4505],[103.504,-1.4069],[103.5069,-1.3323],[103.417,-1.3283],[103.3912,-1.2799],[103.3298,-1.2655]]]},"properties":{"code":"15.05.02","name":"Sekernan","latitude":-1.3886879712999385,"longitude":103.40765107791272}},{"type":"Feature","geometry":{"type":"Polygon","coordinates":[[[104.1082,-1.3103],[104.0553,-1.3183],[103.839,-1.3415],[103.8533,-1.3958],[103.8534,-1.4501],[103.8861,-1.4792],[103.8448,-1.4802],[103.8469,-1.5061],[103.8694,-1.5426],[103.8547,-1.5596],[103.9116,-1.6289],[103.9129,-1.6885],[103.9645,-1.6847],[104.0071,-1.7101],[104.0041,-1.7541],[104.3625,-1.6467],[104.3285,-1.6381],[104.3023,-1.6132],[104.2863,-1.5734],[104.2355,-1.5434],[104.1639,-1.449],[104.0853,-1.3214],[104.1082,-1.3103]]]},"properties":{"code":"15.05.03","name":"Kumpeh","latitude":-1.534152037267671,"longitude":104.05218755927548}},{"type":"Feature","geometry":{"type":"Polygon","coordinates":[[[103.6336,-1.3922],[103.5807,-1.3902],[103.5585,-1.3539],[103.559,-1.3157],[103.5071,-1.3163],[103.5115,-1.3751],[103.504,-1.4069],[103.5626,-1.4505],[103.5597,-1.4911],[103.5686,-1.5249],[103.5516,-1.5192],[103.5789,-1.5611],[103.6047,-1.5483],[103.6381,-1.5507],[103.6456,-1.4896],[103.6709,-1.4834],[103.6753,-1.4966],[103.6833,-1.4871],[103.6637,-1.4646],[103.6873,-1.3676],[103.6336,-1.3922]]]},"properties":{"code":"15.05.04","name":"Maro Sebo","latitude":-1.4351062039971787,"longitude":103.59351276965005}},{"type":"Feature","geometry":{"type":"Polygon","coordinates":[[[103.6506,-1.7782],[103.6333,-1.7534],[103.634,-1.7244],[103.6162,-1.6906],[103.582,-1.6697],[103.5495,-1.725],[103.5093,-1.743],[103.4024,-1.7424],[103.4023,-1.7511],[103.4164,-1.8172],[103.3994,-1.8611],[103.4273,-1.869],[103.4769,-1.8947],[103.4875,-1.9322],[103.5048,-1.948],[103.5214,-1.9067],[103.6303,-1.8412],[103.6477,-1.8223],[103.6506,-1.7782]]]},"properties":{"code":"15.05.05","name":"Mestong","latitude":-1.8048880674630978,"longitude":103.52921446470687}},{"type":"Feature","geometry":{"type":"Polygon","coordinates":[[[103.8183,-1.4809],[103.784,-1.4619],[103.7476,-1.5077],[103.6809,-1.5198],[103.6691,-1.5489],[103.6574,-1.6107],[103.6643,-1.6055],[103.6878,-1.6145],[103.7591,-1.6429],[103.8162,-1.6883],[103.8548,-1.7086],[103.8635,-1.6895],[103.9129,-1.6885],[103.9116,-1.6289],[103.8547,-1.5596],[103.8694,-1.5426],[103.8469,-1.5061],[103.8448,-1.4802],[103.8183,-1.4809]]]},"properties":{"code":"15.05.06","name":"Kumpeh Ulu","latitude":-1.585934342091803,"longitude":103.79321495322255}},{"type":"Feature","geometry":{"type":"Polygon","coordinates":[[[103.4875,-1.9322],[103.4662,-1.9208],[103.4316,-1.9283],[103.4088,-1.9832],[103.3705,-2.0013],[103.3699,-2.0466],[103.4429,-2.0361],[103.4491,-2.0234],[103.4773,-2.0223],[103.4953,-2.0298],[103.5531,-2.001],[103.5427,-1.986],[103.5,-1.9822],[103.5048,-1.948],[103.4875,-1.9322]]]},"properties":{"code":"15.05.07","name":"Sungai Bahar","latitude":-1.9895403649095067,"longitude":103.45008477988382}},{"type":"Feature","geometry":{"type":"Polygon","coordinates":[[[103.8162,-1.6883],[103.7591,-1.6429],[103.6878,-1.6145],[103.6811,-1.6193],[103.6498,-1.6572],[103.6308,-1.6529],[103.6233,-1.6657],[103.6287,-1.6765],[103.6209,-1.707],[103.6341,-1.7246],[103.6345,-1.7568],[103.6506,-1.7782],[103.6477,-1.8223],[103.6496,-1.8397],[103.6579,-1.8463],[103.7661,-1.8161],[103.85,-1.8167],[103.8733,-1.7886],[104.0041,-1.7541],[104.0071,-1.7101],[103.9645,-1.6847],[103.8635,-1.6895],[103.8548,-1.7086],[103.8162,-1.6883]]]},"properties":{"code":"15.05.08","name":"Sungai Gelam","latitude":-1.7339624305685126,"longitude":103.77888265409943}},{"type":"Feature","geometry":{"type":"Polygon","coordinates":[[[103.4273,-1.869],[103.3203,-1.8682],[103.3148,-1.9408],[103.3702,-1.9942],[103.3705,-2.0013],[103.4088,-1.9832],[103.4316,-1.9283],[103.4662,-1.9208],[103.4769,-1.8947],[103.4273,-1.869]]]},"properties":{"code":"15.05.09","name":"Bahar Utara","latitude":-1.9233420247187194,"longitude":103.38049380696764}},{"type":"Feature","geometry":{"type":"Polygon","coordinates":[[[103.5639,-2.0168],[103.5531,-2.001],[103.4953,-2.0298],[103.4773,-2.0223],[103.4491,-2.0234],[103.4429,-2.0361],[103.4544,-2.0479],[103.4464,-2.1736],[103.507,-2.1737],[103.546,-2.1363],[103.5169,-2.0922],[103.5639,-2.0168]]]},"properties":{"code":"15.05.10","name":"Bahar Selatan","latitude":-2.090595405317258,"longitude":103.49668947487248}},{"type":"Feature","geometry":{"type":"Polygon","coordinates":[[[103.8861,-1.4792],[103.8534,-1.4501],[103.8533,-1.3958],[103.839,-1.3415],[103.6873,-1.3676],[103.6637,-1.4646],[103.6833,-1.4872],[103.6753,-1.4966],[103.6709,-1.4834],[103.6456,-1.4896],[103.6381,-1.5507],[103.6691,-1.5489],[103.6809,-1.5198],[103.7476,-1.5077],[103.784,-1.4619],[103.8183,-1.4809],[103.8861,-1.4792]]]},"properties":{"code":"15.05.11","name":"Taman Rajo","latitude":-1.4367067799028947,"longitude":103.75345673886093}}]}