{"type":"FeatureCollection","features":[{"type":"Feature","geometry":{"type":"Polygon","coordinates":[[[103.9424,-3.8986],[103.9488,-3.8264],[103.9588,-3.805],[103.876,-3.8276],[103.7568,-3.817],[103.7034,-3.87],[103.7196,-3.8848],[103.6952,-3.9072],[103.6602,-3.9108],[103.6346,-3.9434],[103.641,-3.9516],[103.677,-3.9542],[103.76,-3.9526],[103.7876,-3.9958],[103.8626,-3.9728],[103.8948,-3.9288],[103.9286,-3.9162],[103.9424,-3.8986]]]},"properties":{"code":"16.03.01","name":"Tanjung Agung"}},{"type":"Feature","geometry":{"type":"Polygon","coordinates":[[[103.8254,-3.6102],[103.7746,-3.607],[103.7312,-3.6172],[103.7436,-3.6224],[103.7348,-3.6404],[103.734,-3.691],[103.7984,-3.7148],[103.8568,-3.7144],[103.873,-3.6436],[103.8652,-3.6246],[103.8254,-3.6102]]]},"properties":{"code":"16.03.02","name":"Muara Enim"}},{"type":"Feature","geometry":{"type":"Polygon","coordinates":[[[104.105,-3.4216],[104.0758,-3.4536],[104.0748,-3.4288],[104.036,-3.4278],[104.0356,-3.4542],[103.9858,-3.4644],[103.991,-3.4716],[103.967,-3.512],[103.9634,-3.5538],[103.9294,-3.5766],[103.9258,-3.5874],[103.9378,-3.6784],[103.919,-3.7052],[103.9588,-3.805],[103.9444,-3.8454],[103.9458,-3.8554],[103.9642,-3.8682],[103.9792,-3.8676],[104.0338,-3.7264],[104.0502,-3.717],[104.0522,-3.6942],[104.063,-3.6778],[104.067,-3.6374],[104.0812,-3.5228],[104.1224,-3.5156],[104.1368,-3.454],[104.1462,-3.4284],[104.105,-3.4216]]]},"properties":{"code":"16.03.03","name":"Rambang Niru"}},{"type":"Feature","geometry":{"type":"Polygon","coordinates":[[[103.9752,-3.47],[103.9148,-3.395],[103.9074,-3.3596],[103.8922,-3.344],[103.85,-3.4034],[103.8462,-3.4362],[103.812,-3.4634],[103.7468,-3.4826],[103.826,-3.533],[103.8374,-3.5738],[103.8638,-3.6146],[103.873,-3.6436],[103.8568,-3.7144],[103.916,-3.7334],[103.919,-3.7052],[103.9378,-3.6784],[103.9292,-3.5772],[103.9634,-3.5538],[103.967,-3.512],[103.9674,-3.5044],[103.9752,-3.47]]]},"properties":{"code":"16.03.04","name":"Gunung Megang"}},{"type":"Feature","geometry":{"type":"Polygon","coordinates":[[[104.5058,-3.1244],[104.4954,-3.0858],[104.3546,-3.0864],[104.3552,-3.1322],[104.333,-3.1922],[104.2648,-3.2786],[104.2914,-3.3056],[104.3494,-3.323],[104.404,-3.3366],[104.4228,-3.3198],[104.417,-3.3132],[104.4842,-3.285],[104.5248,-3.272],[104.5424,-3.2102],[104.5236,-3.2116],[104.5224,-3.1806],[104.5622,-3.1278],[104.5058,-3.1244]]]},"properties":{"code":"16.03.06","name":"Gelumbang"}},{"type":"Feature","geometry":{"type":"Polygon","coordinates":[[[103.916,-3.7334],[103.7984,-3.7148],[103.7232,-3.7726],[103.738,-3.8018],[103.7568,-3.817],[103.876,-3.8276],[103.9588,-3.805],[103.916,-3.7334]]]},"properties":{"code":"16.03.07","name":"Lawang Kidul"}},{"type":"Feature","geometry":{"type":"Polygon","coordinates":[[[103.7018,-4.087],[103.6814,-4.0642],[103.6546,-4.017],[103.6416,-3.9686],[103.6022,-3.9892],[103.5846,-4.0918],[103.5656,-4.0916],[103.5754,-4.111],[103.6312,-4.1636],[103.6066,-4.2038],[103.644,-4.2178],[103.7052,-4.184],[103.7018,-4.087]]]},"properties":{"code":"16.03.08","name":"Semende Darat Laut"}},{"type":"Feature","geometry":{"type":"Polygon","coordinates":[[[103.6312,-4.1636],[103.586,-4.1192],[103.5656,-4.0916],[103.5556,-4.12],[103.5262,-4.1376],[103.498,-4.1306],[103.4052,-4.1732],[103.3594,-4.2372],[103.336,-4.257],[103.3546,-4.2972],[103.452,-4.2104],[103.5386,-4.1756],[103.5692,-4.1908],[103.589,-4.181],[103.6066,-4.2038],[103.6312,-4.1636]]]},"properties":{"code":"16.03.09","name":"Semende Darat Tengah"}},{"type":"Feature","geometry":{"type":"Polygon","coordinates":[[[103.5692,-4.1908],[103.452,-4.2104],[103.3546,-4.2972],[103.5182,-4.3768],[103.545,-4.3712],[103.6012,-4.3466],[103.6152,-4.2628],[103.619,-4.2246],[103.589,-4.181],[103.5692,-4.1908]]]},"properties":{"code":"16.03.10","name":"Semende Darat Ulu"}},{"type":"Feature","geometry":{"type":"Polygon","coordinates":[[[103.5948,-3.4578],[103.5718,-3.4562],[103.5492,-3.5274],[103.6278,-3.5094],[103.7082,-3.5654],[103.7322,-3.576],[103.7572,-3.5756],[103.7658,-3.5988],[103.7564,-3.6104],[103.8254,-3.6102],[103.8652,-3.6246],[103.8374,-3.5738],[103.826,-3.533],[103.7302,-3.4782],[103.6532,-3.479],[103.5948,-3.4578]]]},"properties":{"code":"16.03.11","name":"Ujan Mas"}},{"type":"Feature","geometry":{"type":"Polygon","coordinates":[[[104.3488,-3.6],[104.3208,-3.6092],[104.3188,-3.5668],[104.3158,-3.5572],[104.3146,-3.5668],[104.2988,-3.5638],[104.2622,-3.5798],[104.2228,-3.6764],[104.1344,-3.6906],[104.2128,-3.747],[104.2386,-3.7534],[104.3076,-3.7746],[104.3608,-3.7712],[104.3664,-3.7556],[104.37,-3.701],[104.4514,-3.644],[104.4674,-3.6146],[104.4578,-3.5818],[104.4392,-3.5674],[104.415,-3.5632],[104.3906,-3.5904],[104.3488,-3.6]]]},"properties":{"code":"16.03.14","name":"Lubai"}},{"type":"Feature","geometry":{"type":"Polygon","coordinates":[[[104.2324,-3.5402],[104.154,-3.5534],[104.1224,-3.5156],[104.0812,-3.5228],[104.067,-3.6374],[104.0536,-3.6986],[104.1344,-3.6906],[104.2228,-3.6764],[104.2622,-3.5798],[104.2512,-3.5776],[104.2324,-3.5402]]]},"properties":{"code":"16.03.15","name":"Rambang"}},{"type":"Feature","geometry":{"type":"Polygon","coordinates":[[[104.3182,-3.0548],[104.2696,-3.0218],[104.2354,-3.2064],[104.217,-3.2274],[104.2648,-3.2786],[104.333,-3.1922],[104.3552,-3.1322],[104.355,-3.058],[104.3182,-3.0548]]]},"properties":{"code":"16.03.16","name":"Sungai Rotan"}},{"type":"Feature","geometry":{"type":"Polygon","coordinates":[[[104.2914,-3.3056],[104.2504,-3.3008],[104.2282,-3.2862],[104.2238,-3.301],[104.2164,-3.2948],[104.217,-3.3046],[104.2092,-3.3046],[104.2136,-3.3122],[104.189,-3.3188],[104.1778,-3.3354],[104.1786,-3.349],[104.197,-3.3492],[104.2084,-3.3598],[104.3132,-3.3506],[104.3518,-3.376],[104.326,-3.4254],[104.3786,-3.4526],[104.4122,-3.39],[104.4086,-3.3718],[104.427,-3.3482],[104.4212,-3.3372],[104.3494,-3.323],[104.2914,-3.3056]]]},"properties":{"code":"16.03.17","name":"Lembak"}},{"type":"Feature","geometry":{"type":"Polygon","coordinates":[[[103.8922,-3.344],[103.8706,-3.3286],[103.857,-3.333],[103.8484,-3.3172],[103.821,-3.3266],[103.7846,-3.3166],[103.7364,-3.2998],[103.738,-3.3462],[103.7162,-3.3336],[103.7208,-3.3034],[103.7074,-3.2942],[103.6906,-3.3014],[103.6266,-3.3594],[103.611,-3.426],[103.5936,-3.4572],[103.5948,-3.4578],[103.6532,-3.479],[103.7302,-3.4782],[103.7468,-3.4826],[103.812,-3.4634],[103.8462,-3.4362],[103.85,-3.4034],[103.8922,-3.344]]]},"properties":{"code":"16.03.19","name":"Benakat"}},{"type":"Feature","geometry":{"type":"Polygon","coordinates":[[[104.5306,-3.2742],[104.5248,-3.272],[104.4842,-3.285],[104.417,-3.3132],[104.4228,-3.3198],[104.404,-3.3366],[104.4212,-3.3372],[104.4268,-3.3476],[104.447,-3.4252],[104.4658,-3.4226],[104.5334,-3.3616],[104.54,-3.3152],[104.5316,-3.2974],[104.5306,-3.2742]]]},"properties":{"code":"16.03.21","name":"Kelekar"}},{"type":"Feature","geometry":{"type":"Polygon","coordinates":[[[104.6638,-3.0414],[104.5956,-3.0532],[104.583,-3.0482],[104.4564,-3.0804],[104.4558,-3.0752],[104.355,-3.058],[104.3546,-3.0864],[104.4952,-3.0824],[104.5058,-3.1244],[104.5622,-3.1278],[104.576,-3.1148],[104.643,-3.0964],[104.6604,-3.0776],[104.6638,-3.0414]]]},"properties":{"code":"16.03.22","name":"Muara Belida"}},{"type":"Feature","geometry":{"type":"Polygon","coordinates":[[[104.0296,-3.4284],[103.9752,-3.47],[103.9674,-3.5044],[103.991,-3.4716],[103.9858,-3.4644],[104.0374,-3.4498],[104.036,-3.4278],[104.0296,-3.4284]]]},"properties":{"code":"16.03.23","name":"Belimbing"}},{"type":"Feature","geometry":{"type":"Polygon","coordinates":[[[104.447,-3.4252],[104.427,-3.3482],[104.4086,-3.3718],[104.4122,-3.39],[104.3786,-3.4526],[104.326,-3.4254],[104.2764,-3.4606],[104.295,-3.4746],[104.3176,-3.5388],[104.3488,-3.5318],[104.4244,-3.4916],[104.447,-3.4252]]]},"properties":{"code":"16.03.24","name":"Belida Darat"}},{"type":"Feature","geometry":{"type":"Polygon","coordinates":[[[104.2128,-3.747],[104.1368,-3.6922],[104.066,-3.6982],[104.0502,-3.717],[104.0338,-3.7264],[103.9792,-3.8676],[103.9602,-3.8668],[103.9458,-3.8554],[103.9424,-3.8986],[103.9696,-3.8886],[103.9934,-3.92],[104.0628,-3.903],[104.1142,-3.9006],[104.2438,-3.8222],[104.2386,-3.7534],[104.2128,-3.747]]]},"properties":{"code":"16.03.25","name":"Lubai Ulu"}},{"type":"Feature","geometry":{"type":"Polygon","coordinates":[[[104.1248,-3.3604],[104.1106,-3.3462],[104.0288,-3.3412],[104.0296,-3.4284],[104.0748,-3.4288],[104.0758,-3.4536],[104.105,-3.4216],[104.1462,-3.4284],[104.1536,-3.4086],[104.1248,-3.3604]]]},"properties":{"code":"16.03.26","name":"Empat Petulai Dangku"}},{"type":"Feature","geometry":{"type":"Polygon","coordinates":[[[103.76,-3.9526],[103.6422,-3.9516],[103.6422,-3.9814],[103.6694,-4.046],[103.6806,-4.0638],[103.7068,-4.0796],[103.7046,-4.0864],[103.7184,-4.0896],[103.7742,-4.0744],[103.7918,-4.0448],[103.8518,-4.0074],[103.8626,-3.9728],[103.7876,-3.9958],[103.76,-3.9526]]]},"properties":{"code":"16.03.27","name":"Panang Enim"}}]}