{"type":"FeatureCollection","features":[{"type":"Feature","geometry":{"type":"Polygon","coordinates":[[[103.086,-4.0973],[103.0802,-4.0123],[103.0423,-4.0118],[103.0348,-4.0204],[103.0083,-4.0152],[102.9553,-4.0561],[102.9302,-4.0484],[102.922,-4.0763],[102.9193,-4.0961],[102.9699,-4.1236],[103.0027,-4.1605],[103.0644,-4.1371],[103.086,-4.0973]]]},"properties":{"code":"16.04.01","name":"Tanjungsakti Pumu","latitude":-4.081597468113387,"longitude":103.01277402260999}},{"type":"Feature","geometry":{"type":"Polygon","coordinates":[[[103.183,-3.8751],[103.1532,-3.8472],[103.1334,-3.8258],[103.1307,-3.8327],[103.1586,-3.8649],[103.1455,-3.9353],[103.1119,-3.9524],[103.1308,-4.0168],[103.1638,-4.0099],[103.1736,-3.9965],[103.1801,-3.9806],[103.2104,-3.9618],[103.2312,-3.8903],[103.183,-3.8751]]]},"properties":{"code":"16.04.06","name":"Jarai","latitude":-3.940266601564515,"longitude":103.16967823727283}},{"type":"Feature","geometry":{"type":"Polygon","coordinates":[[[103.4259,-4.0323],[103.407,-4.0176],[103.3951,-4.0639],[103.3637,-4.1132],[103.3561,-4.1635],[103.376,-4.2106],[103.4053,-4.1731],[103.498,-4.1306],[103.5085,-4.1146],[103.4699,-4.0344],[103.4529,-4.0372],[103.4259,-4.0323]]]},"properties":{"code":"16.04.07","name":"Kota Agung","latitude":-4.110187496004032,"longitude":103.42051423771338}},{"type":"Feature","geometry":{"type":"Polygon","coordinates":[[[103.5546,-3.8369],[103.5063,-3.8077],[103.5001,-3.8747],[103.5349,-3.9185],[103.5332,-3.8949],[103.5279,-3.8949],[103.5546,-3.8369]]]},"properties":{"code":"16.04.08","name":"Pulau Pinang","latitude":-3.8616201694931376,"longitude":103.5223405274615}},{"type":"Feature","geometry":{"type":"Polygon","coordinates":[[[103.7232,-3.7727],[103.7109,-3.7423],[103.6475,-3.7382],[103.6277,-3.7245],[103.6079,-3.6522],[103.5681,-3.6429],[103.5954,-3.7227],[103.5988,-3.8129],[103.6521,-3.7946],[103.6948,-3.8351],[103.714,-3.8411],[103.7381,-3.8018],[103.7232,-3.7727]]]},"properties":{"code":"16.04.09","name":"Merapi Barat","latitude":-3.7581092412200814,"longitude":103.65064543819082}},{"type":"Feature","geometry":{"type":"Polygon","coordinates":[[[103.5681,-3.6429],[103.5377,-3.5937],[103.4828,-3.6855],[103.4919,-3.7363],[103.5341,-3.7968],[103.5988,-3.8129],[103.5954,-3.7227],[103.5681,-3.6429]]]},"properties":{"code":"16.04.10","name":"Lahat","latitude":-3.719255171448261,"longitude":103.54235048807251}},{"type":"Feature","geometry":{"type":"Polygon","coordinates":[[[103.3143,-3.8848],[103.2469,-3.8937],[103.229,-3.9587],[103.2457,-4.0046],[103.2897,-4.008],[103.3145,-4.0486],[103.3453,-4.0222],[103.3693,-3.9691],[103.3471,-3.9554],[103.3143,-3.8848]]]},"properties":{"code":"16.04.12","name":"Pajar Bulan","latitude":-3.9653686026531285,"longitude":103.29565585726449}},{"type":"Feature","geometry":{"type":"Polygon","coordinates":[[[103.5673,-3.9977],[103.5189,-3.9986],[103.5163,-3.9992],[103.4636,-4.0151],[103.4699,-4.0344],[103.5085,-4.1146],[103.5262,-4.1375],[103.5556,-4.1199],[103.5666,-4.0902],[103.5846,-4.0919],[103.5993,-4.0022],[103.5673,-3.9977]]]},"properties":{"code":"16.04.15","name":"Mulak Ulu","latitude":-4.052349311026497,"longitude":103.53289853898373}},{"type":"Feature","geometry":{"type":"Polygon","coordinates":[[[103.1773,-3.6324],[103.1679,-3.6434],[103.1159,-3.6969],[103.114,-3.7313],[103.0882,-3.7652],[103.1098,-3.7835],[103.1381,-3.8163],[103.1334,-3.8258],[103.183,-3.8751],[103.2427,-3.8911],[103.246,-3.7703],[103.2727,-3.7384],[103.2938,-3.7122],[103.2572,-3.7112],[103.2407,-3.6974],[103.2101,-3.6976],[103.2105,-3.6352],[103.1994,-3.6266],[103.1773,-3.6324]]]},"properties":{"code":"16.04.16","name":"Kikim Selatan","latitude":-3.7594383634364896,"longitude":103.18661273419806}},{"type":"Feature","geometry":{"type":"Polygon","coordinates":[[[103.4213,-3.5016],[103.4089,-3.5275],[103.2944,-3.5187],[103.2905,-3.5503],[103.2869,-3.563],[103.2898,-3.5877],[103.2903,-3.6052],[103.2919,-3.6796],[103.2847,-3.6847],[103.2817,-3.7081],[103.2938,-3.7122],[103.2727,-3.7384],[103.2878,-3.7695],[103.324,-3.7711],[103.3498,-3.7445],[103.3924,-3.7599],[103.3956,-3.749],[103.4457,-3.7193],[103.4935,-3.633],[103.5112,-3.5931],[103.5128,-3.5752],[103.49,-3.5446],[103.4708,-3.5329],[103.4213,-3.5016]]]},"properties":{"code":"16.04.17","name":"Kikim Timur","latitude":-3.6308536819296378,"longitude":103.38253742422569}},{"type":"Feature","geometry":{"type":"Polygon","coordinates":[[[103.2687,-3.6129],[103.2848,-3.5957],[103.2682,-3.5848],[103.2453,-3.5879],[103.2295,-3.6237],[103.2077,-3.6297],[103.2101,-3.6976],[103.2407,-3.6974],[103.2646,-3.7119],[103.2819,-3.7079],[103.2927,-3.6605],[103.2926,-3.6353],[103.2726,-3.6347],[103.2775,-3.6233],[103.2687,-3.6129]]]},"properties":{"code":"16.04.18","name":"Kikim Tengah","latitude":-3.653933547669767,"longitude":103.25184800812028}},{"type":"Feature","geometry":{"type":"Polygon","coordinates":[[[103.2536,-3.499],[103.1678,-3.5089],[103.1693,-3.5194],[103.1631,-3.5612],[103.1387,-3.5868],[103.1024,-3.6539],[103.1159,-3.6969],[103.1679,-3.6434],[103.1773,-3.6324],[103.2235,-3.6288],[103.2502,-3.5859],[103.2697,-3.5849],[103.2846,-3.5953],[103.2687,-3.6129],[103.2775,-3.6233],[103.2726,-3.6347],[103.2926,-3.6353],[103.2903,-3.6052],[103.2898,-3.5877],[103.2869,-3.563],[103.2905,-3.5503],[103.2764,-3.5004],[103.2536,-3.499]]]},"properties":{"code":"16.04.19","name":"Kikim Barat","latitude":-3.58167123554678,"longitude":103.20165594511151}},{"type":"Feature","geometry":{"type":"Polygon","coordinates":[[[103.3924,-3.7599],[103.3676,-3.7555],[103.3422,-3.7465],[103.2878,-3.7695],[103.246,-3.7703],[103.2427,-3.8917],[103.3551,-3.8715],[103.3868,-3.8953],[103.4075,-3.7654],[103.3924,-3.7599]]]},"properties":{"code":"16.04.20","name":"Pseksu","latitude":-3.821489816481174,"longitude":103.31951869479856}},{"type":"Feature","geometry":{"type":"Polygon","coordinates":[[[103.5377,-3.5937],[103.5112,-3.5931],[103.4935,-3.633],[103.4457,-3.7193],[103.3956,-3.749],[103.4075,-3.7654],[103.3868,-3.8953],[103.404,-3.886],[103.4346,-3.8813],[103.5001,-3.8747],[103.5063,-3.8077],[103.4919,-3.7363],[103.4828,-3.6855],[103.5377,-3.5937]]]},"properties":{"code":"16.04.21","name":"Gumay Talang","latitude":-3.7815641757094323,"longitude":103.45847033108627}},{"type":"Feature","geometry":{"type":"Polygon","coordinates":[[[103.5673,-3.9977],[103.5977,-3.9982],[103.6451,-3.9623],[103.6139,-3.894],[103.5988,-3.8756],[103.5762,-3.8952],[103.5332,-3.8949],[103.5349,-3.9185],[103.5181,-3.9488],[103.5495,-3.9726],[103.5673,-3.9977]]]},"properties":{"code":"16.04.22","name":"Pagar Gunung","latitude":-3.9396298535461876,"longitude":103.5742197607379}},{"type":"Feature","geometry":{"type":"Polygon","coordinates":[[[103.6851,-3.5495],[103.6277,-3.5093],[103.5701,-3.5493],[103.5435,-3.5584],[103.5377,-3.593],[103.6079,-3.6522],[103.6277,-3.7245],[103.6475,-3.7382],[103.7639,-3.7398],[103.7514,-3.7299],[103.7504,-3.7129],[103.7341,-3.691],[103.7349,-3.6405],[103.7436,-3.6224],[103.7313,-3.6172],[103.7548,-3.6083],[103.7658,-3.5988],[103.7572,-3.5757],[103.7307,-3.5757],[103.6851,-3.5495]]]},"properties":{"code":"16.04.23","name":"Merapi Timur","latitude":-3.6309299883820665,"longitude":103.65941292297849}},{"type":"Feature","geometry":{"type":"Polygon","coordinates":[[[103.1199,-4.0157],[103.1234,-4.0095],[103.0802,-4.0098],[103.086,-4.0973],[103.0644,-4.1371],[103.0232,-4.1614],[103.0225,-4.1685],[103.061,-4.1968],[103.0631,-4.211],[103.0698,-4.2411],[103.085,-4.268],[103.1378,-4.2576],[103.1778,-4.2407],[103.1823,-4.1784],[103.1652,-4.1175],[103.1456,-4.1152],[103.1334,-4.0737],[103.1199,-4.0157]]]},"properties":{"code":"16.04.24","name":"Tanjung Sakti Pumi","latitude":-4.155149747888538,"longitude":103.11336711350417}},{"type":"Feature","geometry":{"type":"Polygon","coordinates":[[[103.404,-3.886],[103.385,-3.8954],[103.3551,-3.8715],[103.3143,-3.8848],[103.3471,-3.9554],[103.369,-3.9681],[103.3567,-3.9998],[103.439,-3.9741],[103.4657,-3.9446],[103.51,-3.9081],[103.4346,-3.8813],[103.404,-3.886]]]},"properties":{"code":"16.04.25","name":"Gumay Ulu","latitude":-3.928386021160363,"longitude":103.40373528101594}},{"type":"Feature","geometry":{"type":"Polygon","coordinates":[[[103.6948,-3.8351],[103.6255,-3.8079],[103.6333,-3.8537],[103.6225,-3.8661],[103.6143,-3.906],[103.6345,-3.9434],[103.6603,-3.9109],[103.6952,-3.9073],[103.7197,-3.8848],[103.7034,-3.87],[103.714,-3.8411],[103.6948,-3.8351]]]},"properties":{"code":"16.04.26","name":"Merapi Selatan","latitude":-3.866040591923231,"longitude":103.6607507586102}},{"type":"Feature","geometry":{"type":"Polygon","coordinates":[[[103.5181,-3.9488],[103.4657,-3.9446],[103.439,-3.9741],[103.407,-4.0176],[103.4259,-4.0323],[103.4529,-4.0372],[103.4636,-4.0151],[103.4831,-3.9976],[103.5098,-3.9548],[103.5181,-3.9488]]]},"properties":{"code":"16.04.27","name":"Tanjungtebat","latitude":-3.986492129120823,"longitude":103.45995813463647}},{"type":"Feature","geometry":{"type":"Polygon","coordinates":[[[103.1586,-3.8649],[103.1378,-3.8399],[103.1307,-3.8327],[103.1193,-3.8682],[103.1085,-3.9324],[103.1119,-3.9524],[103.1455,-3.9353],[103.1586,-3.8649]]]},"properties":{"code":"16.04.28","name":"Muarapayang","latitude":-3.8972884615899406,"longitude":103.13689218846379}},{"type":"Feature","geometry":{"type":"Polygon","coordinates":[[[103.229,-3.9587],[103.1801,-3.9806],[103.1736,-3.9965],[103.229,-3.9587]]]},"properties":{"code":"16.04.29","name":"Sukamerindu","latitude":-3.962863355774991,"longitude":103.21703464178431}},{"type":"Feature","geometry":{"type":"Polygon","coordinates":[[[103.5495,-3.9726],[103.5098,-3.9548],[103.4831,-3.9976],[103.5163,-3.9992],[103.5189,-3.9986],[103.5495,-3.9726]]]},"properties":{"code":"16.04.30","name":"Mulak Sebingkai","latitude":-3.9827836760290527,"longitude":103.52036263556545}},{"type":"Feature","geometry":{"type":"Polygon","coordinates":[[[103.6255,-3.8079],[103.5694,-3.8255],[103.5341,-3.7968],[103.5546,-3.8369],[103.5279,-3.8949],[103.5762,-3.8952],[103.5988,-3.8756],[103.6333,-3.8537],[103.6255,-3.8079]]]},"properties":{"code":"16.04.31","name":"Lahat Selatan","latitude":-3.8436859931422127,"longitude":103.58088863375713}}]}