{"type":"FeatureCollection","features":[{"type":"Feature","geometry":{"type":"Polygon","coordinates":[[[104.1166,-4.4278],[104.0456,-4.4582],[104.0058,-4.463],[103.97,-4.4652],[104.0204,-4.5376],[104.0266,-4.5594],[104.0792,-4.6138],[104.0886,-4.6148],[104.0896,-4.6306],[104.1,-4.6356],[104.1036,-4.6304],[104.1178,-4.5742],[104.117,-4.5358],[104.128,-4.5208],[104.1234,-4.4418],[104.1166,-4.4278]]]},"properties":{"code":"16.09.01","name":"Muara Dua"}},{"type":"Feature","geometry":{"type":"Polygon","coordinates":[[[103.6804,-4.4376],[103.6202,-4.4386],[103.5868,-4.5246],[103.63,-4.5576],[103.5986,-4.5934],[103.6454,-4.6014],[103.6668,-4.6154],[103.6676,-4.6238],[103.7156,-4.5902],[103.7474,-4.5426],[103.7434,-4.4716],[103.6804,-4.4376]]]},"properties":{"code":"16.09.02","name":"Pulau Beringin"}},{"type":"Feature","geometry":{"type":"Polygon","coordinates":[[[104.0002,-4.7064],[103.9234,-4.705],[103.8746,-4.7056],[103.8408,-4.7604],[103.8526,-4.776],[103.8252,-4.8226],[103.8652,-4.8826],[103.846,-4.9192],[103.9696,-4.8714],[103.9788,-4.8696],[103.9728,-4.7946],[104.009,-4.7066],[104.0002,-4.7064]]]},"properties":{"code":"16.09.03","name":"Banding Agung"}},{"type":"Feature","geometry":{"type":"Polygon","coordinates":[[[103.666,-4.3424],[103.661,-4.2746],[103.6012,-4.3466],[103.5952,-4.3574],[103.6804,-4.4376],[103.7654,-4.4548],[103.8158,-4.4528],[103.8506,-4.4488],[103.7964,-4.4052],[103.7654,-4.3714],[103.666,-4.3424]]]},"properties":{"code":"16.09.04","name":"Muara Dua Kisam"}},{"type":"Feature","geometry":{"type":"Polygon","coordinates":[[[104.2124,-4.4428],[104.1754,-4.4232],[104.1512,-4.4058],[104.1066,-4.4282],[104.1166,-4.4278],[104.1514,-4.4378],[104.1574,-4.494],[104.2252,-4.4926],[104.2124,-4.4428]]]},"properties":{"code":"16.09.05","name":"Simpang"}},{"type":"Feature","geometry":{"type":"Polygon","coordinates":[[[103.97,-4.4652],[103.933,-4.4734],[103.9224,-4.4662],[103.9124,-4.4894],[103.9206,-4.508],[103.8962,-4.5248],[103.8308,-4.52],[103.8154,-4.507],[103.8106,-4.4862],[103.784,-4.5168],[103.7836,-4.5688],[103.848,-4.602],[103.8674,-4.5622],[103.9118,-4.532],[103.9198,-4.5352],[103.9714,-4.571],[104.0204,-4.5376],[103.97,-4.4652]]]},"properties":{"code":"16.09.06","name":"Buay Sandang Aji"}},{"type":"Feature","geometry":{"type":"Polygon","coordinates":[[[103.8592,-4.4268],[103.8506,-4.4488],[103.8158,-4.4528],[103.8106,-4.4862],[103.8248,-4.5164],[103.887,-4.526],[103.9206,-4.508],[103.9124,-4.4894],[103.9224,-4.4662],[103.8768,-4.4526],[103.8592,-4.4268]]]},"properties":{"code":"16.09.07","name":"Buay Runjung"}},{"type":"Feature","geometry":{"type":"Polygon","coordinates":[[[103.7836,-4.5688],[103.7474,-4.5426],[103.7156,-4.5902],[103.7028,-4.6064],[103.6676,-4.6238],[103.6866,-4.635],[103.6856,-4.6458],[103.7012,-4.723],[103.7632,-4.7424],[103.8258,-4.8012],[103.8526,-4.776],[103.8408,-4.7604],[103.8746,-4.7056],[103.9234,-4.705],[103.8792,-4.668],[103.8478,-4.6016],[103.7836,-4.5688]]]},"properties":{"code":"16.09.08","name":"Mekakau Ilir"}},{"type":"Feature","geometry":{"type":"Polygon","coordinates":[[[104.1682,-4.54],[104.117,-4.5358],[104.1136,-4.598],[104.0924,-4.6426],[104.0898,-4.695],[104.101,-4.695],[104.0992,-4.731],[104.1502,-4.7584],[104.1576,-4.799],[104.2184,-4.8054],[104.2356,-4.874],[104.234,-4.8808],[104.2852,-4.8556],[104.335,-4.872],[104.369,-4.8218],[104.3042,-4.7652],[104.306,-4.7306],[104.308,-4.705],[104.2982,-4.645],[104.2344,-4.6456],[104.1838,-4.6],[104.1682,-4.54]]]},"properties":{"code":"16.09.09","name":"Buay Pemaca"}},{"type":"Feature","geometry":{"type":"Polygon","coordinates":[[[103.8378,-4.248],[103.7632,-4.2482],[103.7062,-4.2762],[103.661,-4.2746],[103.666,-4.3424],[103.7654,-4.3714],[103.7964,-4.4052],[103.8186,-4.4094],[103.9092,-4.333],[103.8872,-4.3],[103.8378,-4.248]]]},"properties":{"code":"16.09.10","name":"Kisam Tinggi"}},{"type":"Feature","geometry":{"type":"Polygon","coordinates":[[[103.784,-4.5168],[103.8158,-4.4528],[103.7654,-4.4548],[103.7434,-4.4716],[103.784,-4.5168]]]},"properties":{"code":"16.09.11","name":"Kisam Ilir"}},{"type":"Feature","geometry":{"type":"Polygon","coordinates":[[[104.0992,-4.731],[104.101,-4.695],[104.0898,-4.695],[104.0914,-4.7062],[104.0792,-4.7108],[104.009,-4.7066],[103.9728,-4.7946],[104.0408,-4.8326],[104.1196,-4.8096],[104.0992,-4.731]]]},"properties":{"code":"16.09.12","name":"Buay Pematang Ribu Ranau Tengah"}},{"type":"Feature","geometry":{"type":"Polygon","coordinates":[[[104.1576,-4.799],[104.1502,-4.7584],[104.1196,-4.8096],[104.0408,-4.8326],[103.9788,-4.8696],[103.9616,-4.9104],[104.0058,-4.9024],[104.0136,-4.9078],[104.0712,-4.908],[104.1774,-4.9024],[104.1912,-4.863],[104.2356,-4.874],[104.2184,-4.8054],[104.1576,-4.799]]]},"properties":{"code":"16.09.13","name":"Warkuk Ranau Selatan"}},{"type":"Feature","geometry":{"type":"Polygon","coordinates":[[[103.956,-4.3804],[103.9092,-4.333],[103.8186,-4.4094],[103.8592,-4.4268],[103.8768,-4.4526],[103.8938,-4.4524],[103.933,-4.4734],[103.959,-4.399],[103.956,-4.3804]]]},"properties":{"code":"16.09.14","name":"Runjung Agung"}},{"type":"Feature","geometry":{"type":"Polygon","coordinates":[[[103.488,-4.4058],[103.4392,-4.3954],[103.413,-4.4666],[103.4208,-4.506],[103.4228,-4.5168],[103.4774,-4.5726],[103.5072,-4.578],[103.5124,-4.575],[103.5014,-4.5552],[103.501,-4.5134],[103.544,-4.5182],[103.5338,-4.4658],[103.4998,-4.4576],[103.488,-4.4058]]]},"properties":{"code":"16.09.15","name":"Sungai Are"}},{"type":"Feature","geometry":{"type":"Polygon","coordinates":[[[103.5952,-4.3574],[103.545,-4.3712],[103.5182,-4.3768],[103.488,-4.4058],[103.4998,-4.4576],[103.5338,-4.4658],[103.544,-4.5182],[103.501,-4.5134],[103.5014,-4.5552],[103.5124,-4.575],[103.5432,-4.561],[103.5716,-4.5252],[103.5868,-4.5246],[103.6202,-4.4386],[103.5952,-4.3574]]]},"properties":{"code":"16.09.16","name":"Sindang Danau"}},{"type":"Feature","geometry":{"type":"Polygon","coordinates":[[[104.2982,-4.645],[104.2806,-4.625],[104.2492,-4.5342],[104.2252,-4.4926],[104.1574,-4.494],[104.1514,-4.4378],[104.1234,-4.4418],[104.128,-4.5208],[104.1682,-4.54],[104.1838,-4.6],[104.2344,-4.6456],[104.2982,-4.645]]]},"properties":{"code":"16.09.17","name":"Buana Pemaca"}},{"type":"Feature","geometry":{"type":"Polygon","coordinates":[[[103.9198,-4.5352],[103.9118,-4.532],[103.8674,-4.5622],[103.848,-4.602],[103.894,-4.6754],[103.9818,-4.6656],[103.9714,-4.571],[103.9198,-4.5352]]]},"properties":{"code":"16.09.18","name":"Tiga Dihaji"}},{"type":"Feature","geometry":{"type":"Polygon","coordinates":[[[104.0792,-4.6138],[104.0266,-4.5594],[104.0002,-4.7064],[104.0886,-4.7084],[104.0912,-4.6906],[104.1158,-4.6644],[104.0924,-4.6426],[104.1,-4.6356],[104.0892,-4.6302],[104.0792,-4.6138]]]},"properties":{"code":"16.09.19","name":"Buay Rawan"}}]}