{"type":"FeatureCollection","features":[{"type":"Feature","geometry":{"type":"Polygon","coordinates":[[[102.9407,-2.6831],[102.8747,-2.6278],[102.8498,-2.6653],[102.8095,-2.705],[102.7505,-2.7029],[102.69,-2.7233],[102.6724,-2.7394],[102.6762,-2.7751],[102.7086,-2.7806],[102.7961,-2.8024],[102.8323,-2.8441],[102.882,-2.8318],[102.9431,-2.7214],[102.9407,-2.6831]]]},"properties":{"code":"16.13.01","name":"Rupit","latitude":-2.7447841488858087,"longitude":102.82760192654371}},{"type":"Feature","geometry":{"type":"Polygon","coordinates":[[[102.8498,-2.6653],[102.8868,-2.5615],[102.8145,-2.4883],[102.8083,-2.5133],[102.7929,-2.5205],[102.7775,-2.554],[102.6727,-2.6091],[102.6141,-2.6222],[102.6158,-2.6527],[102.5899,-2.6724],[102.609,-2.723],[102.6677,-2.7396],[102.6955,-2.7193],[102.7505,-2.7029],[102.8095,-2.705],[102.8498,-2.6653]]]},"properties":{"code":"16.13.02","name":"Rawas Ulu","latitude":-2.6319738108199693,"longitude":102.74952580543167}},{"type":"Feature","geometry":{"type":"Polygon","coordinates":[[[102.8928,-2.3173],[102.8675,-2.3145],[102.86,-2.3424],[102.8484,-2.3501],[102.8671,-2.3977],[102.8477,-2.4551],[102.8145,-2.4883],[102.8969,-2.5697],[102.9919,-2.5787],[103.0191,-2.5694],[103.0646,-2.5359],[103.0538,-2.4888],[103.0985,-2.4546],[103.1168,-2.4515],[103.0828,-2.4326],[103.0664,-2.3849],[103.0293,-2.3416],[102.9723,-2.3302],[102.9407,-2.3362],[102.8928,-2.3173]]]},"properties":{"code":"16.13.03","name":"Nibung","latitude":-2.4531891410633695,"longitude":102.95574360527807}},{"type":"Feature","geometry":{"type":"Polygon","coordinates":[[[103.2267,-2.4701],[103.2,-2.439],[103.143,-2.4347],[103.0985,-2.4546],[103.0538,-2.4888],[103.0646,-2.5359],[103.0191,-2.5694],[102.9919,-2.5787],[102.897,-2.5697],[102.9107,-2.6233],[102.9461,-2.637],[102.9969,-2.6258],[103.0258,-2.6571],[103.0545,-2.6619],[103.0739,-2.7272],[103.1198,-2.7415],[103.1698,-2.7706],[103.2047,-2.7536],[103.2311,-2.766],[103.2685,-2.7546],[103.3087,-2.7315],[103.3413,-2.6947],[103.3614,-2.5732],[103.3473,-2.5692],[103.2854,-2.5116],[103.2758,-2.4468],[103.2267,-2.4701]]]},"properties":{"code":"16.13.04","name":"Rawas Ilir","latitude":-2.6064129005067964,"longitude":103.17229940674015}},{"type":"Feature","geometry":{"type":"Polygon","coordinates":[[[102.9461,-2.637],[102.9107,-2.6233],[102.8868,-2.5615],[102.8747,-2.6278],[102.9407,-2.6831],[102.9431,-2.7214],[102.882,-2.8318],[102.9042,-2.8856],[102.9464,-2.881],[103.0269,-2.8595],[103.1008,-2.8457],[103.1021,-2.7925],[103.12,-2.7925],[103.1198,-2.7415],[103.0739,-2.7272],[103.0545,-2.6619],[103.0258,-2.6571],[102.9969,-2.6258],[102.9461,-2.637]]]},"properties":{"code":"16.13.05","name":"Karang Dapo","latitude":-2.7577158858791306,"longitude":102.99268862105644}},{"type":"Feature","geometry":{"type":"Polygon","coordinates":[[[102.6762,-2.7751],[102.6227,-2.739],[102.5746,-2.7803],[102.4864,-2.7969],[102.4624,-2.8029],[102.3724,-2.9222],[102.3973,-2.9669],[102.3889,-3.0424],[102.4083,-3.0547],[102.4423,-3.0586],[102.4865,-3.1099],[102.5846,-3.0714],[102.5962,-3.0471],[102.6727,-3.0314],[102.7125,-3.0124],[102.8277,-2.9955],[102.8566,-2.9747],[102.8733,-2.9268],[102.9115,-2.9345],[102.88,-2.8493],[102.8323,-2.8441],[102.7961,-2.8024],[102.7086,-2.7806],[102.6762,-2.7751]]]},"properties":{"code":"16.13.06","name":"Karang Jaya","latitude":-2.9180033181902387,"longitude":102.61755066288819}},{"type":"Feature","geometry":{"type":"Polygon","coordinates":[[[102.3052,-2.6493],[102.2982,-2.6329],[102.2832,-2.6256],[102.2603,-2.6282],[102.2452,-2.6432],[102.2361,-2.6912],[102.1684,-2.7072],[102.097,-2.7667],[102.0639,-2.7685],[102.0734,-2.7949],[102.1294,-2.8348],[102.1313,-2.8748],[102.222,-2.9277],[102.2429,-3.0195],[102.2538,-3.0355],[102.2677,-3.0426],[102.2845,-3.0391],[102.325,-3.0693],[102.3895,-3.0431],[102.3973,-2.9669],[102.3724,-2.9222],[102.4624,-2.8029],[102.4864,-2.7969],[102.5746,-2.7803],[102.609,-2.723],[102.5899,-2.6724],[102.507,-2.703],[102.4056,-2.6891],[102.3731,-2.6562],[102.3052,-2.6493]]]},"properties":{"code":"16.13.07","name":"Ulu Rawas","latitude":-2.8162609761729462,"longitude":102.32234032768103}}]}