{"type":"FeatureCollection","features":[{"type":"Feature","geometry":{"type":"Polygon","coordinates":[[[104.7436,-2.9896],[104.7324,-2.9984],[104.7494,-3.0114],[104.758,-2.9958],[104.7436,-2.9896]]]},"properties":{"code":"16.71.01","name":"Ilir Barat Dua"}},{"type":"Feature","geometry":{"type":"Polygon","coordinates":[[[104.7714,-3.0164],[104.7634,-2.9916],[104.7516,-3.003],[104.7528,-3.0166],[104.7714,-3.0164]]]},"properties":{"code":"16.71.02","name":"Seberang Ulu Satu"}},{"type":"Feature","geometry":{"type":"Polygon","coordinates":[[[104.8032,-2.9864],[104.7812,-2.9824],[104.766,-2.9896],[104.7852,-3.0076],[104.8042,-3.0104],[104.8032,-2.9864]]]},"properties":{"code":"16.71.03","name":"Seberang Ulu Dua"}},{"type":"Feature","geometry":{"type":"Polygon","coordinates":[[[104.7048,-2.9654],[104.6684,-2.9706],[104.7118,-3.0088],[104.7048,-2.9654]]]},"properties":{"code":"16.71.04","name":"Ilir Barat Satu"}},{"type":"Feature","geometry":{"type":"Polygon","coordinates":[[[104.7346,-2.9534],[104.7336,-2.9598],[104.7634,-2.9916],[104.7702,-2.986],[104.7346,-2.9534]]]},"properties":{"code":"16.71.05","name":"Ilir Timur Satu"}},{"type":"Feature","geometry":{"type":"Polygon","coordinates":[[[104.7934,-2.983],[104.7728,-2.9628],[104.774,-2.9838],[104.8202,-2.9874],[104.7934,-2.983]]]},"properties":{"code":"16.71.06","name":"Ilir Timur Dua"}},{"type":"Feature","geometry":{"type":"Polygon","coordinates":[[[104.719,-2.8684],[104.7102,-2.876],[104.6966,-2.8776],[104.6782,-2.8732],[104.6664,-2.8914],[104.6816,-2.9134],[104.7062,-2.9188],[104.7364,-2.9532],[104.76,-2.9328],[104.7516,-2.9154],[104.757,-2.9084],[104.7274,-2.8968],[104.7282,-2.8822],[104.719,-2.8684]]]},"properties":{"code":"16.71.07","name":"Sukarami"}},{"type":"Feature","geometry":{"type":"Polygon","coordinates":[[[104.8124,-2.9276],[104.7898,-2.9074],[104.7838,-2.9364],[104.8124,-2.9276]]]},"properties":{"code":"16.71.08","name":"Sako"}},{"type":"Feature","geometry":{"type":"Polygon","coordinates":[[[104.7582,-2.9368],[104.7346,-2.9534],[104.7602,-2.9728],[104.7606,-2.9418],[104.7582,-2.9368]]]},"properties":{"code":"16.71.09","name":"Kemuning"}},{"type":"Feature","geometry":{"type":"Polygon","coordinates":[[[104.7934,-2.9466],[104.7934,-2.983],[104.8202,-2.9874],[104.8348,-2.9882],[104.8512,-2.9358],[104.7934,-2.9466]]]},"properties":{"code":"16.71.10","name":"Kalidoni"}},{"type":"Feature","geometry":{"type":"Polygon","coordinates":[[[104.7476,-2.98],[104.7446,-2.993],[104.7634,-2.9916],[104.7554,-2.9796],[104.7476,-2.98]]]},"properties":{"code":"16.71.11","name":"Bukitkecil"}},{"type":"Feature","geometry":{"type":"Polygon","coordinates":[[[104.6684,-2.9706],[104.6388,-2.9988],[104.6378,-3.0128],[104.6638,-3.0414],[104.6968,-3.0178],[104.7376,-3.0254],[104.7118,-3.0088],[104.6684,-2.9706]]]},"properties":{"code":"16.71.12","name":"Gandus"}},{"type":"Feature","geometry":{"type":"Polygon","coordinates":[[[104.7174,-3.0642],[104.7376,-3.0254],[104.7032,-3.0164],[104.6732,-3.0354],[104.6766,-3.0486],[104.7174,-3.0642]]]},"properties":{"code":"16.71.13","name":"Kertapati"}},{"type":"Feature","geometry":{"type":"Polygon","coordinates":[[[104.8032,-2.9864],[104.8094,-3.0192],[104.8278,-3.0208],[104.8388,-3.0052],[104.8348,-2.9882],[104.8032,-2.9864]]]},"properties":{"code":"16.71.14","name":"Plaju"}},{"type":"Feature","geometry":{"type":"Polygon","coordinates":[[[104.7346,-2.9534],[104.7144,-2.9264],[104.6952,-2.9134],[104.675,-2.9172],[104.6864,-2.9558],[104.7048,-2.9654],[104.7346,-2.9534]]]},"properties":{"code":"16.71.15","name":"Alang-alang Lebar"}},{"type":"Feature","geometry":{"type":"Polygon","coordinates":[[[104.8426,-2.92],[104.8124,-2.9276],[104.7838,-2.9364],[104.7934,-2.9466],[104.8512,-2.9358],[104.8426,-2.92]]]},"properties":{"code":"16.71.16","name":"Sematangborang"}},{"type":"Feature","geometry":{"type":"Polygon","coordinates":[[[104.7902,-3.0534],[104.7714,-3.0164],[104.7528,-3.0166],[104.7728,-3.0274],[104.7902,-3.0534]]]},"properties":{"code":"16.71.17","name":"Jakabaring"}},{"type":"Feature","geometry":{"type":"Polygon","coordinates":[[[104.7728,-2.9628],[104.7682,-2.9502],[104.7698,-2.9314],[104.7592,-2.9338],[104.7576,-2.946],[104.7702,-2.986],[104.7728,-2.9628]]]},"properties":{"code":"16.71.18","name":"Ilir Timur Tiga"}}]}