{"type":"FeatureCollection","features":[{"type":"Feature","geometry":{"type":"Polygon","coordinates":[[[104.6818,-5.434],[104.6326,-5.4064],[104.6036,-5.466],[104.6014,-5.497],[104.6526,-5.5114],[104.6644,-5.4596],[104.6818,-5.434]]]},"properties":{"code":"18.06.01","name":"Kota Agung"}},{"type":"Feature","geometry":{"type":"Polygon","coordinates":[[[104.796,-5.3418],[104.7872,-5.334],[104.766,-5.3484],[104.7462,-5.3474],[104.7378,-5.372],[104.7648,-5.3712],[104.8008,-5.4032],[104.8078,-5.3624],[104.796,-5.3418]]]},"properties":{"code":"18.06.02","name":"Talang Padang"}},{"type":"Feature","geometry":{"type":"Polygon","coordinates":[[[104.57,-5.424],[104.606,-5.4008],[104.5284,-5.3762],[104.5168,-5.4376],[104.4934,-5.4656],[104.4948,-5.4806],[104.5722,-5.5024],[104.57,-5.424]]]},"properties":{"code":"18.06.03","name":"Wonosobo"}},{"type":"Feature","geometry":{"type":"Polygon","coordinates":[[[104.6918,-5.278],[104.6352,-5.2646],[104.6434,-5.3082],[104.648,-5.3272],[104.636,-5.3702],[104.606,-5.4008],[104.5978,-5.4376],[104.6326,-5.4064],[104.6936,-5.3498],[104.726,-5.3394],[104.7192,-5.3356],[104.7246,-5.3268],[104.743,-5.3276],[104.76,-5.3362],[104.7482,-5.3066],[104.6918,-5.278]]]},"properties":{"code":"18.06.04","name":"Pulau Panggung"}},{"type":"Feature","geometry":{"type":"Polygon","coordinates":[[[105.005,-5.5924],[104.993,-5.582],[104.952,-5.5704],[104.9068,-5.569],[104.8592,-5.5828],[104.8528,-5.6136],[104.8376,-5.6308],[104.935,-5.7016],[104.9876,-5.6596],[104.9946,-5.6138],[105.005,-5.5924]]]},"properties":{"code":"18.06.09","name":"Cukuh Balak"}},{"type":"Feature","geometry":{"type":"Polygon","coordinates":[[[104.8554,-5.336],[104.796,-5.3418],[104.8078,-5.3624],[104.8122,-5.3878],[104.7912,-5.426],[104.737,-5.4652],[104.7454,-5.4838],[104.758,-5.4836],[104.8414,-5.4956],[104.8394,-5.4538],[104.892,-5.4284],[104.901,-5.4224],[104.8846,-5.3868],[104.8682,-5.3782],[104.8554,-5.336]]]},"properties":{"code":"18.06.11","name":"Pugung"}},{"type":"Feature","geometry":{"type":"Polygon","coordinates":[[[104.3828,-5.3592],[104.3344,-5.3374],[104.3338,-5.3244],[104.315,-5.3542],[104.3342,-5.3608],[104.4162,-5.4488],[104.443,-5.5228],[104.5108,-5.5428],[104.5274,-5.5442],[104.4948,-5.4806],[104.455,-5.4528],[104.3828,-5.3592]]]},"properties":{"code":"18.06.12","name":"Semaka"}},{"type":"Feature","geometry":{"type":"Polygon","coordinates":[[[104.76,-5.3362],[104.7476,-5.3402],[104.7376,-5.327],[104.7226,-5.3284],[104.7234,-5.3422],[104.6938,-5.3496],[104.6684,-5.3832],[104.6606,-5.4046],[104.6818,-5.434],[104.6922,-5.4254],[104.715,-5.401],[104.74,-5.389],[104.7364,-5.3634],[104.7452,-5.3482],[104.766,-5.3484],[104.76,-5.3362]]]},"properties":{"code":"18.06.13","name":"Sumberejo"}},{"type":"Feature","geometry":{"type":"Polygon","coordinates":[[[104.61,-5.1782],[104.6088,-5.138],[104.5466,-5.0944],[104.5142,-5.1362],[104.4302,-5.1724],[104.374,-5.1994],[104.3892,-5.2826],[104.4188,-5.3164],[104.4802,-5.3406],[104.606,-5.4008],[104.636,-5.3702],[104.648,-5.3272],[104.6434,-5.3082],[104.5972,-5.227],[104.61,-5.1782]]]},"properties":{"code":"18.06.15","name":"Ulu Belu"}},{"type":"Feature","geometry":{"type":"Polygon","coordinates":[[[104.5108,-5.5428],[104.4972,-5.5652],[104.4842,-5.5712],[104.4944,-5.5822],[104.4862,-5.6024],[104.493,-5.608],[104.5,-5.6012],[104.5084,-5.6118],[104.5198,-5.6],[104.5682,-5.6204],[104.628,-5.6916],[104.6176,-5.8014],[104.6602,-5.8996],[104.7102,-5.8316],[104.6454,-5.7454],[104.6466,-5.6976],[104.5274,-5.5442],[104.5108,-5.5428]]]},"properties":{"code":"18.06.16","name":"Pematang Sawa"}},{"type":"Feature","geometry":{"type":"Polygon","coordinates":[[[105.0036,-5.664],[104.9876,-5.6596],[104.935,-5.7016],[105.0312,-5.7286],[105.1386,-5.785],[105.0814,-5.7126],[105.0774,-5.6598],[105.0616,-5.6606],[105.071,-5.6792],[105.0348,-5.6882],[104.997,-5.6852],[105.0036,-5.664]]]},"properties":{"code":"18.06.17","name":"Kelumbayan"}},{"type":"Feature","geometry":{"type":"Polygon","coordinates":[[[104.5978,-5.4376],[104.57,-5.424],[104.5722,-5.5024],[104.6014,-5.497],[104.6036,-5.466],[104.5978,-5.4376]]]},"properties":{"code":"18.06.18","name":"Kota Agung Barat"}},{"type":"Feature","geometry":{"type":"Polygon","coordinates":[[[104.7454,-5.4838],[104.7336,-5.4626],[104.681,-5.4352],[104.6686,-5.4866],[104.7284,-5.5504],[104.7598,-5.5366],[104.7648,-5.524],[104.758,-5.4836],[104.7454,-5.4838]]]},"properties":{"code":"18.06.19","name":"Kota Agung Timur"}},{"type":"Feature","geometry":{"type":"Polygon","coordinates":[[[104.74,-5.389],[104.715,-5.401],[104.6922,-5.4254],[104.681,-5.4352],[104.737,-5.4652],[104.7548,-5.418],[104.74,-5.389]]]},"properties":{"code":"18.06.20","name":"Gisting"}},{"type":"Feature","geometry":{"type":"Polygon","coordinates":[[[104.7912,-5.426],[104.7664,-5.3734],[104.7494,-5.3742],[104.7392,-5.396],[104.7526,-5.4072],[104.7612,-5.4326],[104.7912,-5.426]]]},"properties":{"code":"18.06.21","name":"Gunung Alip"}},{"type":"Feature","geometry":{"type":"Polygon","coordinates":[[[104.8528,-5.6136],[104.8636,-5.5756],[104.8194,-5.5086],[104.7648,-5.524],[104.7598,-5.5366],[104.7768,-5.605],[104.8376,-5.6308],[104.8528,-5.6136]]]},"properties":{"code":"18.06.24","name":"Limau"}},{"type":"Feature","geometry":{"type":"Polygon","coordinates":[[[104.4188,-5.3164],[104.36,-5.3026],[104.3484,-5.3408],[104.3344,-5.3374],[104.3828,-5.3592],[104.455,-5.4528],[104.4934,-5.47],[104.5166,-5.4382],[104.5094,-5.4138],[104.5266,-5.3718],[104.4802,-5.3406],[104.4188,-5.3164]]]},"properties":{"code":"18.06.25","name":"Bandar Negeri Semuong"}},{"type":"Feature","geometry":{"type":"Polygon","coordinates":[[[104.7882,-5.145],[104.7214,-5.125],[104.6524,-5.1326],[104.61,-5.1782],[104.5972,-5.227],[104.6352,-5.2646],[104.6918,-5.278],[104.7482,-5.3066],[104.8042,-5.2724],[104.7716,-5.184],[104.7936,-5.155],[104.7882,-5.145]]]},"properties":{"code":"18.06.26","name":"Air Naningan"}},{"type":"Feature","geometry":{"type":"Polygon","coordinates":[[[104.9164,-5.4478],[104.8394,-5.4538],[104.8414,-5.4956],[104.8892,-5.5528],[104.9164,-5.4478]]]},"properties":{"code":"18.06.27","name":"Bulok"}},{"type":"Feature","geometry":{"type":"Polygon","coordinates":[[[105.0308,-5.6212],[105.005,-5.5924],[104.9946,-5.6138],[105.0036,-5.664],[104.997,-5.6852],[105.0348,-5.6882],[105.071,-5.6792],[105.0614,-5.661],[105.0774,-5.6598],[105.0742,-5.6456],[105.0308,-5.6212]]]},"properties":{"code":"18.06.28","name":"Kelumbayan Barat"}}]}