{"type":"FeatureCollection","features":[{"type":"Feature","geometry":{"type":"Polygon","coordinates":[[[105.2828,-5.1794],[105.2186,-5.1794],[105.1948,-5.2004],[105.1692,-5.196],[105.153,-5.2262],[105.1674,-5.2384],[105.1716,-5.2708],[105.145,-5.2526],[105.1166,-5.2978],[105.2016,-5.3472],[105.2114,-5.3698],[105.2238,-5.3678],[105.267,-5.308],[105.279,-5.2592],[105.3,-5.2424],[105.3312,-5.2312],[105.2862,-5.2142],[105.2828,-5.1794]]]},"properties":{"code":"18.01.04","name":"Natar"}},{"type":"Feature","geometry":{"type":"Polygon","coordinates":[[[105.4198,-5.3944],[105.4146,-5.3356],[105.3762,-5.3378],[105.3082,-5.3612],[105.325,-5.4058],[105.342,-5.42],[105.3558,-5.4418],[105.3878,-5.4346],[105.407,-5.4442],[105.4814,-5.4288],[105.5016,-5.4014],[105.4198,-5.3944]]]},"properties":{"code":"18.01.05","name":"Tanjung Bintang"}},{"type":"Feature","geometry":{"type":"Polygon","coordinates":[[[105.6308,-5.6516],[105.548,-5.6106],[105.524,-5.6322],[105.4854,-5.6618],[105.535,-5.6706],[105.5896,-5.7352],[105.5812,-5.7702],[105.627,-5.7758],[105.644,-5.7488],[105.655,-5.6934],[105.638,-5.6286],[105.6308,-5.6516]]]},"properties":{"code":"18.01.06","name":"Kalianda"}},{"type":"Feature","geometry":{"type":"Polygon","coordinates":[[[105.4988,-5.558],[105.4354,-5.5644],[105.4474,-5.6246],[105.4854,-5.6618],[105.524,-5.6322],[105.578,-5.5772],[105.5332,-5.5654],[105.4988,-5.558]]]},"properties":{"code":"18.01.07","name":"Sidomulyo"}},{"type":"Feature","geometry":{"type":"Polygon","coordinates":[[[105.4656,-5.463],[105.4012,-5.5236],[105.3938,-5.5252],[105.3818,-5.512],[105.3542,-5.5074],[105.4084,-5.6222],[105.4474,-5.6246],[105.4354,-5.5644],[105.4988,-5.558],[105.4852,-5.468],[105.4656,-5.463]]]},"properties":{"code":"18.01.08","name":"Katibung"}},{"type":"Feature","geometry":{"type":"Polygon","coordinates":[[[105.7394,-5.7772],[105.7028,-5.7082],[105.644,-5.7488],[105.6308,-5.7616],[105.6298,-5.7762],[105.6714,-5.8116],[105.6752,-5.8048],[105.7258,-5.8008],[105.7394,-5.7772]]]},"properties":{"code":"18.01.09","name":"Penengahan"}},{"type":"Feature","geometry":{"type":"Polygon","coordinates":[[[105.711,-5.6214],[105.642,-5.554],[105.6168,-5.62],[105.6308,-5.6296],[105.638,-5.6286],[105.655,-5.6934],[105.7028,-5.7082],[105.7104,-5.6578],[105.711,-5.6214]]]},"properties":{"code":"18.01.10","name":"Palas"}},{"type":"Feature","geometry":{"type":"Polygon","coordinates":[[[105.4556,-5.2762],[105.3888,-5.2094],[105.3348,-5.2508],[105.3,-5.2424],[105.2796,-5.2318],[105.2632,-5.2968],[105.267,-5.308],[105.255,-5.321],[105.2622,-5.3296],[105.2606,-5.3508],[105.2712,-5.3532],[105.295,-5.3474],[105.3762,-5.3378],[105.4146,-5.3356],[105.4486,-5.3144],[105.4652,-5.3128],[105.4162,-5.3036],[105.4556,-5.2762]]]},"properties":{"code":"18.01.13","name":"Jati Agung"}},{"type":"Feature","geometry":{"type":"Polygon","coordinates":[[[105.7328,-5.8354],[105.799,-5.7944],[105.7924,-5.7224],[105.8144,-5.6316],[105.7716,-5.6304],[105.7712,-5.6668],[105.7372,-5.7104],[105.7394,-5.7772],[105.7328,-5.8354]]]},"properties":{"code":"18.01.14","name":"Ketapang"}},{"type":"Feature","geometry":{"type":"Polygon","coordinates":[[[105.7716,-5.6304],[105.7984,-5.6036],[105.7894,-5.5996],[105.785,-5.609],[105.711,-5.6214],[105.7104,-5.6578],[105.7372,-5.7104],[105.7712,-5.6668],[105.7716,-5.6304]]]},"properties":{"code":"18.01.15","name":"Sragi"}},{"type":"Feature","geometry":{"type":"Polygon","coordinates":[[[105.6052,-5.7766],[105.6046,-5.8306],[105.6354,-5.8384],[105.6852,-5.8332],[105.6816,-5.8154],[105.6394,-5.7906],[105.6294,-5.7742],[105.6052,-5.7766]]]},"properties":{"code":"18.01.16","name":"Raja Basa"}},{"type":"Feature","geometry":{"type":"Polygon","coordinates":[[[105.6602,-5.5542],[105.6582,-5.4948],[105.5822,-5.4956],[105.5594,-5.5112],[105.5332,-5.5654],[105.578,-5.5772],[105.642,-5.554],[105.6602,-5.5542]]]},"properties":{"code":"18.01.17","name":"Candipuro"}},{"type":"Feature","geometry":{"type":"Polygon","coordinates":[[[105.5326,-5.4252],[105.4814,-5.4288],[105.407,-5.4442],[105.3878,-5.4346],[105.3558,-5.4418],[105.3274,-5.4772],[105.3542,-5.5074],[105.3688,-5.5192],[105.3868,-5.5128],[105.393,-5.5246],[105.4,-5.524],[105.4514,-5.4602],[105.4656,-5.463],[105.4852,-5.468],[105.5,-5.4548],[105.5326,-5.4252]]]},"properties":{"code":"18.01.18","name":"Merbau Mataram"}},{"type":"Feature","geometry":{"type":"Polygon","coordinates":[[[105.7328,-5.8354],[105.7258,-5.8008],[105.6752,-5.8048],[105.6714,-5.8116],[105.6826,-5.8174],[105.6804,-5.8456],[105.7328,-5.8354]]]},"properties":{"code":"18.01.21","name":"Bakauheni"}},{"type":"Feature","geometry":{"type":"Polygon","coordinates":[[[105.4902,-5.3094],[105.4652,-5.3128],[105.4486,-5.3144],[105.4198,-5.3944],[105.5016,-5.4014],[105.523,-5.3732],[105.5416,-5.34],[105.4902,-5.3094]]]},"properties":{"code":"18.01.22","name":"Tanjung Sari"}},{"type":"Feature","geometry":{"type":"Polygon","coordinates":[[[105.5878,-5.4758],[105.5372,-5.4534],[105.5278,-5.4682],[105.5,-5.4548],[105.5594,-5.5112],[105.5822,-5.4956],[105.5878,-5.4758]]]},"properties":{"code":"18.01.23","name":"Way Sulan"}},{"type":"Feature","geometry":{"type":"Polygon","coordinates":[[[105.6168,-5.62],[105.6308,-5.6516],[105.6308,-5.6296],[105.6168,-5.62]]]},"properties":{"code":"18.01.24","name":"Way Panji"}}]}