{"type":"FeatureCollection","features":[{"type":"Feature","geometry":{"type":"Polygon","coordinates":[[[104.1416,-4.9182],[104.1032,-4.9368],[104.0876,-4.996],[104.0698,-5.0134],[104.0188,-5.066],[104.0814,-5.1188],[104.1424,-4.998],[104.1416,-4.9182]]]},"properties":{"code":"18.04.04","name":"Balik Bukit"}},{"type":"Feature","geometry":{"type":"Polygon","coordinates":[[[104.4938,-4.9766],[104.4124,-4.9784],[104.391,-4.976],[104.4298,-5.013],[104.4412,-5.0316],[104.4376,-5.0506],[104.5074,-5.0202],[104.4978,-5.0122],[104.4938,-4.9766]]]},"properties":{"code":"18.04.05","name":"Sumber Jaya"}},{"type":"Feature","geometry":{"type":"Polygon","coordinates":[[[104.234,-4.8808],[104.1912,-4.863],[104.1774,-4.9024],[104.1414,-4.9284],[104.1398,-4.991],[104.1742,-4.998],[104.178,-5.0144],[104.2024,-5.0624],[104.239,-5.0318],[104.216,-4.9436],[104.244,-4.892],[104.234,-4.8808]]]},"properties":{"code":"18.04.06","name":"Belalau"}},{"type":"Feature","geometry":{"type":"Polygon","coordinates":[[[104.4298,-5.013],[104.42,-5.0046],[104.3898,-4.9826],[104.3648,-5.0076],[104.3254,-5.0156],[104.3168,-5.0762],[104.388,-5.0704],[104.4094,-5.0582],[104.4376,-5.0506],[104.4412,-5.0316],[104.4298,-5.013]]]},"properties":{"code":"18.04.07","name":"Way Tenong"}},{"type":"Feature","geometry":{"type":"Polygon","coordinates":[[[104.3168,-5.0762],[104.3254,-5.0156],[104.304,-4.9676],[104.2806,-4.9692],[104.2784,-5.0292],[104.2998,-5.113],[104.2882,-5.1452],[104.3044,-5.1412],[104.3168,-5.0762]]]},"properties":{"code":"18.04.08","name":"Sekincau"}},{"type":"Feature","geometry":{"type":"Polygon","coordinates":[[[104.2912,-5.2522],[104.2264,-5.2232],[104.315,-5.3542],[104.3338,-5.3244],[104.3484,-5.3408],[104.36,-5.3026],[104.3892,-5.2826],[104.3522,-5.2818],[104.3166,-5.2744],[104.325,-5.3092],[104.3076,-5.2772],[104.2786,-5.2552],[104.2912,-5.2522]]]},"properties":{"code":"18.04.09","name":"Suoh"}},{"type":"Feature","geometry":{"type":"Polygon","coordinates":[[[104.178,-5.0144],[104.1334,-5.0398],[104.1358,-5.0848],[104.178,-5.0144]]]},"properties":{"code":"18.04.10","name":"Batu Brak"}},{"type":"Feature","geometry":{"type":"Polygon","coordinates":[[[104.0712,-4.908],[104.0136,-4.9078],[104.0058,-4.9024],[103.9718,-4.9118],[103.9672,-4.9402],[103.9744,-4.9552],[103.9922,-4.9544],[103.9974,-4.9636],[103.9892,-4.9656],[103.999,-4.9764],[104.0144,-4.9654],[104.0166,-4.992],[104.0604,-5.0146],[104.0876,-4.996],[104.104,-4.9548],[104.1032,-4.9368],[104.1216,-4.9242],[104.0712,-4.908]]]},"properties":{"code":"18.04.11","name":"Sukau"}},{"type":"Feature","geometry":{"type":"Polygon","coordinates":[[[104.4988,-5.0472],[104.4654,-5.0534],[104.4372,-5.1226],[104.5142,-5.1362],[104.5344,-5.1034],[104.4956,-5.0608],[104.4988,-5.0472]]]},"properties":{"code":"18.04.15","name":"Gedung Surian"}},{"type":"Feature","geometry":{"type":"Polygon","coordinates":[[[104.5904,-5.0692],[104.5676,-5.0224],[104.5074,-5.0202],[104.4988,-5.0472],[104.4956,-5.0608],[104.5344,-5.1034],[104.574,-5.0736],[104.5904,-5.0692]]]},"properties":{"code":"18.04.18","name":"Kebun Tebu"}},{"type":"Feature","geometry":{"type":"Polygon","coordinates":[[[104.4654,-5.0534],[104.4094,-5.0582],[104.388,-5.0704],[104.3616,-5.1164],[104.3496,-5.18],[104.3646,-5.1902],[104.4302,-5.1724],[104.4372,-5.1226],[104.4654,-5.0534]]]},"properties":{"code":"18.04.19","name":"Air Hitam"}},{"type":"Feature","geometry":{"type":"Polygon","coordinates":[[[104.4226,-4.9026],[104.4132,-4.8646],[104.3512,-4.8748],[104.2878,-4.872],[104.2812,-4.9276],[104.2728,-4.9338],[104.2806,-4.9692],[104.304,-4.9676],[104.3566,-5.0098],[104.3888,-4.9874],[104.391,-4.976],[104.4124,-4.9784],[104.4226,-4.9026]]]},"properties":{"code":"18.04.20","name":"Pagar Dewa"}},{"type":"Feature","geometry":{"type":"Polygon","coordinates":[[[104.2878,-4.872],[104.244,-4.892],[104.216,-4.9436],[104.239,-5.0318],[104.2024,-5.0624],[104.2506,-5.123],[104.2814,-5.1324],[104.2998,-5.113],[104.2784,-5.0292],[104.2728,-4.9338],[104.2812,-4.9276],[104.2878,-4.872]]]},"properties":{"code":"18.04.21","name":"Batu Ketulis"}},{"type":"Feature","geometry":{"type":"Polygon","coordinates":[[[103.9616,-4.9104],[103.9356,-4.8846],[103.846,-4.9192],[103.8558,-4.892],[103.8316,-4.943],[103.8922,-4.9718],[103.9728,-4.9826],[103.9806,-4.9832],[103.9942,-4.9718],[103.989,-4.9644],[103.9974,-4.9634],[103.9874,-4.9512],[103.9704,-4.9506],[103.9718,-4.9118],[103.9616,-4.9104]]]},"properties":{"code":"18.04.22","name":"Lumbok Seminung"}},{"type":"Feature","geometry":{"type":"Polygon","coordinates":[[[104.1358,-5.0848],[104.1334,-5.0398],[104.0814,-5.1188],[104.1168,-5.1716],[104.2126,-5.2132],[104.2466,-5.2076],[104.2912,-5.2522],[104.2786,-5.2552],[104.3076,-5.2772],[104.325,-5.3092],[104.3166,-5.2744],[104.3522,-5.2818],[104.374,-5.1994],[104.3646,-5.1902],[104.3496,-5.18],[104.3616,-5.1164],[104.3044,-5.1412],[104.2882,-5.1452],[104.2814,-5.1324],[104.2506,-5.123],[104.1358,-5.0848]]]},"properties":{"code":"18.04.23","name":"Bandar Negeri Suoh"}}]}