{"type":"FeatureCollection","features":[{"type":"Feature","geometry":{"type":"Polygon","coordinates":[[[105.2068,-5.389],[105.1592,-5.3266],[105.1026,-5.3552],[105.0748,-5.3934],[105.0634,-5.4218],[105.098,-5.4394],[105.1562,-5.43],[105.1784,-5.4064],[105.2068,-5.389]]]},"properties":{"code":"18.09.01","name":"Gedong Tataan"}},{"type":"Feature","geometry":{"type":"MultiPolygon","coordinates":[[[[105.0972,-5.23],[105.0424,-5.2856],[105.0612,-5.337],[105.0684,-5.3608],[105.1026,-5.3552],[105.1592,-5.3266],[105.1166,-5.2978],[105.1378,-5.2422],[105.1152,-5.2476],[105.0972,-5.23]]],[[[105.127,-5.1956],[105.0952,-5.2074],[105.0548,-5.2112],[105.1202,-5.2126],[105.127,-5.1956]]]]},"properties":{"code":"18.09.02","name":"Negeri Katon"}},{"type":"Feature","geometry":{"type":"Polygon","coordinates":[[[105.0838,-5.1434],[105.0662,-5.1524],[105.0408,-5.185],[105.0586,-5.1942],[105.0548,-5.2112],[105.0952,-5.2074],[105.127,-5.1956],[105.1202,-5.2126],[105.0972,-5.23],[105.1152,-5.2476],[105.1378,-5.2422],[105.1534,-5.2356],[105.156,-5.2104],[105.17,-5.1956],[105.2266,-5.1542],[105.1906,-5.1218],[105.1534,-5.1372],[105.1484,-5.1304],[105.1154,-5.1574],[105.0926,-5.1508],[105.0838,-5.1434]]]},"properties":{"code":"18.09.03","name":"Tegineneng"}},{"type":"Feature","geometry":{"type":"Polygon","coordinates":[[[105.0634,-5.4218],[105.0014,-5.423],[105.0152,-5.4524],[105.0658,-5.4846],[105.0944,-5.5134],[105.098,-5.4394],[105.0634,-5.4218]]]},"properties":{"code":"18.09.04","name":"Way Lima"}},{"type":"Feature","geometry":{"type":"Polygon","coordinates":[[[105.1338,-5.6442],[105.1866,-5.5602],[105.1274,-5.4946],[105.1226,-5.562],[105.1008,-5.5618],[105.0944,-5.5838],[105.1156,-5.6336],[105.1102,-5.642],[105.1338,-5.6442]]]},"properties":{"code":"18.09.05","name":"Padang Cermin"}},{"type":"Feature","geometry":{"type":"Polygon","coordinates":[[[105.1544,-5.7028],[105.0934,-5.6924],[105.0814,-5.7126],[105.1386,-5.785],[105.1664,-5.7184],[105.1544,-5.7028]]]},"properties":{"code":"18.09.06","name":"Punduh Pidada"}},{"type":"Feature","geometry":{"type":"Polygon","coordinates":[[[105.0152,-5.4524],[105.0024,-5.4882],[104.9928,-5.5094],[104.9954,-5.522],[104.994,-5.567],[105.0306,-5.5654],[105.0658,-5.4846],[105.0152,-5.4524]]]},"properties":{"code":"18.09.07","name":"Kedondong"}},{"type":"Feature","geometry":{"type":"Polygon","coordinates":[[[105.1664,-5.7184],[105.1338,-5.6442],[105.1102,-5.642],[105.0788,-5.668],[105.0934,-5.6924],[105.1544,-5.7028],[105.1664,-5.7184]]]},"properties":{"code":"18.09.08","name":"Marga Punduh"}},{"type":"Feature","geometry":{"type":"Polygon","coordinates":[[[105.0024,-5.4882],[104.9416,-5.4606],[104.9342,-5.4954],[104.956,-5.5208],[104.9674,-5.555],[104.994,-5.567],[104.9954,-5.522],[104.9928,-5.5094],[105.0024,-5.4882]]]},"properties":{"code":"18.09.09","name":"Way Khilau"}},{"type":"Feature","geometry":{"type":"Polygon","coordinates":[[[105.1912,-5.4292],[105.1562,-5.43],[105.1274,-5.4946],[105.2356,-5.592],[105.2568,-5.5102],[105.2248,-5.4898],[105.1808,-5.4394],[105.1912,-5.4292]]]},"properties":{"code":"18.09.10","name":"Teluk Pandan"}},{"type":"Feature","geometry":{"type":"Polygon","coordinates":[[[105.0944,-5.5134],[105.0306,-5.5654],[105.0308,-5.6212],[105.0742,-5.6456],[105.0788,-5.668],[105.1156,-5.6336],[105.0944,-5.5838],[105.1008,-5.5618],[105.1226,-5.562],[105.0944,-5.5134]]]},"properties":{"code":"18.09.11","name":"Way Ratai"}}]}