{"type":"FeatureCollection","features":[{"type":"Feature","geometry":{"type":"Polygon","coordinates":[[[105.48,-3.8218],[105.4368,-3.788],[105.4216,-3.779],[105.3818,-3.8392],[105.4176,-3.915],[105.4604,-3.9324],[105.4726,-3.9614],[105.451,-3.9808],[105.4696,-4.001],[105.5366,-3.9948],[105.585,-3.9582],[105.5814,-3.9532],[105.6094,-3.9428],[105.5978,-3.9232],[105.5122,-3.873],[105.48,-3.8218]]]},"properties":{"code":"18.11.01","name":"Mesuji"}},{"type":"Feature","geometry":{"type":"Polygon","coordinates":[[[105.611,-3.9648],[105.5872,-3.9526],[105.5238,-3.9996],[105.4696,-4.001],[105.451,-3.9808],[105.4098,-4.007],[105.3296,-4.0044],[105.2478,-4.0266],[105.1656,-4.0116],[105.1652,-4.024],[105.2002,-4.0236],[105.1944,-4.1046],[105.143,-4.1534],[105.1742,-4.1918],[105.2322,-4.1906],[105.2762,-4.1846],[105.3122,-4.1568],[105.3672,-4.159],[105.366,-4.1296],[105.4002,-4.1198],[105.4246,-4.122],[105.4226,-4.1624],[105.467,-4.1624],[105.4672,-4.135],[105.5,-4.135],[105.507,-4.166],[105.519,-4.1658],[105.591,-4.0636],[105.6046,-4.0478],[105.6302,-4.0066],[105.611,-3.9648]]]},"properties":{"code":"18.11.02","name":"Mesuji Timur"}},{"type":"Feature","geometry":{"type":"Polygon","coordinates":[[[105.6452,-4.0644],[105.591,-4.0636],[105.519,-4.1658],[105.605,-4.196],[105.6058,-4.2194],[105.6524,-4.1962],[105.7198,-4.1854],[105.7216,-4.1984],[105.7268,-4.1304],[105.6976,-4.126],[105.685,-4.0978],[105.679,-4.074],[105.6452,-4.0644]]]},"properties":{"code":"18.11.03","name":"Rawa Jitu Utara"}},{"type":"Feature","geometry":{"type":"Polygon","coordinates":[[[105.129,-4.0218],[105.1196,-4.0476],[105.0614,-4.0972],[105.0666,-4.2138],[105.098,-4.2176],[105.1012,-4.227],[105.1442,-4.2004],[105.1742,-4.1918],[105.143,-4.1534],[105.1944,-4.1046],[105.2002,-4.0236],[105.1652,-4.024],[105.1634,-4.037],[105.129,-4.0218]]]},"properties":{"code":"18.11.04","name":"Way Serdang"}},{"type":"Feature","geometry":{"type":"Polygon","coordinates":[[[105.2332,-3.9578],[105.2046,-3.891],[105.151,-3.9312],[105.1358,-3.9488],[105.1346,-3.9896],[105.129,-4.0218],[105.1634,-4.037],[105.1656,-4.0116],[105.2478,-4.0266],[105.2724,-4.0198],[105.2332,-3.9578]]]},"properties":{"code":"18.11.05","name":"Simpang Pematang"}},{"type":"Feature","geometry":{"type":"Polygon","coordinates":[[[105.2918,-3.8784],[105.2376,-3.9126],[105.2332,-3.9578],[105.2724,-4.0198],[105.2992,-3.9468],[105.2918,-3.8784]]]},"properties":{"code":"18.11.06","name":"Panca Jaya"}},{"type":"Feature","geometry":{"type":"Polygon","coordinates":[[[105.4216,-3.779],[105.3878,-3.779],[105.3666,-3.798],[105.357,-3.7964],[105.3428,-3.732],[105.3346,-3.724],[105.325,-3.7264],[105.3082,-3.7584],[105.3052,-3.7906],[105.284,-3.7978],[105.293,-3.8428],[105.2918,-3.8784],[105.2992,-3.9468],[105.3296,-4.0044],[105.4098,-4.007],[105.4726,-3.9614],[105.4604,-3.9324],[105.4176,-3.915],[105.3818,-3.8392],[105.4216,-3.779]]]},"properties":{"code":"18.11.07","name":"Tanjung Raya"}}]}