{"type":"FeatureCollection","features":[{"type":"Feature","geometry":{"type":"Polygon","coordinates":[[[104.0814,-5.1189],[104.0031,-5.0985],[104.0034,-5.1423],[103.9359,-5.1699],[103.9604,-5.2038],[104.034,-5.2041],[104.0776,-5.1744],[104.0814,-5.1189]]]},"properties":{"code":"18.13.01","name":"Pesisir Tengah","latitude":-5.1602171414215725,"longitude":104.01576739160798}},{"type":"Feature","geometry":{"type":"Polygon","coordinates":[[[104.2396,-5.2447],[104.2204,-5.2164],[104.1248,-5.1774],[104.0776,-5.1744],[104.034,-5.2041],[103.968,-5.2444],[104.0076,-5.2862],[103.9949,-5.3182],[104.0923,-5.4086],[104.1335,-5.3701],[104.1502,-5.3043],[104.2396,-5.2447]]]},"properties":{"code":"18.13.02","name":"Pesisir Selatan","latitude":-5.268927292647799,"longitude":104.0941456555101}},{"type":"Feature","geometry":{"type":"Polygon","coordinates":[[[103.8253,-4.8226],[103.7905,-4.779],[103.7311,-4.7993],[103.596,-4.9224],[103.6413,-4.9341],[103.6682,-4.9896],[103.7097,-4.9625],[103.7404,-5.0257],[103.7826,-4.9979],[103.8709,-5.0029],[103.8923,-4.9719],[103.8316,-4.9431],[103.8557,-4.8919],[103.8652,-4.8825],[103.8253,-4.8226]]]},"properties":{"code":"18.13.03","name":"Lemong","latitude":-4.9026862622328276,"longitude":103.75409234422713}},{"type":"Feature","geometry":{"type":"Polygon","coordinates":[[[103.8709,-5.0029],[103.7826,-4.9979],[103.7404,-5.0257],[103.7568,-5.0456],[103.8349,-5.0629],[103.8436,-5.0757],[103.8723,-5.0619],[103.8777,-5.0386],[103.8709,-5.0029]]]},"properties":{"code":"18.13.04","name":"Pesisir Utara","latitude":-5.028694429050374,"longitude":103.8224070285804}},{"type":"Feature","geometry":{"type":"Polygon","coordinates":[[[104.0031,-5.0985],[104.0048,-5.0063],[103.9776,-4.9894],[103.9714,-4.9731],[103.8923,-4.9719],[103.8709,-5.0029],[103.8747,-5.0589],[103.8425,-5.0808],[103.8672,-5.1103],[103.9333,-5.1578],[104,-5.0917],[104.0031,-5.0985]]]},"properties":{"code":"18.13.05","name":"Karya Penggawa","latitude":-5.05548969206371,"longitude":103.93708728096607}},{"type":"Feature","geometry":{"type":"Polygon","coordinates":[[[103.8525,-5.1187],[103.8468,-5.1153],[103.8383,-5.1221],[103.8502,-5.1264],[103.8525,-5.1187]]]},"properties":{"code":"18.13.06","name":"Pulau Pisang","latitude":-5.120854616255384,"longitude":103.84619905554506}},{"type":"Feature","geometry":{"type":"Polygon","coordinates":[[[104.0034,-5.1423],[104,-5.0917],[103.9333,-5.1578],[103.9359,-5.1699],[104.0034,-5.1423]]]},"properties":{"code":"18.13.07","name":"Way Krui","latitude":-5.139706233329155,"longitude":103.97959182016608}},{"type":"Feature","geometry":{"type":"Polygon","coordinates":[[[103.968,-5.2444],[103.9604,-5.2038],[103.9134,-5.2369],[103.968,-5.2444]]]},"properties":{"code":"18.13.08","name":"Krui Selatan","latitude":-5.224439876551885,"longitude":103.94424873929755}},{"type":"Feature","geometry":{"type":"Polygon","coordinates":[[[104.2782,-5.3814],[104.3054,-5.3466],[104.2396,-5.2447],[104.1502,-5.3043],[104.1335,-5.3701],[104.0923,-5.4086],[104.12,-5.4572],[104.1992,-5.4963],[104.213,-5.4752],[104.2195,-5.4327],[104.2782,-5.3814]]]},"properties":{"code":"18.13.09","name":"Ngambur","latitude":-5.371749283300299,"longitude":104.19673454632573}},{"type":"Feature","geometry":{"type":"Polygon","coordinates":[[[104.3341,-5.3608],[104.2782,-5.3814],[104.2195,-5.4327],[104.213,-5.4752],[104.2132,-5.5251],[104.2595,-5.5449],[104.2901,-5.4998],[104.3888,-5.4288],[104.3341,-5.3608]]]},"properties":{"code":"18.13.10","name":"Ngaras","latitude":-5.443813844692476,"longitude":104.28740089785754}},{"type":"Feature","geometry":{"type":"Polygon","coordinates":[[[104.443,-5.5228],[104.3888,-5.4288],[104.2901,-5.4998],[104.2595,-5.5449],[104.3186,-5.6065],[104.301,-5.6419],[104.416,-5.7072],[104.4528,-5.7641],[104.5625,-5.8636],[104.5845,-5.9431],[104.6586,-5.9364],[104.6601,-5.8996],[104.6177,-5.8013],[104.628,-5.6917],[104.5682,-5.6204],[104.5088,-5.6118],[104.5,-5.6012],[104.4903,-5.6076],[104.486,-5.5947],[104.4943,-5.5821],[104.4905,-5.5684],[104.487,-5.5595],[104.4815,-5.5632],[104.4785,-5.5393],[104.443,-5.5228]]]},"properties":{"code":"18.13.11","name":"Bangkunat","latitude":-5.671859524008366,"longitude":104.47285237615151}}]}