{"type":"FeatureCollection","features":[{"type":"Feature","geometry":{"type":"Polygon","coordinates":[[[105.2878,-5.1056],[105.3001,-5.13],[105.3088,-5.1309],[105.3146,-5.1066],[105.2878,-5.1056]]]},"properties":{"code":"18.72.01","name":"Metro Pusat","latitude":-5.1048999708801315,"longitude":105.31103871546138}},{"type":"Feature","geometry":{"type":"Polygon","coordinates":[[[105.2878,-5.1056],[105.3118,-5.0875],[105.3397,-5.0901],[105.3592,-5.0692],[105.3489,-5.0624],[105.3424,-5.071],[105.3138,-5.0757],[105.3089,-5.069],[105.317,-5.0619],[105.3166,-5.0545],[105.3023,-5.0625],[105.2687,-5.1026],[105.2878,-5.1056]]]},"properties":{"code":"18.72.02","name":"Metro Utara","latitude":-5.082171414731376,"longitude":105.31131873451909}},{"type":"Feature","geometry":{"type":"Polygon","coordinates":[[[105.2968,-5.1381],[105.2985,-5.128],[105.2941,-5.109],[105.2745,-5.1319],[105.2968,-5.1381]]]},"properties":{"code":"18.72.03","name":"Metro Barat","latitude":-5.1362458059245855,"longitude":105.28694025279725}},{"type":"Feature","geometry":{"type":"Polygon","coordinates":[[[105.3351,-5.1498],[105.3249,-5.1259],[105.3491,-5.1084],[105.3378,-5.0986],[105.3101,-5.1118],[105.3119,-5.1437],[105.3351,-5.1498]]]},"properties":{"code":"18.72.04","name":"Metro Timur","latitude":-5.124934810541853,"longitude":105.32499927113061}},{"type":"Feature","geometry":{"type":"Polygon","coordinates":[[[105.3003,-5.1787],[105.2968,-5.1381],[105.2994,-5.1723],[105.3003,-5.1787]]]},"properties":{"code":"18.72.05","name":"Metro Selatan","latitude":-5.157808533305344,"longitude":105.30234922689957}}]}