{"type":"FeatureCollection","features":[{"type":"Feature","geometry":{"type":"Polygon","coordinates":[[[106.4658,-2.4857],[106.3948,-2.4781],[106.2995,-2.4208],[106.2184,-2.3261],[106.2131,-2.3517],[106.2445,-2.3666],[106.2652,-2.4232],[106.2682,-2.4608],[106.2403,-2.4669],[106.1504,-2.5211],[106.1633,-2.5253],[106.2388,-2.5833],[106.2895,-2.5697],[106.3715,-2.554],[106.4307,-2.5438],[106.4658,-2.4857]]]},"properties":{"code":"19.04.01","name":"Koba","latitude":-2.4989066095815162,"longitude":106.30544356523296}},{"type":"Feature","geometry":{"type":"Polygon","coordinates":[[[106.1568,-2.1607],[106.1327,-2.146],[106.1112,-2.1536],[106.0889,-2.1445],[106.0686,-2.174],[106.1011,-2.2189],[106.0993,-2.2521],[106.1209,-2.255],[106.1496,-2.2272],[106.2072,-2.2053],[106.1568,-2.1607]]]},"properties":{"code":"19.04.02","name":"Pangkalan Baru","latitude":-2.1928031160753436,"longitude":106.13769263603139}},{"type":"Feature","geometry":{"type":"Polygon","coordinates":[[[105.9589,-2.2454],[105.9261,-2.2273],[105.8782,-2.3275],[105.8192,-2.3468],[105.8348,-2.4129],[105.9262,-2.4592],[105.9526,-2.5349],[105.9616,-2.5221],[105.9854,-2.5024],[105.9846,-2.4883],[106.0332,-2.4454],[106.0292,-2.5088],[106.0543,-2.5132],[106.0703,-2.5003],[106.1468,-2.5061],[106.1504,-2.5211],[106.2404,-2.4668],[106.1873,-2.4015],[106.166,-2.3926],[106.148,-2.3963],[106.0762,-2.3587],[106.0487,-2.2905],[105.9791,-2.2425],[105.9589,-2.2454]]]},"properties":{"code":"19.04.03","name":"Sungai Selan","latitude":-2.3916163987465464,"longitude":106.00904200350126}},{"type":"Feature","geometry":{"type":"Polygon","coordinates":[[[106.0686,-2.174],[106.0431,-2.1641],[106.0215,-2.2101],[105.9985,-2.2378],[105.9797,-2.2283],[105.9791,-2.2425],[106.0487,-2.2905],[106.0762,-2.3587],[106.148,-2.3963],[106.1711,-2.3956],[106.1799,-2.3646],[106.1766,-2.3026],[106.1013,-2.2736],[106.1209,-2.255],[106.0979,-2.2508],[106.1011,-2.2189],[106.0686,-2.174]]]},"properties":{"code":"19.04.04","name":"Simpang Katis","latitude":-2.281248947855543,"longitude":106.0948002652493}},{"type":"Feature","geometry":{"type":"Polygon","coordinates":[[[106.2184,-2.3261],[106.234,-2.3149],[106.206,-2.208],[106.1496,-2.2272],[106.1013,-2.2736],[106.1766,-2.3026],[106.1799,-2.3646],[106.1711,-2.3956],[106.1931,-2.4063],[106.2279,-2.4537],[106.2613,-2.4458],[106.2682,-2.4608],[106.2652,-2.4232],[106.2445,-2.3666],[106.2131,-2.3517],[106.2184,-2.3261]]]},"properties":{"code":"19.04.05","name":"Namang","latitude":-2.3313182336315537,"longitude":106.20280377536145}},{"type":"Feature","geometry":{"type":"Polygon","coordinates":[[[106.6335,-2.6949],[106.6635,-2.7158],[106.7076,-2.6429],[106.7557,-2.6015],[106.8488,-2.5723],[106.5924,-2.5255],[106.4658,-2.4857],[106.4307,-2.5438],[106.4576,-2.5635],[106.4608,-2.6236],[106.5093,-2.6509],[106.5682,-2.652],[106.5796,-2.684],[106.6335,-2.6949]]]},"properties":{"code":"19.04.06","name":"Lubuk Besar","latitude":-2.594885782094926,"longitude":106.60559183724259}}]}