{"type":"FeatureCollection","features":[{"type":"Feature","geometry":{"type":"Polygon","coordinates":[[[107.7722,3.0002],[107.7476,3.0058],[107.7571,2.972],[107.7918,2.9787],[107.7722,3.0002]]]},"properties":{"code":"21.03.04","name":"Midai","latitude":3.0547036524954216,"longitude":107.75229220848134}},{"type":"Feature","geometry":{"type":"MultiPolygon","coordinates":[[[[108.1986,3.7172],[108.1776,3.7762],[108.1182,3.7445],[108.1101,3.7096],[108.1436,3.6975],[108.1564,3.6788],[108.1986,3.7172]]],[[[108.2272,3.8663],[108.2196,3.898],[108.1939,3.8493],[108.2321,3.8141],[108.2464,3.7687],[108.3083,3.8117],[108.2607,3.8616],[108.2272,3.8663]]],[[[108.0928,3.9246],[108.0518,3.9585],[108.0393,3.9353],[108.0193,3.878],[108.064,3.8343],[108.1045,3.8404],[108.0891,3.8844],[108.0928,3.9246]]]]},"properties":{"code":"21.03.05","name":"Bunguran Barat","latitude":3.8242562023451843,"longitude":108.14172710135742}},{"type":"Feature","geometry":{"type":"Polygon","coordinates":[[[108.9955,2.5603],[109.0314,2.4994],[109.0653,2.522],[109.0268,2.5378],[108.9955,2.5603]]]},"properties":{"code":"21.03.06","name":"Serasan","latitude":2.520615101417204,"longitude":109.00875048175885}},{"type":"Feature","geometry":{"type":"Polygon","coordinates":[[[108.3056,3.8016],[108.3166,3.8273],[108.3383,3.8242],[108.3777,3.8558],[108.3788,3.8785],[108.3921,3.8919],[108.3943,3.916],[108.382,3.9314],[108.4034,3.9659],[108.3431,3.9686],[108.3096,3.9283],[108.2957,3.9133],[108.3243,3.8613],[108.2796,3.8457],[108.3083,3.8117],[108.3056,3.8016]]]},"properties":{"code":"21.03.07","name":"Bunguran Timur","latitude":3.9074669609424855,"longitude":108.34470955473704}},{"type":"Feature","geometry":{"type":"Polygon","coordinates":[[[108.2425,4.2183],[108.1956,4.1956],[108.1466,4.1377],[108.0329,4.0577],[107.9825,3.9996],[107.9894,3.9444],[108.0393,3.9353],[108.0518,3.9585],[108.1391,3.9291],[108.1649,4.0044],[108.1768,4.0055],[108.181,4.1101],[108.2197,4.1332],[108.2425,4.2183]]]},"properties":{"code":"21.03.08","name":"Bunguran Utara","latitude":4.03900867540628,"longitude":108.10777652706942}},{"type":"Feature","geometry":{"type":"Polygon","coordinates":[[[108.8643,3.0122],[108.8281,2.9355],[108.7752,2.8917],[108.8192,2.8435],[108.8874,2.9139],[108.8902,3.0002],[108.8643,3.0122]]]},"properties":{"code":"21.03.09","name":"Subi","latitude":2.928027650804643,"longitude":108.84287654228514}},{"type":"Feature","geometry":{"type":"Polygon","coordinates":[[[108.0073,4.7753],[107.9584,4.7083],[107.9768,4.6801],[108.0073,4.7753]]]},"properties":{"code":"21.03.10","name":"Pulau Laut","latitude":4.710290697442561,"longitude":107.96704831792167}},{"type":"Feature","geometry":{"type":"Polygon","coordinates":[[[108.155,3.6301],[108.1599,3.6752],[108.1351,3.7005],[108.1247,3.7026],[108.1117,3.6738],[108.155,3.6301]]]},"properties":{"code":"21.03.11","name":"Pulau Tiga","latitude":3.6346077086988458,"longitude":108.11016078926066}},{"type":"Feature","geometry":{"type":"Polygon","coordinates":[[[108.3431,3.9686],[108.3467,4.0136],[108.2335,4.1289],[108.2425,4.2183],[108.2197,4.1332],[108.181,4.1101],[108.1768,4.0055],[108.1676,3.9791],[108.1853,3.9788],[108.2176,3.9331],[108.25,3.9534],[108.3096,3.9283],[108.3431,3.9686]]]},"properties":{"code":"21.03.15","name":"Bunguran Timur Laut","latitude":4.027621493888916,"longitude":108.2462957971466}},{"type":"Feature","geometry":{"type":"Polygon","coordinates":[[[108.2957,3.9133],[108.25,3.9534],[108.2176,3.9331],[108.2176,3.9206],[108.2357,3.9065],[108.2272,3.8663],[108.2474,3.8671],[108.2796,3.8457],[108.3243,3.8613],[108.2957,3.9133]]]},"properties":{"code":"21.03.16","name":"Bunguran Tengah","latitude":3.8998196829652088,"longitude":108.26943199826233}},{"type":"Feature","geometry":{"type":"Polygon","coordinates":[[[108.155,3.6301],[108.2234,3.6639],[108.306,3.6714],[108.3087,3.7298],[108.387,3.7937],[108.4076,3.8868],[108.3508,3.8314],[108.3056,3.8016],[108.2464,3.7687],[108.1986,3.7172],[108.1564,3.6788],[108.1613,3.6635],[108.155,3.6301]]]},"properties":{"code":"21.03.18","name":"Bunguran Selatan","latitude":3.742891630126956,"longitude":108.28273855080026}},{"type":"Feature","geometry":{"type":"Polygon","coordinates":[[[109.1188,2.5313],[109.0643,2.5233],[109.0312,2.4967],[109.0375,2.4852],[109.0546,2.5043],[109.0822,2.489],[109.1188,2.5313]]]},"properties":{"code":"21.03.19","name":"Serasan Timur","latitude":2.5133266904881957,"longitude":109.08524872616239}},{"type":"Feature","geometry":{"type":"Polygon","coordinates":[[[108.1676,3.9791],[108.1649,4.0044],[108.1391,3.9291],[108.0928,3.9246],[108.0891,3.8844],[108.1045,3.8404],[108.1544,3.8052],[108.2321,3.8141],[108.1939,3.8493],[108.2196,3.898],[108.2357,3.9065],[108.2176,3.9206],[108.1853,3.9788],[108.1676,3.9791]]]},"properties":{"code":"21.03.20","name":"Bunguran Batubi","latitude":3.870636722032042,"longitude":108.16396276322628}},{"type":"Feature","geometry":{"type":"Polygon","coordinates":[[[108.0546,3.6688],[108.0503,3.632],[108.0809,3.6343],[108.0748,3.6644],[108.0546,3.6688]]]},"properties":{"code":"21.03.21","name":"Pulau Tiga Barat","latitude":3.668235703997728,"longitude":108.08344072559339}},{"type":"Feature","geometry":{"type":"Polygon","coordinates":[[[107.7918,2.9787],[107.8132,2.9802],[107.8039,3.0101],[107.7722,3.0002],[107.7918,2.9787]]]},"properties":{"code":"21.03.22","name":"Suak Midai","latitude":3.000470287617715,"longitude":107.79262810326424}},{"type":"Feature","geometry":{"type":"Polygon","coordinates":[[[108.9218,2.7667],[108.8861,2.7272],[108.9132,2.7359],[108.9288,2.7562],[108.9218,2.7667]]]},"properties":{"code":"21.03.23","name":"Pulau Panjang","latitude":2.7186981480086545,"longitude":108.77626591663122}},{"type":"Feature","geometry":{"type":"Polygon","coordinates":[[[107.8612,4.1584],[107.846,4.1389],[107.8625,4.126],[107.8612,4.1584]]]},"properties":{"code":"21.03.24","name":"Pulau Seluan","latitude":4.135081325163725,"longitude":107.85481363740531}}]}