{"type":"FeatureCollection","features":[{"type":"Feature","geometry":{"type":"Polygon","coordinates":[[[104.6174,0.8952],[104.656,0.9079],[104.6341,0.986],[104.6574,1.0453],[104.6352,1.1084],[104.5972,1.1254],[104.5672,1.179],[104.5291,1.1329],[104.5766,1.1003],[104.5753,1.0385],[104.5991,0.9761],[104.5782,0.9462],[104.5789,0.9127],[104.6174,0.8952]]]},"properties":{"code":"21.01.04","name":"Gunung Kijang","latitude":1.03061199127586,"longitude":104.60738038180264}},{"type":"Feature","geometry":{"type":"Polygon","coordinates":[[[104.6174,0.8952],[104.5873,0.9136],[104.5755,0.9131],[104.574,0.9245],[104.549,0.9245],[104.544,0.876],[104.5205,0.8259],[104.593,0.8099],[104.6174,0.8952]]]},"properties":{"code":"21.01.06","name":"Bintan Timur","latitude":0.8617033449364121,"longitude":104.57022682785248}},{"type":"Feature","geometry":{"type":"Polygon","coordinates":[[[104.2872,1.053],[104.2866,1.0998],[104.2667,1.1237],[104.2162,1.0854],[104.2441,1.0577],[104.2872,1.053]]]},"properties":{"code":"21.01.07","name":"Bintan Utara","latitude":1.0834577698038808,"longitude":104.2531480305674}},{"type":"Feature","geometry":{"type":"Polygon","coordinates":[[[104.5037,1.0806],[104.4709,1.1085],[104.4013,1.0904],[104.3756,1.0486],[104.4527,1.055],[104.4734,0.9775],[104.5,0.9911],[104.5137,1.0331],[104.5037,1.0806]]]},"properties":{"code":"21.01.08","name":"Teluk Bintan","latitude":1.0425940887019045,"longitude":104.45513712710888}},{"type":"Feature","geometry":{"type":"Polygon","coordinates":[[[107.5371,1.0264],[107.5535,0.9711],[107.6022,0.9972],[107.5371,1.0264]]]},"properties":{"code":"21.01.09","name":"Tambelan","latitude":0.8704217667763263,"longitude":107.43486628516787}},{"type":"Feature","geometry":{"type":"Polygon","coordinates":[[[104.4709,1.1085],[104.507,1.1019],[104.5874,1.2049],[104.4993,1.1687],[104.419,1.1981],[104.3397,1.1854],[104.3296,1.1391],[104.2826,1.1284],[104.282,1.1284],[104.2666,1.1196],[104.2881,1.0966],[104.2898,1.0713],[104.31,1.0748],[104.313,1.091],[104.3607,1.086],[104.3756,1.0486],[104.4013,1.0904],[104.4709,1.1085]]]},"properties":{"code":"21.01.10","name":"Teluk Sebong","latitude":1.13921073702118,"longitude":104.41938683935713}},{"type":"Feature","geometry":{"type":"Polygon","coordinates":[[[104.5766,1.1003],[104.5327,1.1324],[104.5066,1.1004],[104.5037,1.0806],[104.5137,1.0331],[104.5109,0.9714],[104.5195,0.9602],[104.5455,0.9415],[104.549,0.9245],[104.574,0.9245],[104.5789,0.9127],[104.5782,0.9462],[104.5991,0.9761],[104.5753,1.0385],[104.5766,1.1003]]]},"properties":{"code":"21.01.12","name":"Toapaya","latitude":1.0227413397731127,"longitude":104.54852745298692}},{"type":"Feature","geometry":{"type":"Polygon","coordinates":[[[104.5463,0.7971],[104.5216,0.7618],[104.5854,0.7863],[104.5463,0.7971]]]},"properties":{"code":"21.01.13","name":"Mantang","latitude":0.7763657171366262,"longitude":104.59331720427308}},{"type":"Feature","geometry":{"type":"Polygon","coordinates":[[[104.7868,1.0282],[104.8297,0.9754],[104.8493,1.0133],[104.7868,1.0282]]]},"properties":{"code":"21.01.14","name":"Bintan Pesisir","latitude":0.8596016551073011,"longitude":104.72638746209856}},{"type":"Feature","geometry":{"type":"Polygon","coordinates":[[[104.3607,1.086],[104.313,1.091],[104.31,1.0748],[104.2872,1.053],[104.2441,1.0577],[104.2596,1],[104.3316,0.995],[104.3756,1.0486],[104.3607,1.086]]]},"properties":{"code":"21.01.15","name":"Seri Kuala Lobam","latitude":1.037897440996065,"longitude":104.30223091237761}}]}