{"type":"FeatureCollection","features":[{"type":"Feature","geometry":{"type":"Polygon","coordinates":[[[104.4541,0.9317],[104.4381,0.9085],[104.4554,0.9013],[104.4541,0.9317]]]},"properties":{"code":"21.72.01","name":"Tanjung Pinang Barat","latitude":0.9154395996470553,"longitude":104.44680711558682}},{"type":"Feature","geometry":{"type":"Polygon","coordinates":[[[104.5109,0.9714],[104.4898,0.9404],[104.4862,0.9023],[104.4857,0.885],[104.5269,0.8844],[104.5455,0.9415],[104.5195,0.9602],[104.5109,0.9714]]]},"properties":{"code":"21.72.02","name":"Tanjung Pinang Timur","latitude":0.9267008782969848,"longitude":104.51047574416762}},{"type":"Feature","geometry":{"type":"Polygon","coordinates":[[[104.5,0.9911],[104.4734,0.9775],[104.4898,0.9404],[104.5,0.9911]]]},"properties":{"code":"21.72.03","name":"Tanjung Pinang Kota","latitude":0.9588109146114596,"longitude":104.45608254056036}},{"type":"Feature","geometry":{"type":"Polygon","coordinates":[[[104.4862,0.9023],[104.4754,0.8506],[104.5079,0.8406],[104.544,0.876],[104.4857,0.885],[104.4862,0.9023]]]},"properties":{"code":"21.72.04","name":"Bukit Bestari","latitude":0.8769829777490169,"longitude":104.48711255670325}}]}