{"type":"FeatureCollection","features":[{"type":"Feature","geometry":{"type":"Polygon","coordinates":[[[106.551,-5.4998],[106.5467,-5.4996],[106.5427,-5.5049],[106.5572,-5.5012],[106.551,-5.4998]]]},"properties":{"code":"31.01.01","name":"Kepulauan Seribu Utara","latitude":-5.580134480445578,"longitude":106.55358267845662}},{"type":"Feature","geometry":{"type":"Polygon","coordinates":[[[106.4807,-5.7932],[106.5116,-5.803],[106.5004,-5.7958],[106.4807,-5.7932]]]},"properties":{"code":"31.01.02","name":"Kepulauan Seribu Selatan","latitude":-5.901010624718457,"longitude":106.62129892420687}}]}