{"type":"FeatureCollection","features":[{"type":"Feature","geometry":{"type":"Polygon","coordinates":[[[106.8625,-6.2431],[106.8636,-6.2163],[106.849,-6.2076],[106.8461,-6.2209],[106.8351,-6.2256],[106.8347,-6.2409],[106.8625,-6.2431]]]},"properties":{"code":"31.74.01","name":"Tebet","latitude":-6.228858057552371,"longitude":106.85087909597982}},{"type":"Feature","geometry":{"type":"Polygon","coordinates":[[[106.8347,-6.2409],[106.8227,-6.2027],[106.8124,-6.2194],[106.8347,-6.2409]]]},"properties":{"code":"31.74.02","name":"Setiabudi","latitude":-6.2196218755991675,"longitude":106.8299854176784}},{"type":"Feature","geometry":{"type":"Polygon","coordinates":[[[106.823,-6.2531],[106.8358,-6.2507],[106.8352,-6.2414],[106.8208,-6.2317],[106.8167,-6.2266],[106.8083,-6.2557],[106.8115,-6.2705],[106.8211,-6.2743],[106.8276,-6.2656],[106.823,-6.2531]]]},"properties":{"code":"31.74.03","name":"Mampang Prapatan","latitude":-6.2523139926038285,"longitude":106.82098630073784}},{"type":"Feature","geometry":{"type":"Polygon","coordinates":[[[106.8408,-6.2953],[106.8543,-6.2959],[106.8467,-6.279],[106.8568,-6.2724],[106.852,-6.2623],[106.8349,-6.266],[106.8276,-6.2656],[106.8139,-6.2731],[106.805,-6.2932],[106.8408,-6.2953]]]},"properties":{"code":"31.74.04","name":"Pasar Minggu","latitude":-6.2908320141715155,"longitude":106.82929198995235}},{"type":"Feature","geometry":{"type":"Polygon","coordinates":[[[106.7731,-6.2625],[106.7784,-6.2269],[106.7631,-6.2299],[106.7731,-6.2625]]]},"properties":{"code":"31.74.05","name":"Kebayoran Lama","latitude":-6.249501734838234,"longitude":106.78007755677423}},{"type":"Feature","geometry":{"type":"Polygon","coordinates":[[[106.805,-6.2932],[106.8129,-6.267],[106.7888,-6.2636],[106.785,-6.291],[106.7693,-6.2893],[106.7671,-6.2951],[106.7768,-6.3153],[106.8092,-6.3148],[106.805,-6.2932]]]},"properties":{"code":"31.74.06","name":"Cilandak","latitude":-6.2926711592312525,"longitude":106.79333338631108}},{"type":"Feature","geometry":{"type":"Polygon","coordinates":[[[106.8124,-6.2194],[106.7862,-6.2354],[106.8086,-6.2531],[106.8124,-6.2194]]]},"properties":{"code":"31.74.07","name":"Kebayoran Baru","latitude":-6.244730147721967,"longitude":106.8014416777701}},{"type":"Feature","geometry":{"type":"Polygon","coordinates":[[[106.8625,-6.2431],[106.8347,-6.2409],[106.8357,-6.2518],[106.823,-6.2531],[106.8287,-6.2749],[106.8432,-6.2626],[106.8592,-6.2628],[106.8625,-6.2431]]]},"properties":{"code":"31.74.08","name":"Pancoran","latitude":-6.255339272513472,"longitude":106.84363261419357}},{"type":"Feature","geometry":{"type":"Polygon","coordinates":[[[106.8408,-6.2953],[106.832,-6.3214],[106.8079,-6.3111],[106.7924,-6.3484],[106.7938,-6.3643],[106.8392,-6.3518],[106.8383,-6.3208],[106.8586,-6.3057],[106.8408,-6.2953]]]},"properties":{"code":"31.74.09","name":"Jagakarsa","latitude":-6.334019847854105,"longitude":106.8223585474081}},{"type":"Feature","geometry":{"type":"Polygon","coordinates":[[[106.7731,-6.2625],[106.7647,-6.2224],[106.7374,-6.2239],[106.7548,-6.2558],[106.7731,-6.2625]]]},"properties":{"code":"31.74.10","name":"Pesanggrahan","latitude":-6.250382432937097,"longitude":106.75868031992285}}]}