{"type":"FeatureCollection","features":[{"type":"Feature","geometry":{"type":"Polygon","coordinates":[[[106.7478,-6.1582],[106.7168,-6.1312],[106.723,-6.1846],[106.7488,-6.1656],[106.7478,-6.1582]]]},"properties":{"code":"31.73.01","name":"Cengkareng"}},{"type":"Feature","geometry":{"type":"Polygon","coordinates":[[[106.8056,-6.1734],[106.7802,-6.165],[106.7826,-6.1854],[106.8056,-6.1734]]]},"properties":{"code":"31.73.02","name":"Grogol Petamburan"}},{"type":"Feature","geometry":{"type":"Polygon","coordinates":[[[106.8168,-6.137],[106.8104,-6.1308],[106.8112,-6.1578],[106.8284,-6.1622],[106.826,-6.1464],[106.8168,-6.137]]]},"properties":{"code":"31.73.03","name":"Taman Sari"}},{"type":"Feature","geometry":{"type":"Polygon","coordinates":[[[106.8108,-6.1318],[106.7892,-6.1424],[106.7982,-6.1614],[106.8128,-6.1606],[106.8108,-6.1318]]]},"properties":{"code":"31.73.04","name":"Tambora"}},{"type":"Feature","geometry":{"type":"Polygon","coordinates":[[[106.7802,-6.165],[106.75,-6.1804],[106.7784,-6.227],[106.7802,-6.165]]]},"properties":{"code":"31.73.05","name":"Kebon Jeruk"}},{"type":"Feature","geometry":{"type":"Polygon","coordinates":[[[106.7168,-6.1312],[106.688,-6.097],[106.6968,-6.1106],[106.7168,-6.1312]]]},"properties":{"code":"31.73.06","name":"Kalideres"}},{"type":"Feature","geometry":{"type":"Polygon","coordinates":[[[106.8056,-6.1734],[106.7832,-6.1854],[106.7832,-6.2068],[106.7962,-6.2076],[106.8102,-6.1836],[106.8056,-6.1734]]]},"properties":{"code":"31.73.07","name":"Pal Merah"}},{"type":"Feature","geometry":{"type":"Polygon","coordinates":[[[106.75,-6.1804],[106.7578,-6.162],[106.7478,-6.1582],[106.7488,-6.1656],[106.7248,-6.194],[106.718,-6.223],[106.766,-6.2224],[106.75,-6.1804]]]},"properties":{"code":"31.73.08","name":"Kembangan"}}]}