{"type":"FeatureCollection","features":[{"type":"Feature","geometry":{"type":"Polygon","coordinates":[[[107.7046,-6.9672],[107.7098,-6.9744],[107.7526,-6.9558],[107.76,-6.9206],[107.7536,-6.8964],[107.7444,-6.8762],[107.7402,-6.905],[107.713,-6.9476],[107.716,-6.9614],[107.7046,-6.9672]]]},"properties":{"code":"32.04.05","name":"Cileunyi"}},{"type":"Feature","geometry":{"type":"Polygon","coordinates":[[[107.6892,-6.8354],[107.6544,-6.8948],[107.6702,-6.884],[107.6688,-6.892],[107.6806,-6.8894],[107.6868,-6.8966],[107.7128,-6.8442],[107.7034,-6.8402],[107.6892,-6.8354]]]},"properties":{"code":"32.04.06","name":"Cimenyan"}},{"type":"Feature","geometry":{"type":"Polygon","coordinates":[[[107.7444,-6.8762],[107.7096,-6.8614],[107.6874,-6.8932],[107.6928,-6.9054],[107.704,-6.9076],[107.7046,-6.8916],[107.7444,-6.8762]]]},"properties":{"code":"32.04.07","name":"Cilengkrang"}},{"type":"Feature","geometry":{"type":"Polygon","coordinates":[[[107.7046,-6.9672],[107.6544,-6.9652],[107.6366,-6.9652],[107.6382,-7.0084],[107.6596,-7.0024],[107.7046,-6.9672]]]},"properties":{"code":"32.04.08","name":"Bojongsoang"}},{"type":"Feature","geometry":{"type":"Polygon","coordinates":[[[107.5604,-6.992],[107.5922,-6.9852],[107.5688,-6.9542],[107.5604,-6.992]]]},"properties":{"code":"32.04.09","name":"Margahayu"}},{"type":"Feature","geometry":{"type":"Polygon","coordinates":[[[107.5296,-6.917],[107.5276,-6.9694],[107.567,-6.9536],[107.5296,-6.917]]]},"properties":{"code":"32.04.10","name":"Margaasih"}},{"type":"Feature","geometry":{"type":"Polygon","coordinates":[[[107.5604,-6.992],[107.548,-7.0166],[107.5584,-7.032],[107.5886,-7.0016],[107.5604,-6.992]]]},"properties":{"code":"32.04.11","name":"Katapang"}},{"type":"Feature","geometry":{"type":"Polygon","coordinates":[[[107.6366,-6.9652],[107.5896,-6.9788],[107.6166,-6.9856],[107.6366,-6.9652]]]},"properties":{"code":"32.04.12","name":"Dayeuhkolot"}},{"type":"Feature","geometry":{"type":"Polygon","coordinates":[[[107.6302,-7.1014],[107.5614,-7.044],[107.575,-7.0732],[107.6302,-7.1014]]]},"properties":{"code":"32.04.13","name":"Banjaran"}},{"type":"Feature","geometry":{"type":"Polygon","coordinates":[[[107.6176,-7.026],[107.61,-7.014],[107.576,-7.0162],[107.6018,-7.0358],[107.6176,-7.026]]]},"properties":{"code":"32.04.14","name":"Pameungpeuk"}},{"type":"Feature","geometry":{"type":"Polygon","coordinates":[[[107.5516,-7.122],[107.5254,-7.121],[107.5066,-7.2198],[107.5204,-7.257],[107.546,-7.2574],[107.5822,-7.2768],[107.5992,-7.283],[107.6222,-7.2498],[107.635,-7.1912],[107.6332,-7.1474],[107.5516,-7.122]]]},"properties":{"code":"32.04.15","name":"Pangalengan"}},{"type":"Feature","geometry":{"type":"Polygon","coordinates":[[[107.6638,-7.1072],[107.6886,-7.0692],[107.6856,-7.0494],[107.6218,-7.0278],[107.6302,-7.1014],[107.6202,-7.1208],[107.6294,-7.1262],[107.654,-7.1056],[107.6638,-7.1072]]]},"properties":{"code":"32.04.16","name":"Arjasari"}},{"type":"Feature","geometry":{"type":"Polygon","coordinates":[[[107.575,-7.0732],[107.5254,-7.121],[107.5516,-7.122],[107.64,-7.1358],[107.634,-7.1268],[107.6088,-7.1178],[107.575,-7.0732]]]},"properties":{"code":"32.04.17","name":"Cimaung"}},{"type":"Feature","geometry":{"type":"Polygon","coordinates":[[[107.9162,-6.9682],[107.89,-6.9638],[107.8448,-6.9696],[107.8286,-6.9716],[107.841,-7.0014],[107.8816,-6.9984],[107.8808,-6.9884],[107.9162,-6.9682]]]},"properties":{"code":"32.04.25","name":"Cicalengka"}},{"type":"Feature","geometry":{"type":"Polygon","coordinates":[[[107.9064,-6.9902],[107.8808,-6.9884],[107.8816,-6.9984],[107.8616,-7.0592],[107.91,-7.036],[107.9064,-6.9902]]]},"properties":{"code":"32.04.26","name":"Nagreg"}},{"type":"Feature","geometry":{"type":"Polygon","coordinates":[[[107.841,-7.0014],[107.804,-6.9946],[107.8066,-7.0518],[107.8356,-7.0678],[107.8616,-7.0592],[107.841,-7.0014]]]},"properties":{"code":"32.04.27","name":"Cikancung"}},{"type":"Feature","geometry":{"type":"Polygon","coordinates":[[[107.804,-6.9946],[107.8048,-6.9804],[107.826,-6.967],[107.7682,-6.954],[107.7528,-6.9552],[107.7314,-6.9702],[107.7126,-6.9706],[107.7034,-6.9842],[107.7448,-7],[107.7684,-6.9924],[107.7784,-7.0078],[107.804,-6.9946]]]},"properties":{"code":"32.04.28","name":"Rancaekek"}},{"type":"Feature","geometry":{"type":"Polygon","coordinates":[[[107.719,-6.9972],[107.6808,-6.9936],[107.684,-7.083],[107.6638,-7.1072],[107.654,-7.1056],[107.6294,-7.1262],[107.661,-7.1174],[107.6946,-7.0908],[107.6944,-7.0836],[107.719,-6.9972]]]},"properties":{"code":"32.04.29","name":"Ciparay"}},{"type":"Feature","geometry":{"type":"Polygon","coordinates":[[[107.7522,-7.1668],[107.6944,-7.0836],[107.6946,-7.0908],[107.6618,-7.117],[107.634,-7.1268],[107.64,-7.1358],[107.6332,-7.1474],[107.6468,-7.1728],[107.6802,-7.175],[107.7032,-7.1628],[107.7256,-7.1916],[107.7522,-7.1668]]]},"properties":{"code":"32.04.30","name":"Pacet"}},{"type":"Feature","geometry":{"type":"Polygon","coordinates":[[[107.7032,-7.1628],[107.6802,-7.175],[107.6468,-7.1728],[107.635,-7.1912],[107.6222,-7.2498],[107.6676,-7.3012],[107.7072,-7.2274],[107.7254,-7.2118],[107.7256,-7.1916],[107.7032,-7.1628]]]},"properties":{"code":"32.04.31","name":"Kertasari"}},{"type":"Feature","geometry":{"type":"Polygon","coordinates":[[[107.6166,-6.9856],[107.5896,-6.9788],[107.6176,-7.026],[107.6596,-7.0024],[107.6382,-7.0084],[107.6166,-6.9856]]]},"properties":{"code":"32.04.32","name":"Baleendah"}},{"type":"Feature","geometry":{"type":"Polygon","coordinates":[[[107.7678,-7.0394],[107.7152,-7.0568],[107.7436,-7.0834],[107.7678,-7.0394]]]},"properties":{"code":"32.04.33","name":"Majalaya"}},{"type":"Feature","geometry":{"type":"Polygon","coordinates":[[[107.7448,-7],[107.719,-6.9972],[107.7658,-7.0394],[107.7684,-6.9924],[107.7448,-7]]]},"properties":{"code":"32.04.34","name":"Solokanjeruk"}},{"type":"Feature","geometry":{"type":"Polygon","coordinates":[[[107.8066,-7.0518],[107.7784,-7.0078],[107.778,-7.0492],[107.7678,-7.0394],[107.7736,-7.0866],[107.7856,-7.0902],[107.8112,-7.098],[107.8066,-7.0518]]]},"properties":{"code":"32.04.35","name":"Paseh"}},{"type":"Feature","geometry":{"type":"Polygon","coordinates":[[[107.7736,-7.0866],[107.7522,-7.1668],[107.7884,-7.1616],[107.7856,-7.0902],[107.7736,-7.0866]]]},"properties":{"code":"32.04.36","name":"Ibun"}},{"type":"Feature","geometry":{"type":"Polygon","coordinates":[[[107.548,-7.0166],[107.5234,-7.0208],[107.4916,-7.0644],[107.548,-7.0166]]]},"properties":{"code":"32.04.37","name":"Soreang"}},{"type":"Feature","geometry":{"type":"Polygon","coordinates":[[[107.4916,-7.0644],[107.4802,-7.0564],[107.468,-7.0758],[107.4694,-7.089],[107.4236,-7.1598],[107.3982,-7.1654],[107.3764,-7.2392],[107.3952,-7.2448],[107.494,-7.258],[107.5066,-7.2198],[107.523,-7.0942],[107.4916,-7.0644]]]},"properties":{"code":"32.04.38","name":"Pasirjambu"}},{"type":"Feature","geometry":{"type":"Polygon","coordinates":[[[107.4802,-7.0564],[107.4222,-7.0752],[107.3962,-7.0922],[107.3924,-7.0992],[107.4262,-7.11],[107.4694,-7.089],[107.468,-7.0758],[107.4802,-7.0564]]]},"properties":{"code":"32.04.39","name":"Ciwidey"}},{"type":"Feature","geometry":{"type":"Polygon","coordinates":[[[107.3708,-7.1036],[107.359,-7.0902],[107.3372,-7.0958],[107.2758,-7.1806],[107.2722,-7.1692],[107.2822,-7.2064],[107.289,-7.214],[107.3312,-7.2072],[107.3556,-7.2176],[107.3764,-7.2392],[107.3982,-7.1654],[107.4236,-7.1598],[107.4262,-7.11],[107.3924,-7.0992],[107.3762,-7.0922],[107.3708,-7.1036]]]},"properties":{"code":"32.04.40","name":"Rancabali"}},{"type":"Feature","geometry":{"type":"Polygon","coordinates":[[[107.5614,-7.044],[107.5246,-7.0482],[107.523,-7.0942],[107.5614,-7.044]]]},"properties":{"code":"32.04.44","name":"Cangkuang"}},{"type":"Feature","geometry":{"type":"Polygon","coordinates":[[[107.5234,-7.0208],[107.5038,-6.9828],[107.4864,-7],[107.4816,-7.0226],[107.5234,-7.0208]]]},"properties":{"code":"32.04.46","name":"Kutawaringin"}}]}