{"type":"FeatureCollection","features":[{"type":"Feature","geometry":{"type":"Polygon","coordinates":[[[108.0994,-6.9551],[108.0899,-6.9383],[108.0785,-6.9329],[108.0621,-6.9653],[108.0797,-6.9569],[108.0698,-6.987],[108.0821,-6.9871],[108.1377,-7.0388],[108.165,-6.9985],[108.1548,-6.9667],[108.1145,-6.9551],[108.0994,-6.9551]]]},"properties":{"code":"32.11.01","name":"Wado","latitude":-6.9867482429095285,"longitude":108.11629767734487}},{"type":"Feature","geometry":{"type":"Polygon","coordinates":[[[108.2199,-6.9282],[108.1781,-6.8973],[108.1555,-6.9333],[108.0909,-6.9218],[108.0994,-6.9551],[108.1145,-6.9551],[108.1548,-6.9667],[108.2199,-6.9282]]]},"properties":{"code":"32.11.02","name":"Jatinunggal","latitude":-6.935632462609596,"longitude":108.16092464199362}},{"type":"Feature","geometry":{"type":"Polygon","coordinates":[[[108.0942,-6.8681],[108.0568,-6.8784],[108.0507,-6.8898],[108.0314,-6.9103],[108.0195,-6.9417],[108.0785,-6.9329],[108.0899,-6.9383],[108.0942,-6.8681]]]},"properties":{"code":"32.11.03","name":"Darmaraja","latitude":-6.911640903153963,"longitude":108.06011150960377}},{"type":"Feature","geometry":{"type":"Polygon","coordinates":[[[108.0621,-6.9653],[108.0195,-6.9417],[107.9907,-6.982],[108.0421,-6.9964],[108.0797,-6.9569],[108.0621,-6.9653]]]},"properties":{"code":"32.11.04","name":"Cibugel","latitude":-6.9661524624742475,"longitude":108.02656050074899}},{"type":"Feature","geometry":{"type":"Polygon","coordinates":[[[108.0934,-6.832],[108.0362,-6.8212],[108.0424,-6.8491],[107.9974,-6.9],[108.0314,-6.9103],[108.0507,-6.8898],[108.0568,-6.8784],[108.0942,-6.8681],[108.0934,-6.832]]]},"properties":{"code":"32.11.05","name":"Cisitu","latitude":-6.875854849552512,"longitude":108.04047790858844}},{"type":"Feature","geometry":{"type":"Polygon","coordinates":[[[108.0773,-6.8004],[108.0173,-6.8162],[107.9806,-6.8744],[107.9904,-6.8868],[107.9781,-6.9412],[107.9974,-6.9],[108.0424,-6.8491],[108.0362,-6.8212],[108.0773,-6.8004]]]},"properties":{"code":"32.11.06","name":"Situraja","latitude":-6.856391017998179,"longitude":108.01406550529485}},{"type":"Feature","geometry":{"type":"Polygon","coordinates":[[[108.0634,-6.7207],[108.03,-6.6601],[107.9715,-6.658],[107.9793,-6.6735],[107.9891,-6.7193],[107.9599,-6.7646],[107.972,-6.771],[107.9726,-6.7804],[107.9991,-6.7842],[108.0239,-6.7775],[108.0617,-6.7318],[108.0634,-6.7207]]]},"properties":{"code":"32.11.07","name":"Conggeang","latitude":-6.723027938902484,"longitude":108.01879755933831}},{"type":"Feature","geometry":{"type":"Polygon","coordinates":[[[108.0173,-6.8162],[108.0239,-6.7775],[107.9991,-6.7842],[107.9726,-6.7804],[108.0173,-6.8162]]]},"properties":{"code":"32.11.08","name":"Paseh","latitude":-6.796815475764709,"longitude":108.01282428960371}},{"type":"Feature","geometry":{"type":"Polygon","coordinates":[[[107.8994,-6.6521],[107.9037,-6.5927],[107.8566,-6.5792],[107.851,-6.6545],[107.9139,-6.6812],[107.8994,-6.6521]]]},"properties":{"code":"32.11.09","name":"Surian","latitude":-6.639785422101855,"longitude":107.87868779810063}},{"type":"Feature","geometry":{"type":"Polygon","coordinates":[[[107.9395,-6.6254],[107.8994,-6.6521],[107.9139,-6.6812],[107.9141,-6.7213],[107.9386,-6.7595],[107.9599,-6.7646],[107.9891,-6.7193],[107.9793,-6.6735],[107.9715,-6.658],[107.9395,-6.6254]]]},"properties":{"code":"32.11.10","name":"Buahdua","latitude":-6.6865988030196695,"longitude":107.94457527321093}},{"type":"Feature","geometry":{"type":"Polygon","coordinates":[[[107.8055,-6.8215],[107.7829,-6.8446],[107.7868,-6.8912],[107.7995,-6.899],[107.7828,-6.9141],[107.8031,-6.9348],[107.8342,-6.916],[107.8025,-6.86],[107.8055,-6.8215]]]},"properties":{"code":"32.11.11","name":"Tanjungsari","latitude":-6.867818456826341,"longitude":107.79684376821027}},{"type":"Feature","geometry":{"type":"Polygon","coordinates":[[[107.7829,-6.8446],[107.741,-6.8549],[107.7646,-6.8954],[107.7868,-6.8912],[107.7829,-6.8446]]]},"properties":{"code":"32.11.12","name":"Sukasari","latitude":-6.864580465380123,"longitude":107.76697375030712}},{"type":"Feature","geometry":{"type":"Polygon","coordinates":[[[107.8187,-6.8613],[107.8025,-6.86],[107.8342,-6.916],[107.8486,-6.929],[107.8817,-6.8875],[107.8734,-6.8774],[107.8187,-6.8613]]]},"properties":{"code":"32.11.13","name":"Pamulihan","latitude":-6.894254505719282,"longitude":107.84721635808752}},{"type":"Feature","geometry":{"type":"Polygon","coordinates":[[[107.8486,-6.929],[107.8031,-6.9348],[107.7907,-6.9616],[107.8286,-6.9716],[107.8447,-6.9696],[107.8899,-6.9639],[107.903,-6.944],[107.8486,-6.929]]]},"properties":{"code":"32.11.14","name":"Cimanggung","latitude":-6.949068364388619,"longitude":107.85230825805365}},{"type":"Feature","geometry":{"type":"Polygon","coordinates":[[[107.7782,-6.8956],[107.7645,-6.8954],[107.7527,-6.9546],[107.7967,-6.9604],[107.8031,-6.9343],[107.7979,-6.9234],[107.7857,-6.9217],[107.7874,-6.8968],[107.7782,-6.8956]]]},"properties":{"code":"32.11.15","name":"Jatinangor","latitude":-6.931383826490473,"longitude":107.77697413292948}},{"type":"Feature","geometry":{"type":"Polygon","coordinates":[[[107.8945,-6.8313],[107.8755,-6.7899],[107.8171,-6.7976],[107.8019,-6.8109],[107.8055,-6.8215],[107.8187,-6.8613],[107.8945,-6.8313]]]},"properties":{"code":"32.11.16","name":"Rancakalong","latitude":-6.8237378982453585,"longitude":107.84258541921729}},{"type":"Feature","geometry":{"type":"Polygon","coordinates":[[[107.9258,-6.8572],[107.8734,-6.8774],[107.8817,-6.8875],[107.903,-6.944],[107.9781,-6.9412],[107.9714,-6.9047],[107.958,-6.9033],[107.9258,-6.8572]]]},"properties":{"code":"32.11.17","name":"Sumedang Selatan","latitude":-6.901991148255144,"longitude":107.9216165245459}},{"type":"Feature","geometry":{"type":"Polygon","coordinates":[[[107.936,-6.8104],[107.9042,-6.8177],[107.8945,-6.8313],[107.9258,-6.8572],[107.936,-6.8104]]]},"properties":{"code":"32.11.18","name":"Sumedang Utara","latitude":-6.83582687019764,"longitude":107.9087731687621}},{"type":"Feature","geometry":{"type":"Polygon","coordinates":[[[107.9806,-6.8744],[107.9824,-6.8446],[107.958,-6.9033],[107.9714,-6.9047],[107.9904,-6.8868],[107.9806,-6.8744]]]},"properties":{"code":"32.11.19","name":"Ganeas","latitude":-6.870807949863241,"longitude":107.96820881634208}},{"type":"Feature","geometry":{"type":"Polygon","coordinates":[[[107.9141,-6.7213],[107.888,-6.7389],[107.8939,-6.7553],[107.9042,-6.8177],[107.9138,-6.7664],[107.9386,-6.7595],[107.9141,-6.7213]]]},"properties":{"code":"32.11.20","name":"Tanjungkerta","latitude":-6.762338167113467,"longitude":107.90175153847385}},{"type":"Feature","geometry":{"type":"Polygon","coordinates":[[[107.888,-6.7389],[107.839,-6.6976],[107.8325,-6.7166],[107.8367,-6.7767],[107.8171,-6.7976],[107.8939,-6.7553],[107.888,-6.7389]]]},"properties":{"code":"32.11.21","name":"Tanjungmedar","latitude":-6.733019336241582,"longitude":107.86068042545494}},{"type":"Feature","geometry":{"type":"Polygon","coordinates":[[[107.972,-6.771],[107.9138,-6.7664],[107.936,-6.8104],[107.9524,-6.8221],[107.972,-6.771]]]},"properties":{"code":"32.11.22","name":"Cimalaka","latitude":-6.792850038655205,"longitude":107.94402263162988}},{"type":"Feature","geometry":{"type":"Polygon","coordinates":[[[107.9824,-6.8446],[107.9856,-6.8155],[107.9524,-6.8221],[107.9824,-6.8446]]]},"properties":{"code":"32.11.23","name":"Cisarua","latitude":-6.832348482807086,"longitude":107.96837628118075}},{"type":"Feature","geometry":{"type":"Polygon","coordinates":[[[108.1642,-6.7612],[108.1282,-6.758],[108.1064,-6.7506],[108.0773,-6.8004],[108.1446,-6.829],[108.1642,-6.7612]]]},"properties":{"code":"32.11.24","name":"Tomo","latitude":-6.789026809311121,"longitude":108.1175620058539}},{"type":"Feature","geometry":{"type":"Polygon","coordinates":[[[108.0919,-6.6726],[108.0318,-6.6371],[108.0634,-6.7207],[108.0617,-6.7318],[108.1064,-6.7506],[108.1282,-6.758],[108.1177,-6.7064],[108.0919,-6.6726]]]},"properties":{"code":"32.11.25","name":"Ujungjaya","latitude":-6.709341700625749,"longitude":108.09283005725486}},{"type":"Feature","geometry":{"type":"Polygon","coordinates":[[[108.1446,-6.829],[108.0934,-6.832],[108.0991,-6.8487],[108.0909,-6.9218],[108.1555,-6.9333],[108.1781,-6.8973],[108.1984,-6.8707],[108.1885,-6.8531],[108.1776,-6.8322],[108.1446,-6.829]]]},"properties":{"code":"32.11.26","name":"Jatigede","latitude":-6.87217154919212,"longitude":108.13407691847196}}]}