{"type":"FeatureCollection","features":[{"type":"Feature","geometry":{"type":"Polygon","coordinates":[[[107.4712,-6.5522],[107.4468,-6.5154],[107.443,-6.5344],[107.4336,-6.5618],[107.4468,-6.5724],[107.4712,-6.5522]]]},"properties":{"code":"32.14.01","name":"Purwakarta"}},{"type":"Feature","geometry":{"type":"Polygon","coordinates":[[[107.5132,-6.4902],[107.4936,-6.4494],[107.4888,-6.4916],[107.5266,-6.5344],[107.5132,-6.4902]]]},"properties":{"code":"32.14.02","name":"Campaka"}},{"type":"Feature","geometry":{"type":"Polygon","coordinates":[[[107.4336,-6.5618],[107.3888,-6.5248],[107.3692,-6.5364],[107.3956,-6.5542],[107.4334,-6.6066],[107.4336,-6.5618]]]},"properties":{"code":"32.14.03","name":"Jatiluhur"}},{"type":"Feature","geometry":{"type":"Polygon","coordinates":[[[107.4026,-6.6214],[107.3644,-6.6576],[107.3598,-6.6808],[107.3706,-6.6744],[107.4114,-6.6768],[107.3966,-6.6496],[107.4026,-6.6214]]]},"properties":{"code":"32.14.04","name":"Plered"}},{"type":"Feature","geometry":{"type":"Polygon","coordinates":[[[107.3956,-6.5542],[107.3478,-6.5268],[107.2998,-6.5534],[107.3568,-6.5794],[107.3686,-6.6016],[107.4026,-6.6214],[107.4268,-6.6504],[107.4244,-6.6596],[107.4578,-6.6544],[107.4334,-6.6066],[107.3956,-6.5542]]]},"properties":{"code":"32.14.05","name":"Sukatani"}},{"type":"Feature","geometry":{"type":"Polygon","coordinates":[[[107.4268,-6.6504],[107.3966,-6.6496],[107.4114,-6.6768],[107.3706,-6.6744],[107.4252,-6.7],[107.4872,-6.7354],[107.5126,-6.7544],[107.5408,-6.7646],[107.4706,-6.6754],[107.4702,-6.6594],[107.4244,-6.6596],[107.4268,-6.6504]]]},"properties":{"code":"32.14.06","name":"Darangdan"}},{"type":"Feature","geometry":{"type":"Polygon","coordinates":[[[107.292,-6.647],[107.2514,-6.694],[107.3022,-6.7284],[107.3236,-6.7226],[107.342,-6.6952],[107.2976,-6.6494],[107.292,-6.647]]]},"properties":{"code":"32.14.07","name":"Maniis"}},{"type":"Feature","geometry":{"type":"Polygon","coordinates":[[[107.3568,-6.5794],[107.2964,-6.6072],[107.302,-6.6152],[107.2976,-6.6494],[107.3598,-6.6808],[107.3644,-6.6576],[107.3686,-6.6016],[107.3568,-6.5794]]]},"properties":{"code":"32.14.08","name":"Tegalwaru"}},{"type":"Feature","geometry":{"type":"Polygon","coordinates":[[[107.5334,-6.6418],[107.519,-6.6416],[107.5102,-6.6488],[107.5354,-6.7024],[107.571,-6.7366],[107.5812,-6.6938],[107.5334,-6.6418]]]},"properties":{"code":"32.14.09","name":"Wanayasa"}},{"type":"Feature","geometry":{"type":"Polygon","coordinates":[[[107.4468,-6.5724],[107.4532,-6.606],[107.5156,-6.5734],[107.4712,-6.5522],[107.4468,-6.5724]]]},"properties":{"code":"32.14.10","name":"Pasawahan"}},{"type":"Feature","geometry":{"type":"Polygon","coordinates":[[[107.5,-6.6436],[107.4706,-6.6754],[107.5408,-6.7646],[107.5614,-6.7732],[107.571,-6.7366],[107.5354,-6.7024],[107.5044,-6.6686],[107.5,-6.6436]]]},"properties":{"code":"32.14.11","name":"Bojong"}},{"type":"Feature","geometry":{"type":"Polygon","coordinates":[[[107.457,-6.4744],[107.372,-6.4726],[107.443,-6.5344],[107.4468,-6.5154],[107.457,-6.4744]]]},"properties":{"code":"32.14.12","name":"Babakancikao"}},{"type":"Feature","geometry":{"type":"Polygon","coordinates":[[[107.4936,-6.4494],[107.445,-6.4386],[107.457,-6.4744],[107.4888,-6.4916],[107.4936,-6.4494]]]},"properties":{"code":"32.14.13","name":"Bungursari"}},{"type":"Feature","geometry":{"type":"Polygon","coordinates":[[[107.5654,-6.4872],[107.5132,-6.4902],[107.5266,-6.5344],[107.5646,-6.5676],[107.5548,-6.5174],[107.5654,-6.4872]]]},"properties":{"code":"32.14.14","name":"Cibatu"}},{"type":"Feature","geometry":{"type":"Polygon","coordinates":[[[107.3888,-6.5248],[107.3438,-6.4802],[107.2892,-6.5018],[107.25,-6.573],[107.292,-6.647],[107.302,-6.6152],[107.2964,-6.6072],[107.2998,-6.5534],[107.3478,-6.5268],[107.3692,-6.5364],[107.3888,-6.5248]]]},"properties":{"code":"32.14.15","name":"Sukasari"}},{"type":"Feature","geometry":{"type":"Polygon","coordinates":[[[107.519,-6.6416],[107.508,-6.6154],[107.5288,-6.581],[107.5212,-6.5704],[107.498,-6.588],[107.4592,-6.5982],[107.4632,-6.6212],[107.4578,-6.6544],[107.4702,-6.6594],[107.5,-6.6436],[107.5044,-6.6686],[107.5102,-6.6488],[107.519,-6.6416]]]},"properties":{"code":"32.14.16","name":"Pondoksalam"}},{"type":"Feature","geometry":{"type":"Polygon","coordinates":[[[107.5842,-6.5846],[107.5334,-6.6418],[107.5812,-6.6938],[107.5842,-6.6896],[107.599,-6.6532],[107.5904,-6.5998],[107.5842,-6.5846]]]},"properties":{"code":"32.14.17","name":"Kiarapedes"}}]}