{"type":"FeatureCollection","features":[{"type":"Feature","geometry":{"type":"Polygon","coordinates":[[[107.0276,-6.0796],[106.9706,-6.0884],[106.973,-6.175],[107.0326,-6.1188],[107.0276,-6.0796]]]},"properties":{"code":"32.16.01","name":"Tarumajaya"}},{"type":"Feature","geometry":{"type":"Polygon","coordinates":[[[107.0486,-6.1406],[107.0434,-6.0632],[107.0276,-6.0796],[107.0326,-6.1188],[107.0338,-6.1988],[107.0436,-6.1996],[107.0486,-6.1406]]]},"properties":{"code":"32.16.02","name":"Babelan"}},{"type":"Feature","geometry":{"type":"Polygon","coordinates":[[[107.1048,-6.0972],[107.0486,-6.1406],[107.0466,-6.1598],[107.1132,-6.1594],[107.115,-6.1432],[107.128,-6.1456],[107.1196,-6.137],[107.1338,-6.1188],[107.1076,-6.0882],[107.1048,-6.0972]]]},"properties":{"code":"32.16.03","name":"Sukawangi"}},{"type":"Feature","geometry":{"type":"Polygon","coordinates":[[[107.1576,-6.1692],[107.1196,-6.137],[107.128,-6.1456],[107.115,-6.1432],[107.1132,-6.1594],[107.1036,-6.1828],[107.133,-6.1666],[107.1576,-6.1692]]]},"properties":{"code":"32.16.04","name":"Tambelang"}},{"type":"Feature","geometry":{"type":"Polygon","coordinates":[[[107.0626,-6.2184],[107.0672,-6.2218],[107.0946,-6.1588],[107.067,-6.1576],[107.0466,-6.1598],[107.0436,-6.1996],[107.0504,-6.2244],[107.0626,-6.2184]]]},"properties":{"code":"32.16.05","name":"Tambun Utara"}},{"type":"Feature","geometry":{"type":"Polygon","coordinates":[[[107.0908,-6.23],[107.079,-6.1966],[107.065,-6.2434],[107.0626,-6.2184],[107.0504,-6.2244],[107.0424,-6.2338],[107.0414,-6.2462],[107.0402,-6.2876],[107.0544,-6.3064],[107.0598,-6.2806],[107.0732,-6.2614],[107.0908,-6.23]]]},"properties":{"code":"32.16.06","name":"Tambun Selatan"}},{"type":"Feature","geometry":{"type":"Polygon","coordinates":[[[107.1036,-6.1828],[107.0908,-6.23],[107.0732,-6.2614],[107.0598,-6.2806],[107.0544,-6.3064],[107.0696,-6.3064],[107.116,-6.2458],[107.1506,-6.2344],[107.1036,-6.1828]]]},"properties":{"code":"32.16.07","name":"Cibitung"}},{"type":"Feature","geometry":{"type":"Polygon","coordinates":[[[107.137,-6.268],[107.116,-6.2458],[107.0696,-6.3064],[107.0588,-6.3436],[107.0676,-6.3344],[107.0666,-6.3414],[107.1024,-6.333],[107.1192,-6.29],[107.137,-6.268]]]},"properties":{"code":"32.16.08","name":"Cikarang Barat"}},{"type":"Feature","geometry":{"type":"Polygon","coordinates":[[[107.1982,-6.248],[107.1536,-6.2446],[107.137,-6.268],[107.1192,-6.29],[107.1344,-6.3116],[107.1724,-6.287],[107.1856,-6.269],[107.1982,-6.248]]]},"properties":{"code":"32.16.09","name":"Cikarang Utara"}},{"type":"Feature","geometry":{"type":"Polygon","coordinates":[[[107.2376,-6.2258],[107.1778,-6.1726],[107.1558,-6.2246],[107.1982,-6.248],[107.2018,-6.2316],[107.2376,-6.2258]]]},"properties":{"code":"32.16.10","name":"Karang Bahagia"}},{"type":"Feature","geometry":{"type":"Polygon","coordinates":[[[107.2116,-6.2652],[107.2018,-6.2316],[107.1964,-6.2654],[107.1856,-6.269],[107.1724,-6.287],[107.224,-6.3164],[107.2364,-6.2966],[107.2462,-6.2668],[107.2116,-6.2652]]]},"properties":{"code":"32.16.11","name":"Cikarang Timur"}},{"type":"Feature","geometry":{"type":"Polygon","coordinates":[[[107.2462,-6.2668],[107.2376,-6.2258],[107.2116,-6.2652],[107.2462,-6.2668]]]},"properties":{"code":"32.16.12","name":"Kedung Waringin"}},{"type":"Feature","geometry":{"type":"Polygon","coordinates":[[[107.2216,-6.1038],[107.1956,-6.0914],[107.19,-6.114],[107.2056,-6.1212],[107.2288,-6.2026],[107.291,-6.217],[107.2812,-6.1276],[107.2706,-6.1296],[107.2654,-6.1114],[107.2486,-6.116],[107.2468,-6.101],[107.2216,-6.1038]]]},"properties":{"code":"32.16.13","name":"Pebayuran"}},{"type":"Feature","geometry":{"type":"Polygon","coordinates":[[[107.2056,-6.1212],[107.1338,-6.1188],[107.187,-6.1458],[107.184,-6.1762],[107.2288,-6.2026],[107.2056,-6.1212]]]},"properties":{"code":"32.16.14","name":"Sukakarya"}},{"type":"Feature","geometry":{"type":"Polygon","coordinates":[[[107.187,-6.1458],[107.1576,-6.1692],[107.133,-6.1666],[107.1506,-6.2344],[107.1558,-6.2246],[107.1778,-6.1726],[107.184,-6.1762],[107.187,-6.1458]]]},"properties":{"code":"32.16.15","name":"Sukatani"}},{"type":"Feature","geometry":{"type":"Polygon","coordinates":[[[107.1126,-6.0354],[107.0956,-6.0414],[107.0856,-6.048],[107.1048,-6.0972],[107.1076,-6.0882],[107.19,-6.114],[107.1956,-6.0914],[107.1406,-6.0572],[107.1266,-6.0544],[107.1126,-6.0354]]]},"properties":{"code":"32.16.16","name":"Cabangbungin"}},{"type":"Feature","geometry":{"type":"Polygon","coordinates":[[[107.1016,-6.0162],[107.0744,-5.9686],[107.0162,-5.9586],[106.995,-6.0282],[107.0434,-6.0632],[107.0856,-6.048],[107.0956,-6.0414],[107.1126,-6.0354],[107.1114,-6.0288],[107.1016,-6.0162]]]},"properties":{"code":"32.16.17","name":"Muaragembong"}},{"type":"Feature","geometry":{"type":"Polygon","coordinates":[[[107.0588,-6.3436],[107.0164,-6.3578],[107.002,-6.3538],[107.0086,-6.4016],[107.02,-6.4004],[107.0514,-6.3944],[107.0714,-6.396],[107.0666,-6.3414],[107.0676,-6.3344],[107.0588,-6.3436]]]},"properties":{"code":"32.16.18","name":"Setu"}},{"type":"Feature","geometry":{"type":"Polygon","coordinates":[[[107.1566,-6.3168],[107.1344,-6.3116],[107.1024,-6.333],[107.1436,-6.349],[107.149,-6.357],[107.1566,-6.3168]]]},"properties":{"code":"32.16.19","name":"Cikarang Selatan"}},{"type":"Feature","geometry":{"type":"Polygon","coordinates":[[[107.2266,-6.3492],[107.1566,-6.3168],[107.149,-6.357],[107.1436,-6.349],[107.1282,-6.3744],[107.1714,-6.3918],[107.2208,-6.3922],[107.2266,-6.3492]]]},"properties":{"code":"32.16.20","name":"Cikarang Pusat"}},{"type":"Feature","geometry":{"type":"Polygon","coordinates":[[[107.1282,-6.3744],[107.0714,-6.396],[107.0776,-6.4222],[107.1018,-6.4072],[107.13,-6.4292],[107.1714,-6.3918],[107.1282,-6.3744]]]},"properties":{"code":"32.16.21","name":"Serang Baru"}},{"type":"Feature","geometry":{"type":"Polygon","coordinates":[[[107.13,-6.4292],[107.1018,-6.4072],[107.0776,-6.4222],[107.1202,-6.4556],[107.1716,-6.4506],[107.13,-6.4292]]]},"properties":{"code":"32.16.22","name":"Cibarusah"}},{"type":"Feature","geometry":{"type":"Polygon","coordinates":[[[107.2208,-6.3922],[107.1716,-6.4506],[107.1202,-6.4556],[107.1322,-6.4636],[107.2054,-6.452],[107.1962,-6.423],[107.2208,-6.3922]]]},"properties":{"code":"32.16.23","name":"Bojongmangu"}}]}