{"type":"FeatureCollection","features":[{"type":"Feature","geometry":{"type":"Polygon","coordinates":[[[107.6276,-6.7738],[107.5897,-6.8047],[107.5984,-6.8144],[107.6045,-6.8594],[107.616,-6.8471],[107.6893,-6.8354],[107.7034,-6.8403],[107.7076,-6.7929],[107.6276,-6.7738]]]},"properties":{"code":"32.17.01","name":"Lembang","latitude":-6.810074183854903,"longitude":107.65078991928914}},{"type":"Feature","geometry":{"type":"Polygon","coordinates":[[[107.5897,-6.8047],[107.6042,-6.7492],[107.5715,-6.7554],[107.5828,-6.7856],[107.5618,-6.873],[107.5984,-6.8144],[107.5897,-6.8047]]]},"properties":{"code":"32.17.02","name":"Parongpong","latitude":-6.80503056241864,"longitude":107.58379730974391}},{"type":"Feature","geometry":{"type":"Polygon","coordinates":[[[107.5715,-6.7554],[107.5614,-6.7732],[107.483,-6.7875],[107.4764,-6.7961],[107.5244,-6.8207],[107.5385,-6.8292],[107.5473,-6.8193],[107.5494,-6.8385],[107.5556,-6.8403],[107.5515,-6.8473],[107.5626,-6.8558],[107.5828,-6.7856],[107.5715,-6.7554]]]},"properties":{"code":"32.17.03","name":"Cisarua","latitude":-6.794605503063964,"longitude":107.54418389561292}},{"type":"Feature","geometry":{"type":"Polygon","coordinates":[[[107.4251,-6.7],[107.3766,-6.7149],[107.3933,-6.7196],[107.428,-6.7695],[107.483,-6.7875],[107.5126,-6.7544],[107.4873,-6.7354],[107.4251,-6.7]]]},"properties":{"code":"32.17.04","name":"Cikalongwetan","latitude":-6.743085933067611,"longitude":107.44480542320468}},{"type":"Feature","geometry":{"type":"Polygon","coordinates":[[[107.3766,-6.7149],[107.3421,-6.6951],[107.3237,-6.7226],[107.2909,-6.7356],[107.2912,-6.7884],[107.3314,-6.795],[107.3867,-6.8008],[107.4048,-6.7822],[107.3933,-6.7196],[107.3766,-6.7149]]]},"properties":{"code":"32.17.05","name":"Cipeundeuy","latitude":-6.755103553141781,"longitude":107.34413265807311}},{"type":"Feature","geometry":{"type":"Polygon","coordinates":[[[107.5244,-6.8207],[107.4918,-6.8147],[107.476,-6.8175],[107.4799,-6.8376],[107.4936,-6.881],[107.5385,-6.8292],[107.5244,-6.8207]]]},"properties":{"code":"32.17.06","name":"Ngamprah","latitude":-6.835695930794277,"longitude":107.51133287220021}},{"type":"Feature","geometry":{"type":"Polygon","coordinates":[[[107.4534,-6.8317],[107.428,-6.7695],[107.4048,-6.7822],[107.3867,-6.8008],[107.3314,-6.795],[107.3243,-6.8518],[107.3501,-6.8554],[107.3523,-6.8816],[107.3787,-6.8692],[107.4393,-6.8466],[107.4534,-6.8317]]]},"properties":{"code":"32.17.07","name":"Cipatat","latitude":-6.828049151846604,"longitude":107.38877316419605}},{"type":"Feature","geometry":{"type":"Polygon","coordinates":[[[107.4764,-6.7961],[107.4534,-6.8317],[107.4393,-6.8466],[107.4536,-6.8869],[107.5119,-6.8894],[107.4936,-6.881],[107.4799,-6.8376],[107.476,-6.8175],[107.4918,-6.8147],[107.4764,-6.7961]]]},"properties":{"code":"32.17.08","name":"Padalarang","latitude":-6.842280321236598,"longitude":107.4748681766158}},{"type":"Feature","geometry":{"type":"Polygon","coordinates":[[[107.5119,-6.8894],[107.441,-6.8894],[107.4809,-6.9156],[107.5108,-6.9379],[107.5119,-6.8894]]]},"properties":{"code":"32.17.09","name":"Batujajar","latitude":-6.906750955674475,"longitude":107.48549050894968}},{"type":"Feature","geometry":{"type":"Polygon","coordinates":[[[107.4809,-6.9156],[107.4116,-6.9077],[107.4163,-6.9325],[107.4421,-6.9284],[107.4675,-6.9583],[107.4818,-6.9606],[107.5038,-6.9828],[107.5108,-6.9379],[107.4809,-6.9156]]]},"properties":{"code":"32.17.10","name":"Cihampelas","latitude":-6.936004002663356,"longitude":107.47140038726067}},{"type":"Feature","geometry":{"type":"Polygon","coordinates":[[[107.4163,-6.9325],[107.3952,-6.9107],[107.3716,-6.9245],[107.4115,-6.9484],[107.4261,-6.9852],[107.4498,-7.021],[107.4565,-7.0519],[107.4817,-7.0225],[107.4865,-7],[107.4818,-6.9606],[107.4675,-6.9583],[107.4421,-6.9284],[107.4163,-6.9325]]]},"properties":{"code":"32.17.11","name":"Cililin","latitude":-6.975453755529759,"longitude":107.44585349690017}},{"type":"Feature","geometry":{"type":"Polygon","coordinates":[[[107.3889,-6.9185],[107.3821,-6.9153],[107.3751,-6.9173],[107.3678,-6.9132],[107.3423,-6.8869],[107.3232,-6.8879],[107.3155,-6.9767],[107.3559,-6.9955],[107.3761,-6.994],[107.3916,-6.9642],[107.4115,-6.9484],[107.3716,-6.9245],[107.3889,-6.9185]]]},"properties":{"code":"32.17.12","name":"Cipongkor","latitude":-6.943930522475831,"longitude":107.35280264039831}},{"type":"Feature","geometry":{"type":"Polygon","coordinates":[[[107.3155,-6.9767],[107.2784,-6.9255],[107.1902,-6.9681],[107.1846,-6.996],[107.2107,-7.0217],[107.2312,-7.0084],[107.2567,-7.0046],[107.2924,-7.0179],[107.3155,-6.9767]]]},"properties":{"code":"32.17.13","name":"Rongga","latitude":-6.96966448624227,"longitude":107.25571924696419}},{"type":"Feature","geometry":{"type":"Polygon","coordinates":[[[107.4261,-6.9852],[107.3916,-6.9642],[107.3761,-6.994],[107.3588,-7.0242],[107.3707,-7.1035],[107.3762,-7.0922],[107.3962,-7.0922],[107.4221,-7.0752],[107.4565,-7.0519],[107.4498,-7.021],[107.4261,-6.9852]]]},"properties":{"code":"32.17.14","name":"Sindangkerta","latitude":-7.0328877278708894,"longitude":107.40080213905188}},{"type":"Feature","geometry":{"type":"Polygon","coordinates":[[[107.3559,-6.9955],[107.2924,-7.0179],[107.2567,-7.0046],[107.2312,-7.0084],[107.2107,-7.0217],[107.182,-7.0583],[107.2522,-7.0483],[107.2856,-7.0852],[107.3371,-7.0958],[107.359,-7.0903],[107.3588,-7.0242],[107.3559,-6.9955]]]},"properties":{"code":"32.17.15","name":"Gununghalu","latitude":-7.03891097862172,"longitude":107.29868697897898}},{"type":"Feature","geometry":{"type":"Polygon","coordinates":[[[107.4536,-6.8869],[107.3787,-6.8692],[107.3523,-6.8816],[107.3452,-6.891],[107.3748,-6.9172],[107.3889,-6.9185],[107.3952,-6.9107],[107.4116,-6.9077],[107.441,-6.8894],[107.4536,-6.8869]]]},"properties":{"code":"32.17.16","name":"Saguling","latitude":-6.888031169291407,"longitude":107.40423136124596}}]}