{"type":"FeatureCollection","features":[{"type":"Feature","geometry":{"type":"Polygon","coordinates":[[[107.5934,-6.8704],[107.598,-6.837],[107.5718,-6.8838],[107.5934,-6.8704]]]},"properties":{"code":"32.73.01","name":"Sukasari"}},{"type":"Feature","geometry":{"type":"Polygon","coordinates":[[[107.621,-6.8802],[107.612,-6.8684],[107.601,-6.8828],[107.6022,-6.9002],[107.6308,-6.8922],[107.621,-6.8802]]]},"properties":{"code":"32.73.02","name":"Coblong"}},{"type":"Feature","geometry":{"type":"Polygon","coordinates":[[[107.5864,-6.9196],[107.5812,-6.918],[107.566,-6.9468],[107.5884,-6.9626],[107.5828,-6.9392],[107.5864,-6.9196]]]},"properties":{"code":"32.73.03","name":"Babakan Ciparay"}},{"type":"Feature","geometry":{"type":"Polygon","coordinates":[[[107.593,-6.9194],[107.5854,-6.9206],[107.5844,-6.9458],[107.5954,-6.9362],[107.593,-6.9194]]]},"properties":{"code":"32.73.04","name":"Bojongloa Kaler"}},{"type":"Feature","geometry":{"type":"Polygon","coordinates":[[[107.5864,-6.913],[107.5598,-6.8952],[107.5738,-6.917],[107.6042,-6.9208],[107.6046,-6.9146],[107.5864,-6.913]]]},"properties":{"code":"32.73.05","name":"Andir"}},{"type":"Feature","geometry":{"type":"Polygon","coordinates":[[[107.6022,-6.9002],[107.5598,-6.8952],[107.5864,-6.913],[107.6046,-6.9146],[107.6022,-6.9002]]]},"properties":{"code":"32.73.06","name":"Cicendo"}},{"type":"Feature","geometry":{"type":"Polygon","coordinates":[[[107.601,-6.8828],[107.5904,-6.8784],[107.5722,-6.8862],[107.6022,-6.9002],[107.601,-6.8828]]]},"properties":{"code":"32.73.07","name":"Sukajadi"}},{"type":"Feature","geometry":{"type":"Polygon","coordinates":[[[107.6046,-6.8594],[107.5934,-6.8704],[107.612,-6.8684],[107.616,-6.8472],[107.6046,-6.8594]]]},"properties":{"code":"32.73.08","name":"Cidadap"}},{"type":"Feature","geometry":{"type":"Polygon","coordinates":[[[107.6344,-6.9134],[107.6264,-6.9012],[107.6066,-6.8956],[107.6044,-6.9072],[107.6344,-6.9134]]]},"properties":{"code":"32.73.09","name":"Bandung Wetan"}},{"type":"Feature","geometry":{"type":"Polygon","coordinates":[[[107.6042,-6.9208],[107.5938,-6.9196],[107.5994,-6.9402],[107.6122,-6.9576],[107.6042,-6.9208]]]},"properties":{"code":"32.73.10","name":"Astanaanyar"}},{"type":"Feature","geometry":{"type":"Polygon","coordinates":[[[107.6076,-6.9212],[107.603,-6.9372],[107.6124,-6.9574],[107.6206,-6.9584],[107.6204,-6.9372],[107.6076,-6.9212]]]},"properties":{"code":"32.73.11","name":"Regol"}},{"type":"Feature","geometry":{"type":"Polygon","coordinates":[[[107.6366,-6.928],[107.636,-6.9472],[107.6424,-6.9376],[107.6432,-6.9088],[107.6242,-6.9188],[107.6366,-6.928]]]},"properties":{"code":"32.73.12","name":"Batununggal"}},{"type":"Feature","geometry":{"type":"Polygon","coordinates":[[[107.6366,-6.928],[107.6246,-6.9224],[107.6086,-6.9224],[107.6218,-6.9492],[107.6366,-6.928]]]},"properties":{"code":"32.73.13","name":"Lengkong"}},{"type":"Feature","geometry":{"type":"Polygon","coordinates":[[[107.6576,-6.9022],[107.6544,-6.8948],[107.6344,-6.9134],[107.6576,-6.9022]]]},"properties":{"code":"32.73.14","name":"Cibeunying Kidul"}},{"type":"Feature","geometry":{"type":"Polygon","coordinates":[[[107.5456,-6.9268],[107.567,-6.9534],[107.5814,-6.9236],[107.5694,-6.911],[107.5642,-6.9328],[107.5456,-6.9268]]]},"properties":{"code":"32.73.15","name":"Bandung Kulon"}},{"type":"Feature","geometry":{"type":"Polygon","coordinates":[[[107.6588,-6.937],[107.6516,-6.9076],[107.6596,-6.9022],[107.6432,-6.9088],[107.6418,-6.9454],[107.6588,-6.937]]]},"properties":{"code":"32.73.16","name":"Kiaracondong"}},{"type":"Feature","geometry":{"type":"Polygon","coordinates":[[[107.6026,-6.9448],[107.5884,-6.9626],[107.6086,-6.9612],[107.6026,-6.9448]]]},"properties":{"code":"32.73.17","name":"Bojongloa Kidul"}},{"type":"Feature","geometry":{"type":"Polygon","coordinates":[[[107.6308,-6.8922],[107.6194,-6.9012],[107.63,-6.9068],[107.6436,-6.8952],[107.621,-6.8802],[107.6308,-6.8922]]]},"properties":{"code":"32.73.18","name":"Cibeunying Kaler"}},{"type":"Feature","geometry":{"type":"Polygon","coordinates":[[[107.6042,-6.9208],[107.63,-6.9158],[107.626,-6.9102],[107.6044,-6.9072],[107.6042,-6.9208]]]},"properties":{"code":"32.73.19","name":"Sumur Bandung"}},{"type":"Feature","geometry":{"type":"Polygon","coordinates":[[[107.6624,-6.9036],[107.652,-6.9066],[107.6524,-6.9178],[107.6668,-6.9324],[107.669,-6.9096],[107.6624,-6.9036]]]},"properties":{"code":"32.73.20","name":"Antapani"}},{"type":"Feature","geometry":{"type":"Polygon","coordinates":[[[107.65,-6.9644],[107.6398,-6.9494],[107.6218,-6.9492],[107.65,-6.9644]]]},"properties":{"code":"32.73.21","name":"Bandung Kidul"}},{"type":"Feature","geometry":{"type":"Polygon","coordinates":[[[107.6612,-6.9528],[107.6588,-6.937],[107.65,-6.9644],[107.6612,-6.9528]]]},"properties":{"code":"32.73.22","name":"Buahbatu"}},{"type":"Feature","geometry":{"type":"Polygon","coordinates":[[[107.6864,-6.9688],[107.6796,-6.938],[107.6612,-6.9528],[107.6726,-6.9596],[107.6596,-6.959],[107.6606,-6.9662],[107.6864,-6.9688]]]},"properties":{"code":"32.73.23","name":"Rancasari"}},{"type":"Feature","geometry":{"type":"Polygon","coordinates":[[[107.6914,-6.9122],[107.6694,-6.9042],[107.667,-6.9334],[107.6846,-6.9376],[107.6914,-6.9122]]]},"properties":{"code":"32.73.24","name":"Arcamanik"}},{"type":"Feature","geometry":{"type":"Polygon","coordinates":[[[107.709,-6.9206],[107.7178,-6.9392],[107.7396,-6.9022],[107.709,-6.9206]]]},"properties":{"code":"32.73.25","name":"Cibiru"}},{"type":"Feature","geometry":{"type":"Polygon","coordinates":[[[107.709,-6.9206],[107.7046,-6.8916],[107.704,-6.9076],[107.6868,-6.8966],[107.6864,-6.9066],[107.709,-6.9206]]]},"properties":{"code":"32.73.26","name":"Ujungberung"}},{"type":"Feature","geometry":{"type":"Polygon","coordinates":[[[107.716,-6.9614],[107.6998,-6.9444],[107.6796,-6.938],[107.6864,-6.9688],[107.716,-6.9614]]]},"properties":{"code":"32.73.27","name":"Gedebage"}},{"type":"Feature","geometry":{"type":"Polygon","coordinates":[[[107.7072,-6.9184],[107.6984,-6.9196],[107.693,-6.933],[107.7066,-6.936],[107.7058,-6.9466],[107.7134,-6.9494],[107.7176,-6.9354],[107.7072,-6.9184]]]},"properties":{"code":"32.73.28","name":"Panyileukan"}},{"type":"Feature","geometry":{"type":"Polygon","coordinates":[[[107.6998,-6.9444],[107.693,-6.9328],[107.703,-6.9166],[107.6914,-6.9122],[107.683,-6.9374],[107.6998,-6.9444]]]},"properties":{"code":"32.73.29","name":"Cinambo"}},{"type":"Feature","geometry":{"type":"Polygon","coordinates":[[[107.6576,-6.9022],[107.6872,-6.9078],[107.6842,-6.893],[107.6694,-6.888],[107.6616,-6.8888],[107.6576,-6.9022]]]},"properties":{"code":"32.73.30","name":"Mandalajati"}}]}