{"type":"FeatureCollection","features":[{"type":"Feature","geometry":{"type":"Polygon","coordinates":[[[106.8332,-6.3894],[106.8026,-6.3904],[106.7972,-6.379],[106.766,-6.3864],[106.7842,-6.415],[106.8334,-6.4056],[106.8332,-6.3894]]]},"properties":{"code":"32.76.01","name":"Pancoran Mas"}},{"type":"Feature","geometry":{"type":"Polygon","coordinates":[[[106.849,-6.337],[106.8418,-6.3368],[106.8354,-6.344],[106.837,-6.3698],[106.8622,-6.3724],[106.9036,-6.3886],[106.8622,-6.3572],[106.849,-6.337]]]},"properties":{"code":"32.76.02","name":"Cimanggis"}},{"type":"Feature","geometry":{"type":"Polygon","coordinates":[[[106.748,-6.361],[106.7456,-6.4292],[106.755,-6.4306],[106.7888,-6.4394],[106.7846,-6.41],[106.7622,-6.3842],[106.771,-6.3636],[106.748,-6.361]]]},"properties":{"code":"32.76.03","name":"Sawangan"}},{"type":"Feature","geometry":{"type":"Polygon","coordinates":[[[106.79,-6.3466],[106.7702,-6.3522],[106.7624,-6.3844],[106.7968,-6.382],[106.79,-6.3466]]]},"properties":{"code":"32.76.04","name":"Limo"}},{"type":"Feature","geometry":{"type":"Polygon","coordinates":[[[106.8452,-6.4234],[106.8668,-6.379],[106.8604,-6.3728],[106.8418,-6.3726],[106.8316,-6.3826],[106.8346,-6.4038],[106.8194,-6.4064],[106.8196,-6.4208],[106.8452,-6.4234]]]},"properties":{"code":"32.76.05","name":"Sukmajaya"}},{"type":"Feature","geometry":{"type":"Polygon","coordinates":[[[106.8332,-6.3894],[106.842,-6.373],[106.8376,-6.355],[106.7946,-6.3646],[106.8024,-6.3902],[106.8332,-6.3894]]]},"properties":{"code":"32.76.06","name":"Beji"}},{"type":"Feature","geometry":{"type":"Polygon","coordinates":[[[106.7944,-6.4512],[106.8148,-6.4482],[106.8122,-6.4338],[106.8164,-6.413],[106.7844,-6.4162],[106.7944,-6.4512]]]},"properties":{"code":"32.76.07","name":"Cipayung"}},{"type":"Feature","geometry":{"type":"Polygon","coordinates":[[[106.8452,-6.4234],[106.814,-6.4284],[106.8232,-6.4444],[106.8242,-6.4618],[106.8548,-6.434],[106.8452,-6.4234]]]},"properties":{"code":"32.76.08","name":"Cilodong"}},{"type":"Feature","geometry":{"type":"Polygon","coordinates":[[[106.7922,-6.3158],[106.7786,-6.3172],[106.7738,-6.3488],[106.7994,-6.343],[106.8092,-6.3148],[106.7922,-6.3158]]]},"properties":{"code":"32.76.09","name":"Cinere"}},{"type":"Feature","geometry":{"type":"Polygon","coordinates":[[[106.9036,-6.3886],[106.8754,-6.3854],[106.8616,-6.4016],[106.8554,-6.4556],[106.882,-6.4566],[106.8918,-6.4274],[106.8994,-6.3984],[106.9036,-6.3886]]]},"properties":{"code":"32.76.10","name":"Tapos"}},{"type":"Feature","geometry":{"type":"Polygon","coordinates":[[[106.748,-6.361],[106.7216,-6.3604],[106.717,-6.3696],[106.7372,-6.419],[106.7384,-6.4388],[106.755,-6.4306],[106.7456,-6.4292],[106.748,-6.361]]]},"properties":{"code":"32.76.11","name":"Bojongsari"}}]}