{"type":"FeatureCollection","features":[{"type":"Feature","geometry":{"type":"Polygon","coordinates":[[[109.4119,-7.6616],[109.3939,-7.6964],[109.3859,-7.7149],[109.3875,-7.7554],[109.4529,-7.7439],[109.448,-7.6839],[109.4572,-7.679],[109.4119,-7.6616]]]},"properties":{"code":"33.05.01","name":"Ayah","latitude":-7.712129819913146,"longitude":109.4183657892085}},{"type":"Feature","geometry":{"type":"Polygon","coordinates":[[[109.4899,-7.6759],[109.467,-7.6062],[109.4461,-7.6553],[109.4635,-7.6593],[109.4664,-7.6674],[109.448,-7.6839],[109.4529,-7.7439],[109.4728,-7.7493],[109.4779,-7.7367],[109.4807,-7.719],[109.4876,-7.6956],[109.495,-7.6896],[109.4954,-7.681],[109.4899,-7.6759]]]},"properties":{"code":"33.05.02","name":"Buayan","latitude":-7.678455256396817,"longitude":109.46969775712951}},{"type":"Feature","geometry":{"type":"Polygon","coordinates":[[[109.5411,-7.7128],[109.5071,-7.6898],[109.5002,-7.7148],[109.4807,-7.719],[109.4779,-7.7367],[109.4728,-7.7493],[109.5629,-7.7471],[109.571,-7.7478],[109.5411,-7.7128]]]},"properties":{"code":"33.05.03","name":"Puring","latitude":-7.73350665484187,"longitude":109.52499646274899}},{"type":"Feature","geometry":{"type":"Polygon","coordinates":[[[109.6122,-7.7549],[109.5824,-7.7087],[109.571,-7.7478],[109.5629,-7.7471],[109.6113,-7.7657],[109.6122,-7.7549]]]},"properties":{"code":"33.05.04","name":"Petanahan","latitude":-7.7345697255636505,"longitude":109.59273611248489}},{"type":"Feature","geometry":{"type":"Polygon","coordinates":[[[109.6434,-7.7886],[109.6589,-7.7332],[109.659,-7.6912],[109.6415,-7.687],[109.6349,-7.6951],[109.6306,-7.6847],[109.6138,-7.6897],[109.6122,-7.7549],[109.6113,-7.7657],[109.6434,-7.7886]]]},"properties":{"code":"33.05.05","name":"Klirong","latitude":-7.73704107899665,"longitude":109.633872406889}},{"type":"Feature","geometry":{"type":"Polygon","coordinates":[[[109.6828,-7.7292],[109.6716,-7.7196],[109.6591,-7.7093],[109.6434,-7.7886],[109.6872,-7.7972],[109.7143,-7.7323],[109.6881,-7.713],[109.6828,-7.7292]]]},"properties":{"code":"33.05.06","name":"Buluspesantren","latitude":-7.754114387061408,"longitude":109.67852906581962}},{"type":"Feature","geometry":{"type":"Polygon","coordinates":[[[109.7726,-7.7604],[109.7447,-7.7305],[109.7324,-7.7184],[109.7143,-7.7323],[109.6872,-7.7972],[109.758,-7.8145],[109.7726,-7.7604]]]},"properties":{"code":"33.05.07","name":"Ambal","latitude":-7.767936861399516,"longitude":109.73708064526849}},{"type":"Feature","geometry":{"type":"Polygon","coordinates":[[[109.8062,-7.7502],[109.8034,-7.7371],[109.7739,-7.7192],[109.7767,-7.7537],[109.7726,-7.7604],[109.758,-7.8145],[109.8236,-7.8312],[109.8329,-7.7972],[109.8195,-7.7957],[109.8127,-7.7726],[109.7847,-7.7564],[109.8062,-7.7502]]]},"properties":{"code":"33.05.08","name":"Mirit","latitude":-7.785047650204243,"longitude":109.79349700016519}},{"type":"Feature","geometry":{"type":"Polygon","coordinates":[[[109.8079,-7.6705],[109.7884,-7.6884],[109.7708,-7.7199],[109.7903,-7.7238],[109.7997,-7.7389],[109.8076,-7.735],[109.8046,-7.7258],[109.8317,-7.7348],[109.8002,-7.7065],[109.8079,-7.6705]]]},"properties":{"code":"33.05.09","name":"Prembun","latitude":-7.703252862536218,"longitude":109.79774522286351}},{"type":"Feature","geometry":{"type":"Polygon","coordinates":[[[109.7884,-7.6884],[109.7463,-7.6866],[109.7324,-7.7184],[109.7447,-7.7305],[109.7884,-7.6884]]]},"properties":{"code":"33.05.10","name":"Kutowinangun","latitude":-7.6991850642891295,"longitude":109.74571092990965}},{"type":"Feature","geometry":{"type":"Polygon","coordinates":[[[109.7414,-7.6022],[109.6939,-7.5965],[109.697,-7.606],[109.6781,-7.6226],[109.6617,-7.6229],[109.6673,-7.6408],[109.6767,-7.6664],[109.7399,-7.6457],[109.7414,-7.6022]]]},"properties":{"code":"33.05.11","name":"Alian","latitude":-7.628914656428289,"longitude":109.70763955314523}},{"type":"Feature","geometry":{"type":"Polygon","coordinates":[[[109.6673,-7.6408],[109.64,-7.6644],[109.6577,-7.6747],[109.6591,-7.7093],[109.6716,-7.7196],[109.6828,-7.7292],[109.6881,-7.713],[109.6767,-7.6664],[109.6673,-7.6408]]]},"properties":{"code":"33.05.12","name":"Kebumen","latitude":-7.682438198595986,"longitude":109.6811153485986}},{"type":"Feature","geometry":{"type":"Polygon","coordinates":[[[109.6642,-7.5987],[109.6246,-7.5719],[109.6388,-7.6053],[109.6362,-7.6549],[109.6255,-7.6796],[109.64,-7.6644],[109.6617,-7.6229],[109.6642,-7.5987]]]},"properties":{"code":"33.05.13","name":"Pejagoan","latitude":-7.627580287218104,"longitude":109.64200691750383}},{"type":"Feature","geometry":{"type":"Polygon","coordinates":[[[109.6388,-7.6053],[109.6079,-7.6218],[109.5857,-7.6449],[109.5849,-7.6632],[109.5929,-7.6612],[109.6255,-7.6796],[109.6362,-7.6549],[109.6388,-7.6053]]]},"properties":{"code":"33.05.14","name":"Sruweng","latitude":-7.642801888451281,"longitude":109.61142254496646}},{"type":"Feature","geometry":{"type":"Polygon","coordinates":[[[109.5632,-7.6486],[109.5372,-7.6494],[109.5411,-7.7128],[109.5824,-7.7087],[109.5929,-7.6612],[109.5849,-7.6632],[109.5632,-7.6486]]]},"properties":{"code":"33.05.15","name":"Adimulyo","latitude":-7.6747314176086014,"longitude":109.55810087327028}},{"type":"Feature","geometry":{"type":"Polygon","coordinates":[[[109.5068,-7.6321],[109.4899,-7.6759],[109.4954,-7.681],[109.495,-7.6896],[109.4876,-7.6956],[109.5002,-7.7148],[109.5071,-7.6898],[109.5372,-7.6494],[109.5317,-7.6187],[109.517,-7.6432],[109.5068,-7.6321]]]},"properties":{"code":"33.05.16","name":"Kuwarasan","latitude":-7.660899548058471,"longitude":109.51136600393875}},{"type":"Feature","geometry":{"type":"Polygon","coordinates":[[[109.4719,-7.5504],[109.4398,-7.5389],[109.4342,-7.5306],[109.433,-7.5495],[109.4154,-7.5697],[109.4464,-7.6209],[109.4119,-7.6616],[109.4572,-7.679],[109.4644,-7.6602],[109.4461,-7.6553],[109.467,-7.6062],[109.4684,-7.5743],[109.4719,-7.5504]]]},"properties":{"code":"33.05.17","name":"Rowokele","latitude":-7.600440372309907,"longitude":109.44503558829865}},{"type":"Feature","geometry":{"type":"Polygon","coordinates":[[[109.5576,-7.5401],[109.4998,-7.5091],[109.4826,-7.5176],[109.4342,-7.5306],[109.4435,-7.5426],[109.4719,-7.5504],[109.4684,-7.5743],[109.5052,-7.6084],[109.5147,-7.5943],[109.5414,-7.5902],[109.5477,-7.5621],[109.5732,-7.5592],[109.5576,-7.5401]]]},"properties":{"code":"33.05.18","name":"Sempor","latitude":-7.5495188133781985,"longitude":109.51101643969271}},{"type":"Feature","geometry":{"type":"Polygon","coordinates":[[[109.5317,-7.6187],[109.5147,-7.5943],[109.5052,-7.6084],[109.5068,-7.6321],[109.517,-7.6432],[109.5317,-7.6187]]]},"properties":{"code":"33.05.19","name":"Gombong","latitude":-7.611484471975269,"longitude":109.5207230009102}},{"type":"Feature","geometry":{"type":"Polygon","coordinates":[[[109.5603,-7.5639],[109.5365,-7.5974],[109.5632,-7.6486],[109.5857,-7.6449],[109.6079,-7.6218],[109.5852,-7.6047],[109.5603,-7.5639]]]},"properties":{"code":"33.05.20","name":"Karanganyar","latitude":-7.611654292147886,"longitude":109.56711125678679}},{"type":"Feature","geometry":{"type":"Polygon","coordinates":[[[109.646,-7.4948],[109.5576,-7.5401],[109.5732,-7.5592],[109.5603,-7.5639],[109.5852,-7.6047],[109.6246,-7.5719],[109.6774,-7.5676],[109.6612,-7.5193],[109.646,-7.4948]]]},"properties":{"code":"33.05.21","name":"Karanggayam","latitude":-7.547618608144345,"longitude":109.61628073144078}},{"type":"Feature","geometry":{"type":"Polygon","coordinates":[[[109.6826,-7.5376],[109.7098,-7.5438],[109.7734,-7.5191],[109.755,-7.4962],[109.7581,-7.4737],[109.7516,-7.4457],[109.6989,-7.4956],[109.685,-7.5168],[109.6826,-7.5376]]]},"properties":{"code":"33.05.22","name":"Sadang","latitude":-7.504551594164232,"longitude":109.72593574545843}},{"type":"Feature","geometry":{"type":"Polygon","coordinates":[[[109.8317,-7.7348],[109.8062,-7.7502],[109.7847,-7.7564],[109.8127,-7.7726],[109.8195,-7.7957],[109.8329,-7.7972],[109.8212,-7.7896],[109.8233,-7.7768],[109.8317,-7.7348]]]},"properties":{"code":"33.05.23","name":"Bonorowo","latitude":-7.75750501953807,"longitude":109.81596337469433}},{"type":"Feature","geometry":{"type":"Polygon","coordinates":[[[109.8147,-7.6313],[109.7667,-7.6045],[109.7716,-7.6649],[109.8147,-7.6313]]]},"properties":{"code":"33.05.24","name":"Padureso","latitude":-7.632437820905508,"longitude":109.78762441351006}},{"type":"Feature","geometry":{"type":"Polygon","coordinates":[[[109.7716,-7.6649],[109.7399,-7.6457],[109.7463,-7.6866],[109.7716,-7.6649]]]},"properties":{"code":"33.05.25","name":"Poncowarno","latitude":-7.65796001487718,"longitude":109.74897577645956}},{"type":"Feature","geometry":{"type":"Polygon","coordinates":[[[109.685,-7.5168],[109.6612,-7.5193],[109.6774,-7.5676],[109.6642,-7.5987],[109.6617,-7.6229],[109.6781,-7.6226],[109.697,-7.606],[109.6939,-7.5965],[109.7414,-7.6022],[109.7532,-7.6092],[109.759,-7.5987],[109.7384,-7.5607],[109.7305,-7.5598],[109.7386,-7.5523],[109.7381,-7.5354],[109.7093,-7.5439],[109.6826,-7.5376],[109.685,-7.5168]]]},"properties":{"code":"33.05.26","name":"Karangsambung","latitude":-7.572285661804197,"longitude":109.70170945422187}}]}