{"type":"FeatureCollection","features":[{"type":"Feature","geometry":{"type":"Polygon","coordinates":[[[110.505,-7.5022],[110.4394,-7.4536],[110.3954,-7.4986],[110.418,-7.519],[110.4452,-7.5412],[110.4812,-7.516],[110.505,-7.5022]]]},"properties":{"code":"33.09.01","name":"Selo"}},{"type":"Feature","geometry":{"type":"Polygon","coordinates":[[[110.5328,-7.4612],[110.582,-7.4846],[110.5816,-7.4356],[110.5316,-7.4334],[110.5328,-7.4612]]]},"properties":{"code":"33.09.02","name":"Ampel"}},{"type":"Feature","geometry":{"type":"Polygon","coordinates":[[[110.5486,-7.5],[110.505,-7.5022],[110.4812,-7.516],[110.4722,-7.5338],[110.5438,-7.5272],[110.5758,-7.5062],[110.5486,-7.5]]]},"properties":{"code":"33.09.03","name":"Cepogo"}},{"type":"Feature","geometry":{"type":"Polygon","coordinates":[[[110.5438,-7.5272],[110.4722,-7.5338],[110.528,-7.572],[110.5374,-7.5666],[110.5438,-7.5272]]]},"properties":{"code":"33.09.04","name":"Musuk"}},{"type":"Feature","geometry":{"type":"Polygon","coordinates":[[[110.6154,-7.5094],[110.5486,-7.5],[110.5758,-7.5062],[110.6154,-7.5094]]]},"properties":{"code":"33.09.05","name":"Boyolali"}},{"type":"Feature","geometry":{"type":"Polygon","coordinates":[[[110.6476,-7.5162],[110.6154,-7.5094],[110.5972,-7.5884],[110.638,-7.5346],[110.6476,-7.5162]]]},"properties":{"code":"33.09.06","name":"Mojosongo"}},{"type":"Feature","geometry":{"type":"Polygon","coordinates":[[[110.6642,-7.5802],[110.6476,-7.5162],[110.638,-7.5346],[110.6642,-7.5802]]]},"properties":{"code":"33.09.07","name":"Teras"}},{"type":"Feature","geometry":{"type":"Polygon","coordinates":[[[110.7114,-7.5658],[110.6858,-7.5678],[110.6642,-7.5802],[110.7026,-7.5936],[110.7114,-7.5658]]]},"properties":{"code":"33.09.08","name":"Sawit"}},{"type":"Feature","geometry":{"type":"Polygon","coordinates":[[[110.7092,-7.5322],[110.6858,-7.5678],[110.7114,-7.5658],[110.7264,-7.5538],[110.7112,-7.5488],[110.7084,-7.5402],[110.7092,-7.5322]]]},"properties":{"code":"33.09.09","name":"Banyudono"}},{"type":"Feature","geometry":{"type":"Polygon","coordinates":[[[110.6736,-7.4396],[110.6284,-7.4666],[110.6554,-7.4728],[110.7316,-7.4958],[110.7232,-7.4894],[110.7274,-7.473],[110.6834,-7.459],[110.6736,-7.4396]]]},"properties":{"code":"33.09.10","name":"Sambi"}},{"type":"Feature","geometry":{"type":"Polygon","coordinates":[[[110.7508,-7.4942],[110.7232,-7.4894],[110.7316,-7.4958],[110.7224,-7.5258],[110.8154,-7.5226],[110.806,-7.4864],[110.7508,-7.4942]]]},"properties":{"code":"33.09.11","name":"Ngemplak"}},{"type":"Feature","geometry":{"type":"Polygon","coordinates":[[[110.7822,-7.4328],[110.7552,-7.4286],[110.7394,-7.434],[110.7256,-7.4282],[110.7314,-7.4426],[110.7274,-7.473],[110.7508,-7.4942],[110.806,-7.4864],[110.7808,-7.4532],[110.7822,-7.4328]]]},"properties":{"code":"33.09.12","name":"Nogosari"}},{"type":"Feature","geometry":{"type":"Polygon","coordinates":[[[110.7154,-7.4118],[110.632,-7.44],[110.6736,-7.4396],[110.6834,-7.459],[110.7314,-7.4426],[110.7256,-7.4282],[110.7424,-7.414],[110.7292,-7.404],[110.7154,-7.4118]]]},"properties":{"code":"33.09.13","name":"Simo"}},{"type":"Feature","geometry":{"type":"Polygon","coordinates":[[[110.686,-7.3492],[110.6364,-7.3704],[110.6738,-7.4094],[110.686,-7.3492]]]},"properties":{"code":"33.09.14","name":"Karanggede"}},{"type":"Feature","geometry":{"type":"Polygon","coordinates":[[[110.7588,-7.3416],[110.686,-7.3492],[110.6738,-7.4094],[110.7154,-7.4118],[110.7292,-7.404],[110.74,-7.3996],[110.7588,-7.3416]]]},"properties":{"code":"33.09.15","name":"Klego"}},{"type":"Feature","geometry":{"type":"Polygon","coordinates":[[[110.8032,-7.3276],[110.7588,-7.3416],[110.74,-7.3996],[110.7424,-7.414],[110.7394,-7.434],[110.7552,-7.4286],[110.8022,-7.3684],[110.8032,-7.3276]]]},"properties":{"code":"33.09.16","name":"Andong"}},{"type":"Feature","geometry":{"type":"Polygon","coordinates":[[[110.8032,-7.3276],[110.7942,-7.275],[110.7286,-7.2776],[110.8032,-7.3276]]]},"properties":{"code":"33.09.17","name":"Kemusu"}},{"type":"Feature","geometry":{"type":"Polygon","coordinates":[[[110.7286,-7.2776],[110.672,-7.26],[110.6316,-7.3274],[110.7086,-7.317],[110.7286,-7.2776]]]},"properties":{"code":"33.09.18","name":"Wonosegoro"}},{"type":"Feature","geometry":{"type":"Polygon","coordinates":[[[110.7438,-7.1642],[110.735,-7.1432],[110.7058,-7.215],[110.6942,-7.2242],[110.757,-7.2646],[110.7856,-7.1938],[110.7438,-7.1642]]]},"properties":{"code":"33.09.19","name":"Juwangi"}},{"type":"Feature","geometry":{"type":"Polygon","coordinates":[[[110.5316,-7.4334],[110.5004,-7.4124],[110.482,-7.4074],[110.4644,-7.409],[110.4496,-7.4296],[110.4394,-7.4536],[110.5328,-7.4612],[110.5316,-7.4334]]]},"properties":{"code":"33.09.20","name":"Gladagsari"}},{"type":"Feature","geometry":{"type":"Polygon","coordinates":[[[110.528,-7.572],[110.4906,-7.582],[110.5224,-7.603],[110.5512,-7.6098],[110.5374,-7.5666],[110.528,-7.572]]]},"properties":{"code":"33.09.21","name":"Tamansari"}},{"type":"Feature","geometry":{"type":"Polygon","coordinates":[[[110.672,-7.26],[110.6254,-7.2696],[110.624,-7.2856],[110.5998,-7.2918],[110.6316,-7.3274],[110.672,-7.26]]]},"properties":{"code":"33.09.22","name":"Wonosamodro"}}]}