{"type":"FeatureCollection","features":[{"type":"Feature","geometry":{"type":"Polygon","coordinates":[[[109.3996,-7.4492],[109.3574,-7.4416],[109.341,-7.4574],[109.3266,-7.4626],[109.3736,-7.4778],[109.4024,-7.4758],[109.3996,-7.4492]]]},"properties":{"code":"33.03.01","name":"Kemangkon"}},{"type":"Feature","geometry":{"type":"Polygon","coordinates":[[[109.4106,-7.409],[109.3996,-7.4492],[109.4256,-7.4556],[109.4308,-7.4592],[109.4464,-7.4558],[109.4504,-7.4464],[109.4528,-7.4244],[109.4278,-7.4228],[109.4106,-7.409]]]},"properties":{"code":"33.03.02","name":"Bukateja"}},{"type":"Feature","geometry":{"type":"Polygon","coordinates":[[[109.4528,-7.4244],[109.4926,-7.3778],[109.4662,-7.3958],[109.4642,-7.4022],[109.4354,-7.3922],[109.4176,-7.3996],[109.4278,-7.4228],[109.4528,-7.4244]]]},"properties":{"code":"33.03.03","name":"Kejobong"}},{"type":"Feature","geometry":{"type":"Polygon","coordinates":[[[109.4106,-7.409],[109.4176,-7.3996],[109.4354,-7.3922],[109.4608,-7.366],[109.4474,-7.3388],[109.4314,-7.3416],[109.3726,-7.3616],[109.3776,-7.3818],[109.4006,-7.402],[109.4106,-7.409]]]},"properties":{"code":"33.03.04","name":"Kaligondang"}},{"type":"Feature","geometry":{"type":"Polygon","coordinates":[[[109.3776,-7.3818],[109.3474,-7.3982],[109.356,-7.3948],[109.4006,-7.402],[109.3776,-7.3818]]]},"properties":{"code":"33.03.05","name":"Purbalingga"}},{"type":"Feature","geometry":{"type":"Polygon","coordinates":[[[109.3492,-7.3904],[109.3354,-7.3946],[109.3574,-7.4416],[109.356,-7.3948],[109.3474,-7.3982],[109.3492,-7.3904]]]},"properties":{"code":"33.03.06","name":"Kalimanah"}},{"type":"Feature","geometry":{"type":"Polygon","coordinates":[[[109.318,-7.3372],[109.304,-7.3632],[109.3176,-7.368],[109.3364,-7.3346],[109.318,-7.3372]]]},"properties":{"code":"33.03.07","name":"Kutasari"}},{"type":"Feature","geometry":{"type":"Polygon","coordinates":[[[109.305,-7.2742],[109.283,-7.2662],[109.3574,-7.3478],[109.4092,-7.3486],[109.3642,-7.3162],[109.305,-7.2742]]]},"properties":{"code":"33.03.08","name":"Mrebet"}},{"type":"Feature","geometry":{"type":"Polygon","coordinates":[[[109.3796,-7.268],[109.3604,-7.241],[109.3642,-7.3162],[109.3956,-7.3048],[109.3796,-7.268]]]},"properties":{"code":"33.03.09","name":"Bobotsari"}},{"type":"Feature","geometry":{"type":"Polygon","coordinates":[[[109.3562,-7.2242],[109.2328,-7.2364],[109.305,-7.2742],[109.3604,-7.241],[109.3562,-7.2242]]]},"properties":{"code":"33.03.10","name":"Karangreja"}},{"type":"Feature","geometry":{"type":"Polygon","coordinates":[[[109.406,-7.2312],[109.3934,-7.2498],[109.3796,-7.268],[109.3956,-7.3048],[109.4092,-7.3486],[109.4264,-7.3172],[109.406,-7.2312]]]},"properties":{"code":"33.03.11","name":"Karanganyar"}},{"type":"Feature","geometry":{"type":"Polygon","coordinates":[[[109.4572,-7.1964],[109.4508,-7.3072],[109.5018,-7.2856],[109.488,-7.2734],[109.4572,-7.1964]]]},"properties":{"code":"33.03.12","name":"Karangmoncol"}},{"type":"Feature","geometry":{"type":"Polygon","coordinates":[[[109.507,-7.2392],[109.488,-7.2734],[109.5018,-7.2856],[109.4906,-7.3376],[109.5184,-7.3432],[109.5254,-7.3242],[109.5626,-7.3322],[109.5694,-7.2648],[109.507,-7.2392]]]},"properties":{"code":"33.03.13","name":"Rembang"}},{"type":"Feature","geometry":{"type":"Polygon","coordinates":[[[109.283,-7.2662],[109.2328,-7.2364],[109.318,-7.3372],[109.3364,-7.3346],[109.3726,-7.3616],[109.3574,-7.3478],[109.283,-7.2662]]]},"properties":{"code":"33.03.14","name":"Bojongsari"}},{"type":"Feature","geometry":{"type":"Polygon","coordinates":[[[109.304,-7.3632],[109.3128,-7.4108],[109.3354,-7.3946],[109.3492,-7.3904],[109.3176,-7.368],[109.304,-7.3632]]]},"properties":{"code":"33.03.15","name":"Padamara"}},{"type":"Feature","geometry":{"type":"Polygon","coordinates":[[[109.4906,-7.3376],[109.4474,-7.3388],[109.4608,-7.366],[109.4642,-7.4022],[109.4662,-7.3958],[109.4926,-7.3778],[109.5184,-7.3432],[109.4906,-7.3376]]]},"properties":{"code":"33.03.16","name":"Pengadegan"}},{"type":"Feature","geometry":{"type":"Polygon","coordinates":[[[109.406,-7.2312],[109.44,-7.165],[109.41,-7.2016],[109.3824,-7.1902],[109.3562,-7.2242],[109.3934,-7.2498],[109.406,-7.2312]]]},"properties":{"code":"33.03.17","name":"Karangjambu"}},{"type":"Feature","geometry":{"type":"Polygon","coordinates":[[[109.4314,-7.3416],[109.4442,-7.2428],[109.406,-7.2312],[109.4264,-7.3172],[109.4314,-7.3416]]]},"properties":{"code":"33.03.18","name":"Kertanegara"}}]}