{"type":"FeatureCollection","features":[{"type":"Feature","geometry":{"type":"Polygon","coordinates":[[[110.6858,-7.1215],[110.6659,-7.1064],[110.6115,-7.1414],[110.5632,-7.1597],[110.537,-7.1765],[110.5688,-7.1944],[110.5704,-7.189],[110.5918,-7.2031],[110.6144,-7.199],[110.6105,-7.2265],[110.6943,-7.2243],[110.7058,-7.2151],[110.6928,-7.2052],[110.6892,-7.1916],[110.6971,-7.1852],[110.6886,-7.1774],[110.6899,-7.1583],[110.6858,-7.1215]]]},"properties":{"code":"33.15.01","name":"Kedungjati","latitude":-7.173035104320847,"longitude":110.63485918807228}},{"type":"Feature","geometry":{"type":"Polygon","coordinates":[[[110.7969,-7.1179],[110.7814,-7.0705],[110.7436,-7.0923],[110.704,-7.1028],[110.6886,-7.1774],[110.7349,-7.1432],[110.7438,-7.1643],[110.7855,-7.1939],[110.8194,-7.2152],[110.8165,-7.1726],[110.7969,-7.1179]]]},"properties":{"code":"33.15.02","name":"Karangrayung","latitude":-7.1494606600325445,"longitude":110.76500589463437}},{"type":"Feature","geometry":{"type":"Polygon","coordinates":[[[110.8407,-7.0305],[110.824,-7.0461],[110.8167,-7.0594],[110.8125,-7.0727],[110.8079,-7.0849],[110.7969,-7.1179],[110.8165,-7.1726],[110.842,-7.1508],[110.8687,-7.1303],[110.8566,-7.1317],[110.8549,-7.0952],[110.8545,-7.0902],[110.864,-7.0721],[110.8441,-7.0414],[110.8407,-7.0305]]]},"properties":{"code":"33.15.03","name":"Penawangan","latitude":-7.103324169748332,"longitude":110.8309588261397}},{"type":"Feature","geometry":{"type":"Polygon","coordinates":[[[110.9589,-7.135],[110.9072,-7.1165],[110.8566,-7.1317],[110.8687,-7.1303],[110.842,-7.1508],[110.8754,-7.1878],[110.8729,-7.1826],[110.9202,-7.2074],[110.9972,-7.1882],[111.0012,-7.1437],[110.9802,-7.1444],[110.9589,-7.135]]]},"properties":{"code":"33.15.04","name":"Toroh","latitude":-7.159962128790062,"longitude":110.92053133822488}},{"type":"Feature","geometry":{"type":"Polygon","coordinates":[[[111.031,-7.1909],[110.9972,-7.1882],[110.9202,-7.2074],[110.8729,-7.1826],[110.8754,-7.1878],[110.8194,-7.2152],[110.8492,-7.2015],[110.8437,-7.2164],[110.8279,-7.2486],[110.8577,-7.2717],[110.9222,-7.2696],[111.0072,-7.2609],[111.0409,-7.2423],[111.0501,-7.1805],[111.031,-7.1909]]]},"properties":{"code":"33.15.05","name":"Geyer","latitude":-7.23016038357605,"longitude":110.93587851696023}},{"type":"Feature","geometry":{"type":"Polygon","coordinates":[[[111.0615,-7.0921],[111.0495,-7.0919],[111.0414,-7.0991],[111.0363,-7.1118],[111.032,-7.105],[111.0172,-7.1069],[110.9958,-7.115],[111.031,-7.1909],[111.0501,-7.1805],[111.0409,-7.2423],[111.032,-7.2645],[111.0578,-7.2706],[111.0663,-7.2672],[111.0802,-7.2361],[111.0832,-7.2032],[111.0895,-7.1661],[111.1141,-7.1318],[111.0694,-7.1169],[111.0615,-7.0921]]]},"properties":{"code":"33.15.06","name":"Pulokulon","latitude":-7.166251127058592,"longitude":111.05091845871263}},{"type":"Feature","geometry":{"type":"Polygon","coordinates":[[[111.1236,-7.0886],[111.1141,-7.1318],[111.0895,-7.1661],[111.0832,-7.2032],[111.0802,-7.2361],[111.0663,-7.2672],[111.1234,-7.2488],[111.129,-7.2322],[111.1878,-7.1282],[111.1784,-7.1127],[111.1433,-7.1178],[111.1326,-7.1086],[111.1256,-7.0957],[111.1236,-7.0886]]]},"properties":{"code":"33.15.07","name":"Kradenan","latitude":-7.176970273267961,"longitude":111.12165827986276}},{"type":"Feature","geometry":{"type":"Polygon","coordinates":[[[111.2266,-7.0976],[111.2113,-7.0963],[111.1878,-7.1282],[111.129,-7.2322],[111.1778,-7.2646],[111.1999,-7.2559],[111.2432,-7.2387],[111.2395,-7.2255],[111.2492,-7.1768],[111.2266,-7.0976]]]},"properties":{"code":"33.15.08","name":"Gabus","latitude":-7.1879376147424034,"longitude":111.1940901820196}},{"type":"Feature","geometry":{"type":"Polygon","coordinates":[[[111.1694,-6.984],[111.1371,-7.016],[111.1217,-7.044],[111.1368,-7.0628],[111.133,-7.1093],[111.1439,-7.1181],[111.1757,-7.1143],[111.1725,-7.1016],[111.1793,-7.0959],[111.2113,-7.0963],[111.2188,-7.0502],[111.2138,-7.0218],[111.1878,-7.0066],[111.1694,-6.984]]]},"properties":{"code":"33.15.09","name":"Ngaringan","latitude":-7.047164275324016,"longitude":111.16721026001521}},{"type":"Feature","geometry":{"type":"Polygon","coordinates":[[[111.1371,-7.016],[111.0859,-6.9619],[111.0609,-6.9695],[111.0561,-6.9875],[111.0612,-6.9938],[111.0465,-7.0427],[111.032,-7.105],[111.0363,-7.1118],[111.0414,-7.0991],[111.0495,-7.0919],[111.0615,-7.0921],[111.0694,-7.1169],[111.1236,-7.0886],[111.1256,-7.0957],[111.1217,-7.044],[111.1371,-7.016]]]},"properties":{"code":"33.15.10","name":"Wirosari","latitude":-7.040372059165999,"longitude":111.0852329679078}},{"type":"Feature","geometry":{"type":"Polygon","coordinates":[[[111.0609,-6.9695],[111.0508,-6.9695],[111.0164,-6.9703],[111.0131,-7.0061],[110.9667,-7.0507],[110.9693,-7.0653],[110.9442,-7.0934],[110.9631,-7.0959],[111.0172,-7.1069],[111.0465,-7.0427],[111.0612,-6.9938],[111.0561,-6.9875],[111.0609,-6.9695]]]},"properties":{"code":"33.15.11","name":"Tawangharjo","latitude":-7.043906969437052,"longitude":111.0101340719409}},{"type":"Feature","geometry":{"type":"Polygon","coordinates":[[[110.9257,-6.9722],[110.9076,-7.0361],[110.9238,-7.0658],[110.9232,-7.0839],[110.9346,-7.0846],[110.9693,-7.0653],[110.9667,-7.0507],[111.0097,-7.0109],[111.0192,-6.9799],[111.0164,-6.9703],[110.9603,-6.9732],[110.9257,-6.9722]]]},"properties":{"code":"33.15.12","name":"Grobogan","latitude":-7.01437667986029,"longitude":110.9569180038834}},{"type":"Feature","geometry":{"type":"Polygon","coordinates":[[[110.8987,-7.0693],[110.864,-7.0721],[110.8545,-7.0902],[110.8549,-7.0952],[110.9589,-7.135],[110.9802,-7.1444],[111.0012,-7.1437],[110.9958,-7.115],[110.9631,-7.0959],[110.9442,-7.0934],[110.9346,-7.0846],[110.9232,-7.0839],[110.8987,-7.0693]]]},"properties":{"code":"33.15.13","name":"Purwodadi","latitude":-7.099256621641793,"longitude":110.91634818567307}},{"type":"Feature","geometry":{"type":"Polygon","coordinates":[[[110.9076,-7.0361],[110.8657,-7.0164],[110.8987,-7.0693],[110.9238,-7.0658],[110.9076,-7.0361]]]},"properties":{"code":"33.15.14","name":"Brati","latitude":-7.022694093581814,"longitude":110.89068982961855}},{"type":"Feature","geometry":{"type":"Polygon","coordinates":[[[110.8194,-6.996],[110.7765,-6.964],[110.7727,-6.9898],[110.7641,-7.0042],[110.8006,-7.0253],[110.8201,-7.0245],[110.8407,-7.0305],[110.8441,-7.0414],[110.8657,-7.0164],[110.8516,-6.9999],[110.8453,-6.9902],[110.8279,-7.002],[110.8194,-6.996]]]},"properties":{"code":"33.15.15","name":"Klambu","latitude":-7.001463174595185,"longitude":110.81153308258524}},{"type":"Feature","geometry":{"type":"Polygon","coordinates":[[[110.8006,-7.0253],[110.7626,-7.0219],[110.6937,-7.0183],[110.7121,-7.0692],[110.7091,-7.0862],[110.7218,-7.0983],[110.7809,-7.0699],[110.8079,-7.0849],[110.8125,-7.0727],[110.8167,-7.0594],[110.824,-7.0461],[110.8201,-7.0245],[110.8006,-7.0253]]]},"properties":{"code":"33.15.16","name":"Godong","latitude":-7.051811922963859,"longitude":110.75568623586435}},{"type":"Feature","geometry":{"type":"Polygon","coordinates":[[[110.6732,-7.0081],[110.6551,-6.9937],[110.6383,-7.0497],[110.6858,-7.1215],[110.6899,-7.1583],[110.704,-7.1028],[110.7121,-7.0692],[110.6732,-7.0081]]]},"properties":{"code":"33.15.17","name":"Gubug","latitude":-7.065804520177763,"longitude":110.67718012665942}},{"type":"Feature","geometry":{"type":"Polygon","coordinates":[[[110.6551,-6.9937],[110.5938,-7.0678],[110.5681,-7.0736],[110.5754,-7.0825],[110.6016,-7.0883],[110.6239,-7.0842],[110.6383,-7.0497],[110.6551,-6.9937]]]},"properties":{"code":"33.15.18","name":"Tegowanu","latitude":-7.03812086800175,"longitude":110.6265078929512}},{"type":"Feature","geometry":{"type":"Polygon","coordinates":[[[110.6016,-7.0883],[110.5776,-7.0834],[110.5681,-7.0736],[110.561,-7.0845],[110.5817,-7.1193],[110.6115,-7.1414],[110.6659,-7.1064],[110.6239,-7.0842],[110.6016,-7.0883]]]},"properties":{"code":"33.15.19","name":"Tanggungharjo","latitude":-7.10404714550835,"longitude":110.61562060088711}}]}