{"type":"FeatureCollection","features":[{"type":"Feature","geometry":{"type":"Polygon","coordinates":[[[110.7809,-7.4531],[110.8373,-7.459],[110.8327,-7.4182],[110.7822,-7.4328],[110.7809,-7.4531]]]},"properties":{"code":"33.14.01","name":"Kalijambe","latitude":-7.436135914300998,"longitude":110.81379259609345}},{"type":"Feature","geometry":{"type":"Polygon","coordinates":[[[110.8983,-7.4468],[110.9105,-7.4049],[110.8635,-7.409],[110.8616,-7.4336],[110.8636,-7.4794],[110.883,-7.492],[110.8948,-7.4882],[110.891,-7.4783],[110.9034,-7.4589],[110.8983,-7.4468]]]},"properties":{"code":"33.14.02","name":"Plupuh","latitude":-7.439254383788188,"longitude":110.88873703623143}},{"type":"Feature","geometry":{"type":"Polygon","coordinates":[[[110.9957,-7.5232],[110.965,-7.4672],[110.9179,-7.4416],[110.8983,-7.4468],[110.9034,-7.4589],[110.9957,-7.5232]]]},"properties":{"code":"33.14.03","name":"Masaran","latitude":-7.478338386632739,"longitude":110.93708716714579}},{"type":"Feature","geometry":{"type":"Polygon","coordinates":[[[111.0638,-7.4969],[111.0008,-7.4899],[110.9978,-7.4785],[110.9888,-7.4785],[110.9957,-7.5232],[111.0495,-7.5374],[111.0638,-7.4969]]]},"properties":{"code":"33.14.04","name":"Kedawung","latitude":-7.496933991973601,"longitude":111.0267434728849}},{"type":"Feature","geometry":{"type":"Polygon","coordinates":[[[111.1025,-7.4636],[111.1116,-7.5315],[111.1276,-7.511],[111.1527,-7.4995],[111.1025,-7.4636]]]},"properties":{"code":"33.14.05","name":"Sambirejo","latitude":-7.4965251157706065,"longitude":111.10788758076943}},{"type":"Feature","geometry":{"type":"Polygon","coordinates":[[[111.0987,-7.4027],[111.1025,-7.4636],[111.1372,-7.4655],[111.1286,-7.4611],[111.0987,-7.4027]]]},"properties":{"code":"33.14.06","name":"Gondang","latitude":-7.432354094598014,"longitude":111.09987997293717}},{"type":"Feature","geometry":{"type":"Polygon","coordinates":[[[111.0691,-7.3442],[111.074,-7.3906],[111.0987,-7.4027],[111.1281,-7.3464],[111.089,-7.3457],[111.0782,-7.3458],[111.0691,-7.3442]]]},"properties":{"code":"33.14.07","name":"Sambungmacan","latitude":-7.370312810593302,"longitude":111.10130575680259}},{"type":"Feature","geometry":{"type":"Polygon","coordinates":[[[111.074,-7.3906],[111.0542,-7.3469],[111.04,-7.3417],[111.0283,-7.3642],[111.0477,-7.4071],[111.074,-7.3906]]]},"properties":{"code":"33.14.08","name":"Ngrampal","latitude":-7.387098624578627,"longitude":111.04907468324033}},{"type":"Feature","geometry":{"type":"Polygon","coordinates":[[[111.0008,-7.4899],[111.0222,-7.4369],[111.0082,-7.4441],[110.9913,-7.4448],[110.9888,-7.4785],[110.9978,-7.4785],[111.0008,-7.4899]]]},"properties":{"code":"33.14.09","name":"Karangmalang","latitude":-7.455516264820865,"longitude":111.02054556000323}},{"type":"Feature","geometry":{"type":"Polygon","coordinates":[[[111.0283,-7.3642],[111.0051,-7.4112],[111.0082,-7.4441],[111.0222,-7.4369],[111.0477,-7.4071],[111.0283,-7.3642]]]},"properties":{"code":"33.14.10","name":"Sragen","latitude":-7.405381091020992,"longitude":111.01846855527745}},{"type":"Feature","geometry":{"type":"Polygon","coordinates":[[[111.0051,-7.4112],[110.9455,-7.4001],[110.9179,-7.4416],[110.9913,-7.4448],[111.0051,-7.4112]]]},"properties":{"code":"33.14.11","name":"Sidoharjo","latitude":-7.422599070998574,"longitude":110.96729530341443}},{"type":"Feature","geometry":{"type":"Polygon","coordinates":[[[110.9455,-7.4001],[110.8838,-7.3643],[110.8791,-7.3701],[110.8694,-7.3838],[110.9455,-7.4001]]]},"properties":{"code":"33.14.12","name":"Tanon","latitude":-7.382745176297744,"longitude":110.91765518714578}},{"type":"Feature","geometry":{"type":"Polygon","coordinates":[[[110.8791,-7.3701],[110.8301,-7.366],[110.8124,-7.3941],[110.798,-7.3891],[110.8545,-7.4287],[110.8694,-7.3838],[110.8791,-7.3701]]]},"properties":{"code":"33.14.13","name":"Gemolong","latitude":-7.395501541710975,"longitude":110.84121023147668}},{"type":"Feature","geometry":{"type":"Polygon","coordinates":[[[110.8208,-7.3405],[110.8237,-7.2651],[110.8032,-7.3275],[110.8022,-7.3684],[110.798,-7.3891],[110.8124,-7.3941],[110.8301,-7.366],[110.8478,-7.3488],[110.8208,-7.3405]]]},"properties":{"code":"33.14.14","name":"Miri","latitude":-7.336131276025357,"longitude":110.81274691161563}},{"type":"Feature","geometry":{"type":"Polygon","coordinates":[[[110.8838,-7.3643],[110.9009,-7.276],[110.877,-7.2773],[110.8237,-7.2651],[110.8208,-7.3405],[110.8478,-7.3488],[110.8838,-7.3643]]]},"properties":{"code":"33.14.15","name":"Sumberlawang","latitude":-7.311500914190241,"longitude":110.86402742004533}},{"type":"Feature","geometry":{"type":"Polygon","coordinates":[[[110.9593,-7.318],[110.9222,-7.2696],[110.8949,-7.3449],[110.9512,-7.3685],[110.9593,-7.318]]]},"properties":{"code":"33.14.16","name":"Mondokan","latitude":-7.318970718656369,"longitude":110.92968147982651}},{"type":"Feature","geometry":{"type":"Polygon","coordinates":[[[110.9991,-7.288],[110.9593,-7.318],[110.9872,-7.3715],[110.9948,-7.3719],[110.9781,-7.3283],[110.9991,-7.288]]]},"properties":{"code":"33.14.17","name":"Sukodono","latitude":-7.325793456991907,"longitude":110.97534000488648}},{"type":"Feature","geometry":{"type":"Polygon","coordinates":[[[110.9872,-7.3715],[111.0064,-7.3785],[111.0373,-7.316],[110.9991,-7.288],[110.9781,-7.3283],[110.9948,-7.3719],[110.9872,-7.3715]]]},"properties":{"code":"33.14.18","name":"Gesi","latitude":-7.3285727666483,"longitude":111.00705260059493}},{"type":"Feature","geometry":{"type":"Polygon","coordinates":[[[111.1098,-7.2796],[111.0578,-7.2706],[111.032,-7.2645],[111.0072,-7.2609],[111.0376,-7.3044],[111.04,-7.3417],[111.0542,-7.3469],[111.0617,-7.3393],[111.061,-7.2956],[111.1098,-7.2796]]]},"properties":{"code":"33.14.19","name":"Tangen","latitude":-7.2909675640209635,"longitude":111.05695262488297}},{"type":"Feature","geometry":{"type":"Polygon","coordinates":[[[111.1234,-7.2488],[111.1098,-7.2796],[111.061,-7.2956],[111.0617,-7.3393],[111.0691,-7.3442],[111.0782,-7.3458],[111.089,-7.3457],[111.1281,-7.3464],[111.1553,-7.3133],[111.1344,-7.2977],[111.15,-7.2679],[111.1271,-7.2578],[111.1234,-7.2488]]]},"properties":{"code":"33.14.20","name":"Jenar","latitude":-7.3087762812235555,"longitude":111.10989132045773}}]}