{"type":"FeatureCollection","features":[{"type":"Feature","geometry":{"type":"Polygon","coordinates":[[[109.7526,-6.9506],[109.7224,-6.9654],[109.7478,-6.998],[109.7542,-7.0906],[109.7436,-7.1116],[109.779,-7.0498],[109.7732,-7.0222],[109.7638,-6.9926],[109.774,-6.9846],[109.7756,-6.9694],[109.7526,-6.9506]]]},"properties":{"code":"33.25.01","name":"Wonotunggal"}},{"type":"Feature","geometry":{"type":"Polygon","coordinates":[[[109.803,-6.9772],[109.787,-6.9752],[109.7754,-6.9744],[109.7638,-6.9926],[109.7732,-7.0222],[109.779,-7.0498],[109.7706,-7.1408],[109.7984,-7.1704],[109.8096,-7.1604],[109.8114,-7.13],[109.816,-7.0596],[109.8206,-7.0658],[109.8358,-7.0532],[109.803,-6.9772]]]},"properties":{"code":"33.25.02","name":"Bandar"}},{"type":"Feature","geometry":{"type":"Polygon","coordinates":[[[109.8508,-7.0348],[109.8314,-7.0318],[109.8358,-7.0532],[109.8206,-7.0658],[109.816,-7.0596],[109.8114,-7.13],[109.8096,-7.1604],[109.7984,-7.1704],[109.833,-7.1896],[109.8644,-7.1222],[109.8528,-7.0732],[109.8474,-7.0472],[109.8508,-7.0348]]]},"properties":{"code":"33.25.03","name":"Blado"}},{"type":"Feature","geometry":{"type":"Polygon","coordinates":[[[109.892,-7.0484],[109.8528,-7.0732],[109.8644,-7.1222],[109.877,-7.191],[109.9018,-7.1258],[109.9218,-7.0658],[109.892,-7.0484]]]},"properties":{"code":"33.25.04","name":"Reban"}},{"type":"Feature","geometry":{"type":"Polygon","coordinates":[[[109.9514,-7.093],[109.9018,-7.1258],[109.9044,-7.1958],[109.9398,-7.1418],[109.9514,-7.093]]]},"properties":{"code":"33.25.05","name":"Bawang"}},{"type":"Feature","geometry":{"type":"Polygon","coordinates":[[[109.9906,-7.006],[109.9464,-7.035],[109.9514,-7.093],[109.9906,-7.006]]]},"properties":{"code":"33.25.06","name":"Tersono"}},{"type":"Feature","geometry":{"type":"Polygon","coordinates":[[[110.0308,-6.9292],[110.0264,-6.9118],[109.9508,-6.9196],[109.9586,-6.9478],[109.9878,-6.9688],[109.9906,-7.006],[110.051,-6.98],[110.0308,-6.9292]]]},"properties":{"code":"33.25.07","name":"Gringsing"}},{"type":"Feature","geometry":{"type":"Polygon","coordinates":[[[109.9464,-7.035],[109.9318,-6.9908],[109.9276,-6.9842],[109.892,-7.0484],[109.9218,-7.0658],[109.9464,-7.035]]]},"properties":{"code":"33.25.08","name":"Limpung"}},{"type":"Feature","geometry":{"type":"Polygon","coordinates":[[[109.917,-6.9464],[109.842,-6.907],[109.8212,-6.9502],[109.8704,-7.0152],[109.8956,-7.0164],[109.9192,-6.961],[109.917,-6.9464]]]},"properties":{"code":"33.25.09","name":"Subah"}},{"type":"Feature","geometry":{"type":"Polygon","coordinates":[[[109.8212,-6.9502],[109.8118,-6.9014],[109.7762,-6.9446],[109.7754,-6.9744],[109.787,-6.9752],[109.803,-6.9772],[109.8212,-6.9502]]]},"properties":{"code":"33.25.10","name":"Tulis"}},{"type":"Feature","geometry":{"type":"Polygon","coordinates":[[[109.7504,-6.9004],[109.7032,-6.868],[109.719,-6.9496],[109.7526,-6.9506],[109.7406,-6.9426],[109.7392,-6.9312],[109.7466,-6.9128],[109.7504,-6.9004]]]},"properties":{"code":"33.25.11","name":"Batang"}},{"type":"Feature","geometry":{"type":"Polygon","coordinates":[[[109.719,-6.9496],[109.6734,-6.9362],[109.7028,-6.965],[109.7224,-6.9654],[109.719,-6.9496]]]},"properties":{"code":"33.25.12","name":"Warungasem"}},{"type":"Feature","geometry":{"type":"Polygon","coordinates":[[[109.8118,-6.9014],[109.7504,-6.9004],[109.7466,-6.9128],[109.7502,-6.9196],[109.739,-6.9394],[109.7756,-6.9694],[109.7762,-6.9446],[109.8118,-6.9014]]]},"properties":{"code":"33.25.13","name":"Kandeman"}},{"type":"Feature","geometry":{"type":"Polygon","coordinates":[[[109.8704,-7.0152],[109.8314,-7.0318],[109.8508,-7.0348],[109.8474,-7.0472],[109.8956,-7.0164],[109.8704,-7.0152]]]},"properties":{"code":"33.25.14","name":"Pecalungan"}},{"type":"Feature","geometry":{"type":"Polygon","coordinates":[[[109.9508,-6.9196],[109.917,-6.9464],[109.9192,-6.961],[109.9276,-6.9842],[109.9318,-6.9908],[109.9878,-6.9688],[109.9586,-6.9478],[109.9508,-6.9196]]]},"properties":{"code":"33.25.15","name":"Banyuputih"}}]}