{"type":"FeatureCollection","features":[{"type":"Feature","geometry":{"type":"Polygon","coordinates":[[[109.0558,-7.0552],[109.0042,-7.0412],[108.976,-7.1378],[109.0566,-7.15],[109.0686,-7.0874],[109.0586,-7.083],[109.0558,-7.0552]]]},"properties":{"code":"33.28.01","name":"Margasari"}},{"type":"Feature","geometry":{"type":"Polygon","coordinates":[[[109.1454,-7.1472],[109.0844,-7.1168],[109.0576,-7.1916],[109.1134,-7.2116],[109.2094,-7.2362],[109.1874,-7.2226],[109.1454,-7.1472]]]},"properties":{"code":"33.28.02","name":"Bumijawa"}},{"type":"Feature","geometry":{"type":"Polygon","coordinates":[[[109.2152,-7.1296],[109.154,-7.1174],[109.1454,-7.1472],[109.1874,-7.2226],[109.2094,-7.2362],[109.2,-7.2244],[109.198,-7.1706],[109.2152,-7.1296]]]},"properties":{"code":"33.28.03","name":"Bojong"}},{"type":"Feature","geometry":{"type":"Polygon","coordinates":[[[109.1616,-7.071],[109.1132,-7.0644],[109.0878,-7.0498],[109.0586,-7.083],[109.0686,-7.0874],[109.154,-7.1174],[109.1602,-7.0906],[109.1616,-7.071]]]},"properties":{"code":"33.28.04","name":"Balapulang"}},{"type":"Feature","geometry":{"type":"Polygon","coordinates":[[[109.0878,-7.0498],[109.0452,-6.9868],[109.0184,-7.0246],[109.0558,-7.0552],[109.0878,-7.0498]]]},"properties":{"code":"33.28.05","name":"Pagerbarang"}},{"type":"Feature","geometry":{"type":"Polygon","coordinates":[[[109.1252,-6.9984],[109.0934,-6.9908],[109.0856,-7.0044],[109.1106,-7.0612],[109.1616,-7.071],[109.1592,-7.0408],[109.1502,-7.0296],[109.1262,-7.0128],[109.1252,-6.9984]]]},"properties":{"code":"33.28.06","name":"Lebaksiu"}},{"type":"Feature","geometry":{"type":"Polygon","coordinates":[[[109.2988,-6.9816],[109.2338,-6.9998],[109.2088,-7.0198],[109.1602,-7.0906],[109.2374,-7.0744],[109.2728,-7.0564],[109.2988,-6.9816]]]},"properties":{"code":"33.28.07","name":"Jatinegara"}},{"type":"Feature","geometry":{"type":"Polygon","coordinates":[[[109.2234,-6.9458],[109.1798,-6.991],[109.1638,-7.0018],[109.1684,-7.0224],[109.2088,-7.0198],[109.2338,-6.9998],[109.2988,-6.9816],[109.2234,-6.9458]]]},"properties":{"code":"33.28.08","name":"Kedungbanteng"}},{"type":"Feature","geometry":{"type":"Polygon","coordinates":[[[109.1828,-6.9396],[109.1418,-6.9806],[109.1442,-6.9972],[109.1502,-7.0296],[109.1592,-7.0408],[109.1684,-7.0224],[109.1638,-7.0018],[109.1798,-6.991],[109.1828,-6.9396]]]},"properties":{"code":"33.28.09","name":"Pangkah"}},{"type":"Feature","geometry":{"type":"Polygon","coordinates":[[[109.1418,-6.9806],[109.1366,-6.9676],[109.1202,-6.9856],[109.1252,-6.9984],[109.1262,-7.0128],[109.1442,-6.9972],[109.1418,-6.9806]]]},"properties":{"code":"33.28.10","name":"Slawi"}},{"type":"Feature","geometry":{"type":"Polygon","coordinates":[[[109.0982,-6.951],[109.1458,-6.9578],[109.135,-6.9202],[109.0938,-6.918],[109.0822,-6.9274],[109.0982,-6.951]]]},"properties":{"code":"33.28.11","name":"Adiwerna"}},{"type":"Feature","geometry":{"type":"Polygon","coordinates":[[[109.1646,-6.8858],[109.1538,-6.886],[109.118,-6.9154],[109.1384,-6.9232],[109.1416,-6.9502],[109.1546,-6.9314],[109.1646,-6.8858]]]},"properties":{"code":"33.28.12","name":"Talang"}},{"type":"Feature","geometry":{"type":"Polygon","coordinates":[[[109.1502,-6.8908],[109.1328,-6.8852],[109.13,-6.8956],[109.112,-6.899],[109.1172,-6.9182],[109.1502,-6.8908]]]},"properties":{"code":"33.28.13","name":"Dukuhturi"}},{"type":"Feature","geometry":{"type":"Polygon","coordinates":[[[109.2018,-6.9016],[109.1828,-6.9396],[109.2158,-6.92],[109.214,-6.9026],[109.2018,-6.9016]]]},"properties":{"code":"33.28.14","name":"Tarub"}},{"type":"Feature","geometry":{"type":"Polygon","coordinates":[[[109.2314,-6.8774],[109.2018,-6.9016],[109.214,-6.9026],[109.2286,-6.9188],[109.2322,-6.8868],[109.2404,-6.88],[109.2314,-6.8774]]]},"properties":{"code":"33.28.15","name":"Kramat"}},{"type":"Feature","geometry":{"type":"Polygon","coordinates":[[[109.2896,-6.8922],[109.2314,-6.8774],[109.2404,-6.88],[109.2322,-6.8868],[109.2286,-6.9188],[109.2158,-6.92],[109.2234,-6.9458],[109.2792,-6.947],[109.2896,-6.8922]]]},"properties":{"code":"33.28.16","name":"Suradadi"}},{"type":"Feature","geometry":{"type":"Polygon","coordinates":[[[109.356,-6.8922],[109.2896,-6.8922],[109.3212,-6.973],[109.356,-6.8922]]]},"properties":{"code":"33.28.17","name":"Warureja"}},{"type":"Feature","geometry":{"type":"Polygon","coordinates":[[[109.0982,-6.951],[109.0706,-6.9716],[109.0934,-6.9908],[109.1202,-6.9856],[109.0982,-6.951]]]},"properties":{"code":"33.28.18","name":"Dukuhwaru"}}]}