{"type":"FeatureCollection","features":[{"type":"Feature","geometry":{"type":"Polygon","coordinates":[[[110.5234,-6.9765],[110.5019,-7.0095],[110.4992,-7.0261],[110.4819,-7.056],[110.4884,-7.0526],[110.501,-7.0674],[110.4997,-7.0967],[110.5388,-7.0801],[110.5424,-7.0318],[110.5234,-6.9765]]]},"properties":{"code":"33.21.01","name":"Mranggen","latitude":-7.039175526429118,"longitude":110.51867322474234}},{"type":"Feature","geometry":{"type":"Polygon","coordinates":[[[110.5794,-7.0204],[110.5424,-7.0318],[110.5388,-7.0801],[110.5817,-7.1193],[110.561,-7.0841],[110.5753,-7.0701],[110.591,-7.0708],[110.6204,-7.023],[110.5794,-7.0204]]]},"properties":{"code":"33.21.02","name":"Karangawen","latitude":-7.07397258664894,"longitude":110.56239741345325}},{"type":"Feature","geometry":{"type":"Polygon","coordinates":[[[110.6554,-6.9552],[110.6269,-6.9458],[110.6018,-6.9687],[110.5794,-7.0204],[110.6204,-7.023],[110.6554,-6.9552]]]},"properties":{"code":"33.21.03","name":"Guntur","latitude":-6.980895232381846,"longitude":110.6034483559173}},{"type":"Feature","geometry":{"type":"Polygon","coordinates":[[[110.532,-6.8703],[110.4921,-6.9472],[110.5008,-6.9524],[110.5234,-6.9765],[110.5509,-6.9467],[110.5429,-6.9121],[110.5537,-6.8859],[110.532,-6.8703]]]},"properties":{"code":"33.21.04","name":"Sayung","latitude":-6.924962373430146,"longitude":110.5284535091834}},{"type":"Feature","geometry":{"type":"Polygon","coordinates":[[[110.5458,-6.8476],[110.532,-6.8703],[110.5537,-6.8859],[110.5429,-6.9121],[110.5509,-6.9467],[110.6018,-6.9687],[110.6269,-6.9458],[110.6206,-6.9368],[110.5751,-6.902],[110.5458,-6.8476]]]},"properties":{"code":"33.21.05","name":"Karangtengah","latitude":-6.920009908852733,"longitude":110.57587126967938}},{"type":"Feature","geometry":{"type":"Polygon","coordinates":[[[110.6966,-6.9385],[110.6901,-6.875],[110.684,-6.8935],[110.6667,-6.8731],[110.6386,-6.8984],[110.6206,-6.9368],[110.6554,-6.9552],[110.6925,-6.9763],[110.6827,-6.9573],[110.6966,-6.9385]]]},"properties":{"code":"33.21.06","name":"Wonosalam","latitude":-6.919054617381093,"longitude":110.66785631777603}},{"type":"Feature","geometry":{"type":"Polygon","coordinates":[[[110.7729,-6.9446],[110.7204,-6.9255],[110.6966,-6.9385],[110.6827,-6.9573],[110.7343,-6.9985],[110.7457,-7.0106],[110.7641,-7.0042],[110.7727,-6.9898],[110.7765,-6.964],[110.7729,-6.9446]]]},"properties":{"code":"33.21.07","name":"Dempet","latitude":-6.958555213083223,"longitude":110.74007435409193}},{"type":"Feature","geometry":{"type":"Polygon","coordinates":[[[110.7603,-6.8799],[110.7244,-6.8719],[110.7207,-6.8853],[110.7204,-6.9255],[110.786,-6.9113],[110.8023,-6.8964],[110.7664,-6.8748],[110.7603,-6.8799]]]},"properties":{"code":"33.21.08","name":"Gajah","latitude":-6.901260553139131,"longitude":110.74698283536455}},{"type":"Feature","geometry":{"type":"Polygon","coordinates":[[[110.779,-6.8055],[110.7581,-6.8076],[110.7434,-6.8127],[110.7147,-6.8657],[110.7603,-6.8799],[110.7664,-6.8748],[110.8023,-6.8964],[110.8336,-6.8504],[110.7974,-6.8383],[110.779,-6.8055]]]},"properties":{"code":"33.21.09","name":"Karanganyar","latitude":-6.8471757822402095,"longitude":110.77155900136916}},{"type":"Feature","geometry":{"type":"Polygon","coordinates":[[[110.7048,-6.7948],[110.6545,-6.8035],[110.71,-6.849],[110.7147,-6.8657],[110.7434,-6.8127],[110.7581,-6.8076],[110.7048,-6.7948]]]},"properties":{"code":"33.21.10","name":"Mijen","latitude":-6.810271254385817,"longitude":110.70204694395821}},{"type":"Feature","geometry":{"type":"Polygon","coordinates":[[[110.71,-6.849],[110.6612,-6.8445],[110.5896,-6.9115],[110.6386,-6.8984],[110.6667,-6.8731],[110.684,-6.8935],[110.6901,-6.875],[110.7207,-6.8853],[110.7244,-6.8719],[110.7113,-6.8643],[110.71,-6.849]]]},"properties":{"code":"33.21.11","name":"Demak","latitude":-6.872628781030152,"longitude":110.655831823523}},{"type":"Feature","geometry":{"type":"Polygon","coordinates":[[[110.599,-6.8071],[110.5458,-6.8476],[110.5896,-6.9115],[110.6612,-6.8445],[110.6338,-6.8176],[110.599,-6.8071]]]},"properties":{"code":"33.21.12","name":"Bonang","latitude":-6.847404743890881,"longitude":110.59105631603558}},{"type":"Feature","geometry":{"type":"Polygon","coordinates":[[[110.6545,-6.8035],[110.671,-6.7223],[110.622,-6.7082],[110.5607,-6.7516],[110.599,-6.8071],[110.6338,-6.8176],[110.6545,-6.8035]]]},"properties":{"code":"33.21.13","name":"Wedung","latitude":-6.767559992417368,"longitude":110.61732369251796}},{"type":"Feature","geometry":{"type":"Polygon","coordinates":[[[110.7343,-6.9985],[110.6925,-6.9763],[110.6732,-7.0081],[110.6937,-7.0183],[110.7626,-7.0219],[110.7457,-7.0106],[110.7343,-6.9985]]]},"properties":{"code":"33.21.14","name":"Kebonagung","latitude":-7.002817122891718,"longitude":110.70957675819791}}]}