{"type":"FeatureCollection","features":[{"type":"Feature","geometry":{"type":"Polygon","coordinates":[[[109.6664,-6.8878],[109.6539,-6.8724],[109.6453,-6.8808],[109.6435,-6.8922],[109.6597,-6.9141],[109.6664,-6.8878]]]},"properties":{"code":"33.75.01","name":"Pekalongan Barat","latitude":-6.896379581195989,"longitude":109.66009872581589}},{"type":"Feature","geometry":{"type":"Polygon","coordinates":[[[109.6902,-6.8809],[109.6763,-6.9062],[109.6945,-6.9117],[109.7061,-6.8919],[109.6902,-6.8809]]]},"properties":{"code":"33.75.02","name":"Pekalongan Timur","latitude":-6.894522902639628,"longitude":109.6891129610039}},{"type":"Feature","geometry":{"type":"Polygon","coordinates":[[[109.7032,-6.8681],[109.6603,-6.8531],[109.6664,-6.8878],[109.7032,-6.8681]]]},"properties":{"code":"33.75.03","name":"Pekalongan Utara","latitude":-6.870878119282713,"longitude":109.683061237297}},{"type":"Feature","geometry":{"type":"Polygon","coordinates":[[[109.6681,-6.9356],[109.69,-6.9339],[109.6972,-6.9212],[109.6841,-6.9068],[109.6597,-6.9141],[109.6695,-6.9222],[109.6681,-6.9356]]]},"properties":{"code":"33.75.04","name":"Pekalongan Selatan","latitude":-6.919412760527059,"longitude":109.67402259098716}}]}