{"type":"FeatureCollection","features":[{"type":"Feature","geometry":{"type":"Polygon","coordinates":[[[109.128,-6.8724],[109.1042,-6.8402],[109.0816,-6.8594],[109.1182,-6.8596],[109.1126,-6.8788],[109.1252,-6.8762],[109.1268,-6.8842],[109.128,-6.8724]]]},"properties":{"code":"33.76.01","name":"Tegal Barat"}},{"type":"Feature","geometry":{"type":"Polygon","coordinates":[[[109.1614,-6.8464],[109.1362,-6.8446],[109.1336,-6.8854],[109.1468,-6.8882],[109.1614,-6.8464]]]},"properties":{"code":"33.76.02","name":"Tegal Timur"}},{"type":"Feature","geometry":{"type":"Polygon","coordinates":[[[109.1268,-6.8842],[109.1256,-6.8764],[109.1146,-6.8766],[109.1028,-6.8924],[109.1252,-6.8986],[109.1364,-6.8732],[109.128,-6.8724],[109.1268,-6.8842]]]},"properties":{"code":"33.76.03","name":"Tegal Selatan"}},{"type":"Feature","geometry":{"type":"Polygon","coordinates":[[[109.1182,-6.8596],[109.0922,-6.864],[109.0816,-6.8594],[109.0764,-6.8892],[109.1116,-6.8886],[109.1182,-6.8596]]]},"properties":{"code":"33.76.04","name":"Margadana"}}]}