{"type":"FeatureCollection","features":[{"type":"Feature","geometry":{"type":"Polygon","coordinates":[[[110.8156,-7.576],[110.7692,-7.5514],[110.784,-7.5637],[110.8156,-7.576]]]},"properties":{"code":"33.72.01","name":"Laweyan","latitude":-7.561429544158171,"longitude":110.79315080101246}},{"type":"Feature","geometry":{"type":"Polygon","coordinates":[[[110.8156,-7.576],[110.8219,-7.5952],[110.8282,-7.5928],[110.8225,-7.576],[110.8156,-7.576]]]},"properties":{"code":"33.72.02","name":"Serengan","latitude":-7.581805668637366,"longitude":110.81772595744489}},{"type":"Feature","geometry":{"type":"Polygon","coordinates":[[[110.8276,-7.565],[110.8204,-7.5821],[110.8329,-7.5949],[110.844,-7.5769],[110.8276,-7.565]]]},"properties":{"code":"33.72.03","name":"Pasar Kliwon","latitude":-7.581098108562677,"longitude":110.83175224503987}},{"type":"Feature","geometry":{"type":"Polygon","coordinates":[[[110.8578,-7.5498],[110.8313,-7.5414],[110.839,-7.5547],[110.8578,-7.5498]]]},"properties":{"code":"33.72.04","name":"Jebres","latitude":-7.554434984548734,"longitude":110.84738520788757}},{"type":"Feature","geometry":{"type":"Polygon","coordinates":[[[110.8313,-7.5414],[110.8007,-7.5336],[110.797,-7.5602],[110.839,-7.5547],[110.8313,-7.5414]]]},"properties":{"code":"33.72.05","name":"Banjarsari","latitude":-7.546877826758753,"longitude":110.81725715151282}}]}