{"type":"FeatureCollection","features":[{"type":"Feature","geometry":{"type":"Polygon","coordinates":[[[110.3606,-7.7713],[110.3511,-7.7682],[110.3487,-7.7932],[110.3554,-7.7942],[110.3576,-7.7812],[110.3694,-7.7737],[110.3606,-7.7713]]]},"properties":{"code":"34.71.01","name":"Tegalrejo","latitude":-7.778655573141476,"longitude":110.3569349937438}},{"type":"Feature","geometry":{"type":"Polygon","coordinates":[[[110.3553,-7.7885],[110.3688,-7.79],[110.3693,-7.7743],[110.3581,-7.7807],[110.3553,-7.7885]]]},"properties":{"code":"34.71.02","name":"Jetis","latitude":-7.78284844635095,"longitude":110.36413809070793}},{"type":"Feature","geometry":{"type":"Polygon","coordinates":[[[110.3755,-7.7753],[110.368,-7.7871],[110.3784,-7.7881],[110.3779,-7.798],[110.3948,-7.7916],[110.3755,-7.7753]]]},"properties":{"code":"34.71.03","name":"Gondokusuman","latitude":-7.786121843091508,"longitude":110.38135105951328}},{"type":"Feature","geometry":{"type":"Polygon","coordinates":[[[110.3654,-7.7963],[110.3776,-7.7973],[110.3784,-7.7883],[110.3662,-7.7896],[110.3654,-7.7963]]]},"properties":{"code":"34.71.04","name":"Danurejan","latitude":-7.7931859985373615,"longitude":110.3721830138383}},{"type":"Feature","geometry":{"type":"Polygon","coordinates":[[[110.3654,-7.7963],[110.3663,-7.7889],[110.3553,-7.7885],[110.3554,-7.7956],[110.3654,-7.7963]]]},"properties":{"code":"34.71.05","name":"Gedongtengen","latitude":-7.792037003873532,"longitude":110.36109704829887}},{"type":"Feature","geometry":{"type":"Polygon","coordinates":[[[110.3605,-7.8045],[110.3597,-7.7957],[110.3554,-7.7956],[110.3537,-7.8083],[110.3605,-7.8045]]]},"properties":{"code":"34.71.06","name":"Ngampilan","latitude":-7.800732252404164,"longitude":110.35781981259629}},{"type":"Feature","geometry":{"type":"Polygon","coordinates":[[[110.3534,-7.7932],[110.3486,-7.7933],[110.3458,-7.8125],[110.3552,-7.8061],[110.3534,-7.7932]]]},"properties":{"code":"34.71.07","name":"Wirobrajan","latitude":-7.803393177948915,"longitude":110.35042992858618}},{"type":"Feature","geometry":{"type":"Polygon","coordinates":[[[110.3685,-7.8149],[110.3559,-7.813],[110.3537,-7.8083],[110.3518,-7.8257],[110.3675,-7.8268],[110.3685,-7.8149]]]},"properties":{"code":"34.71.08","name":"Mantrijeron","latitude":-7.8189367410480015,"longitude":110.35909866257825}},{"type":"Feature","geometry":{"type":"Polygon","coordinates":[[[110.3685,-7.8149],[110.368,-7.8036],[110.3563,-7.8041],[110.3559,-7.8129],[110.3685,-7.8149]]]},"properties":{"code":"34.71.09","name":"Kraton","latitude":-7.808989764458782,"longitude":110.36283118629741}},{"type":"Feature","geometry":{"type":"Polygon","coordinates":[[[110.3605,-7.8045],[110.374,-7.808],[110.3743,-7.805],[110.3692,-7.7967],[110.362,-7.7961],[110.3605,-7.8045]]]},"properties":{"code":"34.71.10","name":"Gondomanan","latitude":-7.801682411236859,"longitude":110.36717440167278}},{"type":"Feature","geometry":{"type":"Polygon","coordinates":[[[110.3773,-7.7972],[110.3701,-7.7967],[110.3697,-7.7976],[110.3781,-7.8046],[110.3773,-7.7972]]]},"properties":{"code":"34.71.11","name":"Pakualaman","latitude":-7.799972520873065,"longitude":110.37546155544233}},{"type":"Feature","geometry":{"type":"Polygon","coordinates":[[[110.3814,-7.8151],[110.3731,-7.8015],[110.3675,-7.8269],[110.3814,-7.8151]]]},"properties":{"code":"34.71.12","name":"Mergangsan","latitude":-7.813726804479111,"longitude":110.3737904310483}},{"type":"Feature","geometry":{"type":"Polygon","coordinates":[[[110.3901,-7.8251],[110.3814,-7.8151],[110.3846,-7.829],[110.3901,-7.8251]]]},"properties":{"code":"34.71.13","name":"Umbulharjo","latitude":-7.813820712565175,"longitude":110.38712367125586}},{"type":"Feature","geometry":{"type":"Polygon","coordinates":[[[110.4051,-7.8304],[110.3901,-7.8251],[110.3978,-7.8333],[110.4051,-7.8304]]]},"properties":{"code":"34.71.14","name":"Kotagede","latitude":-7.818640127069969,"longitude":110.39878839966228}}]}