{"type":"FeatureCollection","features":[{"type":"Feature","geometry":{"type":"Polygon","coordinates":[[[112.7762,-7.7768],[112.7492,-7.801],[112.6814,-7.7876],[112.6564,-7.7782],[112.6324,-7.7976],[112.76,-7.8544],[112.7762,-7.7768]]]},"properties":{"code":"35.14.01","name":"Purwodadi"}},{"type":"Feature","geometry":{"type":"Polygon","coordinates":[[[112.795,-7.786],[112.79,-7.9102],[112.8306,-7.8788],[112.795,-7.786]]]},"properties":{"code":"35.14.02","name":"Tutur"}},{"type":"Feature","geometry":{"type":"Polygon","coordinates":[[[112.9152,-7.8292],[112.8616,-7.8194],[112.8544,-7.875],[112.9042,-7.8338],[112.9356,-7.9054],[112.935,-7.8478],[112.9152,-7.8292]]]},"properties":{"code":"35.14.03","name":"Puspo"}},{"type":"Feature","geometry":{"type":"Polygon","coordinates":[[[112.964,-7.7752],[112.9462,-7.7662],[112.935,-7.8478],[112.9552,-7.8996],[113.0452,-7.8222],[113.0514,-7.8006],[113.038,-7.772],[113.0124,-7.7654],[112.964,-7.7752]]]},"properties":{"code":"35.14.04","name":"Lumbang"}},{"type":"Feature","geometry":{"type":"Polygon","coordinates":[[[112.9024,-7.7648],[112.885,-7.748],[112.8774,-7.7614],[112.8144,-7.7718],[112.8616,-7.8194],[112.9152,-7.8292],[112.9132,-7.7786],[112.9024,-7.7648]]]},"properties":{"code":"35.14.05","name":"Pasrepan"}},{"type":"Feature","geometry":{"type":"Polygon","coordinates":[[[112.885,-7.748],[112.8168,-7.7106],[112.7762,-7.7768],[112.8144,-7.7718],[112.8774,-7.7614],[112.885,-7.748]]]},"properties":{"code":"35.14.06","name":"Kejayan"}},{"type":"Feature","geometry":{"type":"Polygon","coordinates":[[[112.8266,-7.6848],[112.7798,-7.6852],[112.7526,-7.7104],[112.7594,-7.741],[112.7782,-7.7438],[112.7734,-7.7478],[112.7878,-7.7632],[112.7982,-7.7478],[112.8,-7.733],[112.8234,-7.6952],[112.8266,-7.6848]]]},"properties":{"code":"35.14.07","name":"Wonorejo"}},{"type":"Feature","geometry":{"type":"Polygon","coordinates":[[[112.7782,-7.7438],[112.7596,-7.7414],[112.7594,-7.7264],[112.7514,-7.7166],[112.704,-7.7318],[112.6808,-7.7604],[112.62,-7.7578],[112.6564,-7.7782],[112.6814,-7.7876],[112.7492,-7.801],[112.7734,-7.7478],[112.7782,-7.7438]]]},"properties":{"code":"35.14.08","name":"Purwosari"}},{"type":"Feature","geometry":{"type":"Polygon","coordinates":[[[112.773,-7.6646],[112.7322,-7.6668],[112.6966,-7.6746],[112.6986,-7.6916],[112.7002,-7.7348],[112.727,-7.7366],[112.7536,-7.717],[112.7568,-7.7014],[112.7722,-7.6896],[112.7632,-7.6836],[112.773,-7.6646]]]},"properties":{"code":"35.14.09","name":"Sukorejo"}},{"type":"Feature","geometry":{"type":"Polygon","coordinates":[[[112.6722,-7.648],[112.6402,-7.6294],[112.575,-7.7318],[112.62,-7.7578],[112.6808,-7.7604],[112.7002,-7.7348],[112.6986,-7.6916],[112.6722,-7.648]]]},"properties":{"code":"35.14.10","name":"Prigen"}},{"type":"Feature","geometry":{"type":"Polygon","coordinates":[[[112.7226,-7.6368],[112.6992,-7.6218],[112.6722,-7.648],[112.6966,-7.6746],[112.7322,-7.6668],[112.7562,-7.642],[112.7226,-7.6368]]]},"properties":{"code":"35.14.11","name":"Pandaan"}},{"type":"Feature","geometry":{"type":"Polygon","coordinates":[[[112.7064,-7.5928],[112.6522,-7.5976],[112.6992,-7.6218],[112.7234,-7.6076],[112.7064,-7.5928]]]},"properties":{"code":"35.14.12","name":"Gempol"}},{"type":"Feature","geometry":{"type":"Polygon","coordinates":[[[112.7738,-7.5844],[112.7064,-7.5928],[112.7234,-7.6076],[112.7226,-7.6368],[112.7658,-7.6206],[112.7738,-7.5844]]]},"properties":{"code":"35.14.13","name":"Beji"}},{"type":"Feature","geometry":{"type":"Polygon","coordinates":[[[112.8566,-7.5804],[112.7738,-7.5844],[112.7658,-7.6206],[112.7844,-7.6066],[112.8566,-7.5804]]]},"properties":{"code":"35.14.14","name":"Bangil"}},{"type":"Feature","geometry":{"type":"Polygon","coordinates":[[[112.8192,-7.6356],[112.7844,-7.6066],[112.7562,-7.642],[112.773,-7.6646],[112.8304,-7.6586],[112.8192,-7.6356]]]},"properties":{"code":"35.14.15","name":"Rembang"}},{"type":"Feature","geometry":{"type":"Polygon","coordinates":[[[112.8844,-7.6318],[112.8566,-7.5804],[112.8192,-7.6356],[112.8304,-7.6586],[112.8266,-7.6848],[112.8234,-7.6952],[112.8636,-7.6834],[112.8652,-7.6578],[112.8638,-7.6324],[112.8746,-7.6268],[112.8844,-7.6318]]]},"properties":{"code":"35.14.16","name":"Kraton"}},{"type":"Feature","geometry":{"type":"Polygon","coordinates":[[[112.8784,-7.6552],[112.8638,-7.6324],[112.8652,-7.6578],[112.8636,-7.6834],[112.8812,-7.6718],[112.8784,-7.6552]]]},"properties":{"code":"35.14.17","name":"Pohjentrek"}},{"type":"Feature","geometry":{"type":"Polygon","coordinates":[[[112.9332,-7.7302],[112.9398,-7.7136],[112.9302,-7.7102],[112.9364,-7.6988],[112.91,-7.6798],[112.894,-7.6998],[112.89,-7.7248],[112.9332,-7.7302]]]},"properties":{"code":"35.14.18","name":"Gondangwetan"}},{"type":"Feature","geometry":{"type":"Polygon","coordinates":[[[112.9826,-7.7312],[112.9332,-7.7302],[112.9024,-7.7648],[112.9132,-7.7786],[112.9462,-7.7662],[112.964,-7.7752],[112.985,-7.7474],[112.9826,-7.7312]]]},"properties":{"code":"35.14.19","name":"Winongan"}},{"type":"Feature","geometry":{"type":"Polygon","coordinates":[[[113.0352,-7.7142],[112.9826,-7.7312],[112.985,-7.7474],[113.0124,-7.7654],[113.038,-7.772],[113.0428,-7.7538],[113.0352,-7.7142]]]},"properties":{"code":"35.14.20","name":"Grati"}},{"type":"Feature","geometry":{"type":"Polygon","coordinates":[[[113.085,-7.7098],[113.0314,-7.7068],[113.0142,-7.7018],[113.0352,-7.7142],[113.0428,-7.7538],[113.0514,-7.8006],[113.0548,-7.7482],[113.085,-7.7098]]]},"properties":{"code":"35.14.21","name":"Nguling"}},{"type":"Feature","geometry":{"type":"Polygon","coordinates":[[[113.0314,-7.7068],[113.0286,-7.6486],[112.9622,-7.6508],[112.9766,-7.6962],[113.0142,-7.7018],[113.0314,-7.7068]]]},"properties":{"code":"35.14.22","name":"Lekok"}},{"type":"Feature","geometry":{"type":"Polygon","coordinates":[[[112.9622,-7.6508],[112.9428,-7.656],[112.9096,-7.6806],[112.9326,-7.6922],[112.9332,-7.7132],[112.9616,-7.7148],[112.9766,-7.6962],[112.9622,-7.6508]]]},"properties":{"code":"35.14.23","name":"Rejoso"}},{"type":"Feature","geometry":{"type":"Polygon","coordinates":[[[112.9356,-7.9054],[112.9138,-7.8674],[112.9072,-7.837],[112.8894,-7.843],[112.8544,-7.875],[112.8928,-7.939],[112.9526,-7.9454],[112.9356,-7.9054]]]},"properties":{"code":"35.14.24","name":"Tosari"}}]}