{"type":"FeatureCollection","features":[{"type":"Feature","geometry":{"type":"Polygon","coordinates":[[[112.18,-7.5384],[112.1672,-7.5636],[112.1468,-7.5962],[112.1918,-7.5702],[112.2036,-7.543],[112.18,-7.5384]]]},"properties":{"code":"35.17.01","name":"Perak"}},{"type":"Feature","geometry":{"type":"Polygon","coordinates":[[[112.2114,-7.625],[112.2028,-7.5836],[112.185,-7.5876],[112.1658,-7.6134],[112.219,-7.6484],[112.2338,-7.6302],[112.2114,-7.625]]]},"properties":{"code":"35.17.02","name":"Gudo"}},{"type":"Feature","geometry":{"type":"Polygon","coordinates":[[[112.2794,-7.7256],[112.273,-7.691],[112.2846,-7.6524],[112.215,-7.689],[112.2518,-7.7258],[112.2794,-7.7256]]]},"properties":{"code":"35.17.03","name":"Ngoro"}},{"type":"Feature","geometry":{"type":"Polygon","coordinates":[[[112.3502,-7.6802],[112.3122,-7.6564],[112.2922,-7.6472],[112.2808,-7.666],[112.273,-7.6952],[112.2794,-7.7256],[112.3018,-7.7268],[112.3374,-7.7308],[112.3502,-7.6802]]]},"properties":{"code":"35.17.04","name":"Bareng"}},{"type":"Feature","geometry":{"type":"Polygon","coordinates":[[[112.3668,-7.6438],[112.3502,-7.6802],[112.3374,-7.7308],[112.3972,-7.776],[112.4302,-7.7708],[112.4556,-7.7792],[112.4116,-7.6736],[112.3896,-7.6508],[112.3668,-7.6438]]]},"properties":{"code":"35.17.05","name":"Wonosalam"}},{"type":"Feature","geometry":{"type":"Polygon","coordinates":[[[112.3636,-7.5528],[112.3446,-7.5254],[112.3296,-7.564],[112.2998,-7.5728],[112.3232,-7.585],[112.3366,-7.5892],[112.3436,-7.5846],[112.3546,-7.5968],[112.3668,-7.6438],[112.3636,-7.5528]]]},"properties":{"code":"35.17.06","name":"Mojoagung"}},{"type":"Feature","geometry":{"type":"Polygon","coordinates":[[[112.3232,-7.585],[112.288,-7.5844],[112.2904,-7.6024],[112.2922,-7.6472],[112.3122,-7.6564],[112.3546,-7.5968],[112.3436,-7.5846],[112.3366,-7.5892],[112.3232,-7.585]]]},"properties":{"code":"35.17.07","name":"Mojowarno"}},{"type":"Feature","geometry":{"type":"Polygon","coordinates":[[[112.248,-7.5712],[112.2398,-7.5742],[112.2224,-7.5624],[112.1918,-7.5702],[112.2026,-7.5834],[112.2114,-7.625],[112.2338,-7.6302],[112.2622,-7.5742],[112.248,-7.5712]]]},"properties":{"code":"35.17.08","name":"Diwek"}},{"type":"Feature","geometry":{"type":"Polygon","coordinates":[[[112.2398,-7.5742],[112.2564,-7.5172],[112.18,-7.5384],[112.2036,-7.543],[112.2224,-7.5624],[112.2398,-7.5742]]]},"properties":{"code":"35.17.09","name":"Jombang"}},{"type":"Feature","geometry":{"type":"Polygon","coordinates":[[[112.2936,-7.532],[112.2726,-7.479],[112.285,-7.5292],[112.2936,-7.532]]]},"properties":{"code":"35.17.10","name":"Peterongan"}},{"type":"Feature","geometry":{"type":"Polygon","coordinates":[[[112.378,-7.5122],[112.2936,-7.532],[112.285,-7.5292],[112.3296,-7.564],[112.3446,-7.5254],[112.378,-7.5122]]]},"properties":{"code":"35.17.11","name":"Sumobito"}},{"type":"Feature","geometry":{"type":"Polygon","coordinates":[[[112.2924,-7.4358],[112.2878,-7.4918],[112.3492,-7.5032],[112.3982,-7.4576],[112.3254,-7.4578],[112.2924,-7.4358]]]},"properties":{"code":"35.17.12","name":"Kesamben"}},{"type":"Feature","geometry":{"type":"Polygon","coordinates":[[[112.2726,-7.479],[112.2818,-7.4578],[112.2734,-7.4456],[112.2532,-7.4452],[112.2228,-7.4636],[112.2312,-7.474],[112.2514,-7.5114],[112.2726,-7.479]]]},"properties":{"code":"35.17.13","name":"Tembelang"}},{"type":"Feature","geometry":{"type":"Polygon","coordinates":[[[112.2462,-7.4142],[112.234,-7.4528],[112.2452,-7.4552],[112.253,-7.4454],[112.2818,-7.4378],[112.2462,-7.4142]]]},"properties":{"code":"35.17.14","name":"Ploso"}},{"type":"Feature","geometry":{"type":"Polygon","coordinates":[[[112.139,-7.411],[112.1064,-7.3838],[112.0808,-7.4522],[112.0792,-7.473],[112.1236,-7.4624],[112.1548,-7.4632],[112.1768,-7.4132],[112.139,-7.411]]]},"properties":{"code":"35.17.15","name":"Plandaan"}},{"type":"Feature","geometry":{"type":"Polygon","coordinates":[[[112.2718,-7.3962],[112.2706,-7.3682],[112.2506,-7.3632],[112.212,-7.3488],[112.1424,-7.3684],[112.1456,-7.407],[112.139,-7.411],[112.1768,-7.4132],[112.2718,-7.3962]]]},"properties":{"code":"35.17.16","name":"Kabuh"}},{"type":"Feature","geometry":{"type":"Polygon","coordinates":[[[112.3174,-7.39],[112.2718,-7.3962],[112.3282,-7.43],[112.3174,-7.39]]]},"properties":{"code":"35.17.17","name":"Kudu"}},{"type":"Feature","geometry":{"type":"Polygon","coordinates":[[[112.1672,-7.5636],[112.1752,-7.535],[112.17,-7.526],[112.1348,-7.5348],[112.1194,-7.553],[112.1114,-7.5666],[112.1468,-7.5962],[112.1672,-7.5636]]]},"properties":{"code":"35.17.18","name":"Bandarkedungmulyo"}},{"type":"Feature","geometry":{"type":"Polygon","coordinates":[[[112.2998,-7.5728],[112.248,-7.5712],[112.2622,-7.5742],[112.2904,-7.6024],[112.288,-7.5844],[112.2998,-7.5728]]]},"properties":{"code":"35.17.19","name":"Jogoroto"}},{"type":"Feature","geometry":{"type":"Polygon","coordinates":[[[112.2238,-7.4644],[112.2054,-7.4724],[112.1906,-7.4916],[112.169,-7.4906],[112.152,-7.5062],[112.1512,-7.5282],[112.1818,-7.5312],[112.2182,-7.5114],[112.2312,-7.474],[112.2238,-7.4644]]]},"properties":{"code":"35.17.20","name":"Megaluh"}},{"type":"Feature","geometry":{"type":"Polygon","coordinates":[[[112.3458,-7.345],[112.3078,-7.3518],[112.314,-7.365],[112.3022,-7.3572],[112.2948,-7.3596],[112.3174,-7.39],[112.3282,-7.43],[112.346,-7.4416],[112.3322,-7.3708],[112.3458,-7.345]]]},"properties":{"code":"35.17.21","name":"Ngusikan"}}]}