{"type":"FeatureCollection","features":[{"type":"Feature","geometry":{"type":"Polygon","coordinates":[[[113.4488,-7.1796],[113.4388,-7.1688],[113.3956,-7.168],[113.372,-7.1946],[113.379,-7.2108],[113.4488,-7.1796]]]},"properties":{"code":"35.28.01","name":"Tlanakan"}},{"type":"Feature","geometry":{"type":"Polygon","coordinates":[[[113.5444,-7.1738],[113.515,-7.1292],[113.4864,-7.1538],[113.4956,-7.1778],[113.5444,-7.1738]]]},"properties":{"code":"35.28.02","name":"Pademawu"}},{"type":"Feature","geometry":{"type":"Polygon","coordinates":[[[113.5444,-7.1738],[113.5498,-7.1318],[113.541,-7.1436],[113.5444,-7.1738]]]},"properties":{"code":"35.28.03","name":"Galis"}},{"type":"Feature","geometry":{"type":"Polygon","coordinates":[[[113.4936,-7.1316],[113.447,-7.1454],[113.443,-7.1632],[113.4488,-7.1796],[113.4956,-7.1778],[113.4864,-7.1538],[113.4936,-7.1316]]]},"properties":{"code":"35.28.04","name":"Pamekasan"}},{"type":"Feature","geometry":{"type":"Polygon","coordinates":[[[113.4456,-7.1262],[113.4366,-7.0988],[113.4206,-7.1226],[113.3898,-7.0824],[113.3812,-7.0808],[113.3846,-7.0888],[113.37,-7.1124],[113.3956,-7.168],[113.4388,-7.1688],[113.443,-7.1632],[113.447,-7.1454],[113.4552,-7.1294],[113.4456,-7.1262]]]},"properties":{"code":"35.28.05","name":"Proppo"}},{"type":"Feature","geometry":{"type":"Polygon","coordinates":[[[113.4384,-7.0118],[113.4244,-7.0088],[113.3946,-7.0304],[113.3952,-7.0706],[113.3812,-7.0808],[113.3908,-7.0824],[113.423,-7.1234],[113.4456,-7.1262],[113.4552,-7.1294],[113.4704,-7.0992],[113.478,-7.0738],[113.436,-7.0432],[113.4384,-7.0118]]]},"properties":{"code":"35.28.06","name":"Palengaan"}},{"type":"Feature","geometry":{"type":"Polygon","coordinates":[[[113.4472,-6.987],[113.4384,-7.0118],[113.436,-7.0432],[113.478,-7.0738],[113.4704,-7.0992],[113.5072,-7.0712],[113.5338,-7.0472],[113.517,-7.0312],[113.5064,-7.0112],[113.4758,-6.9928],[113.4472,-6.987]]]},"properties":{"code":"35.28.07","name":"Pegantenan"}},{"type":"Feature","geometry":{"type":"Polygon","coordinates":[[[113.5498,-7.1318],[113.5414,-7.1068],[113.4936,-7.1316],[113.515,-7.1292],[113.541,-7.1436],[113.5498,-7.1318]]]},"properties":{"code":"35.28.08","name":"Larangan"}},{"type":"Feature","geometry":{"type":"Polygon","coordinates":[[[113.5706,-7.068],[113.517,-7.0312],[113.5338,-7.0472],[113.5706,-7.068]]]},"properties":{"code":"35.28.09","name":"Pakong"}},{"type":"Feature","geometry":{"type":"Polygon","coordinates":[[[113.575,-6.9242],[113.57,-6.9192],[113.5294,-6.9314],[113.5356,-6.9934],[113.5788,-6.9592],[113.5704,-6.9422],[113.575,-6.9242]]]},"properties":{"code":"35.28.10","name":"Waru"}},{"type":"Feature","geometry":{"type":"Polygon","coordinates":[[[113.5064,-7.0112],[113.533,-6.9118],[113.4834,-6.8968],[113.4374,-6.9584],[113.4472,-6.987],[113.4758,-6.9928],[113.5064,-7.0112]]]},"properties":{"code":"35.28.11","name":"Batumarmar"}},{"type":"Feature","geometry":{"type":"Polygon","coordinates":[[[113.5414,-7.1068],[113.5706,-7.068],[113.5072,-7.0712],[113.5414,-7.1068]]]},"properties":{"code":"35.28.12","name":"Kadur"}},{"type":"Feature","geometry":{"type":"Polygon","coordinates":[[[113.6356,-6.9172],[113.57,-6.9192],[113.575,-6.9242],[113.5704,-6.9422],[113.5788,-6.9592],[113.6264,-6.9648],[113.6254,-6.9484],[113.6356,-6.9172]]]},"properties":{"code":"35.28.13","name":"Pasean"}}]}