{"type":"FeatureCollection","features":[{"type":"Feature","geometry":{"type":"Polygon","coordinates":[[[112.8784,-7.6552],[112.8844,-7.6318],[112.8746,-7.6268],[112.8784,-7.6552]]]},"properties":{"code":"35.75.01","name":"Gadingrejo"}},{"type":"Feature","geometry":{"type":"Polygon","coordinates":[[[112.8812,-7.6718],[112.901,-7.6862],[112.9116,-7.6768],[112.906,-7.6484],[112.8978,-7.6448],[112.8812,-7.6718]]]},"properties":{"code":"35.75.02","name":"Purworejo"}},{"type":"Feature","geometry":{"type":"Polygon","coordinates":[[[112.9138,-7.6456],[112.9054,-7.6662],[112.9108,-7.6786],[112.943,-7.6556],[112.92,-7.6392],[112.9138,-7.6456]]]},"properties":{"code":"35.75.03","name":"Bugul Kidul"}},{"type":"Feature","geometry":{"type":"Polygon","coordinates":[[[112.92,-7.6392],[112.9194,-7.6266],[112.898,-7.6388],[112.9138,-7.6456],[112.92,-7.6392]]]},"properties":{"code":"35.75.04","name":"Panggungrejo"}}]}