{"type":"FeatureCollection","features":[{"type":"Feature","geometry":{"type":"Polygon","coordinates":[[[112.6646,-7.3514],[112.7028,-7.338],[112.6902,-7.3224],[112.6942,-7.3368],[112.6646,-7.3514]]]},"properties":{"code":"35.78.01","name":"Karang Pilang"}},{"type":"Feature","geometry":{"type":"Polygon","coordinates":[[[112.7608,-7.3058],[112.735,-7.3114],[112.7294,-7.3396],[112.742,-7.3452],[112.7438,-7.3228],[112.7608,-7.3058]]]},"properties":{"code":"35.78.02","name":"Wonocolo"}},{"type":"Feature","geometry":{"type":"Polygon","coordinates":[[[112.831,-7.3352],[112.8102,-7.2988],[112.7726,-7.309],[112.7574,-7.3302],[112.831,-7.3352]]]},"properties":{"code":"35.78.03","name":"Rungkut"}},{"type":"Feature","geometry":{"type":"Polygon","coordinates":[[[112.757,-7.2936],[112.7424,-7.2902],[112.72,-7.308],[112.757,-7.2936]]]},"properties":{"code":"35.78.04","name":"Wonokromo"}},{"type":"Feature","geometry":{"type":"Polygon","coordinates":[[[112.7378,-7.2766],[112.741,-7.2662],[112.7332,-7.2584],[112.7264,-7.2748],[112.7424,-7.2902],[112.7378,-7.2766]]]},"properties":{"code":"35.78.05","name":"Tegalsari"}},{"type":"Feature","geometry":{"type":"Polygon","coordinates":[[[112.7134,-7.2904],[112.7288,-7.2922],[112.7342,-7.2558],[112.7156,-7.2552],[112.7172,-7.2794],[112.7134,-7.2904]]]},"properties":{"code":"35.78.06","name":"Sawahan"}},{"type":"Feature","geometry":{"type":"Polygon","coordinates":[[[112.7378,-7.2766],[112.7522,-7.2642],[112.7426,-7.2562],[112.7342,-7.2558],[112.741,-7.264],[112.7378,-7.2766]]]},"properties":{"code":"35.78.07","name":"Genteng"}},{"type":"Feature","geometry":{"type":"Polygon","coordinates":[[[112.7722,-7.2806],[112.7764,-7.2644],[112.7446,-7.2728],[112.757,-7.2936],[112.762,-7.3062],[112.7624,-7.2772],[112.7722,-7.2806]]]},"properties":{"code":"35.78.08","name":"Gubeng"}},{"type":"Feature","geometry":{"type":"Polygon","coordinates":[[[112.8102,-7.2988],[112.8038,-7.2852],[112.7706,-7.2808],[112.762,-7.3062],[112.8102,-7.2988]]]},"properties":{"code":"35.78.09","name":"Sukolilo"}},{"type":"Feature","geometry":{"type":"Polygon","coordinates":[[[112.7798,-7.233],[112.7592,-7.249],[112.778,-7.2544],[112.7828,-7.2474],[112.7798,-7.233]]]},"properties":{"code":"35.78.10","name":"Tambaksari"}},{"type":"Feature","geometry":{"type":"Polygon","coordinates":[[[112.7592,-7.249],[112.7642,-7.2356],[112.7484,-7.2324],[112.7458,-7.2418],[112.7592,-7.249]]]},"properties":{"code":"35.78.11","name":"Simokerto"}},{"type":"Feature","geometry":{"type":"Polygon","coordinates":[[[112.7382,-7.2238],[112.7324,-7.2206],[112.7382,-7.2316],[112.7382,-7.2238]]]},"properties":{"code":"35.78.12","name":"Pabean Cantian"}},{"type":"Feature","geometry":{"type":"Polygon","coordinates":[[[112.7426,-7.2562],[112.7206,-7.2362],[112.7152,-7.2548],[112.7426,-7.2562]]]},"properties":{"code":"35.78.13","name":"Bubutan"}},{"type":"Feature","geometry":{"type":"Polygon","coordinates":[[[112.6754,-7.2384],[112.6544,-7.2422],[112.6618,-7.2702],[112.6756,-7.2618],[112.6724,-7.2708],[112.685,-7.2766],[112.692,-7.2528],[112.6746,-7.2482],[112.6754,-7.2384]]]},"properties":{"code":"35.78.14","name":"Tandes"}},{"type":"Feature","geometry":{"type":"Polygon","coordinates":[[[112.7324,-7.2206],[112.7206,-7.2362],[112.7382,-7.2316],[112.7324,-7.2206]]]},"properties":{"code":"35.78.15","name":"Krembangan"}},{"type":"Feature","geometry":{"type":"Polygon","coordinates":[[[112.7624,-7.207],[112.7394,-7.195],[112.7382,-7.2238],[112.7624,-7.207]]]},"properties":{"code":"35.78.16","name":"Semampir"}},{"type":"Feature","geometry":{"type":"Polygon","coordinates":[[[112.7756,-7.2218],[112.7624,-7.207],[112.7578,-7.2356],[112.7694,-7.2372],[112.7756,-7.2218]]]},"properties":{"code":"35.78.17","name":"Kenjeran"}},{"type":"Feature","geometry":{"type":"Polygon","coordinates":[[[112.6716,-7.317],[112.6492,-7.3146],[112.6752,-7.3354],[112.6716,-7.317]]]},"properties":{"code":"35.78.18","name":"Lakarsantri"}},{"type":"Feature","geometry":{"type":"Polygon","coordinates":[[[112.6348,-7.2206],[112.6688,-7.219],[112.6632,-7.1932],[112.6348,-7.2206]]]},"properties":{"code":"35.78.19","name":"Benowo"}},{"type":"Feature","geometry":{"type":"Polygon","coordinates":[[[112.6902,-7.3224],[112.6716,-7.317],[112.6752,-7.3354],[112.6942,-7.3368],[112.6902,-7.3224]]]},"properties":{"code":"35.78.20","name":"Wiyung"}},{"type":"Feature","geometry":{"type":"Polygon","coordinates":[[[112.7172,-7.2794],[112.6998,-7.2818],[112.6958,-7.2786],[112.72,-7.308],[112.7134,-7.2904],[112.7172,-7.2794]]]},"properties":{"code":"35.78.21","name":"Dukuh Pakis"}},{"type":"Feature","geometry":{"type":"Polygon","coordinates":[[[112.7264,-7.318],[112.7156,-7.3418],[112.7332,-7.3482],[112.7352,-7.3106],[112.7264,-7.318]]]},"properties":{"code":"35.78.22","name":"Gayungan"}},{"type":"Feature","geometry":{"type":"Polygon","coordinates":[[[112.7264,-7.318],[112.7178,-7.308],[112.7042,-7.3366],[112.7174,-7.3402],[112.7264,-7.318]]]},"properties":{"code":"35.78.23","name":"Jambangan"}},{"type":"Feature","geometry":{"type":"Polygon","coordinates":[[[112.7726,-7.309],[112.7532,-7.3116],[112.742,-7.3406],[112.7536,-7.3422],[112.7726,-7.309]]]},"properties":{"code":"35.78.24","name":"Tenggilis Mejoyo"}},{"type":"Feature","geometry":{"type":"Polygon","coordinates":[[[112.831,-7.3352],[112.8224,-7.3304],[112.7668,-7.332],[112.8126,-7.3464],[112.831,-7.3352]]]},"properties":{"code":"35.78.25","name":"Gunung Anyar"}},{"type":"Feature","geometry":{"type":"Polygon","coordinates":[[[112.8038,-7.2852],[112.778,-7.2544],[112.7722,-7.2806],[112.7624,-7.2772],[112.7706,-7.2808],[112.8038,-7.2852]]]},"properties":{"code":"35.78.26","name":"Mulyorejo"}},{"type":"Feature","geometry":{"type":"Polygon","coordinates":[[[112.6998,-7.2818],[112.7132,-7.2692],[112.7142,-7.256],[112.6922,-7.2516],[112.6838,-7.2746],[112.6958,-7.2786],[112.6998,-7.2818]]]},"properties":{"code":"35.78.27","name":"Sukomanunggal"}},{"type":"Feature","geometry":{"type":"Polygon","coordinates":[[[112.6754,-7.2384],[112.682,-7.2526],[112.7148,-7.2564],[112.7052,-7.2214],[112.6754,-7.2384]]]},"properties":{"code":"35.78.28","name":"Asem Rowo"}},{"type":"Feature","geometry":{"type":"Polygon","coordinates":[[[112.7828,-7.2474],[112.804,-7.2514],[112.7802,-7.2088],[112.7756,-7.2218],[112.7798,-7.233],[112.7828,-7.2474]]]},"properties":{"code":"35.78.29","name":"Bulak"}},{"type":"Feature","geometry":{"type":"Polygon","coordinates":[[[112.6348,-7.2206],[112.6072,-7.2372],[112.6042,-7.2496],[112.6348,-7.2206]]]},"properties":{"code":"35.78.30","name":"Pakal"}},{"type":"Feature","geometry":{"type":"Polygon","coordinates":[[[112.6756,-7.2618],[112.6654,-7.272],[112.651,-7.2582],[112.6304,-7.2668],[112.6252,-7.2896],[112.676,-7.29],[112.6724,-7.2708],[112.6756,-7.2618]]]},"properties":{"code":"35.78.31","name":"Sambikerep"}}]}