{"type":"FeatureCollection","features":[{"type":"Feature","geometry":{"type":"Polygon","coordinates":[[[106.4642,-6.2165],[106.4444,-6.1892],[106.4549,-6.2154],[106.4642,-6.2165]]]},"properties":{"code":"36.03.01","name":"Balaraja","latitude":-6.204812899403724,"longitude":106.44270081319567}},{"type":"Feature","geometry":{"type":"Polygon","coordinates":[[[106.4019,-6.2387],[106.4306,-6.192],[106.3802,-6.1863],[106.3796,-6.2186],[106.4019,-6.2387]]]},"properties":{"code":"36.03.02","name":"Jayanti","latitude":-6.206826903757873,"longitude":106.39833610766979}},{"type":"Feature","geometry":{"type":"Polygon","coordinates":[[[106.5048,-6.2793],[106.4642,-6.2165],[106.4549,-6.2154],[106.4609,-6.2882],[106.5048,-6.2793]]]},"properties":{"code":"36.03.03","name":"Tigaraksa","latitude":-6.265713549127918,"longitude":106.46732214115742}},{"type":"Feature","geometry":{"type":"Polygon","coordinates":[[[106.5142,-6.2943],[106.4842,-6.3253],[106.4763,-6.3507],[106.5319,-6.3396],[106.5142,-6.2943]]]},"properties":{"code":"36.03.04","name":"Jambe","latitude":-6.323835256851196,"longitude":106.49923001738486}},{"type":"Feature","geometry":{"type":"Polygon","coordinates":[[[106.4019,-6.2387],[106.3884,-6.2764],[106.4513,-6.2866],[106.4019,-6.2387]]]},"properties":{"code":"36.03.05","name":"Cisoka","latitude":-6.259775523528408,"longitude":106.41672908256804}},{"type":"Feature","geometry":{"type":"Polygon","coordinates":[[[106.417,-6.1649],[106.4186,-6.1192],[106.3891,-6.1329],[106.3943,-6.1706],[106.4095,-6.1648],[106.417,-6.1649]]]},"properties":{"code":"36.03.06","name":"Kresek","latitude":-6.144432854735687,"longitude":106.40440859396986}},{"type":"Feature","geometry":{"type":"Polygon","coordinates":[[[106.4587,-6.0377],[106.4042,-6.0642],[106.4177,-6.0907],[106.4186,-6.1192],[106.4496,-6.0916],[106.4587,-6.0377]]]},"properties":{"code":"36.03.07","name":"Kronjo","latitude":-6.070346103472791,"longitude":106.42820816445206}},{"type":"Feature","geometry":{"type":"Polygon","coordinates":[[[106.5445,-6.0504],[106.482,-6.0474],[106.4891,-6.0806],[106.5348,-6.0859],[106.5495,-6.0966],[106.5445,-6.0504]]]},"properties":{"code":"36.03.08","name":"Mauk","latitude":-6.05804839285256,"longitude":106.52072485138588}},{"type":"Feature","geometry":{"type":"Polygon","coordinates":[[[106.482,-6.0474],[106.4587,-6.0377],[106.4496,-6.0916],[106.4592,-6.1339],[106.4808,-6.0837],[106.482,-6.0474]]]},"properties":{"code":"36.03.09","name":"Kemiri","latitude":-6.087765302145879,"longitude":106.46380323714489}},{"type":"Feature","geometry":{"type":"Polygon","coordinates":[[[106.5657,-6.1063],[106.5783,-6.0585],[106.5677,-6.0482],[106.5445,-6.0504],[106.5495,-6.0966],[106.5429,-6.1128],[106.5657,-6.1063]]]},"properties":{"code":"36.03.10","name":"Sukadiri","latitude":-6.06990784685039,"longitude":106.55900830669376}},{"type":"Feature","geometry":{"type":"Polygon","coordinates":[[[106.4891,-6.0806],[106.4808,-6.0837],[106.4592,-6.1339],[106.4817,-6.1402],[106.4951,-6.1358],[106.5271,-6.1457],[106.528,-6.136],[106.5429,-6.1128],[106.5348,-6.0859],[106.4891,-6.0806]]]},"properties":{"code":"36.03.11","name":"Rajeg","latitude":-6.116336277778183,"longitude":106.51033040951476}},{"type":"Feature","geometry":{"type":"Polygon","coordinates":[[[106.5882,-6.1614],[106.528,-6.136],[106.5279,-6.1941],[106.5388,-6.1933],[106.5882,-6.1614]]]},"properties":{"code":"36.03.12","name":"Pasar Kemis","latitude":-6.158914487126247,"longitude":106.55251197342426}},{"type":"Feature","geometry":{"type":"Polygon","coordinates":[[[106.6568,-6.0795],[106.6927,-6.0439],[106.6319,-6.0167],[106.6383,-6.0832],[106.669,-6.0831],[106.6568,-6.0795]]]},"properties":{"code":"36.03.13","name":"Teluknaga","latitude":-6.049921542507641,"longitude":106.65824447406372}},{"type":"Feature","geometry":{"type":"Polygon","coordinates":[[[106.6758,-6.0986],[106.725,-6.0897],[106.7012,-6.0438],[106.6568,-6.0795],[106.669,-6.0831],[106.6414,-6.1226],[106.6726,-6.1195],[106.6758,-6.0986]]]},"properties":{"code":"36.03.14","name":"Kosambi","latitude":-6.080866254836399,"longitude":106.6850262207665}},{"type":"Feature","geometry":{"type":"Polygon","coordinates":[[[106.6027,-6.0977],[106.6363,-6.0944],[106.6283,-6.014],[106.5677,-6.0482],[106.5783,-6.0585],[106.6027,-6.0977]]]},"properties":{"code":"36.03.15","name":"Pakuhaji","latitude":-6.060237811342313,"longitude":106.60632770543896}},{"type":"Feature","geometry":{"type":"Polygon","coordinates":[[[106.5657,-6.1063],[106.5882,-6.1614],[106.5876,-6.1367],[106.5657,-6.1063]]]},"properties":{"code":"36.03.16","name":"Sepatan","latitude":-6.118297773863407,"longitude":106.58008798700257}},{"type":"Feature","geometry":{"type":"Polygon","coordinates":[[[106.5679,-6.2769],[106.5961,-6.2263],[106.5603,-6.2024],[106.5526,-6.1995],[106.5596,-6.2153],[106.5368,-6.2591],[106.5679,-6.2769]]]},"properties":{"code":"36.03.17","name":"Curug","latitude":-6.242553074244264,"longitude":106.56612179745923}},{"type":"Feature","geometry":{"type":"Polygon","coordinates":[[[106.5388,-6.1933],[106.5253,-6.1999],[106.4783,-6.203],[106.4851,-6.2439],[106.5413,-6.2438],[106.5596,-6.2112],[106.554,-6.1903],[106.5388,-6.1933]]]},"properties":{"code":"36.03.18","name":"Cikupa","latitude":-6.217956119705681,"longitude":106.51586088567642}},{"type":"Feature","geometry":{"type":"Polygon","coordinates":[[[106.5368,-6.2591],[106.5048,-6.2793],[106.5142,-6.2943],[106.5522,-6.2763],[106.5368,-6.2591]]]},"properties":{"code":"36.03.19","name":"Panongan","latitude":-6.27888428325243,"longitude":106.52620222058809}},{"type":"Feature","geometry":{"type":"Polygon","coordinates":[[[106.5865,-6.2735],[106.5679,-6.2769],[106.5522,-6.2763],[106.558,-6.3406],[106.5811,-6.3196],[106.5874,-6.3049],[106.5945,-6.284],[106.5978,-6.2746],[106.5865,-6.2735]]]},"properties":{"code":"36.03.20","name":"Legok","latitude":-6.304762606087959,"longitude":106.56499907304958}},{"type":"Feature","geometry":{"type":"Polygon","coordinates":[[[106.6519,-6.2692],[106.632,-6.2625],[106.6098,-6.2486],[106.5945,-6.284],[106.5874,-6.3049],[106.5811,-6.3196],[106.6097,-6.3403],[106.6466,-6.2911],[106.6466,-6.2795],[106.6519,-6.2692]]]},"properties":{"code":"36.03.22","name":"Pagedangan","latitude":-6.297326271474885,"longitude":106.61748588977866}},{"type":"Feature","geometry":{"type":"Polygon","coordinates":[[[106.6097,-6.3403],[106.6567,-6.3596],[106.6468,-6.3425],[106.6607,-6.3276],[106.6537,-6.2969],[106.6466,-6.2911],[106.6097,-6.3403]]]},"properties":{"code":"36.03.23","name":"Cisauk","latitude":-6.339095430802579,"longitude":106.63017415979184}},{"type":"Feature","geometry":{"type":"Polygon","coordinates":[[[106.4444,-6.1892],[106.417,-6.1649],[106.4095,-6.1648],[106.4444,-6.1892]]]},"properties":{"code":"36.03.27","name":"Sukamulya","latitude":-6.16042335370945,"longitude":106.43615648910287}},{"type":"Feature","geometry":{"type":"Polygon","coordinates":[[[106.6125,-6.2159],[106.5865,-6.2735],[106.5978,-6.2746],[106.6098,-6.2486],[106.632,-6.2625],[106.6125,-6.2159]]]},"properties":{"code":"36.03.28","name":"Kelapa Dua","latitude":-6.242571564482785,"longitude":106.60937152017014}},{"type":"Feature","geometry":{"type":"Polygon","coordinates":[[[106.5253,-6.1999],[106.5317,-6.1534],[106.4983,-6.1366],[106.4887,-6.1543],[106.4817,-6.1402],[106.4929,-6.1992],[106.5253,-6.1999]]]},"properties":{"code":"36.03.29","name":"Sindang Jaya","latitude":-6.16888699865437,"longitude":106.49885866317928}},{"type":"Feature","geometry":{"type":"Polygon","coordinates":[[[106.6323,-6.1201],[106.6027,-6.0977],[106.5876,-6.1367],[106.6323,-6.1201]]]},"properties":{"code":"36.03.30","name":"Sepatan Timur","latitude":-6.119943744157123,"longitude":106.60836851797718}},{"type":"Feature","geometry":{"type":"Polygon","coordinates":[[[106.3919,-6.3139],[106.3993,-6.316],[106.4103,-6.3451],[106.4277,-6.3485],[106.4426,-6.3253],[106.4416,-6.3193],[106.4295,-6.3251],[106.4354,-6.3057],[106.4513,-6.2866],[106.3919,-6.3139]]]},"properties":{"code":"36.03.31","name":"Solear","latitude":-6.3069042827731465,"longitude":106.42151843279248}},{"type":"Feature","geometry":{"type":"Polygon","coordinates":[[[106.3717,-6.0711],[106.3891,-6.1329],[106.4114,-6.1052],[106.3881,-6.0876],[106.3717,-6.0711]]]},"properties":{"code":"36.03.32","name":"Gunung Kaler","latitude":-6.0956710477517895,"longitude":106.37415007664481}},{"type":"Feature","geometry":{"type":"Polygon","coordinates":[[[106.4042,-6.0642],[106.3665,-6.0385],[106.3717,-6.0711],[106.3881,-6.0876],[106.4114,-6.1052],[106.4177,-6.0907],[106.4042,-6.0642]]]},"properties":{"code":"36.03.33","name":"Mekar Baru","latitude":-6.061955975401602,"longitude":106.38710285819874}}]}