{"type":"FeatureCollection","features":[{"type":"Feature","geometry":{"type":"Polygon","coordinates":[[[115.3311,-8.4136],[115.3175,-8.4337],[115.327,-8.4649],[115.324,-8.4906],[115.3348,-8.5162],[115.3608,-8.4021],[115.3515,-8.3375],[115.3302,-8.3448],[115.3364,-8.3695],[115.3311,-8.4136]]]},"properties":{"code":"51.06.01","name":"Susut","latitude":-8.41888698153221,"longitude":115.34078272365689}},{"type":"Feature","geometry":{"type":"Polygon","coordinates":[[[115.377,-8.3222],[115.3752,-8.3059],[115.347,-8.334],[115.355,-8.3378],[115.3613,-8.3896],[115.3529,-8.4461],[115.3425,-8.4637],[115.3462,-8.4884],[115.3344,-8.517],[115.3425,-8.5248],[115.3576,-8.5209],[115.36,-8.4732],[115.3679,-8.4161],[115.376,-8.3724],[115.3792,-8.3528],[115.3854,-8.3144],[115.377,-8.3222]]]},"properties":{"code":"51.06.02","name":"Bangli","latitude":-8.39728410069378,"longitude":115.36141117854783}},{"type":"Feature","geometry":{"type":"Polygon","coordinates":[[[115.3857,-8.467],[115.4031,-8.462],[115.4144,-8.4341],[115.4157,-8.4012],[115.3943,-8.3527],[115.3792,-8.3528],[115.376,-8.3724],[115.3679,-8.4161],[115.36,-8.4732],[115.3759,-8.4607],[115.3857,-8.467]]]},"properties":{"code":"51.06.03","name":"Tembuku","latitude":-8.414317397884309,"longitude":115.38926135645953}},{"type":"Feature","geometry":{"type":"Polygon","coordinates":[[[115.338,-8.1481],[115.3029,-8.1727],[115.2848,-8.1704],[115.2451,-8.1765],[115.2425,-8.2153],[115.2323,-8.2403],[115.2431,-8.2967],[115.2625,-8.3328],[115.2907,-8.3176],[115.3067,-8.3287],[115.3222,-8.3283],[115.3302,-8.3448],[115.347,-8.334],[115.3752,-8.3059],[115.377,-8.3222],[115.3854,-8.3144],[115.3986,-8.3442],[115.4193,-8.3219],[115.448,-8.2455],[115.4537,-8.1985],[115.4118,-8.1719],[115.338,-8.1481]]]},"properties":{"code":"51.06.04","name":"Kintamani","latitude":-8.243616211214846,"longitude":115.34039418183221}}]}