{"type":"FeatureCollection","features":[{"type":"Feature","geometry":{"type":"Polygon","coordinates":[[[117.39,-8.9598],[117.371,-8.8914],[117.2892,-8.8146],[117.236,-8.829],[117.1512,-8.8124],[117.1128,-8.8508],[117.061,-8.8624],[117.0648,-8.8762],[117.0632,-8.9004],[117.0616,-9.013],[117.0574,-9.1042],[117.1352,-9.084],[117.1764,-9.024],[117.324,-9.0556],[117.3838,-9.0154],[117.39,-8.9598]]]},"properties":{"code":"52.04.02","name":"Lunyuk"}},{"type":"Feature","geometry":{"type":"Polygon","coordinates":[[[117.0336,-8.5264],[116.9908,-8.499],[116.979,-8.601],[117.0454,-8.6718],[117.1012,-8.5778],[117.0336,-8.5264]]]},"properties":{"code":"52.04.05","name":"Alas"}},{"type":"Feature","geometry":{"type":"Polygon","coordinates":[[[117.154,-8.4974],[117.2018,-8.4744],[117.208,-8.4612],[117.2008,-8.4042],[117.1232,-8.369],[117.0716,-8.453],[117.118,-8.4896],[117.1392,-8.5262],[117.154,-8.4974]]]},"properties":{"code":"52.04.06","name":"Utan"}},{"type":"Feature","geometry":{"type":"Polygon","coordinates":[[[117.3432,-8.5778],[117.2918,-8.5318],[117.2618,-8.5626],[117.1854,-8.5522],[117.1712,-8.5842],[117.147,-8.5862],[117.1366,-8.5766],[117.1038,-8.5758],[117.049,-8.6702],[117.0694,-8.678],[117.0856,-8.6998],[117.2328,-8.713],[117.2976,-8.7016],[117.2966,-8.6876],[117.3064,-8.6776],[117.2528,-8.6344],[117.2634,-8.6238],[117.3432,-8.5778]]]},"properties":{"code":"52.04.07","name":"Batu Lanteh"}},{"type":"Feature","geometry":{"type":"Polygon","coordinates":[[[117.4144,-8.5164],[117.4432,-8.5328],[117.4576,-8.4908],[117.4418,-8.465],[117.4046,-8.4556],[117.4144,-8.5164]]]},"properties":{"code":"52.04.08","name":"Sumbawa"}},{"type":"Feature","geometry":{"type":"Polygon","coordinates":[[[117.52,-8.5914],[117.631,-8.489],[117.6246,-8.4432],[117.5672,-8.4092],[117.537,-8.447],[117.5016,-8.4748],[117.4572,-8.4952],[117.4818,-8.5954],[117.52,-8.5914]]]},"properties":{"code":"52.04.09","name":"Moyo Hilir"}},{"type":"Feature","geometry":{"type":"Polygon","coordinates":[[[117.5106,-8.6254],[117.447,-8.5696],[117.4208,-8.5628],[117.3748,-8.5984],[117.3518,-8.598],[117.342,-8.6064],[117.3242,-8.6026],[117.3168,-8.6106],[117.2628,-8.6242],[117.2528,-8.6344],[117.3384,-8.704],[117.4634,-8.7032],[117.5104,-8.7106],[117.503,-8.6424],[117.5106,-8.6254]]]},"properties":{"code":"52.04.10","name":"Moyo Hulu"}},{"type":"Feature","geometry":{"type":"Polygon","coordinates":[[[117.4912,-8.7882],[117.4534,-8.776],[117.4116,-8.8002],[117.4076,-8.8094],[117.4246,-8.849],[117.403,-8.8794],[117.39,-8.9598],[117.3838,-9.0154],[117.3862,-9.0526],[117.5474,-9.0032],[117.5986,-8.9368],[117.599,-8.9274],[117.6196,-8.854],[117.5974,-8.8528],[117.5816,-8.8436],[117.5748,-8.8224],[117.5176,-8.846],[117.4912,-8.7882]]]},"properties":{"code":"52.04.11","name":"Ropang"}},{"type":"Feature","geometry":{"type":"Polygon","coordinates":[[[117.705,-8.6012],[117.644,-8.556],[117.627,-8.502],[117.5596,-8.5584],[117.5792,-8.5702],[117.5788,-8.627],[117.608,-8.7122],[117.6784,-8.6066],[117.705,-8.6012]]]},"properties":{"code":"52.04.12","name":"Lape"}},{"type":"Feature","geometry":{"type":"Polygon","coordinates":[[[117.938,-8.7214],[117.871,-8.6964],[117.8046,-8.7274],[117.7196,-8.694],[117.6514,-8.8552],[117.6216,-8.8688],[117.6306,-8.9128],[117.6848,-8.8518],[117.7708,-8.8588],[117.8412,-8.8898],[117.9024,-8.9198],[117.9128,-8.832],[117.9094,-8.7594],[117.938,-8.7214]]]},"properties":{"code":"52.04.13","name":"Plampang"}},{"type":"Feature","geometry":{"type":"Polygon","coordinates":[[[118.136,-8.709],[118.0962,-8.7062],[118.0136,-8.7478],[117.927,-8.7394],[117.9094,-8.7594],[117.9128,-8.832],[117.9024,-8.9198],[117.9808,-8.8948],[118.1144,-8.8108],[118.143,-8.7186],[118.136,-8.709]]]},"properties":{"code":"52.04.14","name":"Empang"}},{"type":"Feature","geometry":{"type":"Polygon","coordinates":[[[116.9908,-8.499],[116.876,-8.5414],[116.961,-8.605],[116.973,-8.618],[116.979,-8.601],[116.9908,-8.499]]]},"properties":{"code":"52.04.17","name":"Alas Barat"}},{"type":"Feature","geometry":{"type":"MultiPolygon","coordinates":[[[[117.3748,-8.5208],[117.4002,-8.478],[117.3686,-8.458],[117.3208,-8.4406],[117.3152,-8.4408],[117.2918,-8.5318],[117.3436,-8.5422],[117.3748,-8.5208]]],[[[117.56,-8.1442],[117.48,-8.1924],[117.5082,-8.273],[117.4702,-8.356],[117.528,-8.3896],[117.6102,-8.238],[117.69,-8.1808],[117.6628,-8.1502],[117.56,-8.1442]]]]},"properties":{"code":"52.04.18","name":"Labuhan Badas"}},{"type":"Feature","geometry":{"type":"Polygon","coordinates":[[[117.7708,-8.8588],[117.6848,-8.8518],[117.6306,-8.9128],[117.599,-8.9274],[117.5986,-8.9368],[117.6906,-8.9188],[117.7652,-8.9342],[117.8412,-8.8898],[117.7708,-8.8588]]]},"properties":{"code":"52.04.19","name":"Labangka"}},{"type":"Feature","geometry":{"type":"Polygon","coordinates":[[[117.0716,-8.453],[117.0076,-8.4604],[117.0336,-8.5264],[117.1012,-8.5778],[117.1718,-8.5838],[117.1794,-8.5736],[117.1552,-8.5566],[117.118,-8.4896],[117.0716,-8.453]]]},"properties":{"code":"52.04.20","name":"Buer"}},{"type":"Feature","geometry":{"type":"Polygon","coordinates":[[[117.2618,-8.5626],[117.292,-8.519],[117.308,-8.4848],[117.3158,-8.4396],[117.2506,-8.417],[117.2316,-8.3996],[117.1984,-8.409],[117.2056,-8.4688],[117.1688,-8.4952],[117.154,-8.4974],[117.1392,-8.5262],[117.1854,-8.5522],[117.2618,-8.5626]]]},"properties":{"code":"52.04.21","name":"Rhee"}},{"type":"Feature","geometry":{"type":"Polygon","coordinates":[[[117.4144,-8.5164],[117.3748,-8.5208],[117.3436,-8.5422],[117.3432,-8.5778],[117.4208,-8.5628],[117.447,-8.5696],[117.4144,-8.5164]]]},"properties":{"code":"52.04.22","name":"Unter Iwes"}},{"type":"Feature","geometry":{"type":"Polygon","coordinates":[[[117.537,-8.447],[117.4514,-8.4122],[117.4414,-8.4636],[117.4572,-8.4952],[117.5016,-8.4748],[117.537,-8.447]]]},"properties":{"code":"52.04.23","name":"Moyo Utara"}},{"type":"Feature","geometry":{"type":"Polygon","coordinates":[[[117.7196,-8.694],[117.7686,-8.6658],[117.7614,-8.5988],[117.705,-8.6012],[117.6784,-8.6066],[117.608,-8.7122],[117.5738,-8.7334],[117.5868,-8.7488],[117.5914,-8.7718],[117.5738,-8.8018],[117.5754,-8.826],[117.5844,-8.8458],[117.6196,-8.854],[117.6216,-8.8688],[117.6514,-8.8552],[117.7196,-8.694]]]},"properties":{"code":"52.04.24","name":"Maronge"}},{"type":"Feature","geometry":{"type":"Polygon","coordinates":[[[118.1758,-8.6548],[118.052,-8.663],[117.9742,-8.7398],[117.938,-8.7214],[117.927,-8.7394],[118.0136,-8.7478],[118.0962,-8.7062],[118.136,-8.709],[118.143,-8.7186],[118.1144,-8.8108],[118.1232,-8.8782],[118.3236,-8.7316],[118.3334,-8.7136],[118.3122,-8.6934],[118.1884,-8.7058],[118.1758,-8.6548]]]},"properties":{"code":"52.04.25","name":"Tarano"}},{"type":"Feature","geometry":{"type":"Polygon","coordinates":[[[117.5788,-8.627],[117.5792,-8.5702],[117.5596,-8.5584],[117.52,-8.5914],[117.4818,-8.5954],[117.5106,-8.6254],[117.503,-8.6424],[117.5314,-8.7172],[117.5674,-8.702],[117.608,-8.7122],[117.5788,-8.627]]]},"properties":{"code":"52.04.26","name":"Lopok"}},{"type":"Feature","geometry":{"type":"Polygon","coordinates":[[[117.4698,-8.7056],[117.3436,-8.7054],[117.311,-8.68],[117.2968,-8.6872],[117.2982,-8.7012],[117.2796,-8.705],[117.2844,-8.7216],[117.2634,-8.7896],[117.3504,-8.8692],[117.403,-8.8794],[117.4246,-8.849],[117.4074,-8.8192],[117.4096,-8.8022],[117.4496,-8.7532],[117.4698,-8.7056]]]},"properties":{"code":"52.04.27","name":"Lenangguar"}},{"type":"Feature","geometry":{"type":"Polygon","coordinates":[[[117.2796,-8.705],[117.191,-8.7124],[117.0856,-8.6998],[117.0788,-8.729],[117.0346,-8.8004],[117.0818,-8.8358],[117.1128,-8.8508],[117.1512,-8.8124],[117.236,-8.829],[117.2634,-8.7896],[117.2844,-8.7216],[117.2796,-8.705]]]},"properties":{"code":"52.04.28","name":"Orong Telu"}},{"type":"Feature","geometry":{"type":"Polygon","coordinates":[[[117.5674,-8.702],[117.5314,-8.7172],[117.4698,-8.7056],[117.4496,-8.7532],[117.4912,-8.7882],[117.5176,-8.846],[117.5748,-8.8224],[117.574,-8.8016],[117.5912,-8.7734],[117.5674,-8.702]]]},"properties":{"code":"52.04.29","name":"Lantung"}}]}