{"type":"FeatureCollection","features":[{"type":"Feature","geometry":{"type":"Polygon","coordinates":[[[116.1713,-8.3532],[116.1125,-8.3909],[116.1206,-8.4064],[116.1327,-8.4604],[116.161,-8.4562],[116.1852,-8.4636],[116.2068,-8.4804],[116.2149,-8.4797],[116.2229,-8.4564],[116.2427,-8.4336],[116.1867,-8.4039],[116.1713,-8.3532]]]},"properties":{"code":"52.08.01","name":"Tanjung","latitude":-8.416678120572954,"longitude":116.17256690454273}},{"type":"Feature","geometry":{"type":"Polygon","coordinates":[[[116.2655,-8.3175],[116.2353,-8.2673],[116.1713,-8.3532],[116.1867,-8.4039],[116.2165,-8.4037],[116.2441,-8.4344],[116.3197,-8.424],[116.338,-8.3917],[116.3033,-8.3342],[116.2861,-8.3201],[116.2655,-8.3175]]]},"properties":{"code":"52.08.02","name":"Gangga","latitude":-8.365156332603068,"longitude":116.2523069541186}},{"type":"Feature","geometry":{"type":"Polygon","coordinates":[[[116.3515,-8.3199],[116.3177,-8.2236],[116.2365,-8.2668],[116.2655,-8.3175],[116.2923,-8.3236],[116.3299,-8.3735],[116.338,-8.3917],[116.3944,-8.3874],[116.3515,-8.3199]]]},"properties":{"code":"52.08.03","name":"Kayangan","latitude":-8.316919888366014,"longitude":116.319082805044}},{"type":"Feature","geometry":{"type":"Polygon","coordinates":[[[116.3944,-8.3874],[116.4199,-8.3899],[116.4674,-8.3306],[116.4602,-8.2271],[116.3712,-8.2104],[116.3377,-8.2147],[116.3179,-8.2231],[116.3172,-8.2315],[116.3515,-8.3199],[116.3944,-8.3874]]]},"properties":{"code":"52.08.04","name":"Bayan","latitude":-8.295161090338866,"longitude":116.40443493210718}},{"type":"Feature","geometry":{"type":"Polygon","coordinates":[[[116.1125,-8.3909],[116.0562,-8.4042],[116.0331,-8.4424],[116.0683,-8.4618],[116.0748,-8.4725],[116.0891,-8.4638],[116.1336,-8.4693],[116.1272,-8.4464],[116.1076,-8.4378],[116.1241,-8.4251],[116.1206,-8.4064],[116.1125,-8.3909]]]},"properties":{"code":"52.08.05","name":"Pemenang","latitude":-8.428001067961626,"longitude":116.0808992671049}}]}