{"type":"FeatureCollection","features":[{"type":"Feature","geometry":{"type":"Polygon","coordinates":[[[118.7168,-8.641],[118.6572,-8.6432],[118.639,-8.6838],[118.6044,-8.6992],[118.6338,-8.8166],[118.7182,-8.7978],[118.7232,-8.758],[118.716,-8.74],[118.7168,-8.641]]]},"properties":{"code":"52.06.01","name":"Monta"}},{"type":"Feature","geometry":{"type":"Polygon","coordinates":[[[118.6706,-8.4832],[118.5954,-8.4776],[118.6018,-8.536],[118.6204,-8.5578],[118.6326,-8.5478],[118.6504,-8.5502],[118.6706,-8.4832]]]},"properties":{"code":"52.06.02","name":"Bolo"}},{"type":"Feature","geometry":{"type":"Polygon","coordinates":[[[118.681,-8.5414],[118.6504,-8.5502],[118.6326,-8.5478],[118.6302,-8.556],[118.5952,-8.575],[118.6202,-8.691],[118.6572,-8.6432],[118.6994,-8.6104],[118.6946,-8.5472],[118.681,-8.5414]]]},"properties":{"code":"52.06.03","name":"Woha"}},{"type":"Feature","geometry":{"type":"Polygon","coordinates":[[[118.7574,-8.6054],[118.7398,-8.581],[118.7168,-8.641],[118.7866,-8.6564],[118.75,-8.6112],[118.7574,-8.6054]]]},"properties":{"code":"52.06.04","name":"Belo"}},{"type":"Feature","geometry":{"type":"Polygon","coordinates":[[[118.9356,-8.5296],[118.929,-8.4902],[118.924,-8.4828],[118.9,-8.4904],[118.875,-8.4832],[118.8182,-8.5232],[118.8308,-8.5314],[118.8306,-8.554],[118.7832,-8.617],[118.8348,-8.637],[118.8692,-8.6286],[118.866,-8.5942],[118.9356,-8.5296]]]},"properties":{"code":"52.06.05","name":"Wawo"}},{"type":"Feature","geometry":{"type":"Polygon","coordinates":[[[119,-8.5826],[119.0526,-8.5112],[119.0468,-8.4382],[118.9996,-8.465],[118.924,-8.4828],[118.933,-8.497],[118.9356,-8.5296],[118.866,-8.5942],[118.9258,-8.5922],[118.9514,-8.5922],[118.9862,-8.593],[119,-8.5826]]]},"properties":{"code":"52.06.06","name":"Sape"}},{"type":"Feature","geometry":{"type":"MultiPolygon","coordinates":[[[[119.0468,-8.4382],[118.9916,-8.375],[119.001,-8.3104],[118.8588,-8.2894],[118.8748,-8.4358],[118.8818,-8.4686],[118.896,-8.4898],[118.9996,-8.465],[119.0468,-8.4382]]],[[[119.068,-8.131],[119.0124,-8.154],[119.001,-8.2312],[119.0886,-8.2508],[119.1234,-8.1992],[119.068,-8.131]]]]},"properties":{"code":"52.06.07","name":"Wera"}},{"type":"Feature","geometry":{"type":"Polygon","coordinates":[[[118.5476,-8.4798],[118.6196,-8.457],[118.5732,-8.3982],[118.5334,-8.379],[118.5172,-8.4736],[118.5412,-8.4866],[118.5476,-8.4798]]]},"properties":{"code":"52.06.08","name":"Donggo"}},{"type":"Feature","geometry":{"type":"Polygon","coordinates":[[[118.3082,-8.4116],[118.3228,-8.4056],[118.3174,-8.3704],[118.2336,-8.3322],[118.218,-8.2842],[118.1216,-8.224],[118.0784,-8.2956],[118.0656,-8.3508],[118.1386,-8.3898],[118.1458,-8.4058],[118.1848,-8.418],[118.2056,-8.4368],[118.2722,-8.4394],[118.2984,-8.4288],[118.3082,-8.4116]]]},"properties":{"code":"52.06.09","name":"Sanggar"}},{"type":"Feature","geometry":{"type":"Polygon","coordinates":[[[118.8588,-8.2894],[118.822,-8.2808],[118.737,-8.3388],[118.7468,-8.3774],[118.8022,-8.4276],[118.8252,-8.4256],[118.8678,-8.4392],[118.8588,-8.2894]]]},"properties":{"code":"52.06.10","name":"Ambalawi"}},{"type":"Feature","geometry":{"type":"MultiPolygon","coordinates":[[[[118.7182,-8.7978],[118.8362,-8.8458],[118.9598,-8.8176],[118.899,-8.7626],[118.7232,-8.758],[118.7182,-8.7978]]],[[[118.8348,-8.637],[118.7852,-8.6186],[118.7614,-8.6296],[118.7866,-8.6564],[118.7314,-8.668],[118.716,-8.74],[118.7602,-8.693],[118.8462,-8.7302],[118.9064,-8.68],[118.9522,-8.7208],[118.9014,-8.6556],[118.8692,-8.6286],[118.8348,-8.637]]]]},"properties":{"code":"52.06.11","name":"Langgudu"}},{"type":"Feature","geometry":{"type":"Polygon","coordinates":[[[118.9522,-8.7208],[118.9712,-8.7488],[119.1724,-8.7238],[119.13,-8.6298],[119.0358,-8.6418],[119,-8.5826],[118.9862,-8.593],[118.9514,-8.5922],[118.9258,-8.5922],[118.9014,-8.6556],[118.9522,-8.7208]]]},"properties":{"code":"52.06.12","name":"Lambu"}},{"type":"Feature","geometry":{"type":"Polygon","coordinates":[[[118.6018,-8.536],[118.5476,-8.4798],[118.5412,-8.4866],[118.5172,-8.4736],[118.514,-8.5062],[118.5066,-8.5952],[118.5196,-8.6392],[118.5362,-8.682],[118.5236,-8.6936],[118.5098,-8.7312],[118.6202,-8.691],[118.5952,-8.575],[118.6204,-8.5578],[118.6018,-8.536]]]},"properties":{"code":"52.06.13","name":"Madapangga"}},{"type":"Feature","geometry":{"type":"Polygon","coordinates":[[[118.1216,-8.224],[118.1466,-8.139],[118.0808,-8.1002],[117.9606,-8.1072],[117.9238,-8.08],[117.7654,-8.1436],[117.8512,-8.2134],[117.9288,-8.22],[118.0246,-8.2992],[118.0656,-8.3508],[118.0784,-8.2956],[118.1216,-8.224]]]},"properties":{"code":"52.06.14","name":"Tambora"}},{"type":"Feature","geometry":{"type":"Polygon","coordinates":[[[118.6706,-8.4832],[118.698,-8.3966],[118.6576,-8.3],[118.5846,-8.2664],[118.4636,-8.246],[118.4446,-8.2684],[118.5334,-8.379],[118.5732,-8.3982],[118.6358,-8.4084],[118.6706,-8.4832]]]},"properties":{"code":"52.06.15","name":"Soromandi"}},{"type":"Feature","geometry":{"type":"Polygon","coordinates":[[[118.4786,-8.838],[118.5194,-8.8784],[118.5586,-8.848],[118.6026,-8.84],[118.6338,-8.816],[118.6044,-8.6992],[118.5098,-8.7312],[118.513,-8.7482],[118.4786,-8.838]]]},"properties":{"code":"52.06.16","name":"Parado"}},{"type":"Feature","geometry":{"type":"Polygon","coordinates":[[[118.7614,-8.6296],[118.8074,-8.5924],[118.8308,-8.5532],[118.8318,-8.5344],[118.8236,-8.5276],[118.8182,-8.5232],[118.7896,-8.5474],[118.7408,-8.5578],[118.7574,-8.6054],[118.75,-8.6112],[118.7614,-8.6296]]]},"properties":{"code":"52.06.17","name":"Lambitu"}},{"type":"Feature","geometry":{"type":"Polygon","coordinates":[[[118.7902,-8.5138],[118.7136,-8.4954],[118.681,-8.5414],[118.6946,-8.5472],[118.7398,-8.581],[118.7408,-8.5578],[118.7896,-8.5474],[118.7902,-8.5138]]]},"properties":{"code":"52.06.18","name":"Palibelo"}}]}