{"type":"FeatureCollection","features":[{"type":"Feature","geometry":{"type":"Polygon","coordinates":[[[116.1212,-8.6662],[116.106,-8.6656],[116.1058,-8.6538],[116.092,-8.644],[116.0688,-8.6514],[116.0682,-8.6788],[116.112,-8.695],[116.1098,-8.7364],[116.1398,-8.729],[116.166,-8.7332],[116.1582,-8.7198],[116.1622,-8.7084],[116.1432,-8.666],[116.1272,-8.654],[116.1212,-8.6662]]]},"properties":{"code":"52.01.01","name":"Gerung"}},{"type":"Feature","geometry":{"type":"Polygon","coordinates":[[[116.1272,-8.654],[116.162,-8.6558],[116.1752,-8.623],[116.1056,-8.6426],[116.0998,-8.6508],[116.1058,-8.6656],[116.1212,-8.6662],[116.1272,-8.654]]]},"properties":{"code":"52.01.02","name":"Kediri"}},{"type":"Feature","geometry":{"type":"Polygon","coordinates":[[[116.3058,-8.4572],[116.3374,-8.4104],[116.2812,-8.4538],[116.2448,-8.4896],[116.2456,-8.5172],[116.226,-8.5624],[116.1918,-8.5894],[116.1606,-8.5904],[116.1542,-8.6076],[116.1638,-8.623],[116.1942,-8.6178],[116.2494,-8.5928],[116.2668,-8.5642],[116.2888,-8.5308],[116.3058,-8.4572]]]},"properties":{"code":"52.01.03","name":"Narmada"}},{"type":"Feature","geometry":{"type":"Polygon","coordinates":[[[116.0346,-8.7226],[115.9152,-8.7756],[115.821,-8.7522],[115.8312,-8.815],[115.9334,-8.8334],[116.008,-8.9042],[116.072,-8.8848],[116.0976,-8.819],[116.0846,-8.7788],[116.0662,-8.775],[116.0488,-8.758],[116.0346,-8.7226]]]},"properties":{"code":"52.01.07","name":"Sekotong"}},{"type":"Feature","geometry":{"type":"Polygon","coordinates":[[[116.1542,-8.6076],[116.131,-8.6192],[116.0746,-8.6228],[116.0688,-8.6514],[116.1,-8.6506],[116.1412,-8.6278],[116.1644,-8.6302],[116.1688,-8.625],[116.1542,-8.6076]]]},"properties":{"code":"52.01.08","name":"Labuapi"}},{"type":"Feature","geometry":{"type":"Polygon","coordinates":[[[116.1528,-8.518],[116.1998,-8.4786],[116.1852,-8.4636],[116.1452,-8.4574],[116.1374,-8.457],[116.1294,-8.4706],[116.0832,-8.465],[116.1006,-8.5054],[116.1008,-8.5314],[116.0978,-8.5436],[116.1528,-8.518]]]},"properties":{"code":"52.01.09","name":"Gunungsari"}},{"type":"Feature","geometry":{"type":"Polygon","coordinates":[[[116.2456,-8.5172],[116.2452,-8.4888],[116.278,-8.4434],[116.2224,-8.4566],[116.2144,-8.4802],[116.1998,-8.4786],[116.1528,-8.518],[116.1464,-8.5696],[116.1494,-8.5832],[116.1606,-8.5904],[116.2014,-8.5842],[116.226,-8.5624],[116.2456,-8.5172]]]},"properties":{"code":"52.01.12","name":"Lingsar"}},{"type":"Feature","geometry":{"type":"Polygon","coordinates":[[[116.112,-8.695],[116.0682,-8.6788],[116.059,-8.727],[116.083,-8.7272],[116.0588,-8.754],[116.066,-8.7748],[116.0862,-8.7802],[116.0996,-8.819],[116.1204,-8.8072],[116.1328,-8.7694],[116.1416,-8.7662],[116.1098,-8.7364],[116.112,-8.695]]]},"properties":{"code":"52.01.13","name":"Lembar"}},{"type":"Feature","geometry":{"type":"Polygon","coordinates":[[[116.0832,-8.465],[116.0682,-8.4618],[116.0366,-8.4702],[116.0746,-8.5532],[116.0978,-8.5436],[116.1014,-8.5088],[116.0832,-8.465]]]},"properties":{"code":"52.01.14","name":"Batu Layar"}},{"type":"Feature","geometry":{"type":"Polygon","coordinates":[[[116.196,-8.6736],[116.1432,-8.666],[116.1622,-8.7084],[116.1582,-8.7198],[116.1764,-8.7028],[116.167,-8.6728],[116.196,-8.6736]]]},"properties":{"code":"52.01.15","name":"Kuripan"}}]}