{"type":"FeatureCollection","features":[{"type":"Feature","geometry":{"type":"Polygon","coordinates":[[[125.1516,-9.1271],[125.1876,-9.0733],[125.1538,-9.0204],[125.1236,-9.0881],[125.1024,-9.0865],[125.027,-9.1275],[125.0442,-9.1603],[125.0618,-9.1484],[125.0874,-9.1275],[125.1516,-9.1271]]]},"properties":{"code":"53.04.01","name":"Lamaknen","latitude":-9.086680703296523,"longitude":125.12640824715714}},{"type":"Feature","geometry":{"type":"Polygon","coordinates":[[[125.0071,-9.0888],[124.9403,-9.0472],[124.914,-8.9966],[124.9252,-9.0503],[124.9148,-9.0669],[124.9224,-9.0815],[124.9138,-9.0888],[124.9265,-9.0962],[124.9295,-9.1085],[124.9224,-9.1233],[124.9012,-9.1193],[124.9026,-9.1783],[124.9089,-9.1871],[124.9396,-9.1813],[124.9827,-9.1914],[125.0442,-9.1603],[125.027,-9.1275],[125.024,-9.0951],[125.0071,-9.0888]]]},"properties":{"code":"53.04.02","name":"Tasifeto Timur","latitude":-9.109814711334245,"longitude":124.96147000596397}},{"type":"Feature","geometry":{"type":"Polygon","coordinates":[[[125.1236,-9.0881],[125.1536,-9.0209],[125.1243,-8.9769],[125.065,-9.0283],[125.071,-9.0589],[125.0886,-9.0645],[125.1024,-9.0865],[125.1236,-9.0881]]]},"properties":{"code":"53.04.03","name":"Raihat","latitude":-9.033752034036977,"longitude":125.11300895949842}},{"type":"Feature","geometry":{"type":"Polygon","coordinates":[[[124.8624,-9.1099],[124.8172,-9.1126],[124.821,-9.1441],[124.8272,-9.1456],[124.8096,-9.1682],[124.821,-9.1738],[124.82,-9.1996],[124.8363,-9.2173],[124.8576,-9.2614],[124.8466,-9.2877],[124.8805,-9.2903],[124.9373,-9.2784],[124.9549,-9.2529],[124.9781,-9.2017],[124.9396,-9.1813],[124.9282,-9.188],[124.9056,-9.185],[124.9011,-9.1415],[124.8848,-9.1283],[124.8624,-9.1099]]]},"properties":{"code":"53.04.04","name":"Tasifeto Barat","latitude":-9.212220643534273,"longitude":124.8849782586883}},{"type":"Feature","geometry":{"type":"Polygon","coordinates":[[[124.914,-8.9966],[124.7946,-9.0138],[124.8202,-9.0763],[124.8172,-9.1126],[124.8624,-9.1099],[124.8645,-9.0815],[124.9148,-9.0669],[124.9252,-9.0503],[124.914,-8.9966]]]},"properties":{"code":"53.04.05","name":"Kakuluk Mesak","latitude":-9.040650131398863,"longitude":124.85995320890338}},{"type":"Feature","geometry":{"type":"Polygon","coordinates":[[[124.9012,-9.1193],[124.9257,-9.1216],[124.927,-9.0972],[124.9152,-9.0918],[124.9114,-9.0714],[124.8943,-9.0917],[124.9012,-9.1193]]]},"properties":{"code":"53.04.12","name":"Kota Atambua","latitude":-9.095461831691878,"longitude":124.90430042371736}},{"type":"Feature","geometry":{"type":"Polygon","coordinates":[[[124.9955,-9.3519],[124.8807,-9.2904],[124.8483,-9.2995],[124.8401,-9.3319],[124.8179,-9.3401],[124.8288,-9.3624],[124.8434,-9.3602],[124.8716,-9.3807],[124.899,-9.3585],[124.9164,-9.3817],[124.952,-9.3925],[124.9955,-9.3519]]]},"properties":{"code":"53.04.13","name":"Raimanuk","latitude":-9.34524343641125,"longitude":124.90529899303893}},{"type":"Feature","geometry":{"type":"Polygon","coordinates":[[[125.071,-9.0589],[125.0383,-9.0335],[125.0071,-9.0888],[125.024,-9.0951],[125.0886,-9.0645],[125.071,-9.0589]]]},"properties":{"code":"53.04.17","name":"Lasiolat","latitude":-9.07153509857305,"longitude":125.04916602055116}},{"type":"Feature","geometry":{"type":"Polygon","coordinates":[[[125.1516,-9.1271],[125.0874,-9.1275],[125.0618,-9.1484],[125.097,-9.2018],[125.1516,-9.1271]]]},"properties":{"code":"53.04.18","name":"Lamaknen Selatan","latitude":-9.15136564756183,"longitude":125.11572558798714}},{"type":"Feature","geometry":{"type":"Polygon","coordinates":[[[124.8943,-9.0917],[124.8645,-9.0815],[124.8624,-9.1099],[124.8943,-9.0917]]]},"properties":{"code":"53.04.21","name":"Atambua Barat","latitude":-9.093070113525313,"longitude":124.8733201031209}},{"type":"Feature","geometry":{"type":"Polygon","coordinates":[[[124.9011,-9.1415],[124.8624,-9.1099],[124.8848,-9.1283],[124.9011,-9.1415]]]},"properties":{"code":"53.04.22","name":"Atambua Selatan","latitude":-9.123478026451291,"longitude":124.88604134920679}},{"type":"Feature","geometry":{"type":"Polygon","coordinates":[[[124.9883,-9.3301],[125.0108,-9.3005],[124.9549,-9.2529],[124.9373,-9.2784],[124.9883,-9.3301]]]},"properties":{"code":"53.04.23","name":"Nanaet Duabesi","latitude":-9.288442287453083,"longitude":124.96606709271751}}]}