{"type":"FeatureCollection","features":[{"type":"Feature","geometry":{"type":"Polygon","coordinates":[[[122.7426,-8.4242],[122.7022,-8.408],[122.6838,-8.4218],[122.6842,-8.4408],[122.6734,-8.4598],[122.6868,-8.4846],[122.6648,-8.5196],[122.6478,-8.6258],[122.7276,-8.6326],[122.7802,-8.5518],[122.7374,-8.5118],[122.7602,-8.4798],[122.7742,-8.4414],[122.7426,-8.4242]]]},"properties":{"code":"53.06.01","name":"Wulanggitang"}},{"type":"Feature","geometry":{"type":"Polygon","coordinates":[[[122.8176,-8.3194],[122.8026,-8.3064],[122.7426,-8.4242],[122.7742,-8.4414],[122.7362,-8.4608],[122.7602,-8.4798],[122.7704,-8.4608],[122.787,-8.442],[122.8414,-8.4206],[122.8356,-8.3566],[122.8176,-8.3194]]]},"properties":{"code":"53.06.02","name":"Titehena"}},{"type":"Feature","geometry":{"type":"Polygon","coordinates":[[[122.9914,-8.3046],[122.9312,-8.333],[122.9634,-8.3518],[123.0198,-8.3174],[123.0162,-8.2796],[122.9914,-8.3046]]]},"properties":{"code":"53.06.03","name":"Larantuka"}},{"type":"Feature","geometry":{"type":"Polygon","coordinates":[[[123.0162,-8.2796],[122.978,-8.2204],[122.9334,-8.2712],[122.9914,-8.3046],[123.0162,-8.2796]]]},"properties":{"code":"53.06.04","name":"Ile Mandiri"}},{"type":"Feature","geometry":{"type":"Polygon","coordinates":[[[122.8666,-8.0634],[122.7826,-8.1078],[122.785,-8.1504],[122.7314,-8.2166],[122.9008,-8.1758],[122.966,-8.1922],[122.972,-8.1326],[122.8666,-8.0634]]]},"properties":{"code":"53.06.05","name":"Tanjung Bunga"}},{"type":"Feature","geometry":{"type":"Polygon","coordinates":[[[123.0262,-8.466],[123.0254,-8.4456],[123.0152,-8.4484],[122.999,-8.4378],[122.8848,-8.5244],[122.8704,-8.5844],[122.9116,-8.6112],[122.9706,-8.5322],[122.9478,-8.509],[122.9692,-8.4828],[122.991,-8.4666],[123.0262,-8.466]]]},"properties":{"code":"53.06.06","name":"Solor Barat"}},{"type":"Feature","geometry":{"type":"Polygon","coordinates":[[[123.0262,-8.466],[123.0428,-8.46],[123.056,-8.4648],[123.0784,-8.4888],[123.1162,-8.436],[123.037,-8.4356],[123.0252,-8.446],[123.0262,-8.466]]]},"properties":{"code":"53.06.07","name":"Solor Timur"}},{"type":"Feature","geometry":{"type":"Polygon","coordinates":[[[123.1522,-8.272],[123.0796,-8.2746],[123.082,-8.3478],[123.0922,-8.3408],[123.1136,-8.3428],[123.1264,-8.353],[123.1428,-8.3282],[123.1368,-8.303],[123.1522,-8.272]]]},"properties":{"code":"53.06.08","name":"Adonara Barat"}},{"type":"Feature","geometry":{"type":"Polygon","coordinates":[[[123.082,-8.3478],[123.0198,-8.3252],[123.0282,-8.3998],[123.0992,-8.4026],[123.0928,-8.3944],[123.0966,-8.3584],[123.1204,-8.3474],[123.0922,-8.3408],[123.082,-8.3478]]]},"properties":{"code":"53.06.09","name":"Wotan Ulumando"}},{"type":"Feature","geometry":{"type":"Polygon","coordinates":[[[123.2528,-8.3434],[123.1794,-8.3344],[123.1486,-8.3666],[123.1204,-8.3474],[123.098,-8.3566],[123.0928,-8.3944],[123.0992,-8.4026],[123.2178,-8.3874],[123.2528,-8.3434]]]},"properties":{"code":"53.06.10","name":"Adonara Timur"}},{"type":"Feature","geometry":{"type":"Polygon","coordinates":[[[123.2624,-8.239],[123.2088,-8.3232],[123.2528,-8.3434],[123.2624,-8.239]]]},"properties":{"code":"53.06.11","name":"Kelubagolit"}},{"type":"Feature","geometry":{"type":"Polygon","coordinates":[[[123.3034,-8.3264],[123.3342,-8.267],[123.2624,-8.239],[123.2528,-8.3434],[123.3034,-8.3264]]]},"properties":{"code":"53.06.12","name":"Witihama"}},{"type":"Feature","geometry":{"type":"Polygon","coordinates":[[[123.3034,-8.3264],[123.2528,-8.3434],[123.219,-8.39],[123.2762,-8.3954],[123.3034,-8.3264]]]},"properties":{"code":"53.06.13","name":"Ile Boleng"}},{"type":"Feature","geometry":{"type":"Polygon","coordinates":[[[122.8842,-8.3722],[122.8026,-8.3064],[122.8176,-8.3194],[122.8356,-8.3566],[122.8842,-8.3722]]]},"properties":{"code":"53.06.14","name":"Demon Pagong"}},{"type":"Feature","geometry":{"type":"Polygon","coordinates":[[[122.9334,-8.2712],[122.8802,-8.3186],[122.9124,-8.3242],[122.9334,-8.2712]]]},"properties":{"code":"53.06.15","name":"Lewolema"}},{"type":"Feature","geometry":{"type":"Polygon","coordinates":[[[122.7802,-8.5518],[122.8322,-8.518],[122.7904,-8.4844],[122.7798,-8.4584],[122.7702,-8.461],[122.7518,-8.5],[122.7374,-8.5118],[122.7802,-8.5518]]]},"properties":{"code":"53.06.16","name":"Ile Bura"}},{"type":"Feature","geometry":{"type":"Polygon","coordinates":[[[123.2088,-8.3232],[123.229,-8.2494],[123.1402,-8.2556],[123.2088,-8.3232]]]},"properties":{"code":"53.06.17","name":"Adonara"}},{"type":"Feature","geometry":{"type":"Polygon","coordinates":[[[123.1794,-8.3344],[123.1522,-8.272],[123.1368,-8.303],[123.1428,-8.3282],[123.1264,-8.353],[123.1486,-8.3666],[123.1794,-8.3344]]]},"properties":{"code":"53.06.18","name":"Adonara Tengah"}},{"type":"Feature","geometry":{"type":"Polygon","coordinates":[[[122.9706,-8.5322],[122.9834,-8.5066],[123.0218,-8.4766],[123.0458,-8.4896],[123.056,-8.4652],[123.0466,-8.4618],[122.9812,-8.471],[122.9478,-8.509],[122.9706,-8.5322]]]},"properties":{"code":"53.06.19","name":"Solor Selatan"}}]}