{"type":"FeatureCollection","features":[{"type":"Feature","geometry":{"type":"Polygon","coordinates":[[[111.4499,0.1623],[111.4108,0.1624],[111.3766,0.157],[111.379,0.1083],[111.4198,0.0534],[111.556,-0.0333],[111.6069,-0.002],[111.6228,0.0529],[111.6009,0.0603],[111.5878,0.1149],[111.5733,0.139],[111.5242,0.1298],[111.4498,0.1488],[111.4499,0.1623]]]},"properties":{"code":"61.05.01","name":"Sintang","latitude":0.07068374528895677,"longitude":111.50580446554557}},{"type":"Feature","geometry":{"type":"Polygon","coordinates":[[[111.3762,0.1699],[111.3219,0.1747],[111.3244,0.1312],[111.2845,0.0644],[111.3051,0.0012],[111.2916,-0.2014],[111.2322,-0.2637],[111.2224,-0.2965],[111.2542,-0.3816],[111.2706,-0.3896],[111.2982,-0.422],[111.3125,-0.4141],[111.3675,-0.3591],[111.3894,-0.3497],[111.4075,-0.3563],[111.4012,-0.3144],[111.3815,-0.2718],[111.4281,-0.1719],[111.432,-0.1005],[111.3991,-0.0811],[111.4324,0.0429],[111.379,0.1083],[111.3762,0.1699]]]},"properties":{"code":"61.05.02","name":"Tempunak","latitude":-0.13987086266412233,"longitude":111.33705172070219}},{"type":"Feature","geometry":{"type":"Polygon","coordinates":[[[111.332,0.1764],[111.3711,0.2448],[111.3309,0.2796],[111.2652,0.2288],[111.292,0.156],[111.2424,0.126],[111.2228,0.0691],[111.2135,0.0616],[111.1574,0.1022],[111.1226,0.0851],[111.1323,0.0705],[111.1442,0.0098],[111.1354,-0.1055],[111.1228,-0.1328],[111.0885,-0.1439],[111.0873,-0.2508],[111.0737,-0.2667],[111.0491,-0.2661],[111.0509,-0.3182],[111.022,-0.3691],[111.0363,-0.4184],[111.0723,-0.4537],[111.113,-0.5009],[111.1712,-0.5182],[111.2022,-0.4959],[111.2607,-0.4354],[111.2982,-0.422],[111.2706,-0.3896],[111.2542,-0.3816],[111.2224,-0.2965],[111.2322,-0.2637],[111.2916,-0.2014],[111.3051,0.0012],[111.2845,0.0644],[111.3244,0.1312],[111.3219,0.1747],[111.332,0.1764]]]},"properties":{"code":"61.05.03","name":"Sepauk","latitude":-0.18281321737772127,"longitude":111.18877275104926}},{"type":"Feature","geometry":{"type":"Polygon","coordinates":[[[111.5715,0.6222],[111.533,0.6501],[111.419,0.599],[111.3579,0.471],[111.3145,0.4403],[111.3029,0.4439],[111.294,0.4626],[111.2764,0.4748],[111.261,0.4534],[111.2355,0.4393],[111.208,0.3683],[111.223,0.3334],[111.2356,0.325],[111.2314,0.3067],[111.2595,0.2948],[111.2687,0.2411],[111.3309,0.2796],[111.3711,0.2448],[111.394,0.255],[111.4518,0.2745],[111.4764,0.2834],[111.5934,0.279],[111.5929,0.2844],[111.6226,0.2831],[111.6417,0.2928],[111.6679,0.3416],[111.651,0.333],[111.6448,0.3593],[111.686,0.3775],[111.7245,0.4593],[111.7206,0.5706],[111.6986,0.6114],[111.6685,0.5985],[111.5715,0.6222]]]},"properties":{"code":"61.05.04","name":"Ketungau Hilir","latitude":0.4346041168758986,"longitude":111.48885625894518}},{"type":"Feature","geometry":{"type":"Polygon","coordinates":[[[111.6259,0.9232],[111.5734,0.9206],[111.5433,0.9304],[111.5203,0.9596],[111.5154,1.002],[111.4887,1.0353],[111.4134,1.0076],[111.3598,1.0339],[111.3073,0.9696],[111.3508,0.9002],[111.3186,0.8483],[111.263,0.8182],[111.3238,0.7533],[111.2617,0.6986],[111.2017,0.6688],[111.1987,0.6261],[111.2715,0.5776],[111.2817,0.5357],[111.2958,0.507],[111.2764,0.4748],[111.3088,0.4416],[111.3238,0.4423],[111.3579,0.471],[111.419,0.599],[111.533,0.6501],[111.5715,0.6222],[111.6685,0.5985],[111.6986,0.6114],[111.6874,0.6276],[111.7167,0.6723],[111.7475,0.7472],[111.7269,0.7832],[111.6647,0.846],[111.6259,0.9232]]]},"properties":{"code":"61.05.05","name":"Ketungau Tengah","latitude":0.7572119683082593,"longitude":111.46047527888663}},{"type":"Feature","geometry":{"type":"Polygon","coordinates":[[[111.3598,1.0339],[111.2333,1.0852],[111.1536,1.0529],[111.0798,1.0511],[110.995,1.0287],[110.905,1.0285],[110.8612,0.9513],[110.8093,0.95],[110.8163,0.9054],[110.7942,0.8959],[110.759,0.8408],[110.792,0.7922],[110.8394,0.7708],[110.8693,0.7548],[110.851,0.744],[110.8807,0.7278],[110.9036,0.7128],[110.997,0.7461],[111.0507,0.7199],[111.1193,0.7201],[111.1708,0.7007],[111.1991,0.6852],[111.2017,0.6688],[111.2617,0.6986],[111.3238,0.7533],[111.263,0.8182],[111.3186,0.8483],[111.3508,0.9002],[111.3073,0.9696],[111.3598,1.0339]]]},"properties":{"code":"61.05.06","name":"Ketungau Hulu","latitude":0.8798912339591428,"longitude":111.08172611161797}},{"type":"Feature","geometry":{"type":"Polygon","coordinates":[[[111.8538,0.0965],[111.8588,0.1194],[111.7984,0.0991],[111.7083,0.0739],[111.7114,0.0634],[111.6582,0.0709],[111.6199,0.0262],[111.6069,-0.002],[111.556,-0.0333],[111.5432,-0.0486],[111.544,-0.0856],[111.5935,-0.1284],[111.6131,-0.1648],[111.6176,-0.179],[111.6307,-0.1803],[111.6394,-0.1686],[111.6619,-0.1646],[111.685,-0.1419],[111.6852,-0.1314],[111.7035,-0.1306],[111.7269,-0.0677],[111.808,-0.0642],[111.8054,0.0173],[111.8499,0.0275],[111.8544,0.0494],[111.8857,0.0667],[111.8895,0.0932],[111.8538,0.0965]]]},"properties":{"code":"61.05.07","name":"Dedai","latitude":-0.021006357506653358,"longitude":111.70755758208071}},{"type":"Feature","geometry":{"type":"Polygon","coordinates":[[[112.0587,0.1798],[111.9896,0.1914],[111.9259,0.1419],[111.9031,0.0827],[111.8544,0.0494],[111.8499,0.0275],[111.8054,0.0173],[111.808,-0.0642],[111.7269,-0.0677],[111.7035,-0.1306],[111.7151,-0.1532],[111.7516,-0.1905],[111.8146,-0.2159],[111.8925,-0.2134],[111.8927,-0.2066],[111.9551,-0.1953],[111.9973,-0.2079],[112.023,-0.2196],[112.0151,-0.1741],[111.9821,-0.1348],[111.9892,-0.0496],[112.0521,-0.0505],[112.0546,0.0016],[112.0943,0.0491],[112.1067,0.0469],[112.1289,0.0878],[112.1113,0.0895],[112.0487,0.1344],[112.0587,0.1798]]]},"properties":{"code":"61.05.08","name":"Kayan Hilir","latitude":-0.03183590977568498,"longitude":111.92550012543362}},{"type":"Feature","geometry":{"type":"Polygon","coordinates":[[[112.4717,0.1192],[112.3957,0.147],[112.3934,0.0948],[112.2175,0.1148],[112.1484,0.0768],[112.1289,0.0878],[112.1067,0.0469],[112.0943,0.0491],[112.0546,0.0016],[112.0521,-0.0505],[111.9892,-0.0496],[111.9821,-0.1348],[112.0151,-0.1741],[112.023,-0.2196],[112.032,-0.2195],[112.0278,-0.2129],[112.0466,-0.2357],[112.1072,-0.2623],[112.1324,-0.3039],[112.151,-0.309],[112.1744,-0.2934],[112.1747,-0.2787],[112.3541,-0.1913],[112.3808,-0.1802],[112.4521,-0.1481],[112.4898,-0.1052],[112.4609,-0.0796],[112.4868,-0.0208],[112.5011,0.0175],[112.4734,0.0648],[112.4717,0.1192]]]},"properties":{"code":"61.05.09","name":"Kayan Hulu","latitude":-0.07240578977933602,"longitude":112.24685565704604}},{"type":"Feature","geometry":{"type":"Polygon","coordinates":[[[112.6667,-0.1159],[112.6553,-0.0798],[112.6316,-0.0563],[112.5556,-0.0282],[112.5079,-0.0572],[112.4835,-0.1352],[112.4521,-0.1481],[112.3808,-0.1802],[112.4118,-0.186],[112.3726,-0.2558],[112.3635,-0.3467],[112.4374,-0.4307],[112.4137,-0.4894],[112.44,-0.5476],[112.4125,-0.6212],[112.5029,-0.7002],[112.5613,-0.6962],[112.6382,-0.6573],[112.6881,-0.6591],[112.7037,-0.6205],[112.7345,-0.6307],[112.7295,-0.5881],[112.7875,-0.5858],[112.8143,-0.5397],[112.8738,-0.4906],[112.8622,-0.4228],[112.7937,-0.3944],[112.8094,-0.3607],[112.8059,-0.2755],[112.7285,-0.286],[112.7106,-0.2807],[112.6936,-0.2522],[112.6514,-0.2047],[112.64,-0.1511],[112.6667,-0.1159]]]},"properties":{"code":"61.05.14","name":"Serawai","latitude":-0.3890745622238003,"longitude":112.59141465547349}},{"type":"Feature","geometry":{"type":"Polygon","coordinates":[[[113.072,0.279],[113.0231,0.2679],[112.9973,0.2534],[112.9417,0.1457],[112.8241,0.162],[112.753,0.2335],[112.6717,0.2417],[112.6286,0.2068],[112.6245,0.1821],[112.6004,0.181],[112.5694,0.2044],[112.5233,0.1872],[112.5116,0.1836],[112.5049,0.1642],[112.4717,0.1192],[112.4734,0.0648],[112.5011,0.0175],[112.4868,-0.0208],[112.5079,-0.0572],[112.5556,-0.0282],[112.5881,-0.052],[112.6173,-0.0523],[112.6459,-0.0647],[112.6667,-0.1159],[112.64,-0.1511],[112.6514,-0.2047],[112.6936,-0.2522],[112.7189,-0.2855],[112.8059,-0.2755],[112.8094,-0.3607],[112.7937,-0.3944],[112.8622,-0.4228],[112.8738,-0.4906],[112.8143,-0.5397],[112.7875,-0.5858],[112.8658,-0.5478],[112.9757,-0.5111],[112.9981,-0.5034],[113.0546,-0.5138],[113.1308,-0.4522],[113.167,-0.4782],[113.1922,-0.5035],[113.2182,-0.5062],[113.2609,-0.4493],[113.266,-0.4363],[113.2642,-0.4234],[113.2573,-0.4055],[113.2391,-0.3778],[113.2205,-0.3335],[113.2599,-0.2934],[113.3054,-0.2542],[113.2875,-0.2234],[113.3302,-0.1516],[113.3853,-0.1319],[113.4199,-0.0917],[113.4157,-0.0478],[113.4328,0.0092],[113.3958,0.0343],[113.404,0.0897],[113.4144,0.1141],[113.3998,0.1349],[113.3135,0.171],[113.2943,0.2071],[113.2618,0.23],[113.1792,0.2431],[113.1489,0.2343],[113.1028,0.2624],[113.072,0.279]]]},"properties":{"code":"61.05.15","name":"Ambalau","latitude":-0.0905626003074859,"longitude":112.98491512167185}},{"type":"Feature","geometry":{"type":"Polygon","coordinates":[[[111.6856,0.3001],[111.6683,0.3412],[111.6374,0.2887],[111.5929,0.2844],[111.6194,0.2699],[111.5955,0.2435],[111.6239,0.1277],[111.5878,0.1149],[111.6009,0.0603],[111.6228,0.0529],[111.6199,0.0262],[111.6582,0.0709],[111.7114,0.0634],[111.7083,0.0739],[111.7984,0.0991],[111.8588,0.1194],[111.8538,0.0965],[111.8895,0.0932],[111.8857,0.0667],[111.895,0.0736],[111.9259,0.1419],[111.9266,0.1831],[111.867,0.1831],[111.8423,0.2271],[111.8278,0.2334],[111.7715,0.2323],[111.687,0.2649],[111.6671,0.2926],[111.6665,0.3013],[111.6856,0.3001]]]},"properties":{"code":"61.05.19","name":"Kelam Permai","latitude":0.16578817421029524,"longitude":111.72934307353128}},{"type":"Feature","geometry":{"type":"Polygon","coordinates":[[[111.556,-0.0333],[111.4324,0.0429],[111.3991,-0.0811],[111.432,-0.1005],[111.4281,-0.1719],[111.3815,-0.2718],[111.4066,-0.3324],[111.4063,-0.3563],[111.4363,-0.3575],[111.4685,-0.346],[111.4826,-0.3237],[111.495,-0.322],[111.493,-0.2932],[111.4792,-0.2929],[111.4805,-0.2569],[111.5287,-0.2279],[111.5474,-0.216],[111.5907,-0.2031],[111.6131,-0.1648],[111.5935,-0.1284],[111.544,-0.0856],[111.5432,-0.0486],[111.556,-0.0333]]]},"properties":{"code":"61.05.20","name":"Sungai Tebelian","latitude":-0.15428515781955585,"longitude":111.47834068397843}},{"type":"Feature","geometry":{"type":"Polygon","coordinates":[[[111.5955,0.2435],[111.6179,0.2738],[111.49,0.2849],[111.4518,0.2745],[111.394,0.255],[111.332,0.1764],[111.3762,0.1699],[111.3766,0.157],[111.3862,0.1567],[111.3862,0.1632],[111.4499,0.1623],[111.4498,0.1488],[111.495,0.1341],[111.5379,0.13],[111.5733,0.139],[111.5878,0.1149],[111.6239,0.1277],[111.5948,0.1982],[111.5955,0.2435]]]},"properties":{"code":"61.05.21","name":"Binjai Hulu","latitude":0.20512396973683666,"longitude":111.49531417574818}}]}