{"type":"FeatureCollection","features":[{"type":"Feature","geometry":{"type":"Polygon","coordinates":[[[110.9554,0.2281],[110.9286,0.2439],[110.8879,0.2307],[110.9109,0.2221],[110.9014,0.1678],[110.843,0.0961],[110.7973,0.0995],[110.7673,0.0792],[110.7248,-0.0038],[110.7146,-0.0495],[110.7144,-0.0829],[110.8074,-0.0454],[110.7986,-0.063],[110.8435,-0.0643],[110.8983,-0.055],[110.9144,-0.0379],[110.9691,-0.0253],[111.0088,-0.0378],[111.0259,-0.0588],[111.0584,-0.1002],[111.0909,-0.1418],[111.1216,-0.1335],[111.1367,-0.0992],[111.1433,0.0203],[111.1045,0.0243],[111.0986,0.0317],[111.0471,0.0432],[111.0039,0.1486],[110.9554,0.2281]]]},"properties":{"code":"61.09.01","name":"Sekadau Hilir","latitude":0.034187645911480255,"longitude":110.93765182852098}},{"type":"Feature","geometry":{"type":"Polygon","coordinates":[[[111.0088,-0.0378],[110.9691,-0.0253],[110.9144,-0.0379],[110.8974,-0.0554],[110.8177,-0.0649],[110.7967,-0.0613],[110.8074,-0.0454],[110.7144,-0.0829],[110.7625,-0.1829],[110.7869,-0.2015],[110.8434,-0.1996],[110.8541,-0.2334],[110.9619,-0.2905],[110.9939,-0.3252],[111.022,-0.3691],[111.0509,-0.3182],[111.0491,-0.2661],[111.0715,-0.2676],[111.086,-0.2537],[111.0835,-0.1959],[111.092,-0.1693],[111.0909,-0.1418],[111.0584,-0.1002],[111.0259,-0.0588],[111.0088,-0.0378]]]},"properties":{"code":"61.09.02","name":"Sekadau Hulu","latitude":-0.16176217938080995,"longitude":110.93229967750226}},{"type":"Feature","geometry":{"type":"Polygon","coordinates":[[[110.6908,-0.168],[110.6404,-0.1433],[110.6175,-0.145],[110.597,-0.1574],[110.6299,-0.203],[110.5696,-0.2861],[110.5556,-0.3423],[110.5965,-0.3471],[110.6311,-0.3566],[110.6722,-0.3841],[110.7196,-0.3648],[110.751,-0.3511],[110.7631,-0.3403],[110.7884,-0.3656],[110.7818,-0.3733],[110.7892,-0.3933],[110.8017,-0.4094],[110.8176,-0.4116],[110.8261,-0.4226],[110.869,-0.4098],[110.9131,-0.4176],[110.9204,-0.4909],[110.9661,-0.4815],[111.0077,-0.506],[111.0951,-0.504],[111.0723,-0.4537],[111.0363,-0.4184],[111,-0.378],[110.9939,-0.3252],[110.9619,-0.2905],[110.8541,-0.2334],[110.8434,-0.1996],[110.7869,-0.2015],[110.7475,-0.1608],[110.6908,-0.168]]]},"properties":{"code":"61.09.03","name":"Nanga Taman","latitude":-0.3191387224937379,"longitude":110.80521688687722}},{"type":"Feature","geometry":{"type":"Polygon","coordinates":[[[110.751,-0.3511],[110.7196,-0.3648],[110.6722,-0.3841],[110.6311,-0.3566],[110.5965,-0.3471],[110.5614,-0.3562],[110.575,-0.39],[110.618,-0.4435],[110.6149,-0.5099],[110.6335,-0.5503],[110.6477,-0.5896],[110.675,-0.6169],[110.7823,-0.6063],[110.8239,-0.5999],[110.8413,-0.608],[110.8636,-0.6355],[110.8713,-0.6732],[110.8963,-0.6806],[110.97,-0.626],[110.9596,-0.603],[110.9487,-0.5983],[110.9277,-0.5577],[110.9659,-0.5207],[110.9587,-0.5095],[110.9204,-0.4909],[110.9131,-0.4176],[110.869,-0.4098],[110.8248,-0.4222],[110.7892,-0.3933],[110.7818,-0.3733],[110.7884,-0.3656],[110.7631,-0.3403],[110.751,-0.3511]]]},"properties":{"code":"61.09.04","name":"Nanga Mahap","latitude":-0.5035333440880198,"longitude":110.7757043172064}},{"type":"Feature","geometry":{"type":"Polygon","coordinates":[[[111.1097,0.3206],[111.0656,0.3602],[111.0483,0.3847],[111.0132,0.4043],[110.9401,0.4279],[110.9474,0.4007],[110.9587,0.3979],[110.9232,0.3397],[110.9268,0.3273],[110.9103,0.3033],[110.9086,0.2511],[110.8879,0.2307],[110.9286,0.2439],[110.9554,0.2281],[111.0039,0.1486],[111.0471,0.0432],[111.0986,0.0317],[111.1045,0.0243],[111.1433,0.0203],[111.1226,0.0851],[111.1574,0.1022],[111.2135,0.0616],[111.2323,0.1089],[111.1573,0.1696],[111.1894,0.1886],[111.1646,0.2447],[111.128,0.2916],[111.1097,0.3206]]]},"properties":{"code":"61.09.05","name":"Belitang Hilir","latitude":0.22047256804262166,"longitude":111.0582998746117}},{"type":"Feature","geometry":{"type":"Polygon","coordinates":[[[111.0507,0.7199],[110.9972,0.7354],[111.0009,0.724],[110.9894,0.6902],[111.0124,0.6687],[110.9888,0.5984],[110.9999,0.558],[110.9425,0.4618],[110.9401,0.4279],[111.0352,0.3935],[111.0971,0.3382],[111.1312,0.332],[111.208,0.3683],[111.2355,0.4393],[111.261,0.4534],[111.2944,0.5],[111.2817,0.5357],[111.2715,0.5776],[111.1987,0.6261],[111.2021,0.6786],[111.1958,0.6876],[111.1193,0.7201],[111.0507,0.7199]]]},"properties":{"code":"61.09.06","name":"Belitang Hulu","latitude":0.5266933950640388,"longitude":111.114116027325}},{"type":"Feature","geometry":{"type":"Polygon","coordinates":[[[111.2652,0.2288],[111.2547,0.2725],[111.2594,0.2949],[111.2314,0.3067],[111.2356,0.3249],[111.2225,0.3387],[111.1815,0.3379],[111.1312,0.332],[111.0971,0.3382],[111.1097,0.3206],[111.128,0.2916],[111.1646,0.2447],[111.1894,0.1886],[111.1573,0.1696],[111.2323,0.1089],[111.2468,0.1278],[111.2823,0.1329],[111.292,0.156],[111.2652,0.2288]]]},"properties":{"code":"61.09.07","name":"Belitang","latitude":0.23686747672881336,"longitude":111.2067057139022}}]}