{"type":"FeatureCollection","features":[{"type":"Feature","geometry":{"type":"MultiPolygon","coordinates":[[[[111.4814,-0.3434],[111.4308,-0.3662],[111.3676,-0.359],[111.3126,-0.414],[111.2974,-0.423],[111.2606,-0.4354],[111.2022,-0.496],[111.2224,-0.562],[111.2396,-0.5916],[111.236,-0.6078],[111.2768,-0.6182],[111.3468,-0.5976],[111.4472,-0.6266],[111.4384,-0.5944],[111.441,-0.5622],[111.428,-0.5214],[111.4566,-0.5332],[111.4918,-0.4784],[111.5008,-0.4398],[111.4814,-0.3434]]],[[[111.619,-0.1998],[111.6308,-0.1804],[111.6176,-0.179],[111.5906,-0.2032],[111.5474,-0.216],[111.5288,-0.228],[111.4804,-0.257],[111.4792,-0.293],[111.493,-0.2932],[111.4928,-0.2986],[111.5044,-0.289],[111.5462,-0.3084],[111.5526,-0.3788],[111.621,-0.4314],[111.6236,-0.4712],[111.628,-0.4966],[111.6844,-0.4892],[111.6744,-0.4146],[111.6868,-0.336],[111.659,-0.2978],[111.6168,-0.285],[111.6174,-0.2614],[111.639,-0.242],[111.619,-0.1998]]]]},"properties":{"code":"61.10.01","name":"Belimbing"}},{"type":"Feature","geometry":{"type":"MultiPolygon","coordinates":[[[[111.9532,-0.3576],[111.878,-0.3202],[111.7962,-0.3674],[111.6778,-0.317],[111.6874,-0.3446],[111.6744,-0.4146],[111.6844,-0.4892],[111.7108,-0.5158],[111.7548,-0.4496],[111.7836,-0.4132],[111.9076,-0.4046],[111.9578,-0.4418],[111.9814,-0.36],[111.9532,-0.3576]]],[[[111.7156,-0.213],[111.685,-0.1418],[111.6618,-0.1646],[111.6394,-0.1686],[111.619,-0.1998],[111.639,-0.242],[111.7156,-0.213]]]]},"properties":{"code":"61.10.02","name":"Nanga Pinoh"}},{"type":"Feature","geometry":{"type":"Polygon","coordinates":[[[112.1502,-0.33],[112.1072,-0.2624],[112.087,-0.2564],[112.021,-0.2976],[111.9814,-0.36],[111.9548,-0.4872],[111.9056,-0.6548],[111.9592,-0.718],[111.9752,-0.7812],[111.9844,-0.7994],[112.0548,-0.7706],[112.0742,-0.734],[112.1022,-0.7098],[112.1468,-0.7306],[112.1744,-0.6842],[112.176,-0.6436],[112.1988,-0.5946],[112.1984,-0.573],[112.163,-0.5244],[112.1416,-0.476],[112.132,-0.4176],[112.1076,-0.3754],[112.1502,-0.33]]]},"properties":{"code":"61.10.03","name":"Ella Hilir"}},{"type":"Feature","geometry":{"type":"Polygon","coordinates":[[[112.3726,-0.2558],[112.4118,-0.186],[112.3542,-0.1914],[112.1746,-0.2786],[112.1744,-0.2934],[112.1502,-0.33],[112.1076,-0.3754],[112.132,-0.4176],[112.1448,-0.4838],[112.1694,-0.5358],[112.1984,-0.573],[112.1988,-0.5946],[112.2444,-0.6306],[112.26,-0.6318],[112.3152,-0.7234],[112.3486,-0.7036],[112.4342,-0.6736],[112.4628,-0.669],[112.4126,-0.6212],[112.44,-0.5476],[112.4138,-0.4894],[112.4374,-0.4308],[112.3634,-0.3468],[112.3726,-0.2558]]]},"properties":{"code":"61.10.04","name":"Menukung"}},{"type":"Feature","geometry":{"type":"Polygon","coordinates":[[[111.7172,-0.563],[111.6844,-0.4892],[111.628,-0.4966],[111.6694,-0.5494],[111.6672,-0.5808],[111.6274,-0.5996],[111.6028,-0.6002],[111.6074,-0.675],[111.5948,-0.6744],[111.6096,-0.6954],[111.6418,-0.779],[111.6456,-0.869],[111.5882,-0.9138],[111.5832,-0.9662],[111.6288,-0.9718],[111.6366,-0.9796],[111.6396,-0.968],[111.7482,-0.9116],[111.843,-0.8918],[111.8808,-0.863],[111.862,-0.845],[111.8694,-0.808],[111.8226,-0.6684],[111.7712,-0.6184],[111.7172,-0.563]]]},"properties":{"code":"61.10.05","name":"Sayan"}},{"type":"Feature","geometry":{"type":"Polygon","coordinates":[[[111.6074,-0.675],[111.6028,-0.6002],[111.564,-0.5962],[111.5806,-0.7464],[111.4774,-0.8102],[111.4228,-0.871],[111.4986,-0.888],[111.5882,-0.9138],[111.6456,-0.869],[111.6418,-0.779],[111.6096,-0.6954],[111.5948,-0.6744],[111.6074,-0.675]]]},"properties":{"code":"61.10.06","name":"Tanah Pinoh"}},{"type":"Feature","geometry":{"type":"Polygon","coordinates":[[[111.2294,-0.9052],[111.1722,-0.8484],[111.1518,-0.8656],[111.167,-0.9112],[111.1446,-1.0072],[111.216,-1.057],[111.2488,-1.086],[111.2482,-1.167],[111.2554,-1.2498],[111.316,-1.2574],[111.336,-1.3068],[111.3648,-1.3096],[111.4282,-1.2526],[111.4866,-1.2312],[111.5546,-1.2024],[111.557,-1.1528],[111.5434,-1.1154],[111.5582,-1.1012],[111.6162,-1.0562],[111.625,-0.991],[111.6366,-0.9796],[111.6288,-0.9718],[111.5832,-0.9662],[111.5882,-0.9138],[111.4986,-0.888],[111.4334,-0.936],[111.4018,-0.9192],[111.2544,-0.9662],[111.2294,-0.9052]]]},"properties":{"code":"61.10.07","name":"Sokan"}},{"type":"Feature","geometry":{"type":"Polygon","coordinates":[[[111.7152,-0.1532],[111.6852,-0.1314],[111.7156,-0.213],[111.639,-0.242],[111.6174,-0.2614],[111.6166,-0.2844],[111.6556,-0.2958],[111.6778,-0.317],[111.7962,-0.3674],[111.878,-0.3202],[111.9532,-0.3576],[112.021,-0.2976],[112.087,-0.2564],[112.0466,-0.2358],[112.0278,-0.213],[112.031,-0.2198],[111.9974,-0.208],[111.9552,-0.1952],[111.8928,-0.2066],[111.8924,-0.2134],[111.8146,-0.2158],[111.7152,-0.1532]]]},"properties":{"code":"61.10.08","name":"Pinoh Utara"}},{"type":"Feature","geometry":{"type":"Polygon","coordinates":[[[111.9076,-0.4046],[111.7836,-0.4132],[111.7548,-0.4496],[111.7108,-0.5158],[111.7172,-0.563],[111.7712,-0.6184],[111.8226,-0.6684],[111.8694,-0.808],[111.862,-0.845],[111.8808,-0.863],[111.887,-0.8418],[111.9518,-0.7926],[111.9644,-0.8112],[111.9752,-0.7812],[111.9592,-0.718],[111.9056,-0.6548],[111.9548,-0.4872],[111.9578,-0.4418],[111.9076,-0.4046]]]},"properties":{"code":"61.10.09","name":"Pinoh Selatan"}},{"type":"Feature","geometry":{"type":"Polygon","coordinates":[[[111.5462,-0.3084],[111.5044,-0.289],[111.4928,-0.2986],[111.495,-0.322],[111.4826,-0.3236],[111.4814,-0.3434],[111.5008,-0.4398],[111.491,-0.4806],[111.4604,-0.5304],[111.4518,-0.5332],[111.428,-0.5214],[111.441,-0.5622],[111.4384,-0.5944],[111.4472,-0.6266],[111.5106,-0.5922],[111.6218,-0.6002],[111.6672,-0.5808],[111.6694,-0.5494],[111.63,-0.518],[111.6236,-0.4712],[111.621,-0.4314],[111.5526,-0.3788],[111.5462,-0.3084]]]},"properties":{"code":"61.10.10","name":"Belimbing Hulu"}},{"type":"Feature","geometry":{"type":"Polygon","coordinates":[[[111.564,-0.5962],[111.5106,-0.5922],[111.442,-0.629],[111.3468,-0.5976],[111.2768,-0.6182],[111.236,-0.6078],[111.2344,-0.6328],[111.2414,-0.6926],[111.2104,-0.8316],[111.2294,-0.9052],[111.2544,-0.9662],[111.4018,-0.9192],[111.4228,-0.871],[111.4774,-0.8102],[111.5806,-0.7464],[111.564,-0.5962]]]},"properties":{"code":"61.10.11","name":"Tanah Pinoh Barat"}}]}