{"type":"FeatureCollection","features":[{"type":"Feature","geometry":{"type":"Polygon","coordinates":[[[114.1664,-3.1746],[114.225,-3.1924],[114.2545,-3.1135],[114.131,-2.9922],[114.0241,-2.961],[113.9806,-2.9607],[113.982,-3.0426],[113.9482,-3.1187],[114.1072,-3.1661],[114.1467,-3.1875],[114.1664,-3.1746]]]},"properties":{"code":"62.11.01","name":"Pandih Batu","latitude":-3.0807505470208763,"longitude":114.09586489942087}},{"type":"Feature","geometry":{"type":"Polygon","coordinates":[[[114.1414,-3.2669],[114.1474,-3.1951],[114.1224,-3.1834],[114.1072,-3.1661],[113.9482,-3.1187],[113.8967,-3.1726],[113.856,-3.2521],[113.7548,-3.3481],[113.7149,-3.3629],[113.6529,-3.4662],[113.7392,-3.4666],[113.8206,-3.4498],[113.9497,-3.3704],[114.0774,-3.3512],[114.1518,-3.3844],[114.172,-3.334],[114.1414,-3.2669]]]},"properties":{"code":"62.11.02","name":"Kahayan Kuala","latitude":-3.299502641622824,"longitude":113.9392550266353}},{"type":"Feature","geometry":{"type":"Polygon","coordinates":[[[114.1844,-2.1887],[114.1711,-2.0905],[114.032,-1.9067],[113.9859,-1.8026],[113.8332,-1.8652],[113.8261,-2.0114],[113.8848,-2.0818],[113.9335,-2.1502],[113.9357,-2.1634],[114.0092,-2.1621],[114.1083,-2.1879],[114.1844,-2.1887]]]},"properties":{"code":"62.11.03","name":"Kahayan Tengah","latitude":-2.015847617543106,"longitude":113.9892552215965}},{"type":"Feature","geometry":{"type":"Polygon","coordinates":[[[113.9736,-1.5206],[113.8917,-1.5381],[113.8443,-1.583],[113.798,-1.6041],[113.8208,-1.7098],[113.8332,-1.8652],[113.9859,-1.8026],[113.9815,-1.6671],[114.0309,-1.5872],[113.9984,-1.5631],[113.9736,-1.5206]]]},"properties":{"code":"62.11.04","name":"Banama Tingang","latitude":-1.6797551950542535,"longitude":113.90720600365898}},{"type":"Feature","geometry":{"type":"Polygon","coordinates":[[[114.3487,-2.7442],[114.3381,-2.7174],[114.3356,-2.6619],[114.3339,-2.6145],[114.2705,-2.6286],[114.237,-2.6689],[114.1073,-2.6577],[114.0596,-2.8344],[114.2019,-2.8617],[114.2472,-2.9043],[114.2837,-2.8653],[114.2914,-2.8296],[114.2847,-2.8037],[114.3487,-2.7442]]]},"properties":{"code":"62.11.05","name":"Kahayan Hilir","latitude":-2.7541387976417737,"longitude":114.2103761187956}},{"type":"Feature","geometry":{"type":"Polygon","coordinates":[[[114.131,-2.9922],[114.253,-3.1108],[114.2811,-3.0443],[114.2641,-3.0166],[114.2123,-2.9374],[114.2472,-2.9043],[114.2171,-2.8736],[114.2019,-2.8617],[114.0596,-2.8344],[114.038,-2.965],[114.131,-2.9922]]]},"properties":{"code":"62.11.06","name":"Maliku","latitude":-2.9523039343550637,"longitude":114.16040126624114}},{"type":"Feature","geometry":{"type":"Polygon","coordinates":[[[114.1083,-2.1879],[114.085,-2.2688],[114.0418,-2.3106],[114.0358,-2.3411],[114.1043,-2.4147],[114.1347,-2.5076],[114.1342,-2.5507],[114.1074,-2.6577],[114.237,-2.6689],[114.2705,-2.6286],[114.3339,-2.6145],[114.3253,-2.3733],[114.2624,-2.3779],[114.26,-2.2298],[114.2278,-2.2293],[114.1844,-2.1887],[114.1083,-2.1879]]]},"properties":{"code":"62.11.07","name":"Jabiren Raya","latitude":-2.431226280120333,"longitude":114.19741497144338}},{"type":"Feature","geometry":{"type":"Polygon","coordinates":[[[114.1043,-2.4147],[114.074,-2.3795],[114.0358,-2.3411],[114.0249,-2.4036],[113.762,-2.4019],[113.751,-2.5217],[113.665,-2.6183],[113.5841,-2.7378],[113.6278,-2.8108],[113.6603,-2.9139],[113.7084,-2.9633],[113.7136,-3.0216],[113.6639,-3.0542],[113.6315,-3.1413],[113.6011,-3.1672],[113.6275,-3.2494],[113.6323,-3.321],[113.6117,-3.3962],[113.5813,-3.4419],[113.6529,-3.4662],[113.7149,-3.3629],[113.7548,-3.3481],[113.856,-3.2521],[113.8967,-3.1726],[113.9561,-3.1101],[113.982,-3.0426],[113.9806,-2.9607],[114.038,-2.965],[114.0596,-2.8344],[114.1342,-2.5507],[114.1347,-2.5076],[114.1043,-2.4147]]]},"properties":{"code":"62.11.08","name":"Sebangau Kuala","latitude":-2.8331107232408828,"longitude":113.8473419843589}}]}