{"type":"FeatureCollection","features":[{"type":"Feature","geometry":{"type":"Polygon","coordinates":[[[115.6387,-2.2215],[115.59,-2.1531],[115.5372,-2.1925],[115.5383,-2.3052],[115.5391,-2.3613],[115.5502,-2.3556],[115.6143,-2.3737],[115.6641,-2.3701],[115.6548,-2.3146],[115.6102,-2.2543],[115.6387,-2.2215]]]},"properties":{"code":"63.11.01","name":"Juai","latitude":-2.2789547588828185,"longitude":115.58829069921471}},{"type":"Feature","geometry":{"type":"Polygon","coordinates":[[[115.7818,-2.0534],[115.6876,-2.0768],[115.619,-2.1128],[115.62,-2.125],[115.589,-2.1481],[115.6416,-2.2054],[115.6387,-2.2215],[115.6102,-2.2543],[115.6548,-2.3146],[115.6794,-2.3801],[115.6818,-2.4306],[115.7903,-2.4572],[115.7907,-2.4353],[115.8363,-2.3852],[115.8314,-2.3331],[115.8331,-2.2956],[115.7851,-2.2155],[115.7972,-2.1079],[115.8147,-2.0981],[115.8076,-2.0614],[115.7818,-2.0534]]]},"properties":{"code":"63.11.02","name":"Halong","latitude":-2.247689473845378,"longitude":115.72608666656802}},{"type":"Feature","geometry":{"type":"Polygon","coordinates":[[[115.6154,-2.4115],[115.5536,-2.3767],[115.4923,-2.3809],[115.4794,-2.4007],[115.4884,-2.4289],[115.5047,-2.4483],[115.5147,-2.4535],[115.5552,-2.4613],[115.5716,-2.4212],[115.6154,-2.4115]]]},"properties":{"code":"63.11.03","name":"Awayan","latitude":-2.4092222673712014,"longitude":115.54582615899048}},{"type":"Feature","geometry":{"type":"Polygon","coordinates":[[[115.4725,-2.3845],[115.4147,-2.3635],[115.3927,-2.3888],[115.3538,-2.4204],[115.3982,-2.4448],[115.4426,-2.4544],[115.5286,-2.4836],[115.5306,-2.4987],[115.5472,-2.4603],[115.5047,-2.4483],[115.4884,-2.4289],[115.4794,-2.4007],[115.4817,-2.3931],[115.4725,-2.3845]]]},"properties":{"code":"63.11.04","name":"Batu Mandi","latitude":-2.427022060064487,"longitude":115.44683098263177}},{"type":"Feature","geometry":{"type":"Polygon","coordinates":[[[115.4052,-2.2981],[115.3596,-2.2956],[115.3406,-2.3509],[115.3187,-2.3552],[115.3145,-2.4033],[115.3538,-2.4204],[115.3927,-2.3888],[115.42,-2.3144],[115.4052,-2.2981]]]},"properties":{"code":"63.11.05","name":"Lampihong","latitude":-2.3570130809032857,"longitude":115.36853432777175}},{"type":"Feature","geometry":{"type":"Polygon","coordinates":[[[115.5372,-2.1925],[115.475,-2.2424],[115.4052,-2.2981],[115.42,-2.3144],[115.4517,-2.3421],[115.5012,-2.3316],[115.5383,-2.3052],[115.5372,-2.1925]]]},"properties":{"code":"63.11.06","name":"Paringin","latitude":-2.2825997912272697,"longitude":115.48609712737473}},{"type":"Feature","geometry":{"type":"Polygon","coordinates":[[[115.4517,-2.3421],[115.4147,-2.3635],[115.4725,-2.3845],[115.4817,-2.3931],[115.4923,-2.3809],[115.5536,-2.3767],[115.5502,-2.3556],[115.5391,-2.3613],[115.5012,-2.3316],[115.4517,-2.3421]]]},"properties":{"code":"63.11.07","name":"Paringin Selatan","latitude":-2.3606188945364677,"longitude":115.47955151910365}},{"type":"Feature","geometry":{"type":"Polygon","coordinates":[[[115.6794,-2.3801],[115.6143,-2.3737],[115.6154,-2.4115],[115.5716,-2.4212],[115.5555,-2.4611],[115.5472,-2.4603],[115.5716,-2.4823],[115.5897,-2.4789],[115.6034,-2.5036],[115.7506,-2.5324],[115.7947,-2.4786],[115.7903,-2.4572],[115.6818,-2.4306],[115.6794,-2.3801]]]},"properties":{"code":"63.11.08","name":"Tebing Tinggi","latitude":-2.4620651958997155,"longitude":115.67080599458819}}]}