{"type":"FeatureCollection","features":[{"type":"Feature","geometry":{"type":"Polygon","coordinates":[[[114.7818,-3.4304],[114.7376,-3.4623],[114.7188,-3.5112],[114.7341,-3.5107],[114.7939,-3.4851],[114.7818,-3.4304]]]},"properties":{"code":"63.72.02","name":"Landasan Ulin","latitude":-3.4591297035150634,"longitude":114.76439983209576}},{"type":"Feature","geometry":{"type":"Polygon","coordinates":[[[114.8908,-3.4722],[114.8595,-3.4656],[114.8074,-3.4766],[114.7939,-3.4851],[114.7341,-3.5107],[114.7732,-3.5233],[114.8576,-3.5595],[114.8821,-3.557],[114.9077,-3.5074],[114.8908,-3.4722]]]},"properties":{"code":"63.72.03","name":"Cempaka","latitude":-3.5101051580030926,"longitude":114.8425409848373}},{"type":"Feature","geometry":{"type":"Polygon","coordinates":[[[114.84,-3.4255],[114.7818,-3.4304],[114.8515,-3.4433],[114.8598,-3.4656],[114.9014,-3.475],[114.8737,-3.4392],[114.84,-3.4255]]]},"properties":{"code":"63.72.04","name":"Banjarbaru Utara","latitude":-3.4455076609058133,"longitude":114.84745514627451}},{"type":"Feature","geometry":{"type":"Polygon","coordinates":[[[114.8515,-3.4433],[114.8201,-3.4426],[114.8139,-3.4563],[114.8106,-3.4762],[114.8598,-3.4656],[114.8515,-3.4433]]]},"properties":{"code":"63.72.05","name":"Banjarbaru Selatan","latitude":-3.457300905488063,"longitude":114.83162398260856}},{"type":"Feature","geometry":{"type":"Polygon","coordinates":[[[114.7358,-3.3984],[114.6973,-3.4278],[114.6817,-3.4392],[114.6746,-3.4608],[114.6821,-3.5178],[114.7188,-3.5112],[114.7376,-3.4623],[114.7392,-3.3897],[114.7358,-3.3984]]]},"properties":{"code":"63.72.06","name":"Liang Anggang","latitude":-3.4501204719453096,"longitude":114.71065440556407}}]}