{"type":"FeatureCollection","features":[{"type":"Feature","geometry":{"type":"Polygon","coordinates":[[[116.6258,0.69],[116.5523,0.6861],[116.522,0.7031],[116.4114,0.6016],[116.3364,0.6068],[116.317,0.6406],[116.307,0.6355],[116.2927,0.6401],[116.2795,0.6475],[116.2698,0.649],[116.2422,0.684],[116.2261,0.6862],[116.237,0.6524],[116.2739,0.5838],[116.2643,0.5529],[116.2883,0.4652],[116.3235,0.4584],[116.4595,0.295],[116.4692,0.1839],[116.6525,0.1839],[116.704,0.2027],[116.6858,0.3414],[116.701,0.4311],[116.675,0.5471],[116.6448,0.6439],[116.6408,0.6693],[116.6258,0.69]]]},"properties":{"code":"64.08.01","name":"Muara Ancalong","latitude":0.453737955005379,"longitude":116.5159658701284}},{"type":"Feature","geometry":{"type":"Polygon","coordinates":[[[116.3173,1.847],[116.2561,1.8538],[116.2064,1.8372],[116.1702,1.7824],[116.1335,1.6681],[116.1024,1.6672],[116.0369,1.6065],[116.1067,1.5674],[116.1611,1.4997],[116.2329,1.3738],[116.2837,1.3458],[116.3514,1.2679],[116.3783,1.2013],[116.4074,1.1929],[116.4311,1.2246],[116.4351,1.2451],[116.4565,1.27],[116.5001,1.2842],[116.4883,1.3031],[116.5028,1.3211],[116.5606,1.3256],[116.5821,1.2632],[116.5753,1.1397],[116.6242,1.112],[116.6835,1.0019],[116.723,0.9768],[116.7325,0.959],[116.8664,0.945],[117.1283,0.9584],[117.1497,1.0753],[117.0265,1.0797],[117.0296,1.0458],[116.9401,1.028],[116.9118,1.0623],[116.9153,1.1215],[116.8998,1.1467],[116.9415,1.2135],[116.9365,1.2469],[116.8604,1.3145],[116.87,1.3393],[116.9016,1.4164],[116.8884,1.466],[116.916,1.5054],[116.9366,1.5668],[116.9258,1.5795],[116.927,1.6083],[116.9147,1.6033],[116.9109,1.6415],[116.8874,1.6418],[116.8834,1.6693],[116.7602,1.6937],[116.659,1.6428],[116.6037,1.6923],[116.5441,1.6953],[116.4605,1.7248],[116.4893,1.7859],[116.4156,1.8225],[116.351,1.8032],[116.3173,1.847]]]},"properties":{"code":"64.08.02","name":"Muara Wahau","latitude":1.4177714017401934,"longitude":116.58256684589712}},{"type":"Feature","geometry":{"type":"Polygon","coordinates":[[[116.8554,0.5669],[116.7583,0.5815],[116.7443,0.4861],[116.6901,0.4799],[116.701,0.4311],[116.6858,0.3414],[116.704,0.2027],[116.8264,0.2359],[116.8766,0.3661],[116.904,0.39],[116.931,0.4187],[116.9415,0.4432],[116.9454,0.5183],[116.8693,0.5314],[116.8554,0.5669]]]},"properties":{"code":"64.08.03","name":"Muara Bengkal","latitude":0.40127352876658345,"longitude":116.79937196051547}},{"type":"Feature","geometry":{"type":"Polygon","coordinates":[[[117.4672,0.6377],[117.3895,0.6392],[117.3864,0.5942],[117.3797,0.5945],[117.3704,0.5523],[117.4183,0.56],[117.4408,0.5756],[117.4441,0.5643],[117.5251,0.4851],[117.5789,0.4548],[117.5944,0.4368],[117.6048,0.4874],[117.6594,0.5653],[117.6364,0.583],[117.6069,0.5923],[117.5059,0.6171],[117.4672,0.6377]]]},"properties":{"code":"64.08.04","name":"Sangatta Utara","latitude":0.5607460962851205,"longitude":117.52452402922839}},{"type":"Feature","geometry":{"type":"MultiPolygon","coordinates":[[[[117.9645,0.8027],[118.0265,0.7778],[118.0193,0.8665],[117.9766,0.9299],[117.9732,0.9792],[117.9338,1.0552],[117.8961,0.9968],[117.8713,0.9172],[117.9035,0.9348],[117.9565,0.9045],[117.9358,0.8803],[117.9645,0.8027]]],[[[117.9813,1.2583],[117.907,1.3248],[117.897,1.3004],[117.8655,1.2634],[117.8399,1.2316],[117.8625,1.1846],[117.8145,1.1499],[117.8303,1.1305],[117.8559,1.1186],[117.9278,1.1071],[117.9793,1.07],[118.0087,0.96],[118.0569,0.9397],[118.064,0.9032],[118.1679,0.8779],[118.168,1.0105],[118.189,1.0579],[118.3175,1.0781],[118.3363,1.162],[118.2229,1.1869],[118.1876,1.1699],[118.0863,1.1591],[118.0385,1.1619],[117.9946,1.201],[117.9813,1.2583]]]]},"properties":{"code":"64.08.05","name":"Sangkulirang","latitude":1.0647381789658819,"longitude":118.04894232405904}},{"type":"Feature","geometry":{"type":"Polygon","coordinates":[[[116.1611,1.4997],[116.1148,1.5577],[116.0674,1.5944],[116.0369,1.6065],[116.0456,1.5795],[116.0276,1.5514],[116.0666,1.5],[116.1312,1.4781],[116.1585,1.3627],[116.1479,1.2952],[116.1122,1.2706],[116.0806,1.2114],[116.0302,1.1686],[116.0318,1.1284],[116.0743,1.0243],[116.029,0.9714],[116.0471,0.9196],[116.0322,0.8521],[115.9911,0.8033],[116.0327,0.7751],[116.0757,0.8094],[116.1384,0.7375],[116.2239,0.7103],[116.2261,0.6862],[116.2449,0.6816],[116.2578,0.6564],[116.2795,0.6475],[116.2927,0.6401],[116.307,0.6355],[116.317,0.6406],[116.3279,0.6117],[116.343,0.6049],[116.4114,0.6016],[116.522,0.7031],[116.6258,0.69],[116.6599,0.7056],[116.6872,0.7512],[116.7101,0.7661],[116.6921,0.7948],[116.6813,0.8359],[116.6275,0.829],[116.5972,0.8222],[116.5698,0.8858],[116.5444,0.9151],[116.5307,0.9885],[116.4955,1.0628],[116.4593,1.0873],[116.4465,1.1567],[116.4074,1.1929],[116.3783,1.2013],[116.3514,1.2679],[116.2837,1.3458],[116.2329,1.3738],[116.1611,1.4997]]]},"properties":{"code":"64.08.06","name":"Busang","latitude":0.9792809647916015,"longitude":116.29712011645975}},{"type":"Feature","geometry":{"type":"Polygon","coordinates":[[[116.723,0.9768],[116.6835,1.0019],[116.6242,1.112],[116.5753,1.1397],[116.5821,1.2632],[116.5606,1.3256],[116.5028,1.3211],[116.4883,1.3031],[116.5001,1.2842],[116.4859,1.2848],[116.471,1.2704],[116.4667,1.2755],[116.4425,1.2603],[116.4311,1.2246],[116.4074,1.1929],[116.4465,1.1567],[116.4593,1.0873],[116.4955,1.0628],[116.5307,0.9885],[116.5444,0.9151],[116.5698,0.8858],[116.6275,0.829],[116.6813,0.8359],[116.6921,0.7948],[116.7117,0.7633],[116.861,0.7763],[117.0144,0.7727],[117.0622,0.7828],[117.0914,0.8034],[117.1597,0.7996],[117.1905,0.8779],[117.2212,1.1355],[117.1396,1.0199],[117.1283,0.9584],[116.8926,0.9441],[116.7274,0.9602],[116.723,0.9768]]]},"properties":{"code":"64.08.07","name":"Telen","latitude":0.9615467072408049,"longitude":116.7876394229411}},{"type":"Feature","geometry":{"type":"Polygon","coordinates":[[[116.9845,1.5223],[116.9366,1.5668],[116.916,1.5054],[116.8884,1.466],[116.9016,1.4164],[116.87,1.3393],[116.8604,1.3145],[116.9365,1.2469],[116.9415,1.2135],[116.8998,1.1467],[116.9153,1.1215],[116.9118,1.0623],[116.9401,1.028],[117.0296,1.0458],[117.0265,1.0797],[117.1242,1.0765],[117.1363,1.1261],[117.1373,1.1702],[117.1764,1.226],[117.2192,1.3021],[117.2601,1.3558],[117.2321,1.3801],[117.1078,1.3948],[117.0351,1.4222],[117.0059,1.4257],[116.9759,1.4917],[116.9845,1.5223]]]},"properties":{"code":"64.08.08","name":"Kombeng","latitude":1.2747620300647395,"longitude":117.03077135313922}},{"type":"Feature","geometry":{"type":"Polygon","coordinates":[[[117.3361,1.3013],[117.3057,1.3031],[117.2547,1.3542],[117.2192,1.3021],[117.1764,1.226],[117.1353,1.1594],[117.1363,1.1261],[117.1242,1.0765],[117.1497,1.0753],[117.1396,1.0199],[117.2212,1.1355],[117.1905,0.8779],[117.1758,0.8404],[117.2117,0.8115],[117.2057,0.7061],[117.2756,0.7051],[117.282,0.6658],[117.3602,0.6536],[117.4672,0.6377],[117.5059,0.6171],[117.6069,0.5923],[117.6364,0.583],[117.7108,0.6282],[117.7162,0.7076],[117.7987,0.7878],[117.7801,0.8728],[117.8167,0.8902],[117.8173,0.9163],[117.7594,0.9049],[117.6995,0.9213],[117.6705,0.94],[117.6428,0.9961],[117.3738,0.9901],[117.3047,1.0564],[117.3963,1.3007],[117.3361,1.3013]]]},"properties":{"code":"64.08.09","name":"Bengalon","latitude":0.8959268701708594,"longitude":117.43250172288656}},{"type":"Feature","geometry":{"type":"Polygon","coordinates":[[[117.9565,0.9045],[117.9035,0.9348],[117.8713,0.9172],[117.8429,0.9336],[117.8167,0.8902],[117.7801,0.8728],[117.7987,0.7878],[117.9143,0.837],[117.9645,0.8027],[117.9358,0.8803],[117.9565,0.9045]]]},"properties":{"code":"64.08.10","name":"Kaliorang","latitude":0.8667226720672454,"longitude":117.86959188365152}},{"type":"Feature","geometry":{"type":"Polygon","coordinates":[[[118.5027,1.2391],[118.5134,1.2807],[118.4824,1.2898],[118.4168,1.283],[118.3489,1.2851],[118.31,1.1778],[118.3363,1.162],[118.3175,1.0781],[118.189,1.0579],[118.168,1.0105],[118.1679,0.8779],[118.3205,0.8499],[118.3711,0.8058],[118.4424,0.8451],[118.5464,0.8084],[118.5895,0.8104],[118.6215,0.8454],[118.6723,0.8575],[118.7598,0.8056],[118.8161,0.8193],[118.8556,0.8769],[118.9649,0.9435],[118.9888,1.0225],[118.9525,1.0515],[118.9241,1.0356],[118.9175,1.017],[118.8411,0.9845],[118.7871,0.9958],[118.7507,1.1086],[118.6993,1.1222],[118.6024,1.1117],[118.5818,1.185],[118.5027,1.2391]]]},"properties":{"code":"64.08.11","name":"Sandaran","latitude":1.0008702775161005,"longitude":118.52826800723345}},{"type":"Feature","geometry":{"type":"Polygon","coordinates":[[[117.0643,0.5726],[116.9746,0.5992],[116.9415,0.5693],[116.9696,0.5566],[116.9807,0.576],[116.9944,0.583],[117.025,0.5452],[117.0742,0.4648],[117.1444,0.3706],[117.1829,0.3494],[117.1988,0.3125],[117.5233,0.3089],[117.522,0.3219],[117.5414,0.3173],[117.552,0.3353],[117.5944,0.4368],[117.5789,0.4548],[117.5251,0.4851],[117.4441,0.5643],[117.3816,0.5493],[117.3625,0.5585],[117.3641,0.5519],[117.3627,0.5378],[117.272,0.4796],[117.2454,0.4698],[117.2225,0.4769],[117.1674,0.4983],[117.0643,0.5726]]]},"properties":{"code":"64.08.12","name":"Sangatta Selatan","latitude":0.4341559967479951,"longitude":117.32544409566265}},{"type":"Feature","geometry":{"type":"Polygon","coordinates":[[[117.4692,0.1992],[117.5284,0.2211],[117.5162,0.2689],[117.5341,0.2874],[117.5275,0.3114],[117.1988,0.3125],[117.2001,0.3027],[117.1766,0.2742],[117.1726,0.151],[117.2101,0.0828],[117.2722,0.0372],[117.3367,0.051],[117.367,0.0312],[117.3707,0.0228],[117.3883,0.0225],[117.3974,0.0809],[117.4029,0.0918],[117.4497,0.1669],[117.4692,0.1992]]]},"properties":{"code":"64.08.13","name":"Teluk Pandan","latitude":0.1934201903261559,"longitude":117.33492193070816}},{"type":"Feature","geometry":{"type":"Polygon","coordinates":[[[117.3602,0.6536],[117.282,0.6658],[117.2756,0.7051],[117.2057,0.7061],[117.2117,0.8115],[117.1758,0.8404],[117.1597,0.7996],[117.0914,0.8034],[117.0622,0.7828],[117.0272,0.7448],[117.0574,0.7033],[117.0581,0.6306],[117.0559,0.6038],[117.0688,0.5959],[117.0643,0.5726],[117.1674,0.4983],[117.2225,0.4769],[117.2517,0.4703],[117.2748,0.4828],[117.3038,0.519],[117.3627,0.5378],[117.3641,0.5519],[117.369,0.5509],[117.379,0.5688],[117.3911,0.6344],[117.3877,0.6444],[117.3602,0.6536]]]},"properties":{"code":"64.08.14","name":"Rantau Pulung","latitude":0.6384030794057274,"longitude":117.19443862687187}},{"type":"Feature","geometry":{"type":"MultiPolygon","coordinates":[[[[117.8303,1.1305],[117.7902,1.1358],[117.775,1.1122],[117.7092,1.105],[117.6934,1.0902],[117.6877,1.0231],[117.6428,0.9961],[117.6815,0.9296],[117.7353,0.9066],[117.7594,0.9049],[117.8173,0.9163],[117.8429,0.9336],[117.8713,0.9172],[117.8961,0.9968],[117.9016,1.0683],[117.8559,1.1186],[117.8303,1.1305]]],[[[117.8625,1.1846],[117.8355,1.2283],[117.8192,1.2147],[117.805,1.2308],[117.7954,1.2439],[117.7873,1.2261],[117.7608,1.1545],[117.8145,1.1499],[117.8625,1.1846]]]]},"properties":{"code":"64.08.15","name":"Kaubun","latitude":1.0433720687756618,"longitude":117.79004357302946}},{"type":"Feature","geometry":{"type":"Polygon","coordinates":[[[117.7719,1.6594],[117.7249,1.6951],[117.6644,1.671],[117.6424,1.59],[117.5601,1.5964],[117.5286,1.5366],[117.513,1.5113],[117.4859,1.5018],[117.4557,1.5574],[117.394,1.5909],[117.3858,1.5849],[117.3734,1.513],[117.3339,1.4512],[117.2754,1.4216],[117.2553,1.3636],[117.2966,1.3097],[117.3361,1.3013],[117.3963,1.3007],[117.3047,1.0564],[117.3738,0.9901],[117.6428,0.9961],[117.6877,1.0231],[117.6922,1.0875],[117.7056,1.1038],[117.775,1.1122],[117.7902,1.1358],[117.8145,1.1499],[117.7608,1.1545],[117.7873,1.2261],[117.8189,1.2147],[117.833,1.2285],[117.8338,1.2393],[117.8655,1.2634],[117.897,1.3004],[117.9099,1.335],[117.8866,1.356],[117.8481,1.3742],[117.8543,1.4197],[117.8592,1.4502],[117.8514,1.4477],[117.8183,1.6014],[117.7719,1.6594]]]},"properties":{"code":"64.08.16","name":"Karangan","latitude":1.317444835374779,"longitude":117.58148625554428}},{"type":"Feature","geometry":{"type":"Polygon","coordinates":[[[117.0272,0.7448],[117.0144,0.7727],[116.861,0.7763],[116.7117,0.7633],[116.7312,0.7333],[116.727,0.6895],[116.7326,0.6625],[116.7587,0.656],[116.7583,0.5815],[116.8554,0.5669],[116.8693,0.5314],[116.9454,0.5183],[116.9403,0.5398],[116.9415,0.5693],[116.9746,0.5992],[117.066,0.5893],[117.0687,0.5963],[117.0559,0.604],[117.0581,0.6306],[117.0574,0.7033],[117.0272,0.7448]]]},"properties":{"code":"64.08.17","name":"Batu Ampar","latitude":0.6705422267601393,"longitude":116.89588414565559}},{"type":"Feature","geometry":{"type":"Polygon","coordinates":[[[116.727,0.6895],[116.7312,0.7333],[116.7101,0.7661],[116.6872,0.7512],[116.6599,0.7056],[116.6408,0.6693],[116.6448,0.6439],[116.675,0.5471],[116.6901,0.4799],[116.7443,0.4861],[116.7583,0.5815],[116.7587,0.656],[116.7326,0.6625],[116.727,0.6895]]]},"properties":{"code":"64.08.18","name":"Long Mesangat","latitude":0.6156960994173877,"longitude":116.70569900148823}}]}