{"type":"FeatureCollection","features":[{"type":"Feature","geometry":{"type":"Polygon","coordinates":[[[116.9467,-1.1169],[116.9259,-1.1],[116.9327,-1.1764],[116.9056,-1.2074],[116.9317,-1.254],[117.0007,-1.2001],[117.0009,-1.1252],[116.9467,-1.1169]]]},"properties":{"code":"64.71.01","name":"Balikpapan Timur","latitude":-1.1749094335782728,"longitude":116.96079672700003}},{"type":"Feature","geometry":{"type":"Polygon","coordinates":[[[116.8721,-1.0981],[116.8963,-1.0638],[116.8006,-1.0506],[116.7418,-1.0717],[116.7804,-1.1466],[116.7828,-1.2124],[116.8259,-1.2133],[116.832,-1.1492],[116.8721,-1.0981]]]},"properties":{"code":"64.71.02","name":"Balikpapan Barat","latitude":-1.1141376834797936,"longitude":116.81176683724773}},{"type":"Feature","geometry":{"type":"Polygon","coordinates":[[[116.9259,-1.1],[116.8721,-1.0981],[116.832,-1.1492],[116.8259,-1.2133],[116.8574,-1.2454],[116.8738,-1.2384],[116.9327,-1.1764],[116.9259,-1.1]]]},"properties":{"code":"64.71.03","name":"Balikpapan Utara","latitude":-1.1591597011528036,"longitude":116.8804240720303}},{"type":"Feature","geometry":{"type":"Polygon","coordinates":[[[116.8422,-1.2628],[116.8442,-1.2387],[116.8159,-1.24],[116.8148,-1.2528],[116.8323,-1.2611],[116.8371,-1.2746],[116.8422,-1.2628]]]},"properties":{"code":"64.71.04","name":"Balikpapan Tengah","latitude":-1.251937155148159,"longitude":116.83831252644315}},{"type":"Feature","geometry":{"type":"Polygon","coordinates":[[[116.8574,-1.2454],[116.8839,-1.2767],[116.9316,-1.254],[116.9054,-1.207],[116.8738,-1.2384],[116.8574,-1.2454]]]},"properties":{"code":"64.71.05","name":"Balikpapan Selatan","latitude":-1.2459347661291393,"longitude":116.8927948752857}},{"type":"Feature","geometry":{"type":"Polygon","coordinates":[[[116.8371,-1.2746],[116.8213,-1.2519],[116.8056,-1.272],[116.8109,-1.2822],[116.8594,-1.2714],[116.8422,-1.2628],[116.8371,-1.2746]]]},"properties":{"code":"64.71.06","name":"Balikpapan Kota","latitude":-1.2683940107121199,"longitude":116.83187312416038}}]}