{"type":"FeatureCollection","features":[{"type":"Feature","geometry":{"type":"Polygon","coordinates":[[[116.3526,3.6883],[116.3133,3.666],[116.2473,3.6139],[116.2902,3.5173],[116.269,3.4724],[116.2058,3.5373],[116.1871,3.6009],[116.0996,3.561],[116.144,3.5437],[116.1688,3.479],[116.2201,3.4569],[116.2724,3.4523],[116.3192,3.4577],[116.3522,3.4883],[116.3527,3.5069],[116.3705,3.5107],[116.3643,3.5652],[116.411,3.5624],[116.4043,3.5076],[116.4763,3.5093],[116.5054,3.5169],[116.5391,3.5289],[116.5564,3.5633],[116.5045,3.6007],[116.4369,3.5968],[116.3878,3.6322],[116.3526,3.6883]]]},"properties":{"code":"65.02.01","name":"Mentarang","latitude":3.5622002123566623,"longitude":116.33673479271648}},{"type":"Feature","geometry":{"type":"Polygon","coordinates":[[[116.738,3.6057],[116.6651,3.6099],[116.5849,3.5775],[116.5897,3.5568],[116.6,3.5461],[116.6225,3.5465],[116.676,3.5163],[116.6848,3.5443],[116.7115,3.5504],[116.6955,3.5615],[116.7191,3.5991],[116.738,3.6057]]]},"properties":{"code":"65.02.02","name":"Malinau Kota","latitude":3.5723272621385163,"longitude":116.6545742025901}},{"type":"Feature","geometry":{"type":"Polygon","coordinates":[[[115.5121,3.0078],[115.4534,3.0282],[115.3936,2.9797],[115.3312,2.9751],[115.2947,3.0403],[115.2458,2.9812],[115.148,2.9081],[115.1417,2.8685],[115.091,2.8235],[115.1543,2.7904],[115.0947,2.6977],[115.1216,2.6511],[115.088,2.6163],[115.1136,2.5833],[115.1778,2.6105],[115.2478,2.5062],[115.2346,2.4625],[115.2494,2.4171],[115.2875,2.3343],[115.4013,2.3008],[115.433,2.2796],[115.4797,2.3012],[115.5106,2.3539],[115.5928,2.3607],[115.6524,2.345],[115.677,2.2836],[115.7302,2.3174],[115.7592,2.3541],[115.7883,2.3659],[115.8253,2.3579],[115.869,2.3583],[115.9172,2.3249],[115.9588,2.3188],[115.9625,2.2688],[116.0302,2.2528],[116.0518,2.2793],[116.0602,2.3163],[116.1231,2.3936],[116.1779,2.4049],[116.2282,2.482],[116.261,2.478],[116.2952,2.5412],[116.3022,2.6367],[116.3269,2.6917],[116.2847,2.7087],[116.2469,2.6841],[116.1748,2.6894],[116.1109,2.6952],[116.1008,2.6497],[116.0583,2.6433],[115.9991,2.6642],[115.9644,2.7085],[115.9811,2.7451],[115.9355,2.7826],[115.9097,2.7771],[115.8134,2.7392],[115.7772,2.7496],[115.739,2.8221],[115.708,2.8403],[115.6782,2.9083],[115.6049,2.9989],[115.5638,2.9808],[115.5121,3.0078]]]},"properties":{"code":"65.02.03","name":"Pujungan","latitude":2.617720125899447,"longitude":115.63469399936238}},{"type":"Feature","geometry":{"type":"Polygon","coordinates":[[[115.2346,2.4625],[115.2203,2.4834],[115.1438,2.4757],[115.0998,2.4051],[115.0527,2.4056],[114.9963,2.3482],[114.961,2.3647],[114.917,2.2549],[114.8706,2.2638],[114.799,2.2485],[114.787,2.2],[114.7411,2.1912],[114.7403,2.1323],[114.8204,2.1299],[114.7933,2.0582],[114.809,2.0245],[114.8868,2.0261],[114.8509,1.959],[114.8844,1.976],[114.9147,1.9691],[114.9566,1.9538],[114.9576,1.9032],[114.9714,1.8927],[115.0039,1.8356],[115.0449,1.8345],[115.0622,1.8149],[115.0944,1.8131],[115.1298,1.8131],[115.1787,1.8277],[115.245,1.8292],[115.3301,1.8223],[115.377,1.7379],[115.435,1.7257],[115.4543,1.6902],[115.5041,1.6745],[115.5298,1.5981],[115.607,1.5141],[115.5348,1.3893],[115.5859,1.2812],[115.6467,1.282],[115.7645,1.2591],[115.8569,1.4014],[115.8543,1.434],[115.9574,1.4906],[115.9727,1.5313],[116.0276,1.5514],[116.0456,1.5795],[116.0364,1.6061],[116.1024,1.6672],[116.1335,1.6681],[116.1702,1.7824],[116.1838,1.8317],[116.1752,1.9018],[116.1945,1.9857],[116.2296,2.0111],[116.2214,2.0755],[116.1903,2.125],[116.148,2.1526],[116.0701,2.1614],[116.011,2.1915],[115.9885,2.2612],[115.9588,2.274],[115.9588,2.3188],[115.9172,2.3249],[115.8973,2.3255],[115.8618,2.3612],[115.8253,2.3579],[115.7883,2.3659],[115.7592,2.3541],[115.7302,2.3174],[115.677,2.2836],[115.6524,2.345],[115.5928,2.3607],[115.5106,2.3539],[115.4797,2.3012],[115.433,2.2796],[115.4013,2.3008],[115.2875,2.3343],[115.2494,2.4171],[115.2346,2.4625]]]},"properties":{"code":"65.02.04","name":"Kayan Hilir","latitude":1.9518571619997398,"longitude":115.56676813329163}},{"type":"Feature","geometry":{"type":"Polygon","coordinates":[[[114.9147,1.9691],[114.8844,1.976],[114.8509,1.959],[114.8824,1.9144],[114.8196,1.8926],[114.7944,1.8487],[114.7473,1.8694],[114.694,1.8083],[114.709,1.6379],[114.6105,1.5752],[114.6159,1.5155],[114.5718,1.3892],[114.6168,1.3632],[114.6901,1.3599],[114.7284,1.3131],[114.8022,1.3825],[114.8424,1.4024],[114.8672,1.4039],[114.8797,1.4184],[114.9018,1.419],[114.9086,1.4035],[114.9306,1.4017],[115.0169,1.348],[115.0302,1.3094],[115.061,1.3154],[115.0467,1.3821],[115.0091,1.4143],[114.9912,1.5069],[114.9303,1.5242],[114.8998,1.5711],[114.8989,1.6327],[114.8323,1.6218],[114.866,1.7064],[114.9602,1.7545],[114.9891,1.7919],[115.0622,1.8149],[115.0449,1.8345],[115.0039,1.8356],[114.9714,1.8927],[114.9576,1.9032],[114.9566,1.9538],[114.9147,1.9691]]]},"properties":{"code":"65.02.05","name":"Kayan Hulu","latitude":1.600625077834128,"longitude":114.81671092641496}},{"type":"Feature","geometry":{"type":"Polygon","coordinates":[[[116.5356,3.2372],[116.526,3.2746],[116.4974,3.2446],[116.4087,3.251],[116.3648,3.2587],[116.3248,3.2136],[116.2548,3.2045],[116.2414,3.1884],[116.2548,3.1788],[116.26,3.1597],[116.3187,3.1459],[116.3626,3.1446],[116.4096,3.1392],[116.4445,3.1046],[116.5084,3.0029],[116.4928,2.895],[116.5114,2.8464],[116.5502,2.8787],[116.637,2.9742],[116.6953,3.0287],[116.7313,3.0315],[116.745,3.0416],[116.7497,3.0667],[116.7371,3.1336],[116.7113,3.1519],[116.6309,3.1794],[116.5715,3.1762],[116.5356,3.2372]]]},"properties":{"code":"65.02.06","name":"Malinau Selatan","latitude":3.0950892841184556,"longitude":116.5372950241845}},{"type":"Feature","geometry":{"type":"Polygon","coordinates":[[[116.4255,3.8813],[116.3731,3.8593],[116.3483,3.8668],[116.3284,3.7618],[116.3106,3.7438],[116.3526,3.6883],[116.3878,3.6322],[116.4369,3.5968],[116.5045,3.6007],[116.5849,3.5775],[116.6651,3.6099],[116.7371,3.6564],[116.7426,3.6813],[116.7313,3.6829],[116.7181,3.6993],[116.6957,3.7019],[116.6459,3.7847],[116.6454,3.7966],[116.626,3.7992],[116.5929,3.8266],[116.4948,3.8574],[116.4255,3.8813]]]},"properties":{"code":"65.02.07","name":"Malinau Utara","latitude":3.724025905344401,"longitude":116.51109726048963}},{"type":"Feature","geometry":{"type":"Polygon","coordinates":[[[116.5897,3.5568],[116.5391,3.5289],[116.5054,3.5169],[116.4763,3.5093],[116.4096,3.4791],[116.4058,3.4595],[116.4564,3.4337],[116.4832,3.468],[116.5194,3.4651],[116.5525,3.4436],[116.5904,3.3659],[116.5797,3.2952],[116.5928,3.2549],[116.6693,3.2201],[116.7113,3.1519],[116.7371,3.1336],[116.7406,3.1706],[116.7802,3.2275],[116.7798,3.2737],[116.761,3.3047],[116.71,3.3539],[116.6963,3.3994],[116.702,3.4508],[116.676,3.5163],[116.6225,3.5465],[116.6,3.5461],[116.5897,3.5568]]]},"properties":{"code":"65.02.08","name":"Malinau Barat","latitude":3.368105816690457,"longitude":116.63809231345716}},{"type":"Feature","geometry":{"type":"Polygon","coordinates":[[[115.3301,1.8223],[115.2687,1.8167],[115.2859,1.746],[115.2673,1.7203],[115.212,1.6281],[115.2265,1.5899],[115.1628,1.5275],[115.1235,1.456],[115.089,1.3906],[115.068,1.3845],[115.061,1.3154],[115.0996,1.2441],[115.0937,1.212],[115.1145,1.1811],[115.182,1.1967],[115.2468,1.1814],[115.2803,1.1345],[115.3346,1.127],[115.3808,1.118],[115.4056,1.1832],[115.4365,1.2302],[115.5859,1.2812],[115.5348,1.3893],[115.607,1.5141],[115.5298,1.5981],[115.5041,1.6745],[115.4543,1.6902],[115.435,1.7257],[115.377,1.7379],[115.3301,1.8223]]]},"properties":{"code":"65.02.09","name":"Sungai Boh","latitude":1.4331379341207255,"longitude":115.33408928686409}},{"type":"Feature","geometry":{"type":"Polygon","coordinates":[[[115.2687,1.8167],[115.245,1.8292],[115.1787,1.8277],[115.1298,1.8131],[115.0944,1.8131],[114.9891,1.7919],[114.9602,1.7545],[114.866,1.7064],[114.8323,1.6218],[114.8989,1.6327],[114.8998,1.5711],[114.9303,1.5242],[114.9912,1.5069],[115.0091,1.4143],[115.0467,1.3821],[115.068,1.3845],[115.089,1.3906],[115.1235,1.456],[115.1628,1.5275],[115.2265,1.5899],[115.212,1.6281],[115.2673,1.7203],[115.285,1.7506],[115.2687,1.8167]]]},"properties":{"code":"65.02.10","name":"Kayan Selatan","latitude":1.6456753237841704,"longitude":115.07207936831988}},{"type":"Feature","geometry":{"type":"Polygon","coordinates":[[[115.9494,3.4555],[115.8994,3.498],[115.8782,3.4584],[115.8336,3.488],[115.7853,3.4608],[115.7221,3.4449],[115.6961,3.4068],[115.6576,3.4395],[115.6237,3.4078],[115.5789,3.4189],[115.544,3.3634],[115.5156,3.2238],[115.5592,3.1718],[115.5138,3.1088],[115.5121,3.0078],[115.5638,2.9808],[115.6049,2.9989],[115.6782,2.9083],[115.708,2.8403],[115.739,2.8221],[115.7772,2.7496],[115.8134,2.7392],[115.9097,2.7771],[115.9471,2.8294],[115.9177,2.8593],[115.9159,2.8821],[115.9691,2.9475],[115.9684,2.9586],[115.929,3.0065],[115.9636,3.074],[115.966,3.1444],[116.0116,3.1602],[115.9968,3.1938],[115.9413,3.2052],[115.9566,3.305],[115.8951,3.3366],[115.901,3.3904],[115.9144,3.4152],[115.9494,3.4555]]]},"properties":{"code":"65.02.11","name":"Bahau Hulu","latitude":3.1364935585677136,"longitude":115.76108076274187}},{"type":"Feature","geometry":{"type":"MultiPolygon","coordinates":[[[[116.4043,3.5076],[116.411,3.5624],[116.3643,3.5652],[116.3705,3.5107],[116.3504,3.5025],[116.3596,3.5035],[116.3662,3.4838],[116.3465,3.4433],[116.3768,3.4106],[116.412,3.4324],[116.4058,3.4595],[116.4096,3.4791],[116.4043,3.5076]]],[[[116.1675,4.1121],[116.112,4.1123],[116.0708,4.0992],[115.9578,4.0763],[115.9944,4.0586],[115.9959,4.0433],[116.0212,4.0052],[116.0081,3.9398],[115.9566,3.9143],[115.943,3.8844],[115.9122,3.8747],[115.9085,3.8394],[115.925,3.8348],[115.9437,3.7936],[115.9125,3.6828],[115.9319,3.6401],[115.953,3.6147],[116.0089,3.6509],[116.0303,3.5888],[116.0996,3.561],[116.1871,3.6009],[116.2058,3.5373],[116.269,3.4724],[116.2902,3.5173],[116.2473,3.6139],[116.3133,3.666],[116.3106,3.7438],[116.3284,3.7618],[116.3483,3.8668],[116.3731,3.8593],[116.4076,3.8953],[116.3844,3.9443],[116.3822,3.9814],[116.3694,3.9939],[116.3565,4.0079],[116.3548,4.0361],[116.3228,4.0657],[116.2752,4.0398],[116.2225,4.0769],[116.1675,4.1121]]]]},"properties":{"code":"65.02.12","name":"Mentarang Hulu","latitude":3.817164583628056,"longitude":116.15784291442509}},{"type":"Feature","geometry":{"type":"Polygon","coordinates":[[[116.5525,3.4436],[116.5194,3.4651],[116.4832,3.468],[116.4564,3.4337],[116.412,3.4324],[116.3768,3.4106],[116.354,3.3694],[116.3848,3.2826],[116.4087,3.251],[116.4974,3.2446],[116.526,3.2746],[116.5356,3.2372],[116.5715,3.1762],[116.6309,3.1794],[116.6693,3.2201],[116.5928,3.2549],[116.5797,3.2952],[116.5904,3.3659],[116.5525,3.4436]]]},"properties":{"code":"65.02.13","name":"Malinau Selatan Hilir","latitude":3.320246641480492,"longitude":116.50036422248263}},{"type":"Feature","geometry":{"type":"Polygon","coordinates":[[[116.1724,3.2167],[116.1464,3.16],[116.2016,3.1532],[116.2246,3.1525],[116.243,3.1407],[116.2442,3.0998],[116.2238,3.076],[116.2282,3.0101],[116.1749,2.9941],[116.1327,2.9314],[116.0823,2.9588],[116.0048,2.9381],[115.9974,2.9465],[115.969,2.948],[115.9255,2.9013],[115.9276,2.8913],[115.9153,2.8796],[115.9177,2.8593],[115.9471,2.8294],[115.9355,2.7826],[115.9811,2.7451],[115.9644,2.7085],[115.9991,2.6642],[116.0583,2.6433],[116.1008,2.6497],[116.1109,2.6952],[116.1748,2.6894],[116.2469,2.6841],[116.2847,2.7087],[116.3286,2.6924],[116.3633,2.7145],[116.4321,2.7774],[116.4553,2.8258],[116.4927,2.8276],[116.5114,2.8464],[116.4928,2.895],[116.5084,3.0029],[116.4445,3.1046],[116.4096,3.1392],[116.3626,3.1446],[116.3187,3.1459],[116.26,3.1597],[116.2548,3.1788],[116.2205,3.2064],[116.1902,3.1953],[116.1724,3.2167]]]},"properties":{"code":"65.02.14","name":"Malinau Selatan Hulu","latitude":2.892709057880038,"longitude":116.23668733040584}},{"type":"Feature","geometry":{"type":"Polygon","coordinates":[[[116.144,3.5437],[116.0971,3.5355],[116.0303,3.5888],[116.0089,3.6509],[115.953,3.6147],[115.9587,3.5718],[115.9386,3.527],[115.9494,3.4555],[115.9144,3.4152],[115.901,3.3904],[115.8951,3.3366],[115.9566,3.305],[115.9413,3.2052],[115.9968,3.1938],[116.0116,3.1602],[115.966,3.1444],[115.9636,3.074],[115.929,3.0065],[115.9684,2.9586],[115.969,2.948],[115.9974,2.9465],[116.0048,2.9381],[116.0823,2.9588],[116.1327,2.9314],[116.1749,2.9941],[116.2282,3.0101],[116.2238,3.076],[116.2449,3.1053],[116.2369,3.1481],[116.2016,3.1532],[116.1464,3.16],[116.1724,3.2167],[116.1902,3.1953],[116.2205,3.2064],[116.2414,3.1884],[116.2548,3.2045],[116.3248,3.2136],[116.3848,3.2826],[116.354,3.3694],[116.3768,3.4106],[116.3465,3.4433],[116.3662,3.4838],[116.3596,3.5035],[116.3504,3.5025],[116.3522,3.4883],[116.3189,3.4576],[116.2201,3.4569],[116.1688,3.479],[116.144,3.5437]]]},"properties":{"code":"65.02.15","name":"Sungai Tubu","latitude":3.279321215453428,"longitude":116.11248665870019}}]}