{"type":"FeatureCollection","features":[{"type":"Feature","geometry":{"type":"Polygon","coordinates":[[[123.6416,0.8268],[123.7286,0.8578],[123.6814,0.8758],[123.5874,0.9046],[123.5796,0.9028],[123.5954,0.899],[123.6008,0.8608],[123.598,0.8508],[123.6274,0.8422],[123.6416,0.8268]]]},"properties":{"code":"71.08.01","name":"Sangkub"}},{"type":"Feature","geometry":{"type":"Polygon","coordinates":[[[123.5954,0.899],[123.5796,0.9028],[123.5178,0.887],[123.5186,0.668],[123.4876,0.6016],[123.5654,0.5776],[123.587,0.587],[123.643,0.5736],[123.634,0.5874],[123.6656,0.6176],[123.6988,0.613],[123.7262,0.638],[123.7416,0.6844],[123.7192,0.7256],[123.7106,0.759],[123.6416,0.8268],[123.6274,0.8422],[123.598,0.8508],[123.6008,0.8608],[123.5954,0.899]]]},"properties":{"code":"71.08.02","name":"Bintauna"}},{"type":"Feature","geometry":{"type":"Polygon","coordinates":[[[123.5178,0.887],[123.3712,0.9128],[123.3754,0.817],[123.406,0.7856],[123.452,0.777],[123.4454,0.744],[123.3978,0.7384],[123.3406,0.6816],[123.3594,0.6514],[123.3832,0.64],[123.43,0.6414],[123.491,0.623],[123.5186,0.668],[123.5178,0.887]]]},"properties":{"code":"71.08.03","name":"Bolangitang Timur"}},{"type":"Feature","geometry":{"type":"Polygon","coordinates":[[[123.3712,0.9128],[123.2952,0.8932],[123.2978,0.833],[123.2686,0.7682],[123.2472,0.717],[123.2736,0.6982],[123.3406,0.6816],[123.3978,0.7384],[123.4454,0.744],[123.452,0.777],[123.406,0.7856],[123.3754,0.817],[123.3712,0.9128]]]},"properties":{"code":"71.08.04","name":"Bolangitang Barat"}},{"type":"Feature","geometry":{"type":"Polygon","coordinates":[[[123.2952,0.8932],[123.2124,0.9248],[123.195,0.9118],[123.2498,0.8706],[123.2532,0.8556],[123.271,0.8026],[123.2978,0.833],[123.2952,0.8932]]]},"properties":{"code":"71.08.05","name":"Kaidipang"}},{"type":"Feature","geometry":{"type":"Polygon","coordinates":[[[123.2124,0.9248],[123.1122,0.9154],[123.1526,0.8702],[123.1792,0.8614],[123.2532,0.8556],[123.2498,0.8706],[123.195,0.9118],[123.2124,0.9248]]]},"properties":{"code":"71.08.06","name":"Pinogaluman"}}]}