{"type":"FeatureCollection","features":[{"type":"Feature","geometry":{"type":"MultiPolygon","coordinates":[[[[123.8752,0.4532],[123.8636,0.4557],[123.8383,0.4544],[123.8407,0.4402],[123.8521,0.4399],[123.8627,0.4015],[123.8752,0.4532]]],[[[124.0553,0.4458],[123.9902,0.4636],[123.9329,0.4321],[123.9044,0.4375],[123.8921,0.3495],[124.0516,0.361],[124.0553,0.4458]]]]},"properties":{"code":"71.11.01","name":"Bolaang Uki","latitude":0.4114755367819265,"longitude":123.96743399810623}},{"type":"Feature","geometry":{"type":"Polygon","coordinates":[[[123.709,0.571],[123.6429,0.5735],[123.631,0.5642],[123.6083,0.5619],[123.587,0.5869],[123.5653,0.5776],[123.5261,0.5418],[123.5523,0.5107],[123.5231,0.4634],[123.5502,0.4338],[123.4979,0.3821],[123.4941,0.3071],[123.574,0.3218],[123.6771,0.2958],[123.6941,0.3096],[123.6922,0.3516],[123.6867,0.4258],[123.6863,0.4388],[123.6902,0.4863],[123.7202,0.5264],[123.709,0.571]]]},"properties":{"code":"71.11.02","name":"Posigadan","latitude":0.4370852842467251,"longitude":123.6064889666527}},{"type":"Feature","geometry":{"type":"Polygon","coordinates":[[[124.1828,0.5046],[124.1384,0.5584],[124.1133,0.5273],[124.0633,0.5192],[124.0464,0.5086],[124.0461,0.4967],[124.0239,0.4835],[124.0227,0.4716],[124.0553,0.4458],[124.0516,0.361],[124.0802,0.3878],[124.2061,0.3942],[124.2045,0.4272],[124.1828,0.5046]]]},"properties":{"code":"71.11.03","name":"Pinolosian","latitude":0.4589941025288934,"longitude":124.12088026142428}},{"type":"Feature","geometry":{"type":"Polygon","coordinates":[[[124.3114,0.5294],[124.2706,0.5263],[124.2336,0.5106],[124.1828,0.5046],[124.2045,0.4272],[124.2433,0.3985],[124.3256,0.436],[124.3114,0.5294]]]},"properties":{"code":"71.11.04","name":"Pinolosian Tengah","latitude":0.47286154777595923,"longitude":124.25291739731628}},{"type":"Feature","geometry":{"type":"Polygon","coordinates":[[[124.3114,0.5294],[124.3389,0.434],[124.4125,0.455],[124.4531,0.4441],[124.4601,0.5178],[124.4355,0.5346],[124.4182,0.565],[124.3375,0.6151],[124.2967,0.5612],[124.3114,0.5294]]]},"properties":{"code":"71.11.05","name":"Pinolosian Timur","latitude":0.5164529643823211,"longitude":124.38147122926578}},{"type":"Feature","geometry":{"type":"Polygon","coordinates":[[[123.776,0.4553],[123.7567,0.3798],[123.7755,0.3278],[123.8696,0.3303],[123.8921,0.3495],[123.9061,0.4429],[123.8752,0.4532],[123.8627,0.4015],[123.8521,0.4399],[123.8407,0.4402],[123.8383,0.4544],[123.8343,0.4422],[123.7916,0.4407],[123.776,0.4553]]]},"properties":{"code":"71.11.06","name":"Helumo","latitude":0.3877164774218536,"longitude":123.82674568728075}},{"type":"Feature","geometry":{"type":"Polygon","coordinates":[[[123.7567,0.3798],[123.7639,0.4566],[123.7113,0.4665],[123.6863,0.4388],[123.6867,0.4258],[123.6922,0.3516],[123.6941,0.3096],[123.7755,0.3278],[123.7567,0.3798]]]},"properties":{"code":"71.11.07","name":"Tomini","latitude":0.38687858286739657,"longitude":123.7243237588327}}]}