{"type":"FeatureCollection","features":[{"type":"Feature","geometry":{"type":"Polygon","coordinates":[[[124.8424,1.5652],[124.8076,1.556],[124.861,1.5226],[124.8636,1.5452],[124.8796,1.5632],[124.8778,1.5758],[124.8424,1.5652]]]},"properties":{"code":"71.71.01","name":"Bunaken"}},{"type":"Feature","geometry":{"type":"Polygon","coordinates":[[[124.8464,1.5244],[124.8392,1.523],[124.8444,1.4966],[124.865,1.5136],[124.8464,1.5244]]]},"properties":{"code":"71.71.02","name":"Tuminting"}},{"type":"Feature","geometry":{"type":"Polygon","coordinates":[[[124.8654,1.5132],[124.8452,1.5006],[124.8472,1.4898],[124.8684,1.4942],[124.8654,1.5132]]]},"properties":{"code":"71.71.03","name":"Singkil"}},{"type":"Feature","geometry":{"type":"Polygon","coordinates":[[[124.851,1.4888],[124.8474,1.4968],[124.8396,1.4998],[124.83,1.4854],[124.8406,1.4714],[124.851,1.4888]]]},"properties":{"code":"71.71.04","name":"Wenang"}},{"type":"Feature","geometry":{"type":"Polygon","coordinates":[[[124.851,1.4888],[124.844,1.4814],[124.861,1.448],[124.8764,1.4582],[124.8748,1.4714],[124.8516,1.4822],[124.851,1.4888]]]},"properties":{"code":"71.71.05","name":"Tikala"}},{"type":"Feature","geometry":{"type":"Polygon","coordinates":[[[124.8372,1.481],[124.8264,1.4656],[124.8332,1.4576],[124.8386,1.4588],[124.8372,1.481]]]},"properties":{"code":"71.71.06","name":"Sario"}},{"type":"Feature","geometry":{"type":"Polygon","coordinates":[[[124.8488,1.4756],[124.8368,1.4734],[124.8318,1.4502],[124.8394,1.4514],[124.857,1.4338],[124.859,1.4624],[124.8488,1.4756]]]},"properties":{"code":"71.71.07","name":"Wanea"}},{"type":"Feature","geometry":{"type":"Polygon","coordinates":[[[124.9064,1.5756],[124.88,1.5732],[124.8754,1.554],[124.8636,1.5452],[124.8612,1.5226],[124.8908,1.4804],[124.9246,1.5254],[124.9274,1.5602],[124.9064,1.5756]]]},"properties":{"code":"71.71.08","name":"Mapanget"}},{"type":"Feature","geometry":{"type":"Polygon","coordinates":[[[124.8266,1.4628],[124.7858,1.4468],[124.82,1.4282],[124.852,1.436],[124.8394,1.4514],[124.8318,1.4502],[124.8346,1.4622],[124.8266,1.4628]]]},"properties":{"code":"71.71.09","name":"Malalayang"}},{"type":"Feature","geometry":{"type":"Polygon","coordinates":[[[124.7464,1.633],[124.7362,1.6176],[124.7638,1.6206],[124.7464,1.633]]]},"properties":{"code":"71.71.10","name":"Bunaken Kepulauan"}},{"type":"Feature","geometry":{"type":"Polygon","coordinates":[[[124.8786,1.4946],[124.8512,1.4882],[124.878,1.4626],[124.8786,1.4946]]]},"properties":{"code":"71.71.11","name":"Paal Dua"}}]}