{"type":"FeatureCollection","features":[{"type":"Feature","geometry":{"type":"Polygon","coordinates":[[[121.9417,-2.6671],[121.9931,-2.6068],[121.9408,-2.4797],[121.8821,-2.4091],[121.8552,-2.4291],[121.7892,-2.4936],[121.7889,-2.5199],[121.7438,-2.5437],[121.6985,-2.582],[121.7201,-2.6038],[121.7841,-2.6417],[121.7354,-2.6986],[121.7557,-2.7225],[121.7793,-2.7219],[121.8377,-2.6962],[121.9417,-2.6671]]]},"properties":{"code":"72.06.05","name":"Bungku Tengah","latitude":-2.5808119433851173,"longitude":121.85502980143913}},{"type":"Feature","geometry":{"type":"Polygon","coordinates":[[[122.4272,-3.1269],[122.383,-3.1455],[122.3651,-3.1328],[122.3433,-3.1593],[122.388,-3.1808],[122.4217,-3.1755],[122.4339,-3.1549],[122.4467,-3.1521],[122.4438,-3.1419],[122.4272,-3.1269]]]},"properties":{"code":"72.06.06","name":"Bungku Selatan","latitude":-3.1069445398223494,"longitude":122.4165011308446}},{"type":"Feature","geometry":{"type":"MultiPolygon","coordinates":[[[[123.1499,-3.5559],[123.0734,-3.5756],[123.0724,-3.6237],[123.1817,-3.6081],[123.1499,-3.5559]]],[[[122.2957,-3.2262],[122.3107,-3.2729],[122.326,-3.2325],[122.3474,-3.2368],[122.368,-3.2254],[122.3678,-3.239],[122.3557,-3.2525],[122.3639,-3.2571],[122.3851,-3.2574],[122.4008,-3.2398],[122.4077,-3.2601],[122.4221,-3.262],[122.4334,-3.2409],[122.4226,-3.2053],[122.4285,-3.1928],[122.4697,-3.1894],[122.4869,-3.1801],[122.4638,-3.1497],[122.4546,-3.1512],[122.4605,-3.1635],[122.4466,-3.1634],[122.4411,-3.1529],[122.4221,-3.1753],[122.3958,-3.1809],[122.3435,-3.1596],[122.3372,-3.1686],[122.3151,-3.1661],[122.3164,-3.2032],[122.3016,-3.2115],[122.2957,-3.2262]]]]},"properties":{"code":"72.06.07","name":"Menui Kepulauan","latitude":-3.367529978898484,"longitude":122.69632361429596}},{"type":"Feature","geometry":{"type":"Polygon","coordinates":[[[121.8821,-2.4091],[121.8251,-2.2938],[121.7391,-2.2495],[121.7153,-2.2914],[121.7047,-2.4382],[121.7345,-2.5212],[121.6799,-2.5516],[121.6985,-2.582],[121.7438,-2.5437],[121.7889,-2.5199],[121.7892,-2.4936],[121.8552,-2.4291],[121.8821,-2.4091]]]},"properties":{"code":"72.06.08","name":"Bungku Barat","latitude":-2.3983384094995226,"longitude":121.77337772673513}},{"type":"Feature","geometry":{"type":"Polygon","coordinates":[[[121.7391,-2.2495],[121.7227,-2.1977],[121.6794,-2.1797],[121.6418,-2.2213],[121.6622,-2.2611],[121.5952,-2.2897],[121.6138,-2.3733],[121.5757,-2.4284],[121.5703,-2.4912],[121.5853,-2.5281],[121.6299,-2.5056],[121.673,-2.5199],[121.6799,-2.5516],[121.7345,-2.5212],[121.7047,-2.4382],[121.7153,-2.2914],[121.7391,-2.2495]]]},"properties":{"code":"72.06.09","name":"Bumi Raya","latitude":-2.378272436138793,"longitude":121.65714419749061}},{"type":"Feature","geometry":{"type":"Polygon","coordinates":[[[122.2199,-2.9004],[122.1922,-2.8447],[122.1397,-2.7891],[122.0861,-2.7892],[122.0385,-2.7357],[121.9936,-2.7701],[121.9327,-2.7756],[121.9091,-2.7972],[121.8764,-2.8027],[121.8085,-2.798],[121.7565,-2.8071],[121.7118,-2.7929],[121.7008,-2.8127],[121.6748,-2.8223],[121.6596,-2.861],[121.6702,-2.9004],[121.6827,-2.9027],[121.6951,-2.9212],[121.7238,-2.8873],[121.7383,-2.9259],[121.7718,-2.9435],[121.8342,-2.973],[121.8842,-3.0096],[121.9412,-3.0283],[121.9527,-3.0509],[122.0387,-3.0523],[122.0353,-3.0718],[122.1265,-3.0827],[122.1615,-3.0288],[122.1895,-2.9606],[122.2135,-2.9114],[122.2199,-2.9004]]]},"properties":{"code":"72.06.10","name":"Bahodopi","latitude":-2.904573779684512,"longitude":121.9767386936867}},{"type":"Feature","geometry":{"type":"Polygon","coordinates":[[[121.6418,-2.2213],[121.6434,-2.1836],[121.5022,-2.1808],[121.4787,-2.2008],[121.4788,-2.2624],[121.459,-2.3025],[121.4597,-2.3224],[121.4481,-2.3891],[121.4379,-2.3958],[121.4688,-2.4154],[121.4977,-2.4464],[121.548,-2.4756],[121.5757,-2.4284],[121.6138,-2.3733],[121.5952,-2.2897],[121.6622,-2.2611],[121.6418,-2.2213]]]},"properties":{"code":"72.06.12","name":"Wita Ponda","latitude":-2.305637868853898,"longitude":121.54314188593742}},{"type":"Feature","geometry":{"type":"Polygon","coordinates":[[[122.3372,-3.1686],[122.3665,-3.132],[122.3355,-3.0864],[122.2502,-3.0235],[122.321,-2.9205],[122.2929,-2.8919],[122.2135,-2.9114],[122.1895,-2.9606],[122.1615,-3.0288],[122.1506,-3.0394],[122.1862,-3.0621],[122.244,-3.0926],[122.2648,-3.101],[122.2535,-3.1239],[122.2584,-3.1418],[122.3372,-3.1686]]]},"properties":{"code":"72.06.15","name":"Bungku Pesisir","latitude":-3.0257355206218337,"longitude":122.25678502807183}},{"type":"Feature","geometry":{"type":"Polygon","coordinates":[[[121.9936,-2.7701],[122.0077,-2.6822],[122.0363,-2.6622],[122.0011,-2.6281],[122.0046,-2.6217],[121.9953,-2.6117],[121.9923,-2.607],[121.9417,-2.6671],[121.8377,-2.6962],[121.7673,-2.7257],[121.7475,-2.718],[121.7153,-2.7533],[121.7565,-2.8071],[121.8085,-2.798],[121.8765,-2.8027],[121.9123,-2.7958],[121.9327,-2.7756],[121.9936,-2.7701]]]},"properties":{"code":"72.06.18","name":"Bungku Timur","latitude":-2.731890321182778,"longitude":121.88597953155258}},{"type":"Feature","geometry":{"type":"Polygon","coordinates":[[[122.3433,-3.1593],[122.3415,-3.1655],[122.3381,-3.1683],[122.3372,-3.1686],[122.3346,-3.1687],[122.3301,-3.1679],[122.3284,-3.1669],[122.3227,-3.1645],[122.3206,-3.1644],[122.3151,-3.1661],[122.3187,-3.174],[122.3167,-3.1785],[122.3135,-3.1815],[122.312,-3.1901],[122.3145,-3.1958],[122.3164,-3.2032],[122.3016,-3.2116],[122.3102,-3.2223],[122.3046,-3.2274],[122.2983,-3.2263],[122.2957,-3.2262],[122.2956,-3.2288],[122.2965,-3.2308],[122.2975,-3.2372],[122.3021,-3.2486],[122.3066,-3.2547],[122.3091,-3.2578],[122.3119,-3.2605],[122.3125,-3.2642],[122.3107,-3.2729],[122.3129,-3.2739],[122.3166,-3.2676],[122.3168,-3.2591],[122.3212,-3.2538],[122.3253,-3.2349],[122.3474,-3.2368],[122.3499,-3.2355],[122.3505,-3.2344],[122.3516,-3.2331],[122.3633,-3.2277],[122.3643,-3.2275],[122.365,-3.2268],[122.3656,-3.2271],[122.3671,-3.2264],[122.3677,-3.2255],[122.368,-3.2254],[122.369,-3.2259],[122.3687,-3.2299],[122.3681,-3.2301],[122.366,-3.2317],[122.3651,-3.2317],[122.3647,-3.2328],[122.363,-3.2352],[122.3643,-3.2375],[122.3676,-3.2367],[122.3679,-3.2375],[122.3678,-3.2391],[122.3998,-3.2399],[122.4009,-3.2398],[122.4019,-3.2405],[122.4032,-3.241],[122.4051,-3.2427],[122.4081,-3.2486],[122.4078,-3.2583],[122.4138,-3.2568],[122.4183,-3.2605],[122.4173,-3.261],[122.4162,-3.2602],[122.4156,-3.2612],[122.4164,-3.2622],[122.4194,-3.2626],[122.4201,-3.2615],[122.4214,-3.2613],[122.4221,-3.262],[122.4189,-3.2647],[122.4194,-3.2681],[122.422,-3.2683],[122.4339,-3.2407],[122.4328,-3.2339],[122.4289,-3.2293],[122.4291,-3.2243],[122.4284,-3.2204],[122.4248,-3.2154],[122.4263,-3.211],[122.4237,-3.2055],[122.4225,-3.2052],[122.4231,-3.2025],[122.4239,-3.2018],[122.4245,-3.2009],[122.4247,-3.2011],[122.4255,-3.2003],[122.4293,-3.1992],[122.4305,-3.1935],[122.4339,-3.1903],[122.4398,-3.1884],[122.4863,-3.1797],[122.4651,-3.1578],[122.4584,-3.1553],[122.4581,-3.1618],[122.4553,-3.1655],[122.4453,-3.1636],[122.4444,-3.1604],[122.4443,-3.1572],[122.4467,-3.1521],[122.446,-3.1486],[122.445,-3.1476],[122.4439,-3.1451],[122.4428,-3.1418],[122.4255,-3.1343],[122.4272,-3.127],[122.4268,-3.1268],[122.4262,-3.1267],[122.4254,-3.127],[122.4207,-3.1272],[122.4088,-3.1299],[122.4054,-3.1327],[122.4036,-3.1352],[122.4016,-3.1384],[122.3996,-3.1411],[122.383,-3.1456],[122.3768,-3.1431],[122.3725,-3.1394],[122.3709,-3.1373],[122.3691,-3.1342],[122.3667,-3.1327],[122.3662,-3.1326],[122.3651,-3.1328],[122.3626,-3.1364],[122.3625,-3.1366],[122.3625,-3.1372],[122.3629,-3.1382],[122.3626,-3.1414],[122.3592,-3.1466],[122.3507,-3.1522],[122.3459,-3.1539],[122.3435,-3.1573],[122.3433,-3.1586],[122.3433,-3.1593]]]},"properties":{"code":"72.06.20","name":"Sombori Kepulauan","latitude":-3.2828782853073597,"longitude":122.42569982827195}}]}