{"type":"FeatureCollection","features":[{"type":"Feature","geometry":{"type":"Polygon","coordinates":[[[123.5198,-1.5476],[123.5022,-1.6192],[123.5476,-1.6076],[123.5506,-1.6436],[123.5794,-1.657],[123.5568,-1.5806],[123.5198,-1.5476]]]},"properties":{"code":"72.11.01","name":"Banggai"}},{"type":"Feature","geometry":{"type":"Polygon","coordinates":[[[123.5568,-1.5806],[123.5468,-1.509],[123.504,-1.4986],[123.5198,-1.5476],[123.5568,-1.5806]]]},"properties":{"code":"72.11.02","name":"Banggai Utara"}},{"type":"Feature","geometry":{"type":"Polygon","coordinates":[[[123.785,-1.8792],[123.7706,-1.943],[123.8246,-2.0268],[123.8632,-1.979],[123.785,-1.8792]]]},"properties":{"code":"72.11.03","name":"Bokan Kepulauan"}},{"type":"Feature","geometry":{"type":"Polygon","coordinates":[[[123.1054,-1.7746],[123.0586,-1.8296],[123.0844,-1.9156],[123.1496,-1.8202],[123.1054,-1.7746]]]},"properties":{"code":"72.11.04","name":"Bangkurung"}},{"type":"Feature","geometry":{"type":"Polygon","coordinates":[[[123.3762,-1.6728],[123.311,-1.7192],[123.2698,-1.7848],[123.3158,-1.7822],[123.3398,-1.7346],[123.3718,-1.7178],[123.3762,-1.6728]]]},"properties":{"code":"72.11.05","name":"Labobo"}},{"type":"Feature","geometry":{"type":"Polygon","coordinates":[[[123.5506,-1.6436],[123.5394,-1.6562],[123.5488,-1.6688],[123.5794,-1.657],[123.5506,-1.6436]]]},"properties":{"code":"72.11.06","name":"Banggai Selatan"}},{"type":"Feature","geometry":{"type":"Polygon","coordinates":[[[123.5394,-1.6562],[123.5476,-1.6076],[123.5022,-1.6192],[123.5488,-1.6688],[123.5394,-1.6562]]]},"properties":{"code":"72.11.07","name":"Banggai Tengah"}}]}