{"type":"FeatureCollection","features":[{"type":"Feature","geometry":{"type":"Polygon","coordinates":[[[121.466,-2.0012],[121.381,-1.9764],[121.3338,-1.876],[121.2902,-1.8664],[121.2446,-1.8668],[121.2372,-1.896],[121.289,-1.9464],[121.3182,-1.9858],[121.3226,-2.0288],[121.3524,-2.0666],[121.362,-2.0096],[121.3992,-2.006],[121.4088,-2.0196],[121.4322,-2.0112],[121.466,-2.0012]]]},"properties":{"code":"72.12.01","name":"Petasia"}},{"type":"Feature","geometry":{"type":"Polygon","coordinates":[[[121.5022,-2.1808],[121.544,-2.1494],[121.5136,-2.057],[121.466,-2.0012],[121.4322,-2.0112],[121.4088,-2.0196],[121.3992,-2.006],[121.362,-2.0096],[121.363,-2.063],[121.3696,-2.058],[121.369,-2.0772],[121.3682,-2.085],[121.3994,-2.1178],[121.4046,-2.1406],[121.4074,-2.1668],[121.4256,-2.2144],[121.4114,-2.2464],[121.4396,-2.2558],[121.4788,-2.2624],[121.4788,-2.2008],[121.5022,-2.1808]]]},"properties":{"code":"72.12.02","name":"Petasia Timur"}},{"type":"Feature","geometry":{"type":"Polygon","coordinates":[[[121.3604,-2.1582],[121.1318,-2.2052],[121.0704,-2.2704],[121.1076,-2.2808],[121.0888,-2.3872],[121.1224,-2.3934],[121.1692,-2.3814],[121.228,-2.3684],[121.406,-2.4036],[121.438,-2.3958],[121.4482,-2.389],[121.4598,-2.3224],[121.459,-2.3026],[121.4396,-2.2558],[121.4114,-2.2464],[121.4,-2.214],[121.4036,-2.2062],[121.3604,-2.1582]]]},"properties":{"code":"72.12.03","name":"Lembo Raya"}},{"type":"Feature","geometry":{"type":"Polygon","coordinates":[[[121.2482,-2.092],[121.1522,-2.0494],[121.1536,-2.103],[121.1312,-2.14],[121.0286,-2.2532],[121.0704,-2.2704],[121.1318,-2.2052],[121.3604,-2.1582],[121.4036,-2.2062],[121.4,-2.214],[121.4256,-2.2144],[121.4074,-2.1668],[121.4046,-2.1406],[121.3994,-2.1178],[121.3682,-2.085],[121.369,-2.0772],[121.3422,-2.0798],[121.2482,-2.092]]]},"properties":{"code":"72.12.04","name":"Lembo"}},{"type":"Feature","geometry":{"type":"Polygon","coordinates":[[[121.1972,-1.946],[121.1856,-1.901],[121.1762,-1.9086],[121.167,-1.9042],[121.1426,-1.9392],[120.973,-1.9738],[120.9368,-2.0158],[120.8854,-1.9752],[120.8172,-2.0644],[120.8378,-2.1398],[120.8378,-2.2186],[120.8562,-2.223],[120.8574,-2.2562],[120.8846,-2.2668],[120.9578,-2.2518],[120.9944,-2.2752],[121.0286,-2.2532],[121.1312,-2.14],[121.1536,-2.103],[121.1522,-2.0494],[121.2044,-1.9712],[121.1972,-1.946]]]},"properties":{"code":"72.12.05","name":"Mori Atas"}},{"type":"Feature","geometry":{"type":"Polygon","coordinates":[[[121.0766,-1.76],[121.0438,-1.6258],[121.0022,-1.6466],[120.9538,-1.6946],[120.956,-1.8172],[120.947,-1.8752],[120.9042,-1.8882],[120.933,-1.9086],[120.8854,-1.9752],[120.9368,-2.0158],[120.973,-1.9738],[121.1426,-1.9392],[121.167,-1.9042],[121.1794,-1.908],[121.1766,-1.8938],[121.1682,-1.8934],[121.165,-1.8848],[121.167,-1.8642],[121.1564,-1.8316],[121.141,-1.7992],[121.1168,-1.761],[121.0766,-1.76]]]},"properties":{"code":"72.12.06","name":"Mori Utara"}},{"type":"Feature","geometry":{"type":"Polygon","coordinates":[[[121.2642,-1.5358],[121.2654,-1.5164],[121.2368,-1.518],[121.1932,-1.5752],[121.142,-1.5702],[121.1354,-1.5974],[121.0948,-1.5952],[121.0438,-1.6258],[121.0766,-1.76],[121.1168,-1.761],[121.1178,-1.7818],[121.1418,-1.8006],[121.1724,-1.884],[121.2102,-1.883],[121.2366,-1.8766],[121.2446,-1.8668],[121.2902,-1.8664],[121.3228,-1.7666],[121.3792,-1.8106],[121.4304,-1.7774],[121.4044,-1.7454],[121.3838,-1.7488],[121.3512,-1.6946],[121.3392,-1.6092],[121.2642,-1.5358]]]},"properties":{"code":"72.12.07","name":"Soyo Jaya"}},{"type":"Feature","geometry":{"type":"Polygon","coordinates":[[[121.4674,-1.4374],[121.4546,-1.3812],[121.3766,-1.4498],[121.298,-1.4726],[121.2642,-1.5358],[121.3392,-1.6092],[121.3512,-1.6946],[121.3838,-1.7488],[121.4044,-1.7454],[121.4304,-1.7774],[121.4522,-1.849],[121.5732,-1.9588],[121.6764,-1.946],[121.7426,-1.8882],[121.7818,-1.7922],[121.852,-1.6888],[121.8372,-1.6714],[121.7948,-1.6296],[121.8108,-1.5366],[121.7886,-1.4904],[121.8002,-1.4662],[121.77,-1.4224],[121.6722,-1.4934],[121.5462,-1.4934],[121.4674,-1.4374]]]},"properties":{"code":"72.12.08","name":"Bungku Utara"}},{"type":"Feature","geometry":{"type":"Polygon","coordinates":[[[122.0312,-1.4054],[121.9832,-1.3902],[121.9322,-1.3058],[121.8898,-1.2788],[121.8204,-1.3],[121.6952,-1.416],[121.6042,-1.3736],[121.4912,-1.3324],[121.4546,-1.3812],[121.4674,-1.4374],[121.5462,-1.4934],[121.6722,-1.4934],[121.7742,-1.424],[121.8002,-1.4662],[121.7886,-1.4904],[121.8108,-1.5366],[121.7948,-1.6296],[121.8372,-1.6714],[121.8622,-1.6912],[121.9574,-1.6796],[122.03,-1.6116],[122.0582,-1.6174],[122.0338,-1.5798],[122.0584,-1.431],[122.0312,-1.4054]]]},"properties":{"code":"72.12.09","name":"Mamosalato"}},{"type":"Feature","geometry":{"type":"Polygon","coordinates":[[[121.167,-1.8642],[121.1684,-1.8936],[121.1766,-1.8938],[121.1794,-1.908],[121.1856,-1.901],[121.1972,-1.946],[121.2044,-1.9712],[121.1612,-2.0422],[121.2482,-2.092],[121.3422,-2.0798],[121.3696,-2.058],[121.363,-2.063],[121.3524,-2.0666],[121.3226,-2.0288],[121.3182,-1.9858],[121.289,-1.9464],[121.2372,-1.896],[121.2366,-1.8766],[121.1724,-1.884],[121.167,-1.8642]]]},"properties":{"code":"72.12.10","name":"Petasia Barat"}}]}