{"type":"FeatureCollection","features":[{"type":"Feature","geometry":{"type":"Polygon","coordinates":[[[120.0866,-5.0374],[120.0362,-4.9938],[120.0166,-4.9196],[119.8844,-4.9624],[119.8468,-5.0466],[119.893,-5.0954],[119.8984,-5.1106],[119.9392,-5.1292],[119.9832,-5.1228],[120.0126,-5.1214],[120.064,-5.0998],[120.0722,-5.0978],[120.0992,-5.0502],[120.0866,-5.0374]]]},"properties":{"code":"73.08.01","name":"Bontocani"}},{"type":"Feature","geometry":{"type":"Polygon","coordinates":[[[120.0494,-4.8978],[120.0184,-4.9216],[120.0292,-4.9528],[120.0284,-4.9792],[120.0388,-4.9972],[120.0866,-5.0374],[120.0992,-5.0502],[120.1578,-5.0454],[120.1904,-5.05],[120.1786,-5.0172],[120.1378,-5.0212],[120.1182,-4.9244],[120.0948,-4.9092],[120.0494,-4.8978]]]},"properties":{"code":"73.08.02","name":"Kahu"}},{"type":"Feature","geometry":{"type":"Polygon","coordinates":[[[120.232,-5.02],[120.1904,-5.05],[120.1578,-5.0454],[120.1874,-5.069],[120.2608,-5.1162],[120.2738,-5.0364],[120.2406,-5.0516],[120.232,-5.02]]]},"properties":{"code":"73.08.03","name":"Kajuara"}},{"type":"Feature","geometry":{"type":"Polygon","coordinates":[[[120.2188,-4.9432],[120.1514,-4.9896],[120.1378,-5.0212],[120.1786,-5.0172],[120.232,-5.02],[120.2406,-5.0516],[120.2738,-5.0364],[120.3014,-4.9908],[120.2448,-4.9742],[120.2188,-4.9432]]]},"properties":{"code":"73.08.04","name":"Salomekko"}},{"type":"Feature","geometry":{"type":"Polygon","coordinates":[[[120.2376,-4.8308],[120.1732,-4.8204],[120.1756,-4.8362],[120.2422,-4.865],[120.2298,-4.8762],[120.2448,-4.9742],[120.3014,-4.9908],[120.3118,-4.8604],[120.2376,-4.8308]]]},"properties":{"code":"73.08.05","name":"Tonra"}},{"type":"Feature","geometry":{"type":"Polygon","coordinates":[[[120.0582,-4.7656],[120.0042,-4.7628],[119.993,-4.757],[119.9474,-4.8002],[119.9488,-4.845],[119.9332,-4.8738],[119.9326,-4.8908],[119.9674,-4.9268],[120.0494,-4.8978],[120.0948,-4.9092],[120.1244,-4.8812],[120.1276,-4.852],[120.1612,-4.7724],[120.1584,-4.7608],[120.1008,-4.768],[120.0582,-4.7656]]]},"properties":{"code":"73.08.06","name":"Libureng"}},{"type":"Feature","geometry":{"type":"Polygon","coordinates":[[[120.2588,-4.748],[120.2022,-4.7384],[120.1584,-4.7608],[120.1612,-4.7724],[120.1842,-4.8118],[120.2376,-4.8308],[120.3042,-4.8608],[120.3366,-4.8398],[120.3832,-4.8382],[120.3914,-4.758],[120.3206,-4.737],[120.2588,-4.748]]]},"properties":{"code":"73.08.07","name":"Mare"}},{"type":"Feature","geometry":{"type":"Polygon","coordinates":[[[120.3462,-4.7096],[120.4018,-4.7056],[120.4444,-4.6622],[120.367,-4.6316],[120.3374,-4.6278],[120.308,-4.6788],[120.3462,-4.7096]]]},"properties":{"code":"73.08.08","name":"Sibulue"}},{"type":"Feature","geometry":{"type":"Polygon","coordinates":[[[120.2918,-4.5852],[120.248,-4.55],[120.1878,-4.5866],[120.2288,-4.6032],[120.2694,-4.6016],[120.3112,-4.6202],[120.3026,-4.638],[120.3374,-4.6278],[120.367,-4.6316],[120.3856,-4.5694],[120.2918,-4.5852]]]},"properties":{"code":"73.08.09","name":"Barebbo"}},{"type":"Feature","geometry":{"type":"Polygon","coordinates":[[[120.3112,-4.6202],[120.2612,-4.5994],[120.222,-4.61],[120.2152,-4.6464],[120.2504,-4.7036],[120.2468,-4.7144],[120.2386,-4.7352],[120.2588,-4.748],[120.3206,-4.737],[120.3462,-4.7096],[120.308,-4.6788],[120.3026,-4.638],[120.3112,-4.6202]]]},"properties":{"code":"73.08.10","name":"Cina"}},{"type":"Feature","geometry":{"type":"Polygon","coordinates":[[[120.2152,-4.6464],[120.1502,-4.566],[120.1108,-4.6382],[120.0996,-4.6694],[120.0538,-4.7158],[120.0582,-4.7656],[120.1008,-4.768],[120.2022,-4.7384],[120.2386,-4.7352],[120.2468,-4.7144],[120.2504,-4.7036],[120.2152,-4.6464]]]},"properties":{"code":"73.08.11","name":"Ponre"}},{"type":"Feature","geometry":{"type":"Polygon","coordinates":[[[119.9968,-4.6688],[119.906,-4.683],[119.8846,-4.7162],[119.9702,-4.7772],[119.993,-4.757],[120.0042,-4.7628],[120.027,-4.7114],[120.0224,-4.69],[119.9968,-4.6688]]]},"properties":{"code":"73.08.12","name":"Lappariaja"}},{"type":"Feature","geometry":{"type":"Polygon","coordinates":[[[120.0072,-4.5572],[120.043,-4.5216],[119.9946,-4.521],[119.9724,-4.5306],[119.939,-4.5334],[119.893,-4.5354],[119.8882,-4.5628],[119.8824,-4.5978],[119.9338,-4.6726],[119.9986,-4.6306],[119.9902,-4.63],[119.9946,-4.582],[120.0072,-4.5572]]]},"properties":{"code":"73.08.13","name":"Lamuru"}},{"type":"Feature","geometry":{"type":"Polygon","coordinates":[[[120.1524,-4.4546],[120.1132,-4.4688],[120.0776,-4.4552],[120.058,-4.526],[120.09,-4.5672],[120.1698,-4.543],[120.22,-4.4942],[120.1524,-4.4546]]]},"properties":{"code":"73.08.14","name":"Ulaweng"}},{"type":"Feature","geometry":{"type":"Polygon","coordinates":[[[120.2478,-4.479],[120.2372,-4.4632],[120.2222,-4.4722],[120.2216,-4.503],[120.1698,-4.543],[120.1878,-4.5866],[120.248,-4.55],[120.2918,-4.5852],[120.292,-4.5544],[120.2772,-4.5258],[120.292,-4.4984],[120.2908,-4.4908],[120.2742,-4.4906],[120.2478,-4.479]]]},"properties":{"code":"73.08.15","name":"Palakka"}},{"type":"Feature","geometry":{"type":"Polygon","coordinates":[[[120.3696,-4.4818],[120.3468,-4.4262],[120.2592,-4.4178],[120.226,-4.4228],[120.2222,-4.4722],[120.2366,-4.4624],[120.2478,-4.479],[120.2742,-4.4906],[120.3696,-4.4818]]]},"properties":{"code":"73.08.16","name":"Awangpone"}},{"type":"Feature","geometry":{"type":"Polygon","coordinates":[[[120.3176,-4.3286],[120.2988,-4.2966],[120.293,-4.316],[120.2806,-4.317],[120.2386,-4.3628],[120.217,-4.3586],[120.1574,-4.4446],[120.22,-4.4942],[120.2274,-4.4214],[120.2592,-4.4178],[120.3418,-4.3828],[120.3086,-4.3898],[120.2786,-4.372],[120.3136,-4.3454],[120.3176,-4.3286]]]},"properties":{"code":"73.08.17","name":"Tellu Siattinge"}},{"type":"Feature","geometry":{"type":"Polygon","coordinates":[[[120.203,-4.2368],[120.151,-4.2248],[120.1278,-4.2238],[120.0946,-4.2428],[120.0732,-4.264],[120.0616,-4.3206],[120.1134,-4.3166],[120.146,-4.3298],[120.203,-4.2368]]]},"properties":{"code":"73.08.18","name":"Ajangale"}},{"type":"Feature","geometry":{"type":"Polygon","coordinates":[[[120.2638,-4.2726],[120.203,-4.2368],[120.1564,-4.366],[120.217,-4.3586],[120.2386,-4.3628],[120.2806,-4.317],[120.293,-4.316],[120.2988,-4.2966],[120.2818,-4.286],[120.2878,-4.272],[120.2638,-4.2726]]]},"properties":{"code":"73.08.19","name":"Dua Boccoe"}},{"type":"Feature","geometry":{"type":"Polygon","coordinates":[[[120.3418,-4.3828],[120.3906,-4.3476],[120.3376,-4.2404],[120.3038,-4.2478],[120.2878,-4.272],[120.2818,-4.286],[120.2982,-4.2956],[120.3176,-4.3286],[120.3136,-4.3454],[120.2786,-4.372],[120.3086,-4.3898],[120.3418,-4.3828]]]},"properties":{"code":"73.08.20","name":"Cenrana"}},{"type":"Feature","geometry":{"type":"Polygon","coordinates":[[[120.348,-4.5196],[120.335,-4.4952],[120.319,-4.5084],[120.3184,-4.5334],[120.3264,-4.5426],[120.341,-4.5454],[120.348,-4.5196]]]},"properties":{"code":"73.08.21","name":"Tanete Riattang"}},{"type":"Feature","geometry":{"type":"Polygon","coordinates":[[[120.292,-4.5544],[120.3158,-4.5744],[120.3264,-4.5424],[120.3154,-4.5176],[120.3306,-4.4984],[120.2908,-4.4908],[120.292,-4.4984],[120.2772,-4.5258],[120.292,-4.5544]]]},"properties":{"code":"73.08.22","name":"Tanete Riattang Barat"}},{"type":"Feature","geometry":{"type":"Polygon","coordinates":[[[120.341,-4.5454],[120.3696,-4.4818],[120.348,-4.5196],[120.341,-4.5454]]]},"properties":{"code":"73.08.23","name":"Tanete Riattang Timur"}},{"type":"Feature","geometry":{"type":"Polygon","coordinates":[[[120.146,-4.3298],[120.1094,-4.318],[120.1092,-4.328],[120.0924,-4.3338],[120.0928,-4.4058],[120.0776,-4.4552],[120.1132,-4.4688],[120.1524,-4.4546],[120.1564,-4.366],[120.146,-4.3298]]]},"properties":{"code":"73.08.24","name":"Amali"}},{"type":"Feature","geometry":{"type":"Polygon","coordinates":[[[119.8882,-4.5628],[119.8084,-4.5374],[119.7594,-4.6256],[119.7604,-4.6854],[119.8258,-4.7176],[119.7734,-4.7538],[119.7488,-4.798],[119.7254,-4.8096],[119.807,-4.8082],[119.815,-4.7794],[119.867,-4.7442],[119.906,-4.683],[119.8824,-4.5978],[119.8882,-4.5628]]]},"properties":{"code":"73.08.25","name":"Tellulimpoe"}},{"type":"Feature","geometry":{"type":"Polygon","coordinates":[[[120.09,-4.5672],[120.058,-4.526],[120.0072,-4.5572],[119.9946,-4.582],[119.9902,-4.63],[119.9986,-4.6306],[119.9968,-4.6688],[120.0224,-4.69],[120.027,-4.7114],[120.0538,-4.7158],[120.0996,-4.6694],[120.1108,-4.6382],[120.09,-4.5672]]]},"properties":{"code":"73.08.26","name":"Bengo"}},{"type":"Feature","geometry":{"type":"Polygon","coordinates":[[[120.1842,-4.8118],[120.1276,-4.852],[120.1244,-4.8812],[120.1182,-4.9244],[120.1514,-4.9896],[120.2188,-4.9432],[120.2298,-4.8762],[120.2422,-4.865],[120.1756,-4.8362],[120.1732,-4.8204],[120.1842,-4.8118]]]},"properties":{"code":"73.08.27","name":"Patimpeng"}}]}