{"type":"FeatureCollection","features":[{"type":"Feature","geometry":{"type":"Polygon","coordinates":[[[119.9054,-3.5874],[119.8666,-3.5874],[119.8536,-3.6042],[119.8326,-3.6514],[119.8048,-3.6966],[119.7654,-3.719],[119.8232,-3.7674],[119.8606,-3.8118],[119.9372,-3.8028],[119.9606,-3.804],[119.9406,-3.7618],[119.9372,-3.7086],[119.9516,-3.6602],[119.9706,-3.6606],[119.9842,-3.6422],[119.9054,-3.5874]]]},"properties":{"code":"73.16.01","name":"Maiwa"}},{"type":"Feature","geometry":{"type":"Polygon","coordinates":[[[119.7258,-3.4424],[119.702,-3.4248],[119.695,-3.4472],[119.7062,-3.4728],[119.6922,-3.502],[119.6998,-3.545],[119.7196,-3.5734],[119.7702,-3.5892],[119.8536,-3.6042],[119.8666,-3.5874],[119.8942,-3.5796],[119.871,-3.5086],[119.8662,-3.4786],[119.8496,-3.4812],[119.8258,-3.4544],[119.7648,-3.491],[119.7258,-3.4424]]]},"properties":{"code":"73.16.02","name":"Enrekang"}},{"type":"Feature","geometry":{"type":"Polygon","coordinates":[[[119.9596,-3.3624],[119.896,-3.375],[119.8738,-3.3792],[119.8444,-3.3948],[119.8316,-3.4284],[119.848,-3.432],[119.8364,-3.4688],[119.851,-3.482],[119.8662,-3.4786],[119.871,-3.5086],[119.8892,-3.4528],[119.8898,-3.4282],[120.019,-3.4114],[119.9832,-3.3772],[119.9596,-3.3624]]]},"properties":{"code":"73.16.03","name":"Baraka"}},{"type":"Feature","geometry":{"type":"Polygon","coordinates":[[[119.796,-3.3358],[119.7228,-3.3942],[119.7258,-3.4424],[119.7648,-3.491],[119.8258,-3.4544],[119.8364,-3.4688],[119.8418,-3.4608],[119.8314,-3.4444],[119.832,-3.409],[119.8118,-3.4154],[119.796,-3.3358]]]},"properties":{"code":"73.16.04","name":"Anggeraja"}},{"type":"Feature","geometry":{"type":"Polygon","coordinates":[[[119.8424,-3.3226],[119.818,-3.2818],[119.781,-3.3098],[119.796,-3.3358],[119.8558,-3.3362],[119.8424,-3.3226]]]},"properties":{"code":"73.16.05","name":"Alla"}},{"type":"Feature","geometry":{"type":"Polygon","coordinates":[[[120.06,-3.4062],[120.0072,-3.4852],[119.9776,-3.5172],[119.9002,-3.514],[119.8942,-3.5796],[119.9054,-3.5874],[119.9842,-3.6422],[119.992,-3.6304],[120.0616,-3.5372],[120.1004,-3.4774],[120.0746,-3.4462],[120.06,-3.4062]]]},"properties":{"code":"73.16.06","name":"Bungin"}},{"type":"Feature","geometry":{"type":"Polygon","coordinates":[[[119.7702,-3.5892],[119.7196,-3.5734],[119.74,-3.6144],[119.7654,-3.719],[119.8048,-3.6966],[119.8326,-3.6514],[119.7702,-3.5892]]]},"properties":{"code":"73.16.07","name":"Cendana"}},{"type":"Feature","geometry":{"type":"Polygon","coordinates":[[[119.9218,-3.2638],[119.8612,-3.2698],[119.8424,-3.3226],[119.8558,-3.3362],[119.8668,-3.3572],[119.9596,-3.3624],[119.9832,-3.3772],[120.0386,-3.378],[120.0414,-3.3684],[120.0328,-3.3562],[120.0016,-3.3342],[120.006,-3.319],[119.9218,-3.2638]]]},"properties":{"code":"73.16.08","name":"Curio"}},{"type":"Feature","geometry":{"type":"Polygon","coordinates":[[[119.896,-3.375],[119.8668,-3.3572],[119.8118,-3.4154],[119.8444,-3.3948],[119.8738,-3.3792],[119.896,-3.375]]]},"properties":{"code":"73.16.09","name":"Malua"}},{"type":"Feature","geometry":{"type":"Polygon","coordinates":[[[120.019,-3.4114],[119.8898,-3.4282],[119.8892,-3.4528],[119.9194,-3.5146],[119.9776,-3.5172],[120.0072,-3.4852],[120.019,-3.4114]]]},"properties":{"code":"73.16.10","name":"Buntu Batu"}},{"type":"Feature","geometry":{"type":"Polygon","coordinates":[[[119.7772,-3.289],[119.7306,-3.294],[119.7132,-3.3134],[119.7238,-3.33],[119.781,-3.3098],[119.7772,-3.289]]]},"properties":{"code":"73.16.11","name":"Masalle"}},{"type":"Feature","geometry":{"type":"Polygon","coordinates":[[[119.815,-3.2454],[119.7772,-3.289],[119.818,-3.2818],[119.8422,-3.263],[119.829,-3.2652],[119.815,-3.2454]]]},"properties":{"code":"73.16.12","name":"Baroko"}}]}