{"type":"FeatureCollection","features":[{"type":"Feature","geometry":{"type":"Polygon","coordinates":[[[119.1134,-6.8366],[119.0985,-6.8472],[119.0958,-6.8677],[119.1227,-6.8585],[119.1134,-6.8366]]]},"properties":{"code":"73.10.01","name":"Liukang Tangaya","latitude":-7.166345460252364,"longitude":118.1924222516778}},{"type":"Feature","geometry":{"type":"Polygon","coordinates":[[[117.93,-5.3529],[117.9271,-5.3895],[117.9525,-5.3874],[117.93,-5.3529]]]},"properties":{"code":"73.10.02","name":"Liukang Kalmas","latitude":-5.277884679238894,"longitude":117.8557656813134}},{"type":"Feature","geometry":{"type":"Polygon","coordinates":[[[118.9547,-4.6953],[118.9506,-4.6965],[118.9654,-4.7052],[118.9633,-4.6996],[118.9547,-4.6953]]]},"properties":{"code":"73.10.03","name":"Liukang Tupabbiring","latitude":-4.823638234824473,"longitude":119.18774224213297}},{"type":"Feature","geometry":{"type":"Polygon","coordinates":[[[119.5605,-4.8292],[119.5721,-4.8081],[119.5001,-4.8493],[119.5582,-4.8464],[119.5605,-4.8292]]]},"properties":{"code":"73.10.04","name":"Pangkajene","latitude":-4.858967589819453,"longitude":119.54164731722543}},{"type":"Feature","geometry":{"type":"Polygon","coordinates":[[[119.6605,-4.8677],[119.6373,-4.8574],[119.6332,-4.8679],[119.6226,-4.9095],[119.6374,-4.9089],[119.6634,-4.9243],[119.7049,-4.9483],[119.747,-4.9289],[119.8045,-4.9257],[119.8052,-4.8875],[119.7548,-4.8767],[119.7181,-4.8838],[119.6605,-4.8677]]]},"properties":{"code":"73.10.05","name":"Balocci","latitude":-4.9044978312600795,"longitude":119.71146240542024}},{"type":"Feature","geometry":{"type":"Polygon","coordinates":[[[119.6604,-4.7772],[119.5987,-4.7884],[119.4943,-4.7931],[119.5001,-4.8493],[119.5721,-4.8081],[119.6093,-4.7907],[119.6346,-4.8093],[119.664,-4.7893],[119.6604,-4.7772]]]},"properties":{"code":"73.10.06","name":"Bungoro","latitude":-4.783888232432657,"longitude":119.60266703505025}},{"type":"Feature","geometry":{"type":"Polygon","coordinates":[[[119.5987,-4.7884],[119.6295,-4.7368],[119.5916,-4.7379],[119.5653,-4.7273],[119.5386,-4.7332],[119.4819,-4.7514],[119.4943,-4.7931],[119.5987,-4.7884]]]},"properties":{"code":"73.10.07","name":"Labakkang","latitude":-4.760773642792131,"longitude":119.55416521114464}},{"type":"Feature","geometry":{"type":"Polygon","coordinates":[[[119.6013,-4.6749],[119.5512,-4.6444],[119.5214,-4.7267],[119.536,-4.7247],[119.5456,-4.7336],[119.5746,-4.7285],[119.6162,-4.74],[119.6391,-4.7308],[119.6405,-4.719],[119.6013,-4.6749]]]},"properties":{"code":"73.10.08","name":"Marang","latitude":-4.70057362884082,"longitude":119.57158864682744}},{"type":"Feature","geometry":{"type":"Polygon","coordinates":[[[119.6093,-4.6343],[119.5512,-4.6444],[119.6013,-4.6749],[119.6405,-4.719],[119.6474,-4.6384],[119.6093,-4.6343]]]},"properties":{"code":"73.10.09","name":"Segeri","latitude":-4.666578187678879,"longitude":119.61666932985143}},{"type":"Feature","geometry":{"type":"Polygon","coordinates":[[[119.6346,-4.8093],[119.6118,-4.7918],[119.59,-4.7966],[119.5605,-4.8292],[119.5582,-4.8464],[119.5877,-4.8957],[119.5981,-4.905],[119.6332,-4.8679],[119.6373,-4.8574],[119.6346,-4.8093]]]},"properties":{"code":"73.10.10","name":"Minasate'ne","latitude":-4.844422990942897,"longitude":119.60483534554649}},{"type":"Feature","geometry":{"type":"Polygon","coordinates":[[[119.6474,-4.6384],[119.6252,-4.5741],[119.597,-4.5564],[119.5876,-4.5863],[119.5709,-4.6062],[119.5757,-4.6178],[119.6093,-4.6343],[119.6474,-4.6384]]]},"properties":{"code":"73.10.11","name":"Mandalle","latitude":-4.604216515956639,"longitude":119.60922831513942}},{"type":"Feature","geometry":{"type":"Polygon","coordinates":[[[119.7255,-4.8095],[119.6604,-4.7772],[119.664,-4.7893],[119.6605,-4.8677],[119.7181,-4.8838],[119.7548,-4.8767],[119.8052,-4.8875],[119.7963,-4.8648],[119.807,-4.8082],[119.7255,-4.8095]]]},"properties":{"code":"73.10.12","name":"Tondong Tallasa","latitude":-4.837132710922608,"longitude":119.72410731154727}},{"type":"Feature","geometry":{"type":"Polygon","coordinates":[[[119.4574,-4.6965],[119.4481,-4.7026],[119.4499,-4.7084],[119.4623,-4.6977],[119.4574,-4.6965]]]},"properties":{"code":"73.10.13","name":"Liukang Tupabbiring Utara","latitude":-4.715410574247687,"longitude":119.39500759737278}}]}