{"type":"FeatureCollection","features":[{"type":"Feature","geometry":{"type":"Polygon","coordinates":[[[120.5995,-2.096],[120.5406,-2.0383],[120.5236,-2.032],[120.5179,-2.0443],[120.5297,-2.083],[120.5222,-2.0827],[120.5082,-2.1628],[120.4866,-2.2318],[120.4698,-2.2479],[120.4831,-2.28],[120.4998,-2.2876],[120.5159,-2.3212],[120.625,-2.3613],[120.6415,-2.3811],[120.6793,-2.4532],[120.7258,-2.482],[120.8128,-2.4974],[120.8798,-2.4801],[120.8487,-2.467],[120.8414,-2.4462],[120.836,-2.4256],[120.8588,-2.4282],[120.8338,-2.3592],[120.8542,-2.3318],[120.8416,-2.2631],[120.7799,-2.2136],[120.7432,-2.2419],[120.6897,-2.2065],[120.6362,-2.1135],[120.5995,-2.096]]]},"properties":{"code":"73.24.01","name":"Mangkutana","latitude":-2.2876952029854722,"longitude":120.6715234670417}},{"type":"Feature","geometry":{"type":"Polygon","coordinates":[[[121.1076,-2.2808],[121.0369,-2.2753],[121.0985,-2.4487],[121.1595,-2.4645],[121.1951,-2.5083],[121.2638,-2.548],[121.3189,-2.5528],[121.3788,-2.5736],[121.397,-2.587],[121.4572,-2.5857],[121.4996,-2.5432],[121.5278,-2.4645],[121.4977,-2.4464],[121.4688,-2.4154],[121.4059,-2.4036],[121.2279,-2.3684],[121.1693,-2.3813],[121.1225,-2.3935],[121.0887,-2.3872],[121.1076,-2.2808]]]},"properties":{"code":"73.24.02","name":"Nuha","latitude":-2.459193540402925,"longitude":121.30495162563604}},{"type":"Feature","geometry":{"type":"Polygon","coordinates":[[[121.6299,-2.5056],[121.5853,-2.5281],[121.5703,-2.4912],[121.5278,-2.4645],[121.4996,-2.5432],[121.4572,-2.5857],[121.397,-2.587],[121.3788,-2.5736],[121.3096,-2.5869],[121.2988,-2.6583],[121.3408,-2.7966],[121.3451,-2.8477],[121.2327,-2.8299],[121.2135,-2.8709],[121.2454,-2.8927],[121.2973,-2.9265],[121.3,-2.9441],[121.33,-2.9739],[121.3671,-2.9887],[121.3894,-3.0145],[121.4175,-3.0159],[121.4437,-3.0116],[121.4838,-2.9489],[121.5478,-2.9178],[121.5941,-2.9035],[121.6702,-2.9004],[121.6596,-2.861],[121.6748,-2.8223],[121.7068,-2.8073],[121.7172,-2.7772],[121.7153,-2.7533],[121.7475,-2.718],[121.7354,-2.6986],[121.7841,-2.6417],[121.7201,-2.6038],[121.6971,-2.5806],[121.674,-2.5416],[121.673,-2.5199],[121.6299,-2.5056]]]},"properties":{"code":"73.24.03","name":"Towuti","latitude":-2.7461861190230743,"longitude":121.50526909492879}},{"type":"Feature","geometry":{"type":"Polygon","coordinates":[[[121.0102,-2.8664],[120.9949,-2.8287],[121.0186,-2.8199],[121.032,-2.7919],[121.0825,-2.7733],[121.1023,-2.7904],[121.1291,-2.7946],[121.1491,-2.809],[121.1651,-2.8468],[121.1866,-2.842],[121.2327,-2.8299],[121.3451,-2.8477],[121.34,-2.7977],[121.3014,-2.7644],[121.1887,-2.651],[121.1686,-2.5886],[121.0414,-2.5102],[121.028,-2.4907],[120.9971,-2.5164],[120.9888,-2.5953],[120.9875,-2.6434],[120.9971,-2.6756],[121.0875,-2.7156],[121.0622,-2.7644],[120.9944,-2.8188],[120.9968,-2.8698],[121.0102,-2.8664]]]},"properties":{"code":"73.24.04","name":"Malili","latitude":-2.693936105247809,"longitude":121.13823553787115}},{"type":"Feature","geometry":{"type":"Polygon","coordinates":[[[120.907,-2.363],[120.8858,-2.3931],[120.8795,-2.4544],[120.9271,-2.4943],[120.9097,-2.4936],[120.9114,-2.5476],[120.912,-2.561],[120.9171,-2.5823],[120.91,-2.6152],[120.9124,-2.6408],[120.9237,-2.6355],[120.9875,-2.6434],[120.9888,-2.5953],[120.9971,-2.5164],[121.028,-2.4907],[121.0133,-2.4801],[120.907,-2.363]]]},"properties":{"code":"73.24.05","name":"Angkona","latitude":-2.515368398756763,"longitude":120.94263134167383}},{"type":"Feature","geometry":{"type":"Polygon","coordinates":[[[120.799,-2.5423],[120.7643,-2.5504],[120.7526,-2.6],[120.8163,-2.6191],[120.8398,-2.6495],[120.8894,-2.6398],[120.9254,-2.6533],[120.9237,-2.6355],[120.9124,-2.6408],[120.91,-2.6152],[120.9171,-2.5823],[120.912,-2.561],[120.9114,-2.5476],[120.8904,-2.588],[120.8732,-2.5671],[120.8312,-2.5512],[120.799,-2.5423]]]},"properties":{"code":"73.24.06","name":"Wotu","latitude":-2.5982292236720834,"longitude":120.83881345353252}},{"type":"Feature","geometry":{"type":"Polygon","coordinates":[[[120.6622,-2.4914],[120.6549,-2.4748],[120.6179,-2.4428],[120.5792,-2.4285],[120.5658,-2.4295],[120.5534,-2.4426],[120.5748,-2.4631],[120.6207,-2.5847],[120.6315,-2.6201],[120.6741,-2.6449],[120.7463,-2.637],[120.7526,-2.6],[120.7643,-2.5504],[120.7139,-2.5193],[120.6622,-2.4914]]]},"properties":{"code":"73.24.07","name":"Burau","latitude":-2.5496948964513955,"longitude":120.66913663671568}},{"type":"Feature","geometry":{"type":"Polygon","coordinates":[[[120.6415,-2.3811],[120.625,-2.3614],[120.5174,-2.3219],[120.5317,-2.3566],[120.5202,-2.3791],[120.5426,-2.4058],[120.5534,-2.4426],[120.5658,-2.4295],[120.5935,-2.43],[120.6529,-2.473],[120.6622,-2.4914],[120.7139,-2.5193],[120.799,-2.5423],[120.8312,-2.5512],[120.8455,-2.5606],[120.8429,-2.5472],[120.8462,-2.5271],[120.8128,-2.4974],[120.7258,-2.482],[120.6793,-2.4532],[120.6415,-2.3811]]]},"properties":{"code":"73.24.08","name":"Tomoni","latitude":-2.443872121891619,"longitude":120.66457435553643}},{"type":"Feature","geometry":{"type":"Polygon","coordinates":[[[120.8886,-2.5116],[120.8462,-2.5271],[120.8429,-2.5472],[120.8455,-2.5606],[120.8732,-2.5671],[120.8904,-2.588],[120.9005,-2.5119],[120.8886,-2.5116]]]},"properties":{"code":"73.24.09","name":"Tomoni Timur","latitude":-2.537181688342539,"longitude":120.87893563425303}},{"type":"Feature","geometry":{"type":"Polygon","coordinates":[[[120.8858,-2.3931],[120.8338,-2.3592],[120.8588,-2.4282],[120.836,-2.4256],[120.8414,-2.4462],[120.8487,-2.467],[120.8798,-2.4801],[120.8886,-2.5116],[120.9005,-2.5119],[120.9097,-2.4936],[120.9271,-2.4943],[120.8795,-2.4544],[120.8858,-2.3931]]]},"properties":{"code":"73.24.10","name":"Kalaena","latitude":-2.4313996127213766,"longitude":120.8685665194763}},{"type":"Feature","geometry":{"type":"Polygon","coordinates":[[[120.8563,-2.2231],[120.8416,-2.2631],[120.8653,-2.3537],[120.907,-2.363],[121.0133,-2.4801],[121.0414,-2.5102],[121.1686,-2.5886],[121.1887,-2.651],[121.3014,-2.7644],[121.3408,-2.7966],[121.2988,-2.6583],[121.3096,-2.5869],[121.3189,-2.5528],[121.2638,-2.548],[121.1951,-2.5083],[121.1595,-2.4645],[121.0985,-2.4487],[121.0369,-2.2753],[120.9944,-2.2751],[120.9578,-2.2519],[120.88,-2.2668],[120.8574,-2.2562],[120.8563,-2.2231]]]},"properties":{"code":"73.24.11","name":"Wasuponda","latitude":-2.471568620308327,"longitude":121.09601095598813}}]}