{"type":"FeatureCollection","features":[{"type":"Feature","geometry":{"type":"Polygon","coordinates":[[[120.1965,-2.9938],[120.1822,-3.0088],[120.2044,-3.0116],[120.1965,-2.9938]]]},"properties":{"code":"73.73.01","name":"Wara","latitude":-3.0091224342065184,"longitude":120.19343061021108}},{"type":"Feature","geometry":{"type":"Polygon","coordinates":[[[120.179,-2.9981],[120.1914,-2.9771],[120.1694,-2.9761],[120.179,-2.9981]]]},"properties":{"code":"73.73.02","name":"Wara Utara","latitude":-2.986106671696766,"longitude":120.18429924049595}},{"type":"Feature","geometry":{"type":"Polygon","coordinates":[[[120.2192,-3.0581],[120.2222,-3.0161],[120.2101,-3.0178],[120.1985,-3.0149],[120.199,-3.0424],[120.2192,-3.0581]]]},"properties":{"code":"73.73.03","name":"Wara Selatan","latitude":-3.034645111519698,"longitude":120.21356782529834}},{"type":"Feature","geometry":{"type":"Polygon","coordinates":[[[120.1829,-2.8873],[120.1431,-2.8961],[120.1597,-2.9195],[120.1553,-2.9289],[120.1813,-2.9284],[120.1932,-2.9437],[120.2004,-2.9478],[120.22,-2.8985],[120.1829,-2.8873]]]},"properties":{"code":"73.73.04","name":"Telluwanua","latitude":-2.912102483081943,"longitude":120.18178767813033}},{"type":"Feature","geometry":{"type":"Polygon","coordinates":[[[120.2036,-2.9861],[120.1961,-2.9894],[120.1989,-3.0025],[120.2082,-3.0164],[120.2195,-3.019],[120.2216,-3.0071],[120.2036,-2.9861]]]},"properties":{"code":"73.73.05","name":"Wara Timur","latitude":-3.0031503716486654,"longitude":120.20860799250389}},{"type":"Feature","geometry":{"type":"Polygon","coordinates":[[[120.1597,-2.9195],[120.1344,-2.9196],[120.1099,-2.912],[120.0704,-2.9349],[120.0495,-2.9525],[120.0609,-2.9653],[120.051,-2.9835],[120.0876,-3.0079],[120.1536,-2.989],[120.1587,-3.0023],[120.179,-2.9981],[120.1594,-2.9684],[120.1522,-2.9362],[120.1597,-2.9195]]]},"properties":{"code":"73.73.06","name":"Wara Barat","latitude":-2.962027093941647,"longitude":120.1131596106354}},{"type":"Feature","geometry":{"type":"Polygon","coordinates":[[[120.199,-3.0424],[120.1349,-3.0264],[120.1321,-3.0266],[120.1426,-3.0608],[120.1383,-3.0719],[120.1632,-3.0695],[120.1771,-3.0536],[120.2095,-3.0675],[120.2192,-3.0581],[120.199,-3.0424]]]},"properties":{"code":"73.73.07","name":"Sendana","latitude":-3.0464835755624455,"longitude":120.1603280437679}},{"type":"Feature","geometry":{"type":"Polygon","coordinates":[[[120.1536,-2.989],[120.1138,-3.038],[120.1321,-3.0266],[120.1349,-3.0264],[120.1587,-3.0023],[120.1536,-2.989]]]},"properties":{"code":"73.73.08","name":"Mungkajang","latitude":-3.015530557909111,"longitude":120.13205540793946}},{"type":"Feature","geometry":{"type":"Polygon","coordinates":[[[120.2004,-2.9478],[120.1816,-2.9286],[120.1553,-2.9289],[120.1522,-2.9362],[120.2126,-2.9564],[120.2004,-2.9478]]]},"properties":{"code":"73.73.09","name":"Bara","latitude":-2.9519188430735706,"longitude":120.17786892221282}}]}