{"type":"FeatureCollection","features":[{"type":"Feature","geometry":{"type":"Polygon","coordinates":[[[121.6573,-4.6702],[121.6654,-4.6253],[121.6585,-4.6459],[121.6074,-4.6715],[121.6042,-4.6874],[121.5361,-4.7349],[121.5506,-4.7727],[121.6202,-4.7946],[121.6246,-4.7526],[121.5999,-4.7385],[121.6334,-4.6968],[121.6345,-4.6846],[121.6573,-4.6702]]]},"properties":{"code":"74.06.01","name":"Poleang","latitude":-4.724570495318641,"longitude":121.59830874458525}},{"type":"Feature","geometry":{"type":"Polygon","coordinates":[[[121.8925,-4.7607],[121.8149,-4.7953],[121.7704,-4.8028],[121.7614,-4.7926],[121.7768,-4.774],[121.7331,-4.7521],[121.7227,-4.773],[121.7397,-4.7848],[121.7453,-4.7997],[121.7466,-4.8258],[121.8428,-4.8552],[121.8697,-4.7977],[121.8925,-4.7607]]]},"properties":{"code":"74.06.02","name":"Poleang Timur","latitude":-4.803874384411092,"longitude":121.8092676461612}},{"type":"Feature","geometry":{"type":"Polygon","coordinates":[[[121.8632,-4.6097],[121.8014,-4.6737],[121.8361,-4.7463],[121.8879,-4.7563],[121.9176,-4.774],[121.9906,-4.7939],[122.0133,-4.7209],[121.933,-4.6899],[121.8615,-4.6761],[121.8632,-4.6097]]]},"properties":{"code":"74.06.03","name":"Rarowatu","latitude":-4.712013151684766,"longitude":121.89742635909909}},{"type":"Feature","geometry":{"type":"Polygon","coordinates":[[[122.0278,-4.7992],[122.0519,-4.7722],[122.0408,-4.7565],[122.0389,-4.7339],[122.0133,-4.7209],[121.9906,-4.7939],[122.0278,-4.7992]]]},"properties":{"code":"74.06.04","name":"Rumbia","latitude":-4.764448534798255,"longitude":122.01905353836872}},{"type":"Feature","geometry":{"type":"Polygon","coordinates":[[[121.9316,-5.2351],[121.876,-5.2511],[121.8255,-5.2275],[121.8567,-5.279],[121.8659,-5.3049],[121.9539,-5.3377],[121.9179,-5.2757],[121.9316,-5.2351]]]},"properties":{"code":"74.06.05","name":"Kabaena","latitude":-5.2791572765376475,"longitude":121.88586250546314}},{"type":"Feature","geometry":{"type":"Polygon","coordinates":[[[122.0088,-5.4132],[122.049,-5.4135],[122.0492,-5.2443],[122.0081,-5.2465],[121.9928,-5.3055],[122.0088,-5.4132]]]},"properties":{"code":"74.06.06","name":"Kabaena Timur","latitude":-5.30151084917253,"longitude":122.02748786481118}},{"type":"Feature","geometry":{"type":"Polygon","coordinates":[[[121.7023,-4.5795],[121.687,-4.5717],[121.6696,-4.6152],[121.6501,-4.5684],[121.5579,-4.5685],[121.4916,-4.5921],[121.4673,-4.685],[121.5361,-4.7349],[121.6042,-4.6874],[121.6074,-4.6715],[121.6585,-4.6459],[121.6654,-4.6253],[121.7023,-4.5795]]]},"properties":{"code":"74.06.07","name":"Poleang Barat","latitude":-4.636992116748021,"longitude":121.56805853718014}},{"type":"Feature","geometry":{"type":"Polygon","coordinates":[[[122.0679,-4.8193],[121.9827,-4.7986],[121.9369,-4.8828],[122.0227,-4.893],[122.0917,-4.8255],[122.1202,-4.8187],[122.0679,-4.8193]]]},"properties":{"code":"74.06.08","name":"Mata Oleo","latitude":-4.846910187832854,"longitude":122.0113881021943}},{"type":"Feature","geometry":{"type":"Polygon","coordinates":[[[121.8813,-4.5582],[121.8632,-4.6097],[121.8615,-4.6761],[121.933,-4.6899],[122.0351,-4.7291],[122.0308,-4.6675],[121.9772,-4.6282],[121.9056,-4.5921],[121.8813,-4.5582]]]},"properties":{"code":"74.06.09","name":"Rarowatu Utara","latitude":-4.6406578931543425,"longitude":121.92634893468274}},{"type":"Feature","geometry":{"type":"Polygon","coordinates":[[[121.8014,-4.6737],[121.8165,-4.6348],[121.7656,-4.5947],[121.7461,-4.6234],[121.7491,-4.6415],[121.7397,-4.6478],[121.7338,-4.6869],[121.6992,-4.7281],[121.691,-4.7493],[121.6703,-4.7599],[121.7222,-4.7747],[121.7303,-4.753],[121.7427,-4.7535],[121.7768,-4.774],[121.7614,-4.7924],[121.7689,-4.8018],[121.7928,-4.8027],[121.8925,-4.7607],[121.8361,-4.7463],[121.8014,-4.6737]]]},"properties":{"code":"74.06.10","name":"Poleang Utara","latitude":-4.71420606583628,"longitude":121.77596840196173}},{"type":"Feature","geometry":{"type":"Polygon","coordinates":[[[121.7453,-4.7997],[121.7291,-4.7739],[121.6905,-4.768],[121.638,-4.7755],[121.6268,-4.7893],[121.6378,-4.8116],[121.7072,-4.8557],[121.7466,-4.8258],[121.7453,-4.7997]]]},"properties":{"code":"74.06.11","name":"Poleang Selatan","latitude":-4.8073484668541475,"longitude":121.69400463617329}},{"type":"Feature","geometry":{"type":"Polygon","coordinates":[[[121.9906,-4.7939],[121.9135,-4.771],[121.8863,-4.7955],[121.8697,-4.7977],[121.8428,-4.8552],[121.9369,-4.8828],[121.9827,-4.7986],[121.9906,-4.7939]]]},"properties":{"code":"74.06.12","name":"Poleang Tenggara","latitude":-4.828873849197982,"longitude":121.91650999787898}},{"type":"Feature","geometry":{"type":"Polygon","coordinates":[[[121.8659,-5.3049],[121.8567,-5.279],[121.8239,-5.3126],[121.8735,-5.385],[121.9425,-5.4121],[121.9536,-5.4123],[121.9584,-5.3841],[121.9539,-5.3377],[121.8659,-5.3049]]]},"properties":{"code":"74.06.13","name":"Kabaena Selatan","latitude":-5.351300371016547,"longitude":121.8949252951173}},{"type":"Feature","geometry":{"type":"Polygon","coordinates":[[[121.891,-5.2434],[121.846,-5.2099],[121.8255,-5.2275],[121.891,-5.2434]]]},"properties":{"code":"74.06.14","name":"Kabaena Barat","latitude":-5.203919748963728,"longitude":121.83479667293454}},{"type":"Feature","geometry":{"type":"Polygon","coordinates":[[[121.9438,-5.1423],[121.8957,-5.0892],[121.8494,-5.1253],[121.8377,-5.173],[121.8498,-5.2167],[121.891,-5.2434],[121.889,-5.2073],[121.9392,-5.1694],[121.9438,-5.1423]]]},"properties":{"code":"74.06.15","name":"Kabaena Utara","latitude":-5.15002517372197,"longitude":121.8890969062193}},{"type":"Feature","geometry":{"type":"Polygon","coordinates":[[[122.0081,-5.2465],[122.0357,-5.1621],[121.9915,-5.1587],[121.972,-5.0667],[121.9332,-5.0842],[121.9438,-5.1423],[121.9392,-5.1694],[121.889,-5.2073],[121.9316,-5.2351],[121.9179,-5.2757],[121.9554,-5.3084],[121.9536,-5.4123],[122.0088,-5.4132],[121.9928,-5.3055],[122.0081,-5.2465]]]},"properties":{"code":"74.06.16","name":"Kabaena Tengah","latitude":-5.231617011893888,"longitude":121.96924276462923}},{"type":"Feature","geometry":{"type":"Polygon","coordinates":[[[122.1411,-4.8166],[122.121,-4.8201],[122.121,-4.8325],[122.136,-4.8276],[122.1411,-4.8166]]]},"properties":{"code":"74.06.17","name":"Kep. Masaloka Raya","latitude":-4.823849779136688,"longitude":122.13213594539108}},{"type":"Feature","geometry":{"type":"Polygon","coordinates":[[[122.1202,-4.8187],[122.053,-4.7699],[122.0278,-4.7992],[122.0679,-4.8193],[122.1202,-4.8187]]]},"properties":{"code":"74.06.18","name":"Rumbia Tengah","latitude":-4.800384389370147,"longitude":122.06517733088796}},{"type":"Feature","geometry":{"type":"Polygon","coordinates":[[[121.6658,-4.7556],[121.6334,-4.6968],[121.6086,-4.7205],[121.5993,-4.7408],[121.6246,-4.7525],[121.6185,-4.7801],[121.69,-4.7692],[121.6703,-4.7599],[121.691,-4.7493],[121.681,-4.7302],[121.6658,-4.7556]]]},"properties":{"code":"74.06.19","name":"Poleang Tengah","latitude":-4.747650086289699,"longitude":121.64084433579308}},{"type":"Feature","geometry":{"type":"Polygon","coordinates":[[[121.7601,-4.559],[121.7323,-4.5671],[121.7023,-4.5795],[121.6573,-4.6702],[121.6345,-4.6846],[121.6658,-4.7556],[121.681,-4.7302],[121.6992,-4.7281],[121.7338,-4.6869],[121.7397,-4.6478],[121.7491,-4.6415],[121.7461,-4.6234],[121.7656,-4.5947],[121.7638,-4.5685],[121.7601,-4.559]]]},"properties":{"code":"74.06.20","name":"Tontonunu","latitude":-4.65571686869926,"longitude":121.70230579676371}},{"type":"Feature","geometry":{"type":"Polygon","coordinates":[[[122.0017,-4.431],[121.9709,-4.4189],[121.9566,-4.4361],[121.9275,-4.5089],[121.8641,-4.5123],[121.8375,-4.5386],[121.8813,-4.5582],[121.9056,-4.5921],[121.9772,-4.6282],[122.0318,-4.6554],[122.0632,-4.6091],[122.0697,-4.5775],[122.1078,-4.5081],[122.08,-4.4978],[122.0509,-4.4866],[122.0471,-4.4688],[122.0017,-4.431]]]},"properties":{"code":"74.06.21","name":"Lantari Jaya","latitude":-4.539394835778141,"longitude":121.98880861829501}},{"type":"Feature","geometry":{"type":"Polygon","coordinates":[[[121.9275,-4.5089],[121.9468,-4.4515],[121.9695,-4.4233],[121.8819,-4.3773],[121.8031,-4.4207],[121.7544,-4.4663],[121.7236,-4.5241],[121.7323,-4.5671],[121.7601,-4.559],[121.7638,-4.5685],[121.823,-4.5664],[121.824,-4.5333],[121.8435,-4.534],[121.8672,-4.5115],[121.9275,-4.5089]]]},"properties":{"code":"74.06.22","name":"Mata Usu","latitude":-4.485154861220605,"longitude":121.835655470272}}]}