{"type":"FeatureCollection","features":[{"type":"Feature","geometry":{"type":"Polygon","coordinates":[[[123.1003,-4.6425],[123.0852,-4.6304],[123.0761,-4.6301],[123.075,-4.6732],[123.0859,-4.7146],[123.1471,-4.7286],[123.1725,-4.8343],[123.2131,-4.7132],[123.1625,-4.6966],[123.1405,-4.6368],[123.1003,-4.6425]]]},"properties":{"code":"74.10.01","name":"Kulisusu","latitude":-4.730586631685557,"longitude":123.15371627577483}},{"type":"Feature","geometry":{"type":"Polygon","coordinates":[[[122.9014,-4.8955],[122.8881,-4.9159],[122.8945,-4.9257],[122.8882,-5.0192],[122.8633,-5.027],[122.8493,-5.038],[122.8322,-5.0736],[122.8536,-5.1125],[122.9039,-5.1225],[122.9501,-5.1467],[122.9801,-5.0593],[122.9519,-5.0217],[122.9693,-4.9521],[122.9564,-4.9442],[122.9486,-4.9096],[122.9014,-4.8955]]]},"properties":{"code":"74.10.02","name":"Kambowa","latitude":-5.0325114673620615,"longitude":122.91737608454991}},{"type":"Feature","geometry":{"type":"Polygon","coordinates":[[[122.9452,-4.6977],[122.9026,-4.6831],[122.8947,-4.7506],[122.9015,-4.8204],[122.9143,-4.829],[122.9118,-4.8823],[122.9014,-4.8955],[122.9378,-4.9014],[122.9558,-4.9227],[122.9594,-4.9495],[122.9757,-4.9521],[123.0003,-4.9382],[123.01,-4.9075],[122.994,-4.8261],[123.0395,-4.7978],[123.0222,-4.7477],[122.9935,-4.7488],[122.9678,-4.7194],[122.9452,-4.6977]]]},"properties":{"code":"74.10.03","name":"Bonegunu","latitude":-4.804907295005808,"longitude":122.98748335688938}},{"type":"Feature","geometry":{"type":"Polygon","coordinates":[[[123.042,-4.6054],[122.9771,-4.5307],[122.9551,-4.5888],[122.9312,-4.5997],[122.9225,-4.6583],[122.9452,-4.6977],[122.9678,-4.7194],[122.9852,-4.744],[123.0053,-4.7439],[123.0161,-4.7528],[123.0216,-4.7473],[123.0292,-4.7574],[123.0624,-4.7294],[123.0859,-4.7146],[123.0751,-4.6797],[123.0799,-4.6037],[123.042,-4.6054]]]},"properties":{"code":"74.10.04","name":"Kulisusu Barat","latitude":-4.650289279450071,"longitude":123.0001316616076}},{"type":"Feature","geometry":{"type":"Polygon","coordinates":[[[123.2131,-4.7132],[123.182,-4.6432],[123.1983,-4.6097],[123.139,-4.4823],[122.9935,-4.3943],[122.9973,-4.4151],[122.9882,-4.5053],[122.9717,-4.5105],[123.042,-4.6054],[123.0761,-4.6301],[123.09,-4.6312],[123.1003,-4.6425],[123.1405,-4.6368],[123.1552,-4.6879],[123.1708,-4.7045],[123.2131,-4.7132]]]},"properties":{"code":"74.10.05","name":"Kulisusu Utara","latitude":-4.536692029474338,"longitude":123.0895994911844}},{"type":"Feature","geometry":{"type":"Polygon","coordinates":[[[122.9973,-4.4151],[122.9935,-4.3943],[122.9078,-4.4604],[122.8665,-4.5258],[122.858,-4.6062],[122.928,-4.6102],[122.9317,-4.599],[122.9539,-4.5911],[122.9717,-4.5105],[122.9882,-4.5053],[122.9973,-4.4151]]]},"properties":{"code":"74.10.06","name":"Wakorumba Utara","latitude":-4.519962565715301,"longitude":122.92818387771894}}]}