{"type":"FeatureCollection","features":[{"type":"Feature","geometry":{"type":"Polygon","coordinates":[[[123.1123,0.9154],[123.0554,0.8948],[123.0404,0.8556],[123.0548,0.8327],[123.0657,0.8001],[123.0833,0.8056],[123.1235,0.7885],[123.1251,0.7736],[123.1346,0.7657],[123.1671,0.7519],[123.2152,0.762],[123.2686,0.7681],[123.2711,0.8026],[123.1792,0.8613],[123.1527,0.8702],[123.1123,0.9154]]]},"properties":{"code":"75.05.01","name":"Atinggola","latitude":0.8286440976633745,"longitude":123.14767506209506}},{"type":"Feature","geometry":{"type":"Polygon","coordinates":[[[122.9456,0.8422],[122.8608,0.8278],[122.8338,0.7755],[122.8942,0.7486],[122.9073,0.7305],[122.9285,0.696],[122.9301,0.7119],[122.975,0.7467],[123.017,0.8092],[122.9659,0.8304],[122.9456,0.8422]]]},"properties":{"code":"75.05.02","name":"Kwandang","latitude":0.7822888801977186,"longitude":122.9280658758321}},{"type":"Feature","geometry":{"type":"Polygon","coordinates":[[[122.8338,0.7755],[122.8323,0.8186],[122.774,0.878],[122.7396,0.8603],[122.7237,0.8508],[122.7082,0.7992],[122.78,0.7709],[122.8242,0.7458],[122.8338,0.7755]]]},"properties":{"code":"75.05.03","name":"Anggrek","latitude":0.8173173219057775,"longitude":122.77583620776488}},{"type":"Feature","geometry":{"type":"Polygon","coordinates":[[[122.4521,1.0316],[122.4449,1.0005],[122.3699,0.9929],[122.2578,1.0071],[122.243,0.9491],[122.2631,0.9239],[122.2787,0.9103],[122.3238,0.9261],[122.333,0.9174],[122.3583,0.909],[122.4562,0.8888],[122.4933,0.8717],[122.4852,0.9709],[122.4521,1.0316]]]},"properties":{"code":"75.05.04","name":"Sumalata","latitude":0.9532459579954651,"longitude":122.3760112086447}},{"type":"Feature","geometry":{"type":"Polygon","coordinates":[[[122.1657,0.9836],[122.1919,1.0381],[122.0889,0.9983],[122.0418,0.9885],[122.0155,0.9091],[121.982,0.907],[121.998,0.8912],[122.0327,0.8857],[122.0839,0.9087],[122.1126,0.8994],[122.1411,0.9641],[122.1657,0.9836]]]},"properties":{"code":"75.05.05","name":"Tolinggula","latitude":0.9624965251927713,"longitude":122.10044880178233}},{"type":"Feature","geometry":{"type":"Polygon","coordinates":[[[123.0554,0.8948],[122.9944,0.9131],[122.9994,0.863],[122.9907,0.833],[123.017,0.8092],[123.0657,0.8001],[123.0548,0.8327],[123.0404,0.8556],[123.0554,0.8948]]]},"properties":{"code":"75.05.06","name":"Gentuma Raya","latitude":0.864291269477079,"longitude":123.02473678818595}},{"type":"Feature","geometry":{"type":"Polygon","coordinates":[[[122.9944,0.9131],[122.9238,0.875],[122.9456,0.8422],[122.9659,0.8304],[122.9813,0.8388],[122.9895,0.8312],[122.9975,0.8439],[122.9944,0.9131]]]},"properties":{"code":"75.05.07","name":"Tomilito","latitude":0.8936788463229346,"longitude":122.96625894190112}},{"type":"Feature","geometry":{"type":"Polygon","coordinates":[[[122.8597,0.8991],[122.8821,0.8876],[122.8789,0.8648],[122.8953,0.8543],[122.8981,0.8679],[122.8875,0.873],[122.8911,0.8901],[122.8597,0.8991]]]},"properties":{"code":"75.05.08","name":"Ponelo Kepulauan","latitude":0.8808891183822759,"longitude":122.8821811807632}},{"type":"Feature","geometry":{"type":"Polygon","coordinates":[[[122.7396,0.8603],[122.6641,0.935],[122.6158,0.9568],[122.6234,0.8986],[122.607,0.852],[122.6785,0.8241],[122.6853,0.8063],[122.7237,0.8508],[122.7396,0.8603]]]},"properties":{"code":"75.05.09","name":"Monano","latitude":0.8786320578615586,"longitude":122.66393071544005}},{"type":"Feature","geometry":{"type":"Polygon","coordinates":[[[122.2578,1.0071],[122.1657,0.9836],[122.1411,0.9641],[122.1157,0.9033],[122.1814,0.9117],[122.2007,0.8982],[122.2488,0.9145],[122.261,0.9287],[122.243,0.9491],[122.2578,1.0071]]]},"properties":{"code":"75.05.10","name":"Biau","latitude":0.9473235855352181,"longitude":122.19546972484717}},{"type":"Feature","geometry":{"type":"Polygon","coordinates":[[[122.6158,0.9568],[122.4915,0.9883],[122.4521,1.0316],[122.4852,0.9709],[122.4933,0.8717],[122.507,0.8867],[122.5354,0.8702],[122.5795,0.8751],[122.6234,0.8986],[122.6158,0.9568]]]},"properties":{"code":"75.05.11","name":"Sumalata Timur","latitude":0.9268908764092698,"longitude":122.54463304873397}}]}