{"type":"FeatureCollection","features":[{"type":"Feature","geometry":{"type":"Polygon","coordinates":[[[132.77,-5.7968],[132.779,-5.7278],[132.7114,-5.6524],[132.6668,-5.6388],[132.709,-5.668],[132.7264,-5.7],[132.7196,-5.7324],[132.7428,-5.8022],[132.77,-5.7968]]]},"properties":{"code":"81.02.01","name":"Kei Kecil"}},{"type":"Feature","geometry":{"type":"Polygon","coordinates":[[[133.0644,-5.5822],[133.0136,-5.5908],[133.005,-5.6492],[132.941,-5.6876],[132.9294,-5.7626],[133.0432,-5.6434],[133.1022,-5.5992],[133.0644,-5.5822]]]},"properties":{"code":"81.02.03","name":"Kei Besar"}},{"type":"Feature","geometry":{"type":"Polygon","coordinates":[[[132.9136,-5.8598],[132.9294,-5.7626],[132.8862,-5.8532],[132.9136,-5.8598]]]},"properties":{"code":"81.02.04","name":"Kei Besar Selatan"}},{"type":"Feature","geometry":{"type":"Polygon","coordinates":[[[133.1022,-5.5992],[133.1482,-5.46],[133.1678,-5.3546],[133.1376,-5.2976],[133.121,-5.4094],[133.0652,-5.568],[133.0644,-5.5822],[133.1022,-5.5992]]]},"properties":{"code":"81.02.05","name":"Kei Besar Utara Timur"}},{"type":"Feature","geometry":{"type":"Polygon","coordinates":[[[132.792,-5.899],[132.8142,-5.8494],[132.77,-5.7968],[132.7428,-5.8022],[132.751,-5.8582],[132.7306,-5.9008],[132.792,-5.899]]]},"properties":{"code":"81.02.13","name":"Kei Kecil Timur"}},{"type":"Feature","geometry":{"type":"Polygon","coordinates":[[[132.7098,-5.871],[132.708,-5.8098],[132.688,-5.8132],[132.7098,-5.871]]]},"properties":{"code":"81.02.14","name":"Kei Kecil Barat"}},{"type":"Feature","geometry":{"type":"Polygon","coordinates":[[[132.709,-5.668],[132.6534,-5.6766],[132.675,-5.723],[132.7264,-5.7],[132.709,-5.668]]]},"properties":{"code":"81.02.15","name":"Manyeuw"}},{"type":"Feature","geometry":{"type":"Polygon","coordinates":[[[132.751,-5.8582],[132.7196,-5.7324],[132.674,-5.7492],[132.688,-5.8132],[132.708,-5.8098],[132.7098,-5.871],[132.751,-5.8582]]]},"properties":{"code":"81.02.16","name":"Hoat Sorbay"}},{"type":"Feature","geometry":{"type":"Polygon","coordinates":[[[133.1376,-5.2976],[133.1136,-5.2916],[133.0544,-5.4528],[133.0652,-5.568],[133.121,-5.4094],[133.1376,-5.2976]]]},"properties":{"code":"81.02.17","name":"Kei Besar Utara Barat"}},{"type":"Feature","geometry":{"type":"Polygon","coordinates":[[[132.9136,-5.8598],[132.8862,-5.8532],[132.884,-5.8678],[132.9004,-5.8738],[132.9136,-5.8598]]]},"properties":{"code":"81.02.18","name":"Kei Besar Selatan Barat"}},{"type":"Feature","geometry":{"type":"Polygon","coordinates":[[[132.7306,-5.9008],[132.7218,-5.9496],[132.7794,-5.9426],[132.792,-5.899],[132.7306,-5.9008]]]},"properties":{"code":"81.02.19","name":"Kei Kecil Timur Selatan"}}]}