{"type":"FeatureCollection","features":[{"type":"Feature","geometry":{"type":"Polygon","coordinates":[[[130.6029,-3.24],[130.5999,-3.1475],[130.5533,-3.1073],[130.4943,-3.1024],[130.4776,-3.0705],[130.4594,-3.0565],[130.4444,-3.0595],[130.4426,-3.0433],[130.4328,-3.0419],[130.4043,-3.0592],[130.366,-3.1213],[130.3632,-3.1945],[130.3416,-3.2563],[130.2841,-3.2964],[130.3187,-3.3231],[130.3698,-3.3096],[130.3863,-3.3645],[130.4235,-3.3842],[130.4718,-3.302],[130.5247,-3.2651],[130.6029,-3.24]]]},"properties":{"code":"81.05.01","name":"Bula","latitude":-3.205539334446427,"longitude":130.4560309018248}},{"type":"Feature","geometry":{"type":"Polygon","coordinates":[[[130.7111,-3.789],[130.7068,-3.8229],[130.7426,-3.8242],[130.7541,-3.8376],[130.7669,-3.8281],[130.7764,-3.8487],[130.8188,-3.851],[130.8199,-3.8527],[130.8196,-3.8599],[130.823,-3.8646],[130.8216,-3.8702],[130.8485,-3.8722],[130.8482,-3.8592],[130.8239,-3.8356],[130.8069,-3.8422],[130.8165,-3.8143],[130.7742,-3.7893],[130.7507,-3.7959],[130.7271,-3.788],[130.7111,-3.789]]]},"properties":{"code":"81.05.02","name":"Seram Timur","latitude":-3.833174783809325,"longitude":130.79712806753005}},{"type":"Feature","geometry":{"type":"Polygon","coordinates":[[[130.2049,-3.2497],[130.1664,-3.2747],[130.17,-3.3219],[130.1371,-3.3718],[130.0229,-3.3933],[129.9931,-3.3927],[129.9841,-3.3874],[129.9708,-3.4261],[130.0176,-3.4832],[130.0981,-3.5006],[130.1329,-3.5326],[130.2976,-3.5863],[130.3268,-3.6143],[130.4036,-3.6282],[130.4034,-3.5756],[130.4335,-3.5014],[130.4519,-3.4619],[130.4595,-3.4426],[130.4435,-3.431],[130.3863,-3.3645],[130.3698,-3.3096],[130.3187,-3.3231],[130.2515,-3.2751],[130.2049,-3.2497]]]},"properties":{"code":"81.05.03","name":"Werinama","latitude":-3.441241108269003,"longitude":130.25011883875683}},{"type":"Feature","geometry":{"type":"MultiPolygon","coordinates":[[[[131.2867,-4.0718],[131.2999,-4.1266],[131.3388,-4.1113],[131.2867,-4.0718]]],[[[131.3966,-3.9765],[131.3668,-3.9732],[131.4179,-4.0712],[131.443,-4.0733],[131.4279,-4.0459],[131.4087,-4.0316],[131.3966,-3.9765]]]]},"properties":{"code":"81.05.04","name":"Pulau Gorom","latitude":-4.069686792353471,"longitude":131.36207738923886}},{"type":"Feature","geometry":{"type":"Polygon","coordinates":[[[131.6096,-4.4238],[131.6501,-4.503],[131.68,-4.5051],[131.6315,-4.4378],[131.6096,-4.4238]]]},"properties":{"code":"81.05.05","name":"Wakate","latitude":-4.484805112662122,"longitude":131.6480588770498}},{"type":"Feature","geometry":{"type":"Polygon","coordinates":[[[130.8147,-3.4384],[130.7978,-3.4256],[130.7886,-3.4439],[130.7686,-3.4554],[130.7538,-3.4598],[130.758,-3.4656],[130.7486,-3.4806],[130.6895,-3.4961],[130.6824,-3.4958],[130.5658,-3.4794],[130.5244,-3.5232],[130.555,-3.5174],[130.5648,-3.5019],[130.6219,-3.562],[130.6633,-3.5431],[130.7174,-3.5701],[130.7259,-3.684],[130.7082,-3.7141],[130.734,-3.7027],[130.7472,-3.6833],[130.7667,-3.6734],[130.8144,-3.6262],[130.8374,-3.6509],[130.8803,-3.6138],[130.8753,-3.5679],[130.8059,-3.4875],[130.8152,-3.4472],[130.8147,-3.4384]]]},"properties":{"code":"81.05.06","name":"Tutuk Tolu","latitude":-3.5567477477757374,"longitude":130.74673165910687}},{"type":"Feature","geometry":{"type":"Polygon","coordinates":[[[130.1664,-3.2747],[130.194,-3.2522],[130.1838,-3.2244],[130.16,-3.2137],[130.1469,-3.219],[129.9783,-3.177],[129.9029,-3.16],[129.907,-3.1958],[129.9,-3.2578],[129.8586,-3.3366],[129.9293,-3.3384],[129.9841,-3.3874],[129.9931,-3.3927],[130.0229,-3.3933],[130.1371,-3.3718],[130.17,-3.3219],[130.1664,-3.2747]]]},"properties":{"code":"81.05.07","name":"Siwalalat","latitude":-3.282153784601444,"longitude":130.02613289930096}},{"type":"Feature","geometry":{"type":"Polygon","coordinates":[[[130.4865,-3.4594],[130.4519,-3.4619],[130.4335,-3.5014],[130.4034,-3.5756],[130.4036,-3.6282],[130.4732,-3.7001],[130.5651,-3.7195],[130.6538,-3.8075],[130.6866,-3.8052],[130.7064,-3.8226],[130.714,-3.7844],[130.7047,-3.7094],[130.7259,-3.684],[130.7174,-3.5701],[130.6633,-3.5431],[130.6219,-3.562],[130.5648,-3.5019],[130.5552,-3.5173],[130.5257,-3.525],[130.5363,-3.5062],[130.5643,-3.4838],[130.5634,-3.4764],[130.5162,-3.4637],[130.4865,-3.4594]]]},"properties":{"code":"81.05.08","name":"Kilmury","latitude":-3.6265693625241937,"longitude":130.57323056689606}},{"type":"Feature","geometry":{"type":"Polygon","coordinates":[[[131.2095,-3.9802],[131.2194,-4.0356],[131.2434,-4.0042],[131.2095,-3.9802]]]},"properties":{"code":"81.05.09","name":"Pulau Panjang","latitude":-4.013743774850612,"longitude":131.2264157096026}},{"type":"Feature","geometry":{"type":"Polygon","coordinates":[[[131.7365,-4.704],[131.7275,-4.7546],[131.7593,-4.7393],[131.7365,-4.704]]]},"properties":{"code":"81.05.10","name":"Teor","latitude":-4.74027799279899,"longitude":131.74210111569843}},{"type":"Feature","geometry":{"type":"Polygon","coordinates":[[[131.443,-4.0733],[131.4219,-3.9665],[131.3966,-3.9765],[131.4087,-4.0316],[131.4279,-4.0459],[131.443,-4.0733]]]},"properties":{"code":"81.05.11","name":"Gorom Timur","latitude":-4.016775034528853,"longitude":131.4238328880257}},{"type":"Feature","geometry":{"type":"Polygon","coordinates":[[[130.4043,-3.0592],[130.4433,-3.0367],[130.3835,-2.9876],[130.3115,-2.9717],[130.22,-3.0058],[130.1334,-3.0163],[130.1238,-3.1037],[130.157,-3.2138],[130.1829,-3.2233],[130.1879,-3.2388],[130.2049,-3.2497],[130.2515,-3.2751],[130.2841,-3.2964],[130.3416,-3.2563],[130.3632,-3.1945],[130.366,-3.1213],[130.4043,-3.0592]]]},"properties":{"code":"81.05.12","name":"Bula Barat","latitude":-3.1115582470288294,"longitude":130.26557577503434}},{"type":"Feature","geometry":{"type":"Polygon","coordinates":[[[130.8374,-3.6509],[130.8191,-3.6305],[130.8136,-3.6268],[130.7299,-3.7059],[130.7566,-3.7314],[130.8249,-3.6887],[130.8374,-3.6509]]]},"properties":{"code":"81.05.13","name":"Kian Darat","latitude":-3.688426206443553,"longitude":130.77995566414788}},{"type":"Feature","geometry":{"type":"Polygon","coordinates":[[[130.7111,-3.789],[130.7831,-3.794],[130.8327,-3.7837],[130.8249,-3.6887],[130.7566,-3.7314],[130.7082,-3.7141],[130.7045,-3.733],[130.7111,-3.789]]]},"properties":{"code":"81.05.14","name":"Siritaun Wida Timur","latitude":-3.7585651847400343,"longitude":130.7779271712403}},{"type":"Feature","geometry":{"type":"Polygon","coordinates":[[[130.8152,-3.4472],[130.8236,-3.4439],[130.8052,-3.407],[130.6639,-3.4005],[130.6309,-3.3301],[130.6403,-3.2834],[130.6029,-3.24],[130.5247,-3.2651],[130.4718,-3.302],[130.4235,-3.3861],[130.4435,-3.431],[130.4595,-3.4426],[130.4865,-3.4594],[130.5162,-3.4637],[130.5524,-3.471],[130.5711,-3.4842],[130.6824,-3.4958],[130.6895,-3.4961],[130.7486,-3.4806],[130.758,-3.4656],[130.7538,-3.4598],[130.7686,-3.4554],[130.7886,-3.4439],[130.7978,-3.4256],[130.8147,-3.4384],[130.8152,-3.4472]]]},"properties":{"code":"81.05.15","name":"Teluk Waru","latitude":-3.3855885296136976,"longitude":130.592987625439}},{"type":"Feature","geometry":{"type":"MultiPolygon","coordinates":[]},"properties":{"code":"81.05.16","name":"Ukar Sengan","latitude":-3.8394459810540758,"longitude":130.77693660764547}}]}