{"type":"FeatureCollection","features":[{"type":"Feature","geometry":{"type":"Polygon","coordinates":[[[127.0568,-3.2114],[127.0234,-3.2184],[126.961,-3.228],[126.9822,-3.2702],[126.9976,-3.2684],[127.0594,-3.2254],[127.0568,-3.2114]]]},"properties":{"code":"81.04.01","name":"Namlea"}},{"type":"Feature","geometry":{"type":"Polygon","coordinates":[[[126.507,-3.1716],[126.5006,-3.078],[126.2996,-3.0936],[126.228,-3.138],[126.2228,-3.1832],[126.1246,-3.1512],[126.1018,-3.1786],[126.1116,-3.2564],[126.1908,-3.2894],[126.2784,-3.3028],[126.308,-3.3176],[126.33,-3.351],[126.3956,-3.3704],[126.4502,-3.392],[126.4396,-3.359],[126.5072,-3.2772],[126.507,-3.1716]]]},"properties":{"code":"81.04.02","name":"Air Buaya"}},{"type":"Feature","geometry":{"type":"Polygon","coordinates":[[[126.924,-3.2124],[126.885,-3.2464],[126.923,-3.3028],[126.93,-3.3266],[126.946,-3.3682],[126.972,-3.3714],[126.9716,-3.3778],[126.9904,-3.3876],[126.9982,-3.3734],[127.0406,-3.2996],[126.9976,-3.2684],[126.9822,-3.2702],[126.924,-3.2124]]]},"properties":{"code":"81.04.03","name":"Waeapo"}},{"type":"Feature","geometry":{"type":"Polygon","coordinates":[[[126.9152,-3.1288],[126.7906,-3.059],[126.647,-3.0714],[126.7094,-3.1196],[126.7726,-3.2252],[126.8132,-3.1534],[126.8332,-3.2018],[126.802,-3.251],[126.8428,-3.2226],[126.8998,-3.203],[126.8998,-3.1748],[126.9152,-3.1288]]]},"properties":{"code":"81.04.06","name":"Waplau"}},{"type":"Feature","geometry":{"type":"Polygon","coordinates":[[[127.19,-3.601],[127.2346,-3.6238],[127.2586,-3.3736],[127.2108,-3.3854],[127.1728,-3.479],[127.1532,-3.513],[127.19,-3.601]]]},"properties":{"code":"81.04.10","name":"Batabual"}},{"type":"Feature","geometry":{"type":"Polygon","coordinates":[[[126.923,-3.3028],[126.8428,-3.2226],[126.8108,-3.2898],[126.852,-3.3656],[126.7978,-3.4168],[126.6498,-3.495],[126.6326,-3.5268],[126.689,-3.5776],[126.7256,-3.6552],[126.7486,-3.6586],[126.7506,-3.6704],[126.7988,-3.6638],[126.8134,-3.6418],[126.8624,-3.6562],[126.823,-3.5778],[126.8434,-3.5344],[126.9232,-3.4732],[126.9278,-3.4188],[126.974,-3.3968],[126.9904,-3.3876],[126.9716,-3.3778],[126.972,-3.3714],[126.946,-3.3682],[126.93,-3.3266],[126.923,-3.3028]]]},"properties":{"code":"81.04.11","name":"Lolong Guba"}},{"type":"Feature","geometry":{"type":"Polygon","coordinates":[[[127.0642,-3.3874],[126.9982,-3.3734],[126.9988,-3.3798],[126.974,-3.3968],[126.9278,-3.4188],[126.9232,-3.4732],[126.8434,-3.5344],[126.823,-3.5778],[126.8624,-3.6562],[126.9308,-3.6334],[127.0354,-3.5796],[127.0446,-3.5148],[127.0712,-3.499],[127.0768,-3.4712],[127.069,-3.4466],[127.0504,-3.436],[127.0642,-3.3874]]]},"properties":{"code":"81.04.12","name":"Waelata"}},{"type":"Feature","geometry":{"type":"Polygon","coordinates":[[[126.647,-3.0714],[126.5006,-3.0778],[126.507,-3.1716],[126.5072,-3.2772],[126.4396,-3.359],[126.4502,-3.392],[126.4608,-3.428],[126.5138,-3.4704],[126.5962,-3.4582],[126.597,-3.4784],[126.6498,-3.495],[126.7978,-3.4168],[126.852,-3.3656],[126.8108,-3.2898],[126.802,-3.251],[126.8332,-3.2018],[126.8132,-3.1534],[126.7726,-3.2252],[126.7094,-3.1196],[126.647,-3.0714]]]},"properties":{"code":"81.04.13","name":"Fena Leisela"}},{"type":"Feature","geometry":{"type":"Polygon","coordinates":[[[127.2108,-3.3854],[127.1646,-3.3358],[127.1216,-3.3834],[127.0642,-3.3874],[127.0504,-3.436],[127.0696,-3.4478],[127.0758,-3.4876],[127.0606,-3.5392],[127.0856,-3.5288],[127.1728,-3.479],[127.2108,-3.3854]]]},"properties":{"code":"81.04.14","name":"Teluk Kaiely"}},{"type":"Feature","geometry":{"type":"Polygon","coordinates":[[[127.0594,-3.2254],[127.0542,-3.1796],[126.986,-3.1392],[126.9152,-3.1288],[126.8998,-3.1748],[126.8998,-3.203],[126.924,-3.2124],[126.961,-3.228],[127.0234,-3.2184],[127.0568,-3.2114],[127.0594,-3.2254]]]},"properties":{"code":"81.04.15","name":"Lilialy"}}]}