{"type":"FeatureCollection","features":[{"type":"Feature","geometry":{"type":"Polygon","coordinates":[[[127.9118,1.804],[127.861,1.8054],[127.8412,1.8442],[127.848,1.906],[127.8282,1.9058],[127.8264,1.8854],[127.8198,1.8856],[127.8062,1.8522],[127.8186,1.8534],[127.8378,1.7798],[127.8706,1.7178],[127.9072,1.7458],[127.9166,1.7648],[127.9118,1.804]]]},"properties":{"code":"82.03.04","name":"Galela"}},{"type":"Feature","geometry":{"type":"Polygon","coordinates":[[[127.979,1.7108],[127.9942,1.7574],[127.9586,1.7442],[127.9202,1.7074],[127.8556,1.6758],[127.7138,1.6816],[127.7132,1.6616],[127.7188,1.6492],[127.8116,1.6418],[127.979,1.7108]]]},"properties":{"code":"82.03.05","name":"Tobelo"}},{"type":"Feature","geometry":{"type":"Polygon","coordinates":[[[127.9116,1.5808],[127.9498,1.5568],[128.0042,1.5952],[127.9912,1.661],[127.9958,1.677],[127.9786,1.681],[127.9498,1.6616],[127.9236,1.6588],[127.9236,1.648],[127.8576,1.6228],[127.8514,1.6168],[127.865,1.5878],[127.8842,1.571],[127.9002,1.5712],[127.9116,1.5808]]]},"properties":{"code":"82.03.06","name":"Tobelo Selatan"}},{"type":"Feature","geometry":{"type":"Polygon","coordinates":[[[127.8958,1.3146],[127.8578,1.3426],[127.848,1.3174],[127.8536,1.2566],[127.8538,1.2052],[127.8644,1.1978],[127.903,1.15],[127.936,1.2652],[127.9232,1.2818],[127.9308,1.3078],[127.8958,1.3146]]]},"properties":{"code":"82.03.07","name":"Kao"}},{"type":"Feature","geometry":{"type":"Polygon","coordinates":[[[127.8536,1.2566],[127.8052,1.2602],[127.7548,1.2236],[127.6814,1.222],[127.6444,1.1716],[127.6282,1.1604],[127.616,1.095],[127.6612,1.1036],[127.6716,1.1088],[127.7052,1.0702],[127.7298,1.0578],[127.7584,1.069],[127.8644,1.1978],[127.8538,1.2052],[127.8536,1.2566]]]},"properties":{"code":"82.03.08","name":"Malifut"}},{"type":"Feature","geometry":{"type":"Polygon","coordinates":[[[128.058,2.2],[127.9328,2.18],[127.8374,2.0906],[127.745,1.9678],[127.7488,1.9464],[127.7604,1.9612],[127.7908,1.908],[127.7936,1.9434],[127.808,1.9564],[127.8346,1.9854],[127.8682,2.008],[127.9026,2.074],[127.9502,2.1062],[127.9806,2.152],[128.058,2.2]]]},"properties":{"code":"82.03.09","name":"Loloda Utara"}},{"type":"Feature","geometry":{"type":"Polygon","coordinates":[[[127.9942,1.7574],[127.9118,1.804],[127.9166,1.7648],[127.9072,1.7458],[127.8616,1.7118],[127.7942,1.7364],[127.7688,1.6972],[127.7052,1.7106],[127.7138,1.6814],[127.8354,1.6726],[127.886,1.6882],[127.9294,1.7144],[127.9586,1.7442],[127.9942,1.7574]]]},"properties":{"code":"82.03.10","name":"Tobelo Utara"}},{"type":"Feature","geometry":{"type":"Polygon","coordinates":[[[127.7308,1.6302],[127.7456,1.5986],[127.78,1.6216],[127.8506,1.6152],[127.9246,1.6486],[127.9282,1.6612],[127.9554,1.6642],[127.9712,1.6818],[127.9932,1.6798],[128.0012,1.6694],[127.979,1.7108],[127.8116,1.6418],[127.7188,1.6492],[127.7308,1.6302]]]},"properties":{"code":"82.03.11","name":"Tobelo Tengah"}},{"type":"Feature","geometry":{"type":"Polygon","coordinates":[[[128.023,1.4876],[128.0372,1.583],[127.955,1.5576],[127.9758,1.521],[127.9924,1.51],[128.0122,1.4834],[128.023,1.4876]]]},"properties":{"code":"82.03.12","name":"Tobelo Timur"}},{"type":"Feature","geometry":{"type":"Polygon","coordinates":[[[127.9002,1.5712],[127.8802,1.572],[127.8528,1.6166],[127.827,1.6208],[127.8106,1.614],[127.7836,1.6216],[127.7472,1.5984],[127.7274,1.594],[127.7122,1.51],[127.7136,1.499],[127.7438,1.4928],[127.7906,1.4658],[127.8942,1.4586],[127.962,1.4462],[127.9496,1.4856],[127.9924,1.51],[127.9758,1.521],[127.9116,1.5808],[127.9002,1.5712]]]},"properties":{"code":"82.03.13","name":"Tobelo Barat"}},{"type":"Feature","geometry":{"type":"Polygon","coordinates":[[[127.7908,1.908],[127.7606,1.8756],[127.7102,1.7272],[127.7666,1.7666],[127.7842,1.8186],[127.8186,1.8534],[127.8062,1.8522],[127.8198,1.8856],[127.8264,1.8854],[127.8282,1.9058],[127.8072,1.8982],[127.7908,1.908]]]},"properties":{"code":"82.03.14","name":"Galela Barat"}},{"type":"Feature","geometry":{"type":"Polygon","coordinates":[[[127.7936,1.9434],[127.7926,1.9016],[127.848,1.9066],[127.8526,1.9266],[127.9192,1.9614],[127.9544,2.0402],[128.0642,2.1716],[128.058,2.2],[127.9806,2.152],[127.9502,2.1062],[127.9026,2.074],[127.8682,2.008],[127.8346,1.9854],[127.808,1.9564],[127.7936,1.9434]]]},"properties":{"code":"82.03.15","name":"Galela Utara"}},{"type":"Feature","geometry":{"type":"Polygon","coordinates":[[[127.7942,1.7364],[127.8592,1.7114],[127.8704,1.7178],[127.8464,1.758],[127.8284,1.8202],[127.7936,1.8224],[127.7842,1.8184],[127.7666,1.7666],[127.7102,1.7272],[127.7052,1.7106],[127.7688,1.6972],[127.7942,1.7364]]]},"properties":{"code":"82.03.16","name":"Galela Selatan"}},{"type":"Feature","geometry":{"type":"Polygon","coordinates":[[[127.7776,2.294],[127.7726,2.2196],[127.8166,2.2296],[127.8248,2.2696],[127.7776,2.294]]]},"properties":{"code":"82.03.19","name":"Loloda Kepulauan"}},{"type":"Feature","geometry":{"type":"Polygon","coordinates":[[[128.0122,1.4834],[127.9496,1.4856],[127.962,1.4462],[127.934,1.4314],[127.8936,1.3938],[127.9038,1.3488],[127.9388,1.3008],[127.9232,1.2818],[127.936,1.2652],[127.9732,1.2774],[128.023,1.4876],[128.0122,1.4834]]]},"properties":{"code":"82.03.20","name":"Kao Utara"}},{"type":"Feature","geometry":{"type":"Polygon","coordinates":[[[127.7438,1.4928],[127.7136,1.499],[127.7,1.4794],[127.6576,1.4168],[127.676,1.377],[127.6538,1.3276],[127.6372,1.305],[127.644,1.299],[127.6346,1.275],[127.6238,1.2378],[127.6814,1.222],[127.7548,1.2236],[127.8052,1.2602],[127.848,1.3174],[127.8578,1.3426],[127.8958,1.3146],[127.9308,1.3078],[127.9388,1.3008],[127.9038,1.3488],[127.8936,1.3938],[127.934,1.4314],[127.8942,1.4586],[127.7906,1.4658],[127.7438,1.4928]]]},"properties":{"code":"82.03.21","name":"Kao Barat"}},{"type":"Feature","geometry":{"type":"Polygon","coordinates":[[[127.6612,1.1036],[127.616,1.095],[127.6146,1.0814],[127.6466,1.0378],[127.641,1.0168],[127.6456,0.9994],[127.6026,0.9714],[127.601,0.9562],[127.6254,0.941],[127.638,0.8824],[127.6664,0.8672],[127.6724,0.8534],[127.6884,0.8786],[127.6588,0.8914],[127.6258,0.9726],[127.649,1.0024],[127.656,1.0276],[127.7298,1.0578],[127.7052,1.0702],[127.6716,1.1088],[127.6612,1.1036]]]},"properties":{"code":"82.03.22","name":"Kao Teluk"}}]}