{"type":"FeatureCollection","features":[{"type":"Feature","geometry":{"type":"Polygon","coordinates":[[[136.2726,-1.887],[136.2466,-1.7993],[136.2122,-1.8079],[136.2081,-1.8797],[136.2726,-1.887]]]},"properties":{"code":"91.05.01","name":"Yapen Selatan","latitude":-1.8493670752859763,"longitude":136.23976643468637}},{"type":"Feature","geometry":{"type":"Polygon","coordinates":[[[135.7764,-1.6739],[135.6735,-1.6522],[135.7514,-1.7217],[135.7844,-1.7158],[135.858,-1.7674],[135.8923,-1.7624],[135.9391,-1.7912],[135.9476,-1.786],[135.9573,-1.7929],[135.9733,-1.7535],[135.9698,-1.7328],[135.9618,-1.6972],[135.8841,-1.6803],[135.7764,-1.6739]]]},"properties":{"code":"91.05.02","name":"Yapen Barat","latitude":-1.718154918065675,"longitude":135.8405070430204}},{"type":"Feature","geometry":{"type":"Polygon","coordinates":[[[136.797,-1.7971],[136.7447,-1.7809],[136.603,-1.7719],[136.5664,-1.7819],[136.5939,-1.8648],[136.6279,-1.8727],[136.7187,-1.816],[136.7575,-1.8265],[136.797,-1.7971]]]},"properties":{"code":"91.05.03","name":"Yapen Timur","latitude":-1.8120838484367796,"longitude":136.668803733329}},{"type":"Feature","geometry":{"type":"Polygon","coordinates":[[[136.378,-1.8268],[136.3387,-1.7844],[136.3279,-1.8452],[136.2963,-1.8498],[136.4329,-1.8753],[136.378,-1.8268]]]},"properties":{"code":"91.05.04","name":"Angkaisera","latitude":-1.8467856739478044,"longitude":136.36408499590289}},{"type":"Feature","geometry":{"type":"Polygon","coordinates":[[[135.8173,-1.6375],[135.5803,-1.6106],[135.4777,-1.6148],[135.5084,-1.6354],[135.5889,-1.6342],[135.7764,-1.6739],[135.8173,-1.6375]]]},"properties":{"code":"91.05.05","name":"Poom","latitude":-1.6358450913903888,"longitude":135.66300537000905}},{"type":"Feature","geometry":{"type":"Polygon","coordinates":[[[136.0625,-1.7238],[135.9971,-1.7117],[135.9698,-1.7328],[135.9733,-1.7535],[135.9555,-1.7969],[136.0702,-1.8494],[136.1471,-1.8533],[136.2081,-1.8797],[136.2122,-1.8079],[136.2546,-1.7835],[136.2303,-1.7626],[136.1462,-1.7456],[136.0879,-1.7123],[136.0625,-1.7238]]]},"properties":{"code":"91.05.06","name":"Kosiwo","latitude":-1.7863778476951375,"longitude":136.0974627728033}},{"type":"Feature","geometry":{"type":"Polygon","coordinates":[[[136.5691,-1.7539],[136.5553,-1.7214],[136.4457,-1.6978],[136.4101,-1.7195],[136.3246,-1.7036],[136.2105,-1.6518],[136.1334,-1.6513],[136.1494,-1.7461],[136.2584,-1.7662],[136.322,-1.7489],[136.3643,-1.768],[136.4311,-1.7667],[136.5086,-1.7898],[136.5979,-1.7737],[136.5691,-1.7539]]]},"properties":{"code":"91.05.07","name":"Yapen Utara","latitude":-1.7266989878153383,"longitude":136.33835941564908}},{"type":"Feature","geometry":{"type":"Polygon","coordinates":[[[136.797,-1.7971],[136.8487,-1.8274],[136.9034,-1.7927],[136.7893,-1.7398],[136.669,-1.7261],[136.5858,-1.7292],[136.5691,-1.7539],[136.5979,-1.7737],[136.7544,-1.7824],[136.797,-1.7971]]]},"properties":{"code":"91.05.08","name":"Raimbawi","latitude":-1.7651580380914125,"longitude":136.73034197293046}},{"type":"Feature","geometry":{"type":"Polygon","coordinates":[[[136.322,-1.7489],[136.378,-1.8268],[136.4329,-1.8753],[136.4704,-1.8841],[136.5939,-1.8648],[136.5664,-1.7819],[136.4935,-1.7884],[136.4311,-1.7667],[136.3643,-1.768],[136.322,-1.7489]]]},"properties":{"code":"91.05.09","name":"Teluk Ampimoi","latitude":-1.820435358454191,"longitude":136.46538619854434}},{"type":"Feature","geometry":{"type":"Polygon","coordinates":[[[136.3327,-1.9068],[136.3291,-1.9326],[136.3552,-1.9381],[136.3327,-1.9068]]]},"properties":{"code":"91.05.10","name":"Kepulauan Ambai","latitude":-1.92275006559008,"longitude":136.355572261332}},{"type":"Feature","geometry":{"type":"Polygon","coordinates":[[[135.4777,-1.6148],[135.474,-1.6804],[135.5548,-1.6625],[135.6728,-1.7063],[135.6735,-1.6522],[135.5671,-1.6319],[135.5084,-1.6354],[135.4777,-1.6148]]]},"properties":{"code":"91.05.11","name":"Wonawa","latitude":-1.6559357633268872,"longitude":135.55926432520656}},{"type":"Feature","geometry":{"type":"Polygon","coordinates":[[[136.1334,-1.6513],[135.9696,-1.6543],[135.8999,-1.6359],[135.8702,-1.661],[135.8173,-1.6375],[135.8171,-1.6733],[135.8841,-1.6803],[135.9618,-1.6972],[136.0625,-1.7238],[136.0879,-1.7123],[136.1494,-1.7461],[136.1334,-1.6513]]]},"properties":{"code":"91.05.12","name":"Windesi","latitude":-1.679957459958214,"longitude":136.00322296768638}},{"type":"Feature","geometry":{"type":"Polygon","coordinates":[[[137.0236,-1.8314],[136.9506,-1.8381],[137.0543,-1.8697],[137.0236,-1.8314]]]},"properties":{"code":"91.05.13","name":"Pulau Kurudu","latitude":-1.8467271840810469,"longitude":137.0124137805261}},{"type":"Feature","geometry":{"type":"Polygon","coordinates":[[[135.1204,-1.4659],[135.1756,-1.524],[135.2472,-1.5297],[135.2965,-1.4869],[135.1204,-1.4659]]]},"properties":{"code":"91.05.14","name":"Pulau Yerui","latitude":-1.4992161414948568,"longitude":135.21241858527617}},{"type":"Feature","geometry":{"type":"Polygon","coordinates":[[[136.2403,-1.8715],[136.2391,-1.8564],[136.2327,-1.8549],[136.2289,-1.8739],[136.2403,-1.8715]]]},"properties":{"code":"91.05.15","name":"Anotaurei","latitude":-1.8655989250052245,"longitude":136.23443393496035}},{"type":"Feature","geometry":{"type":"Polygon","coordinates":[[[136.3387,-1.7844],[136.2303,-1.7626],[136.2546,-1.7835],[136.2726,-1.887],[136.2963,-1.8498],[136.3279,-1.8452],[136.3387,-1.7844]]]},"properties":{"code":"91.05.16","name":"Yawakukat","latitude":-1.8125242346815287,"longitude":136.29027987031662}},{"type":"Feature","geometry":{"type":"Polygon","coordinates":[[[136.2823,-1.8894],[136.2787,-1.8967],[136.2926,-1.9389],[136.3004,-1.9234],[136.2908,-1.9157],[136.2941,-1.8981],[136.2823,-1.8894]]]},"properties":{"code":"91.05.17","name":"Nusawani","latitude":-1.9162016762276388,"longitude":136.29175728759725}}]}