{"type":"FeatureCollection","features":[{"type":"Feature","geometry":{"type":"Polygon","coordinates":[[[138.1642,-5.3768],[138.0602,-5.3786],[138.0522,-5.3848],[138.058,-5.437],[138.0432,-5.5032],[138.0838,-5.5252],[138.0454,-5.5922],[138.0662,-5.724],[138.1758,-5.737],[138.2094,-5.6828],[138.1964,-5.6496],[138.2324,-5.5552],[138.2406,-5.4668],[138.2458,-5.4372],[138.2164,-5.3872],[138.1914,-5.3834],[138.1642,-5.3768]]]},"properties":{"code":"93.04.01","name":"Agats"}},{"type":"Feature","geometry":{"type":"Polygon","coordinates":[[[138.9338,-5.6506],[138.8782,-5.601],[138.8272,-5.6122],[138.8016,-5.6452],[138.6944,-5.6546],[138.5898,-5.6952],[138.4574,-5.6866],[138.425,-5.6572],[138.381,-5.6668],[138.3202,-5.6628],[138.283,-5.6756],[138.3234,-5.6756],[138.3694,-5.763],[138.4656,-5.7762],[138.4308,-5.8522],[138.4904,-5.9252],[138.5532,-5.9006],[138.4976,-5.8782],[138.5188,-5.8556],[138.5746,-5.8644],[138.683,-5.7702],[138.6866,-5.8302],[138.7534,-5.8724],[138.7648,-5.8768],[138.8124,-5.866],[138.8682,-5.8726],[138.8814,-5.864],[138.9182,-5.8632],[138.923,-5.6566],[138.9338,-5.6506]]]},"properties":{"code":"93.04.02","name":"Atsj"}},{"type":"Feature","geometry":{"type":"Polygon","coordinates":[[[138.3258,-4.6676],[138.2812,-4.6806],[138.2434,-4.67],[138.2068,-4.7422],[138.2184,-4.7748],[138.2276,-4.803],[138.2244,-4.828],[138.1758,-4.8894],[138.1682,-5.0116],[138.1834,-5.1106],[138.1652,-5.1174],[138.142,-5.1424],[138.1364,-5.1318],[138.0988,-5.1444],[138.0928,-5.181],[138.0458,-5.1876],[138.0648,-5.23],[138.1396,-5.2012],[138.1506,-5.2656],[138.211,-5.2362],[138.2814,-5.2336],[138.2742,-5.1894],[138.4654,-5.1524],[138.4998,-5.1054],[138.5426,-5.093],[138.5274,-5.0834],[138.567,-5.0532],[138.5622,-4.9966],[138.6084,-4.9886],[138.615,-4.9272],[138.6276,-4.9136],[138.6176,-4.8862],[138.5944,-4.8362],[138.6264,-4.8004],[138.672,-4.7924],[138.669,-4.7176],[138.6288,-4.7162],[138.603,-4.7238],[138.587,-4.6986],[138.5724,-4.7072],[138.5564,-4.7036],[138.5358,-4.7204],[138.5696,-4.7494],[138.5682,-4.7842],[138.4006,-4.8118],[138.3606,-4.7958],[138.356,-4.7564],[138.3576,-4.7454],[138.3392,-4.7062],[138.3258,-4.6676]]]},"properties":{"code":"93.04.03","name":"Sawa Erma"}},{"type":"Feature","geometry":{"type":"Polygon","coordinates":[[[138.3628,-5.3878],[138.3974,-5.2922],[138.3878,-5.2786],[138.3696,-5.2958],[138.293,-5.3178],[138.2624,-5.3424],[138.2884,-5.3488],[138.3142,-5.3724],[138.3628,-5.3878]]]},"properties":{"code":"93.04.04","name":"Akat"}},{"type":"Feature","geometry":{"type":"Polygon","coordinates":[[[138.385,-5.9518],[138.3802,-5.9368],[138.3214,-5.9278],[138.2786,-5.9476],[138.3624,-6.1176],[138.4022,-6.113],[138.5004,-6.055],[138.6134,-6.0738],[138.6548,-6.0052],[138.664,-5.9794],[138.5786,-5.9912],[138.385,-5.9518]]]},"properties":{"code":"93.04.05","name":"Fayit"}},{"type":"Feature","geometry":{"type":"Polygon","coordinates":[[[138.7176,-6.1574],[138.7466,-6.1486],[138.7536,-6.1418],[138.7228,-6.1182],[138.608,-6.1534],[138.5282,-6.1544],[138.5064,-6.2074],[138.4858,-6.2534],[138.6306,-6.2714],[138.6972,-6.2742],[138.7024,-6.1838],[138.7176,-6.1574]]]},"properties":{"code":"93.04.06","name":"Pantai Kasuari"}},{"type":"Feature","geometry":{"type":"MultiPolygon","coordinates":[[[[139.8826,-5.0922],[139.8858,-5.0648],[139.7526,-5.063],[139.6828,-5.1346],[139.6454,-5.1706],[139.618,-5.1778],[139.6674,-5.2266],[139.724,-5.2776],[139.7386,-5.287],[139.8026,-5.1742],[139.8644,-5.1056],[139.8826,-5.0922]]],[[[139.442,-5.0038],[139.2702,-4.9994],[139.2744,-5.0292],[139.26,-5.0346],[139.238,-5.2144],[139.2204,-5.2478],[139.1902,-5.2904],[139.0932,-5.332],[138.9848,-5.4218],[138.9946,-5.4412],[139.0004,-5.4368],[138.9994,-5.4452],[139.0134,-5.449],[139.058,-5.5058],[139.0852,-5.5362],[139.0882,-5.5638],[139.1378,-5.646],[139.2336,-5.6336],[139.2176,-5.6084],[139.219,-5.5668],[139.2364,-5.551],[139.2226,-5.5342],[139.274,-5.5008],[139.2876,-5.4916],[139.2756,-5.478],[139.2872,-5.4626],[139.2834,-5.4548],[139.2896,-5.4582],[139.3248,-5.4584],[139.3368,-5.4674],[139.3488,-5.4562],[139.371,-5.4356],[139.4074,-5.3854],[139.3944,-5.3178],[139.397,-5.306],[139.3742,-5.187],[139.446,-5.1276],[139.501,-5.1272],[139.5204,-5.0766],[139.5188,-5.062],[139.4194,-5.1066],[139.337,-5.1316],[139.3198,-5.1166],[139.3158,-5.0872],[139.3258,-5.0514],[139.408,-5.0612],[139.4982,-5.0022],[139.442,-5.0038]]]]},"properties":{"code":"93.04.07","name":"Suator"}},{"type":"Feature","geometry":{"type":"MultiPolygon","coordinates":[[[[139.2016,-4.7388],[139.1924,-4.719],[139.1142,-4.767],[139.1076,-4.8116],[139.0652,-4.8418],[139.049,-4.8484],[139.0494,-4.8652],[139.0438,-4.8714],[138.8878,-4.9568],[139.0776,-4.9864],[139.0978,-4.9526],[139.1512,-4.853],[139.1576,-4.8308],[139.1616,-4.8124],[139.1626,-4.7688],[139.1844,-4.7388],[139.2016,-4.7388]]],[[[138.9426,-4.7638],[138.8992,-4.728],[138.862,-4.7936],[138.8156,-4.8916],[138.6462,-4.9932],[138.6494,-5.074],[138.7116,-5.0766],[138.733,-5.0536],[138.8038,-5.0272],[138.8822,-4.8902],[138.9352,-4.848],[138.9298,-4.832],[138.9452,-4.8028],[138.9426,-4.7638]]]]},"properties":{"code":"93.04.08","name":"Suru-suru"}},{"type":"Feature","geometry":{"type":"Polygon","coordinates":[[[139.7526,-5.063],[139.5896,-5.0544],[139.5352,-5.0306],[139.408,-5.0612],[139.3258,-5.0514],[139.3158,-5.0872],[139.318,-5.109],[139.3252,-5.1268],[139.3368,-5.1316],[139.4194,-5.1066],[139.5188,-5.062],[139.5204,-5.0766],[139.501,-5.1272],[139.446,-5.1276],[139.3742,-5.187],[139.397,-5.306],[139.3944,-5.3178],[139.4074,-5.3854],[139.3892,-5.447],[139.4082,-5.4676],[139.4906,-5.3946],[139.5296,-5.4184],[139.5462,-5.4388],[139.5636,-5.4154],[139.6022,-5.4002],[139.5622,-5.3594],[139.57,-5.3162],[139.5876,-5.2942],[139.6804,-5.312],[139.7104,-5.2998],[139.724,-5.2776],[139.6674,-5.2266],[139.618,-5.1778],[139.6454,-5.1706],[139.6828,-5.1346],[139.7526,-5.063]]]},"properties":{"code":"93.04.09","name":"Kolf Braza"}},{"type":"Feature","geometry":{"type":"Polygon","coordinates":[[[138.5264,-5.1284],[138.4998,-5.1054],[138.4654,-5.1524],[138.2742,-5.1894],[138.2814,-5.2336],[138.3006,-5.238],[138.3222,-5.2714],[138.3356,-5.2724],[138.3642,-5.2968],[138.4,-5.2638],[138.471,-5.2498],[138.477,-5.2428],[138.5676,-5.207],[138.5264,-5.1284]]]},"properties":{"code":"93.04.10","name":"Unir Sirau"}},{"type":"Feature","geometry":{"type":"Polygon","coordinates":[[[138.0648,-5.23],[138.0002,-5.1928],[137.9894,-5.1848],[137.9768,-5.1936],[137.94,-5.2098],[137.9144,-5.2032],[137.8552,-5.2586],[137.8374,-5.2754],[137.7824,-5.329],[137.7706,-5.3584],[137.8076,-5.381],[137.8764,-5.3574],[138.0082,-5.5056],[138.0432,-5.5032],[138.058,-5.437],[138.0546,-5.3814],[138.1642,-5.3768],[138.1548,-5.3232],[138.2178,-5.2818],[138.2524,-5.3048],[138.2814,-5.2336],[138.211,-5.2362],[138.1506,-5.2656],[138.1396,-5.2012],[138.0648,-5.23]]]},"properties":{"code":"93.04.11","name":"Joerat"}},{"type":"Feature","geometry":{"type":"Polygon","coordinates":[[[138.1422,-4.6296],[138.133,-4.589],[138.053,-4.5944],[137.9406,-4.6032],[137.8278,-4.5968],[137.8076,-4.6184],[137.8274,-4.6458],[137.7678,-4.6468],[137.7862,-4.6734],[137.8922,-4.7514],[137.8652,-4.8634],[137.82,-5.026],[137.7858,-5.0278],[137.7354,-5.1112],[137.7446,-5.139],[137.7054,-5.151],[137.7014,-5.1828],[137.6818,-5.2014],[137.6814,-5.2376],[137.7402,-5.2868],[137.771,-5.3502],[137.7828,-5.3286],[137.8342,-5.2988],[137.8374,-5.2754],[137.8552,-5.2586],[137.9144,-5.2032],[137.94,-5.2098],[137.9768,-5.1936],[137.9894,-5.1848],[138.0002,-5.1928],[138.0266,-5.187],[138.051,-5.1834],[138.0898,-5.1826],[138.098,-5.1734],[138.097,-5.1454],[138.1364,-5.1318],[138.142,-5.1424],[138.1652,-5.1174],[138.1834,-5.1106],[138.1682,-5.0116],[138.1758,-4.8894],[138.2244,-4.828],[138.2276,-4.803],[138.2184,-4.7748],[138.2068,-4.7422],[138.17,-4.6844],[138.1422,-4.6296]]]},"properties":{"code":"93.04.12","name":"Pulau Tiga"}},{"type":"Feature","geometry":{"type":"Polygon","coordinates":[[[138.2884,-5.3488],[138.2164,-5.3872],[138.2458,-5.4372],[138.2406,-5.4668],[138.2324,-5.5552],[138.1964,-5.6496],[138.2094,-5.6828],[138.22,-5.7122],[138.233,-5.69],[138.299,-5.6676],[138.4076,-5.6616],[138.4048,-5.643],[138.415,-5.61],[138.4436,-5.5586],[138.4386,-5.4822],[138.4436,-5.4548],[138.4184,-5.419],[138.3772,-5.3964],[138.3142,-5.3724],[138.2884,-5.3488]]]},"properties":{"code":"93.04.13","name":"Jetsy"}},{"type":"Feature","geometry":{"type":"Polygon","coordinates":[[[138.759,-6.1486],[138.7536,-6.1418],[138.7176,-6.1574],[138.7024,-6.1838],[138.701,-6.2946],[138.7638,-6.2762],[138.8262,-6.295],[138.8724,-6.1786],[138.835,-6.1664],[138.759,-6.1486]]]},"properties":{"code":"93.04.14","name":"Der Koumur"}},{"type":"Feature","geometry":{"type":"Polygon","coordinates":[[[138.6972,-6.2742],[138.5176,-6.2544],[138.5266,-6.284],[138.5086,-6.2966],[138.5348,-6.3812],[138.6078,-6.3782],[138.659,-6.4278],[138.7134,-6.4436],[138.7832,-6.403],[138.8262,-6.295],[138.7638,-6.2762],[138.701,-6.2946],[138.6972,-6.2742]]]},"properties":{"code":"93.04.15","name":"Kopay"}},{"type":"Feature","geometry":{"type":"Polygon","coordinates":[[[138.5064,-6.2074],[138.5282,-6.1544],[138.4544,-6.1472],[138.4022,-6.113],[138.3624,-6.1176],[138.4244,-6.3528],[138.6044,-6.5238],[138.7144,-6.4444],[138.659,-6.4278],[138.6078,-6.3782],[138.5348,-6.3812],[138.5086,-6.2966],[138.5242,-6.2886],[138.5256,-6.2686],[138.5176,-6.2544],[138.4858,-6.2534],[138.5064,-6.2074]]]},"properties":{"code":"93.04.16","name":"Safan"}},{"type":"Feature","geometry":{"type":"Polygon","coordinates":[[[138.9946,-5.4412],[138.9812,-5.4372],[138.972,-5.4498],[138.9584,-5.4516],[138.9204,-5.4724],[138.846,-5.5036],[138.8088,-5.5656],[138.6852,-5.4876],[138.62,-5.4446],[138.5956,-5.4408],[138.5552,-5.45],[138.5416,-5.4506],[138.4724,-5.4706],[138.4436,-5.5586],[138.415,-5.61],[138.425,-5.6572],[138.4574,-5.6866],[138.5898,-5.6952],[138.6944,-5.6546],[138.8016,-5.6452],[138.8272,-5.6122],[138.8744,-5.6006],[138.8908,-5.6076],[138.9338,-5.6506],[139.0886,-5.5646],[139.1016,-5.5442],[139.0852,-5.5362],[139.058,-5.5058],[139.0134,-5.449],[138.9994,-5.4452],[139.0004,-5.4368],[138.9946,-5.4412]]]},"properties":{"code":"93.04.17","name":"Sirets"}},{"type":"Feature","geometry":{"type":"Polygon","coordinates":[[[138.6866,-5.8302],[138.683,-5.7702],[138.5746,-5.8644],[138.5188,-5.8556],[138.4976,-5.8782],[138.5532,-5.9006],[138.5744,-5.9464],[138.5408,-5.9816],[138.5786,-5.9912],[138.6876,-5.9762],[138.7542,-5.9664],[138.7534,-5.8724],[138.6866,-5.8302]]]},"properties":{"code":"93.04.18","name":"Ayib"}},{"type":"Feature","geometry":{"type":"Polygon","coordinates":[[[138.3234,-5.6756],[138.22,-5.7122],[138.1758,-5.737],[138.172,-5.8192],[138.2768,-5.841],[138.2566,-5.9258],[138.321,-5.9278],[138.3798,-5.9366],[138.385,-5.9518],[138.5408,-5.9816],[138.5744,-5.9464],[138.4904,-5.9252],[138.4308,-5.8522],[138.4656,-5.7762],[138.3694,-5.763],[138.3234,-5.6756]]]},"properties":{"code":"93.04.19","name":"Betcbamu"}},{"type":"Feature","geometry":{"type":"Polygon","coordinates":[[[139.5462,-5.4388],[139.5296,-5.4184],[139.4906,-5.3946],[139.4082,-5.4676],[139.3892,-5.447],[139.371,-5.4356],[139.3488,-5.4562],[139.3368,-5.4674],[139.3248,-5.4584],[139.2896,-5.4582],[139.2834,-5.4548],[139.2872,-5.4626],[139.2756,-5.478],[139.2876,-5.4916],[139.274,-5.5008],[139.2226,-5.5342],[139.2188,-5.5674],[139.2228,-5.6212],[139.2336,-5.6336],[139.5038,-5.5984],[139.4934,-5.5098],[139.5462,-5.4388]]]},"properties":{"code":"93.04.20","name":"Joutu"}},{"type":"Feature","geometry":{"type":"Polygon","coordinates":[[[138.7634,-6.0164],[138.6876,-5.9762],[138.664,-5.9794],[138.6548,-6.0052],[138.6134,-6.0738],[138.5004,-6.055],[138.4022,-6.113],[138.4544,-6.1472],[138.608,-6.1534],[138.7228,-6.1182],[138.7766,-6.0372],[138.7634,-6.0164]]]},"properties":{"code":"93.04.21","name":"Aswi"}},{"type":"Feature","geometry":{"type":"Polygon","coordinates":[[[138.9188,-6.1528],[138.9212,-5.8596],[138.9102,-5.8598],[138.8684,-5.8726],[138.8124,-5.866],[138.7648,-5.8768],[138.7542,-5.9664],[138.7634,-6.0164],[138.7766,-6.0372],[138.7228,-6.1182],[138.759,-6.1486],[138.835,-6.1664],[138.9188,-6.1528]]]},"properties":{"code":"93.04.22","name":"Awyu"}},{"type":"Feature","geometry":{"type":"MultiPolygon","coordinates":[[[[139.9138,-5.2134],[139.8026,-5.1742],[139.7386,-5.287],[139.7104,-5.2998],[139.6804,-5.312],[139.5876,-5.2942],[139.57,-5.3162],[139.5622,-5.3594],[139.6022,-5.4002],[139.6946,-5.3638],[139.7246,-5.3044],[139.7642,-5.2872],[139.8616,-5.2944],[139.8878,-5.2706],[139.8878,-5.246],[139.9138,-5.2134]]],[[[139.9874,-5.0574],[139.8826,-5.0922],[139.8644,-5.1056],[139.8452,-5.1538],[139.9188,-5.2054],[139.9476,-5.1648],[139.9288,-5.0906],[139.9874,-5.0574]]]]},"properties":{"code":"93.04.23","name":"Koroway Buluanop"}},{"type":"Feature","geometry":{"type":"MultiPolygon","coordinates":[[[[138.3006,-5.238],[138.2814,-5.2336],[138.2524,-5.3048],[138.2178,-5.2818],[138.1548,-5.3232],[138.1642,-5.3768],[138.1914,-5.3834],[138.2696,-5.3306],[138.314,-5.3082],[138.3642,-5.2968],[138.3356,-5.2724],[138.3222,-5.2714],[138.3006,-5.238]]],[[[139.0438,-4.8714],[139.059,-4.8684],[139.028,-4.8396],[138.9466,-4.8362],[138.9352,-4.848],[138.8822,-4.8902],[138.8038,-5.0272],[138.8196,-5.0728],[139.0626,-5.0748],[139.1012,-5.1134],[139.112,-5.0816],[139.1438,-5.0502],[139.1558,-4.9932],[139.0384,-4.983],[138.8878,-4.9568],[139.0438,-4.8714]]],[[[138.862,-4.7936],[138.8476,-4.704],[138.8246,-4.7376],[138.8076,-4.767],[138.7996,-4.7492],[138.7666,-4.723],[138.7364,-4.7188],[138.669,-4.7176],[138.672,-4.7924],[138.6264,-4.8004],[138.5944,-4.8362],[138.6176,-4.8862],[138.6276,-4.9136],[138.615,-4.9272],[138.5622,-4.9966],[138.567,-5.0532],[138.5274,-5.0834],[138.5426,-5.093],[138.5264,-5.1284],[138.5686,-5.1674],[138.607,-5.1596],[138.64,-5.1694],[138.6426,-5.1518],[138.6494,-5.074],[138.6462,-4.9932],[138.8156,-4.8916],[138.862,-4.7936]]]]},"properties":{"code":"93.04.24","name":"Tomor Birip"}},{"type":"Feature","geometry":{"type":"Polygon","coordinates":[[[139.26,-5.0346],[139.2744,-5.0292],[139.2702,-4.9994],[139.1558,-4.9932],[139.1438,-5.0502],[139.112,-5.0816],[139.1012,-5.1134],[139.0626,-5.0748],[138.7764,-5.0768],[138.733,-5.0536],[138.7116,-5.0766],[138.6554,-5.0966],[138.6426,-5.1518],[138.5762,-5.1646],[138.5676,-5.207],[138.477,-5.2428],[138.471,-5.2498],[138.3878,-5.2786],[138.3974,-5.2922],[138.3628,-5.3878],[138.3772,-5.3964],[138.4184,-5.419],[138.4436,-5.4548],[138.4386,-5.4822],[138.4724,-5.4706],[138.5416,-5.4506],[138.5552,-5.45],[138.5956,-5.4408],[138.62,-5.4446],[138.6852,-5.4876],[138.8088,-5.5656],[138.846,-5.5036],[138.9204,-5.4724],[138.9584,-5.4516],[138.972,-5.4498],[138.9812,-5.4372],[138.979,-5.4226],[139.0932,-5.332],[139.1902,-5.2904],[139.2204,-5.2478],[139.238,-5.2144],[139.26,-5.0346]]]},"properties":{"code":"93.04.25","name":"Sor Ep"}}]}