{"type":"FeatureCollection","features":[{"type":"Feature","geometry":{"type":"Polygon","coordinates":[[[139.4889,-6.2268],[139.495,-6.2083],[139.4603,-6.0776],[139.4345,-6.1007],[139.3528,-6.0863],[139.3231,-6.0992],[139.2921,-6.1501],[139.3382,-6.2507],[139.3065,-6.2863],[139.3193,-6.3117],[139.2611,-6.3914],[139.2229,-6.403],[139.2389,-6.4421],[139.2173,-6.5251],[139.2466,-6.5372],[139.2712,-6.606],[139.2716,-6.7849],[139.2938,-6.8102],[139.2851,-6.8627],[139.3228,-6.8894],[139.3686,-6.9028],[139.4149,-6.8275],[139.4192,-6.8451],[139.4583,-6.85],[139.4799,-6.7945],[139.5047,-6.7871],[139.504,-6.7186],[139.6038,-6.6853],[139.5933,-6.606],[139.5742,-6.5533],[139.5461,-6.4884],[139.4949,-6.4215],[139.4722,-6.3365],[139.4792,-6.2495],[139.4889,-6.2268]]]},"properties":{"code":"93.03.01","name":"Obaa","latitude":-6.514321460808771,"longitude":139.39695974044406}},{"type":"Feature","geometry":{"type":"Polygon","coordinates":[[[139.2389,-6.4421],[139.2297,-6.4272],[139.2229,-6.403],[139.156,-6.4272],[139.1207,-6.4247],[139.1041,-6.4451],[139.0751,-6.4602],[139.077,-6.5077],[139.0421,-6.577],[139.0062,-6.7064],[138.975,-6.7253],[138.9715,-6.7429],[138.948,-6.7575],[138.9382,-6.7871],[138.9519,-6.827],[138.8566,-6.8522],[138.8009,-6.8502],[138.7142,-6.9024],[138.6282,-6.876],[138.5642,-6.9345],[138.6056,-7.0023],[138.706,-7.0747],[138.6822,-7.1732],[139.3213,-7.2873],[139.3239,-7.2165],[139.3636,-7.2332],[139.4298,-7.2059],[139.3849,-7.2068],[139.3486,-7.1762],[139.3472,-7.1629],[139.3601,-7.151],[139.3709,-7.089],[139.3131,-7.0503],[139.2349,-7.0152],[139.227,-6.9989],[139.2161,-6.98],[139.2166,-6.9139],[139.2839,-6.8966],[139.2851,-6.8627],[139.2938,-6.8102],[139.2716,-6.7849],[139.2712,-6.606],[139.2466,-6.5372],[139.2173,-6.5251],[139.2389,-6.4421]]]},"properties":{"code":"93.03.02","name":"Mambioman Bapai","latitude":-6.935123488834217,"longitude":139.03956789147526}},{"type":"Feature","geometry":{"type":"Polygon","coordinates":[[[139.5455,-5.6251],[139.4733,-5.6024],[139.178,-5.6409],[139.2052,-5.7142],[139.2065,-5.7893],[139.2554,-5.8417],[139.2502,-5.913],[139.2756,-5.9252],[139.2787,-5.9653],[139.3095,-5.974],[139.3634,-5.9154],[139.3764,-5.8935],[139.4204,-5.8796],[139.4342,-5.8648],[139.4643,-5.8592],[139.521,-5.8739],[139.5467,-5.8804],[139.5651,-5.8418],[139.5695,-5.8126],[139.5963,-5.8278],[139.6032,-5.8142],[139.5834,-5.7586],[139.5668,-5.7397],[139.5707,-5.7259],[139.5775,-5.6438],[139.5455,-5.6251]]]},"properties":{"code":"93.03.03","name":"Citak-Mitak","latitude":-5.757847709796227,"longitude":139.3888316770409}},{"type":"Feature","geometry":{"type":"Polygon","coordinates":[[[139.4199,-7.05],[139.3716,-7.0253],[139.3709,-7.089],[139.3601,-7.151],[139.347,-7.1719],[139.3804,-7.2048],[139.4158,-7.199],[139.4298,-7.2059],[139.3636,-7.2332],[139.3239,-7.2165],[139.3213,-7.2873],[139.5246,-7.3235],[139.5837,-7.3686],[139.7842,-7.3733],[139.7923,-7.3496],[139.8343,-7.3296],[139.7609,-7.14],[139.7888,-7.0727],[139.786,-7.0384],[139.7782,-7.0462],[139.7618,-7.0367],[139.7383,-7.0367],[139.7314,-7.0481],[139.7208,-7.0489],[139.7014,-7.0358],[139.6904,-7.0428],[139.6141,-7.0696],[139.5555,-7.052],[139.5434,-7.0364],[139.5206,-7.0373],[139.5079,-7.055],[139.479,-7.0446],[139.4199,-7.05]]]},"properties":{"code":"93.03.04","name":"Edera","latitude":-7.200070628021056,"longitude":139.5855986668043}},{"type":"Feature","geometry":{"type":"Polygon","coordinates":[[[138.9663,-6.0449],[138.9196,-6.0451],[138.9187,-6.1527],[138.8723,-6.1785],[138.8063,-6.3449],[138.8573,-6.3591],[138.8422,-6.409],[138.8803,-6.4266],[138.9828,-6.4125],[139.0117,-6.4308],[139.0631,-6.3963],[139.066,-6.4291],[139.0794,-6.4601],[139.156,-6.4272],[139.2611,-6.3914],[139.3193,-6.3117],[139.2676,-6.2855],[139.2171,-6.287],[139.1779,-6.2548],[139.1184,-6.2829],[139.1124,-6.2035],[139.0751,-6.1777],[139.0454,-6.0616],[138.9663,-6.0449]]]},"properties":{"code":"93.03.05","name":"Haju","latitude":-6.283325645467782,"longitude":139.0270759209191}},{"type":"Feature","geometry":{"type":"Polygon","coordinates":[[[139.1377,-5.6461],[139.0925,-5.5625],[138.9229,-5.6566],[138.9196,-6.0451],[138.9663,-6.0449],[139.0454,-6.0616],[139.0751,-6.1777],[139.1124,-6.2035],[139.1184,-6.2829],[139.1779,-6.2548],[139.2171,-6.287],[139.2676,-6.2855],[139.3065,-6.2863],[139.3382,-6.2507],[139.2921,-6.1501],[139.3231,-6.0992],[139.3373,-6.0897],[139.3385,-6.0488],[139.3147,-5.9823],[139.3014,-5.9685],[139.2786,-5.9652],[139.2756,-5.9252],[139.2502,-5.913],[139.2554,-5.8417],[139.2065,-5.7893],[139.2052,-5.7142],[139.178,-5.6409],[139.1377,-5.6461]]]},"properties":{"code":"93.03.06","name":"Assue","latitude":-5.939963450817162,"longitude":139.11755804428964}},{"type":"Feature","geometry":{"type":"Polygon","coordinates":[[[139.7693,-5.5056],[139.6709,-5.5009],[139.6341,-5.5349],[139.6327,-5.5922],[139.6041,-5.6012],[139.6092,-5.5913],[139.5942,-5.5816],[139.5808,-5.581],[139.5492,-5.6027],[139.5455,-5.6251],[139.5775,-5.6438],[139.5707,-5.7259],[139.5668,-5.7397],[139.5834,-5.7586],[139.6591,-5.8631],[139.6696,-5.9624],[139.6891,-6.0072],[139.6639,-6.1581],[139.721,-6.189],[139.7654,-6.1391],[139.8382,-6.1144],[139.8612,-6.1142],[139.858,-5.9079],[139.8426,-5.8146],[139.7177,-5.7377],[139.7134,-5.6876],[139.8169,-5.5819],[139.8062,-5.5151],[139.7693,-5.5056]]]},"properties":{"code":"93.03.07","name":"Kaibar","latitude":-5.831422964838695,"longitude":139.72178205885044}},{"type":"Feature","geometry":{"type":"Polygon","coordinates":[[[139.8612,-6.1142],[139.8382,-6.1144],[139.7654,-6.1391],[139.721,-6.189],[139.6847,-6.2142],[139.6243,-6.2035],[139.5846,-6.1796],[139.4989,-6.212],[139.4889,-6.2268],[139.4792,-6.2495],[139.4722,-6.3365],[139.4949,-6.4215],[139.5461,-6.4884],[139.5742,-6.5533],[139.5933,-6.606],[139.6241,-6.6943],[139.6569,-6.6837],[139.674,-6.6594],[139.6753,-6.6447],[139.6723,-6.5935],[139.7387,-6.58],[139.7501,-6.55],[139.8026,-6.5602],[139.8193,-6.5208],[139.7976,-6.4979],[139.7177,-6.4336],[139.7074,-6.3927],[139.8213,-6.2656],[139.8112,-6.2154],[139.8628,-6.1702],[139.8612,-6.1142]]]},"properties":{"code":"93.03.08","name":"Passue","latitude":-6.374447893193994,"longitude":139.65088455552043}},{"type":"Feature","geometry":{"type":"MultiPolygon","coordinates":[[[[138.6388,-6.7324],[138.6168,-6.7704],[138.6648,-6.8211],[138.6764,-6.8677],[138.7291,-6.8832],[138.7988,-6.8349],[138.7362,-6.7596],[138.6388,-6.7324]]],[[[138.7074,-6.6324],[138.6686,-6.6552],[138.674,-6.7247],[138.7574,-6.7536],[138.8326,-6.8249],[138.8198,-6.7033],[138.7074,-6.6324]]],[[[139.0631,-6.3963],[139.0117,-6.4308],[138.9828,-6.4125],[138.8803,-6.4266],[138.8422,-6.409],[138.8573,-6.3591],[138.8063,-6.3449],[138.7832,-6.4031],[138.6044,-6.5238],[138.6825,-6.6071],[138.8041,-6.6742],[138.831,-6.7114],[138.829,-6.7788],[138.8758,-6.7979],[138.909,-6.7809],[138.9418,-6.7851],[138.9715,-6.7429],[138.975,-6.7253],[139.0062,-6.7064],[139.0421,-6.577],[139.077,-6.5077],[139.0756,-6.4535],[139.0631,-6.3963]]]]},"properties":{"code":"93.03.09","name":"Minyamur","latitude":-6.60763970971644,"longitude":138.84023052056315}},{"type":"Feature","geometry":{"type":"Polygon","coordinates":[[[140.066,-6.4656],[139.9397,-6.4685],[139.8193,-6.5208],[139.8026,-6.5602],[139.7501,-6.55],[139.7387,-6.58],[139.6644,-6.5716],[139.6538,-6.5924],[139.6724,-6.5938],[139.6753,-6.6446],[139.7279,-6.6714],[139.776,-6.8011],[139.7937,-6.8294],[139.8057,-6.8576],[139.8695,-6.8438],[139.8773,-6.8614],[139.8584,-6.8701],[139.8804,-6.8919],[139.8646,-6.9127],[139.9338,-6.9443],[140.0161,-6.9714],[140.0333,-6.9557],[140.0474,-6.9562],[140.0572,-6.9478],[140.0758,-6.9201],[140.068,-6.8829],[140.066,-6.4656]]]},"properties":{"code":"93.03.10","name":"Venaha","latitude":-6.698499679920025,"longitude":139.9159538498774}},{"type":"Feature","geometry":{"type":"Polygon","coordinates":[[[139.6241,-6.6943],[139.5518,-6.7243],[139.5628,-6.841],[139.5126,-6.9678],[139.5198,-7.0037],[139.5108,-7.0343],[139.5134,-7.0428],[139.5479,-7.0375],[139.5555,-7.052],[139.6141,-7.0696],[139.6904,-7.0428],[139.7014,-7.0358],[139.6841,-7.011],[139.7077,-6.9623],[139.6919,-6.8918],[139.6595,-6.8734],[139.6853,-6.808],[139.6845,-6.704],[139.6241,-6.6943]]]},"properties":{"code":"93.03.11","name":"Syahcame","latitude":-6.889947307202024,"longitude":139.6123919742085}},{"type":"Feature","geometry":{"type":"Polygon","coordinates":[[[139.7279,-6.6714],[139.6569,-6.6837],[139.6845,-6.704],[139.6853,-6.808],[139.6595,-6.8734],[139.6919,-6.8918],[139.7077,-6.9623],[139.6842,-7.0113],[139.7131,-7.0477],[139.729,-7.049],[139.7381,-7.0368],[139.7557,-7.0353],[139.7782,-7.0462],[139.786,-7.0384],[139.7888,-7.0727],[139.7609,-7.14],[139.8343,-7.3296],[140.0848,-7.2101],[140.0607,-7.1403],[140.0794,-7.0806],[140.041,-6.9748],[140.0572,-6.9478],[140.0471,-6.9565],[140.033,-6.9558],[140.0161,-6.9714],[139.9338,-6.9443],[139.8931,-6.9228],[139.8718,-6.9201],[139.8627,-6.909],[139.8584,-6.8701],[139.8773,-6.8614],[139.808,-6.8587],[139.7937,-6.8294],[139.776,-6.8011],[139.7279,-6.6714]]]},"properties":{"code":"93.03.12","name":"Yakomi","latitude":-7.0376059961599,"longitude":139.86578251128122}},{"type":"Feature","geometry":{"type":"Polygon","coordinates":[[[139.5518,-6.7243],[139.504,-6.7186],[139.4791,-6.7671],[139.4797,-6.7948],[139.4618,-6.8484],[139.4192,-6.8451],[139.4149,-6.8275],[139.3939,-6.8671],[139.4215,-6.9008],[139.3691,-6.9026],[139.3483,-6.9271],[139.2839,-6.8966],[139.2177,-6.912],[139.2161,-6.98],[139.227,-6.9989],[139.2349,-7.0152],[139.3131,-7.0503],[139.3716,-7.0253],[139.4199,-7.05],[139.479,-7.0446],[139.5099,-7.0536],[139.517,-7.0243],[139.5131,-7.0089],[139.5201,-7],[139.5126,-6.9678],[139.5628,-6.841],[139.5518,-6.7243]]]},"properties":{"code":"93.03.13","name":"Bamgi","latitude":-6.919999063960041,"longitude":139.4115688975563}},{"type":"Feature","geometry":{"type":"Polygon","coordinates":[[[139.5963,-5.8278],[139.5492,-5.8789],[139.521,-5.8739],[139.4883,-5.8832],[139.4591,-5.8589],[139.4246,-5.8695],[139.4204,-5.8796],[139.3764,-5.8935],[139.3634,-5.9154],[139.3057,-5.9763],[139.3385,-6.0488],[139.3373,-6.0897],[139.3528,-6.0863],[139.4345,-6.1007],[139.4603,-6.0776],[139.4989,-6.212],[139.5846,-6.1796],[139.6243,-6.2035],[139.6639,-6.1581],[139.6891,-6.0072],[139.6696,-5.9624],[139.6591,-5.8631],[139.6032,-5.8142],[139.5963,-5.8278]]]},"properties":{"code":"93.03.14","name":"Passue Bawah","latitude":-6.011348521803611,"longitude":139.52374600875177}},{"type":"Feature","geometry":{"type":"Polygon","coordinates":[[[139.7693,-5.5056],[139.8058,-5.5153],[139.7916,-5.4235],[139.7726,-5.3038],[139.7571,-5.2939],[139.7246,-5.3043],[139.6947,-5.3637],[139.5637,-5.4153],[139.4934,-5.5098],[139.5038,-5.5985],[139.4733,-5.6024],[139.5492,-5.6027],[139.5808,-5.581],[139.5942,-5.5816],[139.6092,-5.5913],[139.6041,-5.6012],[139.6327,-5.5922],[139.6341,-5.5349],[139.6709,-5.5009],[139.7693,-5.5056]]]},"properties":{"code":"93.03.15","name":"Ti Zain","latitude":-5.463551163185099,"longitude":139.64896484827878}}]}