{"type":"FeatureCollection","features":[{"type":"Feature","geometry":{"type":"Polygon","coordinates":[[[135.5486,-3.3146],[135.5024,-3.3569],[135.4811,-3.4075],[135.509,-3.4032],[135.5198,-3.4316],[135.5155,-3.4432],[135.555,-3.432],[135.6163,-3.371],[135.579,-3.3307],[135.5486,-3.3146]]]},"properties":{"code":"94.01.01","name":"Nabire","latitude":-3.379055893013054,"longitude":135.5400182631822}},{"type":"Feature","geometry":{"type":"Polygon","coordinates":[[[135.9903,-2.8752],[135.9437,-2.8431],[135.9232,-2.9615],[135.827,-3.0136],[135.7776,-3.0613],[135.7841,-3.1033],[135.7835,-3.1177],[135.7898,-3.141],[135.791,-3.1694],[135.8071,-3.183],[135.8694,-3.2556],[135.8722,-3.3288],[135.8175,-3.3689],[135.8465,-3.4648],[135.9961,-3.3894],[136.064,-3.3266],[136.1761,-3.2969],[136.1963,-3.234],[136.2378,-3.172],[136.2136,-3.0738],[136.1812,-3.0164],[136.1711,-2.9843],[136.1749,-2.9422],[136.119,-2.933],[136.0424,-2.9529],[136.0304,-2.9081],[135.9903,-2.8752]]]},"properties":{"code":"94.01.02","name":"Napan","latitude":-3.149943524953246,"longitude":135.99807079601993}},{"type":"Feature","geometry":{"type":"Polygon","coordinates":[[[135.2196,-3.3769],[135.1126,-3.3818],[135.0501,-3.3289],[134.9858,-3.3282],[134.9452,-3.2837],[134.888,-3.2587],[134.8511,-3.2065],[134.8625,-3.1591],[134.8317,-3.1248],[134.811,-3.0376],[134.8187,-3.0118],[134.8528,-3.0026],[134.8337,-2.9708],[134.7882,-3.0769],[134.7151,-3.302],[134.7276,-3.3183],[134.7273,-3.3609],[134.8329,-3.3862],[134.8687,-3.4242],[134.9269,-3.4599],[134.9765,-3.5139],[135.0143,-3.5988],[135.1346,-3.5822],[135.1391,-3.6125],[135.1744,-3.5736],[135.211,-3.5785],[135.2439,-3.5213],[135.2338,-3.4873],[135.2331,-3.4194],[135.2196,-3.3769]]]},"properties":{"code":"94.01.03","name":"Yaur","latitude":-3.3817765914858446,"longitude":134.9757788830936}},{"type":"Feature","geometry":{"type":"Polygon","coordinates":[[[135.7401,-3.5643],[135.8014,-3.5329],[135.6396,-3.346],[135.5624,-3.4264],[135.5156,-3.4431],[135.5115,-3.4563],[135.4871,-3.4678],[135.4821,-3.4907],[135.4649,-3.4772],[135.4114,-3.5011],[135.3834,-3.5453],[135.4041,-3.5971],[135.3977,-3.64],[135.6237,-3.6424],[135.7067,-3.548],[135.7401,-3.5643]]]},"properties":{"code":"94.01.04","name":"Uwapa","latitude":-3.5220775007144733,"longitude":135.58293209625322}},{"type":"Feature","geometry":{"type":"Polygon","coordinates":[[[135.4259,-3.3862],[135.3568,-3.3868],[135.3618,-3.489],[135.4114,-3.5011],[135.4649,-3.4772],[135.4506,-3.4643],[135.4194,-3.4618],[135.4259,-3.3862]]]},"properties":{"code":"94.01.05","name":"Wanggar","latitude":-3.44695026077698,"longitude":135.39725410458362}},{"type":"Feature","geometry":{"type":"Polygon","coordinates":[[[136.3228,-3.0366],[136.3068,-3.0036],[136.2136,-3.0738],[136.2378,-3.172],[136.1963,-3.234],[136.1761,-3.2969],[136.064,-3.3266],[135.9961,-3.3894],[135.8467,-3.4635],[135.8579,-3.5122],[135.8502,-3.5573],[135.9017,-3.695],[135.885,-3.7831],[135.9591,-3.7561],[136.114,-3.7837],[136.0937,-3.7385],[136.0263,-3.7058],[135.9904,-3.6206],[136.0192,-3.5557],[136.0516,-3.5453],[136.0908,-3.5039],[136.1027,-3.4701],[136.1291,-3.4785],[136.1533,-3.4621],[136.1595,-3.4438],[136.1544,-3.3637],[136.2228,-3.3113],[136.2478,-3.3025],[136.3173,-3.2534],[136.3182,-3.2293],[136.3063,-3.1969],[136.3244,-3.1489],[136.3143,-3.1327],[136.324,-3.0662],[136.3254,-3.0548],[136.3228,-3.0366]]]},"properties":{"code":"94.01.06","name":"Siriwo","latitude":-3.4424718683203657,"longitude":136.06443026091284}},{"type":"Feature","geometry":{"type":"Polygon","coordinates":[[[135.7841,-3.1033],[135.6359,-3.1681],[135.7029,-3.2757],[135.8315,-3.3031],[135.8722,-3.3288],[135.8694,-3.2556],[135.8071,-3.183],[135.791,-3.1694],[135.7898,-3.141],[135.7835,-3.1177],[135.7841,-3.1033]]]},"properties":{"code":"94.01.07","name":"Makimi","latitude":-3.2199112720518954,"longitude":135.76242515446896}},{"type":"Feature","geometry":{"type":"Polygon","coordinates":[[[134.6614,-2.7563],[134.6211,-2.7904],[134.5867,-2.7953],[134.6089,-2.9063],[134.6206,-2.9634],[134.6314,-3.0514],[134.6276,-3.0764],[134.617,-3.0836],[134.6332,-3.1147],[134.643,-3.1434],[134.6704,-3.1702],[134.6822,-3.203],[134.6781,-3.226],[134.6935,-3.2908],[134.7151,-3.302],[134.8324,-2.9612],[134.7779,-2.9827],[134.6915,-2.9712],[134.6648,-2.8585],[134.6614,-2.7563]]]},"properties":{"code":"94.01.08","name":"Teluk Umar","latitude":-3.0187312642017163,"longitude":134.7020671670556}},{"type":"Feature","geometry":{"type":"Polygon","coordinates":[[[135.7029,-3.2757],[135.6359,-3.1681],[135.5902,-3.2026],[135.5486,-3.3146],[135.579,-3.3307],[135.6163,-3.371],[135.7029,-3.2757]]]},"properties":{"code":"94.01.09","name":"Teluk Kimi","latitude":-3.2709905360318823,"longitude":135.62131892953613}},{"type":"Feature","geometry":{"type":"Polygon","coordinates":[[[135.3568,-3.3868],[135.3416,-3.3974],[135.2196,-3.3769],[135.2331,-3.4194],[135.2338,-3.4873],[135.2803,-3.4976],[135.211,-3.5785],[135.2847,-3.656],[135.3959,-3.7344],[135.4093,-3.679],[135.3886,-3.6277],[135.4041,-3.5971],[135.3834,-3.5453],[135.3618,-3.489],[135.3568,-3.3868]]]},"properties":{"code":"94.01.10","name":"Yaro","latitude":-3.5513738304424307,"longitude":135.31891233983754}},{"type":"Feature","geometry":{"type":"Polygon","coordinates":[[[136.048,-2.7205],[136.0197,-2.7119],[135.9458,-2.7828],[135.9434,-2.8427],[135.9903,-2.8752],[136.0304,-2.9081],[136.0424,-2.9529],[136.119,-2.933],[136.1735,-2.9406],[136.1711,-2.9843],[136.1812,-3.0164],[136.2104,-3.0557],[136.2976,-2.9871],[136.3056,-2.9305],[136.2714,-2.8873],[136.2606,-2.8673],[136.2174,-2.8068],[136.1437,-2.7973],[136.1432,-2.7729],[136.0889,-2.7794],[136.048,-2.7205]]]},"properties":{"code":"94.01.11","name":"Wapoga","latitude":-2.879211502100592,"longitude":136.13493104270864}},{"type":"Feature","geometry":{"type":"Polygon","coordinates":[[[135.4811,-3.4075],[135.4259,-3.3862],[135.4194,-3.4618],[135.4506,-3.4643],[135.4821,-3.4907],[135.4871,-3.4678],[135.509,-3.4032],[135.4811,-3.4075]]]},"properties":{"code":"94.01.12","name":"Nabire Barat","latitude":-3.42897190086791,"longitude":135.4641490995726}},{"type":"Feature","geometry":{"type":"Polygon","coordinates":[[[135.7742,-2.937],[135.7302,-2.941],[135.7099,-2.9596],[135.731,-2.9827],[135.7447,-2.9604],[135.7737,-2.9588],[135.7742,-2.937]]]},"properties":{"code":"94.01.13","name":"Moora","latitude":-2.9673821036385313,"longitude":135.71534237970477}},{"type":"Feature","geometry":{"type":"Polygon","coordinates":[[[135.9017,-3.695],[135.8321,-3.5255],[135.7401,-3.5643],[135.7067,-3.548],[135.6237,-3.6424],[135.4112,-3.6372],[135.4002,-3.6472],[135.4093,-3.679],[135.4516,-3.7082],[135.4797,-3.7049],[135.5889,-3.7278],[135.6583,-3.7824],[135.6763,-3.9033],[135.684,-3.8833],[135.6965,-3.8794],[135.7053,-3.8904],[135.7681,-3.9102],[135.8501,-3.8916],[135.9211,-3.911],[135.9544,-3.9154],[135.9697,-3.8927],[136.0112,-3.9027],[136.0408,-3.8543],[136.0633,-3.8887],[136.0814,-3.8923],[136.1192,-3.9039],[136.1263,-3.8568],[136.1169,-3.8569],[136.1016,-3.8068],[136.114,-3.7837],[135.9591,-3.7561],[135.885,-3.7831],[135.9017,-3.695]]]},"properties":{"code":"94.01.14","name":"Dipa","latitude":-3.7442866447081187,"longitude":135.78541561761259}},{"type":"Feature","geometry":{"type":"MultiPolygon","coordinates":[[[[135.4797,-3.7049],[135.4516,-3.7082],[135.5062,-3.7758],[135.5693,-3.7795],[135.5889,-3.7278],[135.4797,-3.7049]]],[[[135.2847,-3.656],[135.2567,-3.6489],[135.1463,-3.7555],[135.0984,-3.7743],[135.0344,-3.7792],[135.2747,-3.8393],[135.2876,-3.8087],[135.3137,-3.8194],[135.4118,-3.8935],[135.4447,-3.8647],[135.5665,-3.9466],[135.5922,-3.9076],[135.4665,-3.8423],[135.4044,-3.7898],[135.365,-3.7167],[135.2847,-3.656]]]]},"properties":{"code":"94.01.15","name":"Menou","latitude":-3.7826551969342623,"longitude":135.3428927705578}}]}