{"type":"FeatureCollection","features":[{"type":"Feature","geometry":{"type":"Polygon","coordinates":[[[136.9406,-4.5462],[136.956,-4.5105],[136.9579,-4.4733],[136.9572,-4.4556],[136.8945,-4.4553],[136.8958,-4.5309],[136.8649,-4.51],[136.8691,-4.4932],[136.7967,-4.4932],[136.7967,-4.5406],[136.8588,-4.582],[136.9769,-4.6161],[136.9766,-4.6824],[137.3263,-4.8033],[137.3326,-4.6648],[137.3403,-4.5706],[137.3531,-4.5073],[137.0701,-4.5045],[137.0142,-4.5461],[136.9406,-4.5462]]]},"properties":{"code":"94.04.01","name":"Mimika Baru","latitude":-4.6133428934412235,"longitude":137.13087448524186}},{"type":"Feature","geometry":{"type":"Polygon","coordinates":[[[137.4489,-4.4208],[137.3755,-4.4209],[137.3718,-4.4312],[137.3403,-4.5706],[137.3326,-4.6648],[137.3379,-4.6997],[137.3263,-4.8033],[137.5195,-4.915],[137.5877,-4.7097],[137.6461,-4.6767],[137.7294,-4.6767],[137.7311,-4.6467],[137.8275,-4.6457],[137.8277,-4.5968],[137.9251,-4.6014],[137.9242,-4.5929],[137.876,-4.5719],[137.8277,-4.5389],[137.8346,-4.4857],[137.8649,-4.4239],[137.4489,-4.4208]]]},"properties":{"code":"94.04.02","name":"Agimuga","latitude":-4.605821000103298,"longitude":137.55832312409194}},{"type":"Feature","geometry":{"type":"Polygon","coordinates":[[[136.8787,-4.6727],[136.7968,-4.6714],[136.7971,-4.6197],[136.7608,-4.6073],[136.7097,-4.6072],[136.7132,-4.7551],[136.6835,-4.8257],[136.7538,-4.8699],[136.8031,-4.7057],[136.8711,-4.7003],[136.8787,-4.6727]]]},"properties":{"code":"94.04.03","name":"Mimika Timur","latitude":-4.725525623358267,"longitude":136.75550926492485}},{"type":"Feature","geometry":{"type":"Polygon","coordinates":[[[136.6023,-4.3622],[136.6446,-4.2922],[136.6583,-4.2541],[136.6435,-4.2098],[136.5607,-4.2343],[136.5351,-4.2939],[136.5087,-4.2531],[136.4428,-4.2176],[136.4198,-4.2373],[136.4211,-4.3019],[136.3562,-4.3347],[136.3057,-4.3288],[136.2371,-4.3404],[136.2024,-4.3615],[136.1529,-4.343],[136.1299,-4.3775],[136.091,-4.3886],[136.093,-4.4134],[136.0828,-4.4296],[136.4062,-4.4698],[136.4014,-4.4946],[136.393,-4.698],[136.4628,-4.7315],[136.5386,-4.6134],[136.5685,-4.5195],[136.5945,-4.3794],[136.6023,-4.3622]]]},"properties":{"code":"94.04.04","name":"Mimika Barat","latitude":-4.42983510796642,"longitude":136.43372986972426}},{"type":"Feature","geometry":{"type":"Polygon","coordinates":[[[137.7862,-4.6734],[137.7693,-4.6475],[137.7397,-4.6467],[137.7303,-4.6472],[137.7294,-4.6767],[137.6461,-4.6767],[137.5877,-4.7097],[137.5195,-4.915],[137.5206,-4.9542],[137.518,-5.0071],[137.4671,-5.0412],[137.4473,-5.0763],[137.4442,-5.0994],[137.4963,-5.1451],[137.6411,-5.2158],[137.6778,-5.2177],[137.6837,-5.1975],[137.702,-5.1812],[137.705,-5.1514],[137.7447,-5.139],[137.7353,-5.1113],[137.7858,-5.0277],[137.82,-5.0259],[137.8651,-4.8634],[137.8921,-4.7515],[137.7862,-4.6734]]]},"properties":{"code":"94.04.05","name":"Jita","latitude":-4.924696832568688,"longitude":137.673991379621}},{"type":"Feature","geometry":{"type":"Polygon","coordinates":[[[137.6301,-4.199],[137.5922,-4.1908],[137.5926,-4.4215],[137.7663,-4.421],[137.7983,-4.3176],[137.8246,-4.2359],[137.8052,-4.2223],[137.7253,-4.2164],[137.7132,-4.1915],[137.6615,-4.203],[137.6301,-4.199]]]},"properties":{"code":"94.04.06","name":"Jila","latitude":-4.306593605540006,"longitude":137.69105518998185}},{"type":"Feature","geometry":{"type":"Polygon","coordinates":[[[137.3263,-4.8033],[136.9766,-4.6824],[136.8787,-4.6727],[136.8711,-4.7003],[136.8031,-4.7057],[136.77,-4.8134],[136.7872,-4.832],[136.8081,-4.8336],[136.7889,-4.8784],[136.8316,-4.914],[136.9001,-4.8806],[136.9745,-4.9376],[137.032,-4.9177],[137.0938,-4.9746],[137.1262,-4.9605],[137.1817,-5.0076],[137.2118,-4.9775],[137.2815,-5.0244],[137.3284,-5.0268],[137.395,-5.108],[137.4344,-5.1159],[137.457,-5.0525],[137.518,-5.0071],[137.5206,-4.9542],[137.5195,-4.915],[137.3263,-4.8033]]]},"properties":{"code":"94.04.07","name":"Mimika Timur Jauh","latitude":-4.869353656913144,"longitude":137.14825419039428}},{"type":"Feature","geometry":{"type":"Polygon","coordinates":[[[136.7097,-4.6072],[136.5407,-4.6069],[136.4706,-4.7117],[136.4616,-4.7401],[136.4882,-4.7397],[136.5182,-4.7694],[136.5728,-4.8005],[136.6835,-4.8257],[136.7132,-4.7551],[136.7097,-4.6072]]]},"properties":{"code":"94.04.08","name":"Mimika Tengah","latitude":-4.710564939784658,"longitude":136.6092914660178}},{"type":"Feature","geometry":{"type":"Polygon","coordinates":[[[136.8883,-4.3566],[136.829,-4.34],[136.8282,-4.3796],[136.7783,-4.4505],[136.814,-4.451],[136.821,-4.4767],[136.8691,-4.4932],[136.8919,-4.4785],[136.8945,-4.4553],[136.9572,-4.4556],[136.9564,-4.3707],[136.8883,-4.3566]]]},"properties":{"code":"94.04.09","name":"Kuala Kencana","latitude":-4.416905222859258,"longitude":136.87282926631656}},{"type":"Feature","geometry":{"type":"Polygon","coordinates":[[[137.1518,-4.0383],[137.0822,-4.0388],[137.0282,-4.0772],[137.0196,-4.1129],[137.0086,-4.1307],[136.9978,-4.1332],[136.9618,-4.1251],[136.9294,-4.1367],[136.9066,-4.1823],[136.8749,-4.1845],[136.8027,-4.2849],[136.7851,-4.3144],[136.7307,-4.3465],[136.6738,-4.4016],[136.6592,-4.3813],[136.5945,-4.3794],[136.5798,-4.4515],[136.7783,-4.4505],[136.8282,-4.3796],[136.829,-4.34],[136.8883,-4.3566],[136.9564,-4.3707],[136.956,-4.5103],[136.9406,-4.5462],[137.0142,-4.5461],[137.0701,-4.5045],[137.3531,-4.5073],[137.3735,-4.4257],[137.3957,-4.3853],[137.3684,-4.3362],[137.3742,-4.2826],[137.4138,-4.1987],[137.4873,-4.1201],[137.4229,-4.0934],[137.4064,-4.0741],[137.3254,-4.0719],[137.2856,-4.0541],[137.2667,-4.0698],[137.1931,-4.0574],[137.1627,-4.064],[137.1518,-4.0383]]]},"properties":{"code":"94.04.10","name":"Tembagapura","latitude":-4.29022779059219,"longitude":137.10884026517206}},{"type":"Feature","geometry":{"type":"Polygon","coordinates":[[[135.0867,-4.0006],[135.052,-3.9913],[135.0477,-4.0031],[135.0542,-4.0269],[135.0432,-4.0442],[135.042,-4.0494],[134.9748,-4.1361],[134.9359,-4.2266],[134.8855,-4.2525],[135.04,-4.3756],[135.1156,-4.4081],[135.2018,-4.4647],[135.3384,-4.4451],[135.3586,-4.4029],[135.3761,-4.3877],[135.3851,-4.3717],[135.4205,-4.3482],[135.4439,-4.3473],[135.4678,-4.3586],[135.4776,-4.3483],[135.5199,-4.3272],[135.5538,-4.2529],[135.5572,-4.2111],[135.5028,-4.2027],[135.4766,-4.2436],[135.4169,-4.2442],[135.3579,-4.1934],[135.1294,-4.1712],[135.084,-4.0574],[135.1517,-4.0572],[135.1374,-4.018],[135.1158,-4.0118],[135.0867,-4.0006]]]},"properties":{"code":"94.04.11","name":"Mimika Barat Jauh","latitude":-4.267325417763885,"longitude":135.19874421563853}},{"type":"Feature","geometry":{"type":"Polygon","coordinates":[[[135.7087,-4.2425],[135.6829,-4.195],[135.6193,-4.2326],[135.5844,-4.2184],[135.5572,-4.2111],[135.5538,-4.2529],[135.5199,-4.3272],[135.4776,-4.3483],[135.4685,-4.3586],[135.4443,-4.3473],[135.4309,-4.3585],[135.4211,-4.3482],[135.4125,-4.3505],[135.4017,-4.3663],[135.379,-4.377],[135.3761,-4.3877],[135.3586,-4.4029],[135.3489,-4.4299],[135.5058,-4.4451],[135.7188,-4.4972],[135.7921,-4.4838],[135.9077,-4.4863],[136.0376,-4.5779],[136.0482,-4.559],[136.0466,-4.5096],[136.0664,-4.4559],[136.0784,-4.4478],[136.0829,-4.4285],[136.093,-4.4134],[136.0776,-4.4028],[136.0231,-4.391],[136.0051,-4.3702],[136.031,-4.3644],[136.0405,-4.332],[136.0342,-4.2942],[136.0104,-4.2821],[135.9797,-4.2786],[135.9029,-4.2813],[135.8048,-4.2828],[135.7566,-4.282],[135.7218,-4.2612],[135.7087,-4.2425]]]},"properties":{"code":"94.04.12","name":"Mimika Barat Tengah","latitude":-4.382751826571974,"longitude":135.75864199268233}},{"type":"Feature","geometry":{"type":"Polygon","coordinates":[[[136.8958,-4.5309],[136.8919,-4.4785],[136.8649,-4.51],[136.8958,-4.5309]]]},"properties":{"code":"94.04.13","name":"Kwamki Narama","latitude":-4.499896936264207,"longitude":136.88035787812552}},{"type":"Feature","geometry":{"type":"Polygon","coordinates":[[[137.5616,-4.1484],[137.4873,-4.1201],[137.4138,-4.1987],[137.3742,-4.2826],[137.3684,-4.3362],[137.3957,-4.3853],[137.3755,-4.4209],[137.5926,-4.4215],[137.5922,-4.1908],[137.5802,-4.1821],[137.5616,-4.1484]]]},"properties":{"code":"94.04.14","name":"Hoya","latitude":-4.2911136524643485,"longitude":137.49103904968894}},{"type":"Feature","geometry":{"type":"Polygon","coordinates":[[[136.7967,-4.4932],[136.821,-4.4767],[136.814,-4.451],[136.5798,-4.4515],[136.5685,-4.5195],[136.5407,-4.6069],[136.7608,-4.6073],[136.7971,-4.6197],[136.7967,-4.4932]]]},"properties":{"code":"94.04.15","name":"Iwaka","latitude":-4.530875558130193,"longitude":136.68214033058175}},{"type":"Feature","geometry":{"type":"Polygon","coordinates":[[[136.9769,-4.6161],[136.8541,-4.5779],[136.7967,-4.5406],[136.7968,-4.6714],[136.9766,-4.6824],[136.9769,-4.6161]]]},"properties":{"code":"94.04.16","name":"Wania","latitude":-4.62777194833395,"longitude":136.87712542128432}},{"type":"Feature","geometry":{"type":"Polygon","coordinates":[[[136.4014,-4.4946],[136.4062,-4.4698],[136.0828,-4.4296],[136.0781,-4.4484],[136.0664,-4.4559],[136.0466,-4.5096],[136.0482,-4.559],[136.1112,-4.6213],[136.2321,-4.6624],[136.3245,-4.666],[136.393,-4.698],[136.4014,-4.4946]]]},"properties":{"code":"94.04.17","name":"Amar","latitude":-4.549691650914458,"longitude":136.2358161911964}},{"type":"Feature","geometry":{"type":"Polygon","coordinates":[[[137.865,-4.2778],[137.8327,-4.2117],[137.7983,-4.3176],[137.7663,-4.421],[137.9325,-4.4251],[137.9707,-4.2221],[137.9019,-4.2152],[137.865,-4.2778]]]},"properties":{"code":"94.04.18","name":"Alama","latitude":-4.327741785901013,"longitude":137.87145521677178}}]}