{"type":"FeatureCollection","features":[{"type":"Feature","geometry":{"type":"Polygon","coordinates":[[[138.476,-3.6848],[138.4842,-3.6992],[138.4984,-3.696],[138.484,-3.6844],[138.4754,-3.6678],[138.4702,-3.6824],[138.4628,-3.6934],[138.476,-3.6848]]]},"properties":{"code":"95.04.01","name":"Karubaga"}},{"type":"Feature","geometry":{"type":"Polygon","coordinates":[[[138.6546,-3.7116],[138.6986,-3.7236],[138.721,-3.6846],[138.7242,-3.6708],[138.7054,-3.689],[138.6636,-3.6774],[138.6546,-3.7116]]]},"properties":{"code":"95.04.02","name":"Bokondini"}},{"type":"Feature","geometry":{"type":"Polygon","coordinates":[[[138.3904,-3.6604],[138.3646,-3.6352],[138.3412,-3.6012],[138.3134,-3.6198],[138.342,-3.6714],[138.3572,-3.6654],[138.3536,-3.7036],[138.3676,-3.7098],[138.3648,-3.6762],[138.3748,-3.661],[138.3904,-3.6604]]]},"properties":{"code":"95.04.03","name":"Kanggime"}},{"type":"Feature","geometry":{"type":"Polygon","coordinates":[[[138.4148,-3.5932],[138.39,-3.54],[138.3422,-3.549],[138.3538,-3.585],[138.3632,-3.5724],[138.4068,-3.6068],[138.4148,-3.5932]]]},"properties":{"code":"95.04.04","name":"Kembu"}},{"type":"Feature","geometry":{"type":"Polygon","coordinates":[[[138.4334,-3.702],[138.437,-3.7758],[138.482,-3.8022],[138.4842,-3.7356],[138.4468,-3.7176],[138.4334,-3.702]]]},"properties":{"code":"95.04.05","name":"Goyage"}},{"type":"Feature","geometry":{"type":"Polygon","coordinates":[[[138.5994,-3.596],[138.558,-3.5604],[138.5478,-3.5768],[138.5226,-3.5786],[138.5044,-3.6424],[138.5666,-3.6544],[138.5832,-3.6906],[138.5948,-3.6912],[138.5942,-3.6772],[138.6092,-3.662],[138.6132,-3.6418],[138.6028,-3.641],[138.5994,-3.596]]]},"properties":{"code":"95.04.06","name":"Wunim"}},{"type":"Feature","geometry":{"type":"Polygon","coordinates":[[[138.1398,-3.244],[138.0786,-3.243],[138.1102,-3.287],[138.115,-3.4018],[138.1662,-3.4346],[138.2126,-3.4412],[138.2486,-3.4446],[138.2336,-3.3972],[138.2394,-3.3538],[138.1898,-3.3238],[138.1666,-3.2994],[138.1468,-3.2928],[138.1312,-3.2724],[138.1398,-3.244]]]},"properties":{"code":"95.04.07","name":"Wina"}},{"type":"Feature","geometry":{"type":"Polygon","coordinates":[[[138.39,-3.54],[138.3306,-3.5018],[138.3272,-3.5242],[138.3422,-3.549],[138.39,-3.54]]]},"properties":{"code":"95.04.08","name":"Umagi"}},{"type":"Feature","geometry":{"type":"Polygon","coordinates":[[[138.4704,-3.5594],[138.414,-3.5918],[138.5076,-3.5956],[138.5226,-3.5786],[138.5478,-3.5768],[138.562,-3.5488],[138.4704,-3.5594]]]},"properties":{"code":"95.04.09","name":"Panaga"}},{"type":"Feature","geometry":{"type":"Polygon","coordinates":[[[138.321,-3.6838],[138.3432,-3.6736],[138.3332,-3.655],[138.2916,-3.6594],[138.2826,-3.663],[138.2886,-3.686],[138.2852,-3.7052],[138.3266,-3.6884],[138.321,-3.6838]]]},"properties":{"code":"95.04.10","name":"Woniki"}},{"type":"Feature","geometry":{"type":"Polygon","coordinates":[[[138.492,-3.726],[138.4806,-3.721],[138.4796,-3.7778],[138.5108,-3.8138],[138.5054,-3.7808],[138.5148,-3.7536],[138.5076,-3.7258],[138.5106,-3.7172],[138.492,-3.726]]]},"properties":{"code":"95.04.11","name":"Kubu"}},{"type":"Feature","geometry":{"type":"Polygon","coordinates":[[[138.4826,-3.6818],[138.5062,-3.7056],[138.5326,-3.6938],[138.5038,-3.6792],[138.4992,-3.6642],[138.4826,-3.6818]]]},"properties":{"code":"95.04.12","name":"Konda/Kondaga"}},{"type":"Feature","geometry":{"type":"Polygon","coordinates":[[[138.4734,-3.6634],[138.4416,-3.668],[138.4552,-3.6888],[138.4752,-3.6756],[138.4734,-3.6634]]]},"properties":{"code":"95.04.13","name":"Nelawi"}},{"type":"Feature","geometry":{"type":"Polygon","coordinates":[[[138.4628,-3.6934],[138.4362,-3.6674],[138.4226,-3.6658],[138.4096,-3.685],[138.4628,-3.6934]]]},"properties":{"code":"95.04.14","name":"Kuari"}},{"type":"Feature","geometry":{"type":"Polygon","coordinates":[[[138.6396,-3.6946],[138.6616,-3.6778],[138.6452,-3.661],[138.6092,-3.662],[138.5942,-3.6772],[138.6044,-3.6828],[138.6324,-3.6852],[138.6396,-3.6946]]]},"properties":{"code":"95.04.15","name":"Bokoneri"}},{"type":"Feature","geometry":{"type":"Polygon","coordinates":[[[138.6156,-3.402],[138.5674,-3.3978],[138.5982,-3.5156],[138.558,-3.5604],[138.5994,-3.596],[138.6028,-3.641],[138.6132,-3.6418],[138.6452,-3.661],[138.6616,-3.6778],[138.7424,-3.6552],[138.7068,-3.5438],[138.7148,-3.5052],[138.6404,-3.4468],[138.6156,-3.402]]]},"properties":{"code":"95.04.16","name":"Bewani"}},{"type":"Feature","geometry":{"type":"Polygon","coordinates":[[[138.4096,-3.685],[138.424,-3.659],[138.3936,-3.7048],[138.4074,-3.7184],[138.4096,-3.685]]]},"properties":{"code":"95.04.17","name":"Nabunage"}},{"type":"Feature","geometry":{"type":"Polygon","coordinates":[[[138.3538,-3.585],[138.2886,-3.611],[138.3134,-3.6198],[138.3412,-3.6012],[138.3904,-3.6604],[138.4174,-3.6508],[138.4128,-3.6232],[138.4016,-3.6156],[138.4068,-3.6068],[138.3666,-3.5746],[138.3586,-3.574],[138.3538,-3.585]]]},"properties":{"code":"95.04.18","name":"Gilubandu"}},{"type":"Feature","geometry":{"type":"Polygon","coordinates":[[[138.342,-3.746],[138.3568,-3.6682],[138.321,-3.6838],[138.3266,-3.6884],[138.3366,-3.747],[138.342,-3.746]]]},"properties":{"code":"95.04.19","name":"Nunggawi"}},{"type":"Feature","geometry":{"type":"Polygon","coordinates":[[[138.2486,-3.4446],[138.3268,-3.4734],[138.3626,-3.3774],[138.378,-3.346],[138.32,-3.3362],[138.2774,-3.361],[138.2336,-3.3972],[138.2486,-3.4446]]]},"properties":{"code":"95.04.20","name":"Gundagi"}},{"type":"Feature","geometry":{"type":"Polygon","coordinates":[[[138.517,-3.6546],[138.5038,-3.6792],[138.5306,-3.6766],[138.517,-3.6546]]]},"properties":{"code":"95.04.21","name":"Numba"}},{"type":"Feature","geometry":{"type":"Polygon","coordinates":[[[138.5076,-3.5956],[138.414,-3.5918],[138.5044,-3.6424],[138.5076,-3.5956]]]},"properties":{"code":"95.04.22","name":"Timori"}},{"type":"Feature","geometry":{"type":"Polygon","coordinates":[[[138.4252,-3.414],[138.3564,-3.4022],[138.3266,-3.4698],[138.3444,-3.4818],[138.3578,-3.5056],[138.404,-3.4838],[138.4058,-3.4612],[138.45,-3.4772],[138.4252,-3.414]]]},"properties":{"code":"95.04.23","name":"Dundu"}},{"type":"Feature","geometry":{"type":"Polygon","coordinates":[[[138.4628,-3.6934],[138.4334,-3.702],[138.4468,-3.7176],[138.4842,-3.7356],[138.4628,-3.6934]]]},"properties":{"code":"95.04.24","name":"Geya"}},{"type":"Feature","geometry":{"type":"Polygon","coordinates":[[[138.558,-3.3772],[138.4118,-3.388],[138.4252,-3.414],[138.45,-3.4772],[138.4364,-3.5298],[138.562,-3.5488],[138.5982,-3.5156],[138.5674,-3.3978],[138.558,-3.3772]]]},"properties":{"code":"95.04.25","name":"Egiam"}},{"type":"Feature","geometry":{"type":"Polygon","coordinates":[[[138.5758,-3.776],[138.5508,-3.761],[138.539,-3.7844],[138.5636,-3.7944],[138.5706,-3.7766],[138.5868,-3.7992],[138.5964,-3.7824],[138.5758,-3.776]]]},"properties":{"code":"95.04.26","name":"Poganeri"}},{"type":"Feature","geometry":{"type":"Polygon","coordinates":[[[138.6324,-3.6852],[138.6044,-3.6828],[138.5684,-3.7244],[138.6396,-3.6946],[138.6324,-3.6852]]]},"properties":{"code":"95.04.27","name":"Kamboneri"}},{"type":"Feature","geometry":{"type":"Polygon","coordinates":[[[138.539,-3.785],[138.5412,-3.7684],[138.531,-3.734],[138.5106,-3.7172],[138.509,-3.7452],[138.5238,-3.7678],[138.514,-3.78],[138.539,-3.785]]]},"properties":{"code":"95.04.28","name":"Airgaram"}},{"type":"Feature","geometry":{"type":"Polygon","coordinates":[[[138.8016,-3.1898],[138.7848,-3.1954],[138.7494,-3.1752],[138.6746,-3.2368],[138.6268,-3.3088],[138.5684,-3.3168],[138.5224,-3.3232],[138.435,-3.2596],[138.378,-3.2838],[138.3776,-3.3448],[138.4118,-3.388],[138.558,-3.3772],[138.6498,-3.397],[138.7602,-3.4498],[138.8446,-3.3752],[138.9024,-3.2812],[138.908,-3.2576],[138.8776,-3.2254],[138.8016,-3.1898]]]},"properties":{"code":"95.04.29","name":"Wari/Taiyeve II"}},{"type":"Feature","geometry":{"type":"MultiPolygon","coordinates":[[[[138.378,-3.2838],[138.2918,-3.1744],[138.2614,-3.1894],[138.2126,-3.2214],[138.1596,-3.2676],[138.159,-3.278],[138.1482,-3.293],[138.2324,-3.3444],[138.2774,-3.361],[138.32,-3.3362],[138.378,-3.2838]]],[[[138.216,-3.1734],[138.2316,-3.1684],[138.2352,-3.1512],[138.1878,-3.1168],[138.1698,-3.107],[138.0746,-3.1314],[138.072,-3.198],[138.1398,-3.244],[138.1598,-3.1978],[138.184,-3.207],[138.216,-3.1734]]]]},"properties":{"code":"95.04.30","name":"Dow"}},{"type":"Feature","geometry":{"type":"Polygon","coordinates":[[[138.603,-3.751],[138.5684,-3.7244],[138.567,-3.7364],[138.5468,-3.7398],[138.5508,-3.761],[138.6148,-3.756],[138.603,-3.751]]]},"properties":{"code":"95.04.31","name":"Tagineri"}},{"type":"Feature","geometry":{"type":"Polygon","coordinates":[[[138.539,-3.785],[138.522,-3.7818],[138.5198,-3.7992],[138.5292,-3.8188],[138.5394,-3.8026],[138.539,-3.785]]]},"properties":{"code":"95.04.32","name":"Yuneri"}},{"type":"Feature","geometry":{"type":"Polygon","coordinates":[[[138.3936,-3.7048],[138.4034,-3.6592],[138.378,-3.66],[138.388,-3.6916],[138.3838,-3.7464],[138.3758,-3.7498],[138.3802,-3.764],[138.4194,-3.783],[138.4074,-3.7184],[138.3936,-3.7048]]]},"properties":{"code":"95.04.33","name":"Wakuwo"}},{"type":"Feature","geometry":{"type":"Polygon","coordinates":[[[138.4364,-3.5298],[138.4058,-3.4612],[138.404,-3.4838],[138.4322,-3.5568],[138.4704,-3.5594],[138.4364,-3.5298]]]},"properties":{"code":"95.04.34","name":"Gika"}},{"type":"Feature","geometry":{"type":"Polygon","coordinates":[[[138.3096,-3.5034],[138.271,-3.4904],[138.2554,-3.5578],[138.3272,-3.5242],[138.3096,-3.5034]]]},"properties":{"code":"95.04.35","name":"Telenggeme"}},{"type":"Feature","geometry":{"type":"Polygon","coordinates":[[[138.567,-3.7364],[138.5328,-3.694],[138.502,-3.7186],[138.5124,-3.7176],[138.5468,-3.7398],[138.567,-3.7364]]]},"properties":{"code":"95.04.36","name":"Anawi"}},{"type":"Feature","geometry":{"type":"Polygon","coordinates":[[[138.492,-3.726],[138.476,-3.7006],[138.476,-3.6848],[138.4628,-3.6934],[138.492,-3.726]]]},"properties":{"code":"95.04.37","name":"Wenam"}},{"type":"Feature","geometry":{"type":"Polygon","coordinates":[[[138.502,-3.7186],[138.476,-3.7006],[138.492,-3.726],[138.502,-3.7186]]]},"properties":{"code":"95.04.38","name":"Wugi"}},{"type":"Feature","geometry":{"type":"Polygon","coordinates":[[[138.6122,-3.7426],[138.6386,-3.741],[138.6424,-3.7312],[138.644,-3.7102],[138.6278,-3.7184],[138.6226,-3.7352],[138.6094,-3.731],[138.603,-3.751],[138.6148,-3.756],[138.6122,-3.7426]]]},"properties":{"code":"95.04.39","name":"Danime"}},{"type":"Feature","geometry":{"type":"Polygon","coordinates":[[[138.6546,-3.7116],[138.6636,-3.6774],[138.6082,-3.7186],[138.6226,-3.7352],[138.6278,-3.7184],[138.6546,-3.7116]]]},"properties":{"code":"95.04.40","name":"Tagime"}},{"type":"Feature","geometry":{"type":"Polygon","coordinates":[[[138.5832,-3.6906],[138.517,-3.6546],[138.5306,-3.6766],[138.553,-3.7084],[138.5948,-3.6912],[138.5832,-3.6906]]]},"properties":{"code":"95.04.41","name":"Kai"}},{"type":"Feature","geometry":{"type":"Polygon","coordinates":[[[138.3838,-3.7464],[138.3846,-3.7094],[138.3878,-3.6896],[138.378,-3.66],[138.363,-3.6824],[138.3692,-3.709],[138.3544,-3.7048],[138.342,-3.746],[138.372,-3.76],[138.3802,-3.764],[138.3758,-3.7498],[138.3838,-3.7464]]]},"properties":{"code":"95.04.42","name":"Aweku"}},{"type":"Feature","geometry":{"type":"Polygon","coordinates":[[[138.2886,-3.611],[138.2548,-3.6196],[138.2826,-3.663],[138.3332,-3.655],[138.3134,-3.6198],[138.2886,-3.611]]]},"properties":{"code":"95.04.43","name":"Bogonuk"}},{"type":"Feature","geometry":{"type":"Polygon","coordinates":[[[138.4826,-3.6818],[138.4912,-3.6788],[138.4992,-3.6568],[138.4606,-3.6254],[138.4826,-3.6818]]]},"properties":{"code":"95.04.44","name":"Li Anogomma"}},{"type":"Feature","geometry":{"type":"Polygon","coordinates":[[[138.4606,-3.6254],[138.4148,-3.5932],[138.4016,-3.6156],[138.4128,-3.6232],[138.424,-3.659],[138.4226,-3.6658],[138.4606,-3.6254]]]},"properties":{"code":"95.04.45","name":"Biuk"}},{"type":"Feature","geometry":{"type":"MultiPolygon","coordinates":[[[[138.5456,-3.8314],[138.5328,-3.8314],[138.557,-3.8342],[138.5742,-3.8408],[138.5762,-3.8352],[138.5456,-3.8314]]],[[[138.5902,-3.809],[138.5626,-3.8152],[138.564,-3.7946],[138.5538,-3.7938],[138.539,-3.7844],[138.5306,-3.8178],[138.595,-3.8178],[138.5902,-3.809]]]]},"properties":{"code":"95.04.46","name":"Yuko"}}]}