{"type":"FeatureCollection","features":[{"type":"Feature","geometry":{"type":"Polygon","coordinates":[[[132.6054,-1.1755],[132.5499,-1.14],[132.5015,-1.2076],[132.4652,-1.1958],[132.4058,-1.1923],[132.4011,-1.2411],[132.3972,-1.2806],[132.3993,-1.3127],[132.4044,-1.3441],[132.4476,-1.3499],[132.4673,-1.3591],[132.4756,-1.3669],[132.5206,-1.3566],[132.559,-1.3029],[132.5742,-1.3046],[132.5764,-1.2367],[132.6054,-1.1755]]]},"properties":{"code":"96.05.01","name":"Aifat","latitude":-1.2590918947565446,"longitude":132.4990117269415}},{"type":"Feature","geometry":{"type":"Polygon","coordinates":[[[132.6043,-1.0368],[132.5924,-1.0312],[132.5788,-1.0053],[132.5204,-1.017],[132.505,-1.0323],[132.4753,-1.0347],[132.413,-1.0171],[132.373,-1.0392],[132.4032,-1.0859],[132.3962,-1.1326],[132.3994,-1.1721],[132.4652,-1.1958],[132.5015,-1.2076],[132.5499,-1.14],[132.5812,-1.1207],[132.6043,-1.0368]]]},"properties":{"code":"96.05.02","name":"Aifat Utara","latitude":-1.1012739231889848,"longitude":132.4884555149954}},{"type":"Feature","geometry":{"type":"Polygon","coordinates":[[[132.7879,-1.3478],[132.7052,-1.3553],[132.659,-1.3861],[132.6052,-1.3964],[132.5877,-1.4086],[132.6021,-1.4544],[132.6123,-1.486],[132.6367,-1.4916],[132.6381,-1.5808],[132.6613,-1.6],[132.6267,-1.6324],[132.5952,-1.6601],[132.6012,-1.6818],[132.5822,-1.7184],[132.5863,-1.7438],[132.601,-1.7558],[132.5976,-1.7753],[132.6504,-1.8482],[132.7243,-1.8774],[132.7332,-1.8771],[132.7425,-1.8466],[132.7402,-1.8194],[132.747,-1.8144],[132.7643,-1.7326],[132.7695,-1.6513],[132.7738,-1.6215],[132.7806,-1.621],[132.7862,-1.6055],[132.7871,-1.573],[132.8025,-1.5629],[132.8489,-1.5022],[132.8542,-1.4804],[132.8125,-1.456],[132.7482,-1.3961],[132.7879,-1.3478]]]},"properties":{"code":"96.05.03","name":"Aifat Timur","latitude":-1.5981589509693934,"longitude":132.70465363680944}},{"type":"Feature","geometry":{"type":"Polygon","coordinates":[[[132.5809,-1.3772],[132.5481,-1.3392],[132.5204,-1.3567],[132.4756,-1.3669],[132.4673,-1.3591],[132.4347,-1.3887],[132.458,-1.4415],[132.4293,-1.5159],[132.4466,-1.5652],[132.4451,-1.5961],[132.4404,-1.6062],[132.4254,-1.6231],[132.4549,-1.6425],[132.467,-1.6408],[132.4765,-1.6615],[132.5142,-1.6746],[132.5952,-1.6601],[132.6267,-1.6324],[132.6613,-1.6],[132.6381,-1.5808],[132.6367,-1.4916],[132.6123,-1.486],[132.6021,-1.4544],[132.5899,-1.4306],[132.5809,-1.3772]]]},"properties":{"code":"96.05.04","name":"Aifat Selatan","latitude":-1.519728071163485,"longitude":132.53720144557033}},{"type":"Feature","geometry":{"type":"Polygon","coordinates":[[[132.2649,-1.4052],[132.3118,-1.3861],[132.2818,-1.3421],[132.2369,-1.375],[132.2366,-1.4004],[132.2649,-1.4052]]]},"properties":{"code":"96.05.05","name":"Aitinyo Barat","latitude":-1.3785138421468413,"longitude":132.27918270150548}},{"type":"Feature","geometry":{"type":"Polygon","coordinates":[[[132.4347,-1.3887],[132.3744,-1.3957],[132.3612,-1.4596],[132.3271,-1.5],[132.3629,-1.5379],[132.4203,-1.5693],[132.4387,-1.6015],[132.4363,-1.5967],[132.4451,-1.5961],[132.4466,-1.5652],[132.4293,-1.5159],[132.458,-1.4415],[132.4347,-1.3887]]]},"properties":{"code":"96.05.06","name":"Aitinyo","latitude":-1.4752662568909916,"longitude":132.40577786884523}},{"type":"Feature","geometry":{"type":"Polygon","coordinates":[[[132.3941,-1.2933],[132.3666,-1.2949],[132.3317,-1.3674],[132.363,-1.3699],[132.3744,-1.3957],[132.4476,-1.3499],[132.4044,-1.3441],[132.3993,-1.3127],[132.3941,-1.2933]]]},"properties":{"code":"96.05.07","name":"Aitinyo Utara","latitude":-1.3473998350441587,"longitude":132.37892176021194}},{"type":"Feature","geometry":{"type":"Polygon","coordinates":[[[132.2064,-1.2844],[132.1796,-1.2341],[132.1718,-1.2421],[132.171,-1.2668],[132.1686,-1.3029],[132.1787,-1.307],[132.2064,-1.2844]]]},"properties":{"code":"96.05.08","name":"Ayamaru","latitude":-1.274861689049616,"longitude":132.18372045815718}},{"type":"Feature","geometry":{"type":"Polygon","coordinates":[[[132.2781,-1.1892],[132.2443,-1.185],[132.2482,-1.2295],[132.2416,-1.2728],[132.2987,-1.2791],[132.316,-1.2196],[132.2914,-1.1824],[132.2781,-1.1892]]]},"properties":{"code":"96.05.09","name":"Ayamaru Utara","latitude":-1.2294740082947222,"longitude":132.27517494703199}},{"type":"Feature","geometry":{"type":"Polygon","coordinates":[[[132.3056,-1.2813],[132.2503,-1.271],[132.2562,-1.3154],[132.2888,-1.3191],[132.3056,-1.2813]]]},"properties":{"code":"96.05.10","name":"Ayamaru Timur","latitude":-1.2955591511569369,"longitude":132.27576636948564}},{"type":"Feature","geometry":{"type":"Polygon","coordinates":[[[132.3134,-0.9529],[132.2786,-0.926],[132.2658,-0.9249],[132.2654,-0.9377],[132.2433,-0.9442],[132.2293,-0.9331],[132.2224,-0.9603],[132.2247,-0.9855],[132.2436,-0.9941],[132.2683,-1.0259],[132.2873,-1.0323],[132.3232,-1.0358],[132.336,-1.0357],[132.3472,-1.0431],[132.3839,-1.0364],[132.413,-1.0171],[132.4028,-0.9906],[132.3134,-0.9529]]]},"properties":{"code":"96.05.11","name":"Mare","latitude":-0.9895297890415268,"longitude":132.3090354386303}},{"type":"Feature","geometry":{"type":"Polygon","coordinates":[[[132.6967,-1.1745],[132.6772,-1.1483],[132.6401,-1.1598],[132.6054,-1.1755],[132.5764,-1.2367],[132.5742,-1.3046],[132.5481,-1.3392],[132.5809,-1.3772],[132.5877,-1.4086],[132.6052,-1.3964],[132.659,-1.3861],[132.7052,-1.3553],[132.7369,-1.3403],[132.7568,-1.2411],[132.6967,-1.1745]]]},"properties":{"code":"96.05.12","name":"Aifat Timur Tengah","latitude":-1.2771859974595647,"longitude":132.65692098163973}},{"type":"Feature","geometry":{"type":"Polygon","coordinates":[[[132.821,-1.1867],[132.7755,-1.151],[132.7487,-1.1696],[132.7102,-1.1757],[132.6967,-1.1745],[132.7568,-1.2411],[132.7369,-1.3403],[132.7879,-1.3478],[132.7482,-1.3961],[132.8125,-1.456],[132.8552,-1.4486],[132.9051,-1.3969],[132.8969,-1.3873],[132.9095,-1.358],[132.9087,-1.3016],[132.8487,-1.257],[132.8411,-1.2412],[132.8191,-1.2312],[132.821,-1.1867]]]},"properties":{"code":"96.05.13","name":"Aifat Timur Jauh","latitude":-1.3113945862998084,"longitude":132.81259630930882}},{"type":"Feature","geometry":{"type":"Polygon","coordinates":[[[132.4254,-1.6231],[132.4265,-1.6382],[132.4153,-1.6562],[132.4006,-1.6839],[132.4204,-1.7589],[132.4767,-1.7303],[132.4887,-1.7574],[132.5075,-1.7678],[132.4975,-1.8017],[132.4428,-1.7814],[132.4386,-1.8246],[132.4468,-1.8849],[132.4818,-1.8509],[132.5223,-1.8202],[132.6112,-1.8494],[132.6504,-1.8491],[132.6459,-1.8346],[132.637,-1.8218],[132.601,-1.7558],[132.5886,-1.7473],[132.5824,-1.7279],[132.6003,-1.6676],[132.5452,-1.6723],[132.5371,-1.6789],[132.5142,-1.6746],[132.4765,-1.6615],[132.467,-1.6408],[132.4549,-1.6425],[132.4254,-1.6231]]]},"properties":{"code":"96.05.14","name":"Aifat Timur Selatan","latitude":-1.752492601439062,"longitude":132.50861892637414}},{"type":"Feature","geometry":{"type":"Polygon","coordinates":[[[132.1403,-1.2888],[132.1274,-1.2982],[132.1174,-1.3002],[132.1126,-1.3106],[132.1809,-1.3545],[132.2425,-1.3229],[132.2097,-1.3132],[132.1787,-1.307],[132.1686,-1.3029],[132.1403,-1.2888]]]},"properties":{"code":"96.05.15","name":"Ayamaru Selatan","latitude":-1.3211738476982344,"longitude":132.17352857898442}},{"type":"Feature","geometry":{"type":"Polygon","coordinates":[[[132.1251,-1.0821],[132.1099,-1.0946],[132.0838,-1.082],[132.0713,-1.0903],[132.0842,-1.1152],[132.0785,-1.1717],[132.0873,-1.1723],[132.0763,-1.2062],[132.0947,-1.2387],[132.1503,-1.2244],[132.1718,-1.2421],[132.1796,-1.2341],[132.2229,-1.2767],[132.2482,-1.2295],[132.2443,-1.185],[132.1983,-1.1757],[132.179,-1.1204],[132.1251,-1.0821]]]},"properties":{"code":"96.05.16","name":"Ayamaru Jaya","latitude":-1.1778966395290702,"longitude":132.1540867772962}},{"type":"Feature","geometry":{"type":"Polygon","coordinates":[[[132.2527,-1.3506],[132.1809,-1.3545],[132.2366,-1.4004],[132.2369,-1.375],[132.2527,-1.3506]]]},"properties":{"code":"96.05.17","name":"Ayamaru Selatan Jaya","latitude":-1.3627027422058566,"longitude":132.2274529349476}},{"type":"Feature","geometry":{"type":"Polygon","coordinates":[[[132.2527,-1.3506],[132.2895,-1.3192],[132.2566,-1.3157],[132.245,-1.3108],[132.2527,-1.3506]]]},"properties":{"code":"96.05.18","name":"Ayamaru Timur Selatan","latitude":-1.3329078840282718,"longitude":132.2720049849351}},{"type":"Feature","geometry":{"type":"Polygon","coordinates":[[[132.3556,-1.2013],[132.3436,-1.1951],[132.3305,-1.2012],[132.316,-1.2196],[132.2987,-1.2791],[132.3941,-1.2933],[132.3972,-1.2806],[132.4011,-1.2411],[132.3969,-1.2109],[132.3556,-1.2013]]]},"properties":{"code":"96.05.19","name":"Ayamaru Utara Timur","latitude":-1.2464880676803851,"longitude":132.35059033128667}},{"type":"Feature","geometry":{"type":"Polygon","coordinates":[[[132.2416,-1.2728],[132.2229,-1.2767],[132.2064,-1.2844],[132.2097,-1.3132],[132.2425,-1.3229],[132.245,-1.3108],[132.2416,-1.2728]]]},"properties":{"code":"96.05.20","name":"Ayamaru Tengah","latitude":-1.292305415966881,"longitude":132.23147455199052}},{"type":"Feature","geometry":{"type":"Polygon","coordinates":[[[132.171,-1.2668],[132.1551,-1.2488],[132.1585,-1.2376],[132.1602,-1.23],[132.1492,-1.2243],[132.0947,-1.2387],[132.1126,-1.3106],[132.1174,-1.3002],[132.1274,-1.2982],[132.1403,-1.2888],[132.171,-1.2668]]]},"properties":{"code":"96.05.21","name":"Ayamaru Barat","latitude":-1.2610118311825302,"longitude":132.1311193970051}},{"type":"Feature","geometry":{"type":"Polygon","coordinates":[[[132.3317,-1.3674],[132.2944,-1.4093],[132.2649,-1.4052],[132.3271,-1.5],[132.3612,-1.4596],[132.363,-1.3699],[132.3317,-1.3674]]]},"properties":{"code":"96.05.22","name":"Aitinyo Tengah","latitude":-1.429415342763633,"longitude":132.32370885592144}},{"type":"Feature","geometry":{"type":"Polygon","coordinates":[[[132.3056,-1.2813],[132.3145,-1.3402],[132.3666,-1.2949],[132.3056,-1.2813]]]},"properties":{"code":"96.05.23","name":"Aitinyo Raya","latitude":-1.310613878987157,"longitude":132.32281959366736}},{"type":"Feature","geometry":{"type":"Polygon","coordinates":[[[132.2683,-1.0259],[132.2436,-0.9941],[132.2282,-1.0163],[132.2077,-1.0573],[132.1952,-1.0495],[132.1907,-1.0709],[132.179,-1.1204],[132.1983,-1.1757],[132.2781,-1.1892],[132.2914,-1.1824],[132.3305,-1.2012],[132.3436,-1.1951],[132.3556,-1.2013],[132.3969,-1.2109],[132.3994,-1.1721],[132.3962,-1.1326],[132.4032,-1.0859],[132.373,-1.0392],[132.3472,-1.0431],[132.336,-1.0357],[132.3232,-1.0358],[132.2873,-1.0323],[132.2683,-1.0259]]]},"properties":{"code":"96.05.24","name":"Mare Selatan","latitude":-1.1120317678237206,"longitude":132.29515001961465}}]}