{"type":"FeatureCollection","features":[{"type":"Feature","geometry":{"type":"Polygon","coordinates":[[[131.2684,-0.8814],[131.2886,-0.8859],[131.2894,-0.8759],[131.2701,-0.8664],[131.2684,-0.8814]]]},"properties":{"code":"96.71.01","name":"Sorong","latitude":-0.8759110793548736,"longitude":131.27819253537928}},{"type":"Feature","geometry":{"type":"Polygon","coordinates":[[[131.3236,-0.9027],[131.323,-0.8853],[131.2868,-0.9087],[131.3105,-0.925],[131.3352,-0.9195],[131.3236,-0.9027]]]},"properties":{"code":"96.71.02","name":"Sorong Timur","latitude":-0.9072659171503037,"longitude":131.3125229962175}},{"type":"Feature","geometry":{"type":"Polygon","coordinates":[[[131.2702,-0.8237],[131.2491,-0.8339],[131.2452,-0.8622],[131.2804,-0.8615],[131.282,-0.8477],[131.2702,-0.8237]]]},"properties":{"code":"96.71.03","name":"Sorong Barat","latitude":-0.8492721824288781,"longitude":131.2639856288383}},{"type":"Feature","geometry":{"type":"Polygon","coordinates":[[[131.2055,-0.8827],[131.1847,-0.8976],[131.204,-0.8945],[131.2055,-0.8827]]]},"properties":{"code":"96.71.04","name":"Sorong Kepulauan","latitude":-0.9064854985019478,"longitude":131.22827033450073}},{"type":"Feature","geometry":{"type":"Polygon","coordinates":[[[131.3709,-0.874],[131.323,-0.8853],[131.3299,-0.8958],[131.3709,-0.874]]]},"properties":{"code":"96.71.05","name":"Sorong Utara","latitude":-0.869824817375938,"longitude":131.34151163399224}},{"type":"Feature","geometry":{"type":"Polygon","coordinates":[[[131.2643,-0.8797],[131.2559,-0.8761],[131.2861,-0.8963],[131.2952,-0.8902],[131.2643,-0.8797]]]},"properties":{"code":"96.71.06","name":"Sorong Manoi","latitude":-0.8906067308592551,"longitude":131.28721657300594}},{"type":"Feature","geometry":{"type":"Polygon","coordinates":[[[131.2684,-0.8814],[131.2693,-0.8675],[131.259,-0.8715],[131.2469,-0.8633],[131.2416,-0.8768],[131.2684,-0.8814]]]},"properties":{"code":"96.71.07","name":"Sorong Kota","latitude":-0.8727610738506799,"longitude":131.2557353786853}},{"type":"Feature","geometry":{"type":"Polygon","coordinates":[[[131.3756,-0.9517],[131.3883,-0.8948],[131.3299,-0.8958],[131.3236,-0.9027],[131.3352,-0.9195],[131.3363,-0.9232],[131.3304,-0.9283],[131.3343,-0.9475],[131.3756,-0.9517]]]},"properties":{"code":"96.71.08","name":"Klaurung","latitude":-0.9186152047945418,"longitude":131.35844704486627}},{"type":"Feature","geometry":{"type":"Polygon","coordinates":[[[131.3559,-0.782],[131.2247,-0.8221],[131.2491,-0.8339],[131.2657,-0.8238],[131.2779,-0.8409],[131.3022,-0.8368],[131.3165,-0.8441],[131.3559,-0.782]]]},"properties":{"code":"96.71.10","name":"Maladum Mes","latitude":-0.8182112957339124,"longitude":131.2963557798708}}]}